{
  "generatedAt": "2026-01-09T17:57:54.466Z",
  "stations": [
    {
      "icao": "LOWW",
      "iata": "VIE",
      "name": "Vienna International Airport",
      "updatedAt": "091750Z",
      "visibility_m": 7000,
      "taf_visibility_m": 800,
      "worst_visibility_m": 800,
      "ceiling_ft": 900,
      "hazards": [
        "FZFG",
        "BR",
        "SHSN"
      ],
      "severityScore": 100,
      "metarRaw": "METAR LOWW 091750Z 13003KT 7000 FEW006 BKN009 M06/M08 Q1001 NOSIG",
      "tafRaw": "TAF LOWW 091715Z 0918/1024 12003KT 6000 BKN008 TXM02/1013Z TNM06/1024Z \n  TEMPO 0918/1007 3000 BR \n  PROB30 \n  TEMPO 1000/1008 0800 FZFG BKN003 \n  FM101100 29012KT 9999 FEW030 \n  TEMPO 1017/1019 4000 -RASN BKN012 \n  TEMPO 1019/1022 28015G25KT 2000 SHSN BKN008",
      "metarHtml": "METAR LOWW 091750Z 13003KT 7000 FEW006 BKN009 M06/M08 Q1001 NOSIG",
      "tafHtml": "TAF LOWW 091715Z 0918/1024 12003KT 6000 BKN008 TXM02/1013Z TNM06/1024Z \n  TEMPO 0918/1007 3000 <span class=\"hl\">BR</span> \n  PROB30 \n  TEMPO 1000/1008 <span class=\"hl-vis\">0800</span> <span class=\"hl\">FZFG</span> BKN003 \n  FM101100 29012KT 9999 FEW030 \n  TEMPO 1017/1019 4000 -RASN BKN012 \n  TEMPO 1019/1022 28015G25KT 2000 <span class=\"hl\">SHSN</span> BKN008"
    },
    {
      "icao": "LQBK",
      "iata": "BNX",
      "name": "Banja Luka International Airport",
      "updatedAt": "091730Z",
      "visibility_m": 3000,
      "taf_visibility_m": 500,
      "worst_visibility_m": 500,
      "ceiling_ft": 2500,
      "hazards": [
        "BR",
        "RA",
        "FZFG",
        "FZRA"
      ],
      "severityScore": 100,
      "metarRaw": "METAR LQBK 091730Z 12007KT 3000 RA BR BKN025 OVC038 00/00 Q1002 NOSIG",
      "tafRaw": "TAF LQBK 091700Z 0918/1018 VRB03KT 7000 SCT040 TX00/1013Z TNM02/1006Z \n  TEMPO 0918/1008 3000 FZRA BKN009 BKN020 \n  TEMPO 1000/1008 2000 BR BKN004 OVC012 \n  PROB40 \n  TEMPO 1000/1008 0500 FZFG BKN002 OVC010 \n  PROB40 \n  TEMPO 1008/1012 3000 RASN BR BKN003 OVC015",
      "metarHtml": "METAR LQBK 091730Z 12007KT 3000 <span class=\"hl\">RA</span> <span class=\"hl\">BR</span> BKN025 OVC038 00/00 Q1002 NOSIG",
      "tafHtml": "TAF LQBK 091700Z 0918/1018 VRB03KT 7000 SCT040 TX00/1013Z TNM02/1006Z \n  TEMPO 0918/1008 3000 <span class=\"hl\">FZRA</span> BKN009 BKN020 \n  TEMPO 1000/1008 2000 <span class=\"hl\">BR</span> BKN004 OVC012 \n  PROB40 \n  TEMPO 1000/1008 <span class=\"hl-vis\">0500</span> <span class=\"hl\">FZFG</span> BKN002 OVC010 \n  PROB40 \n  TEMPO 1008/1012 3000 RASN <span class=\"hl\">BR</span> BKN003 OVC015"
    },
    {
      "icao": "LQTZ",
      "iata": "TZL",
      "name": "Tuzla International Airport",
      "updatedAt": "091730Z",
      "visibility_m": 1200,
      "taf_visibility_m": 500,
      "worst_visibility_m": 500,
      "ceiling_ft": 100,
      "hazards": [
        "BR",
        "FZFG",
        "FG",
        "FZRA",
        "SN"
      ],
      "severityScore": 100,
      "metarRaw": "METAR LQTZ 091730Z VRB02KT 1200 R09/1400U BR BKN001 M01/M01 Q0999",
      "tafRaw": "TAF LQTZ 091700Z 0918/1018 16005KT 3000 BR SCT005 BKN025 TX01/1013Z TNM03/1006Z \n  TEMPO 0918/1008 1200 FZRA BR BKN003 OVC015 \n  PROB40 \n  TEMPO 1000/1008 0500 FZFG BKN001 \n  TEMPO 1008/1018 1500 -SNRA BR BKN004 OVC015 \n  PROB30 \n  TEMPO 1014/1018 0800 SN FG BKN002 OVC010",
      "metarHtml": "METAR LQTZ 091730Z VRB02KT 1200 R09/1400U <span class=\"hl\">BR</span> BKN001 M01/M01 Q0999",
      "tafHtml": "TAF LQTZ 091700Z 0918/1018 16005KT 3000 <span class=\"hl\">BR</span> SCT005 BKN025 TX01/1013Z TNM03/1006Z \n  TEMPO 0918/1008 1200 <span class=\"hl\">FZRA</span> <span class=\"hl\">BR</span> BKN003 OVC015 \n  PROB40 \n  TEMPO 1000/1008 <span class=\"hl-vis\">0500</span> <span class=\"hl\">FZFG</span> BKN001 \n  TEMPO 1008/1018 1500 -SNRA <span class=\"hl\">BR</span> BKN004 OVC015 \n  PROB30 \n  TEMPO 1014/1018 <span class=\"hl-vis\">0800</span> <span class=\"hl\">SN</span> <span class=\"hl\">FG</span> BKN002 OVC010"
    },
    {
      "icao": "LRTR",
      "iata": "TSR",
      "name": "Timişoara Traian Vuia Airport",
      "updatedAt": "091730Z",
      "visibility_m": 4000,
      "taf_visibility_m": 350,
      "worst_visibility_m": 350,
      "ceiling_ft": 2700,
      "hazards": [
        "BR",
        "SN",
        "FZFG",
        "FZRA"
      ],
      "severityScore": 100,
      "metarRaw": "METAR LRTR 091730Z 11012KT 4000 -SN BR SCT008 OVC027 M03/M03 Q1002",
      "tafRaw": "TAF LRTR 091700Z 0918/1018 11010KT 3000 -SN BR BKN010 OVC025 \n  BECMG 0919/0921 VRB04KT \n  PROB40 \n  TEMPO 0919/0924 1500 -FZRA BR BKN005 OVC020 \n  BECMG 1000/1002 1500 BR OVC005 \n  TEMPO 1002/1009 0350 FZFG VV001 \n  BECMG 1010/1012 35010KT 5000 BKN010 \n  TEMPO 1012/1016 8000 NSW SCT015",
      "metarHtml": "METAR LRTR 091730Z 11012KT 4000 -<span class=\"hl\">SN</span> <span class=\"hl\">BR</span> SCT008 OVC027 M03/M03 Q1002",
      "tafHtml": "TAF LRTR 091700Z 0918/1018 11010KT 3000 -<span class=\"hl\">SN</span> <span class=\"hl\">BR</span> BKN010 OVC025 \n  BECMG 0919/0921 VRB04KT \n  PROB40 \n  TEMPO 0919/0924 1500 -<span class=\"hl\">FZRA</span> <span class=\"hl\">BR</span> BKN005 OVC020 \n  BECMG 1000/1002 1500 <span class=\"hl\">BR</span> OVC005 \n  TEMPO 1002/1009 <span class=\"hl-vis\">0350</span> <span class=\"hl\">FZFG</span> VV001 \n  BECMG 1010/1012 35010KT 5000 BKN010 \n  TEMPO 1012/1016 8000 NSW SCT015"
    },
    {
      "icao": "UAAA",
      "iata": "ALA",
      "name": "Almaty International Airport",
      "updatedAt": "091730Z",
      "visibility_m": 1900,
      "taf_visibility_m": 200,
      "worst_visibility_m": 200,
      "ceiling_ft": 500,
      "hazards": [
        "BR",
        "FZFG"
      ],
      "severityScore": 100,
      "metarRaw": "METAR UAAA 091730Z VRB01MPS 1900 R23L/P2000D BR OVC005 M05/M06 Q1021 NOSIG RMK QBB160",
      "tafRaw": "TAF UAAA 091701Z 0918/1018 17003MPS 1200 BR FU BKN011 OVC020 TX03/1009Z TNM07/1001Z \n  TEMPO 0918/1005 VRB01MPS 0200 FZFG VV001 \n  FM100500 01003MPS 4000 BR FU FEW050 SCT100 \n  BECMG 1012/1013 16003MPS SCT011 BKN020 \n  TEMPO 1012/1018 1200 BKN011 OVC020",
      "metarHtml": "METAR UAAA 091730Z VRB01MPS 1900 R23L/P2000D <span class=\"hl\">BR</span> OVC005 M05/M06 Q1021 NOSIG RMK QBB160",
      "tafHtml": "TAF UAAA 091701Z 0918/1018 17003MPS 1200 <span class=\"hl\">BR</span> FU BKN011 OVC020 TX03/1009Z TNM07/1001Z \n  TEMPO 0918/1005 VRB01MPS <span class=\"hl-vis\">0200</span> <span class=\"hl\">FZFG</span> VV001 \n  FM100500 01003MPS 4000 <span class=\"hl\">BR</span> FU FEW050 SCT100 \n  BECMG 1012/1013 16003MPS SCT011 BKN020 \n  TEMPO 1012/1018 1200 BKN011 OVC020"
    },
    {
      "icao": "UDSG",
      "iata": "LWN",
      "name": "Shirak International Airport",
      "updatedAt": "091730Z",
      "visibility_m": 1700,
      "taf_visibility_m": 200,
      "worst_visibility_m": 200,
      "ceiling_ft": 2600,
      "hazards": [
        "BR",
        "FZFG",
        "SN"
      ],
      "severityScore": 100,
      "metarRaw": "METAR UDSG 091730Z 25002KT 1700 R02/P2000D BR OVC026 M03/M03 Q1005 NOSIG",
      "tafRaw": "TAF UDSG 091700Z 0918/1018 VRB06KT 1500 BR OVC020 \n  TEMPO 0918/1003 0200 SN FZFG VV002",
      "metarHtml": "METAR UDSG 091730Z 25002KT 1700 R02/P2000D <span class=\"hl\">BR</span> OVC026 M03/M03 Q1005 NOSIG",
      "tafHtml": "TAF UDSG 091700Z 0918/1018 VRB06KT 1500 <span class=\"hl\">BR</span> OVC020 \n  TEMPO 0918/1003 <span class=\"hl-vis\">0200</span> <span class=\"hl\">SN</span> <span class=\"hl\">FZFG</span> VV002"
    },
    {
      "icao": "EHBK",
      "iata": "MST",
      "name": "Maastricht Aachen Airport",
      "updatedAt": "091755Z",
      "visibility_m": 6000,
      "taf_visibility_m": 800,
      "worst_visibility_m": 800,
      "ceiling_ft": 600,
      "hazards": [
        "DZ",
        "BR",
        "SN"
      ],
      "severityScore": 88,
      "metarRaw": "METAR EHBK 091755Z AUTO 23016KT 200V260 9000 DZ SCT005 OVC006 02/01 Q0987 BECMG 6000 RASN",
      "tafRaw": "TAF EHBK 091712Z 0918/1024 24013KT 9999 -RADZ BKN008 \n  BECMG 0919/0922 27008KT 2500 -SN BR BKN004 \n  TEMPO 0919/1005 0800 SN BKN002 \n  BECMG 1004/1007 5000 -SN BKN008 \n  BECMG 1009/1012 9999 NSW BKN012 \n  BECMG 1014/1017 VRB02KT BKN018",
      "metarHtml": "METAR EHBK 091755Z AUTO 23016KT 200V260 9000 <span class=\"hl\">DZ</span> SCT005 OVC006 02/01 Q0987 BECMG 6000 RASN",
      "tafHtml": "TAF EHBK 091712Z 0918/1024 24013KT 9999 -RADZ BKN008 \n  BECMG 0919/0922 27008KT 2500 -<span class=\"hl\">SN</span> <span class=\"hl\">BR</span> BKN004 \n  TEMPO 0919/1005 <span class=\"hl-vis\">0800</span> <span class=\"hl\">SN</span> BKN002 \n  BECMG 1004/1007 5000 -<span class=\"hl\">SN</span> BKN008 \n  BECMG 1009/1012 9999 NSW BKN012 \n  BECMG 1014/1017 VRB02KT BKN018"
    },
    {
      "icao": "EYKA",
      "iata": "KUN",
      "name": "Kaunas International Airport",
      "updatedAt": "091750Z",
      "visibility_m": 10000,
      "taf_visibility_m": 800,
      "worst_visibility_m": 800,
      "ceiling_ft": 1900,
      "hazards": [
        "SN",
        "BLSN"
      ],
      "severityScore": 77,
      "metarRaw": "METAR EYKA 091750Z 36011KT 320V040 9999 -SN BLSN OVC019 M09/M11 Q1001",
      "tafRaw": "TAF EYKA 091723Z 0918/1018 02012KT 3000 SN BLSN SCT005 OVC010 \n  TEMPO 0918/0924 0800 +SN BLSN BKN010 \n  TEMPO 1000/1008 5000 \n  TEMPO 1008/1012 1500 BKN005 \n  BECMG 1014/1016 7000 NSW OVC015",
      "metarHtml": "METAR EYKA 091750Z 36011KT 320V040 9999 -<span class=\"hl\">SN</span> <span class=\"hl\">BLSN</span> OVC019 M09/M11 Q1001",
      "tafHtml": "TAF EYKA 091723Z 0918/1018 02012KT 3000 <span class=\"hl\">SN</span> <span class=\"hl\">BLSN</span> SCT005 OVC010 \n  TEMPO 0918/0924 <span class=\"hl-vis\">0800</span> +<span class=\"hl\">SN</span> <span class=\"hl\">BLSN</span> BKN010 \n  TEMPO 1000/1008 5000 \n  TEMPO 1008/1012 1500 BKN005 \n  BECMG 1014/1016 7000 NSW OVC015"
    },
    {
      "icao": "EYVI",
      "iata": "VNO",
      "name": "Vilnius International Airport",
      "updatedAt": "091750Z",
      "visibility_m": 800,
      "taf_visibility_m": 800,
      "worst_visibility_m": 800,
      "ceiling_ft": 1300,
      "hazards": [
        "SN",
        "BLSN"
      ],
      "severityScore": 77,
      "metarRaw": "METAR EYVI 091750Z 01013KT 1400 R01/P2000N SN BLSN OVC013 M10/M12 Q0997 TEMPO 0800 +SN",
      "tafRaw": "TAF EYVI 091725Z 0918/1018 01013KT 1500 SN OVC015 \n  TEMPO 0918/0924 0800 +SN BLSN SCT005 OVC010 \n  TEMPO 1000/1006 5000 \n  BECMG 1010/1012 VRB04KT 6000 NSW \n  TEMPO 1012/1018 3000 SN BKN010",
      "metarHtml": "METAR EYVI 091750Z 01013KT 1400 R01/P2000N <span class=\"hl\">SN</span> <span class=\"hl\">BLSN</span> OVC013 M10/M12 Q0997 TEMPO <span class=\"hl-vis\">0800</span> +<span class=\"hl\">SN</span>",
      "tafHtml": "TAF EYVI 091725Z 0918/1018 01013KT 1500 <span class=\"hl\">SN</span> OVC015 \n  TEMPO 0918/0924 <span class=\"hl-vis\">0800</span> +<span class=\"hl\">SN</span> <span class=\"hl\">BLSN</span> SCT005 OVC010 \n  TEMPO 1000/1006 5000 \n  BECMG 1010/1012 VRB04KT 6000 NSW \n  TEMPO 1012/1018 3000 <span class=\"hl\">SN</span> BKN010"
    },
    {
      "icao": "EETN",
      "iata": "TLL",
      "name": "Lennart Meri Tallinn Airport",
      "updatedAt": "091750Z",
      "visibility_m": 10000,
      "taf_visibility_m": 500,
      "worst_visibility_m": 500,
      "ceiling_ft": null,
      "hazards": [
        "SN",
        "BLSN"
      ],
      "severityScore": 75,
      "metarRaw": "METAR EETN 091750Z 04013KT CAVOK M05/M08 Q1016 TEMPO 04016G30KT",
      "tafRaw": "TAF EETN 091730Z 0918/1018 05018G30KT 9999 DRSN SCT020 \n  PROB40 \n  TEMPO 0918/0921 BKN015 \n  BECMG 0921/0923 BKN012 \n  TEMPO 0922/1012 04022G35KT \n  BECMG 1007/1009 2000 SN BLSN \n  TEMPO 1009/1018 0500 +SN BLSN VV005",
      "metarHtml": "METAR EETN 091750Z 04013KT <span class=\"hl-vis\">CAVOK</span> M05/M08 Q1016 TEMPO 04016G30KT",
      "tafHtml": "TAF EETN 091730Z 0918/1018 05018G30KT 9999 DRSN SCT020 \n  PROB40 \n  TEMPO 0918/0921 BKN015 \n  BECMG 0921/0923 BKN012 \n  TEMPO 0922/1012 04022G35KT \n  BECMG 1007/1009 2000 <span class=\"hl\">SN</span> <span class=\"hl\">BLSN</span> \n  TEMPO 1009/1018 <span class=\"hl-vis\">0500</span> +<span class=\"hl\">SN</span> <span class=\"hl\">BLSN</span> VV005"
    },
    {
      "icao": "EPGD",
      "iata": "GDN",
      "name": "Gdańsk Lech Wałęsa Airport",
      "updatedAt": "091730Z",
      "visibility_m": 10000,
      "taf_visibility_m": 400,
      "worst_visibility_m": 400,
      "ceiling_ft": 2000,
      "hazards": [
        "SN",
        "BLSN"
      ],
      "severityScore": 75,
      "metarRaw": "METAR EPGD 091730Z 06008KT 030V090 9999 BKN020 M05/M08 Q1005",
      "tafRaw": "TAF EPGD 091730Z 0918/1018 05012KT 9999 BKN016 \n  PROB30 \n  TEMPO 0918/0923 -SN BKN010 \n  BECMG 0923/1002 -SN BKN010 \n  TEMPO 0923/1012 02015G28KT 1500 SN BLSN BKN005 \n  PROB40 1012/1014 BKN020 \n  BECMG 1015/1018 35015KT 2000 SN BKN005 \n  TEMPO 1016/1018 02015G28KT 0400 +SN BLSN BKN002",
      "metarHtml": "METAR EPGD 091730Z 06008KT 030V090 9999 BKN020 M05/M08 Q1005",
      "tafHtml": "TAF EPGD 091730Z 0918/1018 05012KT 9999 BKN016 \n  PROB30 \n  TEMPO 0918/0923 -<span class=\"hl\">SN</span> BKN010 \n  BECMG 0923/1002 -<span class=\"hl\">SN</span> BKN010 \n  TEMPO 0923/1012 02015G28KT 1500 <span class=\"hl\">SN</span> <span class=\"hl\">BLSN</span> BKN005 \n  PROB40 1012/1014 BKN020 \n  BECMG 1015/1018 35015KT 2000 <span class=\"hl\">SN</span> BKN005 \n  TEMPO 1016/1018 02015G28KT <span class=\"hl-vis\">0400</span> +<span class=\"hl\">SN</span> <span class=\"hl\">BLSN</span> BKN002"
    },
    {
      "icao": "LJLJ",
      "iata": "LJU",
      "name": "Ljubljana Jože Pučnik Airport",
      "updatedAt": "091730Z",
      "visibility_m": 5000,
      "taf_visibility_m": 4000,
      "worst_visibility_m": 4000,
      "ceiling_ft": 1300,
      "hazards": [
        "BR",
        "FZRA",
        "SN"
      ],
      "severityScore": 75,
      "metarRaw": "METAR LJLJ 091730Z 07002KT 5000 -FZRA BR SCT004 OVC013 M00/M01 Q1000 NOSIG",
      "tafRaw": "TAF LJLJ 091700Z 0918/1018 29006KT 6000 FEW003 BKN016 BKN030 \n  PROB40 \n  TEMPO 0918/0921 4000 -FZRA BKN014 \n  TEMPO 0921/1010 4000 -SN BKN010",
      "metarHtml": "METAR LJLJ 091730Z 07002KT 5000 -<span class=\"hl\">FZRA</span> <span class=\"hl\">BR</span> SCT004 OVC013 M00/M01 Q1000 NOSIG",
      "tafHtml": "TAF LJLJ 091700Z 0918/1018 29006KT 6000 FEW003 BKN016 BKN030 \n  PROB40 \n  TEMPO 0918/0921 4000 -<span class=\"hl\">FZRA</span> BKN014 \n  TEMPO 0921/1010 4000 -<span class=\"hl\">SN</span> BKN010"
    },
    {
      "icao": "UDYZ",
      "iata": "EVN",
      "name": "Zvartnots International Airport",
      "updatedAt": "091730Z",
      "visibility_m": 1500,
      "taf_visibility_m": 400,
      "worst_visibility_m": 400,
      "ceiling_ft": null,
      "hazards": [
        "BR",
        "FZFG"
      ],
      "severityScore": 75,
      "metarRaw": "METAR UDYZ 091730Z 28004KT 1500 1400W R08/P2000N BR BKN033CB M00/M02 Q1006 NOSIG",
      "tafRaw": "TAF UDYZ 091700Z 0918/1018 24006KT 1000 BR BKN030CB \n  TEMPO 0918/1006 0400 SHRASN FZFG BKN003 BKN020CB",
      "metarHtml": "METAR UDYZ 091730Z 28004KT 1500 1400W R08/P2000N <span class=\"hl\">BR</span> BKN033CB M00/M02 Q1006 NOSIG",
      "tafHtml": "TAF UDYZ 091700Z 0918/1018 24006KT 1000 <span class=\"hl\">BR</span> BKN030CB \n  TEMPO 0918/1006 <span class=\"hl-vis\">0400</span> SHRASN <span class=\"hl\">FZFG</span> BKN003 BKN020CB"
    },
    {
      "icao": "LYNI",
      "iata": "INI",
      "name": "Niš Constantine the Great Airport",
      "updatedAt": "091730Z",
      "visibility_m": 10000,
      "taf_visibility_m": 2000,
      "worst_visibility_m": 2000,
      "ceiling_ft": 7300,
      "hazards": [
        "RA",
        "FZRA",
        "SN"
      ],
      "severityScore": 65,
      "metarRaw": "METAR LYNI 091730Z 18003KT 9999 -RA FEW017 OVC073 01/00 Q1005 NOSIG",
      "tafRaw": "TAF LYNI 091700Z 0918/1018 17004KT 8000 SCT015 BKN030 TX01/0918Z TN00/1006Z \n  TEMPO 0918/1002 4000 -FZRA \n  TEMPO 1012/1015 4000 RASN \n  TEMPO 1015/1018 2000 SN BKN008 BKN025",
      "metarHtml": "METAR LYNI 091730Z 18003KT 9999 -<span class=\"hl\">RA</span> FEW017 OVC073 01/00 Q1005 NOSIG",
      "tafHtml": "TAF LYNI 091700Z 0918/1018 17004KT 8000 SCT015 BKN030 TX01/0918Z TN00/1006Z \n  TEMPO 0918/1002 4000 -<span class=\"hl\">FZRA</span> \n  TEMPO 1012/1015 4000 RASN \n  TEMPO 1015/1018 2000 <span class=\"hl\">SN</span> BKN008 BKN025"
    },
    {
      "icao": "EBCI",
      "iata": "CRL",
      "name": "Brussels South Charleroi Airport",
      "updatedAt": "091750Z",
      "visibility_m": 2000,
      "taf_visibility_m": 1200,
      "worst_visibility_m": 1200,
      "ceiling_ft": 400,
      "hazards": [
        "SN"
      ],
      "severityScore": 63,
      "metarRaw": "METAR EBCI 091750Z 25017KT 4000 -SNRA SCT004 BKN005 01/01 Q0990 TEMPO 2000 SN BKN004",
      "tafRaw": "TAF EBCI 091700Z 0918/1024 30010KT 6000 -RASN SCT006 BKN010 \n  TEMPO 0918/0921 2000 SNRA SN BKN004 \n  TEMPO 0921/1011 1200 SN BKN002 \n  BECMG 1021/1023 BKN015",
      "metarHtml": "METAR EBCI 091750Z 25017KT 4000 -SNRA SCT004 BKN005 01/01 Q0990 TEMPO 2000 <span class=\"hl\">SN</span> BKN004",
      "tafHtml": "TAF EBCI 091700Z 0918/1024 30010KT 6000 -RASN SCT006 BKN010 \n  TEMPO 0918/0921 2000 SNRA <span class=\"hl\">SN</span> BKN004 \n  TEMPO 0921/1011 1200 <span class=\"hl\">SN</span> BKN002 \n  BECMG 1021/1023 BKN015"
    },
    {
      "icao": "EDFH",
      "iata": "HHN",
      "name": "Frankfurt-Hahn Airport",
      "updatedAt": "091750Z",
      "visibility_m": 3600,
      "taf_visibility_m": 1200,
      "worst_visibility_m": 1200,
      "ceiling_ft": 200,
      "hazards": [
        "SN"
      ],
      "severityScore": 63,
      "metarRaw": "METAR EDFH 091750Z 24018G28KT 210V270 3600 -SN BKN002 01/M00 Q0989",
      "tafRaw": "TAF EDFH 091700Z 0918/1018 24015G25KT 6000 SCT002 BKN008 \n  PROB40 \n  TEMPO 0918/0924 24020G35KT \n  TEMPO 0918/1018 1200 SN OVC002 \n  BECMG 1003/1006 27010KT \n  BECMG 1012/1015 33008KT",
      "metarHtml": "METAR EDFH 091750Z 24018G28KT 210V270 3600 -<span class=\"hl\">SN</span> BKN002 01/M00 Q0989",
      "tafHtml": "TAF EDFH 091700Z 0918/1018 24015G25KT 6000 SCT002 BKN008 \n  PROB40 \n  TEMPO 0918/0924 24020G35KT \n  TEMPO 0918/1018 1200 <span class=\"hl\">SN</span> OVC002 \n  BECMG 1003/1006 27010KT \n  BECMG 1012/1015 33008KT"
    },
    {
      "icao": "LRBS",
      "iata": "BBU",
      "name": "Bucharest Băneasa Aurel Vlaicu International Airport",
      "updatedAt": "091730Z",
      "visibility_m": 10000,
      "taf_visibility_m": 5000,
      "worst_visibility_m": 5000,
      "ceiling_ft": null,
      "hazards": [
        "BR",
        "FZRA",
        "SN"
      ],
      "severityScore": 63,
      "metarRaw": "METAR LRBS 091730Z 26003KT 230V300 CAVOK 01/M03 Q1005 NOSIG",
      "tafRaw": "TAF LRBS 091700Z 0918/1018 VRB04KT CAVOK \n  TEMPO 1001/1006 -FZRA BKN015 BKN040 \n  BECMG 1012/1014 06014KT \n  BECMG 1016/1018 5000 -SN BR BKN010 OVC035",
      "metarHtml": "METAR LRBS 091730Z 26003KT 230V300 <span class=\"hl-vis\">CAVOK</span> 01/M03 Q1005 NOSIG",
      "tafHtml": "TAF LRBS 091700Z 0918/1018 VRB04KT <span class=\"hl-vis\">CAVOK</span> \n  TEMPO 1001/1006 -<span class=\"hl\">FZRA</span> BKN015 BKN040 \n  BECMG 1012/1014 06014KT \n  BECMG 1016/1018 5000 -<span class=\"hl\">SN</span> <span class=\"hl\">BR</span> BKN010 OVC035"
    },
    {
      "icao": "LROP",
      "iata": "OTP",
      "name": "Bucharest Henri Coandă International Airport",
      "updatedAt": "091730Z",
      "visibility_m": 10000,
      "taf_visibility_m": 5000,
      "worst_visibility_m": 5000,
      "ceiling_ft": null,
      "hazards": [
        "BR",
        "FZRA",
        "SN"
      ],
      "severityScore": 63,
      "metarRaw": "METAR LROP 091730Z 25004KT CAVOK M00/M03 Q1005 NOSIG",
      "tafRaw": "TAF LROP 091700Z 0918/1018 VRB04KT CAVOK \n  TEMPO 1001/1006 -FZRA BKN015 BKN040 \n  BECMG 1012/1014 06014KT \n  BECMG 1016/1018 5000 -SN BR BKN010 OVC035",
      "metarHtml": "METAR LROP 091730Z 25004KT <span class=\"hl-vis\">CAVOK</span> M00/M03 Q1005 NOSIG",
      "tafHtml": "TAF LROP 091700Z 0918/1018 VRB04KT <span class=\"hl-vis\">CAVOK</span> \n  TEMPO 1001/1006 -<span class=\"hl\">FZRA</span> BKN015 BKN040 \n  BECMG 1012/1014 06014KT \n  BECMG 1016/1018 5000 -<span class=\"hl\">SN</span> <span class=\"hl\">BR</span> BKN010 OVC035"
    },
    {
      "icao": "LZIB",
      "iata": "BTS",
      "name": "M. R. Štefánik Airport",
      "updatedAt": "091730Z",
      "visibility_m": 10000,
      "taf_visibility_m": 1400,
      "worst_visibility_m": 1400,
      "ceiling_ft": 900,
      "hazards": [
        "SN",
        "SHSN"
      ],
      "severityScore": 63,
      "metarRaw": "METAR LZIB 091730Z 03007KT 9999 OVC009 M05/M07 Q1001 NOSIG",
      "tafRaw": "TAF LZIB 091715Z 0918/1018 06005KT 9999 OVC008 \n  PROB30 \n  TEMPO 0918/1000 BKN015 \n  PROB30 \n  TEMPO 1000/1008 1400 BCFG OVC004 \n  BECMG 1008/1010 SCT010 SCT030 \n  PROB30 \n  TEMPO 1013/1015 4000 -SN BKN012 OVC025 \n  BECMG 1015/1017 01010KT \n  TEMPO 1015/1018 SHSN",
      "metarHtml": "METAR LZIB 091730Z 03007KT 9999 OVC009 M05/M07 Q1001 NOSIG",
      "tafHtml": "TAF LZIB 091715Z 0918/1018 06005KT 9999 OVC008 \n  PROB30 \n  TEMPO 0918/1000 BKN015 \n  PROB30 \n  TEMPO 1000/1008 1400 BCFG OVC004 \n  BECMG 1008/1010 SCT010 SCT030 \n  PROB30 \n  TEMPO 1013/1015 4000 -<span class=\"hl\">SN</span> BKN012 OVC025 \n  BECMG 1015/1017 01010KT \n  TEMPO 1015/1018 <span class=\"hl\">SHSN</span>"
    },
    {
      "icao": "LEXJ",
      "iata": "SDR",
      "name": "Seve Ballesteros-Santander Airport",
      "updatedAt": "091741Z",
      "visibility_m": 6000,
      "taf_visibility_m": 800,
      "worst_visibility_m": 800,
      "ceiling_ft": 6000,
      "hazards": [
        "TSRA",
        "RA"
      ],
      "severityScore": 62,
      "metarRaw": "SPECI LEXJ 091741Z 27017G29KT 240V300 6000 SHGR SCT040TCU BKN060 BKN070 08/04 Q1022",
      "tafRaw": "TAF LEXJ 091400Z 0915/1015 29015KT 9999 SCT025 TX11/0915Z TN07/0921Z \n  TEMPO 0915/1001 28018G35KT 3000 RA BKN010 \n  TEMPO 0915/0919 28028G45KT \n  PROB30 \n  TEMPO 0915/0918 0800 TSRA BKN010 SCT025CB \n  PROB40 \n  TEMPO 1001/1015 28018G28KT \n  TEMPO 1009/1015 3000 RA BKN010",
      "metarHtml": "SPECI LEXJ 091741Z 27017G29KT 240V300 6000 SHGR SCT040TCU BKN060 BKN070 08/04 Q1022",
      "tafHtml": "TAF LEXJ 091400Z 0915/1015 29015KT 9999 SCT025 TX11/0915Z TN07/0921Z \n  TEMPO 0915/1001 28018G35KT 3000 <span class=\"hl\">RA</span> BKN010 \n  TEMPO 0915/0919 28028G45KT \n  PROB30 \n  TEMPO 0915/0918 <span class=\"hl-vis\">0800</span> <span class=\"hl\">TSRA</span> BKN010 SCT025CB \n  PROB40 \n  TEMPO 1001/1015 28018G28KT \n  TEMPO 1009/1015 3000 <span class=\"hl\">RA</span> BKN010"
    },
    {
      "icao": "EPSC",
      "iata": "SZZ",
      "name": "Solidarity Szczecin–Goleniów Airport",
      "updatedAt": "091730Z",
      "visibility_m": 10000,
      "taf_visibility_m": 900,
      "worst_visibility_m": 900,
      "ceiling_ft": null,
      "hazards": [
        "BR",
        "SN",
        "BLSN"
      ],
      "severityScore": 60,
      "metarRaw": "METAR EPSC 091730Z 06007KT 030V090 CAVOK M05/M08 Q1004",
      "tafRaw": "TAF EPSC 091730Z 0918/1018 07010KT CAVOK \n  PROB40 \n  TEMPO 1003/1008 4000 -SN BR BKN010 \n  BECMG 1012/1015 01014KT 4000 SN BKN013 \n  TEMPO 1014/1018 03015G30KT 0900 SN BLSN BKN004",
      "metarHtml": "METAR EPSC 091730Z 06007KT 030V090 <span class=\"hl-vis\">CAVOK</span> M05/M08 Q1004",
      "tafHtml": "TAF EPSC 091730Z 0918/1018 07010KT <span class=\"hl-vis\">CAVOK</span> \n  PROB40 \n  TEMPO 1003/1008 4000 -<span class=\"hl\">SN</span> <span class=\"hl\">BR</span> BKN010 \n  BECMG 1012/1015 01014KT 4000 <span class=\"hl\">SN</span> BKN013 \n  TEMPO 1014/1018 03015G30KT 0900 <span class=\"hl\">SN</span> <span class=\"hl\">BLSN</span> BKN004"
    },
    {
      "icao": "LWSK",
      "iata": "SKP",
      "name": "Skopje International Airport",
      "updatedAt": "091750Z",
      "visibility_m": 10000,
      "taf_visibility_m": 10000,
      "worst_visibility_m": 10000,
      "ceiling_ft": null,
      "hazards": [
        "SN",
        "RA",
        "FZDZ"
      ],
      "severityScore": 58,
      "metarRaw": "METAR LWSK 091750Z VRB01KT CAVOK M02/M05 Q1008 NOSIG",
      "tafRaw": "TAF LWSK 091740Z 0918/1018 VRB02KT 9999 FEW050 \n  BECMG 0919/0921 SCT040 BKN070 \n  TEMPO 0922/1003 -SN SCT025 OVC035 \n  PROB30 \n  TEMPO 0923/1003 FZDZ SCT025 OVC035 \n  TEMPO 1012/1018 RA SCT020 OVC040",
      "metarHtml": "METAR LWSK 091750Z VRB01KT <span class=\"hl-vis\">CAVOK</span> M02/M05 Q1008 NOSIG",
      "tafHtml": "TAF LWSK 091740Z 0918/1018 VRB02KT 9999 FEW050 \n  BECMG 0919/0921 SCT040 BKN070 \n  TEMPO 0922/1003 -<span class=\"hl\">SN</span> SCT025 OVC035 \n  PROB30 \n  TEMPO 0923/1003 <span class=\"hl\">FZDZ</span> SCT025 OVC035 \n  TEMPO 1012/1018 <span class=\"hl\">RA</span> SCT020 OVC040"
    },
    {
      "icao": "EYPA",
      "iata": "PLQ",
      "name": "Palanga International Airport",
      "updatedAt": "091750Z",
      "visibility_m": 10000,
      "taf_visibility_m": 800,
      "worst_visibility_m": 800,
      "ceiling_ft": null,
      "hazards": [
        "BLSN",
        "SHSN"
      ],
      "severityScore": 57,
      "metarRaw": "METAR EYPA 091750Z 04016KT CAVOK M07/M11 Q1007",
      "tafRaw": "TAF EYPA 091722Z 0918/1018 04014KT 9000 NSC \n  TEMPO 0918/0922 04015G25KT \n  BECMG 0922/0924 BKN025 \n  TEMPO 1000/1006 5000 SHSN BKN020CB \n  TEMPO 1006/1015 01015G25KT 0800 +SHSN BLSN BKN005 BKN015CB",
      "metarHtml": "METAR EYPA 091750Z 04016KT <span class=\"hl-vis\">CAVOK</span> M07/M11 Q1007",
      "tafHtml": "TAF EYPA 091722Z 0918/1018 04014KT 9000 NSC \n  TEMPO 0918/0922 04015G25KT \n  BECMG 0922/0924 BKN025 \n  TEMPO 1000/1006 5000 <span class=\"hl\">SHSN</span> BKN020CB \n  TEMPO 1006/1015 01015G25KT <span class=\"hl-vis\">0800</span> +<span class=\"hl\">SHSN</span> <span class=\"hl\">BLSN</span> BKN005 BKN015CB"
    },
    {
      "icao": "OJAI",
      "iata": "AMM",
      "name": "Queen Alia International Airport",
      "updatedAt": "091700Z",
      "visibility_m": 2500,
      "taf_visibility_m": 1500,
      "worst_visibility_m": 1500,
      "ceiling_ft": null,
      "hazards": [
        "BR",
        "TSRA",
        "RA"
      ],
      "severityScore": 57,
      "metarRaw": "METAR OJAI 091700Z 26014KT 2500 BR FEW020 SCT030 08/06 Q1015 NOSIG",
      "tafRaw": "TAF OJAI 091700Z 0918/1024 26016KT 2500 RA BR SCT030 BKN035 \n  TEMPO 0918/0921 27025G35KT 1500 TSRA FEW020CB SCT025 OVC030",
      "metarHtml": "METAR OJAI 091700Z 26014KT 2500 <span class=\"hl\">BR</span> FEW020 SCT030 08/06 Q1015 NOSIG",
      "tafHtml": "TAF OJAI 091700Z 0918/1024 26016KT 2500 <span class=\"hl\">RA</span> <span class=\"hl\">BR</span> SCT030 BKN035 \n  TEMPO 0918/0921 27025G35KT 1500 <span class=\"hl\">TSRA</span> FEW020CB SCT025 OVC030"
    },
    {
      "icao": "EDDS",
      "iata": "STR",
      "name": "Stuttgart Airport",
      "updatedAt": "091750Z",
      "visibility_m": 10000,
      "taf_visibility_m": 1200,
      "worst_visibility_m": 1200,
      "ceiling_ft": null,
      "hazards": [
        "RA",
        "SHRA",
        "SN"
      ],
      "severityScore": 54,
      "metarRaw": "METAR EDDS 091750Z AUTO 21009KT 180V250 9999 -RA FEW022 04/01 Q0994 TEMPO 20015G30KT SHRA",
      "tafRaw": "TAF EDDS 091700Z 0918/1018 20013KT 9999 BKN025 \n  PROB30 \n  TEMPO 0918/0922 21020G30KT SHRA BKN020TCU \n  TEMPO 0922/1004 3000 SNRA BKN014 \n  BECMG 1000/1004 23008KT \n  PROB40 \n  TEMPO 1004/1018 1200 SN BKN010",
      "metarHtml": "METAR EDDS 091750Z AUTO 21009KT 180V250 9999 -<span class=\"hl\">RA</span> FEW022 04/01 Q0994 TEMPO 20015G30KT <span class=\"hl\">SHRA</span>",
      "tafHtml": "TAF EDDS 091700Z 0918/1018 20013KT 9999 BKN025 \n  PROB30 \n  TEMPO 0918/0922 21020G30KT <span class=\"hl\">SHRA</span> BKN020TCU \n  TEMPO 0922/1004 3000 SNRA BKN014 \n  BECMG 1000/1004 23008KT \n  PROB40 \n  TEMPO 1004/1018 1200 <span class=\"hl\">SN</span> BKN010"
    },
    {
      "icao": "EDSB",
      "iata": "FKB",
      "name": "Karlsruhe Baden-Baden Airport",
      "updatedAt": "091750Z",
      "visibility_m": 6000,
      "taf_visibility_m": 1200,
      "worst_visibility_m": 1200,
      "ceiling_ft": 2000,
      "hazards": [
        "RA",
        "SN",
        "SHRA"
      ],
      "severityScore": 54,
      "metarRaw": "METAR EDSB 091750Z 21016KT 6000 RA FEW017 BKN020 OVC032 05/03 Q0995",
      "tafRaw": "TAF EDSB 091700Z 0918/1018 20015G25KT 9999 BKN030 \n  TEMPO 0918/0921 22020G30KT 4500 SHRA BKN025CB \n  TEMPO 0921/1008 RA \n  BECMG 1008/1011 23009KT \n  TEMPO 1008/1014 3000 RASN BKN012 \n  TEMPO 1014/1018 1200 SN BKN008",
      "metarHtml": "METAR EDSB 091750Z 21016KT 6000 <span class=\"hl\">RA</span> FEW017 BKN020 OVC032 05/03 Q0995",
      "tafHtml": "TAF EDSB 091700Z 0918/1018 20015G25KT 9999 BKN030 \n  TEMPO 0918/0921 22020G30KT 4500 <span class=\"hl\">SHRA</span> BKN025CB \n  TEMPO 0921/1008 <span class=\"hl\">RA</span> \n  BECMG 1008/1011 23009KT \n  TEMPO 1008/1014 3000 RASN BKN012 \n  TEMPO 1014/1018 1200 <span class=\"hl\">SN</span> BKN008"
    },
    {
      "icao": "LHBP",
      "iata": "BUD",
      "name": "Budapest Liszt Ferenc International Airport",
      "updatedAt": "091730Z",
      "visibility_m": 7000,
      "taf_visibility_m": 2500,
      "worst_visibility_m": 2500,
      "ceiling_ft": 900,
      "hazards": [
        "BR",
        "SN"
      ],
      "severityScore": 53,
      "metarRaw": "METAR LHBP 091730Z 11004KT 7000 -SG OVC011 M07/M09 Q1002 TEMPO OVC009",
      "tafRaw": "TAF LHBP 091715Z 0918/1018 09006KT 7000 BKN015 BKN025 \n  BECMG 0918/0921 03005KT \n  TEMPO 0918/1011 2500 -SG -SN BR OVC003 \n  BECMG 0923/1002 VRB03KT \n  TEMPO 1011/1018 22005KT 4000 BR BKN008 BKN025",
      "metarHtml": "METAR LHBP 091730Z 11004KT 7000 -SG OVC011 M07/M09 Q1002 TEMPO OVC009",
      "tafHtml": "TAF LHBP 091715Z 0918/1018 09006KT 7000 BKN015 BKN025 \n  BECMG 0918/0921 03005KT \n  TEMPO 0918/1011 2500 -SG -<span class=\"hl\">SN</span> <span class=\"hl\">BR</span> OVC003 \n  BECMG 0923/1002 VRB03KT \n  TEMPO 1011/1018 22005KT 4000 <span class=\"hl\">BR</span> BKN008 BKN025"
    },
    {
      "icao": "LKPR",
      "iata": "PRG",
      "name": "Václav Havel Airport Prague",
      "updatedAt": "091730Z",
      "visibility_m": 5000,
      "taf_visibility_m": 600,
      "worst_visibility_m": 600,
      "ceiling_ft": 4300,
      "hazards": [
        "BR",
        "SN"
      ],
      "severityScore": 53,
      "metarRaw": "METAR LKPR 091730Z 09005KT 070V160 5000 -SN BR SCT005 SCT012 BKN043 M04/M05 Q0997 NOSIG",
      "tafRaw": "TAF LKPR 091700Z 0918/1024 09007KT 7000 SCT008 OVC015 \n  TEMPO 0918/1014 04006KT 3000 SN BR SCT002 OVC006 \n  PROB30 \n  TEMPO 0918/1009 VRB02KT 0600 +SN BKN002 \n  BECMG 1016/1018 01012KT 9999 SCT025 \n  PROB30 \n  TEMPO 1021/1024 5000 -SN BR BKN017",
      "metarHtml": "METAR LKPR 091730Z 09005KT 070V160 5000 -<span class=\"hl\">SN</span> <span class=\"hl\">BR</span> SCT005 SCT012 BKN043 M04/M05 Q0997 NOSIG",
      "tafHtml": "TAF LKPR 091700Z 0918/1024 09007KT 7000 SCT008 OVC015 \n  TEMPO 0918/1014 04006KT 3000 <span class=\"hl\">SN</span> <span class=\"hl\">BR</span> SCT002 OVC006 \n  PROB30 \n  TEMPO 0918/1009 VRB02KT <span class=\"hl-vis\">0600</span> +<span class=\"hl\">SN</span> BKN002 \n  BECMG 1016/1018 01012KT 9999 SCT025 \n  PROB30 \n  TEMPO 1021/1024 5000 -<span class=\"hl\">SN</span> <span class=\"hl\">BR</span> BKN017"
    },
    {
      "icao": "LRCV",
      "iata": "CRA",
      "name": "Craiova International Airport",
      "updatedAt": "091730Z",
      "visibility_m": 10000,
      "taf_visibility_m": 5000,
      "worst_visibility_m": 5000,
      "ceiling_ft": 3300,
      "hazards": [
        "SN",
        "FZRA"
      ],
      "severityScore": 53,
      "metarRaw": "METAR LRCV 091730Z 19004KT 9999 -SN SCT024 BKN033 00/M02 Q1004",
      "tafRaw": "TAF LRCV 091700Z 0918/1003 VRB04KT 9999 BKN040 \n  TEMPO 0918/0920 5000 -SN BKN015 BKN035 \n  TEMPO 0920/1002 -FZRA BKN015 BKN035",
      "metarHtml": "METAR LRCV 091730Z 19004KT 9999 -<span class=\"hl\">SN</span> SCT024 BKN033 00/M02 Q1004",
      "tafHtml": "TAF LRCV 091700Z 0918/1003 VRB04KT 9999 BKN040 \n  TEMPO 0918/0920 5000 -<span class=\"hl\">SN</span> BKN015 BKN035 \n  TEMPO 0920/1002 -<span class=\"hl\">FZRA</span> BKN015 BKN035"
    },
    {
      "icao": "EDDK",
      "iata": "CGN",
      "name": "Cologne Bonn Airport",
      "updatedAt": "091750Z",
      "visibility_m": 10000,
      "taf_visibility_m": 1200,
      "worst_visibility_m": 1200,
      "ceiling_ft": 2100,
      "hazards": [
        "RA",
        "BR",
        "SN"
      ],
      "severityScore": 50,
      "metarRaw": "METAR EDDK 091750Z AUTO 22011KT 190V250 9999 -RA BKN021 OVC025 04/01 Q0988 TEMPO RA",
      "tafRaw": "TAF EDDK 091700Z 0918/1024 23008KT 9999 FEW014 OVC025 \n  TEMPO 0918/0921 RA \n  BECMG 0918/0921 BKN012 \n  TEMPO 0921/0924 4000 RASN OVC008 \n  BECMG 1000/1002 OVC008 \n  TEMPO 1000/1005 1200 SN BKN003 \n  BECMG 1003/1006 29007KT \n  TEMPO 1005/1015 1500 -SN BR BKN003 \n  BECMG 1011/1014 36005KT \n  BECMG 1013/1016 SCT010 \n  BECMG 1018/1021 VRB03KT",
      "metarHtml": "METAR EDDK 091750Z AUTO 22011KT 190V250 9999 -<span class=\"hl\">RA</span> BKN021 OVC025 04/01 Q0988 TEMPO <span class=\"hl\">RA</span>",
      "tafHtml": "TAF EDDK 091700Z 0918/1024 23008KT 9999 FEW014 OVC025 \n  TEMPO 0918/0921 <span class=\"hl\">RA</span> \n  BECMG 0918/0921 BKN012 \n  TEMPO 0921/0924 4000 RASN OVC008 \n  BECMG 1000/1002 OVC008 \n  TEMPO 1000/1005 1200 <span class=\"hl\">SN</span> BKN003 \n  BECMG 1003/1006 29007KT \n  TEMPO 1005/1015 1500 -<span class=\"hl\">SN</span> <span class=\"hl\">BR</span> BKN003 \n  BECMG 1011/1014 36005KT \n  BECMG 1013/1016 SCT010 \n  BECMG 1018/1021 VRB03KT"
    },
    {
      "icao": "EPWA",
      "iata": "WAW",
      "name": "Warsaw Chopin Airport",
      "updatedAt": "091730Z",
      "visibility_m": 10000,
      "taf_visibility_m": 1500,
      "worst_visibility_m": 1500,
      "ceiling_ft": 1800,
      "hazards": [
        "SN",
        "BR"
      ],
      "severityScore": 50,
      "metarRaw": "METAR EPWA 091730Z 35009KT 9999 -SN BKN018 M08/M12 Q1002 NOSIG",
      "tafRaw": "TAF EPWA 091730Z 0918/1018 33008KT 8000 BKN020 \n  PROB40 0922/1008 3000 -SG BR BKN004 \n  TEMPO 1016/1018 1500 SN BR BKN003",
      "metarHtml": "METAR EPWA 091730Z 35009KT 9999 -<span class=\"hl\">SN</span> BKN018 M08/M12 Q1002 NOSIG",
      "tafHtml": "TAF EPWA 091730Z 0918/1018 33008KT 8000 BKN020 \n  PROB40 0922/1008 3000 -SG <span class=\"hl\">BR</span> BKN004 \n  TEMPO 1016/1018 1500 <span class=\"hl\">SN</span> <span class=\"hl\">BR</span> BKN003"
    },
    {
      "icao": "LBSF",
      "iata": "SOF",
      "name": "Sofia Airport",
      "updatedAt": "091730Z",
      "visibility_m": 10000,
      "taf_visibility_m": 3000,
      "worst_visibility_m": 3000,
      "ceiling_ft": null,
      "hazards": [
        "FZRA",
        "RA"
      ],
      "severityScore": 47,
      "metarRaw": "METAR LBSF 091730Z AUTO 14004KT 120V180 9999 OVC049/// 01/M03 Q1005 NOSIG",
      "tafRaw": "TAF LBSF 091700Z 0918/1018 VRB03KT 9999 SCT030 BKN050 \n  TEMPO 0918/0923 5000 RA \n  PROB40 0920/0923 5000 FZRA BKN015 OVC030 \n  BECMG 0923/0924 3000 SNRA BKN010 OVC030 \n  BECMG 1002/1004 10010KT \n  TEMPO 1006/1015 5000 RA SCT015 BKN030 OVC050",
      "metarHtml": "METAR LBSF 091730Z AUTO 14004KT 120V180 9999 OVC049/// 01/M03 Q1005 NOSIG",
      "tafHtml": "TAF LBSF 091700Z 0918/1018 VRB03KT 9999 SCT030 BKN050 \n  TEMPO 0918/0923 5000 <span class=\"hl\">RA</span> \n  PROB40 0920/0923 5000 <span class=\"hl\">FZRA</span> BKN015 OVC030 \n  BECMG 0923/0924 3000 SNRA BKN010 OVC030 \n  BECMG 1002/1004 10010KT \n  TEMPO 1006/1015 5000 <span class=\"hl\">RA</span> SCT015 BKN030 OVC050"
    },
    {
      "icao": "LYBE",
      "iata": "BEG",
      "name": "Belgrade Nikola Tesla Airport",
      "updatedAt": "091730Z",
      "visibility_m": 8000,
      "taf_visibility_m": 2000,
      "worst_visibility_m": 2000,
      "ceiling_ft": null,
      "hazards": [
        "BR",
        "FZRA"
      ],
      "severityScore": 45,
      "metarRaw": "METAR LYBE 091730Z 10007KT 8000 SCT040 01/00 Q1001 NOSIG",
      "tafRaw": "TAF LYBE 091700Z 0918/1018 10006KT 6000 BKN040 TX01/0918Z TN00/1006Z \n  TEMPO 0918/0924 FZRA \n  BECMG 0920/0922 4000 BR SCT005 BKN015 \n  BECMG 0923/1001 2000 BKN003 BKN022 \n  TEMPO 1001/1006 RASN BKN001 BKN022 \n  BECMG 1011/1013 34010KT 6000 NSW",
      "metarHtml": "METAR LYBE 091730Z 10007KT 8000 SCT040 01/00 Q1001 NOSIG",
      "tafHtml": "TAF LYBE 091700Z 0918/1018 10006KT 6000 BKN040 TX01/0918Z TN00/1006Z \n  TEMPO 0918/0924 <span class=\"hl\">FZRA</span> \n  BECMG 0920/0922 4000 <span class=\"hl\">BR</span> SCT005 BKN015 \n  BECMG 0923/1001 2000 BKN003 BKN022 \n  TEMPO 1001/1006 RASN BKN001 BKN022 \n  BECMG 1011/1013 34010KT 6000 NSW"
    },
    {
      "icao": "EDDN",
      "iata": "NUE",
      "name": "Nuremberg Airport",
      "updatedAt": "091750Z",
      "visibility_m": 10000,
      "taf_visibility_m": 800,
      "worst_visibility_m": 800,
      "ceiling_ft": null,
      "hazards": [
        "SN"
      ],
      "severityScore": 43,
      "metarRaw": "METAR EDDN 091750Z AUTO 21008KT 9999 FEW034 05/M00 Q0994 NOSIG",
      "tafRaw": "TAF EDDN 091700Z 0918/1018 20008KT 9999 BKN035 \n  TEMPO 0920/1001 4000 -SNRA \n  TEMPO 1001/1007 2500 -SN OVC001 \n  BECMG 1007/1009 4000 -SN OVC008 \n  TEMPO 1008/1016 0800 SN VV002 \n  BECMG 1010/1012 26005KT \n  BECMG 1016/1018 35005KT",
      "metarHtml": "METAR EDDN 091750Z AUTO 21008KT 9999 FEW034 05/M00 Q0994 NOSIG",
      "tafHtml": "TAF EDDN 091700Z 0918/1018 20008KT 9999 BKN035 \n  TEMPO 0920/1001 4000 -SNRA \n  TEMPO 1001/1007 2500 -<span class=\"hl\">SN</span> OVC001 \n  BECMG 1007/1009 4000 -<span class=\"hl\">SN</span> OVC008 \n  TEMPO 1008/1016 <span class=\"hl-vis\">0800</span> <span class=\"hl\">SN</span> VV002 \n  BECMG 1010/1012 26005KT \n  BECMG 1016/1018 35005KT"
    },
    {
      "icao": "EDLW",
      "iata": "DTM",
      "name": "Dortmund Airport",
      "updatedAt": "091720Z",
      "visibility_m": 10000,
      "taf_visibility_m": 1200,
      "worst_visibility_m": 1200,
      "ceiling_ft": 3800,
      "hazards": [
        "RA",
        "SN"
      ],
      "severityScore": 40,
      "metarRaw": "METAR EDLW 091720Z 17006KT 9999 -RA FEW014 BKN038 OVC049 03/01 Q0987",
      "tafRaw": "TAF EDLW 091700Z 0918/1018 17007KT 9999 BKN015 \n  TEMPO 0918/0922 RA \n  BECMG 0920/0923 09004KT BKN012 \n  TEMPO 0922/0924 4000 RASN BKN003 \n  BECMG 1000/1003 07009KT OVC008 \n  TEMPO 1000/1006 1200 SN BKN003 \n  TEMPO 1006/1012 2000 -SN BKN004 \n  BECMG 1010/1012 SCT008 BKN012 \n  BECMG 1012/1014 SCT012",
      "metarHtml": "METAR EDLW 091720Z 17006KT 9999 -<span class=\"hl\">RA</span> FEW014 BKN038 OVC049 03/01 Q0987",
      "tafHtml": "TAF EDLW 091700Z 0918/1018 17007KT 9999 BKN015 \n  TEMPO 0918/0922 <span class=\"hl\">RA</span> \n  BECMG 0920/0923 09004KT BKN012 \n  TEMPO 0922/0924 4000 RASN BKN003 \n  BECMG 1000/1003 07009KT OVC008 \n  TEMPO 1000/1006 1200 <span class=\"hl\">SN</span> BKN003 \n  TEMPO 1006/1012 2000 -<span class=\"hl\">SN</span> BKN004 \n  BECMG 1010/1012 SCT008 BKN012 \n  BECMG 1012/1014 SCT012"
    },
    {
      "icao": "EHEH",
      "iata": "EIN",
      "name": "Eindhoven Airport",
      "updatedAt": "091725Z",
      "visibility_m": 2000,
      "taf_visibility_m": null,
      "worst_visibility_m": 2000,
      "ceiling_ft": 400,
      "hazards": [],
      "severityScore": 40,
      "metarRaw": "METAR EHEH 091725Z AUTO 28009KT 240V350 7000 -RADZ SCT003 OVC004 01/01 Q0986 YLO TEMPO 2000 -RASN SCT004 BKN006",
      "tafRaw": null,
      "metarHtml": "METAR EHEH 091725Z AUTO 28009KT 240V350 7000 -RADZ SCT003 OVC004 01/01 Q0986 YLO TEMPO 2000 -RASN SCT004 BKN006",
      "tafHtml": null
    },
    {
      "icao": "EPRA",
      "iata": "RDO",
      "name": "Warsaw Radom Airport",
      "updatedAt": "091730Z",
      "visibility_m": 8000,
      "taf_visibility_m": 4000,
      "worst_visibility_m": 4000,
      "ceiling_ft": 1300,
      "hazards": [
        "SN",
        "BR"
      ],
      "severityScore": 40,
      "metarRaw": "METAR EPRA 091730Z 31007KT 8000 -SN SCT007 BKN013 M11/M13 Q1001",
      "tafRaw": "TAF EPRA 091730Z 0918/1003 31008KT 8000 SCT030 \n  TEMPO 0918/1003 BKN014 \n  PROB30 0918/0921 4000 -SN BR BKN008",
      "metarHtml": "METAR EPRA 091730Z 31007KT 8000 -<span class=\"hl\">SN</span> SCT007 BKN013 M11/M13 Q1001",
      "tafHtml": "TAF EPRA 091730Z 0918/1003 31008KT 8000 SCT030 \n  TEMPO 0918/1003 BKN014 \n  PROB30 0918/0921 4000 -<span class=\"hl\">SN</span> <span class=\"hl\">BR</span> BKN008"
    },
    {
      "icao": "LHDC",
      "iata": "DEB",
      "name": "Debrecen International Airport",
      "updatedAt": "091715Z",
      "visibility_m": 7000,
      "taf_visibility_m": 2000,
      "worst_visibility_m": 2000,
      "ceiling_ft": 1600,
      "hazards": [
        "BR",
        "SN"
      ],
      "severityScore": 40,
      "metarRaw": "METAR LHDC 091715Z AUTO 09004KT 010V160 7000 BKN016 BKN042 OVC050 M05/M07 Q1003 NOSIG",
      "tafRaw": "TAF LHDC 091415Z 0915/0924 VRB02KT 7000 NSC \n  TEMPO 0915/0924 4000 -SN BR SCT012 OVC030 \n  PROB40 \n  TEMPO 0915/0918 2000 SN BKN008 OVC030 \n  BECMG 0918/0921 05007KT",
      "metarHtml": "METAR LHDC 091715Z AUTO 09004KT 010V160 7000 BKN016 BKN042 OVC050 M05/M07 Q1003 NOSIG",
      "tafHtml": "TAF LHDC 091415Z 0915/0924 VRB02KT 7000 NSC \n  TEMPO 0915/0924 4000 -<span class=\"hl\">SN</span> <span class=\"hl\">BR</span> SCT012 OVC030 \n  PROB40 \n  TEMPO 0915/0918 2000 <span class=\"hl\">SN</span> BKN008 OVC030 \n  BECMG 0918/0921 05007KT"
    },
    {
      "icao": "LICA",
      "iata": "SUF",
      "name": "Lamezia Terme Sant'Eufemia International Airport",
      "updatedAt": "091750Z",
      "visibility_m": 10000,
      "taf_visibility_m": 4000,
      "worst_visibility_m": 4000,
      "ceiling_ft": null,
      "hazards": [
        "TSRA",
        "SHRA"
      ],
      "severityScore": 39,
      "metarRaw": "METAR LICA 091750Z AUTO 25020KT 9999 SCT028/// BKN064/// 16/11 Q1011",
      "tafRaw": "TAF LICA 091700Z 0918/1018 27026G38KT 9999 BKN016 \n  TEMPO 0921/1003 4000 SHRA \n  TEMPO 1003/1012 4000 TSRA BKN012",
      "metarHtml": "METAR LICA 091750Z AUTO 25020KT 9999 SCT028/// BKN064/// 16/11 Q1011",
      "tafHtml": "TAF LICA 091700Z 0918/1018 27026G38KT 9999 BKN016 \n  TEMPO 0921/1003 4000 <span class=\"hl\">SHRA</span> \n  TEMPO 1003/1012 4000 <span class=\"hl\">TSRA</span> BKN012"
    },
    {
      "icao": "LIRN",
      "iata": "NAP",
      "name": "Naples International Airport",
      "updatedAt": "091750Z",
      "visibility_m": 10000,
      "taf_visibility_m": 4000,
      "worst_visibility_m": 4000,
      "ceiling_ft": null,
      "hazards": [
        "TSRA",
        "SHRA"
      ],
      "severityScore": 39,
      "metarRaw": "METAR LIRN 091750Z 25009KT 230V330 9999 SCT035 14/10 Q1007 RERA NOSIG",
      "tafRaw": "TAF LIRN 091700Z 0918/1018 25018KT 9999 BKN025 \n  TEMPO 0918/1009 26018G28KT \n  TEMPO 0921/0924 4000 SHRA \n  TEMPO 1000/1012 4000 TSRA",
      "metarHtml": "METAR LIRN 091750Z 25009KT 230V330 9999 SCT035 14/10 Q1007 RERA NOSIG",
      "tafHtml": "TAF LIRN 091700Z 0918/1018 25018KT 9999 BKN025 \n  TEMPO 0918/1009 26018G28KT \n  TEMPO 0921/0924 4000 <span class=\"hl\">SHRA</span> \n  TEMPO 1000/1012 4000 <span class=\"hl\">TSRA</span>"
    },
    {
      "icao": "LTFM",
      "iata": "IST",
      "name": "İstanbul Airport",
      "updatedAt": "091750Z",
      "visibility_m": 10000,
      "taf_visibility_m": 4000,
      "worst_visibility_m": 4000,
      "ceiling_ft": null,
      "hazards": [
        "TSRA",
        "SHRA"
      ],
      "severityScore": 39,
      "metarRaw": "METAR LTFM 091750Z 22012KT CAVOK 07/M02 Q1009 NOSIG RMK RWY17L 22014KT RWY34L 21010KT RWY16R 21009KT RWY36 22011KT RWY18 23014KT",
      "tafRaw": "TAF LTFM 091640Z 0918/1024 20018KT CAVOK \n  BECMG 0920/0922 20020G32KT \n  BECMG 0922/1001 SCT028 BKN090 \n  BECMG 1007/1009 20026G44KT \n  BECMG 1010/1012 -SHRA BKN028 BKN090 \n  BECMG 1012/1014 21022G34KT \n  PROB40 \n  TEMPO 1014/1018 4000 -TSRA FEW018CB BKN025 \n  BECMG 1019/1021 SCT035 BKN100",
      "metarHtml": "METAR LTFM 091750Z 22012KT <span class=\"hl-vis\">CAVOK</span> 07/M02 Q1009 NOSIG RMK RWY17L 22014KT RWY34L 21010KT RWY16R 21009KT RWY36 22011KT RWY18 23014KT",
      "tafHtml": "TAF LTFM 091640Z 0918/1024 20018KT <span class=\"hl-vis\">CAVOK</span> \n  BECMG 0920/0922 20020G32KT \n  BECMG 0922/1001 SCT028 BKN090 \n  BECMG 1007/1009 20026G44KT \n  BECMG 1010/1012 -<span class=\"hl\">SHRA</span> BKN028 BKN090 \n  BECMG 1012/1014 21022G34KT \n  PROB40 \n  TEMPO 1014/1018 4000 -<span class=\"hl\">TSRA</span> FEW018CB BKN025 \n  BECMG 1019/1021 SCT035 BKN100"
    },
    {
      "icao": "EPMO",
      "iata": "WMI",
      "name": "Modlin Airport",
      "updatedAt": "091730Z",
      "visibility_m": 10000,
      "taf_visibility_m": 1200,
      "worst_visibility_m": 1200,
      "ceiling_ft": null,
      "hazards": [
        "BR",
        "SN"
      ],
      "severityScore": 38,
      "metarRaw": "METAR EPMO 091730Z 36006KT CAVOK M10/M12 Q1002",
      "tafRaw": "TAF EPMO 091730Z 0918/1018 33007KT 8000 BKN020 \n  PROB40 0921/1009 2000 -SG BR BKN003 \n  TEMPO 1016/1018 1200 SN BR BKN003",
      "metarHtml": "METAR EPMO 091730Z 36006KT <span class=\"hl-vis\">CAVOK</span> M10/M12 Q1002",
      "tafHtml": "TAF EPMO 091730Z 0918/1018 33007KT 8000 BKN020 \n  PROB40 0921/1009 2000 -SG <span class=\"hl\">BR</span> BKN003 \n  TEMPO 1016/1018 1200 <span class=\"hl\">SN</span> <span class=\"hl\">BR</span> BKN003"
    },
    {
      "icao": "LKMT",
      "iata": "OSR",
      "name": "Ostrava Leos Janáček Airport",
      "updatedAt": "091730Z",
      "visibility_m": 10000,
      "taf_visibility_m": 1200,
      "worst_visibility_m": 1200,
      "ceiling_ft": 4300,
      "hazards": [
        "BR",
        "SN"
      ],
      "severityScore": 38,
      "metarRaw": "METAR LKMT 091730Z 30001KT 9999 OVC043 M05/M08 Q1000 NOSIG",
      "tafRaw": "TAF LKMT 091700Z 0918/1018 VRB02KT 9999 BKN035 \n  TEMPO 0918/1015 5000 -SN BR BKN015 OVC025 \n  PROB30 \n  TEMPO 0923/1006 1200 SN OVC005 \n  BECMG 1007/1009 04009KT",
      "metarHtml": "METAR LKMT 091730Z 30001KT 9999 OVC043 M05/M08 Q1000 NOSIG",
      "tafHtml": "TAF LKMT 091700Z 0918/1018 VRB02KT 9999 BKN035 \n  TEMPO 0918/1015 5000 -<span class=\"hl\">SN</span> <span class=\"hl\">BR</span> BKN015 OVC025 \n  PROB30 \n  TEMPO 0923/1006 1200 <span class=\"hl\">SN</span> OVC005 \n  BECMG 1007/1009 04009KT"
    },
    {
      "icao": "LATI",
      "iata": "TIA",
      "name": "Tirana International Airport Mother Teresa",
      "updatedAt": "091750Z",
      "visibility_m": 10000,
      "taf_visibility_m": 3000,
      "worst_visibility_m": 3000,
      "ceiling_ft": 2700,
      "hazards": [
        "RA",
        "TSRA"
      ],
      "severityScore": 37,
      "metarRaw": "METAR LATI 091750Z 12009KT 9999 -RA BKN027 BKN060 12/07 Q1007 NOSIG",
      "tafRaw": "TAF LATI 091700Z 0918/1018 14013KT 9999 -RA SCT030 BKN060 TX14/1001Z TN07/1018Z \n  TEMPO 0919/1001 -TSRA SCT025CB BKN040 \n  TEMPO 1004/1018 VRB15G25KT 3000 TSRA SCT020CB OVC040",
      "metarHtml": "METAR LATI 091750Z 12009KT 9999 -<span class=\"hl\">RA</span> BKN027 BKN060 12/07 Q1007 NOSIG",
      "tafHtml": "TAF LATI 091700Z 0918/1018 14013KT 9999 -<span class=\"hl\">RA</span> SCT030 BKN060 TX14/1001Z TN07/1018Z \n  TEMPO 0919/1001 -<span class=\"hl\">TSRA</span> SCT025CB BKN040 \n  TEMPO 1004/1018 VRB15G25KT 3000 <span class=\"hl\">TSRA</span> SCT020CB OVC040"
    },
    {
      "icao": "LBWN",
      "iata": "VAR",
      "name": "Varna Airport",
      "updatedAt": "091730Z",
      "visibility_m": 10000,
      "taf_visibility_m": 4000,
      "worst_visibility_m": 4000,
      "ceiling_ft": null,
      "hazards": [
        "TSRA",
        "RA"
      ],
      "severityScore": 37,
      "metarRaw": "METAR LBWN 091730Z AUTO 05003KT 9999 NSC M00/M04 Q1007 NOSIG",
      "tafRaw": "TAF LBWN 091700Z 0918/1018 VRB04KT CAVOK \n  TEMPO 1005/1009 5000 RA BKN040 \n  BECMG 1012/1014 5000 RA BKN020 OVC040 \n  PROB40 \n  TEMPO 1016/1018 4000 TSRA FEW030CB BKN040",
      "metarHtml": "METAR LBWN 091730Z AUTO 05003KT 9999 NSC M00/M04 Q1007 NOSIG",
      "tafHtml": "TAF LBWN 091700Z 0918/1018 VRB04KT <span class=\"hl-vis\">CAVOK</span> \n  TEMPO 1005/1009 5000 <span class=\"hl\">RA</span> BKN040 \n  BECMG 1012/1014 5000 <span class=\"hl\">RA</span> BKN020 OVC040 \n  PROB40 \n  TEMPO 1016/1018 4000 <span class=\"hl\">TSRA</span> FEW030CB BKN040"
    },
    {
      "icao": "LICJ",
      "iata": "PMO",
      "name": "Falcone–Borsellino Airport",
      "updatedAt": "091750Z",
      "visibility_m": 10000,
      "taf_visibility_m": 4000,
      "worst_visibility_m": 4000,
      "ceiling_ft": null,
      "hazards": [
        "TSRA",
        "RA"
      ],
      "severityScore": 37,
      "metarRaw": "METAR LICJ 091750Z 22019KT 9999 SCT050 16/11 Q1013",
      "tafRaw": "TAF LICJ 091700Z 0918/1018 23020G30KT 9999 SCT020 \n  TEMPO 1000/1006 4000 TSRA \n  BECMG 1004/1006 29030G40KT \n  TEMPO 1014/1018 RA",
      "metarHtml": "METAR LICJ 091750Z 22019KT 9999 SCT050 16/11 Q1013",
      "tafHtml": "TAF LICJ 091700Z 0918/1018 23020G30KT 9999 SCT020 \n  TEMPO 1000/1006 4000 <span class=\"hl\">TSRA</span> \n  BECMG 1004/1006 29030G40KT \n  TEMPO 1014/1018 <span class=\"hl\">RA</span>"
    },
    {
      "icao": "LYPG",
      "iata": "TGD",
      "name": "Podgorica Airport / Podgorica Golubovci Airbase",
      "updatedAt": "091730Z",
      "visibility_m": 6000,
      "taf_visibility_m": 3000,
      "worst_visibility_m": 3000,
      "ceiling_ft": 4000,
      "hazards": [
        "RA",
        "TSRA"
      ],
      "severityScore": 37,
      "metarRaw": "METAR LYPG 091730Z VRB01KT 6000 -RA FEW007 SCT020 BKN040 01/01 Q1007 NOSIG",
      "tafRaw": "TAF LYPG 091700Z 0918/1018 35005KT 7000 RA FEW010 SCT023 OVC070 TX08/1012Z TN02/0918Z \n  PROB40 \n  TEMPO 0922/1016 3000 TSRA FEW010 SCT025CB BKN030",
      "metarHtml": "METAR LYPG 091730Z VRB01KT 6000 -<span class=\"hl\">RA</span> FEW007 SCT020 BKN040 01/01 Q1007 NOSIG",
      "tafHtml": "TAF LYPG 091700Z 0918/1018 35005KT 7000 <span class=\"hl\">RA</span> FEW010 SCT023 OVC070 TX08/1012Z TN02/0918Z \n  PROB40 \n  TEMPO 0922/1016 3000 <span class=\"hl\">TSRA</span> FEW010 SCT025CB BKN030"
    },
    {
      "icao": "EGPF",
      "iata": "GLA",
      "name": "Glasgow Airport",
      "updatedAt": "091750Z",
      "visibility_m": 10000,
      "taf_visibility_m": 3000,
      "worst_visibility_m": 3000,
      "ceiling_ft": null,
      "hazards": [
        "BR",
        "RA",
        "SHRA"
      ],
      "severityScore": 36,
      "metarRaw": "METAR EGPF 091750Z AUTO 12003KT 100V160 9999 FEW023 01/01 Q1006",
      "tafRaw": "TAF EGPF 091659Z 0918/1018 VRB03KT 9999 SCT020 \n  TEMPO 0918/1002 6000 RA SHRA BKN009 \n  PROB30 \n  TEMPO 0918/1002 3000 SHRASN BKN004 \n  PROB30 1002/1009 4000 BR \n  PROB30 1009/1014 8000 \n  PROB40 \n  TEMPO 1014/1018 4000 SHRASN BKN014",
      "metarHtml": "METAR EGPF 091750Z AUTO 12003KT 100V160 9999 FEW023 01/01 Q1006",
      "tafHtml": "TAF EGPF 091659Z 0918/1018 VRB03KT 9999 SCT020 \n  TEMPO 0918/1002 6000 <span class=\"hl\">RA</span> <span class=\"hl\">SHRA</span> BKN009 \n  PROB30 \n  TEMPO 0918/1002 3000 SHRASN BKN004 \n  PROB30 1002/1009 4000 <span class=\"hl\">BR</span> \n  PROB30 1009/1014 8000 \n  PROB40 \n  TEMPO 1014/1018 4000 SHRASN BKN014"
    },
    {
      "icao": "LEBB",
      "iata": "BIO",
      "name": "Bilbao Airport",
      "updatedAt": "091730Z",
      "visibility_m": 3000,
      "taf_visibility_m": 1500,
      "worst_visibility_m": 1500,
      "ceiling_ft": 3500,
      "hazards": [
        "RA",
        "SHRA"
      ],
      "severityScore": 36,
      "metarRaw": "METAR LEBB 091730Z 27013KT 220V300 9999 FEW025TCU BKN035 BKN065 08/05 Q1020 TEMPO 3000 RA",
      "tafRaw": "TAF LEBB 091700Z 0918/1018 29009KT 9999 FEW020 SCT040 TX10/0923Z TN07/0923Z \n  TEMPO 0918/1002 29018G33KT 3000 RA BKN010 \n  TEMPO 0918/0920 29025G43KT \n  PROB30 \n  TEMPO 0918/0920 1500 SHRAGR SCT025TCU \n  PROB40 \n  TEMPO 1004/1012 29015G27KT 3000 RA BKN010 \n  TEMPO 1012/1018 3000 SHRA SCT015TCU",
      "metarHtml": "METAR LEBB 091730Z 27013KT 220V300 9999 FEW025TCU BKN035 BKN065 08/05 Q1020 TEMPO 3000 <span class=\"hl\">RA</span>",
      "tafHtml": "TAF LEBB 091700Z 0918/1018 29009KT 9999 FEW020 SCT040 TX10/0923Z TN07/0923Z \n  TEMPO 0918/1002 29018G33KT 3000 <span class=\"hl\">RA</span> BKN010 \n  TEMPO 0918/0920 29025G43KT \n  PROB30 \n  TEMPO 0918/0920 1500 SHRAGR SCT025TCU \n  PROB40 \n  TEMPO 1004/1012 29015G27KT 3000 <span class=\"hl\">RA</span> BKN010 \n  TEMPO 1012/1018 3000 <span class=\"hl\">SHRA</span> SCT015TCU"
    },
    {
      "icao": "LFLS",
      "iata": "GNB",
      "name": "Grenoble Alpes Isère Airport",
      "updatedAt": "091730Z",
      "visibility_m": 4000,
      "taf_visibility_m": null,
      "worst_visibility_m": 4000,
      "ceiling_ft": 5500,
      "hazards": [
        "RA",
        "SHRA"
      ],
      "severityScore": 31,
      "metarRaw": "METAR LFLS 091730Z AUTO 13006KT 100V160 8000 RA FEW009/// BKN014/// BKN020/// //////TCU 03/02 Q1005 TEMPO 22010KT 4000 -SHRA BECMG BKN055",
      "tafRaw": null,
      "metarHtml": "METAR LFLS 091730Z AUTO 13006KT 100V160 8000 <span class=\"hl\">RA</span> FEW009/// BKN014/// BKN020/// //////TCU 03/02 Q1005 TEMPO 22010KT 4000 -<span class=\"hl\">SHRA</span> BECMG BKN055",
      "tafHtml": null
    },
    {
      "icao": "BKPR",
      "iata": "PRN",
      "name": "Priština Adem Jashari International Airport",
      "updatedAt": "091730Z",
      "visibility_m": 10000,
      "taf_visibility_m": 2000,
      "worst_visibility_m": 2000,
      "ceiling_ft": 2500,
      "hazards": [
        "SN",
        "RA"
      ],
      "severityScore": 30,
      "metarRaw": "METAR BKPR 091730Z 18011KT 9999 BKN025 00/M04 Q1005 NOSIG",
      "tafRaw": "TAF BKPR 091730Z 0918/1018 18008KT 9999 FEW012 SCT030 BKN080 \n  TEMPO 0918/1006 4000 RA BKN012 \n  TEMPO 1008/1015 3000 SNRA BKN010 \n  TEMPO 1015/1018 2000 -SN BKN008",
      "metarHtml": "METAR BKPR 091730Z 18011KT 9999 BKN025 00/M04 Q1005 NOSIG",
      "tafHtml": "TAF BKPR 091730Z 0918/1018 18008KT 9999 FEW012 SCT030 BKN080 \n  TEMPO 0918/1006 4000 <span class=\"hl\">RA</span> BKN012 \n  TEMPO 1008/1015 3000 SNRA BKN010 \n  TEMPO 1015/1018 2000 -<span class=\"hl\">SN</span> BKN008"
    },
    {
      "icao": "EPKK",
      "iata": "KRK",
      "name": "Kraków John Paul II International Airport",
      "updatedAt": "091730Z",
      "visibility_m": 7000,
      "taf_visibility_m": 2500,
      "worst_visibility_m": 2500,
      "ceiling_ft": null,
      "hazards": [
        "BR",
        "SN"
      ],
      "severityScore": 28,
      "metarRaw": "METAR EPKK 091730Z VRB03KT 7000 NSC M07/M10 Q1000",
      "tafRaw": "TAF EPKK 091730Z 0918/1018 07003KT 6000 NSC \n  BECMG 1000/1003 BKN013 \n  TEMPO 1000/1018 2500 -SN BR BKN009 \n  BECMG 1009/1011 BKN020",
      "metarHtml": "METAR EPKK 091730Z VRB03KT 7000 NSC M07/M10 Q1000",
      "tafHtml": "TAF EPKK 091730Z 0918/1018 07003KT 6000 NSC \n  BECMG 1000/1003 BKN013 \n  TEMPO 1000/1018 2500 -<span class=\"hl\">SN</span> <span class=\"hl\">BR</span> BKN009 \n  BECMG 1009/1011 BKN020"
    },
    {
      "icao": "EPKT",
      "iata": "KTW",
      "name": "Katowice Wojciech Korfanty International Airport",
      "updatedAt": "091730Z",
      "visibility_m": 7000,
      "taf_visibility_m": 3000,
      "worst_visibility_m": 3000,
      "ceiling_ft": null,
      "hazards": [
        "BR",
        "SN"
      ],
      "severityScore": 28,
      "metarRaw": "METAR EPKT 091730Z 04004KT 7000 NSC M08/M10 Q1000",
      "tafRaw": "TAF EPKT 091730Z 0918/1018 06002KT 6000 NSC \n  TEMPO 0918/0923 3500 BR \n  BECMG 1001/1004 BKN013 \n  TEMPO 1002/1018 3000 -SN BR BKN009 \n  PROB40 \n  TEMPO 1015/1018 BKN004",
      "metarHtml": "METAR EPKT 091730Z 04004KT 7000 NSC M08/M10 Q1000",
      "tafHtml": "TAF EPKT 091730Z 0918/1018 06002KT 6000 NSC \n  TEMPO 0918/0923 3500 <span class=\"hl\">BR</span> \n  BECMG 1001/1004 BKN013 \n  TEMPO 1002/1018 3000 -<span class=\"hl\">SN</span> <span class=\"hl\">BR</span> BKN009 \n  PROB40 \n  TEMPO 1015/1018 BKN004"
    },
    {
      "icao": "EPLB",
      "iata": "LUZ",
      "name": "Lublin Airport",
      "updatedAt": "091730Z",
      "visibility_m": 9000,
      "taf_visibility_m": 2500,
      "worst_visibility_m": 2500,
      "ceiling_ft": 2200,
      "hazards": [
        "SN",
        "BR"
      ],
      "severityScore": 28,
      "metarRaw": "METAR EPLB 091730Z 31007KT 9000 -SN OVC022 M09/M11 Q0999",
      "tafRaw": "TAF EPLB 091730Z 0918/1018 29008KT 7000 -SN BKN020 \n  PROB40 0922/1009 2500 -SG BR BKN004",
      "metarHtml": "METAR EPLB 091730Z 31007KT 9000 -<span class=\"hl\">SN</span> OVC022 M09/M11 Q0999",
      "tafHtml": "TAF EPLB 091730Z 0918/1018 29008KT 7000 -<span class=\"hl\">SN</span> BKN020 \n  PROB40 0922/1009 2500 -SG <span class=\"hl\">BR</span> BKN004"
    },
    {
      "icao": "EPRZ",
      "iata": "RZE",
      "name": "Rzeszów-Jasionka Airport",
      "updatedAt": "091730Z",
      "visibility_m": 10000,
      "taf_visibility_m": 4000,
      "worst_visibility_m": 4000,
      "ceiling_ft": null,
      "hazards": [
        "BR",
        "SN"
      ],
      "severityScore": 28,
      "metarRaw": "METAR EPRZ 091730Z 27009KT 9999 FEW046 M10/M13 Q1000",
      "tafRaw": "TAF EPRZ 091730Z 0918/1018 VRB02KT 9999 FEW046 \n  TEMPO 1002/1018 4000 -SN BR BKN011 \n  BECMG 1010/1012 32010KT",
      "metarHtml": "METAR EPRZ 091730Z 27009KT 9999 FEW046 M10/M13 Q1000",
      "tafHtml": "TAF EPRZ 091730Z 0918/1018 VRB02KT 9999 FEW046 \n  TEMPO 1002/1018 4000 -<span class=\"hl\">SN</span> <span class=\"hl\">BR</span> BKN011 \n  BECMG 1010/1012 32010KT"
    },
    {
      "icao": "EPWR",
      "iata": "WRO",
      "name": "Copernicus Wrocław Airport",
      "updatedAt": "091730Z",
      "visibility_m": 7000,
      "taf_visibility_m": 4000,
      "worst_visibility_m": 4000,
      "ceiling_ft": null,
      "hazards": [
        "BR",
        "SN"
      ],
      "severityScore": 28,
      "metarRaw": "METAR EPWR 091730Z 09007KT 7000 NSC M06/M08 Q1001",
      "tafRaw": "TAF EPWR 091730Z 0918/1018 07008KT 9000 NSC \n  TEMPO 0920/1007 4000 -SN BR BKN012 \n  BECMG 1012/1015 33010KT \n  TEMPO 1015/1018 BKN012",
      "metarHtml": "METAR EPWR 091730Z 09007KT 7000 NSC M06/M08 Q1001",
      "tafHtml": "TAF EPWR 091730Z 0918/1018 07008KT 9000 NSC \n  TEMPO 0920/1007 4000 -<span class=\"hl\">SN</span> <span class=\"hl\">BR</span> BKN012 \n  BECMG 1012/1015 33010KT \n  TEMPO 1015/1018 BKN012"
    },
    {
      "icao": "LRBV",
      "iata": "GHV",
      "name": "Brașov-Ghimbav International Airport",
      "updatedAt": "091730Z",
      "visibility_m": 10000,
      "taf_visibility_m": 5000,
      "worst_visibility_m": 5000,
      "ceiling_ft": 4400,
      "hazards": [
        "BR",
        "SN"
      ],
      "severityScore": 28,
      "metarRaw": "METAR LRBV 091730Z VRB02KT 9999 OVC044 M05/M08 Q1002",
      "tafRaw": "TAF LRBV 091700Z 0918/1003 VRB04KT 9999 BKN050 \n  BECMG 1001/1003 5000 -SN BR BKN010 OVC035",
      "metarHtml": "METAR LRBV 091730Z VRB02KT 9999 OVC044 M05/M08 Q1002",
      "tafHtml": "TAF LRBV 091700Z 0918/1003 VRB04KT 9999 BKN050 \n  BECMG 1001/1003 5000 -<span class=\"hl\">SN</span> <span class=\"hl\">BR</span> BKN010 OVC035"
    },
    {
      "icao": "LRCL",
      "iata": "CLJ",
      "name": "Cluj Avram Iancu International Airport",
      "updatedAt": "091730Z",
      "visibility_m": 10000,
      "taf_visibility_m": 5000,
      "worst_visibility_m": 5000,
      "ceiling_ft": 4800,
      "hazards": [
        "BR",
        "SN"
      ],
      "severityScore": 28,
      "metarRaw": "METAR LRCL 091730Z 07006KT 9999 OVC048 M06/M09 Q1003",
      "tafRaw": "TAF LRCL 091700Z 0918/1003 VRB04KT 9999 OVC040 \n  BECMG 0921/0923 5000 -SN BR BKN010 OVC035",
      "metarHtml": "METAR LRCL 091730Z 07006KT 9999 OVC048 M06/M09 Q1003",
      "tafHtml": "TAF LRCL 091700Z 0918/1003 VRB04KT 9999 OVC040 \n  BECMG 0921/0923 5000 -<span class=\"hl\">SN</span> <span class=\"hl\">BR</span> BKN010 OVC035"
    },
    {
      "icao": "LRSB",
      "iata": "SBZ",
      "name": "Sibiu International Airport",
      "updatedAt": "091730Z",
      "visibility_m": 10000,
      "taf_visibility_m": 3000,
      "worst_visibility_m": 3000,
      "ceiling_ft": 4400,
      "hazards": [
        "BR",
        "SN"
      ],
      "severityScore": 28,
      "metarRaw": "METAR LRSB 091730Z 25002KT 9999 OVC044 M04/M07 Q1002",
      "tafRaw": "TAF LRSB 091700Z 0918/1018 VRB04KT 9999 OVC045 \n  TEMPO 1000/1006 5000 -SN BR BKN010 BKN035 \n  BECMG 1015/1017 3000 BR BKN010 BKN030",
      "metarHtml": "METAR LRSB 091730Z 25002KT 9999 OVC044 M04/M07 Q1002",
      "tafHtml": "TAF LRSB 091700Z 0918/1018 VRB04KT 9999 OVC045 \n  TEMPO 1000/1006 5000 -<span class=\"hl\">SN</span> <span class=\"hl\">BR</span> BKN010 BKN035 \n  BECMG 1015/1017 3000 <span class=\"hl\">BR</span> BKN010 BKN030"
    },
    {
      "icao": "LZTT",
      "iata": "TAT",
      "name": "Poprad-Tatry Airport",
      "updatedAt": "091730Z",
      "visibility_m": 10000,
      "taf_visibility_m": 1400,
      "worst_visibility_m": 1400,
      "ceiling_ft": null,
      "hazards": [
        "SN"
      ],
      "severityScore": 28,
      "metarRaw": "METAR LZTT 091730Z VRB01KT 9999 SCT063 M11/M13 Q0997 NOSIG",
      "tafRaw": "TAF LZTT 091715Z 0918/1018 VRB02KT 9999 BKN045 \n  PROB30 \n  TEMPO 0918/0921 4000 -SN BKN012 OVC025 \n  PROB30 \n  TEMPO 1004/1008 1400 BCFG SCT001 \n  TEMPO 1005/1018 4000 -SN SCT012 BKN030",
      "metarHtml": "METAR LZTT 091730Z VRB01KT 9999 SCT063 M11/M13 Q0997 NOSIG",
      "tafHtml": "TAF LZTT 091715Z 0918/1018 VRB02KT 9999 BKN045 \n  PROB30 \n  TEMPO 0918/0921 4000 -<span class=\"hl\">SN</span> BKN012 OVC025 \n  PROB30 \n  TEMPO 1004/1008 1400 BCFG SCT001 \n  TEMPO 1005/1018 4000 -<span class=\"hl\">SN</span> SCT012 BKN030"
    },
    {
      "icao": "LLBG",
      "iata": "TLV",
      "name": "Ben Gurion International Airport",
      "updatedAt": "091750Z",
      "visibility_m": 7000,
      "taf_visibility_m": 8000,
      "worst_visibility_m": 7000,
      "ceiling_ft": 4500,
      "hazards": [
        "SHRA",
        "RA"
      ],
      "severityScore": 26,
      "metarRaw": "METAR LLBG 091750Z 32007KT 9999 FEW030 BKN045 16/08 Q1016 TEMPO 7000 SHRA FEW025TCU RMK RERA",
      "tafRaw": "TAF LLBG 091703Z 0918/1018 29012KT 9999 SCT035 \n  PROB40 \n  TEMPO 0918/1004 31015G25KT 8000 RA BKN030 \n  BECMG 1004/1006 18006KT \n  PROB30 \n  TEMPO 1006/1012 23012KT 8000 RA BKN030 TX17/1012Z TN14/1004Z",
      "metarHtml": "METAR LLBG 091750Z 32007KT 9999 FEW030 BKN045 16/08 Q1016 TEMPO 7000 <span class=\"hl\">SHRA</span> FEW025TCU RMK RERA",
      "tafHtml": "TAF LLBG 091703Z 0918/1018 29012KT 9999 SCT035 \n  PROB40 \n  TEMPO 0918/1004 31015G25KT 8000 <span class=\"hl\">RA</span> BKN030 \n  BECMG 1004/1006 18006KT \n  PROB30 \n  TEMPO 1006/1012 23012KT 8000 <span class=\"hl\">RA</span> BKN030 TX17/1012Z TN14/1004Z"
    },
    {
      "icao": "LPMA",
      "iata": "FNC",
      "name": "Madeira International Airport Cristiano Ronaldo",
      "updatedAt": "091730Z",
      "visibility_m": 8000,
      "taf_visibility_m": 10000,
      "worst_visibility_m": 8000,
      "ceiling_ft": 1000,
      "hazards": [
        "SHRA"
      ],
      "severityScore": 26,
      "metarRaw": "METAR LPMA 091730Z 04010KT 8000 -SHRA BKN010 15/13 Q1032",
      "tafRaw": "TAF LPMA 091700Z 0918/1018 05010KT 9999 SCT015 \n  TEMPO 0918/1012 BKN013 \n  BECMG 0919/0921 01010KT \n  BECMG 1010/1012 VRB05KT",
      "metarHtml": "METAR LPMA 091730Z 04010KT 8000 -<span class=\"hl\">SHRA</span> BKN010 15/13 Q1032",
      "tafHtml": "TAF LPMA 091700Z 0918/1018 05010KT 9999 SCT015 \n  TEMPO 0918/1012 BKN013 \n  BECMG 0919/0921 01010KT \n  BECMG 1010/1012 VRB05KT"
    },
    {
      "icao": "LIRF",
      "iata": "FCO",
      "name": "Rome–Fiumicino Leonardo da Vinci International Airport",
      "updatedAt": "091750Z",
      "visibility_m": 10000,
      "taf_visibility_m": 3000,
      "worst_visibility_m": 3000,
      "ceiling_ft": null,
      "hazards": [
        "TSRA"
      ],
      "severityScore": 25,
      "metarRaw": "METAR LIRF 091750Z 25016KT 9999 FEW020 14/09 Q1005 NOSIG",
      "tafRaw": "TAF LIRF 091700Z 0918/1024 25023G35KT 9999 SCT020 \n  TEMPO 0920/1010 3000 TSRA \n  BECMG 1004/1006 31020G30KT \n  BECMG 1012/1014 32015KT \n  BECMG 1014/1016 02008KT",
      "metarHtml": "METAR LIRF 091750Z 25016KT 9999 FEW020 14/09 Q1005 NOSIG",
      "tafHtml": "TAF LIRF 091700Z 0918/1024 25023G35KT 9999 SCT020 \n  TEMPO 0920/1010 3000 <span class=\"hl\">TSRA</span> \n  BECMG 1004/1006 31020G30KT \n  BECMG 1012/1014 32015KT \n  BECMG 1014/1016 02008KT"
    },
    {
      "icao": "LIRZ",
      "iata": "PEG",
      "name": "Perugia San Francesco d'Assisi – Umbria International Airport",
      "updatedAt": "091750Z",
      "visibility_m": 10000,
      "taf_visibility_m": 4000,
      "worst_visibility_m": 4000,
      "ceiling_ft": null,
      "hazards": [
        "TSRA"
      ],
      "severityScore": 25,
      "metarRaw": "METAR LIRZ 091750Z AUTO 24008KT 9999 BKN060/// 10/04 Q1003",
      "tafRaw": "TAF LIRZ 091700Z 0918/1018 24012KT 9999 BKN040 \n  BECMG 0918/0920 VRB05KT \n  TEMPO 0922/1006 4000 TSRA \n  BECMG 1009/1011 35012KT",
      "metarHtml": "METAR LIRZ 091750Z AUTO 24008KT 9999 BKN060/// 10/04 Q1003",
      "tafHtml": "TAF LIRZ 091700Z 0918/1018 24012KT 9999 BKN040 \n  BECMG 0918/0920 VRB05KT \n  TEMPO 0922/1006 4000 <span class=\"hl\">TSRA</span> \n  BECMG 1009/1011 35012KT"
    },
    {
      "icao": "LFSB",
      "iata": "BSL",
      "name": "EuroAirport Basel–Mulhouse–Freiburg",
      "updatedAt": "091730Z",
      "visibility_m": 10000,
      "taf_visibility_m": 1500,
      "worst_visibility_m": 1500,
      "ceiling_ft": 22000,
      "hazards": [
        "SHRA"
      ],
      "severityScore": 24,
      "metarRaw": "METAR LFSB 091730Z AUTO 24017G27KT 9999 FEW018 SCT058 OVC220 06/00 Q0999 TEMPO SCT030TCU",
      "tafRaw": "TAF LFSB 091700Z 0918/1018 25015G30KT 9999 FEW030 SCT050 \n  TEMPO 0918/1006 -SHRA SCT030TCU \n  PROB30 \n  TEMPO 0921/1006 4000 -SHRASN FEW020TCU \n  TEMPO 1006/1018 1500 -SHRASN BKN014 FEW020TCU \n  BECMG 1016/1018 27010G20KT",
      "metarHtml": "METAR LFSB 091730Z AUTO 24017G27KT 9999 FEW018 SCT058 OVC220 06/00 Q0999 TEMPO SCT030TCU",
      "tafHtml": "TAF LFSB 091700Z 0918/1018 25015G30KT 9999 FEW030 SCT050 \n  TEMPO 0918/1006 -<span class=\"hl\">SHRA</span> SCT030TCU \n  PROB30 \n  TEMPO 0921/1006 4000 -SHRASN FEW020TCU \n  TEMPO 1006/1018 1500 -SHRASN BKN014 FEW020TCU \n  BECMG 1016/1018 27010G20KT"
    },
    {
      "icao": "EDDH",
      "iata": "HAM",
      "name": "Hamburg Helmut Schmidt Airport",
      "updatedAt": "091750Z",
      "visibility_m": 10000,
      "taf_visibility_m": 1400,
      "worst_visibility_m": 1400,
      "ceiling_ft": 4800,
      "hazards": [
        "SHSN"
      ],
      "severityScore": 20,
      "metarRaw": "METAR EDDH 091750Z AUTO 07020KT 9999 OVC048 M04/M10 Q0998 REUP TEMPO 09020G30KT",
      "tafRaw": "TAF EDDH 091700Z 0918/1024 08020G30KT 9999 SCT030 \n  BECMG 0918/0920 08015G25KT \n  BECMG 1003/1005 07010KT \n  BECMG 1007/1009 07005KT \n  TEMPO 1012/1016 2500 SHSN BKN007CB \n  PROB30 \n  TEMPO 1013/1015 1400 OVC004 \n  BECMG 1015/1017 36003KT",
      "metarHtml": "METAR EDDH 091750Z AUTO 07020KT 9999 OVC048 M04/M10 Q0998 REUP TEMPO 09020G30KT",
      "tafHtml": "TAF EDDH 091700Z 0918/1024 08020G30KT 9999 SCT030 \n  BECMG 0918/0920 08015G25KT \n  BECMG 1003/1005 07010KT \n  BECMG 1007/1009 07005KT \n  TEMPO 1012/1016 2500 <span class=\"hl\">SHSN</span> BKN007CB \n  PROB30 \n  TEMPO 1013/1015 1400 OVC004 \n  BECMG 1015/1017 36003KT"
    },
    {
      "icao": "EPPO",
      "iata": "POZ",
      "name": "Poznań-Ławica Airport",
      "updatedAt": "091730Z",
      "visibility_m": 8000,
      "taf_visibility_m": 3000,
      "worst_visibility_m": 3000,
      "ceiling_ft": null,
      "hazards": [
        "BR",
        "SHSN"
      ],
      "severityScore": 20,
      "metarRaw": "METAR EPPO 091730Z 07006KT 8000 NSC M10/M12 Q1003",
      "tafRaw": "TAF EPPO 091730Z 0918/1018 08005KT 7000 NSC \n  TEMPO 0918/1006 4000 BR \n  PROB40 \n  TEMPO 0920/0924 BKN012 \n  TEMPO 1008/1015 BKN012 \n  BECMG 1010/1013 33010KT \n  TEMPO 1015/1018 3000 -SHSN BKN008 BKN012CB",
      "metarHtml": "METAR EPPO 091730Z 07006KT 8000 NSC M10/M12 Q1003",
      "tafHtml": "TAF EPPO 091730Z 0918/1018 08005KT 7000 NSC \n  TEMPO 0918/1006 4000 <span class=\"hl\">BR</span> \n  PROB40 \n  TEMPO 0920/0924 BKN012 \n  TEMPO 1008/1015 BKN012 \n  BECMG 1010/1013 33010KT \n  TEMPO 1015/1018 3000 -<span class=\"hl\">SHSN</span> BKN008 BKN012CB"
    },
    {
      "icao": "LIPE",
      "iata": "BLQ",
      "name": "Bologna Guglielmo Marconi Airport",
      "updatedAt": "091750Z",
      "visibility_m": 7000,
      "taf_visibility_m": 1200,
      "worst_visibility_m": 1200,
      "ceiling_ft": null,
      "hazards": [
        "BR"
      ],
      "severityScore": 20,
      "metarRaw": "METAR LIPE 091750Z 23005KT 7000 NSC 00/M02 Q1001",
      "tafRaw": "TAF LIPE 091700Z 0918/1018 VRB05KT 6000 BKN015 \n  TEMPO 0922/1006 1200 BR",
      "metarHtml": "METAR LIPE 091750Z 23005KT 7000 NSC 00/M02 Q1001",
      "tafHtml": "TAF LIPE 091700Z 0918/1018 VRB05KT 6000 BKN015 \n  TEMPO 0922/1006 1200 <span class=\"hl\">BR</span>"
    },
    {
      "icao": "LPPT",
      "iata": "LIS",
      "name": "Lisbon Humberto Delgado Airport",
      "updatedAt": "091730Z",
      "visibility_m": 10000,
      "taf_visibility_m": 1200,
      "worst_visibility_m": 1200,
      "ceiling_ft": null,
      "hazards": [
        "BR"
      ],
      "severityScore": 20,
      "metarRaw": "METAR LPPT 091730Z 32006KT 280V350 9999 FEW025 13/08 Q1028",
      "tafRaw": "TAF LPPT 091700Z 0918/1024 32010KT 9999 SCT020 \n  BECMG 0919/0921 29005KT \n  PROB30 1005/1010 1200 BR SCT002 \n  BECMG 1008/1010 VRB02KT BKN020",
      "metarHtml": "METAR LPPT 091730Z 32006KT 280V350 9999 FEW025 13/08 Q1028",
      "tafHtml": "TAF LPPT 091700Z 0918/1024 32010KT 9999 SCT020 \n  BECMG 0919/0921 29005KT \n  PROB30 1005/1010 1200 <span class=\"hl\">BR</span> SCT002 \n  BECMG 1008/1010 VRB02KT BKN020"
    },
    {
      "icao": "OMDB",
      "iata": "DXB",
      "name": "Dubai International Airport",
      "updatedAt": "091730Z",
      "visibility_m": 10000,
      "taf_visibility_m": 1500,
      "worst_visibility_m": 1500,
      "ceiling_ft": null,
      "hazards": [
        "BR"
      ],
      "severityScore": 20,
      "metarRaw": "METAR OMDB 091730Z 05004KT 020V120 CAVOK 22/12 Q1018 NOSIG",
      "tafRaw": "TAF OMDB 091700Z 0918/1100 12005KT 8000 NSC \n  PROB30 1001/1005 1500 BR BKN003 \n  BECMG 1009/1011 29010KT \n  BECMG 1016/1018 14005KT",
      "metarHtml": "METAR OMDB 091730Z 05004KT 020V120 <span class=\"hl-vis\">CAVOK</span> 22/12 Q1018 NOSIG",
      "tafHtml": "TAF OMDB 091700Z 0918/1100 12005KT 8000 NSC \n  PROB30 1001/1005 1500 <span class=\"hl\">BR</span> BKN003 \n  BECMG 1009/1011 29010KT \n  BECMG 1016/1018 14005KT"
    },
    {
      "icao": "EDDB",
      "iata": "BER",
      "name": "Berlin Brandenburg Airport",
      "updatedAt": "091750Z",
      "visibility_m": 3800,
      "taf_visibility_m": 2500,
      "worst_visibility_m": 2500,
      "ceiling_ft": 3600,
      "hazards": [
        "SN"
      ],
      "severityScore": 18,
      "metarRaw": "METAR EDDB 091750Z AUTO 09013KT 8000 3800 HZ FEW018 BKN036 BKN044 M06/M10 Q1000 TEMPO 4000 -SN",
      "tafRaw": "TAF EDDB 091700Z 0918/1018 08015KT 9999 SCT020 \n  TEMPO 0918/1002 08015G25KT 2500 -SN BKN009 \n  BECMG 1005/1007 07010KT \n  BECMG 1009/1011 01006KT",
      "metarHtml": "METAR EDDB 091750Z AUTO 09013KT 8000 3800 HZ FEW018 BKN036 BKN044 M06/M10 Q1000 TEMPO 4000 -<span class=\"hl\">SN</span>",
      "tafHtml": "TAF EDDB 091700Z 0918/1018 08015KT 9999 SCT020 \n  TEMPO 0918/1002 08015G25KT 2500 -<span class=\"hl\">SN</span> BKN009 \n  BECMG 1005/1007 07010KT \n  BECMG 1009/1011 01006KT"
    },
    {
      "icao": "EKBI",
      "iata": "BLL",
      "name": "Billund Airport",
      "updatedAt": "091750Z",
      "visibility_m": 10000,
      "taf_visibility_m": 9000,
      "worst_visibility_m": 9000,
      "ceiling_ft": null,
      "hazards": [
        "SN"
      ],
      "severityScore": 18,
      "metarRaw": "METAR EKBI 091750Z AUTO 07021G31KT 030V090 9999 -SN OVC034/// M01/M05 Q1006",
      "tafRaw": "TAF EKBI 091727Z 0918/1018 07020KT 9000 BKN025 \n  TEMPO 0918/1002 09025G38KT DRSN \n  TEMPO 1002/1007 04015G25KT DRSN \n  BECMG 1007/1010 04008KT",
      "metarHtml": "METAR EKBI 091750Z AUTO 07021G31KT 030V090 9999 -<span class=\"hl\">SN</span> OVC034/// M01/M05 Q1006",
      "tafHtml": "TAF EKBI 091727Z 0918/1018 07020KT 9000 BKN025 \n  TEMPO 0918/1002 09025G38KT DRSN \n  TEMPO 1002/1007 04015G25KT DRSN \n  BECMG 1007/1010 04008KT"
    },
    {
      "icao": "ENGM",
      "iata": "OSL",
      "name": "Oslo-Gardermoen International Airport",
      "updatedAt": "091750Z",
      "visibility_m": 10000,
      "taf_visibility_m": 10000,
      "worst_visibility_m": 10000,
      "ceiling_ft": 2900,
      "hazards": [
        "SN"
      ],
      "severityScore": 18,
      "metarRaw": "METAR ENGM 091750Z 03006KT 9999 -SN BKN029 M06/M07 Q1020 NOSIG",
      "tafRaw": "TAF ENGM 091700Z 0918/1018 02005KT 9999 -SN FEW010 BKN030 \n  PROB30 1002/1018 BKN004",
      "metarHtml": "METAR ENGM 091750Z 03006KT 9999 -<span class=\"hl\">SN</span> BKN029 M06/M07 Q1020 NOSIG",
      "tafHtml": "TAF ENGM 091700Z 0918/1018 02005KT 9999 -<span class=\"hl\">SN</span> FEW010 BKN030 \n  PROB30 1002/1018 BKN004"
    },
    {
      "icao": "ENTO",
      "iata": "TRF",
      "name": "Sandefjord Airport, Torp",
      "updatedAt": "091750Z",
      "visibility_m": 8000,
      "taf_visibility_m": 10000,
      "worst_visibility_m": 8000,
      "ceiling_ft": 2000,
      "hazards": [
        "SN"
      ],
      "severityScore": 18,
      "metarRaw": "METAR ENTO 091750Z 04008KT 010V070 8000 -SN BKN020 M03/M06 Q1019 NOSIG",
      "tafRaw": "TAF ENTO 091700Z 0918/1018 03010KT 9999 -SN BKN030 \n  TEMPO 1012/1018 BKN012",
      "metarHtml": "METAR ENTO 091750Z 04008KT 010V070 8000 -<span class=\"hl\">SN</span> BKN020 M03/M06 Q1019 NOSIG",
      "tafHtml": "TAF ENTO 091700Z 0918/1018 03010KT 9999 -<span class=\"hl\">SN</span> BKN030 \n  TEMPO 1012/1018 BKN012"
    },
    {
      "icao": "EPSY",
      "iata": "SZY",
      "name": "Olsztyn-Mazury Airport",
      "updatedAt": "091730Z",
      "visibility_m": 10000,
      "taf_visibility_m": 3000,
      "worst_visibility_m": 3000,
      "ceiling_ft": 2700,
      "hazards": [
        "SN"
      ],
      "severityScore": 18,
      "metarRaw": "METAR EPSY 091730Z 32005KT 280V360 9999 -SN SCT012 BKN027 M12/M14 Q1002",
      "tafRaw": "TAF EPSY 091730Z 0918/1003 36007KT 9999 BKN012 \n  PROB40 \n  TEMPO 0918/1003 3000 SN BKN007",
      "metarHtml": "METAR EPSY 091730Z 32005KT 280V360 9999 -<span class=\"hl\">SN</span> SCT012 BKN027 M12/M14 Q1002",
      "tafHtml": "TAF EPSY 091730Z 0918/1003 36007KT 9999 BKN012 \n  PROB40 \n  TEMPO 0918/1003 3000 <span class=\"hl\">SN</span> BKN007"
    },
    {
      "icao": "LRSM",
      "iata": "SUJ",
      "name": "Satu Mare International Airport",
      "updatedAt": "091730Z",
      "visibility_m": 7000,
      "taf_visibility_m": 3000,
      "worst_visibility_m": 3000,
      "ceiling_ft": null,
      "hazards": [
        "SN"
      ],
      "severityScore": 18,
      "metarRaw": "METAR LRSM 091730Z AUTO 09005KT 7000 BKN027/// M10/M12 Q1003",
      "tafRaw": "TAF LRSM 091400Z 0915/0924 VRB04KT CAVOK \n  TEMPO 0916/0918 5000 -SN BKN015 BKN040 \n  BECMG 0918/0920 3000 -SN BKN010 OVC030",
      "metarHtml": "METAR LRSM 091730Z AUTO 09005KT 7000 BKN027/// M10/M12 Q1003",
      "tafHtml": "TAF LRSM 091400Z 0915/0924 VRB04KT <span class=\"hl-vis\">CAVOK</span> \n  TEMPO 0916/0918 5000 -<span class=\"hl\">SN</span> BKN015 BKN040 \n  BECMG 0918/0920 3000 -<span class=\"hl\">SN</span> BKN010 OVC030"
    },
    {
      "icao": "LUKK",
      "iata": "RMO",
      "name": "Chişinău International Airport",
      "updatedAt": "091730Z",
      "visibility_m": 10000,
      "taf_visibility_m": 5000,
      "worst_visibility_m": 5000,
      "ceiling_ft": null,
      "hazards": [
        "SN"
      ],
      "severityScore": 18,
      "metarRaw": "METAR LUKK 091730Z 22007KT CAVOK M04/M08 Q1003 NOSIG",
      "tafRaw": "TAF LUKK 091702Z 0918/1018 VRB05KT 9999 SCT030 \n  BECMG 1008/1010 36008KT BKN020 \n  TEMPO 1008/1013 5000 -SN BKN010",
      "metarHtml": "METAR LUKK 091730Z 22007KT <span class=\"hl-vis\">CAVOK</span> M04/M08 Q1003 NOSIG",
      "tafHtml": "TAF LUKK 091702Z 0918/1018 VRB05KT 9999 SCT030 \n  BECMG 1008/1010 36008KT BKN020 \n  TEMPO 1008/1013 5000 -<span class=\"hl\">SN</span> BKN010"
    },
    {
      "icao": "LZKZ",
      "iata": "KSC",
      "name": "Košice International Airport",
      "updatedAt": "091730Z",
      "visibility_m": 10000,
      "taf_visibility_m": 4000,
      "worst_visibility_m": 4000,
      "ceiling_ft": null,
      "hazards": [
        "SN"
      ],
      "severityScore": 18,
      "metarRaw": "METAR LZKZ 091730Z VRB02KT CAVOK M10/M12 Q1002 NOSIG",
      "tafRaw": "TAF LZKZ 091715Z 0918/1018 VRB02KT 9999 SCT045 \n  PROB30 \n  TEMPO 0918/1000 4000 -SN BKN012 BKN020 \n  BECMG 1000/1002 03005KT \n  BECMG 1012/1014 02014KT",
      "metarHtml": "METAR LZKZ 091730Z VRB02KT <span class=\"hl-vis\">CAVOK</span> M10/M12 Q1002 NOSIG",
      "tafHtml": "TAF LZKZ 091715Z 0918/1018 VRB02KT 9999 SCT045 \n  PROB30 \n  TEMPO 0918/1000 4000 -<span class=\"hl\">SN</span> BKN012 BKN020 \n  BECMG 1000/1002 03005KT \n  BECMG 1012/1014 02014KT"
    },
    {
      "icao": "LQSA",
      "iata": "SJJ",
      "name": "Sarajevo International Airport",
      "updatedAt": "091730Z",
      "visibility_m": 3000,
      "taf_visibility_m": null,
      "worst_visibility_m": 3000,
      "ceiling_ft": null,
      "hazards": [
        "BR"
      ],
      "severityScore": 15,
      "metarRaw": "METAR LQSA 091730Z VRB04KT 3000 BR FEW035 SCT050 M02/M02 Q1001 NOSIG",
      "tafRaw": null,
      "metarHtml": "METAR LQSA 091730Z VRB04KT 3000 <span class=\"hl\">BR</span> FEW035 SCT050 M02/M02 Q1001 NOSIG",
      "tafHtml": null
    },
    {
      "icao": "EGGP",
      "iata": "LPL",
      "name": "Liverpool John Lennon Airport",
      "updatedAt": "091750Z",
      "visibility_m": 10000,
      "taf_visibility_m": 6000,
      "worst_visibility_m": 6000,
      "ceiling_ft": null,
      "hazards": [
        "SHRA"
      ],
      "severityScore": 14,
      "metarRaw": "METAR EGGP 091750Z 33007KT CAVOK 04/01 Q1004",
      "tafRaw": "TAF EGGP 091658Z 0918/1018 34010KT 9999 SCT020 \n  PROB30 \n  TEMPO 0918/0919 7000 SHRA \n  BECMG 0922/1001 VRB03KT \n  PROB30 1001/1009 6000 \n  BECMG 1015/1018 16010KT",
      "metarHtml": "METAR EGGP 091750Z 33007KT <span class=\"hl-vis\">CAVOK</span> 04/01 Q1004",
      "tafHtml": "TAF EGGP 091658Z 0918/1018 34010KT 9999 SCT020 \n  PROB30 \n  TEMPO 0918/0919 7000 <span class=\"hl\">SHRA</span> \n  BECMG 0922/1001 VRB03KT \n  PROB30 1001/1009 6000 \n  BECMG 1015/1018 16010KT"
    },
    {
      "icao": "LCLK",
      "iata": "LCA",
      "name": "Larnaca International Airport",
      "updatedAt": "091730Z",
      "visibility_m": 10000,
      "taf_visibility_m": 4000,
      "worst_visibility_m": 4000,
      "ceiling_ft": null,
      "hazards": [
        "SHRA"
      ],
      "severityScore": 14,
      "metarRaw": "METAR LCLK 091730Z 28009KT 250V330 9999 FEW020 13/07 Q1011 NOSIG",
      "tafRaw": "TAF LCLK 091730Z 0918/1018 30018KT 9999 FEW020 SCT040 \n  BECMG 0918/0921 29008KT \n  PROB30 \n  TEMPO 1006/1018 4000 SHRA SCT020TCU \n  BECMG 1007/1011 22016KT",
      "metarHtml": "METAR LCLK 091730Z 28009KT 250V330 9999 FEW020 13/07 Q1011 NOSIG",
      "tafHtml": "TAF LCLK 091730Z 0918/1018 30018KT 9999 FEW020 SCT040 \n  BECMG 0918/0921 29008KT \n  PROB30 \n  TEMPO 1006/1018 4000 <span class=\"hl\">SHRA</span> SCT020TCU \n  BECMG 1007/1011 22016KT"
    },
    {
      "icao": "LCPH",
      "iata": "PFO",
      "name": "Paphos International Airport",
      "updatedAt": "091730Z",
      "visibility_m": 10000,
      "taf_visibility_m": 4000,
      "worst_visibility_m": 4000,
      "ceiling_ft": null,
      "hazards": [
        "SHRA"
      ],
      "severityScore": 14,
      "metarRaw": "METAR LCPH 091730Z 32026G37KT 9999 FEW030 SCT045 15/05 Q1013 NOSIG",
      "tafRaw": "TAF LCPH 091730Z 0918/1018 30025G35KT 9999 FEW025 SCT040 \n  BECMG 0918/0921 33012KT \n  PROB30 \n  TEMPO 1001/1018 4000 SHRA SCT020TCU \n  BECMG 1005/1009 26014KT",
      "metarHtml": "METAR LCPH 091730Z 32026G37KT 9999 FEW030 SCT045 15/05 Q1013 NOSIG",
      "tafHtml": "TAF LCPH 091730Z 0918/1018 30025G35KT 9999 FEW025 SCT040 \n  BECMG 0918/0921 33012KT \n  PROB30 \n  TEMPO 1001/1018 4000 <span class=\"hl\">SHRA</span> SCT020TCU \n  BECMG 1005/1009 26014KT"
    },
    {
      "icao": "LFLL",
      "iata": "LYS",
      "name": "Lyon Saint-Exupéry Airport",
      "updatedAt": "091730Z",
      "visibility_m": 10000,
      "taf_visibility_m": 4000,
      "worst_visibility_m": 4000,
      "ceiling_ft": 12000,
      "hazards": [
        "SHRA"
      ],
      "severityScore": 14,
      "metarRaw": "METAR LFLL 091730Z 25009KT 9999 FEW040 SCT073 BKN120 05/02 Q1005 NOSIG",
      "tafRaw": "TAF LFLL 091700Z 0918/1024 25010KT 9999 SCT060 \n  PROB30 \n  TEMPO 0918/0924 -SHRA SCT030TCU \n  PROB30 \n  TEMPO 1000/1012 4000 -SHRASN BKN014 SCT020TCU \n  BECMG 1011/1013 35008KT \n  PROB30 \n  TEMPO 1012/1017 -SHRA BKN020 SCT025TCU \n  PROB40 \n  TEMPO 1017/1024 4000 -SHSNRA BKN014 SCT020TCU",
      "metarHtml": "METAR LFLL 091730Z 25009KT 9999 FEW040 SCT073 BKN120 05/02 Q1005 NOSIG",
      "tafHtml": "TAF LFLL 091700Z 0918/1024 25010KT 9999 SCT060 \n  PROB30 \n  TEMPO 0918/0924 -<span class=\"hl\">SHRA</span> SCT030TCU \n  PROB30 \n  TEMPO 1000/1012 4000 -SHRASN BKN014 SCT020TCU \n  BECMG 1011/1013 35008KT \n  PROB30 \n  TEMPO 1012/1017 -<span class=\"hl\">SHRA</span> BKN020 SCT025TCU \n  PROB40 \n  TEMPO 1017/1024 4000 -SHSNRA BKN014 SCT020TCU"
    },
    {
      "icao": "LFOB",
      "iata": "BVA",
      "name": "Beauvais Tillé airport",
      "updatedAt": "091730Z",
      "visibility_m": 4000,
      "taf_visibility_m": 4000,
      "worst_visibility_m": 4000,
      "ceiling_ft": 2900,
      "hazards": [
        "SHRA"
      ],
      "severityScore": 14,
      "metarRaw": "METAR LFOB 091730Z AUTO 29018KT 9999 FEW020 BKN029 BKN054 04/02 Q0997 TEMPO 4000 SHRA BKN012TCU BECMG 28015G25KT",
      "tafRaw": "TAF LFOB 091700Z 0918/1018 28015G25KT 9999 BKN025 \n  TEMPO 0918/1003 4000 -SHRA BKN011TCU \n  PROB40 \n  TEMPO 0918/1003 BKN008 \n  TEMPO 1003/1011 BKN014",
      "metarHtml": "METAR LFOB 091730Z AUTO 29018KT 9999 FEW020 BKN029 BKN054 04/02 Q0997 TEMPO 4000 <span class=\"hl\">SHRA</span> BKN012TCU BECMG 28015G25KT",
      "tafHtml": "TAF LFOB 091700Z 0918/1018 28015G25KT 9999 BKN025 \n  TEMPO 0918/1003 4000 -<span class=\"hl\">SHRA</span> BKN011TCU \n  PROB40 \n  TEMPO 0918/1003 BKN008 \n  TEMPO 1003/1011 BKN014"
    },
    {
      "icao": "LFPO",
      "iata": "ORY",
      "name": "Paris-Orly Airport",
      "updatedAt": "091730Z",
      "visibility_m": 10000,
      "taf_visibility_m": 4500,
      "worst_visibility_m": 4500,
      "ceiling_ft": 15000,
      "hazards": [
        "SHRA"
      ],
      "severityScore": 14,
      "metarRaw": "METAR LFPO 091730Z 27014KT 9999 FEW017 SCT036 BKN150 05/02 Q0999 NOSIG",
      "tafRaw": "TAF LFPO 091700Z 0918/1024 27015KT 9999 SCT020 BKN140 \n  PROB40 \n  TEMPO 0918/1005 28015G30KT \n  PROB30 \n  TEMPO 0918/0923 4500 -SHRA BKN014TCU \n  TEMPO 1011/1015 31015G25KT \n  BECMG 1019/1021 31005KT",
      "metarHtml": "METAR LFPO 091730Z 27014KT 9999 FEW017 SCT036 BKN150 05/02 Q0999 NOSIG",
      "tafHtml": "TAF LFPO 091700Z 0918/1024 27015KT 9999 SCT020 BKN140 \n  PROB40 \n  TEMPO 0918/1005 28015G30KT \n  PROB30 \n  TEMPO 0918/0923 4500 -<span class=\"hl\">SHRA</span> BKN014TCU \n  TEMPO 1011/1015 31015G25KT \n  BECMG 1019/1021 31005KT"
    },
    {
      "icao": "LIRP",
      "iata": "PSA",
      "name": "Pisa International Airport",
      "updatedAt": "091745Z",
      "visibility_m": 10000,
      "taf_visibility_m": 7000,
      "worst_visibility_m": 7000,
      "ceiling_ft": null,
      "hazards": [
        "SHRA"
      ],
      "severityScore": 14,
      "metarRaw": "METAR LIRP 091745Z 26020KT 9999 SCT035 12/06 Q1002 NOSIG",
      "tafRaw": "TAF LIRP 091700Z 0918/1018 27015KT 9999 FEW020 SCT040 \n  TEMPO 0918/0920 25015G25KT \n  BECMG 0921/0923 34008KT \n  TEMPO 0922/1004 7000 SHRA FEW015TCU BKN020 \n  BECMG 1008/1010 VRB05KT CAVOK",
      "metarHtml": "METAR LIRP 091745Z 26020KT 9999 SCT035 12/06 Q1002 NOSIG",
      "tafHtml": "TAF LIRP 091700Z 0918/1018 27015KT 9999 FEW020 SCT040 \n  TEMPO 0918/0920 25015G25KT \n  BECMG 0921/0923 34008KT \n  TEMPO 0922/1004 7000 <span class=\"hl\">SHRA</span> FEW015TCU BKN020 \n  BECMG 1008/1010 VRB05KT <span class=\"hl-vis\">CAVOK</span>"
    },
    {
      "icao": "LMML",
      "iata": "MLA",
      "name": "Malta International Airport",
      "updatedAt": "091745Z",
      "visibility_m": 10000,
      "taf_visibility_m": 8000,
      "worst_visibility_m": 8000,
      "ceiling_ft": null,
      "hazards": [
        "SHRA"
      ],
      "severityScore": 14,
      "metarRaw": "METAR LMML 091745Z 24009KT 200V270 9999 FEW013 14/10 Q1017 NOSIG",
      "tafRaw": "TAF LMML 091700Z 0918/1018 24018KT 9999 FEW015 \n  PROB30 \n  TEMPO 0920/1006 BKN007 BKN014 \n  TEMPO 1000/1018 8000 SHRA BKN014TCU \n  BECMG 1003/1006 30025G35KT",
      "metarHtml": "METAR LMML 091745Z 24009KT 200V270 9999 FEW013 14/10 Q1017 NOSIG",
      "tafHtml": "TAF LMML 091700Z 0918/1018 24018KT 9999 FEW015 \n  PROB30 \n  TEMPO 0920/1006 BKN007 BKN014 \n  TEMPO 1000/1018 8000 <span class=\"hl\">SHRA</span> BKN014TCU \n  BECMG 1003/1006 30025G35KT"
    },
    {
      "icao": "UGKO",
      "iata": "KUT",
      "name": "David the Builder Kutaisi International Airport",
      "updatedAt": "091730Z",
      "visibility_m": 10000,
      "taf_visibility_m": 2000,
      "worst_visibility_m": 2000,
      "ceiling_ft": 5000,
      "hazards": [
        "SHRA"
      ],
      "severityScore": 14,
      "metarRaw": "METAR UGKO 091730Z 09004KT 9999 OVC050 05/04 Q1006 NOSIG",
      "tafRaw": "TAF UGKO 091700Z 0918/1018 25010KT 9999 OVC050 TX09/1012Z TN04/1003Z \n  TEMPO 0918/0921 VRB02KT \n  TEMPO 0921/1008 26020G30KT 2000 SHRA BKN015CB OVC030 \n  BECMG 1010/1013 CAVOK \n  BECMG 1012/1015 08010KT \n  TEMPO 1015/1018 08017G27KT",
      "metarHtml": "METAR UGKO 091730Z 09004KT 9999 OVC050 05/04 Q1006 NOSIG",
      "tafHtml": "TAF UGKO 091700Z 0918/1018 25010KT 9999 OVC050 TX09/1012Z TN04/1003Z \n  TEMPO 0918/0921 VRB02KT \n  TEMPO 0921/1008 26020G30KT 2000 <span class=\"hl\">SHRA</span> BKN015CB OVC030 \n  BECMG 1010/1013 <span class=\"hl-vis\">CAVOK</span> \n  BECMG 1012/1015 08010KT \n  TEMPO 1015/1018 08017G27KT"
    },
    {
      "icao": "EGGW",
      "iata": "LTN",
      "name": "London Luton Airport",
      "updatedAt": "091750Z",
      "visibility_m": 10000,
      "taf_visibility_m": 6000,
      "worst_visibility_m": 6000,
      "ceiling_ft": 1200,
      "hazards": [],
      "severityScore": 12,
      "metarRaw": "METAR EGGW 091750Z AUTO 32019KT 9999 BKN012 BKN017 03/01 Q0999",
      "tafRaw": "TAF EGGW 091704Z 0918/1018 32013KT 9999 SCT010 BKN016 \n  TEMPO 0918/0924 7000 -RADZ BKN007 \n  PROB30 \n  TEMPO 0918/0921 32016G26KT \n  TEMPO 1000/1012 BKN006 \n  PROB30 \n  TEMPO 1000/1010 6000 -RASN BKN004 \n  BECMG 1015/1018 VRB04KT",
      "metarHtml": "METAR EGGW 091750Z AUTO 32019KT 9999 BKN012 BKN017 03/01 Q0999",
      "tafHtml": "TAF EGGW 091704Z 0918/1018 32013KT 9999 SCT010 BKN016 \n  TEMPO 0918/0924 7000 -RADZ BKN007 \n  PROB30 \n  TEMPO 0918/0921 32016G26KT \n  TEMPO 1000/1012 BKN006 \n  PROB30 \n  TEMPO 1000/1010 6000 -RASN BKN004 \n  BECMG 1015/1018 VRB04KT"
    },
    {
      "icao": "LBPD",
      "iata": "PDV",
      "name": "Plovdiv International Airport",
      "updatedAt": "091730Z",
      "visibility_m": 10000,
      "taf_visibility_m": 5000,
      "worst_visibility_m": 5000,
      "ceiling_ft": null,
      "hazards": [
        "RA"
      ],
      "severityScore": 12,
      "metarRaw": "METAR LBPD 091730Z AUTO 21003KT 9999 BKN079/// OVC180/// 04/M01 Q1006 NOSIG",
      "tafRaw": "TAF LBPD 091700Z 0918/1018 VRB03KT 9999 SCT050 \n  TEMPO 1012/1017 5000 RA BKN015 OVC030 \n  BECMG 1017/1018 32016KT",
      "metarHtml": "METAR LBPD 091730Z AUTO 21003KT 9999 BKN079/// OVC180/// 04/M01 Q1006 NOSIG",
      "tafHtml": "TAF LBPD 091700Z 0918/1018 VRB03KT 9999 SCT050 \n  TEMPO 1012/1017 5000 <span class=\"hl\">RA</span> BKN015 OVC030 \n  BECMG 1017/1018 32016KT"
    },
    {
      "icao": "LEZG",
      "iata": "ZAZ",
      "name": "Zaragoza Airport",
      "updatedAt": "091730Z",
      "visibility_m": 10000,
      "taf_visibility_m": 10000,
      "worst_visibility_m": 10000,
      "ceiling_ft": null,
      "hazards": [
        "RA"
      ],
      "severityScore": 12,
      "metarRaw": "METAR LEZG 091730Z 28012KT 9999 FEW075 08/04 Q1018 NOSIG",
      "tafRaw": "TAF LEZG 091700Z 0918/1018 29012KT 9999 FEW040 TX11/1015Z TN05/1006Z \n  TEMPO 0918/0921 RA \n  TEMPO 0922/1002 29015G25KT \n  TEMPO 1011/1017 32020G30KT",
      "metarHtml": "METAR LEZG 091730Z 28012KT 9999 FEW075 08/04 Q1018 NOSIG",
      "tafHtml": "TAF LEZG 091700Z 0918/1018 29012KT 9999 FEW040 TX11/1015Z TN05/1006Z \n  TEMPO 0918/0921 <span class=\"hl\">RA</span> \n  TEMPO 0922/1002 29015G25KT \n  TEMPO 1011/1017 32020G30KT"
    },
    {
      "icao": "LGAV",
      "iata": "ATH",
      "name": "Athens Eleftherios Venizelos International Airport",
      "updatedAt": "091750Z",
      "visibility_m": 10000,
      "taf_visibility_m": 10000,
      "worst_visibility_m": 10000,
      "ceiling_ft": null,
      "hazards": [
        "RA"
      ],
      "severityScore": 12,
      "metarRaw": "METAR LGAV 091750Z VRB03KT 9999 FEW030 09/02 Q1012 NOSIG",
      "tafRaw": "TAF LGAV 091700Z 0918/1018 24012KT 9999 FEW025 \n  BECMG 1006/1008 24015G25KT \n  BECMG 1004/1006 SCT025 \n  PROB30 \n  TEMPO 1010/1015 RA SCT020 SCT070",
      "metarHtml": "METAR LGAV 091750Z VRB03KT 9999 FEW030 09/02 Q1012 NOSIG",
      "tafHtml": "TAF LGAV 091700Z 0918/1018 24012KT 9999 FEW025 \n  BECMG 1006/1008 24015G25KT \n  BECMG 1004/1006 SCT025 \n  PROB30 \n  TEMPO 1010/1015 <span class=\"hl\">RA</span> SCT020 SCT070"
    },
    {
      "icao": "LGTS",
      "iata": "SKG",
      "name": "Thessaloniki Macedonia International Airport",
      "updatedAt": "091750Z",
      "visibility_m": 10000,
      "taf_visibility_m": 5000,
      "worst_visibility_m": 5000,
      "ceiling_ft": null,
      "hazards": [
        "RA"
      ],
      "severityScore": 12,
      "metarRaw": "METAR LGTS 091750Z VRB03KT 9999 FEW025 04/01 Q1009 NOSIG",
      "tafRaw": "TAF LGTS 091700Z 0918/1018 VRB03KT 9999 FEW030 \n  BECMG 1003/1005 SCT030 \n  PROB40 \n  TEMPO 1005/1015 5000 RA FEW010 BKN025 \n  BECMG 1012/1014 22015KT",
      "metarHtml": "METAR LGTS 091750Z VRB03KT 9999 FEW025 04/01 Q1009 NOSIG",
      "tafHtml": "TAF LGTS 091700Z 0918/1018 VRB03KT 9999 FEW030 \n  BECMG 1003/1005 SCT030 \n  PROB40 \n  TEMPO 1005/1015 5000 <span class=\"hl\">RA</span> FEW010 BKN025 \n  BECMG 1012/1014 22015KT"
    },
    {
      "icao": "LIBD",
      "iata": "BRI",
      "name": "Bari Karol Wojtyła International Airport",
      "updatedAt": "091750Z",
      "visibility_m": 10000,
      "taf_visibility_m": 10000,
      "worst_visibility_m": 10000,
      "ceiling_ft": null,
      "hazards": [
        "RA"
      ],
      "severityScore": 12,
      "metarRaw": "METAR LIBD 091750Z 21005KT CAVOK 12/07 Q1005",
      "tafRaw": "TAF LIBD 091700Z 0918/1018 25016KT 9999 SCT040 \n  BECMG 1008/1010 31018G30KT \n  TEMPO 1012/1018 RA",
      "metarHtml": "METAR LIBD 091750Z 21005KT <span class=\"hl-vis\">CAVOK</span> 12/07 Q1005",
      "tafHtml": "TAF LIBD 091700Z 0918/1018 25016KT 9999 SCT040 \n  BECMG 1008/1010 31018G30KT \n  TEMPO 1012/1018 <span class=\"hl\">RA</span>"
    },
    {
      "icao": "LIBP",
      "iata": "PSR",
      "name": "Abruzzo Airport",
      "updatedAt": "091750Z",
      "visibility_m": 10000,
      "taf_visibility_m": 10000,
      "worst_visibility_m": 10000,
      "ceiling_ft": null,
      "hazards": [
        "RA"
      ],
      "severityScore": 12,
      "metarRaw": "METAR LIBP 091750Z AUTO 22013KT 9999 SCT100/// 10/07 Q1002",
      "tafRaw": "TAF LIBP 091700Z 0918/1018 24012KT 9999 SCT050 \n  TEMPO 0918/0922 24018G28KT \n  TEMPO 1000/1009 RA \n  BECMG 1004/1006 35005KT \n  BECMG 1010/1012 35015KT",
      "metarHtml": "METAR LIBP 091750Z AUTO 22013KT 9999 SCT100/// 10/07 Q1002",
      "tafHtml": "TAF LIBP 091700Z 0918/1018 24012KT 9999 SCT050 \n  TEMPO 0918/0922 24018G28KT \n  TEMPO 1000/1009 <span class=\"hl\">RA</span> \n  BECMG 1004/1006 35005KT \n  BECMG 1010/1012 35015KT"
    },
    {
      "icao": "LIBR",
      "iata": "BDS",
      "name": "Brindisi Airport",
      "updatedAt": "091750Z",
      "visibility_m": 10000,
      "taf_visibility_m": 10000,
      "worst_visibility_m": 10000,
      "ceiling_ft": null,
      "hazards": [
        "RA"
      ],
      "severityScore": 12,
      "metarRaw": "METAR LIBR 091750Z 22010KT CAVOK 14/09 Q1006",
      "tafRaw": "TAF LIBR 091700Z 0918/1018 21013KT 9999 FEW040 \n  TEMPO 1008/1012 24020G30KT \n  TEMPO 1011/1018 RA",
      "metarHtml": "METAR LIBR 091750Z 22010KT <span class=\"hl-vis\">CAVOK</span> 14/09 Q1006",
      "tafHtml": "TAF LIBR 091700Z 0918/1018 21013KT 9999 FEW040 \n  TEMPO 1008/1012 24020G30KT \n  TEMPO 1011/1018 <span class=\"hl\">RA</span>"
    },
    {
      "icao": "LIPR",
      "iata": "RMI",
      "name": "Federico Fellini International Airport",
      "updatedAt": "091750Z",
      "visibility_m": 8000,
      "taf_visibility_m": 10000,
      "worst_visibility_m": 8000,
      "ceiling_ft": null,
      "hazards": [
        "RA"
      ],
      "severityScore": 12,
      "metarRaw": "METAR LIPR 091750Z 17007G18KT 130V210 8000 NSC 02/01 Q0999 RERA",
      "tafRaw": "TAF LIPR 091700Z 0918/1018 29010KT 9999 SCT040 \n  BECMG 0918/0920 VRB05KT \n  TEMPO 1003/1006 RA \n  BECMG 1004/1006 30010KT",
      "metarHtml": "METAR LIPR 091750Z 17007G18KT 130V210 8000 NSC 02/01 Q0999 RERA",
      "tafHtml": "TAF LIPR 091700Z 0918/1018 29010KT 9999 SCT040 \n  BECMG 0918/0920 VRB05KT \n  TEMPO 1003/1006 <span class=\"hl\">RA</span> \n  BECMG 1004/1006 30010KT"
    },
    {
      "icao": "LIPY",
      "iata": "AOI",
      "name": "Marche Airport",
      "updatedAt": "091750Z",
      "visibility_m": 6000,
      "taf_visibility_m": 10000,
      "worst_visibility_m": 6000,
      "ceiling_ft": null,
      "hazards": [
        "RA"
      ],
      "severityScore": 12,
      "metarRaw": "METAR LIPY 091750Z AUTO VRB02KT 6000 FEW006/// SCT100/// 04/03 Q1001",
      "tafRaw": "TAF LIPY 091700Z 0918/1018 24012KT 9999 SCT050 \n  TEMPO 1002/1006 RA \n  BECMG 1004/1006 32012KT",
      "metarHtml": "METAR LIPY 091750Z AUTO VRB02KT 6000 FEW006/// SCT100/// 04/03 Q1001",
      "tafHtml": "TAF LIPY 091700Z 0918/1018 24012KT 9999 SCT050 \n  TEMPO 1002/1006 <span class=\"hl\">RA</span> \n  BECMG 1004/1006 32012KT"
    },
    {
      "icao": "LWOH",
      "iata": "OHD",
      "name": "Ohrid St. Paul the Apostle Airport",
      "updatedAt": "091750Z",
      "visibility_m": 6000,
      "taf_visibility_m": 3000,
      "worst_visibility_m": 3000,
      "ceiling_ft": 2000,
      "hazards": [
        "RA"
      ],
      "severityScore": 12,
      "metarRaw": "METAR LWOH 091750Z VRB03KT 6000 -RA SCT006 OVC020 01/01 Q1007",
      "tafRaw": "TAF LWOH 091740Z 0918/1018 VRB03KT 3000 RA SCT005 OVC020 \n  TEMPO 0918/1012 19012KT",
      "metarHtml": "METAR LWOH 091750Z VRB03KT 6000 -<span class=\"hl\">RA</span> SCT006 OVC020 01/01 Q1007",
      "tafHtml": "TAF LWOH 091740Z 0918/1018 VRB03KT 3000 <span class=\"hl\">RA</span> SCT005 OVC020 \n  TEMPO 0918/1012 19012KT"
    },
    {
      "icao": "OEJN",
      "iata": "JED",
      "name": "King Abdulaziz International Airport",
      "updatedAt": "091700Z",
      "visibility_m": 10000,
      "taf_visibility_m": 2000,
      "worst_visibility_m": 2000,
      "ceiling_ft": null,
      "hazards": [
        "RA"
      ],
      "severityScore": 12,
      "metarRaw": "METAR OEJN 091700Z 22006KT 9999 SCT040 27/17 Q1014 NOSIG",
      "tafRaw": "TAF OEJN 091700Z 0918/1024 04006KT 6000 SCT040 \n  TEMPO 0922/1005 2000 HZ \n  BECMG 1006/1008 34015KT \n  TEMPO 1006/1012 RA FEW035CB BKN040 \n  BECMG 1018/1020 05004KT FEW040",
      "metarHtml": "METAR OEJN 091700Z 22006KT 9999 SCT040 27/17 Q1014 NOSIG",
      "tafHtml": "TAF OEJN 091700Z 0918/1024 04006KT 6000 SCT040 \n  TEMPO 0922/1005 2000 HZ \n  BECMG 1006/1008 34015KT \n  TEMPO 1006/1012 <span class=\"hl\">RA</span> FEW035CB BKN040 \n  BECMG 1018/1020 05004KT FEW040"
    },
    {
      "icao": "GMMN",
      "iata": "CMN",
      "name": "Mohammed V International Airport",
      "updatedAt": "091730Z",
      "visibility_m": 10000,
      "taf_visibility_m": 3000,
      "worst_visibility_m": 3000,
      "ceiling_ft": null,
      "hazards": [
        "BR"
      ],
      "severityScore": 10,
      "metarRaw": "METAR GMMN 091730Z 01007KT 9999 SCT023 12/08 Q1030 NOSIG",
      "tafRaw": "TAF GMMN 091700Z 0918/1024 02006KT 9999 FEW023 \n  PROB30 \n  TEMPO 1000/1007 3000 BR SCT006 \n  BECMG 1010/1013 02010KT 9999 BKN020",
      "metarHtml": "METAR GMMN 091730Z 01007KT 9999 SCT023 12/08 Q1030 NOSIG",
      "tafHtml": "TAF GMMN 091700Z 0918/1024 02006KT 9999 FEW023 \n  PROB30 \n  TEMPO 1000/1007 3000 <span class=\"hl\">BR</span> SCT006 \n  BECMG 1010/1013 02010KT 9999 BKN020"
    },
    {
      "icao": "GMMX",
      "iata": "RAK",
      "name": "Menara Airport",
      "updatedAt": "091730Z",
      "visibility_m": 10000,
      "taf_visibility_m": 3000,
      "worst_visibility_m": 3000,
      "ceiling_ft": null,
      "hazards": [
        "BR"
      ],
      "severityScore": 10,
      "metarRaw": "METAR GMMX 091730Z 36005KT 330V040 CAVOK 15/07 Q1028 NOSIG",
      "tafRaw": "TAF GMMX 091700Z 0918/1024 06006KT 8000 NSC \n  TEMPO 0918/0922 34016KT \n  TEMPO 1005/1010 3000 BR BKN006",
      "metarHtml": "METAR GMMX 091730Z 36005KT 330V040 <span class=\"hl-vis\">CAVOK</span> 15/07 Q1028 NOSIG",
      "tafHtml": "TAF GMMX 091700Z 0918/1024 06006KT 8000 NSC \n  TEMPO 0918/0922 34016KT \n  TEMPO 1005/1010 3000 <span class=\"hl\">BR</span> BKN006"
    },
    {
      "icao": "EGBB",
      "iata": "BHX",
      "name": "Birmingham Airport",
      "updatedAt": "091750Z",
      "visibility_m": 10000,
      "taf_visibility_m": 2000,
      "worst_visibility_m": 2000,
      "ceiling_ft": null,
      "hazards": [
        "BR"
      ],
      "severityScore": 10,
      "metarRaw": "METAR EGBB 091750Z 31012KT CAVOK 03/01 Q1002",
      "tafRaw": "TAF EGBB 091701Z 0918/1018 32008KT 9999 FEW010 \n  PROB30 \n  TEMPO 0918/0921 6000 BKN010 \n  TEMPO 0921/1015 6000 \n  PROB30 1004/1011 3000 BR MIFG \n  PROB40 1016/1018 2000 BR MIFG",
      "metarHtml": "METAR EGBB 091750Z 31012KT <span class=\"hl-vis\">CAVOK</span> 03/01 Q1002",
      "tafHtml": "TAF EGBB 091701Z 0918/1018 32008KT 9999 FEW010 \n  PROB30 \n  TEMPO 0918/0921 6000 BKN010 \n  TEMPO 0921/1015 6000 \n  PROB30 1004/1011 3000 <span class=\"hl\">BR</span> MIFG \n  PROB40 1016/1018 2000 <span class=\"hl\">BR</span> MIFG"
    },
    {
      "icao": "EGKK",
      "iata": "LGW",
      "name": "London Gatwick Airport",
      "updatedAt": "091750Z",
      "visibility_m": 10000,
      "taf_visibility_m": 5000,
      "worst_visibility_m": 5000,
      "ceiling_ft": 2200,
      "hazards": [
        "BR"
      ],
      "severityScore": 10,
      "metarRaw": "METAR EGKK 091750Z 31015KT 9999 BKN022 04/02 Q0999",
      "tafRaw": "TAF EGKK 091657Z 0918/1024 31012KT 9999 SCT020 \n  PROB30 \n  TEMPO 0918/1003 31015G25KT \n  PROB30 \n  TEMPO 1006/1012 BKN010 \n  PROB40 \n  TEMPO 1018/1023 8000 \n  TEMPO 1023/1024 5000 BR",
      "metarHtml": "METAR EGKK 091750Z 31015KT 9999 BKN022 04/02 Q0999",
      "tafHtml": "TAF EGKK 091657Z 0918/1024 31012KT 9999 SCT020 \n  PROB30 \n  TEMPO 0918/1003 31015G25KT \n  PROB30 \n  TEMPO 1006/1012 BKN010 \n  PROB40 \n  TEMPO 1018/1023 8000 \n  TEMPO 1023/1024 5000 <span class=\"hl\">BR</span>"
    },
    {
      "icao": "EGPD",
      "iata": "ABZ",
      "name": "Aberdeen International Airport",
      "updatedAt": "091750Z",
      "visibility_m": 4000,
      "taf_visibility_m": 1500,
      "worst_visibility_m": 1500,
      "ceiling_ft": null,
      "hazards": [],
      "severityScore": 10,
      "metarRaw": "METAR EGPD 091750Z AUTO 15004KT 9999 SCT021/// BKN030/// BKN039/// //////TCU 02/01 Q1007 TEMPO 4000 SHRASN",
      "tafRaw": "TAF EGPD 091659Z 0918/1018 12007KT 9999 FEW015 SCT040 \n  TEMPO 0918/1003 6000 -SHRASN BKN012 \n  PROB30 \n  TEMPO 0918/1003 4000 SHRASN BKN006 \n  BECMG 1003/1006 18010KT \n  TEMPO 1006/1015 4000 -SHRASN BKN008 \n  PROB40 \n  TEMPO 1006/1015 1500 SHRASN BKN004",
      "metarHtml": "METAR EGPD 091750Z AUTO 15004KT 9999 SCT021/// BKN030/// BKN039/// //////TCU 02/01 Q1007 TEMPO 4000 SHRASN",
      "tafHtml": "TAF EGPD 091659Z 0918/1018 12007KT 9999 FEW015 SCT040 \n  TEMPO 0918/1003 6000 -SHRASN BKN012 \n  PROB30 \n  TEMPO 0918/1003 4000 SHRASN BKN006 \n  BECMG 1003/1006 18010KT \n  TEMPO 1006/1015 4000 -SHRASN BKN008 \n  PROB40 \n  TEMPO 1006/1015 1500 SHRASN BKN004"
    },
    {
      "icao": "LEZL",
      "iata": "SVQ",
      "name": "Sevilla Airport",
      "updatedAt": "091730Z",
      "visibility_m": 10000,
      "taf_visibility_m": 2000,
      "worst_visibility_m": 2000,
      "ceiling_ft": null,
      "hazards": [
        "BR"
      ],
      "severityScore": 10,
      "metarRaw": "METAR LEZL 091730Z 23006KT CAVOK 15/13 Q1026 NOSIG",
      "tafRaw": "TAF LEZL 091400Z 0915/1015 27010KT 9999 SCT030 TX16/0915Z TN06/1007Z \n  PROB30 \n  TEMPO 1000/1012 4000 BR \n  PROB30 \n  TEMPO 1005/1010 2000 BR BKN005",
      "metarHtml": "METAR LEZL 091730Z 23006KT <span class=\"hl-vis\">CAVOK</span> 15/13 Q1026 NOSIG",
      "tafHtml": "TAF LEZL 091400Z 0915/1015 27010KT 9999 SCT030 TX16/0915Z TN06/1007Z \n  PROB30 \n  TEMPO 1000/1012 4000 <span class=\"hl\">BR</span> \n  PROB30 \n  TEMPO 1005/1010 2000 <span class=\"hl\">BR</span> BKN005"
    },
    {
      "icao": "LIMC",
      "iata": "MXP",
      "name": "Milan Malpensa International Airport",
      "updatedAt": "091750Z",
      "visibility_m": 4500,
      "taf_visibility_m": 4000,
      "worst_visibility_m": 4000,
      "ceiling_ft": null,
      "hazards": [
        "BR"
      ],
      "severityScore": 10,
      "metarRaw": "METAR LIMC 091750Z VRB02KT 4500 BR NSC 00/M02 Q1001 NOSIG",
      "tafRaw": "TAF LIMC 091700Z 0918/1024 VRB04KT 9000 SCT030 \n  TEMPO 0918/1006 4000 BR",
      "metarHtml": "METAR LIMC 091750Z VRB02KT 4500 <span class=\"hl\">BR</span> NSC 00/M02 Q1001 NOSIG",
      "tafHtml": "TAF LIMC 091700Z 0918/1024 VRB04KT 9000 SCT030 \n  TEMPO 0918/1006 4000 <span class=\"hl\">BR</span>"
    },
    {
      "icao": "LECH",
      "iata": "CDT",
      "name": "Castellón-Costa Azahar Airport",
      "updatedAt": "091730Z",
      "visibility_m": 10000,
      "taf_visibility_m": null,
      "worst_visibility_m": 10000,
      "ceiling_ft": null,
      "hazards": [],
      "severityScore": 5,
      "metarRaw": "METAR LECH 091730Z AUTO 29013KT 260V330 CAVOK 13/M03 Q1016",
      "tafRaw": null,
      "metarHtml": "METAR LECH 091730Z AUTO 29013KT 260V330 <span class=\"hl-vis\">CAVOK</span> 13/M03 Q1016",
      "tafHtml": null
    },
    {
      "icao": "LFBD",
      "iata": "BOD",
      "name": "Bordeaux–Mérignac Airport",
      "updatedAt": "091730Z",
      "visibility_m": 10000,
      "taf_visibility_m": null,
      "worst_visibility_m": 10000,
      "ceiling_ft": null,
      "hazards": [],
      "severityScore": 5,
      "metarRaw": "METAR LFBD 091730Z AUTO 28005KT 9999 FEW031/// BKN041/// BKN062/// //////CB 06/04 Q1013",
      "tafRaw": null,
      "metarHtml": "METAR LFBD 091730Z AUTO 28005KT 9999 FEW031/// BKN041/// BKN062/// //////CB 06/04 Q1013",
      "tafHtml": null
    },
    {
      "icao": "UBBB",
      "iata": "GYD",
      "name": "Heydar Aliyev International Airport",
      "updatedAt": "091730Z",
      "visibility_m": 10000,
      "taf_visibility_m": null,
      "worst_visibility_m": 10000,
      "ceiling_ft": null,
      "hazards": [],
      "severityScore": 5,
      "metarRaw": "METAR UBBB 091730Z 30016KT CAVOK 10/06 Q1000 NOSIG",
      "tafRaw": null,
      "metarHtml": "METAR UBBB 091730Z 30016KT <span class=\"hl-vis\">CAVOK</span> 10/06 Q1000 NOSIG",
      "tafHtml": null
    },
    {
      "icao": "BIKF",
      "iata": "KEF",
      "name": "Keflavik International Airport",
      "updatedAt": "091730Z",
      "visibility_m": 10000,
      "taf_visibility_m": 10000,
      "worst_visibility_m": 10000,
      "ceiling_ft": null,
      "hazards": [],
      "severityScore": 0,
      "metarRaw": "METAR BIKF 091730Z 03015KT CAVOK M01/M07 Q1010",
      "tafRaw": "TAF BIKF 091616Z 0918/1018 03015KT 9999 FEW040 TXM01/0921Z TNM07/1010Z \n  BECMG 1001/1003 01005KT",
      "metarHtml": "METAR BIKF 091730Z 03015KT <span class=\"hl-vis\">CAVOK</span> M01/M07 Q1010",
      "tafHtml": "TAF BIKF 091616Z 0918/1018 03015KT 9999 FEW040 TXM01/0921Z TNM07/1010Z \n  BECMG 1001/1003 01005KT"
    },
    {
      "icao": "GCFV",
      "iata": "FUE",
      "name": "Fuerteventura Airport",
      "updatedAt": "091730Z",
      "visibility_m": 10000,
      "taf_visibility_m": 10000,
      "worst_visibility_m": 10000,
      "ceiling_ft": 4000,
      "hazards": [],
      "severityScore": 0,
      "metarRaw": "METAR GCFV 091730Z 03015KT 9999 FEW030 BKN040 18/10 Q1028",
      "tafRaw": "TAF GCFV 091400Z 0915/1015 05013KT 9999 SCT025 TX20/1014Z TN15/1006Z \n  PROB30 \n  TEMPO 0919/0924 05015G25KT",
      "metarHtml": "METAR GCFV 091730Z 03015KT 9999 FEW030 BKN040 18/10 Q1028",
      "tafHtml": "TAF GCFV 091400Z 0915/1015 05013KT 9999 SCT025 TX20/1014Z TN15/1006Z \n  PROB30 \n  TEMPO 0919/0924 05015G25KT"
    },
    {
      "icao": "GCLP",
      "iata": "LPA",
      "name": "Gran Canaria Airport",
      "updatedAt": "091730Z",
      "visibility_m": 10000,
      "taf_visibility_m": 10000,
      "worst_visibility_m": 10000,
      "ceiling_ft": null,
      "hazards": [],
      "severityScore": 0,
      "metarRaw": "METAR GCLP 091730Z 03015KT 9999 FEW035 19/11 Q1028 NOSIG",
      "tafRaw": "TAF GCLP 091400Z 0915/1015 03013KT 9999 FEW030 TX19/1014Z TN15/1006Z",
      "metarHtml": "METAR GCLP 091730Z 03015KT 9999 FEW035 19/11 Q1028 NOSIG",
      "tafHtml": "TAF GCLP 091400Z 0915/1015 03013KT 9999 FEW030 TX19/1014Z TN15/1006Z"
    },
    {
      "icao": "GCTS",
      "iata": "TFS",
      "name": "Tenerife Sur Airport",
      "updatedAt": "091730Z",
      "visibility_m": 10000,
      "taf_visibility_m": 10000,
      "worst_visibility_m": 10000,
      "ceiling_ft": null,
      "hazards": [],
      "severityScore": 0,
      "metarRaw": "METAR GCTS 091730Z 08017KT 9999 FEW035 19/10 Q1028 NOSIG",
      "tafRaw": "TAF GCTS 091400Z 0915/1015 10015KT 9999 FEW030 TX23/1014Z TN15/1006Z \n  PROB30 \n  TEMPO 0915/0918 10015G25KT \n  BECMG 0919/0921 04009KT \n  BECMG 1009/1011 10015KT \n  PROB30 \n  TEMPO 1009/1015 10015G25KT",
      "metarHtml": "METAR GCTS 091730Z 08017KT 9999 FEW035 19/10 Q1028 NOSIG",
      "tafHtml": "TAF GCTS 091400Z 0915/1015 10015KT 9999 FEW030 TX23/1014Z TN15/1006Z \n  PROB30 \n  TEMPO 0915/0918 10015G25KT \n  BECMG 0919/0921 04009KT \n  BECMG 1009/1011 10015KT \n  PROB30 \n  TEMPO 1009/1015 10015G25KT"
    },
    {
      "icao": "GMAD",
      "iata": "AGA",
      "name": "Al Massira Airport",
      "updatedAt": "091730Z",
      "visibility_m": 10000,
      "taf_visibility_m": 10000,
      "worst_visibility_m": 10000,
      "ceiling_ft": null,
      "hazards": [],
      "severityScore": 0,
      "metarRaw": "METAR GMAD 091730Z 26009KT CAVOK 15/08 Q1026 NOSIG",
      "tafRaw": "TAF GMAD 091700Z 0918/1024 06008KT CAVOK",
      "metarHtml": "METAR GMAD 091730Z 26009KT <span class=\"hl-vis\">CAVOK</span> 15/08 Q1026 NOSIG",
      "tafHtml": "TAF GMAD 091700Z 0918/1024 06008KT <span class=\"hl-vis\">CAVOK</span>"
    },
    {
      "icao": "EDJA",
      "iata": "FMM",
      "name": "Memmingen Allgau Airport",
      "updatedAt": "091720Z",
      "visibility_m": 10000,
      "taf_visibility_m": 10000,
      "worst_visibility_m": 10000,
      "ceiling_ft": null,
      "hazards": [],
      "severityScore": 0,
      "metarRaw": "METAR EDJA 091720Z 24023KT CAVOK 03/M02 Q0996",
      "tafRaw": "TAF EDJA 091700Z 0918/1003 24015G25KT 9999 SCT035 \n  PROB30 \n  TEMPO 0918/1003 24020G35KT BKN012",
      "metarHtml": "METAR EDJA 091720Z 24023KT <span class=\"hl-vis\">CAVOK</span> 03/M02 Q0996",
      "tafHtml": "TAF EDJA 091700Z 0918/1003 24015G25KT 9999 SCT035 \n  PROB30 \n  TEMPO 0918/1003 24020G35KT BKN012"
    },
    {
      "icao": "EDNY",
      "iata": "FDH",
      "name": "Friedrichshafen Airport",
      "updatedAt": "091750Z",
      "visibility_m": 10000,
      "taf_visibility_m": 4000,
      "worst_visibility_m": 4000,
      "ceiling_ft": null,
      "hazards": [],
      "severityScore": 0,
      "metarRaw": "METAR EDNY 091750Z 23014KT CAVOK 05/M01 Q0998",
      "tafRaw": "TAF EDNY 091700Z 0918/1003 23015G25KT 9999 SCT025 BKN040 \n  PROB30 \n  TEMPO 0918/0921 25020G35KT 4000 SHSNRA BKN012TCU",
      "metarHtml": "METAR EDNY 091750Z 23014KT <span class=\"hl-vis\">CAVOK</span> 05/M01 Q0998",
      "tafHtml": "TAF EDNY 091700Z 0918/1003 23015G25KT 9999 SCT025 BKN040 \n  PROB30 \n  TEMPO 0918/0921 25020G35KT 4000 SHSNRA BKN012TCU"
    },
    {
      "icao": "EFTU",
      "iata": "TKU",
      "name": "Turku Airport",
      "updatedAt": "091750Z",
      "visibility_m": 10000,
      "taf_visibility_m": 10000,
      "worst_visibility_m": 10000,
      "ceiling_ft": null,
      "hazards": [],
      "severityScore": 0,
      "metarRaw": "METAR EFTU 091750Z AUTO 05006KT 020V080 9999 NCD M15/M19 Q1021",
      "tafRaw": "TAF EFTU 091730Z 0918/1018 04006KT CAVOK \n  TEMPO 1007/1011 DRSN \n  TEMPO 1011/1018 02015G25KT DRSN",
      "metarHtml": "METAR EFTU 091750Z AUTO 05006KT 020V080 9999 NCD M15/M19 Q1021",
      "tafHtml": "TAF EFTU 091730Z 0918/1018 04006KT <span class=\"hl-vis\">CAVOK</span> \n  TEMPO 1007/1011 DRSN \n  TEMPO 1011/1018 02015G25KT DRSN"
    },
    {
      "icao": "EGNM",
      "iata": "LBA",
      "name": "Leeds Bradford Airport",
      "updatedAt": "091750Z",
      "visibility_m": 10000,
      "taf_visibility_m": 4000,
      "worst_visibility_m": 4000,
      "ceiling_ft": null,
      "hazards": [],
      "severityScore": 0,
      "metarRaw": "METAR EGNM 091750Z 36010KT 9999 SCT012 SCT020 02/00 Q1003",
      "tafRaw": "TAF EGNM 091100Z 0912/1012 01010KT 9999 SCT025 \n  PROB30 \n  TEMPO 0912/0917 4000 SHRASN BKN006 \n  PROB30 1003/1009 7000 \n  BECMG 1009/1012 09006KT",
      "metarHtml": "METAR EGNM 091750Z 36010KT 9999 SCT012 SCT020 02/00 Q1003",
      "tafHtml": "TAF EGNM 091100Z 0912/1012 01010KT 9999 SCT025 \n  PROB30 \n  TEMPO 0912/0917 4000 SHRASN BKN006 \n  PROB30 1003/1009 7000 \n  BECMG 1009/1012 09006KT"
    },
    {
      "icao": "EKCH",
      "iata": "CPH",
      "name": "Copenhagen Kastrup Airport",
      "updatedAt": "091750Z",
      "visibility_m": 10000,
      "taf_visibility_m": 10000,
      "worst_visibility_m": 10000,
      "ceiling_ft": null,
      "hazards": [],
      "severityScore": 0,
      "metarRaw": "METAR EKCH 091750Z AUTO 06018KT 9999 OVC033/// M01/M05 Q1009 TEMPO 09020G30KT",
      "tafRaw": "TAF EKCH 091727Z 0918/1018 05018KT 9999 BKN018 \n  TEMPO 0918/1002 08020G30KT \n  TEMPO 1002/1018 01018G28KT",
      "metarHtml": "METAR EKCH 091750Z AUTO 06018KT 9999 OVC033/// M01/M05 Q1009 TEMPO 09020G30KT",
      "tafHtml": "TAF EKCH 091727Z 0918/1018 05018KT 9999 BKN018 \n  TEMPO 0918/1002 08020G30KT \n  TEMPO 1002/1018 01018G28KT"
    },
    {
      "icao": "ENAL",
      "iata": "AES",
      "name": "Ålesund Airport, Vigra",
      "updatedAt": "091750Z",
      "visibility_m": 10000,
      "taf_visibility_m": 10000,
      "worst_visibility_m": 10000,
      "ceiling_ft": null,
      "hazards": [],
      "severityScore": 0,
      "metarRaw": "METAR ENAL 091750Z 17004KT 130V210 CAVOK 01/M07 Q1014",
      "tafRaw": "TAF ENAL 091700Z 0918/1003 14008KT 9999 SCT060",
      "metarHtml": "METAR ENAL 091750Z 17004KT 130V210 <span class=\"hl-vis\">CAVOK</span> 01/M07 Q1014",
      "tafHtml": "TAF ENAL 091700Z 0918/1003 14008KT 9999 SCT060"
    },
    {
      "icao": "ENBR",
      "iata": "BGO",
      "name": "Bergen Airport, Flesland",
      "updatedAt": "091750Z",
      "visibility_m": 10000,
      "taf_visibility_m": 10000,
      "worst_visibility_m": 10000,
      "ceiling_ft": null,
      "hazards": [],
      "severityScore": 0,
      "metarRaw": "METAR ENBR 091750Z 09004KT CAVOK M04/M12 Q1014 NOSIG RMK WIND 1200FT 11008KT",
      "tafRaw": "TAF ENBR 091700Z 0918/1018 08005KT CAVOK",
      "metarHtml": "METAR ENBR 091750Z 09004KT <span class=\"hl-vis\">CAVOK</span> M04/M12 Q1014 NOSIG RMK WIND 1200FT 11008KT",
      "tafHtml": "TAF ENBR 091700Z 0918/1018 08005KT <span class=\"hl-vis\">CAVOK</span>"
    },
    {
      "icao": "ENHD",
      "iata": "HAU",
      "name": "Haugesund Airport, Karmøy",
      "updatedAt": "091750Z",
      "visibility_m": 10000,
      "taf_visibility_m": 10000,
      "worst_visibility_m": 10000,
      "ceiling_ft": null,
      "hazards": [],
      "severityScore": 0,
      "metarRaw": "METAR ENHD 091750Z 10011KT CAVOK M01/M11 Q1014",
      "tafRaw": "TAF ENHD 091400Z 0915/0923 10008KT CAVOK",
      "metarHtml": "METAR ENHD 091750Z 10011KT <span class=\"hl-vis\">CAVOK</span> M01/M11 Q1014",
      "tafHtml": "TAF ENHD 091400Z 0915/0923 10008KT <span class=\"hl-vis\">CAVOK</span>"
    },
    {
      "icao": "ENTC",
      "iata": "TOS",
      "name": "Tromsø Airport, Langnes",
      "updatedAt": "091750Z",
      "visibility_m": 10000,
      "taf_visibility_m": 10000,
      "worst_visibility_m": 10000,
      "ceiling_ft": null,
      "hazards": [],
      "severityScore": 0,
      "metarRaw": "METAR ENTC 091750Z 21009KT CAVOK M07/M14 Q1023 NOSIG RMK WIND 2600FT 16015KT",
      "tafRaw": "TAF ENTC 091700Z 0918/1018 20005KT CAVOK \n  TEMPO 0918/0922 10010KT",
      "metarHtml": "METAR ENTC 091750Z 21009KT <span class=\"hl-vis\">CAVOK</span> M07/M14 Q1023 NOSIG RMK WIND 2600FT 16015KT",
      "tafHtml": "TAF ENTC 091700Z 0918/1018 20005KT <span class=\"hl-vis\">CAVOK</span> \n  TEMPO 0918/0922 10010KT"
    },
    {
      "icao": "ENVA",
      "iata": "TRD",
      "name": "Trondheim Airport, Værnes",
      "updatedAt": "091750Z",
      "visibility_m": 10000,
      "taf_visibility_m": 10000,
      "worst_visibility_m": 10000,
      "ceiling_ft": null,
      "hazards": [],
      "severityScore": 0,
      "metarRaw": "METAR ENVA 091750Z 10008KT 070V140 CAVOK M02/M10 Q1017 TEMPO 16015G25KT RMK WIND 670FT 16017KT",
      "tafRaw": "TAF ENVA 091700Z 0918/1018 10008KT CAVOK \n  TEMPO 0918/1001 16015G25KT",
      "metarHtml": "METAR ENVA 091750Z 10008KT 070V140 <span class=\"hl-vis\">CAVOK</span> M02/M10 Q1017 TEMPO 16015G25KT RMK WIND 670FT 16017KT",
      "tafHtml": "TAF ENVA 091700Z 0918/1018 10008KT <span class=\"hl-vis\">CAVOK</span> \n  TEMPO 0918/1001 16015G25KT"
    },
    {
      "icao": "ENZV",
      "iata": "SVG",
      "name": "Stavanger Airport, Sola",
      "updatedAt": "091750Z",
      "visibility_m": 10000,
      "taf_visibility_m": 10000,
      "worst_visibility_m": 10000,
      "ceiling_ft": null,
      "hazards": [],
      "severityScore": 0,
      "metarRaw": "METAR ENZV 091750Z 10012KT CAVOK M00/M09 Q1014 NOSIG",
      "tafRaw": "TAF ENZV 091700Z 0918/1018 08008KT CAVOK \n  BECMG 1012/1014 14010KT",
      "metarHtml": "METAR ENZV 091750Z 10012KT <span class=\"hl-vis\">CAVOK</span> M00/M09 Q1014 NOSIG",
      "tafHtml": "TAF ENZV 091700Z 0918/1018 08008KT <span class=\"hl-vis\">CAVOK</span> \n  BECMG 1012/1014 14010KT"
    },
    {
      "icao": "ESGG",
      "iata": "GOT",
      "name": "Göteborg Landvetter Airport",
      "updatedAt": "091750Z",
      "visibility_m": 10000,
      "taf_visibility_m": 10000,
      "worst_visibility_m": 10000,
      "ceiling_ft": 2700,
      "hazards": [],
      "severityScore": 0,
      "metarRaw": "METAR ESGG 091750Z 07012KT 9999 BKN027 M04/M08 Q1013",
      "tafRaw": "TAF ESGG 091730Z 0918/1018 04008KT 9999 BKN030 \n  PROB40 1013/1018 BKN009",
      "metarHtml": "METAR ESGG 091750Z 07012KT 9999 BKN027 M04/M08 Q1013",
      "tafHtml": "TAF ESGG 091730Z 0918/1018 04008KT 9999 BKN030 \n  PROB40 1013/1018 BKN009"
    },
    {
      "icao": "ESKN",
      "iata": "NYO",
      "name": "Stockholm Skavsta Airport",
      "updatedAt": "091750Z",
      "visibility_m": 10000,
      "taf_visibility_m": 10000,
      "worst_visibility_m": 10000,
      "ceiling_ft": 3600,
      "hazards": [],
      "severityScore": 0,
      "metarRaw": "METAR ESKN 091750Z 03010KT 9999 BKN036 M04/M08 Q1018",
      "tafRaw": "TAF ESKN 091730Z 0918/1018 02010KT 9999 BKN035 \n  BECMG 1010/1012 01015G25KT",
      "metarHtml": "METAR ESKN 091750Z 03010KT 9999 BKN036 M04/M08 Q1018",
      "tafHtml": "TAF ESKN 091730Z 0918/1018 02010KT 9999 BKN035 \n  BECMG 1010/1012 01015G25KT"
    },
    {
      "icao": "ESMS",
      "iata": "MMX",
      "name": "Malmö Sturup Airport",
      "updatedAt": "091750Z",
      "visibility_m": 10000,
      "taf_visibility_m": 10000,
      "worst_visibility_m": 10000,
      "ceiling_ft": 3600,
      "hazards": [],
      "severityScore": 0,
      "metarRaw": "METAR ESMS 091750Z 08021KT 9999 BKN036 M01/M07 Q1007",
      "tafRaw": "TAF ESMS 091727Z 0918/1018 08020KT 9999 BKN040 \n  TEMPO 0918/1002 06020G30KT \n  BECMG 1002/1005 01008KT",
      "metarHtml": "METAR ESMS 091750Z 08021KT 9999 BKN036 M01/M07 Q1007",
      "tafHtml": "TAF ESMS 091727Z 0918/1018 08020KT 9999 BKN040 \n  TEMPO 0918/1002 06020G30KT \n  BECMG 1002/1005 01008KT"
    },
    {
      "icao": "ESSA",
      "iata": "ARN",
      "name": "Stockholm-Arlanda Airport",
      "updatedAt": "091750Z",
      "visibility_m": 10000,
      "taf_visibility_m": 10000,
      "worst_visibility_m": 10000,
      "ceiling_ft": null,
      "hazards": [],
      "severityScore": 0,
      "metarRaw": "METAR ESSA 091750Z 02010KT CAVOK M08/M11 Q1020 NOSIG",
      "tafRaw": "TAF ESSA 091730Z 0918/1018 02012KT CAVOK \n  BECMG 1010/1012 02015G25KT",
      "metarHtml": "METAR ESSA 091750Z 02010KT <span class=\"hl-vis\">CAVOK</span> M08/M11 Q1020 NOSIG",
      "tafHtml": "TAF ESSA 091730Z 0918/1018 02012KT <span class=\"hl-vis\">CAVOK</span> \n  BECMG 1010/1012 02015G25KT"
    },
    {
      "icao": "HEGN",
      "iata": "HRG",
      "name": "Hurghada International Airport",
      "updatedAt": "091700Z",
      "visibility_m": 10000,
      "taf_visibility_m": 4000,
      "worst_visibility_m": 4000,
      "ceiling_ft": null,
      "hazards": [],
      "severityScore": 0,
      "metarRaw": "METAR HEGN 091700Z 34016KT CAVOK 20/07 Q1018 NOSIG",
      "tafRaw": "TAF HEGN 091700Z 0918/1024 31010G22KT CAVOK \n  TEMPO 1009/1018 4000 SA NSC",
      "metarHtml": "METAR HEGN 091700Z 34016KT <span class=\"hl-vis\">CAVOK</span> 20/07 Q1018 NOSIG",
      "tafHtml": "TAF HEGN 091700Z 0918/1024 31010G22KT <span class=\"hl-vis\">CAVOK</span> \n  TEMPO 1009/1018 4000 SA NSC"
    },
    {
      "icao": "HEMA",
      "iata": "RMF",
      "name": "Marsa Alam International Airport",
      "updatedAt": "091700Z",
      "visibility_m": 8000,
      "taf_visibility_m": 4000,
      "worst_visibility_m": 4000,
      "ceiling_ft": null,
      "hazards": [],
      "severityScore": 0,
      "metarRaw": "METAR HEMA 091700Z 34018KT 8000 NSC 21/14 Q1016 NOSIG",
      "tafRaw": "TAF HEMA 091700Z 0918/1024 34008G20KT 8000 NSC \n  TEMPO 0918/1006 4000 SA",
      "metarHtml": "METAR HEMA 091700Z 34018KT 8000 NSC 21/14 Q1016 NOSIG",
      "tafHtml": "TAF HEMA 091700Z 0918/1024 34008G20KT 8000 NSC \n  TEMPO 0918/1006 4000 SA"
    },
    {
      "icao": "HESH",
      "iata": "SSH",
      "name": "Sharm El Sheikh International Airport",
      "updatedAt": "091700Z",
      "visibility_m": 10000,
      "taf_visibility_m": 10000,
      "worst_visibility_m": 10000,
      "ceiling_ft": null,
      "hazards": [],
      "severityScore": 0,
      "metarRaw": "METAR HESH 091700Z 03005KT CAVOK 21/09 Q1016 NOSIG",
      "tafRaw": "TAF HESH 091700Z 0918/1024 36012KT CAVOK",
      "metarHtml": "METAR HESH 091700Z 03005KT <span class=\"hl-vis\">CAVOK</span> 21/09 Q1016 NOSIG",
      "tafHtml": "TAF HESH 091700Z 0918/1024 36012KT <span class=\"hl-vis\">CAVOK</span>"
    },
    {
      "icao": "HESX",
      "iata": "SPX",
      "name": "Sphinx International Airport",
      "updatedAt": "091700Z",
      "visibility_m": 10000,
      "taf_visibility_m": 4000,
      "worst_visibility_m": 4000,
      "ceiling_ft": null,
      "hazards": [],
      "severityScore": 0,
      "metarRaw": "METAR HESX 091700Z 32017KT CAVOK 16/07 Q1019 NOSIG",
      "tafRaw": "TAF HESX 091700Z 0918/1024 32015KT 9999 SCT025 \n  TEMPO 1000/1008 26008KT 4000 HZ SCT020",
      "metarHtml": "METAR HESX 091700Z 32017KT <span class=\"hl-vis\">CAVOK</span> 16/07 Q1019 NOSIG",
      "tafHtml": "TAF HESX 091700Z 0918/1024 32015KT 9999 SCT025 \n  TEMPO 1000/1008 26008KT 4000 HZ SCT020"
    },
    {
      "icao": "LEAL",
      "iata": "ALC",
      "name": "Alicante-Elche Miguel Hernández Airport",
      "updatedAt": "091730Z",
      "visibility_m": 10000,
      "taf_visibility_m": 10000,
      "worst_visibility_m": 10000,
      "ceiling_ft": null,
      "hazards": [],
      "severityScore": 0,
      "metarRaw": "METAR LEAL 091730Z 26008KT CAVOK 16/05 Q1019 NOSIG",
      "tafRaw": "TAF LEAL 091700Z 0918/1018 27009KT CAVOK TX16/1014Z TN08/1006Z \n  BECMG 1005/1008 27017KT \n  TEMPO 1005/1012 31022G35KT \n  BECMG 1015/1017 29007KT",
      "metarHtml": "METAR LEAL 091730Z 26008KT <span class=\"hl-vis\">CAVOK</span> 16/05 Q1019 NOSIG",
      "tafHtml": "TAF LEAL 091700Z 0918/1018 27009KT <span class=\"hl-vis\">CAVOK</span> TX16/1014Z TN08/1006Z \n  BECMG 1005/1008 27017KT \n  TEMPO 1005/1012 31022G35KT \n  BECMG 1015/1017 29007KT"
    },
    {
      "icao": "LEBL",
      "iata": "BCN",
      "name": "Josep Tarradellas Barcelona-El Prat Airport",
      "updatedAt": "091730Z",
      "visibility_m": 10000,
      "taf_visibility_m": 10000,
      "worst_visibility_m": 10000,
      "ceiling_ft": null,
      "hazards": [],
      "severityScore": 0,
      "metarRaw": "METAR LEBL 091730Z 27025G35KT 9999 FEW050 13/M00 Q1011 NOSIG",
      "tafRaw": "TAF LEBL 091700Z 0918/1018 30010KT 9999 FEW020 TX16/1013Z TN07/1006Z \n  TEMPO 0918/0919 29020G34KT \n  BECMG 0920/0923 35007KT \n  BECMG 1008/1010 30010KT",
      "metarHtml": "METAR LEBL 091730Z 27025G35KT 9999 FEW050 13/M00 Q1011 NOSIG",
      "tafHtml": "TAF LEBL 091700Z 0918/1018 30010KT 9999 FEW020 TX16/1013Z TN07/1006Z \n  TEMPO 0918/0919 29020G34KT \n  BECMG 0920/0923 35007KT \n  BECMG 1008/1010 30010KT"
    },
    {
      "icao": "LEMD",
      "iata": "MAD",
      "name": "Adolfo Suárez Madrid–Barajas Airport",
      "updatedAt": "091730Z",
      "visibility_m": 10000,
      "taf_visibility_m": 10000,
      "worst_visibility_m": 10000,
      "ceiling_ft": null,
      "hazards": [],
      "severityScore": 0,
      "metarRaw": "METAR LEMD 091730Z 26017KT 9999 FEW050 10/M01 Q1020 NOSIG",
      "tafRaw": "TAF LEMD 091700Z 0918/1024 27012KT 9999 SCT030 TX10/1014Z TN01/1006Z \n  TEMPO 0918/0921 27015G25KT \n  BECMG 0922/0924 VRB05KT \n  BECMG 1012/1014 32008KT",
      "metarHtml": "METAR LEMD 091730Z 26017KT 9999 FEW050 10/M01 Q1020 NOSIG",
      "tafHtml": "TAF LEMD 091700Z 0918/1024 27012KT 9999 SCT030 TX10/1014Z TN01/1006Z \n  TEMPO 0918/0921 27015G25KT \n  BECMG 0922/0924 VRB05KT \n  BECMG 1012/1014 32008KT"
    },
    {
      "icao": "LEMG",
      "iata": "AGP",
      "name": "Málaga-Costa del Sol Airport",
      "updatedAt": "091730Z",
      "visibility_m": 10000,
      "taf_visibility_m": 10000,
      "worst_visibility_m": 10000,
      "ceiling_ft": null,
      "hazards": [],
      "severityScore": 0,
      "metarRaw": "METAR LEMG 091730Z 32015KT 9999 FEW050 15/09 Q1025 NOSIG",
      "tafRaw": "TAF LEMG 091700Z 0918/1018 29010KT 9999 FEW030 TX18/1014Z TN10/1006Z \n  PROB30 \n  TEMPO 1006/1018 30015G28KT",
      "metarHtml": "METAR LEMG 091730Z 32015KT 9999 FEW050 15/09 Q1025 NOSIG",
      "tafHtml": "TAF LEMG 091700Z 0918/1018 29010KT 9999 FEW030 TX18/1014Z TN10/1006Z \n  PROB30 \n  TEMPO 1006/1018 30015G28KT"
    },
    {
      "icao": "LEVC",
      "iata": "VLC",
      "name": "Valencia Airport",
      "updatedAt": "091730Z",
      "visibility_m": 10000,
      "taf_visibility_m": 10000,
      "worst_visibility_m": 10000,
      "ceiling_ft": null,
      "hazards": [],
      "severityScore": 0,
      "metarRaw": "METAR LEVC 091730Z 27012KT 9999 FEW040 15/02 Q1017 NOSIG",
      "tafRaw": "TAF LEVC 091700Z 0918/1018 27015KT 9999 FEW040 TX16/1014Z TN07/1006Z \n  BECMG 0918/0920 25008KT",
      "metarHtml": "METAR LEVC 091730Z 27012KT 9999 FEW040 15/02 Q1017 NOSIG",
      "tafHtml": "TAF LEVC 091700Z 0918/1018 27015KT 9999 FEW040 TX16/1014Z TN07/1006Z \n  BECMG 0918/0920 25008KT"
    },
    {
      "icao": "LFMN",
      "iata": "NCE",
      "name": "Nice-Côte d'Azur Airport",
      "updatedAt": "091730Z",
      "visibility_m": 10000,
      "taf_visibility_m": 10000,
      "worst_visibility_m": 10000,
      "ceiling_ft": null,
      "hazards": [],
      "severityScore": 0,
      "metarRaw": "METAR LFMN 091730Z 27018KT CAVOK 12/02 Q1003 NOSIG",
      "tafRaw": "TAF LFMN 091400Z 0915/1021 25020G30KT CAVOK \n  TEMPO 0915/0918 35025G40KT \n  BECMG 0921/0923 33015KT",
      "metarHtml": "METAR LFMN 091730Z 27018KT <span class=\"hl-vis\">CAVOK</span> 12/02 Q1003 NOSIG",
      "tafHtml": "TAF LFMN 091400Z 0915/1021 25020G30KT <span class=\"hl-vis\">CAVOK</span> \n  TEMPO 0915/0918 35025G40KT \n  BECMG 0921/0923 33015KT"
    },
    {
      "icao": "LIBG",
      "iata": "TAR",
      "name": "Taranto-Grottaglie Marcello Arlotta Airport",
      "updatedAt": "091650Z",
      "visibility_m": 10000,
      "taf_visibility_m": 10000,
      "worst_visibility_m": 10000,
      "ceiling_ft": null,
      "hazards": [],
      "severityScore": 0,
      "metarRaw": "METAR LIBG 091650Z 21006KT 9999 FEW020 15/13 Q1006",
      "tafRaw": "TAF LIBG 091700Z 0918/1003 21010KT 9999 SCT040",
      "metarHtml": "METAR LIBG 091650Z 21006KT 9999 FEW020 15/13 Q1006",
      "tafHtml": "TAF LIBG 091700Z 0918/1003 21010KT 9999 SCT040"
    },
    {
      "icao": "LICC",
      "iata": "CTA",
      "name": "Catania-Fontanarossa Airport",
      "updatedAt": "091750Z",
      "visibility_m": 10000,
      "taf_visibility_m": 10000,
      "worst_visibility_m": 10000,
      "ceiling_ft": null,
      "hazards": [],
      "severityScore": 0,
      "metarRaw": "METAR LICC 091750Z 26013KT 9999 FEW060 14/10 Q1014",
      "tafRaw": "TAF LICC 091700Z 0918/1018 26013KT 9999 FEW050 \n  BECMG 1004/1006 26018G30KT",
      "metarHtml": "METAR LICC 091750Z 26013KT 9999 FEW060 14/10 Q1014",
      "tafHtml": "TAF LICC 091700Z 0918/1018 26013KT 9999 FEW050 \n  BECMG 1004/1006 26018G30KT"
    },
    {
      "icao": "LIME",
      "iata": "BGY",
      "name": "Milan Bergamo Airport / Antonio Locatelli Air Base",
      "updatedAt": "091750Z",
      "visibility_m": 8000,
      "taf_visibility_m": 10000,
      "worst_visibility_m": 8000,
      "ceiling_ft": null,
      "hazards": [],
      "severityScore": 0,
      "metarRaw": "METAR LIME 091750Z 26005KT 220V290 8000 SCT030 00/M02 Q1000 NOSIG",
      "tafRaw": "TAF LIME 091700Z 0918/1018 VRB04KT 9999 SCT050",
      "metarHtml": "METAR LIME 091750Z 26005KT 220V290 8000 SCT030 00/M02 Q1000 NOSIG",
      "tafHtml": "TAF LIME 091700Z 0918/1018 VRB04KT 9999 SCT050"
    },
    {
      "icao": "LIMF",
      "iata": "TRN",
      "name": "Turin Airport",
      "updatedAt": "091750Z",
      "visibility_m": 6000,
      "taf_visibility_m": 10000,
      "worst_visibility_m": 6000,
      "ceiling_ft": null,
      "hazards": [],
      "severityScore": 0,
      "metarRaw": "METAR LIMF 091750Z VRB01KT 6000 NSC 00/M03 Q1000",
      "tafRaw": "TAF LIMF 091700Z 0918/1018 VRB05KT 9999 FEW030 \n  BECMG 1000/1002 30010KT \n  TEMPO 1004/1012 30016G26KT",
      "metarHtml": "METAR LIMF 091750Z VRB01KT 6000 NSC 00/M03 Q1000",
      "tafHtml": "TAF LIMF 091700Z 0918/1018 VRB05KT 9999 FEW030 \n  BECMG 1000/1002 30010KT \n  TEMPO 1004/1012 30016G26KT"
    },
    {
      "icao": "LIMJ",
      "iata": "GOA",
      "name": "Genoa Cristoforo Colombo Airport",
      "updatedAt": "091750Z",
      "visibility_m": 10000,
      "taf_visibility_m": 10000,
      "worst_visibility_m": 10000,
      "ceiling_ft": null,
      "hazards": [],
      "severityScore": 0,
      "metarRaw": "METAR LIMJ 091750Z AUTO 03007KT 9999 NCD 09/03 Q0999",
      "tafRaw": "TAF LIMJ 091700Z 0918/1018 36013KT 9999 FEW030",
      "metarHtml": "METAR LIMJ 091750Z AUTO 03007KT 9999 NCD 09/03 Q0999",
      "tafHtml": "TAF LIMJ 091700Z 0918/1018 36013KT 9999 FEW030"
    },
    {
      "icao": "LIPH",
      "iata": "TSF",
      "name": "Treviso Antonio Canova Airport",
      "updatedAt": "091750Z",
      "visibility_m": 10000,
      "taf_visibility_m": 10000,
      "worst_visibility_m": 10000,
      "ceiling_ft": null,
      "hazards": [],
      "severityScore": 0,
      "metarRaw": "METAR LIPH 091750Z 25004KT 220V280 CAVOK 02/M01 Q1001",
      "tafRaw": "TAF LIPH 091700Z 0918/1018 VRB05KT 9999 SCT040",
      "metarHtml": "METAR LIPH 091750Z 25004KT 220V280 <span class=\"hl-vis\">CAVOK</span> 02/M01 Q1001",
      "tafHtml": "TAF LIPH 091700Z 0918/1018 VRB05KT 9999 SCT040"
    },
    {
      "icao": "LIPQ",
      "iata": "TRS",
      "name": "Trieste–Friuli Venezia Giulia Airport",
      "updatedAt": "091750Z",
      "visibility_m": 10000,
      "taf_visibility_m": 2000,
      "worst_visibility_m": 2000,
      "ceiling_ft": null,
      "hazards": [],
      "severityScore": 0,
      "metarRaw": "METAR LIPQ 091750Z AUTO 33002KT 9999 OVC004/// 03/02 Q1000",
      "tafRaw": "TAF LIPQ 091700Z 0918/1018 VRB05KT 9999 BKN030 \n  TEMPO 1000/1006 2000 BCFG",
      "metarHtml": "METAR LIPQ 091750Z AUTO 33002KT 9999 OVC004/// 03/02 Q1000",
      "tafHtml": "TAF LIPQ 091700Z 0918/1018 VRB05KT 9999 BKN030 \n  TEMPO 1000/1006 2000 BCFG"
    },
    {
      "icao": "LIPX",
      "iata": "VRN",
      "name": "Verona Villafranca Valerio Catullo Airport",
      "updatedAt": "091750Z",
      "visibility_m": 10000,
      "taf_visibility_m": 2000,
      "worst_visibility_m": 2000,
      "ceiling_ft": null,
      "hazards": [],
      "severityScore": 0,
      "metarRaw": "METAR LIPX 091750Z VRB02KT CAVOK M01/M03 Q1001",
      "tafRaw": "TAF LIPX 091700Z 0918/1018 VRB05KT 9999 FEW020 \n  TEMPO 1000/1006 2000 BCFG",
      "metarHtml": "METAR LIPX 091750Z VRB02KT <span class=\"hl-vis\">CAVOK</span> M01/M03 Q1001",
      "tafHtml": "TAF LIPX 091700Z 0918/1018 VRB05KT 9999 FEW020 \n  TEMPO 1000/1006 2000 BCFG"
    },
    {
      "icao": "LIPZ",
      "iata": "VCE",
      "name": "Venice Marco Polo Airport",
      "updatedAt": "091750Z",
      "visibility_m": 10000,
      "taf_visibility_m": 10000,
      "worst_visibility_m": 10000,
      "ceiling_ft": null,
      "hazards": [],
      "severityScore": 0,
      "metarRaw": "METAR LIPZ 091750Z 26006KT 220V280 CAVOK 02/M01 Q1001 NOSIG",
      "tafRaw": "TAF LIPZ 091700Z 0918/1024 VRB05KT 9999 SCT030",
      "metarHtml": "METAR LIPZ 091750Z 26006KT 220V280 <span class=\"hl-vis\">CAVOK</span> 02/M01 Q1001 NOSIG",
      "tafHtml": "TAF LIPZ 091700Z 0918/1024 VRB05KT 9999 SCT030"
    },
    {
      "icao": "LPFR",
      "iata": "FAO",
      "name": "Faro Airport",
      "updatedAt": "091730Z",
      "visibility_m": 10000,
      "taf_visibility_m": 10000,
      "worst_visibility_m": 10000,
      "ceiling_ft": null,
      "hazards": [],
      "severityScore": 0,
      "metarRaw": "METAR LPFR 091730Z 31011KT 9999 FEW014 15/10 Q1027",
      "tafRaw": "TAF LPFR 091700Z 0918/1018 26012KT 9999 SCT012 BKN018 \n  BECMG 0918/0920 31005KT FEW020 \n  BECMG 1011/1013 VRB05KT",
      "metarHtml": "METAR LPFR 091730Z 31011KT 9999 FEW014 15/10 Q1027",
      "tafHtml": "TAF LPFR 091700Z 0918/1018 26012KT 9999 SCT012 BKN018 \n  BECMG 0918/0920 31005KT FEW020 \n  BECMG 1011/1013 VRB05KT"
    },
    {
      "icao": "LPPR",
      "iata": "OPO",
      "name": "Francisco de Sá Carneiro Airport",
      "updatedAt": "091730Z",
      "visibility_m": 10000,
      "taf_visibility_m": 10000,
      "worst_visibility_m": 10000,
      "ceiling_ft": null,
      "hazards": [],
      "severityScore": 0,
      "metarRaw": "METAR LPPR 091730Z 32005KT 9999 FEW014 SCT027 12/08 Q1027",
      "tafRaw": "TAF LPPR 091700Z 0918/1018 30007KT 9999 FEW015 SCT030 \n  BECMG 0921/0923 VRB02KT BKN020",
      "metarHtml": "METAR LPPR 091730Z 32005KT 9999 FEW014 SCT027 12/08 Q1027",
      "tafHtml": "TAF LPPR 091700Z 0918/1018 30007KT 9999 FEW015 SCT030 \n  BECMG 0921/0923 VRB02KT BKN020"
    },
    {
      "icao": "LPPS",
      "iata": "PXO",
      "name": "Porto Santo Airport",
      "updatedAt": "091730Z",
      "visibility_m": 10000,
      "taf_visibility_m": 10000,
      "worst_visibility_m": 10000,
      "ceiling_ft": null,
      "hazards": [],
      "severityScore": 0,
      "metarRaw": "METAR LPPS 091730Z 03005KT 360V070 9999 FEW013 16/12 Q1032",
      "tafRaw": "TAF LPPS 091700Z 0918/1024 07008KT 9999 SCT015 SCT030",
      "metarHtml": "METAR LPPS 091730Z 03005KT 360V070 9999 FEW013 16/12 Q1032",
      "tafHtml": "TAF LPPS 091700Z 0918/1024 07008KT 9999 SCT015 SCT030"
    },
    {
      "icao": "LRIA",
      "iata": "IAS",
      "name": "Iaşi Airport",
      "updatedAt": "091730Z",
      "visibility_m": 10000,
      "taf_visibility_m": 10000,
      "worst_visibility_m": 10000,
      "ceiling_ft": null,
      "hazards": [],
      "severityScore": 0,
      "metarRaw": "METAR LRIA 091730Z 20007KT CAVOK M03/M08 Q1002",
      "tafRaw": "TAF LRIA 091700Z 0918/1003 22006KT CAVOK",
      "metarHtml": "METAR LRIA 091730Z 20007KT <span class=\"hl-vis\">CAVOK</span> M03/M08 Q1002",
      "tafHtml": "TAF LRIA 091700Z 0918/1003 22006KT <span class=\"hl-vis\">CAVOK</span>"
    },
    {
      "icao": "LRBC",
      "iata": "BCM",
      "name": "Bacău George Enescu International  Airport",
      "updatedAt": "091730Z",
      "visibility_m": 10000,
      "taf_visibility_m": 10000,
      "worst_visibility_m": 10000,
      "ceiling_ft": null,
      "hazards": [],
      "severityScore": 0,
      "metarRaw": "METAR LRBC 091730Z 14006KT CAVOK M03/M13 Q1002",
      "tafRaw": "TAF LRBC 091700Z 0918/1003 20005KT CAVOK",
      "metarHtml": "METAR LRBC 091730Z 14006KT <span class=\"hl-vis\">CAVOK</span> M03/M13 Q1002",
      "tafHtml": "TAF LRBC 091700Z 0918/1003 20005KT <span class=\"hl-vis\">CAVOK</span>"
    },
    {
      "icao": "LRSV",
      "iata": "SCV",
      "name": "Suceava Stefan cel Mare Airport",
      "updatedAt": "091730Z",
      "visibility_m": 10000,
      "taf_visibility_m": 10000,
      "worst_visibility_m": 10000,
      "ceiling_ft": null,
      "hazards": [],
      "severityScore": 0,
      "metarRaw": "METAR LRSV 091730Z 22009KT CAVOK M06/M12 Q0999",
      "tafRaw": "TAF LRSV 091700Z 0918/1003 22008KT CAVOK",
      "metarHtml": "METAR LRSV 091730Z 22009KT <span class=\"hl-vis\">CAVOK</span> M06/M12 Q0999",
      "tafHtml": "TAF LRSV 091700Z 0918/1003 22008KT <span class=\"hl-vis\">CAVOK</span>"
    },
    {
      "icao": "LRTM",
      "iata": "TGM",
      "name": "Târgu Mureş Transilvania International Airport",
      "updatedAt": "091730Z",
      "visibility_m": 9000,
      "taf_visibility_m": 10000,
      "worst_visibility_m": 9000,
      "ceiling_ft": null,
      "hazards": [],
      "severityScore": 0,
      "metarRaw": "METAR LRTM 091730Z AUTO 08004KT 9000 BKN048/// M06/M09 Q1003",
      "tafRaw": "TAF LRTM 091400Z 0915/0924 VRB04KT CAVOK",
      "metarHtml": "METAR LRTM 091730Z AUTO 08004KT 9000 BKN048/// M06/M09 Q1003",
      "tafHtml": "TAF LRTM 091400Z 0915/0924 VRB04KT <span class=\"hl-vis\">CAVOK</span>"
    },
    {
      "icao": "LTAC",
      "iata": "ESB",
      "name": "Esenboğa International Airport",
      "updatedAt": "091750Z",
      "visibility_m": 10000,
      "taf_visibility_m": 10000,
      "worst_visibility_m": 10000,
      "ceiling_ft": null,
      "hazards": [],
      "severityScore": 0,
      "metarRaw": "METAR LTAC 091750Z 27015KT CAVOK M03/M11 Q1010 NOSIG RMK RWY21C 26015KT RWY03L 26013KT RWY21R 25013KT RWY03R 25011KT RWY21L 26012KT",
      "tafRaw": "TAF LTAC 091640Z 0918/1018 26012KT CAVOK \n  BECMG 0918/0921 VRB02KT \n  BECMG 1002/1004 SCT040 BKN100 \n  BECMG 1014/1016 18012KT \n  TEMPO 1015/1018 18015G25KT -SHRASN BKN025 BKN080",
      "metarHtml": "METAR LTAC 091750Z 27015KT <span class=\"hl-vis\">CAVOK</span> M03/M11 Q1010 NOSIG RMK RWY21C 26015KT RWY03L 26013KT RWY21R 25013KT RWY03R 25011KT RWY21L 26012KT",
      "tafHtml": "TAF LTAC 091640Z 0918/1018 26012KT <span class=\"hl-vis\">CAVOK</span> \n  BECMG 0918/0921 VRB02KT \n  BECMG 1002/1004 SCT040 BKN100 \n  BECMG 1014/1016 18012KT \n  TEMPO 1015/1018 18015G25KT -SHRASN BKN025 BKN080"
    },
    {
      "icao": "OEMA",
      "iata": "MED",
      "name": "Prince Mohammad Bin Abdulaziz Airport",
      "updatedAt": "091700Z",
      "visibility_m": 10000,
      "taf_visibility_m": 3000,
      "worst_visibility_m": 3000,
      "ceiling_ft": null,
      "hazards": [],
      "severityScore": 0,
      "metarRaw": "METAR OEMA 091700Z 22013KT CAVOK 24/09 Q1017 NOSIG",
      "tafRaw": "TAF OEMA 091700Z 0918/1024 30010KT 7000 SCT040 \n  PROB30 \n  TEMPO 0918/1000 3000 DU \n  BECMG 1000/1002 VRB03KT \n  PROB30 \n  TEMPO 1000/1005 3000 HZ \n  BECMG 1006/1008 07015KT FEW040 \n  PROB30 \n  TEMPO 1006/1012 3000 BLDU",
      "metarHtml": "METAR OEMA 091700Z 22013KT <span class=\"hl-vis\">CAVOK</span> 24/09 Q1017 NOSIG",
      "tafHtml": "TAF OEMA 091700Z 0918/1024 30010KT 7000 SCT040 \n  PROB30 \n  TEMPO 0918/1000 3000 DU \n  BECMG 1000/1002 VRB03KT \n  PROB30 \n  TEMPO 1000/1005 3000 HZ \n  BECMG 1006/1008 07015KT FEW040 \n  PROB30 \n  TEMPO 1006/1012 3000 BLDU"
    },
    {
      "icao": "OMAA",
      "iata": "AUH",
      "name": "Zayed International Airport",
      "updatedAt": "091700Z",
      "visibility_m": 10000,
      "taf_visibility_m": 4000,
      "worst_visibility_m": 4000,
      "ceiling_ft": null,
      "hazards": [],
      "severityScore": 0,
      "metarRaw": "METAR OMAA 091700Z 33003KT CAVOK 20/13 Q1018 NOSIG",
      "tafRaw": "TAF OMAA 091700Z 0918/1100 VRB02KT 8000 NSC \n  PROB30 1000/1005 4000 HZ BKN010 \n  BECMG 1010/1012 33011KT \n  BECMG 1016/1018 07005KT",
      "metarHtml": "METAR OMAA 091700Z 33003KT <span class=\"hl-vis\">CAVOK</span> 20/13 Q1018 NOSIG",
      "tafHtml": "TAF OMAA 091700Z 0918/1100 VRB02KT 8000 NSC \n  PROB30 1000/1005 4000 HZ BKN010 \n  BECMG 1010/1012 33011KT \n  BECMG 1016/1018 07005KT"
    }
  ],
  "stats": {
    "icaoCount": 159,
    "metarReturned": 159,
    "tafReturned": 153,
    "stationsWritten": 159,
    "missingMetar": 0,
    "missingTaf": 6
  },
  "errors": []
}