{
  "generatedAt": "2026-01-11T14:13:34.271Z",
  "stations": [
    {
      "icao": "EDDH",
      "iata": "HAM",
      "name": "Hamburg Helmut Schmidt Airport",
      "updatedAt": "111350Z",
      "visibility_m": 250,
      "taf_visibility_m": 500,
      "worst_visibility_m": 250,
      "ceiling_ft": 200,
      "hazards": [
        "FZFG",
        "SN",
        "FZDZ"
      ],
      "severityScore": 100,
      "metarRaw": "METAR EDDH 111350Z AUTO VRB01KT 0250 R23/0375N R15/0650D FZFG VV002 M06/M06 Q1025 BECMG 6000 SCT002",
      "tafRaw": "TAF EDDH 111100Z 1112/1218 VRB02KT 0500 FZFG BKN001 \n  TEMPO 1112/1116 1000 BCFG \n  PROB30 \n  TEMPO 1113/1116 6000 NSW NSC \n  BECMG 1116/1119 8000 NSW NSC \n  BECMG 1120/1123 16005KT \n  BECMG 1205/1207 14010KT 2500 -SN BKN005 \n  TEMPO 1207/1212 0800 SN BKN003 \n  TEMPO 1212/1218 0800 -FZDZ BKN002",
      "metarHtml": "METAR EDDH 111350Z AUTO VRB01KT <span class=\"hl-vis\">0250</span> R23/0375N R15/0650D <span class=\"hl\">FZFG</span> VV002 M06/M06 Q1025 BECMG 6000 SCT002",
      "tafHtml": "TAF EDDH 111100Z 1112/1218 VRB02KT <span class=\"hl-vis\">0500</span> <span class=\"hl\">FZFG</span> BKN001 \n  TEMPO 1112/1116 1000 BCFG \n  PROB30 \n  TEMPO 1113/1116 6000 NSW NSC \n  BECMG 1116/1119 8000 NSW NSC \n  BECMG 1120/1123 16005KT \n  BECMG 1205/1207 14010KT 2500 -<span class=\"hl\">SN</span> BKN005 \n  TEMPO 1207/1212 <span class=\"hl-vis\">0800</span> <span class=\"hl\">SN</span> BKN003 \n  TEMPO 1212/1218 <span class=\"hl-vis\">0800</span> -<span class=\"hl\">FZDZ</span> BKN002"
    },
    {
      "icao": "EDFH",
      "iata": "HHN",
      "name": "Frankfurt-Hahn Airport",
      "updatedAt": "111350Z",
      "visibility_m": 10000,
      "taf_visibility_m": 500,
      "worst_visibility_m": 500,
      "ceiling_ft": 700,
      "hazards": [
        "SN",
        "FZFG",
        "FG",
        "BR",
        "FZRA",
        "RA"
      ],
      "severityScore": 100,
      "metarRaw": "METAR EDFH 111350Z 18008KT 9999 -SN BKN007 M03/M05 Q1022",
      "tafRaw": "TAF EDFH 111100Z 1112/1212 17008KT 8000 BKN008 \n  PROB30 \n  TEMPO 1112/1122 4000 BR BKN004 \n  BECMG 1122/1124 SCT008 \n  TEMPO 1200/1204 4000 -SN BKN010 \n  TEMPO 1204/1210 2000 -FZRA BR BKN004 \n  PROB30 \n  TEMPO 1206/1208 0500 FZRA FZFG BKN001 \n  PROB30 \n  TEMPO 1208/1212 0500 -RA FG BKN001",
      "metarHtml": "METAR EDFH 111350Z 18008KT 9999 -<span class=\"hl\">SN</span> BKN007 M03/M05 Q1022",
      "tafHtml": "TAF EDFH 111100Z 1112/1212 17008KT 8000 BKN008 \n  PROB30 \n  TEMPO 1112/1122 4000 <span class=\"hl\">BR</span> BKN004 \n  BECMG 1122/1124 SCT008 \n  TEMPO 1200/1204 4000 -<span class=\"hl\">SN</span> BKN010 \n  TEMPO 1204/1210 2000 -<span class=\"hl\">FZRA</span> <span class=\"hl\">BR</span> BKN004 \n  PROB30 \n  TEMPO 1206/1208 <span class=\"hl-vis\">0500</span> <span class=\"hl\">FZRA</span> <span class=\"hl\">FZFG</span> BKN001 \n  PROB30 \n  TEMPO 1208/1212 <span class=\"hl-vis\">0500</span> -<span class=\"hl\">RA</span> <span class=\"hl\">FG</span> BKN001"
    },
    {
      "icao": "EETN",
      "iata": "TLL",
      "name": "Lennart Meri Tallinn Airport",
      "updatedAt": "111350Z",
      "visibility_m": 1300,
      "taf_visibility_m": 600,
      "worst_visibility_m": 600,
      "ceiling_ft": 700,
      "hazards": [
        "SN",
        "BLSN",
        "SHSN"
      ],
      "severityScore": 100,
      "metarRaw": "METAR EETN 111350Z 06008KT 1300 R08/P2000N SN OVC007 M04/M05 Q1011 NOSIG",
      "tafRaw": "TAF EETN 111130Z 1112/1212 07012KT 2500 SN DRSN BKN010 OVC020 \n  TEMPO 1112/1116 0600 +SN VV005 \n  TEMPO 1116/1120 06016G26KT 0700 +SHSN BLSN BKN006 SCT015CB \n  BECMG 1120/1122 09006KT \n  TEMPO 1122/1202 6000 NSW \n  BECMG 1202/1204 8000 NSW",
      "metarHtml": "METAR EETN 111350Z 06008KT 1300 R08/P2000N <span class=\"hl\">SN</span> OVC007 M04/M05 Q1011 NOSIG",
      "tafHtml": "TAF EETN 111130Z 1112/1212 07012KT 2500 <span class=\"hl\">SN</span> DRSN BKN010 OVC020 \n  TEMPO 1112/1116 <span class=\"hl-vis\">0600</span> +<span class=\"hl\">SN</span> VV005 \n  TEMPO 1116/1120 06016G26KT <span class=\"hl-vis\">0700</span> +<span class=\"hl\">SHSN</span> <span class=\"hl\">BLSN</span> BKN006 SCT015CB \n  BECMG 1120/1122 09006KT \n  TEMPO 1122/1202 6000 NSW \n  BECMG 1202/1204 8000 NSW"
    },
    {
      "icao": "EGNM",
      "iata": "LBA",
      "name": "Leeds Bradford Airport",
      "updatedAt": "111350Z",
      "visibility_m": 10000,
      "taf_visibility_m": 300,
      "worst_visibility_m": 300,
      "ceiling_ft": 600,
      "hazards": [
        "RA",
        "FG",
        "BR",
        "SHRA"
      ],
      "severityScore": 100,
      "metarRaw": "METAR EGNM 111350Z 16012KT 9999 -RA SCT003 BKN006 03/03 Q1003",
      "tafRaw": "TAF EGNM 111100Z 1112/1212 15015G28KT 9999 BKN006 \n  TEMPO 1112/1123 2000 RADZ BR BKN003 \n  PROB40 \n  TEMPO 1112/1122 0300 FG BKN000 \n  PROB30 \n  TEMPO 1120/1122 +RA \n  BECMG 1121/1124 FEW040 \n  BECMG 1122/1201 20012KT \n  PROB30 \n  TEMPO 1200/1212 21015G25KT 8000 -SHRA",
      "metarHtml": "METAR EGNM 111350Z 16012KT 9999 -<span class=\"hl\">RA</span> SCT003 BKN006 03/03 Q1003",
      "tafHtml": "TAF EGNM 111100Z 1112/1212 15015G28KT 9999 BKN006 \n  TEMPO 1112/1123 2000 RADZ <span class=\"hl\">BR</span> BKN003 \n  PROB40 \n  TEMPO 1112/1122 <span class=\"hl-vis\">0300</span> <span class=\"hl\">FG</span> BKN000 \n  PROB30 \n  TEMPO 1120/1122 +<span class=\"hl\">RA</span> \n  BECMG 1121/1124 FEW040 \n  BECMG 1122/1201 20012KT \n  PROB30 \n  TEMPO 1200/1212 21015G25KT 8000 -<span class=\"hl\">SHRA</span>"
    },
    {
      "icao": "ENGM",
      "iata": "OSL",
      "name": "Oslo-Gardermoen International Airport",
      "updatedAt": "111350Z",
      "visibility_m": 10000,
      "taf_visibility_m": 300,
      "worst_visibility_m": 300,
      "ceiling_ft": 500,
      "hazards": [
        "SN",
        "FZFG"
      ],
      "severityScore": 100,
      "metarRaw": "METAR ENGM 111350Z VRB01KT 9999 2800SW -SN OVC005 M17/M20 Q1022 NOSIG",
      "tafRaw": "TAF ENGM 111100Z 1112/1212 VRB03KT CAVOK \n  TEMPO 1112/1115 BKN004 \n  PROB30 1118/1124 2000 BCFG BKN002 \n  PROB30 \n  TEMPO 1200/1205 0300 FZFG VV002 \n  TEMPO 1205/1212 BKN008",
      "metarHtml": "METAR ENGM 111350Z VRB01KT 9999 2800SW -<span class=\"hl\">SN</span> OVC005 M17/M20 Q1022 NOSIG",
      "tafHtml": "TAF ENGM 111100Z 1112/1212 VRB03KT <span class=\"hl-vis\">CAVOK</span> \n  TEMPO 1112/1115 BKN004 \n  PROB30 1118/1124 2000 BCFG BKN002 \n  PROB30 \n  TEMPO 1200/1205 <span class=\"hl-vis\">0300</span> <span class=\"hl\">FZFG</span> VV002 \n  TEMPO 1205/1212 BKN008"
    },
    {
      "icao": "EPGD",
      "iata": "GDN",
      "name": "Gdańsk Lech Wałęsa Airport",
      "updatedAt": "111400Z",
      "visibility_m": 1400,
      "taf_visibility_m": 100,
      "worst_visibility_m": 100,
      "ceiling_ft": 700,
      "hazards": [
        "SHSN",
        "BLSN"
      ],
      "severityScore": 100,
      "metarRaw": "METAR EPGD 111400Z 33015KT 1400 R29/1800D +SHSN VV007 M01/M03 Q1010",
      "tafRaw": "TAF EPGD 111130Z 1112/1212 33012KT 9999 SCT016 \n  TEMPO 1112/1122 34015G25KT 1200 SHSN DRSN BKN005 BKN012CB \n  PROB40 \n  TEMPO 1112/1209 34022G35KT 0100 +SHSN BLSN BKN001 BKN006CB \n  TEMPO 1122/1209 1200 SHSN BKN002 BKN008CB \n  PROB40 \n  TEMPO 1209/1212 4000 -SHSN BKN005 BKN010CB",
      "metarHtml": "METAR EPGD 111400Z 33015KT 1400 R29/1800D +<span class=\"hl\">SHSN</span> VV007 M01/M03 Q1010",
      "tafHtml": "TAF EPGD 111130Z 1112/1212 33012KT 9999 SCT016 \n  TEMPO 1112/1122 34015G25KT 1200 <span class=\"hl\">SHSN</span> DRSN BKN005 BKN012CB \n  PROB40 \n  TEMPO 1112/1209 34022G35KT <span class=\"hl-vis\">0100</span> +<span class=\"hl\">SHSN</span> <span class=\"hl\">BLSN</span> BKN001 BKN006CB \n  TEMPO 1122/1209 1200 <span class=\"hl\">SHSN</span> BKN002 BKN008CB \n  PROB40 \n  TEMPO 1209/1212 4000 -<span class=\"hl\">SHSN</span> BKN005 BKN010CB"
    },
    {
      "icao": "EYKA",
      "iata": "KUN",
      "name": "Kaunas International Airport",
      "updatedAt": "111350Z",
      "visibility_m": 10000,
      "taf_visibility_m": 300,
      "worst_visibility_m": 300,
      "ceiling_ft": null,
      "hazards": [
        "SN",
        "FZFG",
        "BR"
      ],
      "severityScore": 100,
      "metarRaw": "METAR EYKA 111350Z VRB02KT 9999 -SN FEW014 SCT031 M11/M12 Q1007",
      "tafRaw": "TAF EYKA 111110Z 1112/1212 VRB03KT 5000 SN BKN030 \n  TEMPO 1112/1121 3000 BKN010 BKN030 \n  PROB30 \n  TEMPO 1114/1121 1500 \n  BECMG 1121/1123 BR BKN005 \n  TEMPO 1123/1208 1500 BKN002 \n  PROB40 \n  TEMPO 1123/1206 0300 FZFG VV002",
      "metarHtml": "METAR EYKA 111350Z VRB02KT 9999 -<span class=\"hl\">SN</span> FEW014 SCT031 M11/M12 Q1007",
      "tafHtml": "TAF EYKA 111110Z 1112/1212 VRB03KT 5000 <span class=\"hl\">SN</span> BKN030 \n  TEMPO 1112/1121 3000 BKN010 BKN030 \n  PROB30 \n  TEMPO 1114/1121 1500 \n  BECMG 1121/1123 <span class=\"hl\">BR</span> BKN005 \n  TEMPO 1123/1208 1500 BKN002 \n  PROB40 \n  TEMPO 1123/1206 <span class=\"hl-vis\">0300</span> <span class=\"hl\">FZFG</span> VV002"
    },
    {
      "icao": "EYPA",
      "iata": "PLQ",
      "name": "Palanga International Airport",
      "updatedAt": "111350Z",
      "visibility_m": 10000,
      "taf_visibility_m": 300,
      "worst_visibility_m": 300,
      "ceiling_ft": 3100,
      "hazards": [
        "FZFG",
        "BR",
        "SN"
      ],
      "severityScore": 100,
      "metarRaw": "METAR EYPA 111350Z 04008KT 9999 SCT019 SCT023 BKN031 M04/M07 Q1009",
      "tafRaw": "TAF EYPA 111102Z 1112/1212 02007KT 7000 BKN030 \n  TEMPO 1112/1118 3000 SN BKN015 \n  PROB30 \n  TEMPO 1112/1115 1500 BKN010 \n  TEMPO 1118/1123 1500 BR \n  TEMPO 1123/1209 0300 FZFG VV001",
      "metarHtml": "METAR EYPA 111350Z 04008KT 9999 SCT019 SCT023 BKN031 M04/M07 Q1009",
      "tafHtml": "TAF EYPA 111102Z 1112/1212 02007KT 7000 BKN030 \n  TEMPO 1112/1118 3000 <span class=\"hl\">SN</span> BKN015 \n  PROB30 \n  TEMPO 1112/1115 1500 BKN010 \n  TEMPO 1118/1123 1500 <span class=\"hl\">BR</span> \n  TEMPO 1123/1209 <span class=\"hl-vis\">0300</span> <span class=\"hl\">FZFG</span> VV001"
    },
    {
      "icao": "UAAA",
      "iata": "ALA",
      "name": "Almaty International Airport",
      "updatedAt": "111400Z",
      "visibility_m": 700,
      "taf_visibility_m": 200,
      "worst_visibility_m": 200,
      "ceiling_ft": 20000,
      "hazards": [
        "BR",
        "FZFG",
        "SHRA"
      ],
      "severityScore": 100,
      "metarRaw": "METAR UAAA 111400Z 15002MPS 0700 R05R/1800U BR FU BKN200 00/M03 Q1019 NOSIG",
      "tafRaw": "TAF UAAA 111103Z 1112/1212 21002MPS 1200 BR FU SCT050 BKN100 TX07/1209Z TNM04/1201Z \n  TEMPO 1112/1118 0400 FZFG SCT005 BKN011 \n  TEMPO 1118/1205 0200 FZFG VV001 \n  FM120600 34003MPS 6000 BKN050CB OVC100 \n  TEMPO 1209/1212 28004G10MPS 3100 -SHRA BR SCT011 BKN030CB OVC050",
      "metarHtml": "METAR UAAA 111400Z 15002MPS <span class=\"hl-vis\">0700</span> R05R/1800U <span class=\"hl\">BR</span> FU BKN200 00/M03 Q1019 NOSIG",
      "tafHtml": "TAF UAAA 111103Z 1112/1212 21002MPS 1200 <span class=\"hl\">BR</span> FU SCT050 BKN100 TX07/1209Z TNM04/1201Z \n  TEMPO 1112/1118 <span class=\"hl-vis\">0400</span> <span class=\"hl\">FZFG</span> SCT005 BKN011 \n  TEMPO 1118/1205 <span class=\"hl-vis\">0200</span> <span class=\"hl\">FZFG</span> VV001 \n  FM120600 34003MPS 6000 BKN050CB OVC100 \n  TEMPO 1209/1212 28004G10MPS 3100 -<span class=\"hl\">SHRA</span> <span class=\"hl\">BR</span> SCT011 BKN030CB OVC050"
    },
    {
      "icao": "EPKT",
      "iata": "KTW",
      "name": "Katowice Wojciech Korfanty International Airport",
      "updatedAt": "111400Z",
      "visibility_m": 2200,
      "taf_visibility_m": 500,
      "worst_visibility_m": 500,
      "ceiling_ft": 1400,
      "hazards": [
        "SN",
        "BR",
        "BLSN"
      ],
      "severityScore": 97,
      "metarRaw": "METAR EPKT 111400Z 27013KT 2200 SN DRSN FEW007 BKN014 M05/M07 Q1012",
      "tafRaw": "TAF EPKT 111130Z 1112/1212 28015KT 3000 -SN BR BKN014 BKN016 \n  TEMPO 1112/1204 28016G26KT 1400 SN DRSN BKN006 BKN012 \n  PROB40 \n  TEMPO 1112/1124 0500 +SN BLSN BKN004 OVC006 \n  TEMPO 1204/1208 2000 SN BKN006 BKN010 \n  BECMG 1208/1211 27005KT 8000 SCT030",
      "metarHtml": "METAR EPKT 111400Z 27013KT 2200 <span class=\"hl\">SN</span> DRSN FEW007 BKN014 M05/M07 Q1012",
      "tafHtml": "TAF EPKT 111130Z 1112/1212 28015KT 3000 -<span class=\"hl\">SN</span> <span class=\"hl\">BR</span> BKN014 BKN016 \n  TEMPO 1112/1204 28016G26KT 1400 <span class=\"hl\">SN</span> DRSN BKN006 BKN012 \n  PROB40 \n  TEMPO 1112/1124 <span class=\"hl-vis\">0500</span> +<span class=\"hl\">SN</span> <span class=\"hl\">BLSN</span> BKN004 OVC006 \n  TEMPO 1204/1208 2000 <span class=\"hl\">SN</span> BKN006 BKN010 \n  BECMG 1208/1211 27005KT 8000 SCT030"
    },
    {
      "icao": "EDDK",
      "iata": "CGN",
      "name": "Cologne Bonn Airport",
      "updatedAt": "111350Z",
      "visibility_m": 10000,
      "taf_visibility_m": 3000,
      "worst_visibility_m": 3000,
      "ceiling_ft": 1600,
      "hazards": [
        "FZRA",
        "SN",
        "RA",
        "DZ"
      ],
      "severityScore": 87,
      "metarRaw": "METAR EDDK 111350Z AUTO 15008KT 9999 BKN016 M02/M04 Q1024 NOSIG",
      "tafRaw": "TAF EDDK 111100Z 1112/1218 14009KT 9999 SCT020 \n  TEMPO 1200/1204 14014KT FZRA \n  PROB30 \n  TEMPO 1200/1203 3000 SN BKN010 \n  PROB30 \n  TEMPO 1204/1207 14014KT 4000 FZRA BKN010 \n  PROB30 \n  TEMPO 1207/1211 4000 -DZ BKN012 \n  TEMPO 1213/1218 RA BKN012",
      "metarHtml": "METAR EDDK 111350Z AUTO 15008KT 9999 BKN016 M02/M04 Q1024 NOSIG",
      "tafHtml": "TAF EDDK 111100Z 1112/1218 14009KT 9999 SCT020 \n  TEMPO 1200/1204 14014KT <span class=\"hl\">FZRA</span> \n  PROB30 \n  TEMPO 1200/1203 3000 <span class=\"hl\">SN</span> BKN010 \n  PROB30 \n  TEMPO 1204/1207 14014KT 4000 <span class=\"hl\">FZRA</span> BKN010 \n  PROB30 \n  TEMPO 1207/1211 4000 -<span class=\"hl\">DZ</span> BKN012 \n  TEMPO 1213/1218 <span class=\"hl\">RA</span> BKN012"
    },
    {
      "icao": "EDDS",
      "iata": "STR",
      "name": "Stuttgart Airport",
      "updatedAt": "111350Z",
      "visibility_m": 10000,
      "taf_visibility_m": 4000,
      "worst_visibility_m": 4000,
      "ceiling_ft": 1700,
      "hazards": [
        "BR",
        "FZRA",
        "SN",
        "RA"
      ],
      "severityScore": 87,
      "metarRaw": "METAR EDDS 111350Z AUTO 25005KT 220V280 9999 OVC017 M00/M04 Q1023 NOSIG",
      "tafRaw": "TAF EDDS 111100Z 1112/1212 VRB03KT 9999 SCT015 \n  PROB30 \n  TEMPO 1112/1115 BKN012 \n  TEMPO 1204/1206 4000 -SN BKN014 \n  BECMG 1206/1210 20005KT \n  TEMPO 1206/1210 4000 -FZRA BR BKN014 \n  TEMPO 1210/1212 4000 -RA BR BKN014",
      "metarHtml": "METAR EDDS 111350Z AUTO 25005KT 220V280 9999 OVC017 M00/M04 Q1023 NOSIG",
      "tafHtml": "TAF EDDS 111100Z 1112/1212 VRB03KT 9999 SCT015 \n  PROB30 \n  TEMPO 1112/1115 BKN012 \n  TEMPO 1204/1206 4000 -<span class=\"hl\">SN</span> BKN014 \n  BECMG 1206/1210 20005KT \n  TEMPO 1206/1210 4000 -<span class=\"hl\">FZRA</span> <span class=\"hl\">BR</span> BKN014 \n  TEMPO 1210/1212 4000 -<span class=\"hl\">RA</span> <span class=\"hl\">BR</span> BKN014"
    },
    {
      "icao": "EDSB",
      "iata": "FKB",
      "name": "Karlsruhe Baden-Baden Airport",
      "updatedAt": "111350Z",
      "visibility_m": 10000,
      "taf_visibility_m": 1000,
      "worst_visibility_m": 1000,
      "ceiling_ft": 2700,
      "hazards": [
        "BR",
        "FZRA",
        "SN",
        "RA"
      ],
      "severityScore": 85,
      "metarRaw": "METAR EDSB 111350Z 03003KT 9999 OVC027 00/M02 Q1025",
      "tafRaw": "TAF EDSB 111100Z 1112/1212 VRB03KT 8000 BKN020 \n  TEMPO 1122/1124 1000 BCFG \n  PROB30 \n  TEMPO 1204/1205 4500 -SN \n  BECMG 1204/1208 20009KT \n  TEMPO 1204/1209 -FZRA \n  PROB30 \n  TEMPO 1207/1209 4000 FZRA BR BKN014 \n  TEMPO 1209/1212 4000 RA BR BKN014",
      "metarHtml": "METAR EDSB 111350Z 03003KT 9999 OVC027 00/M02 Q1025",
      "tafHtml": "TAF EDSB 111100Z 1112/1212 VRB03KT 8000 BKN020 \n  TEMPO 1122/1124 1000 BCFG \n  PROB30 \n  TEMPO 1204/1205 4500 -<span class=\"hl\">SN</span> \n  BECMG 1204/1208 20009KT \n  TEMPO 1204/1209 -<span class=\"hl\">FZRA</span> \n  PROB30 \n  TEMPO 1207/1209 4000 <span class=\"hl\">FZRA</span> <span class=\"hl\">BR</span> BKN014 \n  TEMPO 1209/1212 4000 <span class=\"hl\">RA</span> <span class=\"hl\">BR</span> BKN014"
    },
    {
      "icao": "EBCI",
      "iata": "CRL",
      "name": "Brussels South Charleroi Airport",
      "updatedAt": "111350Z",
      "visibility_m": 9000,
      "taf_visibility_m": 1500,
      "worst_visibility_m": 1500,
      "ceiling_ft": 1200,
      "hazards": [
        "FZRA",
        "RA",
        "DZ"
      ],
      "severityScore": 79,
      "metarRaw": "METAR EBCI 111350Z 17011KT 9000 SCT009 BKN012 M01/M03 Q1021 TEMPO SCT012",
      "tafRaw": "TAF EBCI 111100Z 1112/1218 19010KT 9999 BKN013 \n  TEMPO 1121/1203 18015G25KT 3500 RA BKN008 \n  PROB30 \n  TEMPO 1121/1123 -FZRA BKN008 \n  BECMG 1202/1204 BKN004 \n  TEMPO 1205/1211 1500 DZ BKN002 \n  BECMG 1212/1214 BKN006",
      "metarHtml": "METAR EBCI 111350Z 17011KT 9000 SCT009 BKN012 M01/M03 Q1021 TEMPO SCT012",
      "tafHtml": "TAF EBCI 111100Z 1112/1218 19010KT 9999 BKN013 \n  TEMPO 1121/1203 18015G25KT 3500 <span class=\"hl\">RA</span> BKN008 \n  PROB30 \n  TEMPO 1121/1123 -<span class=\"hl\">FZRA</span> BKN008 \n  BECMG 1202/1204 BKN004 \n  TEMPO 1205/1211 1500 <span class=\"hl\">DZ</span> BKN002 \n  BECMG 1212/1214 BKN006"
    },
    {
      "icao": "LJLJ",
      "iata": "LJU",
      "name": "Ljubljana Jože Pučnik Airport",
      "updatedAt": "111400Z",
      "visibility_m": 10000,
      "taf_visibility_m": 400,
      "worst_visibility_m": 400,
      "ceiling_ft": null,
      "hazards": [
        "FZFG",
        "BR"
      ],
      "severityScore": 75,
      "metarRaw": "METAR LJLJ 111400Z 10002KT 9999 FEW027 M02/M06 Q1020 NOSIG",
      "tafRaw": "TAF LJLJ 111100Z 1112/1212 11008KT 9999 SCT010 BKN018 \n  TEMPO 1120/1208 2500 PRFG BR \n  PROB40 \n  TEMPO 1200/1208 0400 FZFG VV001",
      "metarHtml": "METAR LJLJ 111400Z 10002KT 9999 FEW027 M02/M06 Q1020 NOSIG",
      "tafHtml": "TAF LJLJ 111100Z 1112/1212 11008KT 9999 SCT010 BKN018 \n  TEMPO 1120/1208 2500 PRFG <span class=\"hl\">BR</span> \n  PROB40 \n  TEMPO 1200/1208 <span class=\"hl-vis\">0400</span> <span class=\"hl\">FZFG</span> VV001"
    },
    {
      "icao": "EPMO",
      "iata": "WMI",
      "name": "Modlin Airport",
      "updatedAt": "111400Z",
      "visibility_m": 10000,
      "taf_visibility_m": 300,
      "worst_visibility_m": 300,
      "ceiling_ft": null,
      "hazards": [
        "SN",
        "SHSN"
      ],
      "severityScore": 73,
      "metarRaw": "METAR EPMO 111400Z 28008KT 9999 -SN FEW009 SCT026 M04/M05 Q1009",
      "tafRaw": "TAF EPMO 111130Z 1112/1212 31010KT 7000 -SN BKN025 \n  TEMPO 1112/1114 4500 -SN BKN014 \n  TEMPO 1114/1210 1500 SN BKN007 BKN014 \n  PROB40 \n  TEMPO 1114/1124 0300 +SHSN BKN002 BKN014CB",
      "metarHtml": "METAR EPMO 111400Z 28008KT 9999 -<span class=\"hl\">SN</span> FEW009 SCT026 M04/M05 Q1009",
      "tafHtml": "TAF EPMO 111130Z 1112/1212 31010KT 7000 -<span class=\"hl\">SN</span> BKN025 \n  TEMPO 1112/1114 4500 -<span class=\"hl\">SN</span> BKN014 \n  TEMPO 1114/1210 1500 <span class=\"hl\">SN</span> BKN007 BKN014 \n  PROB40 \n  TEMPO 1114/1124 <span class=\"hl-vis\">0300</span> +<span class=\"hl\">SHSN</span> BKN002 BKN014CB"
    },
    {
      "icao": "EPWA",
      "iata": "WAW",
      "name": "Warsaw Chopin Airport",
      "updatedAt": "111400Z",
      "visibility_m": 10000,
      "taf_visibility_m": 300,
      "worst_visibility_m": 300,
      "ceiling_ft": null,
      "hazards": [
        "SN",
        "SHSN"
      ],
      "severityScore": 73,
      "metarRaw": "METAR EPWA 111400Z 29009KT 9999 -SN SCT012 M03/M05 Q1009 NOSIG",
      "tafRaw": "TAF EPWA 111130Z 1112/1212 31008KT 8000 -SN BKN025 \n  TEMPO 1112/1114 4500 -SN BKN014 \n  TEMPO 1114/1210 1500 SN BKN007 BKN014 \n  PROB40 \n  TEMPO 1115/1124 0300 +SHSN BKN002 BKN014CB",
      "metarHtml": "METAR EPWA 111400Z 29009KT 9999 -<span class=\"hl\">SN</span> SCT012 M03/M05 Q1009 NOSIG",
      "tafHtml": "TAF EPWA 111130Z 1112/1212 31008KT 8000 -<span class=\"hl\">SN</span> BKN025 \n  TEMPO 1112/1114 4500 -<span class=\"hl\">SN</span> BKN014 \n  TEMPO 1114/1210 1500 <span class=\"hl\">SN</span> BKN007 BKN014 \n  PROB40 \n  TEMPO 1115/1124 <span class=\"hl-vis\">0300</span> +<span class=\"hl\">SHSN</span> BKN002 BKN014CB"
    },
    {
      "icao": "EHEH",
      "iata": "EIN",
      "name": "Eindhoven Airport",
      "updatedAt": "111355Z",
      "visibility_m": 7000,
      "taf_visibility_m": 4000,
      "worst_visibility_m": 4000,
      "ceiling_ft": 1000,
      "hazards": [
        "BR",
        "FZRA",
        "RA"
      ],
      "severityScore": 69,
      "metarRaw": "METAR EHEH 111355Z AUTO 18010KT 150V230 7000 BR OVC010 M01/M03 Q1022 GRN NOSIG RMK TREND REMOTE BY EHWX",
      "tafRaw": "TAF EHEH 111136Z 1112/1218 18008KT 9999 OVC014 \n  BECMG 1116/1118 CAVOK \n  BECMG 1119/1121 17011G22KT \n  PROB30 \n  TEMPO 1123/1201 4000 -RA \n  BECMG 1200/1203 6000 RADZ SCT015 OVC020 \n  PROB40 \n  TEMPO 1200/1204 -FZRA \n  BECMG 1205/1206 4000 DZRA BR SCT008 BKN012 \n  BECMG 1209/1212 20008KT",
      "metarHtml": "METAR EHEH 111355Z AUTO 18010KT 150V230 7000 <span class=\"hl\">BR</span> OVC010 M01/M03 Q1022 GRN NOSIG RMK TREND REMOTE BY EHWX",
      "tafHtml": "TAF EHEH 111136Z 1112/1218 18008KT 9999 OVC014 \n  BECMG 1116/1118 <span class=\"hl-vis\">CAVOK</span> \n  BECMG 1119/1121 17011G22KT \n  PROB30 \n  TEMPO 1123/1201 4000 -<span class=\"hl\">RA</span> \n  BECMG 1200/1203 6000 RADZ SCT015 OVC020 \n  PROB40 \n  TEMPO 1200/1204 -<span class=\"hl\">FZRA</span> \n  BECMG 1205/1206 4000 DZRA <span class=\"hl\">BR</span> SCT008 BKN012 \n  BECMG 1209/1212 20008KT"
    },
    {
      "icao": "LRCV",
      "iata": "CRA",
      "name": "Craiova International Airport",
      "updatedAt": "111400Z",
      "visibility_m": 2500,
      "taf_visibility_m": null,
      "worst_visibility_m": 2500,
      "ceiling_ft": 300,
      "hazards": [
        "BR",
        "SN"
      ],
      "severityScore": 68,
      "metarRaw": "METAR LRCV 111400Z 12002KT 2500 -SN BR OVC003 M03/M04 Q1012",
      "tafRaw": null,
      "metarHtml": "METAR LRCV 111400Z 12002KT 2500 -<span class=\"hl\">SN</span> <span class=\"hl\">BR</span> OVC003 M03/M04 Q1012",
      "tafHtml": null
    },
    {
      "icao": "LEMD",
      "iata": "MAD",
      "name": "Adolfo Suárez Madrid–Barajas Airport",
      "updatedAt": "111400Z",
      "visibility_m": 10000,
      "taf_visibility_m": 350,
      "worst_visibility_m": 350,
      "ceiling_ft": null,
      "hazards": [
        "FG",
        "BR"
      ],
      "severityScore": 65,
      "metarRaw": "METAR LEMD 111400Z 13004KT 080V180 CAVOK 09/02 Q1025 NOSIG",
      "tafRaw": "TAF LEMD 111100Z 1112/1218 VRB03KT CAVOK TX10/1114Z TN02/1200Z \n  TEMPO 1201/1214 3000 BR BCFG BKN004 BKN010 \n  PROB40 \n  TEMPO 1202/1211 0350 FG VV002",
      "metarHtml": "METAR LEMD 111400Z 13004KT 080V180 <span class=\"hl-vis\">CAVOK</span> 09/02 Q1025 NOSIG",
      "tafHtml": "TAF LEMD 111100Z 1112/1218 VRB03KT <span class=\"hl-vis\">CAVOK</span> TX10/1114Z TN02/1200Z \n  TEMPO 1201/1214 3000 <span class=\"hl\">BR</span> BCFG BKN004 BKN010 \n  PROB40 \n  TEMPO 1202/1211 <span class=\"hl-vis\">0350</span> <span class=\"hl\">FG</span> VV002"
    },
    {
      "icao": "UDYZ",
      "iata": "EVN",
      "name": "Zvartnots International Airport",
      "updatedAt": "111400Z",
      "visibility_m": 4000,
      "taf_visibility_m": 600,
      "worst_visibility_m": 600,
      "ceiling_ft": null,
      "hazards": [
        "BR",
        "FZFG"
      ],
      "severityScore": 65,
      "metarRaw": "METAR UDYZ 111400Z VRB01KT 4000 BR SCT046 01/M03 Q1021 NOSIG",
      "tafRaw": "TAF UDYZ 111100Z 1112/1212 VRB06KT 3500 BR SCT040 \n  TEMPO 1121/1208 0600 FZFG VV003",
      "metarHtml": "METAR UDYZ 111400Z VRB01KT 4000 <span class=\"hl\">BR</span> SCT046 01/M03 Q1021 NOSIG",
      "tafHtml": "TAF UDYZ 111100Z 1112/1212 VRB06KT 3500 <span class=\"hl\">BR</span> SCT040 \n  TEMPO 1121/1208 <span class=\"hl-vis\">0600</span> <span class=\"hl\">FZFG</span> VV003"
    },
    {
      "icao": "LCLK",
      "iata": "LCA",
      "name": "Larnaca International Airport",
      "updatedAt": "111400Z",
      "visibility_m": 5000,
      "taf_visibility_m": 2000,
      "worst_visibility_m": 2000,
      "ceiling_ft": null,
      "hazards": [
        "SHRA",
        "TS",
        "TSRA"
      ],
      "severityScore": 64,
      "metarRaw": "METAR LCLK 111400Z 20018KT 9999 FEW020 FEW025TCU FEW030CB SCT050 19/13 Q1012 TEMPO 5000 SHRA RMK CB TO NW W",
      "tafRaw": "TAF LCLK 111130Z 1112/1212 21021KT 9999 FEW025TCU FEW030CB SCT035 \n  PROB40 \n  TEMPO 1112/1212 5000 SHRA SCT025TCU \n  PROB40 \n  TEMPO 1112/1122 22024G34KT \n  PROB30 \n  TEMPO 1112/1118 TS \n  PROB30 \n  TEMPO 1121/1212 VRB25G35KT 2000 TSRA SCT030CB \n  PROB30 \n  TEMPO 1121/1207 24009KT",
      "metarHtml": "METAR LCLK 111400Z 20018KT 9999 FEW020 FEW025TCU FEW030CB SCT050 19/13 Q1012 TEMPO 5000 <span class=\"hl\">SHRA</span> RMK CB TO NW W",
      "tafHtml": "TAF LCLK 111130Z 1112/1212 21021KT 9999 FEW025TCU FEW030CB SCT035 \n  PROB40 \n  TEMPO 1112/1212 5000 <span class=\"hl\">SHRA</span> SCT025TCU \n  PROB40 \n  TEMPO 1112/1122 22024G34KT \n  PROB30 \n  TEMPO 1112/1118 <span class=\"hl\">TS</span> \n  PROB30 \n  TEMPO 1121/1212 VRB25G35KT 2000 <span class=\"hl\">TSRA</span> SCT030CB \n  PROB30 \n  TEMPO 1121/1207 24009KT"
    },
    {
      "icao": "EDDN",
      "iata": "NUE",
      "name": "Nuremberg Airport",
      "updatedAt": "111350Z",
      "visibility_m": 10000,
      "taf_visibility_m": 1000,
      "worst_visibility_m": 1000,
      "ceiling_ft": null,
      "hazards": [
        "FZRA",
        "SN"
      ],
      "severityScore": 63,
      "metarRaw": "METAR EDDN 111350Z AUTO VRB01KT CAVOK M01/M07 Q1025 NOSIG",
      "tafRaw": "TAF EDDN 111100Z 1112/1212 VRB03KT CAVOK \n  PROB30 \n  TEMPO 1117/1121 BKN012 \n  BECMG 1121/1123 13005KT \n  BECMG 1206/1208 4000 -SN SCT003 BKN006 \n  TEMPO 1207/1211 1000 SN VV002 \n  BECMG 1211/1212 5000 -FZRA \n  TEMPO 1211/1212 2000 FZRA OVC004",
      "metarHtml": "METAR EDDN 111350Z AUTO VRB01KT <span class=\"hl-vis\">CAVOK</span> M01/M07 Q1025 NOSIG",
      "tafHtml": "TAF EDDN 111100Z 1112/1212 VRB03KT <span class=\"hl-vis\">CAVOK</span> \n  PROB30 \n  TEMPO 1117/1121 BKN012 \n  BECMG 1121/1123 13005KT \n  BECMG 1206/1208 4000 -<span class=\"hl\">SN</span> SCT003 BKN006 \n  TEMPO 1207/1211 1000 <span class=\"hl\">SN</span> VV002 \n  BECMG 1211/1212 5000 -<span class=\"hl\">FZRA</span> \n  TEMPO 1211/1212 2000 <span class=\"hl\">FZRA</span> OVC004"
    },
    {
      "icao": "EPRZ",
      "iata": "RZE",
      "name": "Rzeszów-Jasionka Airport",
      "updatedAt": "111400Z",
      "visibility_m": 2500,
      "taf_visibility_m": 500,
      "worst_visibility_m": 500,
      "ceiling_ft": 3000,
      "hazards": [
        "BR",
        "SN"
      ],
      "severityScore": 63,
      "metarRaw": "METAR EPRZ 111400Z 26016KT 2500 -SN BR FEW002 SCT011 BKN030 M03/M04 Q1009",
      "tafRaw": "TAF EPRZ 111130Z 1112/1212 28008KT 3000 -SN BR BKN016 \n  TEMPO 1112/1209 1400 SN FEW002 BKN012 \n  PROB40 \n  TEMPO 1112/1206 26015G25KT 0500 +SN DRSN BKN002 BKN008 \n  TEMPO 1209/1212 2000 SN BKN012",
      "metarHtml": "METAR EPRZ 111400Z 26016KT 2500 -<span class=\"hl\">SN</span> <span class=\"hl\">BR</span> FEW002 SCT011 BKN030 M03/M04 Q1009",
      "tafHtml": "TAF EPRZ 111130Z 1112/1212 28008KT 3000 -<span class=\"hl\">SN</span> <span class=\"hl\">BR</span> BKN016 \n  TEMPO 1112/1209 1400 <span class=\"hl\">SN</span> FEW002 BKN012 \n  PROB40 \n  TEMPO 1112/1206 26015G25KT <span class=\"hl-vis\">0500</span> +<span class=\"hl\">SN</span> DRSN BKN002 BKN008 \n  TEMPO 1209/1212 2000 <span class=\"hl\">SN</span> BKN012"
    },
    {
      "icao": "EPRA",
      "iata": "RDO",
      "name": "Warsaw Radom Airport",
      "updatedAt": "111400Z",
      "visibility_m": 8000,
      "taf_visibility_m": 1500,
      "worst_visibility_m": 1500,
      "ceiling_ft": 2500,
      "hazards": [
        "SN",
        "BLSN",
        "SHSN"
      ],
      "severityScore": 60,
      "metarRaw": "METAR EPRA 111400Z 31008KT 8000 -SN SCT010 BKN025 M04/M06 Q1009",
      "tafRaw": "TAF EPRA 111130Z 1112/1121 30010KT 8000 -SN BKN018 \n  TEMPO 1112/1116 3000 SN BKN012 \n  PROB40 \n  TEMPO 1116/1121 29015G25KT 1500 SHSN BLSN BKN007 BKN014TCU",
      "metarHtml": "METAR EPRA 111400Z 31008KT 8000 -<span class=\"hl\">SN</span> SCT010 BKN025 M04/M06 Q1009",
      "tafHtml": "TAF EPRA 111130Z 1112/1121 30010KT 8000 -<span class=\"hl\">SN</span> BKN018 \n  TEMPO 1112/1116 3000 <span class=\"hl\">SN</span> BKN012 \n  PROB40 \n  TEMPO 1116/1121 29015G25KT 1500 <span class=\"hl\">SHSN</span> <span class=\"hl\">BLSN</span> BKN007 BKN014TCU"
    },
    {
      "icao": "LPPR",
      "iata": "OPO",
      "name": "Francisco de Sá Carneiro Airport",
      "updatedAt": "111400Z",
      "visibility_m": 10000,
      "taf_visibility_m": 1500,
      "worst_visibility_m": 1500,
      "ceiling_ft": 500,
      "hazards": [
        "BR",
        "RA"
      ],
      "severityScore": 57,
      "metarRaw": "METAR LPPR 111400Z 18013KT 9999 FEW003 BKN005 13/13 Q1023",
      "tafRaw": "TAF LPPR 111106Z 1112/1212 18013KT 9999 SCT006 BKN015 \n  TEMPO 1112/1210 3000 -RA BR SCT002 BKN004 \n  PROB30 \n  TEMPO 1118/1208 1500 -RADZ BR BKN002",
      "metarHtml": "METAR LPPR 111400Z 18013KT 9999 FEW003 BKN005 13/13 Q1023",
      "tafHtml": "TAF LPPR 111106Z 1112/1212 18013KT 9999 SCT006 BKN015 \n  TEMPO 1112/1210 3000 -<span class=\"hl\">RA</span> <span class=\"hl\">BR</span> SCT002 BKN004 \n  PROB30 \n  TEMPO 1118/1208 1500 -RADZ <span class=\"hl\">BR</span> BKN002"
    },
    {
      "icao": "EDJA",
      "iata": "FMM",
      "name": "Memmingen Allgau Airport",
      "updatedAt": "111350Z",
      "visibility_m": 10000,
      "taf_visibility_m": 600,
      "worst_visibility_m": 600,
      "ceiling_ft": 2000,
      "hazards": [
        "FZFG"
      ],
      "severityScore": 55,
      "metarRaw": "METAR EDJA 111350Z 29004KT 9999 SCT012 OVC020 M02/M04 Q1022",
      "tafRaw": "TAF EDJA 111100Z 1112/1121 23005KT 9000 SCT010 BKN015 \n  TEMPO 1112/1117 BKN010 \n  BECMG 1115/1117 VRB03KT \n  PROB40 \n  TEMPO 1119/1121 0600 FZFG",
      "metarHtml": "METAR EDJA 111350Z 29004KT 9999 SCT012 OVC020 M02/M04 Q1022",
      "tafHtml": "TAF EDJA 111100Z 1112/1121 23005KT 9000 SCT010 BKN015 \n  TEMPO 1112/1117 BKN010 \n  BECMG 1115/1117 VRB03KT \n  PROB40 \n  TEMPO 1119/1121 <span class=\"hl-vis\">0600</span> <span class=\"hl\">FZFG</span>"
    },
    {
      "icao": "EDLW",
      "iata": "DTM",
      "name": "Dortmund Airport",
      "updatedAt": "111350Z",
      "visibility_m": 10000,
      "taf_visibility_m": 3000,
      "worst_visibility_m": 3000,
      "ceiling_ft": null,
      "hazards": [
        "FZRA",
        "SN"
      ],
      "severityScore": 53,
      "metarRaw": "METAR EDLW 111350Z 18005KT 130V210 CAVOK M00/M06 Q1023",
      "tafRaw": "TAF EDLW 111120Z 1112/1212 17008KT CAVOK \n  BECMG 1120/1123 17013KT \n  PROB40 \n  TEMPO 1200/1206 17015G25KT \n  TEMPO 1201/1205 FZRA \n  PROB30 \n  TEMPO 1201/1204 3000 SN BKN010 \n  PROB30 \n  TEMPO 1205/1207 FZRA \n  PROB30 \n  TEMPO 1207/1212 BKN010",
      "metarHtml": "METAR EDLW 111350Z 18005KT 130V210 <span class=\"hl-vis\">CAVOK</span> M00/M06 Q1023",
      "tafHtml": "TAF EDLW 111120Z 1112/1212 17008KT <span class=\"hl-vis\">CAVOK</span> \n  BECMG 1120/1123 17013KT \n  PROB40 \n  TEMPO 1200/1206 17015G25KT \n  TEMPO 1201/1205 <span class=\"hl\">FZRA</span> \n  PROB30 \n  TEMPO 1201/1204 3000 <span class=\"hl\">SN</span> BKN010 \n  PROB30 \n  TEMPO 1205/1207 <span class=\"hl\">FZRA</span> \n  PROB30 \n  TEMPO 1207/1212 BKN010"
    },
    {
      "icao": "EPKK",
      "iata": "KRK",
      "name": "Kraków John Paul II International Airport",
      "updatedAt": "111400Z",
      "visibility_m": 5000,
      "taf_visibility_m": 600,
      "worst_visibility_m": 600,
      "ceiling_ft": 2300,
      "hazards": [
        "BR",
        "SN"
      ],
      "severityScore": 53,
      "metarRaw": "METAR EPKK 111400Z 28017KT 5000 -SN DRSN BR BKN023 M04/M07 Q1012",
      "tafRaw": "TAF EPKK 111130Z 1112/1212 27015KT 5000 -SN BR OVC020 \n  TEMPO 1112/1203 28015G25KT 1400 SN DRSN BKN008 BKN012 \n  PROB40 \n  TEMPO 1112/1122 0600 +SN BKN004 \n  TEMPO 1203/1208 1500 SN BKN009 BKN015",
      "metarHtml": "METAR EPKK 111400Z 28017KT 5000 -<span class=\"hl\">SN</span> DRSN <span class=\"hl\">BR</span> BKN023 M04/M07 Q1012",
      "tafHtml": "TAF EPKK 111130Z 1112/1212 27015KT 5000 -<span class=\"hl\">SN</span> <span class=\"hl\">BR</span> OVC020 \n  TEMPO 1112/1203 28015G25KT 1400 <span class=\"hl\">SN</span> DRSN BKN008 BKN012 \n  PROB40 \n  TEMPO 1112/1122 <span class=\"hl-vis\">0600</span> +<span class=\"hl\">SN</span> BKN004 \n  TEMPO 1203/1208 1500 <span class=\"hl\">SN</span> BKN009 BKN015"
    },
    {
      "icao": "EPLB",
      "iata": "LUZ",
      "name": "Lublin Airport",
      "updatedAt": "111400Z",
      "visibility_m": 9000,
      "taf_visibility_m": 500,
      "worst_visibility_m": 500,
      "ceiling_ft": 2200,
      "hazards": [
        "SN"
      ],
      "severityScore": 53,
      "metarRaw": "METAR EPLB 111400Z 31008KT 9000 -SN FEW016 BKN022 M05/M07 Q1007",
      "tafRaw": "TAF EPLB 111130Z 1112/1212 30010KT 8000 -SN BKN030 \n  TEMPO 1112/1212 3000 SN BKN007 BKN012 \n  PROB40 \n  TEMPO 1116/1206 32015G25KT 0500 SN DRSN BKN003",
      "metarHtml": "METAR EPLB 111400Z 31008KT 9000 -<span class=\"hl\">SN</span> FEW016 BKN022 M05/M07 Q1007",
      "tafHtml": "TAF EPLB 111130Z 1112/1212 30010KT 8000 -<span class=\"hl\">SN</span> BKN030 \n  TEMPO 1112/1212 3000 <span class=\"hl\">SN</span> BKN007 BKN012 \n  PROB40 \n  TEMPO 1116/1206 32015G25KT <span class=\"hl-vis\">0500</span> <span class=\"hl\">SN</span> DRSN BKN003"
    },
    {
      "icao": "LTFM",
      "iata": "IST",
      "name": "İstanbul Airport",
      "updatedAt": "111350Z",
      "visibility_m": 6000,
      "taf_visibility_m": 2500,
      "worst_visibility_m": 2500,
      "ceiling_ft": 1200,
      "hazards": [
        "RA",
        "SHRA",
        "SHSN"
      ],
      "severityScore": 48,
      "metarRaw": "METAR LTFM 111350Z 02021KT 6000 -RA BKN012 BKN020 04/02 Q1008 NOSIG RMK RWY17L 02020KT RWY34L 01017KT RWY16R 02017KT RWY36 01022KT RWY18 02018KT",
      "tafRaw": "TAF LTFM 111040Z 1112/1218 03015KT 9999 -RA BKN012 BKN020 \n  BECMG 1112/1115 02020G30KT -SHRA \n  BECMG 1116/1119 -SHSNRA \n  BECMG 1121/1124 -SHSN \n  TEMPO 1123/1203 2500 SHSN BKN006 BKN020 \n  TEMPO 1203/1207 2500 SHSN BKN006 BKN020 \n  BECMG 1211/1214 36016KT",
      "metarHtml": "METAR LTFM 111350Z 02021KT 6000 -<span class=\"hl\">RA</span> BKN012 BKN020 04/02 Q1008 NOSIG RMK RWY17L 02020KT RWY34L 01017KT RWY16R 02017KT RWY36 01022KT RWY18 02018KT",
      "tafHtml": "TAF LTFM 111040Z 1112/1218 03015KT 9999 -<span class=\"hl\">RA</span> BKN012 BKN020 \n  BECMG 1112/1115 02020G30KT -<span class=\"hl\">SHRA</span> \n  BECMG 1116/1119 -SHSNRA \n  BECMG 1121/1124 -<span class=\"hl\">SHSN</span> \n  TEMPO 1123/1203 2500 <span class=\"hl\">SHSN</span> BKN006 BKN020 \n  TEMPO 1203/1207 2500 <span class=\"hl\">SHSN</span> BKN006 BKN020 \n  BECMG 1211/1214 36016KT"
    },
    {
      "icao": "EPSY",
      "iata": "SZY",
      "name": "Olsztyn-Mazury Airport",
      "updatedAt": "111400Z",
      "visibility_m": 4000,
      "taf_visibility_m": 2000,
      "worst_visibility_m": 2000,
      "ceiling_ft": 1500,
      "hazards": [
        "SN",
        "SHSN"
      ],
      "severityScore": 40,
      "metarRaw": "METAR EPSY 111400Z 28005KT 250V310 4000 -SN BKN015 M05/M07 Q1008",
      "tafRaw": "TAF EPSY 111130Z 1112/1121 32007KT CAVOK \n  TEMPO 1112/1121 4000 -SN BKN014 \n  PROB40 \n  TEMPO 1113/1121 2000 SHSN BKN005 BKN012CB",
      "metarHtml": "METAR EPSY 111400Z 28005KT 250V310 4000 -<span class=\"hl\">SN</span> BKN015 M05/M07 Q1008",
      "tafHtml": "TAF EPSY 111130Z 1112/1121 32007KT <span class=\"hl-vis\">CAVOK</span> \n  TEMPO 1112/1121 4000 -<span class=\"hl\">SN</span> BKN014 \n  PROB40 \n  TEMPO 1113/1121 2000 <span class=\"hl\">SHSN</span> BKN005 BKN012CB"
    },
    {
      "icao": "EPWR",
      "iata": "WRO",
      "name": "Copernicus Wrocław Airport",
      "updatedAt": "111400Z",
      "visibility_m": 2500,
      "taf_visibility_m": 2000,
      "worst_visibility_m": 2000,
      "ceiling_ft": 1900,
      "hazards": [
        "SHSN",
        "SN"
      ],
      "severityScore": 40,
      "metarRaw": "METAR EPWR 111400Z 28017KT 2500 SHSN DRSN SCT012CB BKN019 M04/M07 Q1017",
      "tafRaw": "TAF EPWR 111130Z 1112/1212 29015KT 9999 -SN BKN030 \n  TEMPO 1112/1116 31020G30KT 2000 SHSN DRSN BKN007 BKN012CB \n  PROB30 \n  TEMPO 1116/1121 4000 SHSN BKN007 BKN012CB \n  BECMG 1203/1205 VRB02KT",
      "metarHtml": "METAR EPWR 111400Z 28017KT 2500 <span class=\"hl\">SHSN</span> DRSN SCT012CB BKN019 M04/M07 Q1017",
      "tafHtml": "TAF EPWR 111130Z 1112/1212 29015KT 9999 -<span class=\"hl\">SN</span> BKN030 \n  TEMPO 1112/1116 31020G30KT 2000 <span class=\"hl\">SHSN</span> DRSN BKN007 BKN012CB \n  PROB30 \n  TEMPO 1116/1121 4000 <span class=\"hl\">SHSN</span> BKN007 BKN012CB \n  BECMG 1203/1205 VRB02KT"
    },
    {
      "icao": "LFBD",
      "iata": "BOD",
      "name": "Bordeaux–Mérignac Airport",
      "updatedAt": "111400Z",
      "visibility_m": 10000,
      "taf_visibility_m": null,
      "worst_visibility_m": 10000,
      "ceiling_ft": 300,
      "hazards": [],
      "severityScore": 40,
      "metarRaw": "METAR LFBD 111400Z AUTO 14010KT 9999 OVC003 06/06 Q1021",
      "tafRaw": null,
      "metarHtml": "METAR LFBD 111400Z AUTO 14010KT 9999 OVC003 06/06 Q1021",
      "tafHtml": null
    },
    {
      "icao": "LCPH",
      "iata": "PFO",
      "name": "Paphos International Airport",
      "updatedAt": "111400Z",
      "visibility_m": 10000,
      "taf_visibility_m": 2000,
      "worst_visibility_m": 2000,
      "ceiling_ft": null,
      "hazards": [
        "TSRA",
        "SHRA"
      ],
      "severityScore": 39,
      "metarRaw": "METAR LCPH 111400Z 24013KT 9999 FEW030 FEW035CB 18/13 Q1012 NOSIG",
      "tafRaw": "TAF LCPH 111130Z 1112/1212 24019KT 9999 FEW025TCU SCT030 FEW035CB \n  PROB40 \n  TEMPO 1112/1212 4000 SHRA SCT025TCU \n  PROB40 \n  TEMPO 1112/1212 VRB25G35KT 2000 TSRA SCT030CB \n  PROB30 \n  TEMPO 1112/1212 25020G30KT \n  PROB30 \n  TEMPO 1119/1206 25009KT",
      "metarHtml": "METAR LCPH 111400Z 24013KT 9999 FEW030 FEW035CB 18/13 Q1012 NOSIG",
      "tafHtml": "TAF LCPH 111130Z 1112/1212 24019KT 9999 FEW025TCU SCT030 FEW035CB \n  PROB40 \n  TEMPO 1112/1212 4000 <span class=\"hl\">SHRA</span> SCT025TCU \n  PROB40 \n  TEMPO 1112/1212 VRB25G35KT 2000 <span class=\"hl\">TSRA</span> SCT030CB \n  PROB30 \n  TEMPO 1112/1212 25020G30KT \n  PROB30 \n  TEMPO 1119/1206 25009KT"
    },
    {
      "icao": "EGGP",
      "iata": "LPL",
      "name": "Liverpool John Lennon Airport",
      "updatedAt": "111350Z",
      "visibility_m": 10000,
      "taf_visibility_m": 4000,
      "worst_visibility_m": 4000,
      "ceiling_ft": 1400,
      "hazards": [
        "RA",
        "SHRA"
      ],
      "severityScore": 38,
      "metarRaw": "METAR EGGP 111350Z 16016KT 9999 BKN014 BKN020 07/05 Q1001",
      "tafRaw": "TAF EGGP 111059Z 1112/1212 16015G28KT 9999 BKN012 \n  TEMPO 1112/1121 6000 RA -RADZ BKN008 \n  PROB30 \n  TEMPO 1112/1120 4000 RADZ BKN004 \n  PROB30 \n  TEMPO 1119/1121 +RA \n  BECMG 1120/1123 20012KT SCT030 \n  PROB30 \n  TEMPO 1123/1212 21015G27KT 6000 SHRA",
      "metarHtml": "METAR EGGP 111350Z 16016KT 9999 BKN014 BKN020 07/05 Q1001",
      "tafHtml": "TAF EGGP 111059Z 1112/1212 16015G28KT 9999 BKN012 \n  TEMPO 1112/1121 6000 <span class=\"hl\">RA</span> -RADZ BKN008 \n  PROB30 \n  TEMPO 1112/1120 4000 RADZ BKN004 \n  PROB30 \n  TEMPO 1119/1121 +<span class=\"hl\">RA</span> \n  BECMG 1120/1123 20012KT SCT030 \n  PROB30 \n  TEMPO 1123/1212 21015G27KT 6000 <span class=\"hl\">SHRA</span>"
    },
    {
      "icao": "EGKK",
      "iata": "LGW",
      "name": "London Gatwick Airport",
      "updatedAt": "111350Z",
      "visibility_m": 10000,
      "taf_visibility_m": 2500,
      "worst_visibility_m": 2500,
      "ceiling_ft": 1500,
      "hazards": [
        "RA",
        "SHRA"
      ],
      "severityScore": 38,
      "metarRaw": "METAR EGKK 111350Z 18012G26KT 140V210 9999 BKN015 07/05 Q1012",
      "tafRaw": "TAF EGKK 111057Z 1112/1218 16010KT 9999 SCT015 \n  BECMG 1112/1115 BKN010 \n  PROB30 \n  TEMPO 1112/1113 16015G25KT 9000 -RA \n  TEMPO 1113/1201 18016G30KT 6000 -RADZ BKN006 \n  PROB40 \n  TEMPO 1114/1118 3000 RADZ BKN004 \n  PROB40 \n  TEMPO 1118/1201 2500 +RADZ BKN004 \n  BECMG 1123/1202 22012KT SCT015 \n  TEMPO 1201/1218 BKN007 \n  PROB30 \n  TEMPO 1202/1218 6000 SHRA \n  PROB30 \n  TEMPO 1202/1209 22015G25KT",
      "metarHtml": "METAR EGKK 111350Z 18012G26KT 140V210 9999 BKN015 07/05 Q1012",
      "tafHtml": "TAF EGKK 111057Z 1112/1218 16010KT 9999 SCT015 \n  BECMG 1112/1115 BKN010 \n  PROB30 \n  TEMPO 1112/1113 16015G25KT 9000 -<span class=\"hl\">RA</span> \n  TEMPO 1113/1201 18016G30KT 6000 -RADZ BKN006 \n  PROB40 \n  TEMPO 1114/1118 3000 RADZ BKN004 \n  PROB40 \n  TEMPO 1118/1201 2500 +RADZ BKN004 \n  BECMG 1123/1202 22012KT SCT015 \n  TEMPO 1201/1218 BKN007 \n  PROB30 \n  TEMPO 1202/1218 6000 <span class=\"hl\">SHRA</span> \n  PROB30 \n  TEMPO 1202/1209 22015G25KT"
    },
    {
      "icao": "LRBS",
      "iata": "BBU",
      "name": "Bucharest Băneasa Aurel Vlaicu International Airport",
      "updatedAt": "111400Z",
      "visibility_m": 6000,
      "taf_visibility_m": 1500,
      "worst_visibility_m": 1500,
      "ceiling_ft": 2400,
      "hazards": [
        "BR",
        "SN"
      ],
      "severityScore": 38,
      "metarRaw": "METAR LRBS 111400Z VRB02KT 6000 OVC024 M04/M06 Q1013 NOSIG",
      "tafRaw": "TAF LRBS 111100Z 1112/1212 07008KT 5000 BR BKN035 \n  TEMPO 1112/1116 3000 -SN BR BKN015 OVC030 \n  PROB40 \n  TEMPO 1122/1203 1500 BR BKN005 \n  BECMG 1204/1206 24010KT 9999 NSW",
      "metarHtml": "METAR LRBS 111400Z VRB02KT 6000 OVC024 M04/M06 Q1013 NOSIG",
      "tafHtml": "TAF LRBS 111100Z 1112/1212 07008KT 5000 <span class=\"hl\">BR</span> BKN035 \n  TEMPO 1112/1116 3000 -<span class=\"hl\">SN</span> <span class=\"hl\">BR</span> BKN015 OVC030 \n  PROB40 \n  TEMPO 1122/1203 1500 <span class=\"hl\">BR</span> BKN005 \n  BECMG 1204/1206 24010KT 9999 NSW"
    },
    {
      "icao": "LROP",
      "iata": "OTP",
      "name": "Bucharest Henri Coandă International Airport",
      "updatedAt": "111400Z",
      "visibility_m": 7000,
      "taf_visibility_m": 1500,
      "worst_visibility_m": 1500,
      "ceiling_ft": 2500,
      "hazards": [
        "BR",
        "SN"
      ],
      "severityScore": 38,
      "metarRaw": "METAR LROP 111400Z VRB01KT 7000 OVC025 M04/M06 Q1012 NOSIG",
      "tafRaw": "TAF LROP 111100Z 1112/1212 07008KT 5000 BR BKN035 \n  TEMPO 1112/1116 3000 -SN BR BKN015 OVC030 \n  PROB40 \n  TEMPO 1122/1203 1500 BR BKN005 \n  BECMG 1204/1206 24010KT 9999 NSW",
      "metarHtml": "METAR LROP 111400Z VRB01KT 7000 OVC025 M04/M06 Q1012 NOSIG",
      "tafHtml": "TAF LROP 111100Z 1112/1212 07008KT 5000 <span class=\"hl\">BR</span> BKN035 \n  TEMPO 1112/1116 3000 -<span class=\"hl\">SN</span> <span class=\"hl\">BR</span> BKN015 OVC030 \n  PROB40 \n  TEMPO 1122/1203 1500 <span class=\"hl\">BR</span> BKN005 \n  BECMG 1204/1206 24010KT 9999 NSW"
    },
    {
      "icao": "LTAC",
      "iata": "ESB",
      "name": "Esenboğa International Airport",
      "updatedAt": "111350Z",
      "visibility_m": 1200,
      "taf_visibility_m": 1000,
      "worst_visibility_m": 1000,
      "ceiling_ft": 2500,
      "hazards": [
        "BR",
        "SN"
      ],
      "severityScore": 38,
      "metarRaw": "METAR LTAC 111350Z 26002KT 1200 R03C/P1500D R21C/P1500U R03L/P1500U R03R/P1500N -SN BR SCT003 BKN025 BKN080 00/M00 Q1005 BECMG TL1450 2000",
      "tafRaw": "TAF LTAC 111040Z 1112/1212 VRB02KT 6000 SCT035 BKN090 \n  TEMPO 1112/1116 2500 -RASN BR SCT005 BKN025 BKN080 \n  TEMPO 1116/1120 1200 -SN BR SCT005 BKN025 BKN080 \n  TEMPO 1120/1124 1000 -SN BCFG SCT005 BKN025 BKN080 \n  TEMPO 1200/1204 1000 -SN BCFG SCT005 BKN025 BKN080 \n  TEMPO 1204/1208 1000 -SN BCFG SCT005 BKN025 BKN080",
      "metarHtml": "METAR LTAC 111350Z 26002KT 1200 R03C/P1500D R21C/P1500U R03L/P1500U R03R/P1500N -<span class=\"hl\">SN</span> <span class=\"hl\">BR</span> SCT003 BKN025 BKN080 00/M00 Q1005 BECMG TL1450 2000",
      "tafHtml": "TAF LTAC 111040Z 1112/1212 VRB02KT 6000 SCT035 BKN090 \n  TEMPO 1112/1116 2500 -RASN <span class=\"hl\">BR</span> SCT005 BKN025 BKN080 \n  TEMPO 1116/1120 1200 -<span class=\"hl\">SN</span> <span class=\"hl\">BR</span> SCT005 BKN025 BKN080 \n  TEMPO 1120/1124 1000 -<span class=\"hl\">SN</span> BCFG SCT005 BKN025 BKN080 \n  TEMPO 1200/1204 1000 -<span class=\"hl\">SN</span> BCFG SCT005 BKN025 BKN080 \n  TEMPO 1204/1208 1000 -<span class=\"hl\">SN</span> BCFG SCT005 BKN025 BKN080"
    },
    {
      "icao": "LIBP",
      "iata": "PSR",
      "name": "Abruzzo Airport",
      "updatedAt": "111350Z",
      "visibility_m": 7000,
      "taf_visibility_m": 4000,
      "worst_visibility_m": 4000,
      "ceiling_ft": null,
      "hazards": [
        "RA",
        "TSRA"
      ],
      "severityScore": 37,
      "metarRaw": "METAR LIBP 111350Z AUTO 26003KT 220V300 7000 -RA OVC015/// 05/04 Q1020",
      "tafRaw": "TAF LIBP 111100Z 1112/1212 35010KT 9999 SCT040 \n  PROB30 \n  TEMPO 1112/1116 4000 TSRA \n  TEMPO 1116/1119 4000 RA \n  BECMG 1117/1119 22006KT",
      "metarHtml": "METAR LIBP 111350Z AUTO 26003KT 220V300 7000 -<span class=\"hl\">RA</span> OVC015/// 05/04 Q1020",
      "tafHtml": "TAF LIBP 111100Z 1112/1212 35010KT 9999 SCT040 \n  PROB30 \n  TEMPO 1112/1116 4000 <span class=\"hl\">TSRA</span> \n  TEMPO 1116/1119 4000 <span class=\"hl\">RA</span> \n  BECMG 1117/1119 22006KT"
    },
    {
      "icao": "EGGW",
      "iata": "LTN",
      "name": "London Luton Airport",
      "updatedAt": "111350Z",
      "visibility_m": 10000,
      "taf_visibility_m": 2000,
      "worst_visibility_m": 2000,
      "ceiling_ft": 1200,
      "hazards": [
        "BR",
        "RA"
      ],
      "severityScore": 34,
      "metarRaw": "METAR EGGW 111350Z AUTO 17012KT 140V210 9999 OVC012 05/03 Q1010",
      "tafRaw": "TAF EGGW 111103Z 1112/1212 17018G32KT 9999 FEW010 BKN040 \n  BECMG 1112/1115 SCT005 BKN010 \n  TEMPO 1112/1124 5000 RA BKN005 \n  PROB30 \n  TEMPO 1115/1118 3000 RADZ BR OVC002 \n  PROB40 \n  TEMPO 1118/1124 2000 +RADZ BR OVC002 \n  BECMG 1200/1203 21012KT FEW010 SCT025 \n  PROB30 \n  TEMPO 1203/1212 21015G25KT BKN008",
      "metarHtml": "METAR EGGW 111350Z AUTO 17012KT 140V210 9999 OVC012 05/03 Q1010",
      "tafHtml": "TAF EGGW 111103Z 1112/1212 17018G32KT 9999 FEW010 BKN040 \n  BECMG 1112/1115 SCT005 BKN010 \n  TEMPO 1112/1124 5000 <span class=\"hl\">RA</span> BKN005 \n  PROB30 \n  TEMPO 1115/1118 3000 RADZ <span class=\"hl\">BR</span> OVC002 \n  PROB40 \n  TEMPO 1118/1124 2000 +RADZ <span class=\"hl\">BR</span> OVC002 \n  BECMG 1200/1203 21012KT FEW010 SCT025 \n  PROB30 \n  TEMPO 1203/1212 21015G25KT BKN008"
    },
    {
      "icao": "EGPD",
      "iata": "ABZ",
      "name": "Aberdeen International Airport",
      "updatedAt": "111350Z",
      "visibility_m": 8000,
      "taf_visibility_m": null,
      "worst_visibility_m": 8000,
      "ceiling_ft": 600,
      "hazards": [],
      "severityScore": 30,
      "metarRaw": "METAR EGPD 111350Z AUTO 17021G31KT 8000 OVC007 04/02 Q0996 TEMPO BKN006",
      "tafRaw": null,
      "metarHtml": "METAR EGPD 111350Z AUTO 17021G31KT 8000 OVC007 04/02 Q0996 TEMPO BKN006",
      "tafHtml": null
    },
    {
      "icao": "EKBI",
      "iata": "BLL",
      "name": "Billund Airport",
      "updatedAt": "111350Z",
      "visibility_m": 10000,
      "taf_visibility_m": 1200,
      "worst_visibility_m": 1200,
      "ceiling_ft": null,
      "hazards": [
        "SN"
      ],
      "severityScore": 28,
      "metarRaw": "METAR EKBI 111350Z AUTO 11002KT 9999 NCD M07/M09 Q1023",
      "tafRaw": "TAF EKBI 111127Z 1112/1212 VRB02KT CAVOK \n  BECMG 1121/1124 14012KT \n  TEMPO 1202/1209 13015G25KT \n  BECMG 1207/1209 1200 SN BKN006 \n  TEMPO 1209/1212 14015G25KT 6000 -SN BKN010",
      "metarHtml": "METAR EKBI 111350Z AUTO 11002KT 9999 NCD M07/M09 Q1023",
      "tafHtml": "TAF EKBI 111127Z 1112/1212 VRB02KT <span class=\"hl-vis\">CAVOK</span> \n  BECMG 1121/1124 14012KT \n  TEMPO 1202/1209 13015G25KT \n  BECMG 1207/1209 1200 <span class=\"hl\">SN</span> BKN006 \n  TEMPO 1209/1212 14015G25KT 6000 -<span class=\"hl\">SN</span> BKN010"
    },
    {
      "icao": "EYVI",
      "iata": "VNO",
      "name": "Vilnius International Airport",
      "updatedAt": "111350Z",
      "visibility_m": 10000,
      "taf_visibility_m": 1500,
      "worst_visibility_m": 1500,
      "ceiling_ft": 3000,
      "hazards": [
        "SN"
      ],
      "severityScore": 28,
      "metarRaw": "METAR EYVI 111350Z 32004KT 9999 -SN FEW007 SCT008 BKN030 M13/M14 Q1005 NOSIG",
      "tafRaw": "TAF EYVI 111100Z 1112/1212 VRB04KT 5000 SN BKN025 \n  TEMPO 1112/1115 30010KT 3000 SCT005 BKN010 \n  TEMPO 1115/1124 3000 SCT010 \n  TEMPO 1200/1208 1500 BKN005 \n  TEMPO 1208/1212 3000 BKN010",
      "metarHtml": "METAR EYVI 111350Z 32004KT 9999 -<span class=\"hl\">SN</span> FEW007 SCT008 BKN030 M13/M14 Q1005 NOSIG",
      "tafHtml": "TAF EYVI 111100Z 1112/1212 VRB04KT 5000 <span class=\"hl\">SN</span> BKN025 \n  TEMPO 1112/1115 30010KT 3000 SCT005 BKN010 \n  TEMPO 1115/1124 3000 SCT010 \n  TEMPO 1200/1208 1500 BKN005 \n  TEMPO 1208/1212 3000 BKN010"
    },
    {
      "icao": "LKPR",
      "iata": "PRG",
      "name": "Václav Havel Airport Prague",
      "updatedAt": "111400Z",
      "visibility_m": 10000,
      "taf_visibility_m": 4000,
      "worst_visibility_m": 4000,
      "ceiling_ft": null,
      "hazards": [
        "BR",
        "SN"
      ],
      "severityScore": 28,
      "metarRaw": "METAR LKPR 111400Z 26013KT CAVOK M05/M13 Q1021 NOSIG",
      "tafRaw": "TAF LKPR 111100Z 1112/1218 28012KT CAVOK \n  BECMG 1209/1211 20004KT \n  BECMG 1213/1215 9999 BKN012 \n  TEMPO 1215/1218 4000 -SN BR SCT003 BKN006",
      "metarHtml": "METAR LKPR 111400Z 26013KT <span class=\"hl-vis\">CAVOK</span> M05/M13 Q1021 NOSIG",
      "tafHtml": "TAF LKPR 111100Z 1112/1218 28012KT <span class=\"hl-vis\">CAVOK</span> \n  BECMG 1209/1211 20004KT \n  BECMG 1213/1215 9999 BKN012 \n  TEMPO 1215/1218 4000 -<span class=\"hl\">SN</span> <span class=\"hl\">BR</span> SCT003 BKN006"
    },
    {
      "icao": "LOWW",
      "iata": "VIE",
      "name": "Vienna International Airport",
      "updatedAt": "111350Z",
      "visibility_m": 10000,
      "taf_visibility_m": 7000,
      "worst_visibility_m": 7000,
      "ceiling_ft": null,
      "hazards": [
        "SN",
        "SHSN"
      ],
      "severityScore": 28,
      "metarRaw": "METAR LOWW 111350Z 30022KT CAVOK M02/M10 Q1019 BECMG FM1530 30012G22KT",
      "tafRaw": "TAF LOWW 111115Z 1112/1218 30020G30KT 9999 FEW030 TXM02/1112Z TNM09/1207Z \n  PROB30 \n  TEMPO 1112/1116 31025G40KT -SHSN DRSN \n  BECMG 1118/1120 30012KT \n  FM112200 32008KT CAVOK \n  BECMG 1206/1208 13005KT \n  FM121600 17006KT 7000 -SN FEW012 OVC030",
      "metarHtml": "METAR LOWW 111350Z 30022KT <span class=\"hl-vis\">CAVOK</span> M02/M10 Q1019 BECMG FM1530 30012G22KT",
      "tafHtml": "TAF LOWW 111115Z 1112/1218 30020G30KT 9999 FEW030 TXM02/1112Z TNM09/1207Z \n  PROB30 \n  TEMPO 1112/1116 31025G40KT -<span class=\"hl\">SHSN</span> DRSN \n  BECMG 1118/1120 30012KT \n  FM112200 32008KT <span class=\"hl-vis\">CAVOK</span> \n  BECMG 1206/1208 13005KT \n  FM121600 17006KT 7000 -<span class=\"hl\">SN</span> FEW012 OVC030"
    },
    {
      "icao": "EGPF",
      "iata": "GLA",
      "name": "Glasgow Airport",
      "updatedAt": "111350Z",
      "visibility_m": 10000,
      "taf_visibility_m": 3000,
      "worst_visibility_m": 3000,
      "ceiling_ft": null,
      "hazards": [
        "RA",
        "SHRA"
      ],
      "severityScore": 26,
      "metarRaw": "METAR EGPF 111350Z AUTO 16008KT 100V200 9999 BKN016/// OVC022/// //////CB 09/07 Q0993",
      "tafRaw": "TAF EGPF 111103Z 1112/1212 14009KT 9999 FEW015 SCT030 \n  TEMPO 1112/1122 6000 RA -RADZ BKN011 \n  TEMPO 1112/1118 16020G30KT \n  PROB30 \n  TEMPO 1112/1122 3000 +RA RADZ BKN007 \n  BECMG 1118/1121 16020G38KT \n  BECMG 1121/1124 21020G38KT \n  PROB30 \n  TEMPO 1122/1202 4000 +SHRA BKN014 \n  BECMG 1206/1209 21015KT \n  TEMPO 1209/1212 22017G32KT",
      "metarHtml": "METAR EGPF 111350Z AUTO 16008KT 100V200 9999 BKN016/// OVC022/// //////CB 09/07 Q0993",
      "tafHtml": "TAF EGPF 111103Z 1112/1212 14009KT 9999 FEW015 SCT030 \n  TEMPO 1112/1122 6000 <span class=\"hl\">RA</span> -RADZ BKN011 \n  TEMPO 1112/1118 16020G30KT \n  PROB30 \n  TEMPO 1112/1122 3000 +<span class=\"hl\">RA</span> RADZ BKN007 \n  BECMG 1118/1121 16020G38KT \n  BECMG 1121/1124 21020G38KT \n  PROB30 \n  TEMPO 1122/1202 4000 +<span class=\"hl\">SHRA</span> BKN014 \n  BECMG 1206/1209 21015KT \n  TEMPO 1209/1212 22017G32KT"
    },
    {
      "icao": "LFOB",
      "iata": "BVA",
      "name": "Beauvais Tillé airport",
      "updatedAt": "111400Z",
      "visibility_m": 10000,
      "taf_visibility_m": 2500,
      "worst_visibility_m": 2500,
      "ceiling_ft": null,
      "hazards": [
        "RA",
        "SHRA"
      ],
      "severityScore": 26,
      "metarRaw": "METAR LFOB 111400Z AUTO 15011KT CAVOK 04/00 Q1019 NOSIG",
      "tafRaw": "TAF LFOB 111100Z 1112/1212 18012KT 9999 BKN020 \n  TEMPO 1118/1204 4000 -RA OVC010 \n  PROB40 \n  TEMPO 1120/1202 2500 SHRA BKN008 BKN012TCU \n  TEMPO 1208/1212 4000 -RA \n  PROB40 \n  TEMPO 1210/1212 2500 SHRA BKN012TCU",
      "metarHtml": "METAR LFOB 111400Z AUTO 15011KT <span class=\"hl-vis\">CAVOK</span> 04/00 Q1019 NOSIG",
      "tafHtml": "TAF LFOB 111100Z 1112/1212 18012KT 9999 BKN020 \n  TEMPO 1118/1204 4000 -<span class=\"hl\">RA</span> OVC010 \n  PROB40 \n  TEMPO 1120/1202 2500 <span class=\"hl\">SHRA</span> BKN008 BKN012TCU \n  TEMPO 1208/1212 4000 -<span class=\"hl\">RA</span> \n  PROB40 \n  TEMPO 1210/1212 2500 <span class=\"hl\">SHRA</span> BKN012TCU"
    },
    {
      "icao": "LKMT",
      "iata": "OSR",
      "name": "Ostrava Leos Janáček Airport",
      "updatedAt": "111400Z",
      "visibility_m": 2000,
      "taf_visibility_m": null,
      "worst_visibility_m": 2000,
      "ceiling_ft": 2700,
      "hazards": [
        "SN"
      ],
      "severityScore": 23,
      "metarRaw": "METAR LKMT 111400Z 25009KT 2000 SN FEW008 OVC027 M04/M07 Q1016 NOSIG",
      "tafRaw": null,
      "metarHtml": "METAR LKMT 111400Z 25009KT 2000 <span class=\"hl\">SN</span> FEW008 OVC027 M04/M07 Q1016 NOSIG",
      "tafHtml": null
    },
    {
      "icao": "LHBP",
      "iata": "BUD",
      "name": "Budapest Liszt Ferenc International Airport",
      "updatedAt": "111400Z",
      "visibility_m": 10000,
      "taf_visibility_m": 4500,
      "worst_visibility_m": 4500,
      "ceiling_ft": null,
      "hazards": [
        "BLSN"
      ],
      "severityScore": 22,
      "metarRaw": "METAR LHBP 111400Z 31020KT 9999 DRSN SCT027 M03/M07 Q1016 NOSIG",
      "tafRaw": "TAF LHBP 111115Z 1112/1212 30020G30KT 9999 DRSN FEW020 SCT080 \n  PROB30 \n  TEMPO 1112/1117 31025G35KT 4500 BLSN \n  BECMG 1117/1120 30014KT CAVOK \n  BECMG 1202/1205 27008KT",
      "metarHtml": "METAR LHBP 111400Z 31020KT 9999 DRSN SCT027 M03/M07 Q1016 NOSIG",
      "tafHtml": "TAF LHBP 111115Z 1112/1212 30020G30KT 9999 DRSN FEW020 SCT080 \n  PROB30 \n  TEMPO 1112/1117 31025G35KT 4500 <span class=\"hl\">BLSN</span> \n  BECMG 1117/1120 30014KT <span class=\"hl-vis\">CAVOK</span> \n  BECMG 1202/1205 27008KT"
    },
    {
      "icao": "GMMN",
      "iata": "CMN",
      "name": "Mohammed V International Airport",
      "updatedAt": "111400Z",
      "visibility_m": 10000,
      "taf_visibility_m": 1200,
      "worst_visibility_m": 1200,
      "ceiling_ft": null,
      "hazards": [
        "BR"
      ],
      "severityScore": 20,
      "metarRaw": "METAR GMMN 111400Z 05007KT 010V080 CAVOK 16/10 Q1025 NOSIG",
      "tafRaw": "TAF GMMN 111100Z 1112/1218 05012KT 9999 FEW020 \n  BECMG 1118/1120 17005KT \n  TEMPO 1200/1208 1200 BR BKN008 \n  BECMG 1212/1214 22012KT",
      "metarHtml": "METAR GMMN 111400Z 05007KT 010V080 <span class=\"hl-vis\">CAVOK</span> 16/10 Q1025 NOSIG",
      "tafHtml": "TAF GMMN 111100Z 1112/1218 05012KT 9999 FEW020 \n  BECMG 1118/1120 17005KT \n  TEMPO 1200/1208 1200 <span class=\"hl\">BR</span> BKN008 \n  BECMG 1212/1214 22012KT"
    },
    {
      "icao": "LRTR",
      "iata": "TSR",
      "name": "Timişoara Traian Vuia Airport",
      "updatedAt": "111400Z",
      "visibility_m": 10000,
      "taf_visibility_m": 3000,
      "worst_visibility_m": 3000,
      "ceiling_ft": 2200,
      "hazards": [
        "BR",
        "SHSN"
      ],
      "severityScore": 20,
      "metarRaw": "METAR LRTR 111400Z 24003KT 200V270 9999 OVC022 M05/M08 Q1017",
      "tafRaw": "TAF LRTR 111100Z 1112/1212 28010KT CAVOK \n  PROB40 \n  TEMPO 1115/1119 5000 -SHSN BKN015 SCT025 OVC030 \n  BECMG 1120/1122 5000 BR BKN010 \n  TEMPO 1200/1206 3000 BR BKN005",
      "metarHtml": "METAR LRTR 111400Z 24003KT 200V270 9999 OVC022 M05/M08 Q1017",
      "tafHtml": "TAF LRTR 111100Z 1112/1212 28010KT <span class=\"hl-vis\">CAVOK</span> \n  PROB40 \n  TEMPO 1115/1119 5000 -<span class=\"hl\">SHSN</span> BKN015 SCT025 OVC030 \n  BECMG 1120/1122 5000 <span class=\"hl\">BR</span> BKN010 \n  TEMPO 1200/1206 3000 <span class=\"hl\">BR</span> BKN005"
    },
    {
      "icao": "LBPD",
      "iata": "PDV",
      "name": "Plovdiv International Airport",
      "updatedAt": "111400Z",
      "visibility_m": 4000,
      "taf_visibility_m": 3000,
      "worst_visibility_m": 3000,
      "ceiling_ft": null,
      "hazards": [
        "SN"
      ],
      "severityScore": 18,
      "metarRaw": "METAR LBPD 111400Z AUTO 29020KT 5000 -SN FEW032/// SCT040/// OVC048/// 00/M01 Q1010 TEMPO 4000 SN",
      "tafRaw": "TAF LBPD 111100Z 1112/1212 28020KT 9999 SCT020 BKN050 \n  TEMPO 1112/1115 29020G30KT 5000 RASN BKN015 OVC030 \n  PROB40 \n  TEMPO 1115/1124 28020G30KT 3000 SN BKN010 OVC020",
      "metarHtml": "METAR LBPD 111400Z AUTO 29020KT 5000 -<span class=\"hl\">SN</span> FEW032/// SCT040/// OVC048/// 00/M01 Q1010 TEMPO 4000 <span class=\"hl\">SN</span>",
      "tafHtml": "TAF LBPD 111100Z 1112/1212 28020KT 9999 SCT020 BKN050 \n  TEMPO 1112/1115 29020G30KT 5000 RASN BKN015 OVC030 \n  PROB40 \n  TEMPO 1115/1124 28020G30KT 3000 <span class=\"hl\">SN</span> BKN010 OVC020"
    },
    {
      "icao": "LBSF",
      "iata": "SOF",
      "name": "Sofia Airport",
      "updatedAt": "111400Z",
      "visibility_m": 10000,
      "taf_visibility_m": 3000,
      "worst_visibility_m": 3000,
      "ceiling_ft": 2500,
      "hazards": [
        "SN"
      ],
      "severityScore": 18,
      "metarRaw": "METAR LBSF 111400Z 29021KT 9999 BKN025 M05/M09 Q1012 NOSIG",
      "tafRaw": "TAF LBSF 111100Z 1112/1212 28018KT 7000 BKN012 OVC040 \n  TEMPO 1112/1118 29020G30KT 3000 SN BKN008 OVC015 \n  PROB30 \n  TEMPO 1118/1123 5000 -SN BKN010 OVC020",
      "metarHtml": "METAR LBSF 111400Z 29021KT 9999 BKN025 M05/M09 Q1012 NOSIG",
      "tafHtml": "TAF LBSF 111100Z 1112/1212 28018KT 7000 BKN012 OVC040 \n  TEMPO 1112/1118 29020G30KT 3000 <span class=\"hl\">SN</span> BKN008 OVC015 \n  PROB30 \n  TEMPO 1118/1123 5000 -<span class=\"hl\">SN</span> BKN010 OVC020"
    },
    {
      "icao": "LBWN",
      "iata": "VAR",
      "name": "Varna Airport",
      "updatedAt": "111400Z",
      "visibility_m": 10000,
      "taf_visibility_m": 3000,
      "worst_visibility_m": 3000,
      "ceiling_ft": 3500,
      "hazards": [
        "SN"
      ],
      "severityScore": 18,
      "metarRaw": "METAR LBWN 111400Z 31009KT 280V350 9999 FEW015 BKN035 M03/M06 Q1012 NOSIG",
      "tafRaw": "TAF LBWN 111100Z 1112/1212 33010KT 9999 SCT010 BKN015 OVC030 \n  BECMG 1116/1118 BKN010 OVC025 \n  TEMPO 1118/1202 3000 SN BKN005 OVC015",
      "metarHtml": "METAR LBWN 111400Z 31009KT 280V350 9999 FEW015 BKN035 M03/M06 Q1012 NOSIG",
      "tafHtml": "TAF LBWN 111100Z 1112/1212 33010KT 9999 SCT010 BKN015 OVC030 \n  BECMG 1116/1118 BKN010 OVC025 \n  TEMPO 1118/1202 3000 <span class=\"hl\">SN</span> BKN005 OVC015"
    },
    {
      "icao": "LQSA",
      "iata": "SJJ",
      "name": "Sarajevo International Airport",
      "updatedAt": "111400Z",
      "visibility_m": 10000,
      "taf_visibility_m": 10000,
      "worst_visibility_m": 10000,
      "ceiling_ft": 4500,
      "hazards": [
        "SN"
      ],
      "severityScore": 18,
      "metarRaw": "METAR LQSA 111400Z 29003KT 240V330 9999 -SN FEW030 BKN045 M04/M09 Q1017 NOSIG",
      "tafRaw": "TAF LQSA 111100Z 1112/1212 29006KT 9999 BKN030 TXM04/1212Z TNM14/1206Z \n  PROB30 \n  TEMPO 1116/1120 35011KT",
      "metarHtml": "METAR LQSA 111400Z 29003KT 240V330 9999 -<span class=\"hl\">SN</span> FEW030 BKN045 M04/M09 Q1017 NOSIG",
      "tafHtml": "TAF LQSA 111100Z 1112/1212 29006KT 9999 BKN030 TXM04/1212Z TNM14/1206Z \n  PROB30 \n  TEMPO 1116/1120 35011KT"
    },
    {
      "icao": "LRSB",
      "iata": "SBZ",
      "name": "Sibiu International Airport",
      "updatedAt": "111400Z",
      "visibility_m": 10000,
      "taf_visibility_m": 5000,
      "worst_visibility_m": 5000,
      "ceiling_ft": 4300,
      "hazards": [
        "SN"
      ],
      "severityScore": 18,
      "metarRaw": "METAR LRSB 111400Z 20002KT 9999 SCT032 BKN043 M05/M09 Q1012",
      "tafRaw": "TAF LRSB 111100Z 1112/1212 35008KT 9999 BKN025 OVC040 \n  PROB40 \n  TEMPO 1112/1116 5000 SN OVC020",
      "metarHtml": "METAR LRSB 111400Z 20002KT 9999 SCT032 BKN043 M05/M09 Q1012",
      "tafHtml": "TAF LRSB 111100Z 1112/1212 35008KT 9999 BKN025 OVC040 \n  PROB40 \n  TEMPO 1112/1116 5000 <span class=\"hl\">SN</span> OVC020"
    },
    {
      "icao": "LRSM",
      "iata": "SUJ",
      "name": "Satu Mare International Airport",
      "updatedAt": "111400Z",
      "visibility_m": 10000,
      "taf_visibility_m": 3000,
      "worst_visibility_m": 3000,
      "ceiling_ft": null,
      "hazards": [
        "SN"
      ],
      "severityScore": 18,
      "metarRaw": "METAR LRSM 111400Z 26010KT 9999 FEW043 M06/M09 Q1014",
      "tafRaw": "TAF LRSM 111100Z 1112/1121 VRB04KT 9999 BKN040 \n  BECMG 1112/1114 24010KT 5000 -SN BKN010 OVC025 \n  TEMPO 1117/1121 3000 SN BKN005 OVC020",
      "metarHtml": "METAR LRSM 111400Z 26010KT 9999 FEW043 M06/M09 Q1014",
      "tafHtml": "TAF LRSM 111100Z 1112/1121 VRB04KT 9999 BKN040 \n  BECMG 1112/1114 24010KT 5000 -<span class=\"hl\">SN</span> BKN010 OVC025 \n  TEMPO 1117/1121 3000 <span class=\"hl\">SN</span> BKN005 OVC020"
    },
    {
      "icao": "LYNI",
      "iata": "INI",
      "name": "Niš Constantine the Great Airport",
      "updatedAt": "111400Z",
      "visibility_m": 10000,
      "taf_visibility_m": 4000,
      "worst_visibility_m": 4000,
      "ceiling_ft": 2500,
      "hazards": [
        "SN"
      ],
      "severityScore": 18,
      "metarRaw": "METAR LYNI 111400Z 33008KT 300V010 9999 SCT015 BKN025 M03/M06 Q1017 NOSIG",
      "tafRaw": "TAF LYNI 111100Z 1112/1212 32010KT 9999 SCT015 BKN025 TXM02/1212Z TNM07/1206Z \n  TEMPO 1112/1206 4000 -SN BKN010 BKN023",
      "metarHtml": "METAR LYNI 111400Z 33008KT 300V010 9999 SCT015 BKN025 M03/M06 Q1017 NOSIG",
      "tafHtml": "TAF LYNI 111100Z 1112/1212 32010KT 9999 SCT015 BKN025 TXM02/1212Z TNM07/1206Z \n  TEMPO 1112/1206 4000 -<span class=\"hl\">SN</span> BKN010 BKN023"
    },
    {
      "icao": "LZTT",
      "iata": "TAT",
      "name": "Poprad-Tatry Airport",
      "updatedAt": "111400Z",
      "visibility_m": 10000,
      "taf_visibility_m": 3000,
      "worst_visibility_m": 3000,
      "ceiling_ft": 4600,
      "hazards": [
        "SN"
      ],
      "severityScore": 18,
      "metarRaw": "METAR LZTT 111400Z 27018KT 9999 DRSN FEW012 BKN046 M06/M11 Q1008 NOSIG",
      "tafRaw": "TAF LZTT 111115Z 1112/1212 25012KT 9999 -SN DRSN FEW013 OVC040 \n  PROB40 \n  TEMPO 1112/1118 3000 SN BKN012 \n  BECMG 1205/1207 CAVOK",
      "metarHtml": "METAR LZTT 111400Z 27018KT 9999 DRSN FEW012 BKN046 M06/M11 Q1008 NOSIG",
      "tafHtml": "TAF LZTT 111115Z 1112/1212 25012KT 9999 -<span class=\"hl\">SN</span> DRSN FEW013 OVC040 \n  PROB40 \n  TEMPO 1112/1118 3000 <span class=\"hl\">SN</span> BKN012 \n  BECMG 1205/1207 <span class=\"hl-vis\">CAVOK</span>"
    },
    {
      "icao": "EGBB",
      "iata": "BHX",
      "name": "Birmingham Airport",
      "updatedAt": "111350Z",
      "visibility_m": 10000,
      "taf_visibility_m": null,
      "worst_visibility_m": 10000,
      "ceiling_ft": 1000,
      "hazards": [],
      "severityScore": 17,
      "metarRaw": "METAR EGBB 111350Z 17014KT 9999 VCSH OVC010 06/05 Q1006",
      "tafRaw": null,
      "metarHtml": "METAR EGBB 111350Z 17014KT 9999 VCSH OVC010 06/05 Q1006",
      "tafHtml": null
    },
    {
      "icao": "EHBK",
      "iata": "MST",
      "name": "Maastricht Aachen Airport",
      "updatedAt": "111355Z",
      "visibility_m": 10000,
      "taf_visibility_m": null,
      "worst_visibility_m": 10000,
      "ceiling_ft": 1200,
      "hazards": [],
      "severityScore": 17,
      "metarRaw": "METAR EHBK 111355Z AUTO 19009KT 160V220 9999 OVC012 M00/M02 Q1022 TEMPO BKN016",
      "tafRaw": null,
      "metarHtml": "METAR EHBK 111355Z AUTO 19009KT 160V220 9999 OVC012 M00/M02 Q1022 TEMPO BKN016",
      "tafHtml": null
    },
    {
      "icao": "LFSB",
      "iata": "BSL",
      "name": "EuroAirport Basel–Mulhouse–Freiburg",
      "updatedAt": "111400Z",
      "visibility_m": 10000,
      "taf_visibility_m": null,
      "worst_visibility_m": 10000,
      "ceiling_ft": 1600,
      "hazards": [],
      "severityScore": 17,
      "metarRaw": "METAR LFSB 111400Z AUTO VRB03KT 9999 SCT010 BKN016 OVC022 01/M01 Q1024 NOSIG",
      "tafRaw": null,
      "metarHtml": "METAR LFSB 111400Z AUTO VRB03KT 9999 SCT010 BKN016 OVC022 01/M01 Q1024 NOSIG",
      "tafHtml": null
    },
    {
      "icao": "LPPT",
      "iata": "LIS",
      "name": "Lisbon Humberto Delgado Airport",
      "updatedAt": "111400Z",
      "visibility_m": 10000,
      "taf_visibility_m": null,
      "worst_visibility_m": 10000,
      "ceiling_ft": 1400,
      "hazards": [],
      "severityScore": 17,
      "metarRaw": "METAR LPPT 111400Z 21012KT 9999 FEW003 SCT010 BKN014 15/14 Q1025",
      "tafRaw": null,
      "metarHtml": "METAR LPPT 111400Z 21012KT 9999 FEW003 SCT010 BKN014 15/14 Q1025",
      "tafHtml": null
    },
    {
      "icao": "EFTU",
      "iata": "TKU",
      "name": "Turku Airport",
      "updatedAt": "111350Z",
      "visibility_m": 10000,
      "taf_visibility_m": null,
      "worst_visibility_m": 10000,
      "ceiling_ft": 2300,
      "hazards": [
        "SHSN"
      ],
      "severityScore": 15,
      "metarRaw": "METAR EFTU 111350Z AUTO 03006KT 350V070 9999 -SHSN BKN023 M07/M09 Q1015",
      "tafRaw": null,
      "metarHtml": "METAR EFTU 111350Z AUTO 03006KT 350V070 9999 -<span class=\"hl\">SHSN</span> BKN023 M07/M09 Q1015",
      "tafHtml": null
    },
    {
      "icao": "LICC",
      "iata": "CTA",
      "name": "Catania-Fontanarossa Airport",
      "updatedAt": "111350Z",
      "visibility_m": 10000,
      "taf_visibility_m": 10000,
      "worst_visibility_m": 10000,
      "ceiling_ft": null,
      "hazards": [
        "SHRA"
      ],
      "severityScore": 14,
      "metarRaw": "METAR LICC 111350Z VRB02KT 9999 FEW040 SCT090 14/09 Q1014",
      "tafRaw": "TAF LICC 111100Z 1112/1212 26016KT 9999 SCT040 \n  TEMPO 1112/1114 SHRA \n  BECMG 1114/1116 26007KT",
      "metarHtml": "METAR LICC 111350Z VRB02KT 9999 FEW040 SCT090 14/09 Q1014",
      "tafHtml": "TAF LICC 111100Z 1112/1212 26016KT 9999 SCT040 \n  TEMPO 1112/1114 <span class=\"hl\">SHRA</span> \n  BECMG 1114/1116 26007KT"
    },
    {
      "icao": "LICJ",
      "iata": "PMO",
      "name": "Falcone–Borsellino Airport",
      "updatedAt": "111350Z",
      "visibility_m": 10000,
      "taf_visibility_m": 10000,
      "worst_visibility_m": 10000,
      "ceiling_ft": null,
      "hazards": [
        "SHRA"
      ],
      "severityScore": 14,
      "metarRaw": "METAR LICJ 111350Z 05005KT 360V090 9999 SCT050 12/06 Q1016",
      "tafRaw": "TAF LICJ 111100Z 1112/1212 35011KT 9999 SCT030 \n  PROB40 \n  TEMPO 1112/1121 35015G25KT SHRA \n  BECMG 1203/1205 05013KT",
      "metarHtml": "METAR LICJ 111350Z 05005KT 360V090 9999 SCT050 12/06 Q1016",
      "tafHtml": "TAF LICJ 111100Z 1112/1212 35011KT 9999 SCT030 \n  PROB40 \n  TEMPO 1112/1121 35015G25KT <span class=\"hl\">SHRA</span> \n  BECMG 1203/1205 05013KT"
    },
    {
      "icao": "LIPY",
      "iata": "AOI",
      "name": "Marche Airport",
      "updatedAt": "111350Z",
      "visibility_m": 10000,
      "taf_visibility_m": 4000,
      "worst_visibility_m": 4000,
      "ceiling_ft": null,
      "hazards": [
        "SHRA"
      ],
      "severityScore": 14,
      "metarRaw": "METAR LIPY 111350Z AUTO 08006KT 040V110 9999 OVC040/// 08/00 Q1020",
      "tafRaw": "TAF LIPY 111100Z 1112/1212 VRB05KT 9999 SCT030 \n  BECMG 1112/1114 04010KT \n  TEMPO 1112/1116 4000 SHRA \n  BECMG 1119/1121 VRB05KT",
      "metarHtml": "METAR LIPY 111350Z AUTO 08006KT 040V110 9999 OVC040/// 08/00 Q1020",
      "tafHtml": "TAF LIPY 111100Z 1112/1212 VRB05KT 9999 SCT030 \n  BECMG 1112/1114 04010KT \n  TEMPO 1112/1116 4000 <span class=\"hl\">SHRA</span> \n  BECMG 1119/1121 VRB05KT"
    },
    {
      "icao": "LMML",
      "iata": "MLA",
      "name": "Malta International Airport",
      "updatedAt": "111345Z",
      "visibility_m": 10000,
      "taf_visibility_m": 8000,
      "worst_visibility_m": 8000,
      "ceiling_ft": null,
      "hazards": [
        "SHRA"
      ],
      "severityScore": 14,
      "metarRaw": "METAR LMML 111345Z 31018KT 9999 -SHRA SCT025 13/06 Q1015 NOSIG",
      "tafRaw": "TAF LMML 111100Z 1112/1212 30021G32KT 9999 FEW020 \n  PROB30 \n  TEMPO 1112/1118 8000 SHRA BKN020TCU \n  BECMG 1118/1121 34020KT \n  BECMG 1209/1212 34010KT",
      "metarHtml": "METAR LMML 111345Z 31018KT 9999 -<span class=\"hl\">SHRA</span> SCT025 13/06 Q1015 NOSIG",
      "tafHtml": "TAF LMML 111100Z 1112/1212 30021G32KT 9999 FEW020 \n  PROB30 \n  TEMPO 1112/1118 8000 <span class=\"hl\">SHRA</span> BKN020TCU \n  BECMG 1118/1121 34020KT \n  BECMG 1209/1212 34010KT"
    },
    {
      "icao": "LEXJ",
      "iata": "SDR",
      "name": "Seve Ballesteros-Santander Airport",
      "updatedAt": "111400Z",
      "visibility_m": 10000,
      "taf_visibility_m": 10000,
      "worst_visibility_m": 10000,
      "ceiling_ft": null,
      "hazards": [
        "RA"
      ],
      "severityScore": 12,
      "metarRaw": "METAR LEXJ 111400Z 20004KT 140V260 9999 SCT084 16/06 Q1019",
      "tafRaw": "TAF LEXJ 110800Z 1109/1209 22009KT 9999 FEW040 SCT070 TX16/1113Z TN12/1208Z \n  PROB30 \n  TEMPO 1109/1110 RA \n  TEMPO 1109/1117 22015G25KT \n  TEMPO 1117/1209 22018G30KT",
      "metarHtml": "METAR LEXJ 111400Z 20004KT 140V260 9999 SCT084 16/06 Q1019",
      "tafHtml": "TAF LEXJ 110800Z 1109/1209 22009KT 9999 FEW040 SCT070 TX16/1113Z TN12/1208Z \n  PROB30 \n  TEMPO 1109/1110 <span class=\"hl\">RA</span> \n  TEMPO 1109/1117 22015G25KT \n  TEMPO 1117/1209 22018G30KT"
    },
    {
      "icao": "LFPO",
      "iata": "ORY",
      "name": "Paris-Orly Airport",
      "updatedAt": "111400Z",
      "visibility_m": 10000,
      "taf_visibility_m": 4000,
      "worst_visibility_m": 4000,
      "ceiling_ft": null,
      "hazards": [
        "RA"
      ],
      "severityScore": 12,
      "metarRaw": "METAR LFPO 111400Z AUTO 18010KT CAVOK 04/M01 Q1021",
      "tafRaw": "TAF LFPO 110500Z 1106/1212 19005KT CAVOK \n  BECMG 1121/1122 18012G22KT 4500 -RA \n  BECMG 1122/1124 9999 NSW BKN008 \n  TEMPO 1200/1208 4000 -RA \n  BECMG 1208/1209 SCT030 BKN050",
      "metarHtml": "METAR LFPO 111400Z AUTO 18010KT <span class=\"hl-vis\">CAVOK</span> 04/M01 Q1021",
      "tafHtml": "TAF LFPO 110500Z 1106/1212 19005KT <span class=\"hl-vis\">CAVOK</span> \n  BECMG 1121/1122 18012G22KT 4500 -<span class=\"hl\">RA</span> \n  BECMG 1122/1124 9999 NSW BKN008 \n  TEMPO 1200/1208 4000 -<span class=\"hl\">RA</span> \n  BECMG 1208/1209 SCT030 BKN050"
    },
    {
      "icao": "GCFV",
      "iata": "FUE",
      "name": "Fuerteventura Airport",
      "updatedAt": "111400Z",
      "visibility_m": 10000,
      "taf_visibility_m": 3000,
      "worst_visibility_m": 3000,
      "ceiling_ft": null,
      "hazards": [
        "BR"
      ],
      "severityScore": 10,
      "metarRaw": "METAR GCFV 111400Z 05008KT 9999 FEW024 20/12 Q1024",
      "tafRaw": "TAF GCFV 110800Z 1109/1209 05010KT 9999 FEW020 TX20/1114Z TN13/1206Z \n  PROB30 \n  TEMPO 1110/1117 11007KT \n  PROB30 \n  TEMPO 1206/1209 3000 BR BKN005",
      "metarHtml": "METAR GCFV 111400Z 05008KT 9999 FEW024 20/12 Q1024",
      "tafHtml": "TAF GCFV 110800Z 1109/1209 05010KT 9999 FEW020 TX20/1114Z TN13/1206Z \n  PROB30 \n  TEMPO 1110/1117 11007KT \n  PROB30 \n  TEMPO 1206/1209 3000 <span class=\"hl\">BR</span> BKN005"
    },
    {
      "icao": "EPPO",
      "iata": "POZ",
      "name": "Poznań-Ławica Airport",
      "updatedAt": "111400Z",
      "visibility_m": 10000,
      "taf_visibility_m": 4000,
      "worst_visibility_m": 4000,
      "ceiling_ft": 2100,
      "hazards": [
        "SHSN"
      ],
      "severityScore": 10,
      "metarRaw": "METAR EPPO 111400Z 29013KT 9999 OVC021 M02/M05 Q1015",
      "tafRaw": "TAF EPPO 111130Z 1112/1212 30012KT 9999 BKN020 \n  PROB40 \n  TEMPO 1112/1121 4000 -SHSN BKN006 BKN013CB \n  BECMG 1203/1205 VRB02KT",
      "metarHtml": "METAR EPPO 111400Z 29013KT 9999 OVC021 M02/M05 Q1015",
      "tafHtml": "TAF EPPO 111130Z 1112/1212 30012KT 9999 BKN020 \n  PROB40 \n  TEMPO 1112/1121 4000 -<span class=\"hl\">SHSN</span> BKN006 BKN013CB \n  BECMG 1203/1205 VRB02KT"
    },
    {
      "icao": "EPSC",
      "iata": "SZZ",
      "name": "Solidarity Szczecin–Goleniów Airport",
      "updatedAt": "111400Z",
      "visibility_m": 10000,
      "taf_visibility_m": 2000,
      "worst_visibility_m": 2000,
      "ceiling_ft": 2100,
      "hazards": [
        "BR"
      ],
      "severityScore": 10,
      "metarRaw": "METAR EPSC 111400Z 30015KT 9999 BKN021 M01/M05 Q1019",
      "tafRaw": "TAF EPSC 111130Z 1112/1212 33014KT 9999 BKN020 \n  TEMPO 1112/1116 32018G28KT \n  BECMG 1119/1122 27010KT \n  BECMG 1203/1206 VRB02KT \n  PROB40 1203/1209 2000 BR",
      "metarHtml": "METAR EPSC 111400Z 30015KT 9999 BKN021 M01/M05 Q1019",
      "tafHtml": "TAF EPSC 111130Z 1112/1212 33014KT 9999 BKN020 \n  TEMPO 1112/1116 32018G28KT \n  BECMG 1119/1122 27010KT \n  BECMG 1203/1206 VRB02KT \n  PROB40 1203/1209 2000 <span class=\"hl\">BR</span>"
    },
    {
      "icao": "ESSA",
      "iata": "ARN",
      "name": "Stockholm-Arlanda Airport",
      "updatedAt": "111350Z",
      "visibility_m": 10000,
      "taf_visibility_m": 3500,
      "worst_visibility_m": 3500,
      "ceiling_ft": null,
      "hazards": [
        "SHSN"
      ],
      "severityScore": 10,
      "metarRaw": "METAR ESSA 111350Z 32015KT CAVOK M07/M08 Q1017 NOSIG",
      "tafRaw": "TAF ESSA 111130Z 1112/1212 33014KT CAVOK \n  PROB40 1113/1123 3500 -SHSN SCT020TCU \n  PROB40 1123/1206 BKN012 \n  BECMG 1200/1202 34003KT",
      "metarHtml": "METAR ESSA 111350Z 32015KT <span class=\"hl-vis\">CAVOK</span> M07/M08 Q1017 NOSIG",
      "tafHtml": "TAF ESSA 111130Z 1112/1212 33014KT <span class=\"hl-vis\">CAVOK</span> \n  PROB40 1113/1123 3500 -<span class=\"hl\">SHSN</span> SCT020TCU \n  PROB40 1123/1206 BKN012 \n  BECMG 1200/1202 34003KT"
    },
    {
      "icao": "LEZL",
      "iata": "SVQ",
      "name": "Sevilla Airport",
      "updatedAt": "111400Z",
      "visibility_m": 10000,
      "taf_visibility_m": 3000,
      "worst_visibility_m": 3000,
      "ceiling_ft": null,
      "hazards": [
        "BR"
      ],
      "severityScore": 10,
      "metarRaw": "METAR LEZL 111400Z 06003KT 010V170 CAVOK 15/07 Q1026 NOSIG",
      "tafRaw": "TAF LEZL 110800Z 1109/1209 06004KT CAVOK TX16/1115Z TN05/1207Z \n  PROB30 \n  TEMPO 1202/1209 3000 BR",
      "metarHtml": "METAR LEZL 111400Z 06003KT 010V170 <span class=\"hl-vis\">CAVOK</span> 15/07 Q1026 NOSIG",
      "tafHtml": "TAF LEZL 110800Z 1109/1209 06004KT <span class=\"hl-vis\">CAVOK</span> TX16/1115Z TN05/1207Z \n  PROB30 \n  TEMPO 1202/1209 3000 <span class=\"hl\">BR</span>"
    },
    {
      "icao": "LHDC",
      "iata": "DEB",
      "name": "Debrecen International Airport",
      "updatedAt": null,
      "visibility_m": null,
      "taf_visibility_m": 10000,
      "worst_visibility_m": 10000,
      "ceiling_ft": null,
      "hazards": [
        "SHSN"
      ],
      "severityScore": 10,
      "metarRaw": null,
      "tafRaw": "TAF LHDC 111115Z 1112/1121 21007KT CAVOK \n  PROB30 \n  TEMPO 1112/1118 SHSN",
      "metarHtml": null,
      "tafHtml": "TAF LHDC 111115Z 1112/1121 21007KT <span class=\"hl-vis\">CAVOK</span> \n  PROB30 \n  TEMPO 1112/1118 <span class=\"hl\">SHSN</span>"
    },
    {
      "icao": "LPFR",
      "iata": "FAO",
      "name": "Faro Airport",
      "updatedAt": "111400Z",
      "visibility_m": 10000,
      "taf_visibility_m": 3000,
      "worst_visibility_m": 3000,
      "ceiling_ft": null,
      "hazards": [
        "BR"
      ],
      "severityScore": 10,
      "metarRaw": "METAR LPFR 111400Z 22006KT 9999 FEW020 15/10 Q1027",
      "tafRaw": "TAF LPFR 111106Z 1112/1212 VRB05KT CAVOK \n  BECMG 1112/1114 21007KT \n  BECMG 1116/1118 VRB02KT \n  BECMG 1120/1122 01005KT \n  BECMG 1202/1204 05007KT 9999 SCT008 \n  PROB30 \n  TEMPO 1205/1210 3000 BR BKN003",
      "metarHtml": "METAR LPFR 111400Z 22006KT 9999 FEW020 15/10 Q1027",
      "tafHtml": "TAF LPFR 111106Z 1112/1212 VRB05KT <span class=\"hl-vis\">CAVOK</span> \n  BECMG 1112/1114 21007KT \n  BECMG 1116/1118 VRB02KT \n  BECMG 1120/1122 01005KT \n  BECMG 1202/1204 05007KT 9999 SCT008 \n  PROB30 \n  TEMPO 1205/1210 3000 <span class=\"hl\">BR</span> BKN003"
    },
    {
      "icao": "LRBV",
      "iata": "GHV",
      "name": "Brașov-Ghimbav International Airport",
      "updatedAt": "111400Z",
      "visibility_m": 10000,
      "taf_visibility_m": 5000,
      "worst_visibility_m": 5000,
      "ceiling_ft": 3000,
      "hazards": [
        "SHSN"
      ],
      "severityScore": 10,
      "metarRaw": "METAR LRBV 111400Z 31006KT 280V340 9999 FEW026 OVC030 M06/M10 Q1011",
      "tafRaw": "TAF LRBV 111100Z 1112/1121 30015KT 9999 BKN025 BKN050 \n  PROB40 \n  TEMPO 1115/1118 5000 SHSN SCT035CB",
      "metarHtml": "METAR LRBV 111400Z 31006KT 280V340 9999 FEW026 OVC030 M06/M10 Q1011",
      "tafHtml": "TAF LRBV 111100Z 1112/1121 30015KT 9999 BKN025 BKN050 \n  PROB40 \n  TEMPO 1115/1118 5000 <span class=\"hl\">SHSN</span> SCT035CB"
    },
    {
      "icao": "OEJN",
      "iata": "JED",
      "name": "King Abdulaziz International Airport",
      "updatedAt": "111400Z",
      "visibility_m": 10000,
      "taf_visibility_m": 3000,
      "worst_visibility_m": 3000,
      "ceiling_ft": null,
      "hazards": [
        "BR"
      ],
      "severityScore": 10,
      "metarRaw": "METAR OEJN 111400Z 25007KT CAVOK 28/14 Q1013 NOSIG",
      "tafRaw": "TAF OEJN 111100Z 1112/1218 22010KT 7000 FEW040 \n  PROB30 \n  TEMPO 1112/1118 3000 DU \n  BECMG 1118/1120 VRB03KT \n  PROB30 \n  TEMPO 1200/1205 3000 BR \n  BECMG 1208/1210 30010KT",
      "metarHtml": "METAR OEJN 111400Z 25007KT <span class=\"hl-vis\">CAVOK</span> 28/14 Q1013 NOSIG",
      "tafHtml": "TAF OEJN 111100Z 1112/1218 22010KT 7000 FEW040 \n  PROB30 \n  TEMPO 1112/1118 3000 DU \n  BECMG 1118/1120 VRB03KT \n  PROB30 \n  TEMPO 1200/1205 3000 <span class=\"hl\">BR</span> \n  BECMG 1208/1210 30010KT"
    },
    {
      "icao": "UDSG",
      "iata": "LWN",
      "name": "Shirak International Airport",
      "updatedAt": "111400Z",
      "visibility_m": 10000,
      "taf_visibility_m": 3000,
      "worst_visibility_m": 3000,
      "ceiling_ft": 4300,
      "hazards": [
        "BR"
      ],
      "severityScore": 10,
      "metarRaw": "METAR UDSG 111400Z 30007KT 9999 BKN043 M02/M06 Q1020 NOSIG",
      "tafRaw": "TAF UDSG 111058Z 1112/1212 VRB06KT 9999 SCT040 \n  TEMPO 1113/1124 36016KT 3000 BR BKN030",
      "metarHtml": "METAR UDSG 111400Z 30007KT 9999 BKN043 M02/M06 Q1020 NOSIG",
      "tafHtml": "TAF UDSG 111058Z 1112/1212 VRB06KT 9999 SCT040 \n  TEMPO 1113/1124 36016KT 3000 <span class=\"hl\">BR</span> BKN030"
    },
    {
      "icao": "ENTO",
      "iata": "TRF",
      "name": "Sandefjord Airport, Torp",
      "updatedAt": "111350Z",
      "visibility_m": 10000,
      "taf_visibility_m": null,
      "worst_visibility_m": 10000,
      "ceiling_ft": null,
      "hazards": [],
      "severityScore": 5,
      "metarRaw": "METAR ENTO 111350Z 33004KT 9999 SCT010 M13/M15 Q1023 NOSIG",
      "tafRaw": null,
      "metarHtml": "METAR ENTO 111350Z 33004KT 9999 SCT010 M13/M15 Q1023 NOSIG",
      "tafHtml": null
    },
    {
      "icao": "ENZV",
      "iata": "SVG",
      "name": "Stavanger Airport, Sola",
      "updatedAt": "111350Z",
      "visibility_m": 10000,
      "taf_visibility_m": null,
      "worst_visibility_m": 10000,
      "ceiling_ft": null,
      "hazards": [],
      "severityScore": 5,
      "metarRaw": "METAR ENZV 111350Z 14022KT 9999 SCT040 00/M05 Q1016 TEMPO 14022G32KT",
      "tafRaw": null,
      "metarHtml": "METAR ENZV 111350Z 14022KT 9999 SCT040 00/M05 Q1016 TEMPO 14022G32KT",
      "tafHtml": null
    },
    {
      "icao": "LEBL",
      "iata": "BCN",
      "name": "Josep Tarradellas Barcelona-El Prat Airport",
      "updatedAt": "111400Z",
      "visibility_m": 10000,
      "taf_visibility_m": null,
      "worst_visibility_m": 10000,
      "ceiling_ft": null,
      "hazards": [],
      "severityScore": 5,
      "metarRaw": "METAR LEBL 111400Z 19005KT 160V220 CAVOK 12/05 Q1023 NOSIG",
      "tafRaw": null,
      "metarHtml": "METAR LEBL 111400Z 19005KT 160V220 <span class=\"hl-vis\">CAVOK</span> 12/05 Q1023 NOSIG",
      "tafHtml": null
    },
    {
      "icao": "LECH",
      "iata": "CDT",
      "name": "Castellón-Costa Azahar Airport",
      "updatedAt": "111400Z",
      "visibility_m": 9000,
      "taf_visibility_m": null,
      "worst_visibility_m": 9000,
      "ceiling_ft": null,
      "hazards": [],
      "severityScore": 5,
      "metarRaw": "METAR LECH 111400Z AUTO 13006KT 100V170 9000 NCD 13/02 Q1023",
      "tafRaw": null,
      "metarHtml": "METAR LECH 111400Z AUTO 13006KT 100V170 9000 NCD 13/02 Q1023",
      "tafHtml": null
    },
    {
      "icao": "LFLS",
      "iata": "GNB",
      "name": "Grenoble Alpes Isère Airport",
      "updatedAt": "111400Z",
      "visibility_m": 10000,
      "taf_visibility_m": null,
      "worst_visibility_m": 10000,
      "ceiling_ft": 2000,
      "hazards": [],
      "severityScore": 5,
      "metarRaw": "METAR LFLS 111400Z AUTO 09005KT 9999 OVC020 02/M01 Q1023",
      "tafRaw": null,
      "metarHtml": "METAR LFLS 111400Z AUTO 09005KT 9999 OVC020 02/M01 Q1023",
      "tafHtml": null
    },
    {
      "icao": "BIKF",
      "iata": "KEF",
      "name": "Keflavik International Airport",
      "updatedAt": "111400Z",
      "visibility_m": 10000,
      "taf_visibility_m": 10000,
      "worst_visibility_m": 10000,
      "ceiling_ft": null,
      "hazards": [],
      "severityScore": 0,
      "metarRaw": "METAR BIKF 111400Z 01012KT 9999 FEW035 SCT220 M03/M07 Q0995",
      "tafRaw": "TAF BIKF 111342Z 1115/1215 36013KT 9999 FEW030 TX00/1203Z TNM02/1215Z \n  BECMG 1120/1122 02025G35KT",
      "metarHtml": "METAR BIKF 111400Z 01012KT 9999 FEW035 SCT220 M03/M07 Q0995",
      "tafHtml": "TAF BIKF 111342Z 1115/1215 36013KT 9999 FEW030 TX00/1203Z TNM02/1215Z \n  BECMG 1120/1122 02025G35KT"
    },
    {
      "icao": "BKPR",
      "iata": "PRN",
      "name": "Priština Adem Jashari International Airport",
      "updatedAt": "111400Z",
      "visibility_m": 10000,
      "taf_visibility_m": 10000,
      "worst_visibility_m": 10000,
      "ceiling_ft": null,
      "hazards": [],
      "severityScore": 0,
      "metarRaw": "METAR BKPR 111400Z 03013KT 9999 SCT035 M04/M07 Q1014 NOSIG",
      "tafRaw": "TAF BKPR 111130Z 1112/1212 35008KT 9999 SCT010 BKN030 \n  TEMPO 1112/1117 36018KT",
      "metarHtml": "METAR BKPR 111400Z 03013KT 9999 SCT035 M04/M07 Q1014 NOSIG",
      "tafHtml": "TAF BKPR 111130Z 1112/1212 35008KT 9999 SCT010 BKN030 \n  TEMPO 1112/1117 36018KT"
    },
    {
      "icao": "GCLP",
      "iata": "LPA",
      "name": "Gran Canaria Airport",
      "updatedAt": "111400Z",
      "visibility_m": 10000,
      "taf_visibility_m": 10000,
      "worst_visibility_m": 10000,
      "ceiling_ft": null,
      "hazards": [],
      "severityScore": 0,
      "metarRaw": "METAR GCLP 111400Z 04011KT 010V070 9999 SCT030 21/13 Q1023 NOSIG",
      "tafRaw": "TAF GCLP 110800Z 1109/1209 03014KT 9999 FEW025 TX21/1114Z TN14/1206Z \n  BECMG 1118/1120 33007KT",
      "metarHtml": "METAR GCLP 111400Z 04011KT 010V070 9999 SCT030 21/13 Q1023 NOSIG",
      "tafHtml": "TAF GCLP 110800Z 1109/1209 03014KT 9999 FEW025 TX21/1114Z TN14/1206Z \n  BECMG 1118/1120 33007KT"
    },
    {
      "icao": "GCTS",
      "iata": "TFS",
      "name": "Tenerife Sur Airport",
      "updatedAt": "111400Z",
      "visibility_m": 10000,
      "taf_visibility_m": 10000,
      "worst_visibility_m": 10000,
      "ceiling_ft": null,
      "hazards": [],
      "severityScore": 0,
      "metarRaw": "METAR GCTS 111400Z 10016KT 9999 SCT035 20/13 Q1024 NOSIG",
      "tafRaw": "TAF GCTS 110800Z 1109/1209 09015KT 9999 SCT040 TX23/1114Z TN16/1206Z \n  PROB30 \n  TEMPO 1109/1111 03009KT \n  BECMG 1119/1121 03009KT",
      "metarHtml": "METAR GCTS 111400Z 10016KT 9999 SCT035 20/13 Q1024 NOSIG",
      "tafHtml": "TAF GCTS 110800Z 1109/1209 09015KT 9999 SCT040 TX23/1114Z TN16/1206Z \n  PROB30 \n  TEMPO 1109/1111 03009KT \n  BECMG 1119/1121 03009KT"
    },
    {
      "icao": "GMAD",
      "iata": "AGA",
      "name": "Al Massira Airport",
      "updatedAt": "111400Z",
      "visibility_m": 10000,
      "taf_visibility_m": 10000,
      "worst_visibility_m": 10000,
      "ceiling_ft": null,
      "hazards": [],
      "severityScore": 0,
      "metarRaw": "METAR GMAD 111400Z 00000KT CAVOK 21/06 Q1023 NOSIG",
      "tafRaw": "TAF GMAD 111100Z 1112/1218 06005KT CAVOK \n  BECMG 1114/1116 27008KT",
      "metarHtml": "METAR GMAD 111400Z 00000KT <span class=\"hl-vis\">CAVOK</span> 21/06 Q1023 NOSIG",
      "tafHtml": "TAF GMAD 111100Z 1112/1218 06005KT <span class=\"hl-vis\">CAVOK</span> \n  BECMG 1114/1116 27008KT"
    },
    {
      "icao": "GMMX",
      "iata": "RAK",
      "name": "Menara Airport",
      "updatedAt": "111400Z",
      "visibility_m": 10000,
      "taf_visibility_m": 10000,
      "worst_visibility_m": 10000,
      "ceiling_ft": null,
      "hazards": [],
      "severityScore": 0,
      "metarRaw": "METAR GMMX 111400Z 29005KT 240V010 CAVOK 16/10 Q1024 NOSIG",
      "tafRaw": "TAF GMMX 111100Z 1112/1218 06006KT CAVOK",
      "metarHtml": "METAR GMMX 111400Z 29005KT 240V010 <span class=\"hl-vis\">CAVOK</span> 16/10 Q1024 NOSIG",
      "tafHtml": "TAF GMMX 111100Z 1112/1218 06006KT <span class=\"hl-vis\">CAVOK</span>"
    },
    {
      "icao": "EDDB",
      "iata": "BER",
      "name": "Berlin Brandenburg Airport",
      "updatedAt": "111350Z",
      "visibility_m": 10000,
      "taf_visibility_m": 10000,
      "worst_visibility_m": 10000,
      "ceiling_ft": null,
      "hazards": [],
      "severityScore": 0,
      "metarRaw": "METAR EDDB 111350Z AUTO 30010KT CAVOK M03/M07 Q1022 NOSIG",
      "tafRaw": "TAF EDDB 111100Z 1112/1212 29011KT CAVOK \n  BECMG 1117/1119 27006KT \n  BECMG 1201/1205 14004KT \n  BECMG 1210/1212 OVC008",
      "metarHtml": "METAR EDDB 111350Z AUTO 30010KT <span class=\"hl-vis\">CAVOK</span> M03/M07 Q1022 NOSIG",
      "tafHtml": "TAF EDDB 111100Z 1112/1212 29011KT <span class=\"hl-vis\">CAVOK</span> \n  BECMG 1117/1119 27006KT \n  BECMG 1201/1205 14004KT \n  BECMG 1210/1212 OVC008"
    },
    {
      "icao": "EDNY",
      "iata": "FDH",
      "name": "Friedrichshafen Airport",
      "updatedAt": "111350Z",
      "visibility_m": 10000,
      "taf_visibility_m": 2000,
      "worst_visibility_m": 2000,
      "ceiling_ft": 2700,
      "hazards": [],
      "severityScore": 0,
      "metarRaw": "METAR EDNY 111350Z 04004KT 9999 OVC027 00/M02 Q1024",
      "tafRaw": "TAF EDNY 111100Z 1112/1121 VRB03KT 9999 BKN015 \n  PROB30 \n  TEMPO 1118/1121 2000 BCFG",
      "metarHtml": "METAR EDNY 111350Z 04004KT 9999 OVC027 00/M02 Q1024",
      "tafHtml": "TAF EDNY 111100Z 1112/1121 VRB03KT 9999 BKN015 \n  PROB30 \n  TEMPO 1118/1121 2000 BCFG"
    },
    {
      "icao": "EKCH",
      "iata": "CPH",
      "name": "Copenhagen Kastrup Airport",
      "updatedAt": "111350Z",
      "visibility_m": 10000,
      "taf_visibility_m": 10000,
      "worst_visibility_m": 10000,
      "ceiling_ft": null,
      "hazards": [],
      "severityScore": 0,
      "metarRaw": "METAR EKCH 111350Z AUTO VRB06G16KT 9999 NCD M01/M10 Q1022 NOSIG",
      "tafRaw": "TAF EKCH 111127Z 1112/1212 33010KT CAVOK \n  BECMG 1122/1201 08006KT",
      "metarHtml": "METAR EKCH 111350Z AUTO VRB06G16KT 9999 NCD M01/M10 Q1022 NOSIG",
      "tafHtml": "TAF EKCH 111127Z 1112/1212 33010KT <span class=\"hl-vis\">CAVOK</span> \n  BECMG 1122/1201 08006KT"
    },
    {
      "icao": "ENAL",
      "iata": "AES",
      "name": "Ålesund Airport, Vigra",
      "updatedAt": "111350Z",
      "visibility_m": 10000,
      "taf_visibility_m": 10000,
      "worst_visibility_m": 10000,
      "ceiling_ft": null,
      "hazards": [],
      "severityScore": 0,
      "metarRaw": "METAR ENAL 111350Z 13014KT CAVOK 02/M09 Q1012",
      "tafRaw": "TAF ENAL 111100Z 1112/1121 12015KT CAVOK",
      "metarHtml": "METAR ENAL 111350Z 13014KT <span class=\"hl-vis\">CAVOK</span> 02/M09 Q1012",
      "tafHtml": "TAF ENAL 111100Z 1112/1121 12015KT <span class=\"hl-vis\">CAVOK</span>"
    },
    {
      "icao": "ENBR",
      "iata": "BGO",
      "name": "Bergen Airport, Flesland",
      "updatedAt": "111350Z",
      "visibility_m": 10000,
      "taf_visibility_m": 3000,
      "worst_visibility_m": 3000,
      "ceiling_ft": null,
      "hazards": [],
      "severityScore": 0,
      "metarRaw": "METAR ENBR 111350Z 14022G32KT 9999 SCT042 02/M06 Q1013 NOSIG RMK WIND 1200FT 14041G53KT",
      "tafRaw": "TAF ENBR 111100Z 1112/1212 13012KT 9999 SCT045 \n  TEMPO 1112/1115 14015G25KT \n  BECMG 1115/1118 13022KT \n  TEMPO 1115/1206 13025G35KT \n  TEMPO 1206/1212 13030G45KT \n  PROB30 \n  TEMPO 1203/1208 3000 SNRA VV014",
      "metarHtml": "METAR ENBR 111350Z 14022G32KT 9999 SCT042 02/M06 Q1013 NOSIG RMK WIND 1200FT 14041G53KT",
      "tafHtml": "TAF ENBR 111100Z 1112/1212 13012KT 9999 SCT045 \n  TEMPO 1112/1115 14015G25KT \n  BECMG 1115/1118 13022KT \n  TEMPO 1115/1206 13025G35KT \n  TEMPO 1206/1212 13030G45KT \n  PROB30 \n  TEMPO 1203/1208 3000 SNRA VV014"
    },
    {
      "icao": "ENHD",
      "iata": "HAU",
      "name": "Haugesund Airport, Karmøy",
      "updatedAt": "111350Z",
      "visibility_m": 10000,
      "taf_visibility_m": 10000,
      "worst_visibility_m": 10000,
      "ceiling_ft": null,
      "hazards": [],
      "severityScore": 0,
      "metarRaw": "METAR ENHD 111350Z 14026G40KT 9999 SCT046 01/M04 Q1014",
      "tafRaw": "TAF ENHD 111100Z 1112/1121 13025KT 9999 BKN040 \n  PROB40 \n  TEMPO 1112/1114 14025G35KT \n  BECMG 1114/1116 14030G45KT",
      "metarHtml": "METAR ENHD 111350Z 14026G40KT 9999 SCT046 01/M04 Q1014",
      "tafHtml": "TAF ENHD 111100Z 1112/1121 13025KT 9999 BKN040 \n  PROB40 \n  TEMPO 1112/1114 14025G35KT \n  BECMG 1114/1116 14030G45KT"
    },
    {
      "icao": "ENTC",
      "iata": "TOS",
      "name": "Tromsø Airport, Langnes",
      "updatedAt": "111350Z",
      "visibility_m": 10000,
      "taf_visibility_m": 10000,
      "worst_visibility_m": 10000,
      "ceiling_ft": null,
      "hazards": [],
      "severityScore": 0,
      "metarRaw": "METAR ENTC 111350Z 14003KT 110V170 CAVOK M10/M12 Q1020 NOSIG RMK WIND 2600FT 19018KT",
      "tafRaw": "TAF ENTC 111100Z 1112/1212 20005KT CAVOK",
      "metarHtml": "METAR ENTC 111350Z 14003KT 110V170 <span class=\"hl-vis\">CAVOK</span> M10/M12 Q1020 NOSIG RMK WIND 2600FT 19018KT",
      "tafHtml": "TAF ENTC 111100Z 1112/1212 20005KT <span class=\"hl-vis\">CAVOK</span>"
    },
    {
      "icao": "ENVA",
      "iata": "TRD",
      "name": "Trondheim Airport, Værnes",
      "updatedAt": "111350Z",
      "visibility_m": 10000,
      "taf_visibility_m": 10000,
      "worst_visibility_m": 10000,
      "ceiling_ft": null,
      "hazards": [],
      "severityScore": 0,
      "metarRaw": "METAR ENVA 111350Z 09011KT CAVOK M08/M13 Q1018 NOSIG RMK WIND 670FT 12016KT",
      "tafRaw": "TAF ENVA 111100Z 1112/1212 10008KT CAVOK \n  PROB40 \n  TEMPO 1118/1124 15015G25KT \n  BECMG 1204/1206 12018KT \n  TEMPO 1205/1212 15020G30KT",
      "metarHtml": "METAR ENVA 111350Z 09011KT <span class=\"hl-vis\">CAVOK</span> M08/M13 Q1018 NOSIG RMK WIND 670FT 12016KT",
      "tafHtml": "TAF ENVA 111100Z 1112/1212 10008KT <span class=\"hl-vis\">CAVOK</span> \n  PROB40 \n  TEMPO 1118/1124 15015G25KT \n  BECMG 1204/1206 12018KT \n  TEMPO 1205/1212 15020G30KT"
    },
    {
      "icao": "ESGG",
      "iata": "GOT",
      "name": "Göteborg Landvetter Airport",
      "updatedAt": "111350Z",
      "visibility_m": 10000,
      "taf_visibility_m": 10000,
      "worst_visibility_m": 10000,
      "ceiling_ft": null,
      "hazards": [],
      "severityScore": 0,
      "metarRaw": "METAR ESGG 111350Z 00000KT CAVOK M10/M11 Q1021",
      "tafRaw": "TAF ESGG 111130Z 1112/1212 03005KT CAVOK \n  PROB40 1112/1113 BKN003",
      "metarHtml": "METAR ESGG 111350Z 00000KT <span class=\"hl-vis\">CAVOK</span> M10/M11 Q1021",
      "tafHtml": "TAF ESGG 111130Z 1112/1212 03005KT <span class=\"hl-vis\">CAVOK</span> \n  PROB40 1112/1113 BKN003"
    },
    {
      "icao": "ESKN",
      "iata": "NYO",
      "name": "Stockholm Skavsta Airport",
      "updatedAt": "111350Z",
      "visibility_m": 10000,
      "taf_visibility_m": 10000,
      "worst_visibility_m": 10000,
      "ceiling_ft": null,
      "hazards": [],
      "severityScore": 0,
      "metarRaw": "METAR ESKN 111350Z 32013KT CAVOK M07/M09 Q1018",
      "tafRaw": "TAF ESKN 111130Z 1112/1212 33013KT CAVOK \n  PROB40 1200/1205 BKN007",
      "metarHtml": "METAR ESKN 111350Z 32013KT <span class=\"hl-vis\">CAVOK</span> M07/M09 Q1018",
      "tafHtml": "TAF ESKN 111130Z 1112/1212 33013KT <span class=\"hl-vis\">CAVOK</span> \n  PROB40 1200/1205 BKN007"
    },
    {
      "icao": "ESMS",
      "iata": "MMX",
      "name": "Malmö Sturup Airport",
      "updatedAt": "111350Z",
      "visibility_m": 10000,
      "taf_visibility_m": 10000,
      "worst_visibility_m": 10000,
      "ceiling_ft": null,
      "hazards": [],
      "severityScore": 0,
      "metarRaw": "METAR ESMS 111350Z 31007KT CAVOK M05/M10 Q1021",
      "tafRaw": "TAF ESMS 111127Z 1112/1212 32010KT CAVOK \n  BECMG 1202/1205 09004KT",
      "metarHtml": "METAR ESMS 111350Z 31007KT <span class=\"hl-vis\">CAVOK</span> M05/M10 Q1021",
      "tafHtml": "TAF ESMS 111127Z 1112/1212 32010KT <span class=\"hl-vis\">CAVOK</span> \n  BECMG 1202/1205 09004KT"
    },
    {
      "icao": "HEGN",
      "iata": "HRG",
      "name": "Hurghada International Airport",
      "updatedAt": "111300Z",
      "visibility_m": 10000,
      "taf_visibility_m": 10000,
      "worst_visibility_m": 10000,
      "ceiling_ft": null,
      "hazards": [],
      "severityScore": 0,
      "metarRaw": "METAR HEGN 111300Z 06005KT CAVOK 23/11 Q1016 NOSIG",
      "tafRaw": "TAF HEGN 111100Z 1112/1218 36013KT CAVOK",
      "metarHtml": "METAR HEGN 111300Z 06005KT <span class=\"hl-vis\">CAVOK</span> 23/11 Q1016 NOSIG",
      "tafHtml": "TAF HEGN 111100Z 1112/1218 36013KT <span class=\"hl-vis\">CAVOK</span>"
    },
    {
      "icao": "HEMA",
      "iata": "RMF",
      "name": "Marsa Alam International Airport",
      "updatedAt": "111300Z",
      "visibility_m": 10000,
      "taf_visibility_m": 10000,
      "worst_visibility_m": 10000,
      "ceiling_ft": null,
      "hazards": [],
      "severityScore": 0,
      "metarRaw": "METAR HEMA 111300Z 02011KT CAVOK 22/15 Q1015 NOSIG",
      "tafRaw": "TAF HEMA 111100Z 1112/1218 36015KT CAVOK",
      "metarHtml": "METAR HEMA 111300Z 02011KT <span class=\"hl-vis\">CAVOK</span> 22/15 Q1015 NOSIG",
      "tafHtml": "TAF HEMA 111100Z 1112/1218 36015KT <span class=\"hl-vis\">CAVOK</span>"
    },
    {
      "icao": "HESH",
      "iata": "SSH",
      "name": "Sharm El Sheikh International Airport",
      "updatedAt": "111300Z",
      "visibility_m": 10000,
      "taf_visibility_m": 10000,
      "worst_visibility_m": 10000,
      "ceiling_ft": null,
      "hazards": [],
      "severityScore": 0,
      "metarRaw": "METAR HESH 111300Z 14005KT CAVOK 24/09 Q1016 NOSIG",
      "tafRaw": "TAF HESH 111100Z 1112/1218 01012KT CAVOK",
      "metarHtml": "METAR HESH 111300Z 14005KT <span class=\"hl-vis\">CAVOK</span> 24/09 Q1016 NOSIG",
      "tafHtml": "TAF HESH 111100Z 1112/1218 01012KT <span class=\"hl-vis\">CAVOK</span>"
    },
    {
      "icao": "HESX",
      "iata": "SPX",
      "name": "Sphinx International Airport",
      "updatedAt": "111300Z",
      "visibility_m": 10000,
      "taf_visibility_m": 4000,
      "worst_visibility_m": 4000,
      "ceiling_ft": null,
      "hazards": [],
      "severityScore": 0,
      "metarRaw": "METAR HESX 111300Z 26010KT CAVOK 20/03 Q1016 NOSIG",
      "tafRaw": "TAF HESX 111100Z 1112/1218 22010KT 9999 FEW020 \n  TEMPO 1112/1118 24010G20KT 4000 SA NSC",
      "metarHtml": "METAR HESX 111300Z 26010KT <span class=\"hl-vis\">CAVOK</span> 20/03 Q1016 NOSIG",
      "tafHtml": "TAF HESX 111100Z 1112/1218 22010KT 9999 FEW020 \n  TEMPO 1112/1118 24010G20KT 4000 SA NSC"
    },
    {
      "icao": "LATI",
      "iata": "TIA",
      "name": "Tirana International Airport Mother Teresa",
      "updatedAt": "111350Z",
      "visibility_m": 10000,
      "taf_visibility_m": 10000,
      "worst_visibility_m": 10000,
      "ceiling_ft": null,
      "hazards": [],
      "severityScore": 0,
      "metarRaw": "METAR LATI 111350Z 31015KT 9999 FEW040 08/M02 Q1010 NOSIG",
      "tafRaw": "TAF LATI 111100Z 1112/1212 34012KT CAVOK TX12/1112Z TNM04/1205Z \n  BECMG 1117/1119 VRB05KT",
      "metarHtml": "METAR LATI 111350Z 31015KT 9999 FEW040 08/M02 Q1010 NOSIG",
      "tafHtml": "TAF LATI 111100Z 1112/1212 34012KT <span class=\"hl-vis\">CAVOK</span> TX12/1112Z TNM04/1205Z \n  BECMG 1117/1119 VRB05KT"
    },
    {
      "icao": "LEAL",
      "iata": "ALC",
      "name": "Alicante-Elche Miguel Hernández Airport",
      "updatedAt": "111400Z",
      "visibility_m": 10000,
      "taf_visibility_m": 10000,
      "worst_visibility_m": 10000,
      "ceiling_ft": null,
      "hazards": [],
      "severityScore": 0,
      "metarRaw": "METAR LEAL 111400Z 07007KT 030V100 CAVOK 16/05 Q1024 NOSIG",
      "tafRaw": "TAF LEAL 111100Z 1112/1212 28008KT CAVOK TX16/1113Z TN07/1206Z \n  TEMPO 1112/1119 10007KT",
      "metarHtml": "METAR LEAL 111400Z 07007KT 030V100 <span class=\"hl-vis\">CAVOK</span> 16/05 Q1024 NOSIG",
      "tafHtml": "TAF LEAL 111100Z 1112/1212 28008KT <span class=\"hl-vis\">CAVOK</span> TX16/1113Z TN07/1206Z \n  TEMPO 1112/1119 10007KT"
    },
    {
      "icao": "LEBB",
      "iata": "BIO",
      "name": "Bilbao Airport",
      "updatedAt": "111400Z",
      "visibility_m": 10000,
      "taf_visibility_m": 10000,
      "worst_visibility_m": 10000,
      "ceiling_ft": 7000,
      "hazards": [],
      "severityScore": 0,
      "metarRaw": "METAR LEBB 111400Z VRB02KT 9999 SCT050 OVC070 15/07 Q1021 NOSIG",
      "tafRaw": "TAF LEBB 111100Z 1112/1212 18008KT 9999 FEW040 TX14/1114Z TN12/1207Z \n  TEMPO 1112/1212 20015G25KT \n  TEMPO 1118/1212 20020G35KT",
      "metarHtml": "METAR LEBB 111400Z VRB02KT 9999 SCT050 OVC070 15/07 Q1021 NOSIG",
      "tafHtml": "TAF LEBB 111100Z 1112/1212 18008KT 9999 FEW040 TX14/1114Z TN12/1207Z \n  TEMPO 1112/1212 20015G25KT \n  TEMPO 1118/1212 20020G35KT"
    },
    {
      "icao": "LEMG",
      "iata": "AGP",
      "name": "Málaga-Costa del Sol Airport",
      "updatedAt": "111400Z",
      "visibility_m": 10000,
      "taf_visibility_m": 10000,
      "worst_visibility_m": 10000,
      "ceiling_ft": null,
      "hazards": [],
      "severityScore": 0,
      "metarRaw": "METAR LEMG 111400Z 15006KT 120V180 CAVOK 15/05 Q1025 NOSIG",
      "tafRaw": "TAF LEMG 111100Z 1112/1212 26006KT CAVOK TX17/1114Z TN07/1207Z",
      "metarHtml": "METAR LEMG 111400Z 15006KT 120V180 <span class=\"hl-vis\">CAVOK</span> 15/05 Q1025 NOSIG",
      "tafHtml": "TAF LEMG 111100Z 1112/1212 26006KT <span class=\"hl-vis\">CAVOK</span> TX17/1114Z TN07/1207Z"
    },
    {
      "icao": "LEVC",
      "iata": "VLC",
      "name": "Valencia Airport",
      "updatedAt": "111400Z",
      "visibility_m": 10000,
      "taf_visibility_m": 10000,
      "worst_visibility_m": 10000,
      "ceiling_ft": null,
      "hazards": [],
      "severityScore": 0,
      "metarRaw": "METAR LEVC 111400Z 19006KT 150V220 CAVOK 17/00 Q1023 NOSIG",
      "tafRaw": "TAF LEVC 111100Z 1112/1212 27008KT CAVOK TX16/1114Z TN05/1206Z \n  TEMPO 1112/1119 14007KT",
      "metarHtml": "METAR LEVC 111400Z 19006KT 150V220 <span class=\"hl-vis\">CAVOK</span> 17/00 Q1023 NOSIG",
      "tafHtml": "TAF LEVC 111100Z 1112/1212 27008KT <span class=\"hl-vis\">CAVOK</span> TX16/1114Z TN05/1206Z \n  TEMPO 1112/1119 14007KT"
    },
    {
      "icao": "LEZG",
      "iata": "ZAZ",
      "name": "Zaragoza Airport",
      "updatedAt": "111400Z",
      "visibility_m": 10000,
      "taf_visibility_m": 10000,
      "worst_visibility_m": 10000,
      "ceiling_ft": null,
      "hazards": [],
      "severityScore": 0,
      "metarRaw": "METAR LEZG 111400Z 25011KT 220V280 CAVOK 14/04 Q1022 NOSIG",
      "tafRaw": "TAF LEZG 111100Z 1112/1212 24009KT 9999 FEW050 TX13/1115Z TN04/1206Z \n  PROB40 \n  TEMPO 1112/1115 24015G25KT \n  TEMPO 1114/1118 33006KT \n  TEMPO 1117/1202 24015G25KT \n  TEMPO 1201/1212 VRB04KT",
      "metarHtml": "METAR LEZG 111400Z 25011KT 220V280 <span class=\"hl-vis\">CAVOK</span> 14/04 Q1022 NOSIG",
      "tafHtml": "TAF LEZG 111100Z 1112/1212 24009KT 9999 FEW050 TX13/1115Z TN04/1206Z \n  PROB40 \n  TEMPO 1112/1115 24015G25KT \n  TEMPO 1114/1118 33006KT \n  TEMPO 1117/1202 24015G25KT \n  TEMPO 1201/1212 VRB04KT"
    },
    {
      "icao": "LFLL",
      "iata": "LYS",
      "name": "Lyon Saint-Exupéry Airport",
      "updatedAt": "111400Z",
      "visibility_m": 10000,
      "taf_visibility_m": 10000,
      "worst_visibility_m": 10000,
      "ceiling_ft": 26000,
      "hazards": [],
      "severityScore": 0,
      "metarRaw": "METAR LFLL 111400Z 35006KT 9999 FEW026 BKN260 04/M02 Q1024 NOSIG",
      "tafRaw": "TAF LFLL 111100Z 1112/1218 35008KT 9999 SCT020 \n  BECMG 1114/1116 VRB02KT \n  BECMG 1202/1204 18008KT BKN030 \n  BECMG 1210/1212 CAVOK \n  PROB30 \n  TEMPO 1212/1218 18015G25KT",
      "metarHtml": "METAR LFLL 111400Z 35006KT 9999 FEW026 BKN260 04/M02 Q1024 NOSIG",
      "tafHtml": "TAF LFLL 111100Z 1112/1218 35008KT 9999 SCT020 \n  BECMG 1114/1116 VRB02KT \n  BECMG 1202/1204 18008KT BKN030 \n  BECMG 1210/1212 <span class=\"hl-vis\">CAVOK</span> \n  PROB30 \n  TEMPO 1212/1218 18015G25KT"
    },
    {
      "icao": "LFMN",
      "iata": "NCE",
      "name": "Nice-Côte d'Azur Airport",
      "updatedAt": "111400Z",
      "visibility_m": 10000,
      "taf_visibility_m": 10000,
      "worst_visibility_m": 10000,
      "ceiling_ft": null,
      "hazards": [],
      "severityScore": 0,
      "metarRaw": "METAR LFMN 111400Z 22011KT CAVOK 14/02 Q1019 NOSIG",
      "tafRaw": "TAF LFMN 110800Z 1109/1215 33010KT CAVOK \n  BECMG 1112/1114 24010KT \n  BECMG 1119/1120 32010KT \n  BECMG 1209/1211 22005KT",
      "metarHtml": "METAR LFMN 111400Z 22011KT <span class=\"hl-vis\">CAVOK</span> 14/02 Q1019 NOSIG",
      "tafHtml": "TAF LFMN 110800Z 1109/1215 33010KT <span class=\"hl-vis\">CAVOK</span> \n  BECMG 1112/1114 24010KT \n  BECMG 1119/1120 32010KT \n  BECMG 1209/1211 22005KT"
    },
    {
      "icao": "LGAV",
      "iata": "ATH",
      "name": "Athens Eleftherios Venizelos International Airport",
      "updatedAt": "111350Z",
      "visibility_m": 10000,
      "taf_visibility_m": 10000,
      "worst_visibility_m": 10000,
      "ceiling_ft": null,
      "hazards": [],
      "severityScore": 0,
      "metarRaw": "METAR LGAV 111350Z 27010KT 9999 FEW020 14/03 Q1005 NOSIG",
      "tafRaw": "TAF LGAV 111100Z 1112/1212 30013G23KT 9999 SCT025 SCT070 \n  BECMG 1118/1120 34012KT \n  TEMPO 1123/1212 34015G25KT",
      "metarHtml": "METAR LGAV 111350Z 27010KT 9999 FEW020 14/03 Q1005 NOSIG",
      "tafHtml": "TAF LGAV 111100Z 1112/1212 30013G23KT 9999 SCT025 SCT070 \n  BECMG 1118/1120 34012KT \n  TEMPO 1123/1212 34015G25KT"
    },
    {
      "icao": "LGTS",
      "iata": "SKG",
      "name": "Thessaloniki Macedonia International Airport",
      "updatedAt": "111350Z",
      "visibility_m": 10000,
      "taf_visibility_m": 10000,
      "worst_visibility_m": 10000,
      "ceiling_ft": null,
      "hazards": [],
      "severityScore": 0,
      "metarRaw": "METAR LGTS 111350Z 34021G31KT 9999 FEW015 SCT030 06/M02 Q1008 NOSIG",
      "tafRaw": "TAF LGTS 111100Z 1112/1212 34015KT 9999 SCT030 \n  TEMPO 1112/1212 34020G35KT \n  BECMG 1116/1118 FEW025",
      "metarHtml": "METAR LGTS 111350Z 34021G31KT 9999 FEW015 SCT030 06/M02 Q1008 NOSIG",
      "tafHtml": "TAF LGTS 111100Z 1112/1212 34015KT 9999 SCT030 \n  TEMPO 1112/1212 34020G35KT \n  BECMG 1116/1118 FEW025"
    },
    {
      "icao": "LIBD",
      "iata": "BRI",
      "name": "Bari Karol Wojtyła International Airport",
      "updatedAt": "111350Z",
      "visibility_m": 10000,
      "taf_visibility_m": 10000,
      "worst_visibility_m": 10000,
      "ceiling_ft": null,
      "hazards": [],
      "severityScore": 0,
      "metarRaw": "METAR LIBD 111350Z 32014KT 290V360 9999 FEW020 10/M02 Q1014",
      "tafRaw": "TAF LIBD 111100Z 1112/1212 34018G28KT 9999 FEW040 \n  BECMG 1207/1209 34018KT",
      "metarHtml": "METAR LIBD 111350Z 32014KT 290V360 9999 FEW020 10/M02 Q1014",
      "tafHtml": "TAF LIBD 111100Z 1112/1212 34018G28KT 9999 FEW040 \n  BECMG 1207/1209 34018KT"
    },
    {
      "icao": "LIBG",
      "iata": "TAR",
      "name": "Taranto-Grottaglie Marcello Arlotta Airport",
      "updatedAt": "111350Z",
      "visibility_m": 10000,
      "taf_visibility_m": 10000,
      "worst_visibility_m": 10000,
      "ceiling_ft": null,
      "hazards": [],
      "severityScore": 0,
      "metarRaw": "METAR LIBG 111350Z 34014G25KT 300V360 9999 FEW040 10/01 Q1012",
      "tafRaw": "TAF LIBG 111100Z 1112/1121 32012KT 9999 SCT040 \n  PROB30 \n  TEMPO 1112/1115 32015G25KT",
      "metarHtml": "METAR LIBG 111350Z 34014G25KT 300V360 9999 FEW040 10/01 Q1012",
      "tafHtml": "TAF LIBG 111100Z 1112/1121 32012KT 9999 SCT040 \n  PROB30 \n  TEMPO 1112/1115 32015G25KT"
    },
    {
      "icao": "LIBR",
      "iata": "BDS",
      "name": "Brindisi Airport",
      "updatedAt": "111350Z",
      "visibility_m": 10000,
      "taf_visibility_m": 10000,
      "worst_visibility_m": 10000,
      "ceiling_ft": null,
      "hazards": [],
      "severityScore": 0,
      "metarRaw": "METAR LIBR 111350Z 35021KT 9999 FEW045 10/00 Q1012",
      "tafRaw": "TAF LIBR 111100Z 1112/1212 34018G30KT 9999 SCT040 \n  BECMG 1210/1212 34018KT",
      "metarHtml": "METAR LIBR 111350Z 35021KT 9999 FEW045 10/00 Q1012",
      "tafHtml": "TAF LIBR 111100Z 1112/1212 34018G30KT 9999 SCT040 \n  BECMG 1210/1212 34018KT"
    },
    {
      "icao": "LICA",
      "iata": "SUF",
      "name": "Lamezia Terme Sant'Eufemia International Airport",
      "updatedAt": "111350Z",
      "visibility_m": 10000,
      "taf_visibility_m": 10000,
      "worst_visibility_m": 10000,
      "ceiling_ft": null,
      "hazards": [],
      "severityScore": 0,
      "metarRaw": "METAR LICA 111350Z AUTO 28009KT 9999 NCD 13/01 Q1013",
      "tafRaw": "TAF LICA 111100Z 1112/1212 28010KT 9999 FEW030 \n  BECMG 1117/1119 VRB05KT",
      "metarHtml": "METAR LICA 111350Z AUTO 28009KT 9999 NCD 13/01 Q1013",
      "tafHtml": "TAF LICA 111100Z 1112/1212 28010KT 9999 FEW030 \n  BECMG 1117/1119 VRB05KT"
    },
    {
      "icao": "LIMC",
      "iata": "MXP",
      "name": "Milan Malpensa International Airport",
      "updatedAt": "111350Z",
      "visibility_m": 10000,
      "taf_visibility_m": 10000,
      "worst_visibility_m": 10000,
      "ceiling_ft": null,
      "hazards": [],
      "severityScore": 0,
      "metarRaw": "METAR LIMC 111350Z 02005KT 320V070 CAVOK 12/M10 Q1018 NOSIG",
      "tafRaw": "TAF LIMC 111100Z 1112/1218 01006KT CAVOK",
      "metarHtml": "METAR LIMC 111350Z 02005KT 320V070 <span class=\"hl-vis\">CAVOK</span> 12/M10 Q1018 NOSIG",
      "tafHtml": "TAF LIMC 111100Z 1112/1218 01006KT <span class=\"hl-vis\">CAVOK</span>"
    },
    {
      "icao": "LIME",
      "iata": "BGY",
      "name": "Milan Bergamo Airport / Antonio Locatelli Air Base",
      "updatedAt": "111350Z",
      "visibility_m": 10000,
      "taf_visibility_m": 10000,
      "worst_visibility_m": 10000,
      "ceiling_ft": null,
      "hazards": [],
      "severityScore": 0,
      "metarRaw": "METAR LIME 111350Z 14005KT CAVOK 08/M06 Q1018 NOSIG",
      "tafRaw": "TAF LIME 111100Z 1112/1212 VRB05KT CAVOK",
      "metarHtml": "METAR LIME 111350Z 14005KT <span class=\"hl-vis\">CAVOK</span> 08/M06 Q1018 NOSIG",
      "tafHtml": "TAF LIME 111100Z 1112/1212 VRB05KT <span class=\"hl-vis\">CAVOK</span>"
    },
    {
      "icao": "LIMF",
      "iata": "TRN",
      "name": "Turin Airport",
      "updatedAt": "111350Z",
      "visibility_m": 10000,
      "taf_visibility_m": 10000,
      "worst_visibility_m": 10000,
      "ceiling_ft": null,
      "hazards": [],
      "severityScore": 0,
      "metarRaw": "METAR LIMF 111350Z VRB01KT CAVOK 11/M09 Q1019",
      "tafRaw": "TAF LIMF 111100Z 1112/1212 VRB05KT CAVOK",
      "metarHtml": "METAR LIMF 111350Z VRB01KT <span class=\"hl-vis\">CAVOK</span> 11/M09 Q1019",
      "tafHtml": "TAF LIMF 111100Z 1112/1212 VRB05KT <span class=\"hl-vis\">CAVOK</span>"
    },
    {
      "icao": "LIMJ",
      "iata": "GOA",
      "name": "Genoa Cristoforo Colombo Airport",
      "updatedAt": "111350Z",
      "visibility_m": 10000,
      "taf_visibility_m": 10000,
      "worst_visibility_m": 10000,
      "ceiling_ft": null,
      "hazards": [],
      "severityScore": 0,
      "metarRaw": "METAR LIMJ 111350Z 36011KT CAVOK 13/M12 Q1018",
      "tafRaw": "TAF LIMJ 111100Z 1112/1212 03012KT CAVOK \n  BECMG 1117/1119 VRB05KT",
      "metarHtml": "METAR LIMJ 111350Z 36011KT <span class=\"hl-vis\">CAVOK</span> 13/M12 Q1018",
      "tafHtml": "TAF LIMJ 111100Z 1112/1212 03012KT <span class=\"hl-vis\">CAVOK</span> \n  BECMG 1117/1119 VRB05KT"
    },
    {
      "icao": "LIPE",
      "iata": "BLQ",
      "name": "Bologna Guglielmo Marconi Airport",
      "updatedAt": "111350Z",
      "visibility_m": 10000,
      "taf_visibility_m": 10000,
      "worst_visibility_m": 10000,
      "ceiling_ft": null,
      "hazards": [],
      "severityScore": 0,
      "metarRaw": "METAR LIPE 111350Z 28007KT CAVOK 10/M03 Q1019",
      "tafRaw": "TAF LIPE 111100Z 1112/1212 VRB06KT CAVOK",
      "metarHtml": "METAR LIPE 111350Z 28007KT <span class=\"hl-vis\">CAVOK</span> 10/M03 Q1019",
      "tafHtml": "TAF LIPE 111100Z 1112/1212 VRB06KT <span class=\"hl-vis\">CAVOK</span>"
    },
    {
      "icao": "LIPH",
      "iata": "TSF",
      "name": "Treviso Antonio Canova Airport",
      "updatedAt": "111350Z",
      "visibility_m": 10000,
      "taf_visibility_m": 10000,
      "worst_visibility_m": 10000,
      "ceiling_ft": null,
      "hazards": [],
      "severityScore": 0,
      "metarRaw": "METAR LIPH 111350Z 16006KT 9999 FEW030 07/03 Q1019",
      "tafRaw": "TAF LIPH 111100Z 1112/1212 VRB05KT CAVOK",
      "metarHtml": "METAR LIPH 111350Z 16006KT 9999 FEW030 07/03 Q1019",
      "tafHtml": "TAF LIPH 111100Z 1112/1212 VRB05KT <span class=\"hl-vis\">CAVOK</span>"
    },
    {
      "icao": "LIPQ",
      "iata": "TRS",
      "name": "Trieste–Friuli Venezia Giulia Airport",
      "updatedAt": "111350Z",
      "visibility_m": 10000,
      "taf_visibility_m": 10000,
      "worst_visibility_m": 10000,
      "ceiling_ft": null,
      "hazards": [],
      "severityScore": 0,
      "metarRaw": "METAR LIPQ 111350Z AUTO 34005KT 9999 NCD 06/M04 Q1020",
      "tafRaw": "TAF LIPQ 111100Z 1112/1212 VRB05KT CAVOK",
      "metarHtml": "METAR LIPQ 111350Z AUTO 34005KT 9999 NCD 06/M04 Q1020",
      "tafHtml": "TAF LIPQ 111100Z 1112/1212 VRB05KT <span class=\"hl-vis\">CAVOK</span>"
    },
    {
      "icao": "LIPR",
      "iata": "RMI",
      "name": "Federico Fellini International Airport",
      "updatedAt": "111350Z",
      "visibility_m": 10000,
      "taf_visibility_m": 10000,
      "worst_visibility_m": 10000,
      "ceiling_ft": 3500,
      "hazards": [],
      "severityScore": 0,
      "metarRaw": "METAR LIPR 111350Z VRB02KT 9999 BKN035 07/M02 Q1020",
      "tafRaw": "TAF LIPR 111100Z 1112/1212 VRB05KT 9999 FEW040",
      "metarHtml": "METAR LIPR 111350Z VRB02KT 9999 BKN035 07/M02 Q1020",
      "tafHtml": "TAF LIPR 111100Z 1112/1212 VRB05KT 9999 FEW040"
    },
    {
      "icao": "LIPX",
      "iata": "VRN",
      "name": "Verona Villafranca Valerio Catullo Airport",
      "updatedAt": "111350Z",
      "visibility_m": 10000,
      "taf_visibility_m": 10000,
      "worst_visibility_m": 10000,
      "ceiling_ft": null,
      "hazards": [],
      "severityScore": 0,
      "metarRaw": "METAR LIPX 111350Z 14009KT CAVOK 10/M03 Q1018",
      "tafRaw": "TAF LIPX 111100Z 1112/1212 VRB05KT CAVOK",
      "metarHtml": "METAR LIPX 111350Z 14009KT <span class=\"hl-vis\">CAVOK</span> 10/M03 Q1018",
      "tafHtml": "TAF LIPX 111100Z 1112/1212 VRB05KT <span class=\"hl-vis\">CAVOK</span>"
    },
    {
      "icao": "LIPZ",
      "iata": "VCE",
      "name": "Venice Marco Polo Airport",
      "updatedAt": "111350Z",
      "visibility_m": 10000,
      "taf_visibility_m": 10000,
      "worst_visibility_m": 10000,
      "ceiling_ft": null,
      "hazards": [],
      "severityScore": 0,
      "metarRaw": "METAR LIPZ 111350Z 19005KT 9999 FEW025 08/02 Q1019 NOSIG",
      "tafRaw": "TAF LIPZ 111100Z 1112/1218 VRB06KT CAVOK",
      "metarHtml": "METAR LIPZ 111350Z 19005KT 9999 FEW025 08/02 Q1019 NOSIG",
      "tafHtml": "TAF LIPZ 111100Z 1112/1218 VRB06KT <span class=\"hl-vis\">CAVOK</span>"
    },
    {
      "icao": "LIRF",
      "iata": "FCO",
      "name": "Rome–Fiumicino Leonardo da Vinci International Airport",
      "updatedAt": "111350Z",
      "visibility_m": 10000,
      "taf_visibility_m": 10000,
      "worst_visibility_m": 10000,
      "ceiling_ft": null,
      "hazards": [],
      "severityScore": 0,
      "metarRaw": "METAR LIRF 111350Z 35010KT 330V040 CAVOK 12/M01 Q1016 NOSIG",
      "tafRaw": "TAF LIRF 111100Z 1112/1218 02009KT CAVOK \n  BECMG 1112/1114 01016KT \n  BECMG 1121/1123 03008KT \n  BECMG 1210/1212 12010KT",
      "metarHtml": "METAR LIRF 111350Z 35010KT 330V040 <span class=\"hl-vis\">CAVOK</span> 12/M01 Q1016 NOSIG",
      "tafHtml": "TAF LIRF 111100Z 1112/1218 02009KT <span class=\"hl-vis\">CAVOK</span> \n  BECMG 1112/1114 01016KT \n  BECMG 1121/1123 03008KT \n  BECMG 1210/1212 12010KT"
    },
    {
      "icao": "LIRN",
      "iata": "NAP",
      "name": "Naples International Airport",
      "updatedAt": "111350Z",
      "visibility_m": 10000,
      "taf_visibility_m": 10000,
      "worst_visibility_m": 10000,
      "ceiling_ft": null,
      "hazards": [],
      "severityScore": 0,
      "metarRaw": "METAR LIRN 111350Z 06009KT 030V090 CAVOK 10/M02 Q1015 NOSIG",
      "tafRaw": "TAF LIRN 111100Z 1112/1212 03012KT 9999 SCT030 \n  TEMPO 1113/1118 03015G25KT",
      "metarHtml": "METAR LIRN 111350Z 06009KT 030V090 <span class=\"hl-vis\">CAVOK</span> 10/M02 Q1015 NOSIG",
      "tafHtml": "TAF LIRN 111100Z 1112/1212 03012KT 9999 SCT030 \n  TEMPO 1113/1118 03015G25KT"
    },
    {
      "icao": "LIRP",
      "iata": "PSA",
      "name": "Pisa International Airport",
      "updatedAt": "111345Z",
      "visibility_m": 10000,
      "taf_visibility_m": 10000,
      "worst_visibility_m": 10000,
      "ceiling_ft": null,
      "hazards": [],
      "severityScore": 0,
      "metarRaw": "METAR LIRP 111345Z VRB02KT CAVOK 12/M03 Q1019 NOSIG",
      "tafRaw": "TAF LIRP 111100Z 1112/1212 12005KT CAVOK \n  BECMG 1202/1204 9999 SCT020 SCT070",
      "metarHtml": "METAR LIRP 111345Z VRB02KT <span class=\"hl-vis\">CAVOK</span> 12/M03 Q1019 NOSIG",
      "tafHtml": "TAF LIRP 111100Z 1112/1212 12005KT <span class=\"hl-vis\">CAVOK</span> \n  BECMG 1202/1204 9999 SCT020 SCT070"
    },
    {
      "icao": "LIRZ",
      "iata": "PEG",
      "name": "Perugia San Francesco d'Assisi – Umbria International Airport",
      "updatedAt": "111350Z",
      "visibility_m": 10000,
      "taf_visibility_m": 10000,
      "worst_visibility_m": 10000,
      "ceiling_ft": null,
      "hazards": [],
      "severityScore": 0,
      "metarRaw": "METAR LIRZ 111350Z AUTO 04013KT 9999 BKN076/// 08/M00 Q1018",
      "tafRaw": "TAF LIRZ 111100Z 1112/1212 02013KT 9999 FEW030 \n  BECMG 1118/1120 VRB05KT",
      "metarHtml": "METAR LIRZ 111350Z AUTO 04013KT 9999 BKN076/// 08/M00 Q1018",
      "tafHtml": "TAF LIRZ 111100Z 1112/1212 02013KT 9999 FEW030 \n  BECMG 1118/1120 VRB05KT"
    },
    {
      "icao": "LLBG",
      "iata": "TLV",
      "name": "Ben Gurion International Airport",
      "updatedAt": "111350Z",
      "visibility_m": 10000,
      "taf_visibility_m": 10000,
      "worst_visibility_m": 10000,
      "ceiling_ft": null,
      "hazards": [],
      "severityScore": 0,
      "metarRaw": "METAR LLBG 111350Z 27009KT CAVOK 19/10 Q1015 NOSIG",
      "tafRaw": "TAF LLBG 111116Z 1112/1212 25010KT CAVOK \n  BECMG 1115/1117 15006KT \n  BECMG 1202/1204 18012KT \n  BECMG 1206/1208 22016KT 9999 FEW030 \n  PROB40 \n  TEMPO 1210/1212 22016G30KT SCT030 TX21/1112Z TN12/1204Z",
      "metarHtml": "METAR LLBG 111350Z 27009KT <span class=\"hl-vis\">CAVOK</span> 19/10 Q1015 NOSIG",
      "tafHtml": "TAF LLBG 111116Z 1112/1212 25010KT <span class=\"hl-vis\">CAVOK</span> \n  BECMG 1115/1117 15006KT \n  BECMG 1202/1204 18012KT \n  BECMG 1206/1208 22016KT 9999 FEW030 \n  PROB40 \n  TEMPO 1210/1212 22016G30KT SCT030 TX21/1112Z TN12/1204Z"
    },
    {
      "icao": "LPMA",
      "iata": "FNC",
      "name": "Madeira International Airport Cristiano Ronaldo",
      "updatedAt": "111400Z",
      "visibility_m": 10000,
      "taf_visibility_m": 10000,
      "worst_visibility_m": 10000,
      "ceiling_ft": null,
      "hazards": [],
      "severityScore": 0,
      "metarRaw": "METAR LPMA 111400Z 04006KT 360V080 9999 FEW015 18/13 Q1026",
      "tafRaw": "TAF LPMA 111106Z 1112/1212 VRB05KT 9999 SCT015 \n  TEMPO 1112/1118 15007KT \n  BECMG 1206/1208 20010KT",
      "metarHtml": "METAR LPMA 111400Z 04006KT 360V080 9999 FEW015 18/13 Q1026",
      "tafHtml": "TAF LPMA 111106Z 1112/1212 VRB05KT 9999 SCT015 \n  TEMPO 1112/1118 15007KT \n  BECMG 1206/1208 20010KT"
    },
    {
      "icao": "LPPS",
      "iata": "PXO",
      "name": "Porto Santo Airport",
      "updatedAt": "111400Z",
      "visibility_m": 10000,
      "taf_visibility_m": 10000,
      "worst_visibility_m": 10000,
      "ceiling_ft": null,
      "hazards": [],
      "severityScore": 0,
      "metarRaw": "METAR LPPS 111400Z 13004KT 070V200 9999 SCT015 18/13 Q1026",
      "tafRaw": "TAF LPPS 111106Z 1112/1218 VRB05KT 9999 SCT015 \n  TEMPO 1112/1121 SCT012 BKN030 \n  BECMG 1114/1116 13007KT \n  BECMG 1119/1121 19005KT \n  BECMG 1209/1211 23012KT",
      "metarHtml": "METAR LPPS 111400Z 13004KT 070V200 9999 SCT015 18/13 Q1026",
      "tafHtml": "TAF LPPS 111106Z 1112/1218 VRB05KT 9999 SCT015 \n  TEMPO 1112/1121 SCT012 BKN030 \n  BECMG 1114/1116 13007KT \n  BECMG 1119/1121 19005KT \n  BECMG 1209/1211 23012KT"
    },
    {
      "icao": "LQBK",
      "iata": "BNX",
      "name": "Banja Luka International Airport",
      "updatedAt": "111400Z",
      "visibility_m": 10000,
      "taf_visibility_m": 10000,
      "worst_visibility_m": 10000,
      "ceiling_ft": null,
      "hazards": [],
      "severityScore": 0,
      "metarRaw": "METAR LQBK 111400Z VRB03KT CAVOK M00/M08 Q1020 NOSIG",
      "tafRaw": "TAF LQBK 111100Z 1112/1212 30006KT CAVOK TXM01/1112Z TNM12/1206Z",
      "metarHtml": "METAR LQBK 111400Z VRB03KT <span class=\"hl-vis\">CAVOK</span> M00/M08 Q1020 NOSIG",
      "tafHtml": "TAF LQBK 111100Z 1112/1212 30006KT <span class=\"hl-vis\">CAVOK</span> TXM01/1112Z TNM12/1206Z"
    },
    {
      "icao": "LQTZ",
      "iata": "TZL",
      "name": "Tuzla International Airport",
      "updatedAt": "111400Z",
      "visibility_m": 10000,
      "taf_visibility_m": 10000,
      "worst_visibility_m": 10000,
      "ceiling_ft": 4400,
      "hazards": [],
      "severityScore": 0,
      "metarRaw": "METAR LQTZ 111400Z 29007KT 9999 SCT036 BKN044 M02/M07 Q1019",
      "tafRaw": "TAF LQTZ 111100Z 1112/1212 34007KT 9999 BKN030 TXM02/1113Z TNM13/1206Z \n  TEMPO 1112/1124 28012KT",
      "metarHtml": "METAR LQTZ 111400Z 29007KT 9999 SCT036 BKN044 M02/M07 Q1019",
      "tafHtml": "TAF LQTZ 111100Z 1112/1212 34007KT 9999 BKN030 TXM02/1113Z TNM13/1206Z \n  TEMPO 1112/1124 28012KT"
    },
    {
      "icao": "LRIA",
      "iata": "IAS",
      "name": "Iaşi Airport",
      "updatedAt": "111400Z",
      "visibility_m": 10000,
      "taf_visibility_m": 10000,
      "worst_visibility_m": 10000,
      "ceiling_ft": null,
      "hazards": [],
      "severityScore": 0,
      "metarRaw": "METAR LRIA 111400Z 31006KT CAVOK M03/M09 Q1009",
      "tafRaw": "TAF LRIA 111100Z 1112/1121 30006KT CAVOK",
      "metarHtml": "METAR LRIA 111400Z 31006KT <span class=\"hl-vis\">CAVOK</span> M03/M09 Q1009",
      "tafHtml": "TAF LRIA 111100Z 1112/1121 30006KT <span class=\"hl-vis\">CAVOK</span>"
    },
    {
      "icao": "LRBC",
      "iata": "BCM",
      "name": "Bacău George Enescu International  Airport",
      "updatedAt": "111400Z",
      "visibility_m": 10000,
      "taf_visibility_m": 10000,
      "worst_visibility_m": 10000,
      "ceiling_ft": null,
      "hazards": [],
      "severityScore": 0,
      "metarRaw": "METAR LRBC 111400Z 00000KT CAVOK M02/M12 Q1009",
      "tafRaw": "TAF LRBC 111100Z 1112/1121 VRB04KT 9999 BKN045 \n  BECMG 1119/1121 26010KT",
      "metarHtml": "METAR LRBC 111400Z 00000KT <span class=\"hl-vis\">CAVOK</span> M02/M12 Q1009",
      "tafHtml": "TAF LRBC 111100Z 1112/1121 VRB04KT 9999 BKN045 \n  BECMG 1119/1121 26010KT"
    },
    {
      "icao": "LRCL",
      "iata": "CLJ",
      "name": "Cluj Avram Iancu International Airport",
      "updatedAt": "111400Z",
      "visibility_m": 10000,
      "taf_visibility_m": 10000,
      "worst_visibility_m": 10000,
      "ceiling_ft": 6100,
      "hazards": [],
      "severityScore": 0,
      "metarRaw": "METAR LRCL 111400Z COR 03003KT 330V070 9999 OVC061 M04/M09 Q1013",
      "tafRaw": "TAF LRCL 111100Z 1112/1121 30008KT CAVOK",
      "metarHtml": "METAR LRCL 111400Z COR 03003KT 330V070 9999 OVC061 M04/M09 Q1013",
      "tafHtml": "TAF LRCL 111100Z 1112/1121 30008KT <span class=\"hl-vis\">CAVOK</span>"
    },
    {
      "icao": "LRSV",
      "iata": "SCV",
      "name": "Suceava Stefan cel Mare Airport",
      "updatedAt": "111400Z",
      "visibility_m": 10000,
      "taf_visibility_m": 10000,
      "worst_visibility_m": 10000,
      "ceiling_ft": null,
      "hazards": [],
      "severityScore": 0,
      "metarRaw": "METAR LRSV 111400Z 25008KT CAVOK M03/M11 Q1006",
      "tafRaw": "TAF LRSV 111100Z 1112/1121 VRB04KT 9999 SCT040 \n  TEMPO 1114/1118 29012KT",
      "metarHtml": "METAR LRSV 111400Z 25008KT <span class=\"hl-vis\">CAVOK</span> M03/M11 Q1006",
      "tafHtml": "TAF LRSV 111100Z 1112/1121 VRB04KT 9999 SCT040 \n  TEMPO 1114/1118 29012KT"
    },
    {
      "icao": "LRTM",
      "iata": "TGM",
      "name": "Târgu Mureş Transilvania International Airport",
      "updatedAt": "111400Z",
      "visibility_m": 10000,
      "taf_visibility_m": 10000,
      "worst_visibility_m": 10000,
      "ceiling_ft": 4400,
      "hazards": [],
      "severityScore": 0,
      "metarRaw": "METAR LRTM 111400Z 07004KT 9999 FEW035 BKN044 M05/M10 Q1013",
      "tafRaw": "TAF LRTM 111100Z 1112/1121 VRB04KT CAVOK",
      "metarHtml": "METAR LRTM 111400Z 07004KT 9999 FEW035 BKN044 M05/M10 Q1013",
      "tafHtml": "TAF LRTM 111100Z 1112/1121 VRB04KT <span class=\"hl-vis\">CAVOK</span>"
    },
    {
      "icao": "LUKK",
      "iata": "RMO",
      "name": "Chişinău International Airport",
      "updatedAt": "111400Z",
      "visibility_m": 10000,
      "taf_visibility_m": 10000,
      "worst_visibility_m": 10000,
      "ceiling_ft": null,
      "hazards": [],
      "severityScore": 0,
      "metarRaw": "METAR LUKK 111400Z 34008KT CAVOK M04/M11 Q1009 NOSIG",
      "tafRaw": "TAF LUKK 111116Z 1112/1212 28009KT CAVOK",
      "metarHtml": "METAR LUKK 111400Z 34008KT <span class=\"hl-vis\">CAVOK</span> M04/M11 Q1009 NOSIG",
      "tafHtml": "TAF LUKK 111116Z 1112/1212 28009KT <span class=\"hl-vis\">CAVOK</span>"
    },
    {
      "icao": "LWOH",
      "iata": "OHD",
      "name": "Ohrid St. Paul the Apostle Airport",
      "updatedAt": "111350Z",
      "visibility_m": 10000,
      "taf_visibility_m": 10000,
      "worst_visibility_m": 10000,
      "ceiling_ft": 4000,
      "hazards": [],
      "severityScore": 0,
      "metarRaw": "METAR LWOH 111350Z 31008KT 280V360 9999 SCT015 BKN040 01/M02 Q1009",
      "tafRaw": "TAF LWOH 111140Z 1112/1212 36010KT 9999 SCT050 \n  TEMPO 1112/18 36016KT SCT010 BKN050",
      "metarHtml": "METAR LWOH 111350Z 31008KT 280V360 9999 SCT015 BKN040 01/M02 Q1009",
      "tafHtml": "TAF LWOH 111140Z 1112/1212 36010KT 9999 SCT050 \n  TEMPO 1112/18 36016KT SCT010 BKN050"
    },
    {
      "icao": "LWSK",
      "iata": "SKP",
      "name": "Skopje International Airport",
      "updatedAt": "111350Z",
      "visibility_m": 10000,
      "taf_visibility_m": 10000,
      "worst_visibility_m": 10000,
      "ceiling_ft": 4300,
      "hazards": [],
      "severityScore": 0,
      "metarRaw": "METAR LWSK 111350Z 36018KT 9999 SCT025 BKN043 BKN075 M00/M09 Q1014 NOSIG",
      "tafRaw": "TAF LWSK 111140Z 1112/1212 35015KT 9999 SCT025 OVC040 \n  TEMPO 1112/1118 01020G30KT SCT030 BKN060",
      "metarHtml": "METAR LWSK 111350Z 36018KT 9999 SCT025 BKN043 BKN075 M00/M09 Q1014 NOSIG",
      "tafHtml": "TAF LWSK 111140Z 1112/1212 35015KT 9999 SCT025 OVC040 \n  TEMPO 1112/1118 01020G30KT SCT030 BKN060"
    },
    {
      "icao": "LYBE",
      "iata": "BEG",
      "name": "Belgrade Nikola Tesla Airport",
      "updatedAt": "111400Z",
      "visibility_m": 10000,
      "taf_visibility_m": 10000,
      "worst_visibility_m": 10000,
      "ceiling_ft": null,
      "hazards": [],
      "severityScore": 0,
      "metarRaw": "METAR LYBE 111400Z 28012KT CAVOK M03/M06 Q1019 NOSIG",
      "tafRaw": "TAF LYBE 111100Z 1112/1212 28015KT 9999 BKN020 TXM02/1212Z TNM10/1206Z",
      "metarHtml": "METAR LYBE 111400Z 28012KT <span class=\"hl-vis\">CAVOK</span> M03/M06 Q1019 NOSIG",
      "tafHtml": "TAF LYBE 111100Z 1112/1212 28015KT 9999 BKN020 TXM02/1212Z TNM10/1206Z"
    },
    {
      "icao": "LYPG",
      "iata": "TGD",
      "name": "Podgorica Airport / Podgorica Golubovci Airbase",
      "updatedAt": "111400Z",
      "visibility_m": 10000,
      "taf_visibility_m": 10000,
      "worst_visibility_m": 10000,
      "ceiling_ft": null,
      "hazards": [],
      "severityScore": 0,
      "metarRaw": "METAR LYPG 111400Z 36022G33KT 9999 FEW040 05/M10 Q1013 NOSIG",
      "tafRaw": "TAF LYPG 111100Z 1112/1212 36015G25KT CAVOK TX08/1112Z TNM01/1205Z \n  TEMPO 1112/1120 02025G40KT \n  BECMG 1210/1212 36012KT",
      "metarHtml": "METAR LYPG 111400Z 36022G33KT 9999 FEW040 05/M10 Q1013 NOSIG",
      "tafHtml": "TAF LYPG 111100Z 1112/1212 36015G25KT <span class=\"hl-vis\">CAVOK</span> TX08/1112Z TNM01/1205Z \n  TEMPO 1112/1120 02025G40KT \n  BECMG 1210/1212 36012KT"
    },
    {
      "icao": "LZIB",
      "iata": "BTS",
      "name": "M. R. Štefánik Airport",
      "updatedAt": "111400Z",
      "visibility_m": 10000,
      "taf_visibility_m": 10000,
      "worst_visibility_m": 10000,
      "ceiling_ft": null,
      "hazards": [],
      "severityScore": 0,
      "metarRaw": "METAR LZIB 111400Z 30014KT 260V320 CAVOK M02/M10 Q1019 NOSIG",
      "tafRaw": "TAF LZIB 111115Z 1112/1212 29015KT 9999 SCT030 \n  TEMPO 1112/1116 31020G30KT BKN040 \n  PROB40 \n  TEMPO 1116/1202 31015G25KT \n  BECMG 1204/1206 22006KT",
      "metarHtml": "METAR LZIB 111400Z 30014KT 260V320 <span class=\"hl-vis\">CAVOK</span> M02/M10 Q1019 NOSIG",
      "tafHtml": "TAF LZIB 111115Z 1112/1212 29015KT 9999 SCT030 \n  TEMPO 1112/1116 31020G30KT BKN040 \n  PROB40 \n  TEMPO 1116/1202 31015G25KT \n  BECMG 1204/1206 22006KT"
    },
    {
      "icao": "LZKZ",
      "iata": "KSC",
      "name": "Košice International Airport",
      "updatedAt": "111400Z",
      "visibility_m": 10000,
      "taf_visibility_m": 10000,
      "worst_visibility_m": 10000,
      "ceiling_ft": 4800,
      "hazards": [],
      "severityScore": 0,
      "metarRaw": "METAR LZKZ 111400Z VRB02KT 9999 FEW040 BKN048 M06/M09 Q1012 NOSIG",
      "tafRaw": "TAF LZKZ 111115Z 1112/1212 23005KT 9999 SCT045",
      "metarHtml": "METAR LZKZ 111400Z VRB02KT 9999 FEW040 BKN048 M06/M09 Q1012 NOSIG",
      "tafHtml": "TAF LZKZ 111115Z 1112/1212 23005KT 9999 SCT045"
    },
    {
      "icao": "OEMA",
      "iata": "MED",
      "name": "Prince Mohammad Bin Abdulaziz Airport",
      "updatedAt": "111400Z",
      "visibility_m": 10000,
      "taf_visibility_m": 7000,
      "worst_visibility_m": 7000,
      "ceiling_ft": null,
      "hazards": [],
      "severityScore": 0,
      "metarRaw": "METAR OEMA 111400Z 08006KT CAVOK 25/01 Q1018 NOSIG",
      "tafRaw": "TAF OEMA 111100Z 1112/1218 12012KT 7000 NSC \n  BECMG 1210/1212 22014KT",
      "metarHtml": "METAR OEMA 111400Z 08006KT <span class=\"hl-vis\">CAVOK</span> 25/01 Q1018 NOSIG",
      "tafHtml": "TAF OEMA 111100Z 1112/1218 12012KT 7000 NSC \n  BECMG 1210/1212 22014KT"
    },
    {
      "icao": "OJAI",
      "iata": "AMM",
      "name": "Queen Alia International Airport",
      "updatedAt": "111400Z",
      "visibility_m": 5000,
      "taf_visibility_m": 2000,
      "worst_visibility_m": 2000,
      "ceiling_ft": null,
      "hazards": [],
      "severityScore": 0,
      "metarRaw": "METAR OJAI 111400Z 19007KT 5000 HZ NSC 16/05 Q1017 NOSIG",
      "tafRaw": "TAF OJAI 111047Z 1112/1218 24012KT 5000HZ \n  PROB30 1112/1117 15016KT 4000 \n  TEMPO 1209/1218 24025G35KT 2000 BLDU SCT030",
      "metarHtml": "METAR OJAI 111400Z 19007KT 5000 HZ NSC 16/05 Q1017 NOSIG",
      "tafHtml": "TAF OJAI 111047Z 1112/1218 24012KT 5000HZ \n  PROB30 1112/1117 15016KT 4000 \n  TEMPO 1209/1218 24025G35KT 2000 BLDU SCT030"
    },
    {
      "icao": "OMAA",
      "iata": "AUH",
      "name": "Zayed International Airport",
      "updatedAt": "111400Z",
      "visibility_m": 10000,
      "taf_visibility_m": 4000,
      "worst_visibility_m": 4000,
      "ceiling_ft": null,
      "hazards": [],
      "severityScore": 0,
      "metarRaw": "METAR OMAA 111400Z 32010KT 290V010 CAVOK 22/13 Q1020 NOSIG",
      "tafRaw": "TAF OMAA 111100Z 1112/1218 33012KT 8000 NSC \n  BECMG 1116/1118 VRB02KT \n  PROB30 1200/1205 4000 HZ \n  BECMG 1210/1212 34012KT",
      "metarHtml": "METAR OMAA 111400Z 32010KT 290V010 <span class=\"hl-vis\">CAVOK</span> 22/13 Q1020 NOSIG",
      "tafHtml": "TAF OMAA 111100Z 1112/1218 33012KT 8000 NSC \n  BECMG 1116/1118 VRB02KT \n  PROB30 1200/1205 4000 HZ \n  BECMG 1210/1212 34012KT"
    },
    {
      "icao": "OMDB",
      "iata": "DXB",
      "name": "Dubai International Airport",
      "updatedAt": "111400Z",
      "visibility_m": 10000,
      "taf_visibility_m": 4000,
      "worst_visibility_m": 4000,
      "ceiling_ft": null,
      "hazards": [],
      "severityScore": 0,
      "metarRaw": "METAR OMDB 111400Z 33008KT CAVOK 23/12 Q1020 NOSIG",
      "tafRaw": "TAF OMDB 111100Z 1112/1218 30010KT 8000 NSC \n  BECMG 1117/1119 14005KT \n  PROB30 1201/1206 4000 HZ \n  BECMG 1208/1210 31010KT \n  BECMG 1217/1218 12005KT",
      "metarHtml": "METAR OMDB 111400Z 33008KT <span class=\"hl-vis\">CAVOK</span> 23/12 Q1020 NOSIG",
      "tafHtml": "TAF OMDB 111100Z 1112/1218 30010KT 8000 NSC \n  BECMG 1117/1119 14005KT \n  PROB30 1201/1206 4000 HZ \n  BECMG 1208/1210 31010KT \n  BECMG 1217/1218 12005KT"
    },
    {
      "icao": "UBBB",
      "iata": "GYD",
      "name": "Heydar Aliyev International Airport",
      "updatedAt": "111400Z",
      "visibility_m": 10000,
      "taf_visibility_m": 10000,
      "worst_visibility_m": 10000,
      "ceiling_ft": null,
      "hazards": [],
      "severityScore": 0,
      "metarRaw": "METAR UBBB 111400Z 19018G30KT CAVOK 11/M01 Q1011 NOSIG",
      "tafRaw": "TAF UBBB 111054Z 1112/1212 19024G34KT 9999 SCT030 TX11/1112Z TN05/1202Z \n  TEMPO 1112/1124 22032G42KT SCT010 \n  TEMPO 1200/1207 22030G40KT SCT006 \n  TEMPO 1207/1212 21026G36KT",
      "metarHtml": "METAR UBBB 111400Z 19018G30KT <span class=\"hl-vis\">CAVOK</span> 11/M01 Q1011 NOSIG",
      "tafHtml": "TAF UBBB 111054Z 1112/1212 19024G34KT 9999 SCT030 TX11/1112Z TN05/1202Z \n  TEMPO 1112/1124 22032G42KT SCT010 \n  TEMPO 1200/1207 22030G40KT SCT006 \n  TEMPO 1207/1212 21026G36KT"
    },
    {
      "icao": "UGKO",
      "iata": "KUT",
      "name": "David the Builder Kutaisi International Airport",
      "updatedAt": "111400Z",
      "visibility_m": 10000,
      "taf_visibility_m": 10000,
      "worst_visibility_m": 10000,
      "ceiling_ft": null,
      "hazards": [],
      "severityScore": 0,
      "metarRaw": "METAR UGKO 111400Z 08019KT CAVOK 13/M03 Q1010 NOSIG",
      "tafRaw": "TAF UGKO 111100Z 1112/1212 08012KT CAVOK TX14/1212Z TN09/1202Z \n  TEMPO 1112/1123 08022G33KT \n  TEMPO 1201/1212 BKN070",
      "metarHtml": "METAR UGKO 111400Z 08019KT <span class=\"hl-vis\">CAVOK</span> 13/M03 Q1010 NOSIG",
      "tafHtml": "TAF UGKO 111100Z 1112/1212 08012KT <span class=\"hl-vis\">CAVOK</span> TX14/1212Z TN09/1202Z \n  TEMPO 1112/1123 08022G33KT \n  TEMPO 1201/1212 BKN070"
    }
  ],
  "stats": {
    "icaoCount": 159,
    "metarReturned": 158,
    "tafReturned": 145,
    "stationsWritten": 159,
    "missingMetar": 1,
    "missingTaf": 14
  },
  "errors": []
}