{
  "generatedAt": "2026-01-05T15:58:00.911Z",
  "stations": [
    {
      "icao": "EBCI",
      "iata": "CRL",
      "name": "Brussels South Charleroi Airport",
      "updatedAt": "051550Z",
      "visibility_m": 5000,
      "taf_visibility_m": 400,
      "worst_visibility_m": 400,
      "ceiling_ft": 1200,
      "hazards": [
        "SN",
        "FZFG",
        "BR",
        "SHSN"
      ],
      "severityScore": 100,
      "metarRaw": "METAR EBCI 051550Z 22009KT 5000 -SN SCT008 BKN012 M02/M03 Q1011 BECMG 7000 NSW BKN013",
      "tafRaw": "TAF EBCI 051116Z 0512/0618 22009KT 9999 SCT005 BKN011 \n  TEMPO 0512/0515 1800 SHSN SN BKN003 BKN010CB \n  PROB30 \n  TEMPO 0522/0601 1800 SHSN BKN004 BKN010TCU \n  TEMPO 0600/0609 3000 BR BKN003 \n  PROB30 \n  TEMPO 0603/0608 0400 FZFG BKN002 \n  BECMG 0609/0612 SCT010 BKN018",
      "metarHtml": "METAR EBCI 051550Z 22009KT 5000 -<span class=\"hl\">SN</span> SCT008 BKN012 M02/M03 Q1011 BECMG 7000 NSW BKN013",
      "tafHtml": "TAF EBCI 051116Z 0512/0618 22009KT 9999 SCT005 BKN011 \n  TEMPO 0512/0515 1800 <span class=\"hl\">SHSN</span> <span class=\"hl\">SN</span> BKN003 BKN010CB \n  PROB30 \n  TEMPO 0522/0601 1800 <span class=\"hl\">SHSN</span> BKN004 BKN010TCU \n  TEMPO 0600/0609 3000 <span class=\"hl\">BR</span> BKN003 \n  PROB30 \n  TEMPO 0603/0608 <span class=\"hl-vis\">0400</span> <span class=\"hl\">FZFG</span> BKN002 \n  BECMG 0609/0612 SCT010 BKN018"
    },
    {
      "icao": "LFPO",
      "iata": "ORY",
      "name": "Paris-Orly Airport",
      "updatedAt": "051530Z",
      "visibility_m": 500,
      "taf_visibility_m": 500,
      "worst_visibility_m": 500,
      "ceiling_ft": 500,
      "hazards": [
        "FG",
        "SN",
        "BR"
      ],
      "severityScore": 100,
      "metarRaw": "METAR LFPO 051530Z AUTO 21005KT 180V240 1100 0800 R02/1700D R25/1600U R07/1400D R24/1500U R06/1500U SN BCFG BKN005 BKN010 OVC016 M01/M02 Q1013 TEMPO 0500 FG",
      "tafRaw": "TAF LFPO 051100Z 0512/0618 22005KT 4000 BR OVC003 \n  TEMPO 0513/0519 -SN BKN006 \n  PROB40 \n  TEMPO 0514/0517 1500 SN BKN004 \n  PROB30 \n  TEMPO 0514/0517 0500 FG BKN002 \n  BECMG 0519/0521 6000 NSW BKN006 \n  PROB40 \n  TEMPO 0520/0602 4000 BR BKN003 \n  TEMPO 0602/0610 SCT012 \n  BECMG 0610/0612 CAVOK",
      "metarHtml": "METAR LFPO 051530Z AUTO 21005KT 180V240 1100 <span class=\"hl-vis\">0800</span> R02/1700D R25/1600U R07/1400D R24/1500U R06/1500U <span class=\"hl\">SN</span> BCFG BKN005 BKN010 OVC016 M01/M02 Q1013 TEMPO <span class=\"hl-vis\">0500</span> <span class=\"hl\">FG</span>",
      "tafHtml": "TAF LFPO 051100Z 0512/0618 22005KT 4000 <span class=\"hl\">BR</span> OVC003 \n  TEMPO 0513/0519 -<span class=\"hl\">SN</span> BKN006 \n  PROB40 \n  TEMPO 0514/0517 1500 <span class=\"hl\">SN</span> BKN004 \n  PROB30 \n  TEMPO 0514/0517 <span class=\"hl-vis\">0500</span> <span class=\"hl\">FG</span> BKN002 \n  BECMG 0519/0521 6000 NSW BKN006 \n  PROB40 \n  TEMPO 0520/0602 4000 <span class=\"hl\">BR</span> BKN003 \n  TEMPO 0602/0610 SCT012 \n  BECMG 0610/0612 <span class=\"hl-vis\">CAVOK</span>"
    },
    {
      "icao": "LRBS",
      "iata": "BBU",
      "name": "Bucharest Băneasa Aurel Vlaicu International Airport",
      "updatedAt": "051530Z",
      "visibility_m": 5000,
      "taf_visibility_m": 300,
      "worst_visibility_m": 300,
      "ceiling_ft": 300,
      "hazards": [
        "BR",
        "RA",
        "FZFG",
        "FG",
        "FZDZ"
      ],
      "severityScore": 100,
      "metarRaw": "METAR LRBS 051530Z 05010KT 5000 -RA BR OVC003 00/00 Q1016 NOSIG",
      "tafRaw": "TAF LRBS 051100Z 0512/0612 05010KT 1500 -RA BR OVC002 \n  PROB30 \n  TEMPO 0512/0514 3000 BKN005 OVC020 \n  BECMG 0514/0516 0600 FG OVC001 \n  BECMG 0518/0520 VRB04KT 0300 FG \n  PROB30 \n  TEMPO 0603/0606 0600 -FZDZ FZFG OVC002 \n  BECMG 0607/0609 0800 OVC002 \n  BECMG 0610/0612 3000 BR OVC005",
      "metarHtml": "METAR LRBS 051530Z 05010KT 5000 -<span class=\"hl\">RA</span> <span class=\"hl\">BR</span> OVC003 00/00 Q1016 NOSIG",
      "tafHtml": "TAF LRBS 051100Z 0512/0612 05010KT 1500 -<span class=\"hl\">RA</span> <span class=\"hl\">BR</span> OVC002 \n  PROB30 \n  TEMPO 0512/0514 3000 BKN005 OVC020 \n  BECMG 0514/0516 <span class=\"hl-vis\">0600</span> <span class=\"hl\">FG</span> OVC001 \n  BECMG 0518/0520 VRB04KT <span class=\"hl-vis\">0300</span> <span class=\"hl\">FG</span> \n  PROB30 \n  TEMPO 0603/0606 <span class=\"hl-vis\">0600</span> -<span class=\"hl\">FZDZ</span> <span class=\"hl\">FZFG</span> OVC002 \n  BECMG 0607/0609 <span class=\"hl-vis\">0800</span> OVC002 \n  BECMG 0610/0612 3000 <span class=\"hl\">BR</span> OVC005"
    },
    {
      "icao": "LRCV",
      "iata": "CRA",
      "name": "Craiova International Airport",
      "updatedAt": "051530Z",
      "visibility_m": 10000,
      "taf_visibility_m": 300,
      "worst_visibility_m": 300,
      "ceiling_ft": 400,
      "hazards": [
        "RA",
        "FG",
        "BR",
        "DZ"
      ],
      "severityScore": 100,
      "metarRaw": "METAR LRCV 051530Z 08008KT 9999 -RA BKN004 OVC008 01/01 Q1015",
      "tafRaw": "TAF LRCV 051400Z 0515/0524 08010KT 7000 -RA BKN005 OVC020 \n  BECMG 0516/0518 3000 -DZ BR OVC002 \n  BECMG 0519/0521 0600 FG OVC001 \n  TEMPO 0521/0524 0300 FG",
      "metarHtml": "METAR LRCV 051530Z 08008KT 9999 -<span class=\"hl\">RA</span> BKN004 OVC008 01/01 Q1015",
      "tafHtml": "TAF LRCV 051400Z 0515/0524 08010KT 7000 -<span class=\"hl\">RA</span> BKN005 OVC020 \n  BECMG 0516/0518 3000 -<span class=\"hl\">DZ</span> <span class=\"hl\">BR</span> OVC002 \n  BECMG 0519/0521 <span class=\"hl-vis\">0600</span> <span class=\"hl\">FG</span> OVC001 \n  TEMPO 0521/0524 <span class=\"hl-vis\">0300</span> <span class=\"hl\">FG</span>"
    },
    {
      "icao": "LROP",
      "iata": "OTP",
      "name": "Bucharest Henri Coandă International Airport",
      "updatedAt": "051530Z",
      "visibility_m": 10000,
      "taf_visibility_m": 300,
      "worst_visibility_m": 300,
      "ceiling_ft": 400,
      "hazards": [
        "RA",
        "FZFG",
        "FG",
        "BR",
        "FZDZ",
        "DZ"
      ],
      "severityScore": 100,
      "metarRaw": "METAR LROP 051530Z 06013KT 9999 -RA OVC004 01/01 Q1016 NOSIG",
      "tafRaw": "TAF LROP 051100Z 0512/0612 05010KT 3000 -RA BR OVC005 \n  PROB40 \n  TEMPO 0512/0515 5000 \n  BECMG 0515/0517 1500 -DZ BR OVC002 \n  BECMG 0519/0521 VRB04KT 0600 FG OVC001 \n  BECMG 0521/0523 0300 FG \n  PROB30 \n  TEMPO 0603/0606 0600 -FZDZ FZFG OVC002 \n  BECMG 0607/0609 0800 OVC002 \n  BECMG 0610/0612 3000 BR OVC005",
      "metarHtml": "METAR LROP 051530Z 06013KT 9999 -<span class=\"hl\">RA</span> OVC004 01/01 Q1016 NOSIG",
      "tafHtml": "TAF LROP 051100Z 0512/0612 05010KT 3000 -<span class=\"hl\">RA</span> <span class=\"hl\">BR</span> OVC005 \n  PROB40 \n  TEMPO 0512/0515 5000 \n  BECMG 0515/0517 1500 -<span class=\"hl\">DZ</span> <span class=\"hl\">BR</span> OVC002 \n  BECMG 0519/0521 VRB04KT <span class=\"hl-vis\">0600</span> <span class=\"hl\">FG</span> OVC001 \n  BECMG 0521/0523 <span class=\"hl-vis\">0300</span> <span class=\"hl\">FG</span> \n  PROB30 \n  TEMPO 0603/0606 <span class=\"hl-vis\">0600</span> -<span class=\"hl\">FZDZ</span> <span class=\"hl\">FZFG</span> OVC002 \n  BECMG 0607/0609 <span class=\"hl-vis\">0800</span> OVC002 \n  BECMG 0610/0612 3000 <span class=\"hl\">BR</span> OVC005"
    },
    {
      "icao": "LRSV",
      "iata": "SCV",
      "name": "Suceava Stefan cel Mare Airport",
      "updatedAt": "051530Z",
      "visibility_m": 400,
      "taf_visibility_m": null,
      "worst_visibility_m": 400,
      "ceiling_ft": 100,
      "hazards": [
        "FG",
        "SN"
      ],
      "severityScore": 100,
      "metarRaw": "METAR LRSV 051530Z 11010KT 0400 R34/1700D -SN FG DRSN VV001 M03/M03 Q1015",
      "tafRaw": null,
      "metarHtml": "METAR LRSV 051530Z 11010KT <span class=\"hl-vis\">0400</span> R34/1700D -<span class=\"hl\">SN</span> <span class=\"hl\">FG</span> DRSN VV001 M03/M03 Q1015",
      "tafHtml": null
    },
    {
      "icao": "LRTR",
      "iata": "TSR",
      "name": "Timişoara Traian Vuia Airport",
      "updatedAt": "051530Z",
      "visibility_m": 10000,
      "taf_visibility_m": 800,
      "worst_visibility_m": 800,
      "ceiling_ft": 3000,
      "hazards": [
        "RA",
        "FZFG",
        "BR",
        "FZDZ",
        "DZ"
      ],
      "severityScore": 100,
      "metarRaw": "METAR LRTR 051530Z 07006KT 9999 -RA BKN030 OVC045 01/01 Q1009",
      "tafRaw": "TAF LRTR 051100Z 0512/0612 03008KT 5000 -RA BR BKN005 OVC025 \n  TEMPO 0514/0522 7000 -RA SCT010 OVC035 \n  BECMG 0522/0524 1500 -DZ BR \n  PROB40 \n  TEMPO 0602/0606 0800 -FZDZ FZFG BKN002 OVC020 \n  BECMG 0607/0609 26010KT 3000 BKN010 OVC040 \n  PROB40 \n  TEMPO 0609/0612 -FZDZ",
      "metarHtml": "METAR LRTR 051530Z 07006KT 9999 -<span class=\"hl\">RA</span> BKN030 OVC045 01/01 Q1009",
      "tafHtml": "TAF LRTR 051100Z 0512/0612 03008KT 5000 -<span class=\"hl\">RA</span> <span class=\"hl\">BR</span> BKN005 OVC025 \n  TEMPO 0514/0522 7000 -<span class=\"hl\">RA</span> SCT010 OVC035 \n  BECMG 0522/0524 1500 -<span class=\"hl\">DZ</span> <span class=\"hl\">BR</span> \n  PROB40 \n  TEMPO 0602/0606 <span class=\"hl-vis\">0800</span> -<span class=\"hl\">FZDZ</span> <span class=\"hl\">FZFG</span> BKN002 OVC020 \n  BECMG 0607/0609 26010KT 3000 BKN010 OVC040 \n  PROB40 \n  TEMPO 0609/0612 -<span class=\"hl\">FZDZ</span>"
    },
    {
      "icao": "LUKK",
      "iata": "RMO",
      "name": "Chişinău International Airport",
      "updatedAt": "051530Z",
      "visibility_m": 1000,
      "taf_visibility_m": 300,
      "worst_visibility_m": 300,
      "ceiling_ft": 400,
      "hazards": [
        "SN",
        "FG",
        "BR",
        "FZRA",
        "DZ"
      ],
      "severityScore": 100,
      "metarRaw": "METAR LUKK 051530Z 09009KT 4500 SN OVC004 M01/M01 Q1020 TEMPO 1000 SN",
      "tafRaw": "TAF LUKK 051110Z 0512/0612 11008KT 4000 SN BKN012 \n  TEMPO 0512/0517 1000 BKN005 \n  BECMG 0517/0519 5000 -FZRA BR BKN009 \n  TEMPO 0519/0523 2000 FZRA BR BKN005 \n  BECMG 0523/0601 0300 DZ FG VV///",
      "metarHtml": "METAR LUKK 051530Z 09009KT 4500 <span class=\"hl\">SN</span> OVC004 M01/M01 Q1020 TEMPO 1000 <span class=\"hl\">SN</span>",
      "tafHtml": "TAF LUKK 051110Z 0512/0612 11008KT 4000 <span class=\"hl\">SN</span> BKN012 \n  TEMPO 0512/0517 1000 BKN005 \n  BECMG 0517/0519 5000 -<span class=\"hl\">FZRA</span> <span class=\"hl\">BR</span> BKN009 \n  TEMPO 0519/0523 2000 <span class=\"hl\">FZRA</span> <span class=\"hl\">BR</span> BKN005 \n  BECMG 0523/0601 <span class=\"hl-vis\">0300</span> <span class=\"hl\">DZ</span> <span class=\"hl\">FG</span> VV///"
    },
    {
      "icao": "LYBE",
      "iata": "BEG",
      "name": "Belgrade Nikola Tesla Airport",
      "updatedAt": "051530Z",
      "visibility_m": 2000,
      "taf_visibility_m": 2500,
      "worst_visibility_m": 2000,
      "ceiling_ft": 300,
      "hazards": [
        "BR",
        "RA",
        "FZRA",
        "SN"
      ],
      "severityScore": 100,
      "metarRaw": "METAR LYBE 051530Z 29005KT 2000 -RA BR BKN003 BKN025 00/M00 Q1010 NOSIG",
      "tafRaw": "TAF LYBE 051100Z 0512/0612 27005KT 5000 BR SCT010 BKN025 TX01/0512Z TNM02/0606Z \n  TEMPO 0513/0518 3000 BKN005 BKN020 \n  TEMPO 0518/0601 3000 FZRA BKN004 BKN022 \n  TEMPO 0603/0612 2500 -SN BKN003 OVC020",
      "metarHtml": "METAR LYBE 051530Z 29005KT 2000 -<span class=\"hl\">RA</span> <span class=\"hl\">BR</span> BKN003 BKN025 00/M00 Q1010 NOSIG",
      "tafHtml": "TAF LYBE 051100Z 0512/0612 27005KT 5000 <span class=\"hl\">BR</span> SCT010 BKN025 TX01/0512Z TNM02/0606Z \n  TEMPO 0513/0518 3000 BKN005 BKN020 \n  TEMPO 0518/0601 3000 <span class=\"hl\">FZRA</span> BKN004 BKN022 \n  TEMPO 0603/0612 2500 -<span class=\"hl\">SN</span> BKN003 OVC020"
    },
    {
      "icao": "LFOB",
      "iata": "BVA",
      "name": "Beauvais Tillé airport",
      "updatedAt": "051530Z",
      "visibility_m": 900,
      "taf_visibility_m": null,
      "worst_visibility_m": 900,
      "ceiling_ft": 600,
      "hazards": [
        "FZFG",
        "BR",
        "SN"
      ],
      "severityScore": 98,
      "metarRaw": "METAR LFOB 051530Z AUTO VRB02KT 5000 -SN BR BKN006 BKN010 BKN054 M00/M01 Q1012 TEMPO 0900 SN FZFG BKN007 BKN014TCU",
      "tafRaw": null,
      "metarHtml": "METAR LFOB 051530Z AUTO VRB02KT 5000 -<span class=\"hl\">SN</span> <span class=\"hl\">BR</span> BKN006 BKN010 BKN054 M00/M01 Q1012 TEMPO 0900 <span class=\"hl\">SN</span> <span class=\"hl\">FZFG</span> BKN007 BKN014TCU",
      "tafHtml": null
    },
    {
      "icao": "LRCL",
      "iata": "CLJ",
      "name": "Cluj Avram Iancu International Airport",
      "updatedAt": "051530Z",
      "visibility_m": 10000,
      "taf_visibility_m": 5000,
      "worst_visibility_m": 5000,
      "ceiling_ft": 900,
      "hazards": [
        "SN",
        "BR",
        "FZRA",
        "DZ"
      ],
      "severityScore": 98,
      "metarRaw": "METAR LRCL 051530Z 07006KT 9999 -SN BKN009 OVC054 00/M01 Q1011",
      "tafRaw": "TAF LRCL 051400Z 0515/0524 VRB04KT 7000 -RASN BKN010 OVC030 \n  TEMPO 0515/0518 -FZRA BKN005 OVC025 \n  BECMG 0518/0520 5000 -DZ BR BKN005 OVC025",
      "metarHtml": "METAR LRCL 051530Z 07006KT 9999 -<span class=\"hl\">SN</span> BKN009 OVC054 00/M01 Q1011",
      "tafHtml": "TAF LRCL 051400Z 0515/0524 VRB04KT 7000 -RASN BKN010 OVC030 \n  TEMPO 0515/0518 -<span class=\"hl\">FZRA</span> BKN005 OVC025 \n  BECMG 0518/0520 5000 -<span class=\"hl\">DZ</span> <span class=\"hl\">BR</span> BKN005 OVC025"
    },
    {
      "icao": "UAAA",
      "iata": "ALA",
      "name": "Almaty International Airport",
      "updatedAt": "051530Z",
      "visibility_m": 5000,
      "taf_visibility_m": 300,
      "worst_visibility_m": 300,
      "ceiling_ft": 1000,
      "hazards": [
        "BR",
        "FZFG"
      ],
      "severityScore": 97,
      "metarRaw": "METAR UAAA 051530Z 05002MPS 5000 BR OVC010 00/M02 Q1038 NOSIG",
      "tafRaw": "TAF UAAA 051108Z 0512/0612 22002MPS 1200 BR FU BKN011 OVC030 TX01/0609Z TNM03/0602Z \n  TEMPO 0512/0514 3100 BKN005 OVC020 \n  TEMPO 0514/0602 0300 FZFG VV002 \n  FM060400 04003MPS 6000 SCT030 BKN100",
      "metarHtml": "METAR UAAA 051530Z 05002MPS 5000 <span class=\"hl\">BR</span> OVC010 00/M02 Q1038 NOSIG",
      "tafHtml": "TAF UAAA 051108Z 0512/0612 22002MPS 1200 <span class=\"hl\">BR</span> FU BKN011 OVC030 TX01/0609Z TNM03/0602Z \n  TEMPO 0512/0514 3100 BKN005 OVC020 \n  TEMPO 0514/0602 <span class=\"hl-vis\">0300</span> <span class=\"hl\">FZFG</span> VV002 \n  FM060400 04003MPS 6000 SCT030 BKN100"
    },
    {
      "icao": "EPMO",
      "iata": "WMI",
      "name": "Modlin Airport",
      "updatedAt": "051530Z",
      "visibility_m": 10000,
      "taf_visibility_m": 100,
      "worst_visibility_m": 100,
      "ceiling_ft": null,
      "hazards": [
        "FZFG",
        "BR"
      ],
      "severityScore": 95,
      "metarRaw": "METAR EPMO 051530Z 14004KT CAVOK M03/M06 Q1015",
      "tafRaw": "TAF EPMO 051130Z 0512/0612 14005KT CAVOK \n  TEMPO 0518/0521 3000 BR \n  BECMG 0521/0524 0400 FZFG \n  TEMPO 0523/0610 0100 FZFG BKN001 \n  BECMG 0610/0612 2000 BR BKN003",
      "metarHtml": "METAR EPMO 051530Z 14004KT <span class=\"hl-vis\">CAVOK</span> M03/M06 Q1015",
      "tafHtml": "TAF EPMO 051130Z 0512/0612 14005KT <span class=\"hl-vis\">CAVOK</span> \n  TEMPO 0518/0521 3000 <span class=\"hl\">BR</span> \n  BECMG 0521/0524 <span class=\"hl-vis\">0400</span> <span class=\"hl\">FZFG</span> \n  TEMPO 0523/0610 <span class=\"hl-vis\">0100</span> <span class=\"hl\">FZFG</span> BKN001 \n  BECMG 0610/0612 2000 <span class=\"hl\">BR</span> BKN003"
    },
    {
      "icao": "EPPO",
      "iata": "POZ",
      "name": "Poznań-Ławica Airport",
      "updatedAt": "051530Z",
      "visibility_m": 10000,
      "taf_visibility_m": 100,
      "worst_visibility_m": 100,
      "ceiling_ft": null,
      "hazards": [
        "FZFG",
        "BR"
      ],
      "severityScore": 95,
      "metarRaw": "METAR EPPO 051530Z 15004KT CAVOK M03/M07 Q1013",
      "tafRaw": "TAF EPPO 051130Z 0512/0612 20006KT CAVOK \n  BECMG 0516/0518 3000 BR \n  BECMG 0521/0524 0400 FZFG OVC001 \n  TEMPO 0600/0607 0100 FZFG \n  BECMG 0607/0610 CAVOK",
      "metarHtml": "METAR EPPO 051530Z 15004KT <span class=\"hl-vis\">CAVOK</span> M03/M07 Q1013",
      "tafHtml": "TAF EPPO 051130Z 0512/0612 20006KT <span class=\"hl-vis\">CAVOK</span> \n  BECMG 0516/0518 3000 <span class=\"hl\">BR</span> \n  BECMG 0521/0524 <span class=\"hl-vis\">0400</span> <span class=\"hl\">FZFG</span> OVC001 \n  TEMPO 0600/0607 <span class=\"hl-vis\">0100</span> <span class=\"hl\">FZFG</span> \n  BECMG 0607/0610 <span class=\"hl-vis\">CAVOK</span>"
    },
    {
      "icao": "EPWA",
      "iata": "WAW",
      "name": "Warsaw Chopin Airport",
      "updatedAt": "051530Z",
      "visibility_m": 10000,
      "taf_visibility_m": 100,
      "worst_visibility_m": 100,
      "ceiling_ft": null,
      "hazards": [
        "FZFG",
        "BR"
      ],
      "severityScore": 95,
      "metarRaw": "METAR EPWA 051530Z 13005KT CAVOK M04/M07 Q1016 NOSIG",
      "tafRaw": "TAF EPWA 051430Z 0515/0615 12005KT CAVOK \n  TEMPO 0518/0523 3000 BR \n  BECMG 0523/0602 0400 FZFG \n  TEMPO 0600/0609 0100 FZFG BKN001 \n  BECMG 0609/0612 28010KT 6000 BKN004",
      "metarHtml": "METAR EPWA 051530Z 13005KT <span class=\"hl-vis\">CAVOK</span> M04/M07 Q1016 NOSIG",
      "tafHtml": "TAF EPWA 051430Z 0515/0615 12005KT <span class=\"hl-vis\">CAVOK</span> \n  TEMPO 0518/0523 3000 <span class=\"hl\">BR</span> \n  BECMG 0523/0602 <span class=\"hl-vis\">0400</span> <span class=\"hl\">FZFG</span> \n  TEMPO 0600/0609 <span class=\"hl-vis\">0100</span> <span class=\"hl\">FZFG</span> BKN001 \n  BECMG 0609/0612 28010KT 6000 BKN004"
    },
    {
      "icao": "LRSB",
      "iata": "SBZ",
      "name": "Sibiu International Airport",
      "updatedAt": "051530Z",
      "visibility_m": 6000,
      "taf_visibility_m": 600,
      "worst_visibility_m": 600,
      "ceiling_ft": 7500,
      "hazards": [
        "FZFG",
        "BR",
        "FZDZ"
      ],
      "severityScore": 93,
      "metarRaw": "METAR LRSB 051530Z 27003KT 6000 SCT008 BKN075 M01/M01 Q1010",
      "tafRaw": "TAF LRSB 051100Z 0512/0612 VRB04KT 9999 BKN005 BKN025 \n  BECMG 0517/0519 1500 BR BKN005 BKN025 \n  TEMPO 0521/0523 0600 FZFG VV001 \n  PROB30 \n  TEMPO 0600/0605 -FZDZ \n  BECMG 0607/0609 5000 BKN010 BKN030",
      "metarHtml": "METAR LRSB 051530Z 27003KT 6000 SCT008 BKN075 M01/M01 Q1010",
      "tafHtml": "TAF LRSB 051100Z 0512/0612 VRB04KT 9999 BKN005 BKN025 \n  BECMG 0517/0519 1500 <span class=\"hl\">BR</span> BKN005 BKN025 \n  TEMPO 0521/0523 <span class=\"hl-vis\">0600</span> <span class=\"hl\">FZFG</span> VV001 \n  PROB30 \n  TEMPO <span class=\"hl-vis\">0600</span>/0605 -<span class=\"hl\">FZDZ</span> \n  BECMG 0607/0609 5000 BKN010 BKN030"
    },
    {
      "icao": "LHDC",
      "iata": "DEB",
      "name": "Debrecen International Airport",
      "updatedAt": "051515Z",
      "visibility_m": 8000,
      "taf_visibility_m": 800,
      "worst_visibility_m": 800,
      "ceiling_ft": 1900,
      "hazards": [
        "FZRA",
        "SN"
      ],
      "severityScore": 90,
      "metarRaw": "METAR LHDC 051515Z AUTO 05008KT 8000 -FZRA OVC019 M00/M01 Q1011 NOSIG",
      "tafRaw": "TAF LHDC 051415Z 0515/0524 06009KT 6000 -SN SCT008 OVC025 \n  TEMPO 0515/0524 0800 SN BKN002 OVC015 \n  PROB30 \n  TEMPO 0515/0522 2500 FZRA BKN005 OVC020",
      "metarHtml": "METAR LHDC 051515Z AUTO 05008KT 8000 -<span class=\"hl\">FZRA</span> OVC019 M00/M01 Q1011 NOSIG",
      "tafHtml": "TAF LHDC 051415Z 0515/0524 06009KT 6000 -<span class=\"hl\">SN</span> SCT008 OVC025 \n  TEMPO 0515/0524 <span class=\"hl-vis\">0800</span> <span class=\"hl\">SN</span> BKN002 OVC015 \n  PROB30 \n  TEMPO 0515/0522 2500 <span class=\"hl\">FZRA</span> BKN005 OVC020"
    },
    {
      "icao": "LQBK",
      "iata": "BNX",
      "name": "Banja Luka International Airport",
      "updatedAt": "051530Z",
      "visibility_m": 10000,
      "taf_visibility_m": 1200,
      "worst_visibility_m": 1200,
      "ceiling_ft": 1000,
      "hazards": [
        "FZRA",
        "BR",
        "SN"
      ],
      "severityScore": 85,
      "metarRaw": "METAR LQBK 051530Z 33002KT 9999 -FZRA SCT004 OVC010 M00/M01 Q1010 NOSIG",
      "tafRaw": "TAF LQBK 051100Z 0512/0612 33005KT 7000 BKN007 OVC013 TXM00/0513Z TNM03/0605Z \n  TEMPO 0512/0523 3000 -SN BR BKN004 OVC010 \n  PROB40 \n  TEMPO 0605/0612 1200 SN BKN002 OVC007",
      "metarHtml": "METAR LQBK 051530Z 33002KT 9999 -<span class=\"hl\">FZRA</span> SCT004 OVC010 M00/M01 Q1010 NOSIG",
      "tafHtml": "TAF LQBK 051100Z 0512/0612 33005KT 7000 BKN007 OVC013 TXM00/0513Z TNM03/0605Z \n  TEMPO 0512/0523 3000 -<span class=\"hl\">SN</span> <span class=\"hl\">BR</span> BKN004 OVC010 \n  PROB40 \n  TEMPO 0605/0612 1200 <span class=\"hl\">SN</span> BKN002 OVC007"
    },
    {
      "icao": "ESMS",
      "iata": "MMX",
      "name": "Malmö Sturup Airport",
      "updatedAt": "051550Z",
      "visibility_m": 600,
      "taf_visibility_m": 1000,
      "worst_visibility_m": 600,
      "ceiling_ft": 500,
      "hazards": [
        "SN",
        "SHSN"
      ],
      "severityScore": 78,
      "metarRaw": "METAR ESMS 051550Z VRB02KT 0600 R17/P2000N R35/P2000N SN VV005 M01/M01 Q1009",
      "tafRaw": "TAF ESMS 051427Z 0515/0615 18004KT 9999 BKN030 \n  TEMPO 0515/0613 1000 SHSN BKN006 SCT020CB \n  TEMPO 0613/0615 BKN012",
      "metarHtml": "METAR ESMS 051550Z VRB02KT <span class=\"hl-vis\">0600</span> R17/P2000N R35/P2000N <span class=\"hl\">SN</span> VV005 M01/M01 Q1009",
      "tafHtml": "TAF ESMS 051427Z 0515/0615 18004KT 9999 BKN030 \n  TEMPO 0515/0613 1000 <span class=\"hl\">SHSN</span> BKN006 SCT020CB \n  TEMPO 0613/0615 BKN012"
    },
    {
      "icao": "EPSY",
      "iata": "SZY",
      "name": "Olsztyn-Mazury Airport",
      "updatedAt": "051530Z",
      "visibility_m": 6000,
      "taf_visibility_m": 500,
      "worst_visibility_m": 500,
      "ceiling_ft": null,
      "hazards": [
        "FZFG",
        "BR"
      ],
      "severityScore": 75,
      "metarRaw": "METAR EPSY 051530Z 16005KT 6000 NSC M04/M05 Q1015",
      "tafRaw": "TAF EPSY 051430Z 0515/0524 19008KT 7000 SCT010 \n  PROB40 \n  TEMPO 0515/0517 3000 BR BKN010 \n  BECMG 0517/0520 2000 BR BKN004 \n  TEMPO 0520/0524 0500 FZFG OVC001",
      "metarHtml": "METAR EPSY 051530Z 16005KT 6000 NSC M04/M05 Q1015",
      "tafHtml": "TAF EPSY 051430Z 0515/0524 19008KT 7000 SCT010 \n  PROB40 \n  TEMPO 0515/0517 3000 <span class=\"hl\">BR</span> BKN010 \n  BECMG 0517/0520 2000 <span class=\"hl\">BR</span> BKN004 \n  TEMPO 0520/0524 <span class=\"hl-vis\">0500</span> <span class=\"hl\">FZFG</span> OVC001"
    },
    {
      "icao": "EDDK",
      "iata": "CGN",
      "name": "Cologne Bonn Airport",
      "updatedAt": "051550Z",
      "visibility_m": 1500,
      "taf_visibility_m": 2000,
      "worst_visibility_m": 1500,
      "ceiling_ft": 800,
      "hazards": [
        "BR",
        "SN",
        "SHSN"
      ],
      "severityScore": 73,
      "metarRaw": "METAR EDDK 051550Z AUTO 16009KT 3700 -SN BR FEW020 BKN027 M01/M04 Q1011 TEMPO 1500 SN BKN008",
      "tafRaw": "TAF EDDK 051100Z 0512/0618 16005KT 9999 BKN035 \n  TEMPO 0512/0519 2500 SHSN BKN010TCU \n  TEMPO 0522/0611 BKN010 \n  PROB40 \n  TEMPO 0522/0605 2000 -SN BKN007 \n  BECMG 0601/0604 25004KT \n  PROB30 \n  TEMPO 0605/0610 3000 BR BKN005",
      "metarHtml": "METAR EDDK 051550Z AUTO 16009KT 3700 -<span class=\"hl\">SN</span> <span class=\"hl\">BR</span> FEW020 BKN027 M01/M04 Q1011 TEMPO 1500 <span class=\"hl\">SN</span> BKN008",
      "tafHtml": "TAF EDDK 051100Z 0512/0618 16005KT 9999 BKN035 \n  TEMPO 0512/0519 2500 <span class=\"hl\">SHSN</span> BKN010TCU \n  TEMPO 0522/0611 BKN010 \n  PROB40 \n  TEMPO 0522/0605 2000 -<span class=\"hl\">SN</span> BKN007 \n  BECMG 0601/0604 25004KT \n  PROB30 \n  TEMPO 0605/0610 3000 <span class=\"hl\">BR</span> BKN005"
    },
    {
      "icao": "LFBD",
      "iata": "BOD",
      "name": "Bordeaux–Mérignac Airport",
      "updatedAt": "051530Z",
      "visibility_m": 10000,
      "taf_visibility_m": 500,
      "worst_visibility_m": 500,
      "ceiling_ft": null,
      "hazards": [
        "FG",
        "SN"
      ],
      "severityScore": 73,
      "metarRaw": "METAR LFBD 051530Z AUTO VRB02KT CAVOK 06/M05 Q1015 NOSIG",
      "tafRaw": "TAF LFBD 051100Z 0512/0618 VRB03KT CAVOK TX05/0514Z TNM02/0601Z \n  BECMG 0519/0521 19010KT \n  BECMG 0602/0604 03010KT \n  TEMPO 0603/0611 BKN010 \n  PROB40 \n  TEMPO 0604/0610 1500 -SN BKN004 \n  PROB30 \n  TEMPO 0602/0609 0500 FG VV///",
      "metarHtml": "METAR LFBD 051530Z AUTO VRB02KT <span class=\"hl-vis\">CAVOK</span> 06/M05 Q1015 NOSIG",
      "tafHtml": "TAF LFBD 051100Z 0512/0618 VRB03KT <span class=\"hl-vis\">CAVOK</span> TX05/0514Z TNM02/0601Z \n  BECMG 0519/0521 19010KT \n  BECMG 0602/0604 03010KT \n  TEMPO 0603/0611 BKN010 \n  PROB40 \n  TEMPO 0604/0610 1500 -<span class=\"hl\">SN</span> BKN004 \n  PROB30 \n  TEMPO 0602/0609 <span class=\"hl-vis\">0500</span> <span class=\"hl\">FG</span> VV///"
    },
    {
      "icao": "LRIA",
      "iata": "IAS",
      "name": "Iaşi Airport",
      "updatedAt": "051530Z",
      "visibility_m": 1500,
      "taf_visibility_m": 1500,
      "worst_visibility_m": 1500,
      "ceiling_ft": 100,
      "hazards": [
        "SN",
        "BR"
      ],
      "severityScore": 73,
      "metarRaw": "METAR LRIA 051530Z 09006KT 1500 -SN BKN001 OVC012 M01/M01 Q1019",
      "tafRaw": "TAF LRIA 051400Z 0515/0524 10008KT 3000 -SN BKN002 OVC020 \n  TEMPO 0515/0518 1500 SN \n  BECMG 0519/0521 5000 BKN005 OVC020 \n  BECMG 0522/0524 3000 BR",
      "metarHtml": "METAR LRIA 051530Z 09006KT 1500 -<span class=\"hl\">SN</span> BKN001 OVC012 M01/M01 Q1019",
      "tafHtml": "TAF LRIA 051400Z 0515/0524 10008KT 3000 -<span class=\"hl\">SN</span> BKN002 OVC020 \n  TEMPO 0515/0518 1500 <span class=\"hl\">SN</span> \n  BECMG 0519/0521 5000 BKN005 OVC020 \n  BECMG 0522/0524 3000 <span class=\"hl\">BR</span>"
    },
    {
      "icao": "EYPA",
      "iata": "PLQ",
      "name": "Palanga International Airport",
      "updatedAt": "051550Z",
      "visibility_m": 10000,
      "taf_visibility_m": 800,
      "worst_visibility_m": 800,
      "ceiling_ft": 1900,
      "hazards": [
        "TS",
        "SHSN"
      ],
      "severityScore": 72,
      "metarRaw": "METAR EYPA 051550Z VRB02KT 9999 BKN019 M04/M05 Q1014",
      "tafRaw": "TAF EYPA 051107Z 0512/0612 VRB04KT 9000 SCT005 OVC015 \n  TEMPO 0512/0515 BKN012CB \n  TEMPO 0515/0521 0800 +SHSN BKN005 BKN012CB \n  PROB40 \n  TEMPO 0515/0518 TS \n  BECMG 0521/0522 16012KT \n  TEMPO 0523/0606 SCT010 SCT020 \n  TEMPO 0609/0612 BKN015CB",
      "metarHtml": "METAR EYPA 051550Z VRB02KT 9999 BKN019 M04/M05 Q1014",
      "tafHtml": "TAF EYPA 051107Z 0512/0612 VRB04KT 9000 SCT005 OVC015 \n  TEMPO 0512/0515 BKN012CB \n  TEMPO 0515/0521 <span class=\"hl-vis\">0800</span> +<span class=\"hl\">SHSN</span> BKN005 BKN012CB \n  PROB40 \n  TEMPO 0515/0518 <span class=\"hl\">TS</span> \n  BECMG 0521/0522 16012KT \n  TEMPO 0523/0606 SCT010 SCT020 \n  TEMPO 0609/0612 BKN015CB"
    },
    {
      "icao": "EDFH",
      "iata": "HHN",
      "name": "Frankfurt-Hahn Airport",
      "updatedAt": "051550Z",
      "visibility_m": 10000,
      "taf_visibility_m": 400,
      "worst_visibility_m": 400,
      "ceiling_ft": 1000,
      "hazards": [
        "SN"
      ],
      "severityScore": 65,
      "metarRaw": "METAR EDFH 051550Z 20007KT 9999 BKN010 M04/M06 Q1010",
      "tafRaw": "TAF EDFH 051100Z 0512/0612 26010KT 9999 BKN005 \n  TEMPO 0512/0517 BKN002 \n  TEMPO 0517/0609 1200 -SN BKN002 \n  PROB30 \n  TEMPO 0518/0603 0400 SN BKN001 \n  TEMPO 0610/0612 BKN010",
      "metarHtml": "METAR EDFH 051550Z 20007KT 9999 BKN010 M04/M06 Q1010",
      "tafHtml": "TAF EDFH 051100Z 0512/0612 26010KT 9999 BKN005 \n  TEMPO 0512/0517 BKN002 \n  TEMPO 0517/0609 1200 -<span class=\"hl\">SN</span> BKN002 \n  PROB30 \n  TEMPO 0518/0603 <span class=\"hl-vis\">0400</span> <span class=\"hl\">SN</span> BKN001 \n  TEMPO 0610/0612 BKN010"
    },
    {
      "icao": "HESX",
      "iata": "SPX",
      "name": "Sphinx International Airport",
      "updatedAt": "051500Z",
      "visibility_m": 10000,
      "taf_visibility_m": 300,
      "worst_visibility_m": 300,
      "ceiling_ft": null,
      "hazards": [
        "FG"
      ],
      "severityScore": 65,
      "metarRaw": "METAR HESX 051500Z 23004KT CAVOK 18/02 Q1018 NOSIG",
      "tafRaw": "TAF HESX 051100Z 0512/0618 26006KT CAVOK \n  TEMPO 0600/0608 VRB03KT 2000 HZ NSC \n  PROB40 \n  TEMPO 0602/0606 0300 FG \n  BECMG 0612/0614 03007KT 9999 SCT025",
      "metarHtml": "METAR HESX 051500Z 23004KT <span class=\"hl-vis\">CAVOK</span> 18/02 Q1018 NOSIG",
      "tafHtml": "TAF HESX 051100Z 0512/0618 26006KT <span class=\"hl-vis\">CAVOK</span> \n  TEMPO 0600/0608 VRB03KT 2000 HZ NSC \n  PROB40 \n  TEMPO 0602/0606 <span class=\"hl-vis\">0300</span> <span class=\"hl\">FG</span> \n  BECMG 0612/0614 03007KT 9999 SCT025"
    },
    {
      "icao": "LRTM",
      "iata": "TGM",
      "name": "Târgu Mureş Transilvania International Airport",
      "updatedAt": "051530Z",
      "visibility_m": 2500,
      "taf_visibility_m": 1500,
      "worst_visibility_m": 1500,
      "ceiling_ft": 2800,
      "hazards": [
        "BR",
        "FZRA",
        "DZ"
      ],
      "severityScore": 65,
      "metarRaw": "METAR LRTM 051530Z 25002KT 2500 -FZRA BR FEW004 SCT015 BKN028 M00/M01 Q1012",
      "tafRaw": "TAF LRTM 051400Z 0515/0524 VRB04KT 3000 -RASN BR BKN010 OVC025 \n  TEMPO 0515/0518 -FZRA BR BKN005 OVC020 \n  BECMG 0518/0520 1500 -DZ BR OVC002",
      "metarHtml": "METAR LRTM 051530Z 25002KT 2500 -<span class=\"hl\">FZRA</span> <span class=\"hl\">BR</span> FEW004 SCT015 BKN028 M00/M01 Q1012",
      "tafHtml": "TAF LRTM 051400Z 0515/0524 VRB04KT 3000 -RASN <span class=\"hl\">BR</span> BKN010 OVC025 \n  TEMPO 0515/0518 -<span class=\"hl\">FZRA</span> <span class=\"hl\">BR</span> BKN005 OVC020 \n  BECMG 0518/0520 1500 -<span class=\"hl\">DZ</span> <span class=\"hl\">BR</span> OVC002"
    },
    {
      "icao": "EGPD",
      "iata": "ABZ",
      "name": "Aberdeen International Airport",
      "updatedAt": "051550Z",
      "visibility_m": 4000,
      "taf_visibility_m": 500,
      "worst_visibility_m": 500,
      "ceiling_ft": null,
      "hazards": [
        "SHSN",
        "SN"
      ],
      "severityScore": 63,
      "metarRaw": "METAR EGPD 051550Z AUTO 26005KT 9999 NCD M02/M03 Q1014 TEMPO 4000 SHSN",
      "tafRaw": "TAF EGPD 051054Z 0512/0612 30010KT 9999 FEW012 \n  TEMPO 0512/0516 1800 SHSN BKN009CB \n  PROB30 \n  TEMPO 0512/0516 32015G25KT 0500 +SHSN SHGS VV/// \n  PROB30 \n  TEMPO 0516/0518 4000 -SHSN BKN014 \n  BECMG 0603/0606 19004KT \n  TEMPO 0603/0612 4000 -SN BKN012 \n  PROB30 \n  TEMPO 0604/0611 1400 SN BKN004",
      "metarHtml": "METAR EGPD 051550Z AUTO 26005KT 9999 NCD M02/M03 Q1014 TEMPO 4000 <span class=\"hl\">SHSN</span>",
      "tafHtml": "TAF EGPD 051054Z 0512/0612 30010KT 9999 FEW012 \n  TEMPO 0512/0516 1800 <span class=\"hl\">SHSN</span> BKN009CB \n  PROB30 \n  TEMPO 0512/0516 32015G25KT <span class=\"hl-vis\">0500</span> +<span class=\"hl\">SHSN</span> SHGS VV/// \n  PROB30 \n  TEMPO 0516/0518 4000 -<span class=\"hl\">SHSN</span> BKN014 \n  BECMG 0603/0606 19004KT \n  TEMPO 0603/0612 4000 -<span class=\"hl\">SN</span> BKN012 \n  PROB30 \n  TEMPO 0604/0611 1400 <span class=\"hl\">SN</span> BKN004"
    },
    {
      "icao": "ENHD",
      "iata": "HAU",
      "name": "Haugesund Airport, Karmøy",
      "updatedAt": "051550Z",
      "visibility_m": 1000,
      "taf_visibility_m": 1200,
      "worst_visibility_m": 1000,
      "ceiling_ft": 900,
      "hazards": [
        "SN",
        "SHSN"
      ],
      "severityScore": 63,
      "metarRaw": "METAR ENHD 051550Z 10012KT 1000 R13/P2000N R31/P2000N SN VV009 M03/M04 Q1009",
      "tafRaw": "TAF ENHD 051400Z 0515/0523 11015KT 9999 -SHSN FEW015CB BKN025 \n  TEMPO 0515/0521 1200 SHSNGS VV009",
      "metarHtml": "METAR ENHD 051550Z 10012KT 1000 R13/P2000N R31/P2000N <span class=\"hl\">SN</span> VV009 M03/M04 Q1009",
      "tafHtml": "TAF ENHD 051400Z 0515/0523 11015KT 9999 -<span class=\"hl\">SHSN</span> FEW015CB BKN025 \n  TEMPO 0515/0521 1200 SHSNGS VV009"
    },
    {
      "icao": "EYVI",
      "iata": "VNO",
      "name": "Vilnius International Airport",
      "updatedAt": "051550Z",
      "visibility_m": 10000,
      "taf_visibility_m": 1500,
      "worst_visibility_m": 1500,
      "ceiling_ft": 1800,
      "hazards": [
        "BR",
        "SN",
        "SHSN"
      ],
      "severityScore": 60,
      "metarRaw": "METAR EYVI 051550Z 19011KT 9999 OVC018 M03/M05 Q1015 NOSIG",
      "tafRaw": "TAF EYVI 051100Z 0512/0612 20010KT 8000 BKN015 \n  TEMPO 0512/0516 3000 SHSN BKN010 BKN020CB \n  TEMPO 0516/0518 VRB04KT SCT015 \n  BECMG 0518/0519 VRB04KT SCT015 \n  TEMPO 0519/0605 3000 BR SCT005 BKN010 \n  BECMG 0605/0607 12010KT \n  BECMG 0607/0609 5000 SN BR \n  TEMPO 0609/0612 1500 BKN005",
      "metarHtml": "METAR EYVI 051550Z 19011KT 9999 OVC018 M03/M05 Q1015 NOSIG",
      "tafHtml": "TAF EYVI 051100Z 0512/0612 20010KT 8000 BKN015 \n  TEMPO 0512/0516 3000 <span class=\"hl\">SHSN</span> BKN010 BKN020CB \n  TEMPO 0516/0518 VRB04KT SCT015 \n  BECMG 0518/0519 VRB04KT SCT015 \n  TEMPO 0519/0605 3000 <span class=\"hl\">BR</span> SCT005 BKN010 \n  BECMG 0605/0607 12010KT \n  BECMG 0607/0609 5000 <span class=\"hl\">SN</span> <span class=\"hl\">BR</span> \n  TEMPO 0609/0612 1500 BKN005"
    },
    {
      "icao": "LHBP",
      "iata": "BUD",
      "name": "Budapest Liszt Ferenc International Airport",
      "updatedAt": "051530Z",
      "visibility_m": 2000,
      "taf_visibility_m": 1200,
      "worst_visibility_m": 1200,
      "ceiling_ft": 600,
      "hazards": [
        "SN"
      ],
      "severityScore": 53,
      "metarRaw": "METAR LHBP 051530Z 05006KT 020V080 2000 SN BKN006 OVC011 M01/M02 Q1011 NOSIG",
      "tafRaw": "TAF LHBP 051115Z 0512/0612 06007KT CAVOK \n  BECMG 0512/0514 5000 -SN BKN015 OVC030 \n  TEMPO 0514/0601 1200 SN BKN004 OVC020 \n  BECMG 0517/0520 34006KT \n  BECMG 0603/0606 9999 NSW BKN030 \n  BECMG 0606/0609 CAVOK",
      "metarHtml": "METAR LHBP 051530Z 05006KT 020V080 2000 <span class=\"hl\">SN</span> BKN006 OVC011 M01/M02 Q1011 NOSIG",
      "tafHtml": "TAF LHBP 051115Z 0512/0612 06007KT <span class=\"hl-vis\">CAVOK</span> \n  BECMG 0512/0514 5000 -<span class=\"hl\">SN</span> BKN015 OVC030 \n  TEMPO 0514/0601 1200 <span class=\"hl\">SN</span> BKN004 OVC020 \n  BECMG 0517/0520 34006KT \n  BECMG 0603/0606 9999 NSW BKN030 \n  BECMG 0606/0609 <span class=\"hl-vis\">CAVOK</span>"
    },
    {
      "icao": "LQSA",
      "iata": "SJJ",
      "name": "Sarajevo International Airport",
      "updatedAt": "051530Z",
      "visibility_m": 4500,
      "taf_visibility_m": null,
      "worst_visibility_m": 4500,
      "ceiling_ft": 1000,
      "hazards": [
        "FZRA"
      ],
      "severityScore": 52,
      "metarRaw": "METAR LQSA 051530Z VRB02KT 4500 -FZRA FEW004 BKN010 BKN040 M00/M00 Q1006 NOSIG",
      "tafRaw": null,
      "metarHtml": "METAR LQSA 051530Z VRB02KT 4500 -<span class=\"hl\">FZRA</span> FEW004 BKN010 BKN040 M00/M00 Q1006 NOSIG",
      "tafHtml": null
    },
    {
      "icao": "LIBD",
      "iata": "BRI",
      "name": "Bari Karol Wojtyła International Airport",
      "updatedAt": "051550Z",
      "visibility_m": 8000,
      "taf_visibility_m": 4000,
      "worst_visibility_m": 4000,
      "ceiling_ft": null,
      "hazards": [
        "RA",
        "TSRA",
        "SHRA"
      ],
      "severityScore": 51,
      "metarRaw": "METAR LIBD 051550Z 13012KT 8000 -RA SCT040 16/12 Q1003",
      "tafRaw": "TAF LIBD 051100Z 0512/0612 15008KT 9999 FEW040 \n  PROB30 \n  TEMPO 0512/0516 4000 TSRA BKN010 \n  BECMG 0515/0517 29010KT \n  PROB30 \n  TEMPO 0516/0520 4000 SHRA \n  BECMG 0522/0524 VRB05KT \n  BECMG 0608/0610 10010KT",
      "metarHtml": "METAR LIBD 051550Z 13012KT 8000 -<span class=\"hl\">RA</span> SCT040 16/12 Q1003",
      "tafHtml": "TAF LIBD 051100Z 0512/0612 15008KT 9999 FEW040 \n  PROB30 \n  TEMPO 0512/0516 4000 <span class=\"hl\">TSRA</span> BKN010 \n  BECMG 0515/0517 29010KT \n  PROB30 \n  TEMPO 0516/0520 4000 <span class=\"hl\">SHRA</span> \n  BECMG 0522/0524 VRB05KT \n  BECMG 0608/0610 10010KT"
    },
    {
      "icao": "LIBR",
      "iata": "BDS",
      "name": "Brindisi Airport",
      "updatedAt": "051550Z",
      "visibility_m": 4000,
      "taf_visibility_m": 4000,
      "worst_visibility_m": 4000,
      "ceiling_ft": null,
      "hazards": [
        "BR",
        "TSRA",
        "SHRA"
      ],
      "severityScore": 49,
      "metarRaw": "METAR LIBR 051550Z 19013KT 4000 BR FEW015 SCT025 15/13 Q1005",
      "tafRaw": "TAF LIBR 051100Z 0512/0612 17015KT 9999 SCT020 \n  TEMPO 0512/0517 18018G28KT 4000 TSRA BKN010 \n  TEMPO 0517/0521 4000 SHRA BKN010 \n  BECMG 0521/0523 35007KT",
      "metarHtml": "METAR LIBR 051550Z 19013KT 4000 <span class=\"hl\">BR</span> FEW015 SCT025 15/13 Q1005",
      "tafHtml": "TAF LIBR 051100Z 0512/0612 17015KT 9999 SCT020 \n  TEMPO 0512/0517 18018G28KT 4000 <span class=\"hl\">TSRA</span> BKN010 \n  TEMPO 0517/0521 4000 <span class=\"hl\">SHRA</span> BKN010 \n  BECMG 0521/0523 35007KT"
    },
    {
      "icao": "EHBK",
      "iata": "MST",
      "name": "Maastricht Aachen Airport",
      "updatedAt": "051555Z",
      "visibility_m": 10000,
      "taf_visibility_m": 1200,
      "worst_visibility_m": 1200,
      "ceiling_ft": null,
      "hazards": [
        "SN",
        "BR",
        "SHSN"
      ],
      "severityScore": 48,
      "metarRaw": "METAR EHBK 051555Z AUTO 23010KT 9999 -SN FEW005/// SCT007/// BKN008/// M02/M02 Q1011 NOSIG",
      "tafRaw": "TAF EHBK 051119Z 0512/0618 21012KT 9999 BKN025 \n  PROB40 \n  TEMPO 0514/0517 2500 -SHSN BKN005 SCT015CB \n  PROB30 \n  TEMPO 0521/0604 2500 -SHSN BKN005 SCT015CB \n  BECMG 0522/0601 25005KT 4000 BR BKN004 \n  PROB30 0602/0608 1200 BKN002 \n  BECMG 0608/0611 CAVOK \n  BECMG 0615/0618 21010KT",
      "metarHtml": "METAR EHBK 051555Z AUTO 23010KT 9999 -<span class=\"hl\">SN</span> FEW005/// SCT007/// BKN008/// M02/M02 Q1011 NOSIG",
      "tafHtml": "TAF EHBK 051119Z 0512/0618 21012KT 9999 BKN025 \n  PROB40 \n  TEMPO 0514/0517 2500 -<span class=\"hl\">SHSN</span> BKN005 SCT015CB \n  PROB30 \n  TEMPO 0521/0604 2500 -<span class=\"hl\">SHSN</span> BKN005 SCT015CB \n  BECMG 0522/0601 25005KT 4000 <span class=\"hl\">BR</span> BKN004 \n  PROB30 0602/0608 1200 BKN002 \n  BECMG 0608/0611 <span class=\"hl-vis\">CAVOK</span> \n  BECMG 0615/0618 21010KT"
    },
    {
      "icao": "EHEH",
      "iata": "EIN",
      "name": "Eindhoven Airport",
      "updatedAt": "051525Z",
      "visibility_m": 8000,
      "taf_visibility_m": 600,
      "worst_visibility_m": 600,
      "ceiling_ft": null,
      "hazards": [
        "BR",
        "SHSN"
      ],
      "severityScore": 45,
      "metarRaw": "METAR EHEH 051525Z AUTO 22008KT 210V270 8000 BR FEW007 M01/M02 Q1010 BLU BECMG FEW010 RMK TREND REMOTE BY EHWX",
      "tafRaw": "TAF EHEH 051121Z 0512/0618 21008KT 9999 BKN012 \n  TEMPO 0512/0514 0600 SHSN SCT003 BKN005 SCT015CB \n  BECMG 0513/0515 CAVOK \n  PROB40 \n  TEMPO 0518/0521 0600 SHSN SCT003 BKN005 SCT015CB \n  TEMPO 0520/0603 SCT008 BKN010 \n  PROB40 \n  TEMPO 0521/0603 SCT003 BKN005 \n  PROB40 \n  TEMPO 0609/0611 1500 -SHSN SCT004 BKN006 SCT015CB",
      "metarHtml": "METAR EHEH 051525Z AUTO 22008KT 210V270 8000 <span class=\"hl\">BR</span> FEW007 M01/M02 Q1010 BLU BECMG FEW010 RMK TREND REMOTE BY EHWX",
      "tafHtml": "TAF EHEH 051121Z 0512/0618 21008KT 9999 BKN012 \n  TEMPO 0512/0514 <span class=\"hl-vis\">0600</span> <span class=\"hl\">SHSN</span> SCT003 BKN005 SCT015CB \n  BECMG 0513/0515 <span class=\"hl-vis\">CAVOK</span> \n  PROB40 \n  TEMPO 0518/0521 <span class=\"hl-vis\">0600</span> <span class=\"hl\">SHSN</span> SCT003 BKN005 SCT015CB \n  TEMPO 0520/0603 SCT008 BKN010 \n  PROB40 \n  TEMPO 0521/0603 SCT003 BKN005 \n  PROB40 \n  TEMPO 0609/0611 1500 -<span class=\"hl\">SHSN</span> SCT004 BKN006 SCT015CB"
    },
    {
      "icao": "ENZV",
      "iata": "SVG",
      "name": "Stavanger Airport, Sola",
      "updatedAt": "051550Z",
      "visibility_m": 1000,
      "taf_visibility_m": null,
      "worst_visibility_m": 1000,
      "ceiling_ft": 1200,
      "hazards": [
        "SN"
      ],
      "severityScore": 45,
      "metarRaw": "METAR ENZV 051550Z 07007KT 1000 SN VV012 M03/M04 Q1009 NOSIG",
      "tafRaw": null,
      "metarHtml": "METAR ENZV 051550Z 07007KT 1000 <span class=\"hl\">SN</span> VV012 M03/M04 Q1009 NOSIG",
      "tafHtml": null
    },
    {
      "icao": "LRSM",
      "iata": "SUJ",
      "name": "Satu Mare International Airport",
      "updatedAt": "051530Z",
      "visibility_m": 10000,
      "taf_visibility_m": 3000,
      "worst_visibility_m": 3000,
      "ceiling_ft": null,
      "hazards": [
        "BR",
        "FZRA"
      ],
      "severityScore": 45,
      "metarRaw": "METAR LRSM 051530Z 06006KT CAVOK 00/M03 Q1011",
      "tafRaw": "TAF LRSM 051400Z 0515/0524 06006KT 9999 BKN035 \n  BECMG 0520/0522 3000 -SNRA BR BKN005 OVC030 \n  PROB30 \n  TEMPO 0522/0524 -FZRA",
      "metarHtml": "METAR LRSM 051530Z 06006KT <span class=\"hl-vis\">CAVOK</span> 00/M03 Q1011",
      "tafHtml": "TAF LRSM 051400Z 0515/0524 06006KT 9999 BKN035 \n  BECMG 0520/0522 3000 -SNRA <span class=\"hl\">BR</span> BKN005 OVC030 \n  PROB30 \n  TEMPO 0522/0524 -<span class=\"hl\">FZRA</span>"
    },
    {
      "icao": "LQTZ",
      "iata": "TZL",
      "name": "Tuzla International Airport",
      "updatedAt": "051530Z",
      "visibility_m": 3000,
      "taf_visibility_m": null,
      "worst_visibility_m": 3000,
      "ceiling_ft": 500,
      "hazards": [
        "BR"
      ],
      "severityScore": 40,
      "metarRaw": "METAR LQTZ 051530Z 30004KT 3000 BR OVC005 M00/M00 Q1009",
      "tafRaw": null,
      "metarHtml": "METAR LQTZ 051530Z 30004KT 3000 <span class=\"hl\">BR</span> OVC005 M00/M00 Q1009",
      "tafHtml": null
    },
    {
      "icao": "LIBG",
      "iata": "TAR",
      "name": "Taranto-Grottaglie Marcello Arlotta Airport",
      "updatedAt": "051450Z",
      "visibility_m": 10000,
      "taf_visibility_m": 4000,
      "worst_visibility_m": 4000,
      "ceiling_ft": null,
      "hazards": [
        "TSRA",
        "SHRA"
      ],
      "severityScore": 39,
      "metarRaw": "METAR LIBG 051450Z 15007KT 9999 SCT030 14/14 Q1004",
      "tafRaw": "TAF LIBG 051400Z 0515/0524 17015KT 9999 SCT030 \n  TEMPO 0515/0518 4000 TSRA \n  TEMPO 0518/0524 4000 SHRA BKN010",
      "metarHtml": "METAR LIBG 051450Z 15007KT 9999 SCT030 14/14 Q1004",
      "tafHtml": "TAF LIBG 051400Z 0515/0524 17015KT 9999 SCT030 \n  TEMPO 0515/0518 4000 <span class=\"hl\">TSRA</span> \n  TEMPO 0518/0524 4000 <span class=\"hl\">SHRA</span> BKN010"
    },
    {
      "icao": "EDLW",
      "iata": "DTM",
      "name": "Dortmund Airport",
      "updatedAt": "051520Z",
      "visibility_m": 10000,
      "taf_visibility_m": 2500,
      "worst_visibility_m": 2500,
      "ceiling_ft": 4100,
      "hazards": [
        "BR",
        "SN",
        "SHSN"
      ],
      "severityScore": 38,
      "metarRaw": "METAR EDLW 051520Z 19010KT 9999 FEW011 SCT023 BKN041 M01/M05 Q1009",
      "tafRaw": "TAF EDLW 051100Z 0512/0612 19009KT 9999 SCT020 \n  TEMPO 0514/0603 2500 SHSN BKN008TCU \n  BECMG 0600/0603 25006KT \n  PROB40 \n  TEMPO 0603/0609 3000 -SN BR BKN004",
      "metarHtml": "METAR EDLW 051520Z 19010KT 9999 FEW011 SCT023 BKN041 M01/M05 Q1009",
      "tafHtml": "TAF EDLW 051100Z 0512/0612 19009KT 9999 SCT020 \n  TEMPO 0514/0603 2500 <span class=\"hl\">SHSN</span> BKN008TCU \n  BECMG 0600/0603 25006KT \n  PROB40 \n  TEMPO 0603/0609 3000 -<span class=\"hl\">SN</span> <span class=\"hl\">BR</span> BKN004"
    },
    {
      "icao": "EPGD",
      "iata": "GDN",
      "name": "Gdańsk Lech Wałęsa Airport",
      "updatedAt": "051530Z",
      "visibility_m": 10000,
      "taf_visibility_m": 1200,
      "worst_visibility_m": 1200,
      "ceiling_ft": null,
      "hazards": [
        "BR",
        "SN"
      ],
      "severityScore": 38,
      "metarRaw": "METAR EPGD 051530Z VRB02KT 9999 FEW007 M04/M05 Q1013",
      "tafRaw": "TAF EPGD 051130Z 0512/0612 20007KT CAVOK \n  TEMPO 0512/0516 1200 BR BKN003 \n  TEMPO 0516/0610 4000 -SN BR BKN006",
      "metarHtml": "METAR EPGD 051530Z VRB02KT 9999 FEW007 M04/M05 Q1013",
      "tafHtml": "TAF EPGD 051130Z 0512/0612 20007KT <span class=\"hl-vis\">CAVOK</span> \n  TEMPO 0512/0516 1200 <span class=\"hl\">BR</span> BKN003 \n  TEMPO 0516/0610 4000 -<span class=\"hl\">SN</span> <span class=\"hl\">BR</span> BKN006"
    },
    {
      "icao": "LRBC",
      "iata": "BCM",
      "name": "Bacău George Enescu International  Airport",
      "updatedAt": "051530Z",
      "visibility_m": 3000,
      "taf_visibility_m": 1500,
      "worst_visibility_m": 1500,
      "ceiling_ft": 2500,
      "hazards": [
        "SN",
        "BR"
      ],
      "severityScore": 38,
      "metarRaw": "METAR LRBC 051530Z 12002KT 3000 -SN OVC025 M01/M03 Q1018",
      "tafRaw": "TAF LRBC 051400Z 0515/0524 17004KT 3000 -SN OVC010 \n  TEMPO 0515/0518 1500 -SN BR BKN005 OVC010 \n  BECMG 0519/0521 5000 BR \n  BECMG 0522/0524 3000 BR BKN005 OVC010",
      "metarHtml": "METAR LRBC 051530Z 12002KT 3000 -<span class=\"hl\">SN</span> OVC025 M01/M03 Q1018",
      "tafHtml": "TAF LRBC 051400Z 0515/0524 17004KT 3000 -<span class=\"hl\">SN</span> OVC010 \n  TEMPO 0515/0518 1500 -<span class=\"hl\">SN</span> <span class=\"hl\">BR</span> BKN005 OVC010 \n  BECMG 0519/0521 5000 <span class=\"hl\">BR</span> \n  BECMG 0522/0524 3000 <span class=\"hl\">BR</span> BKN005 OVC010"
    },
    {
      "icao": "ENTO",
      "iata": "TRF",
      "name": "Sandefjord Airport, Torp",
      "updatedAt": "051550Z",
      "visibility_m": 10000,
      "taf_visibility_m": null,
      "worst_visibility_m": 10000,
      "ceiling_ft": 1800,
      "hazards": [
        "SN"
      ],
      "severityScore": 35,
      "metarRaw": "METAR ENTO 051550Z 36009KT 9999 -SN OVC018 M07/M09 Q1013 NOSIG",
      "tafRaw": null,
      "metarHtml": "METAR ENTO 051550Z 36009KT 9999 -<span class=\"hl\">SN</span> OVC018 M07/M09 Q1013 NOSIG",
      "tafHtml": null
    },
    {
      "icao": "ESKN",
      "iata": "NYO",
      "name": "Stockholm Skavsta Airport",
      "updatedAt": "051550Z",
      "visibility_m": 10000,
      "taf_visibility_m": 700,
      "worst_visibility_m": 700,
      "ceiling_ft": 3600,
      "hazards": [
        "SHSN"
      ],
      "severityScore": 35,
      "metarRaw": "METAR ESKN 051550Z 03008KT 9999 BKN036 M05/M07 Q1013",
      "tafRaw": "TAF ESKN 051430Z 0515/0615 06008KT 9999 BKN030 \n  TEMPO 0516/0522 0700 SHSN BKN007 BKN025CB \n  TEMPO 0600/0608 1400 SHSN BKN009 BKN025CB",
      "metarHtml": "METAR ESKN 051550Z 03008KT 9999 BKN036 M05/M07 Q1013",
      "tafHtml": "TAF ESKN 051430Z 0515/0615 06008KT 9999 BKN030 \n  TEMPO 0516/0522 <span class=\"hl-vis\">0700</span> <span class=\"hl\">SHSN</span> BKN007 BKN025CB \n  TEMPO 0600/0608 1400 <span class=\"hl\">SHSN</span> BKN009 BKN025CB"
    },
    {
      "icao": "EKCH",
      "iata": "CPH",
      "name": "Copenhagen Kastrup Airport",
      "updatedAt": "051550Z",
      "visibility_m": 1200,
      "taf_visibility_m": 1000,
      "worst_visibility_m": 1000,
      "ceiling_ft": 1000,
      "hazards": [
        "SHSN"
      ],
      "severityScore": 32,
      "metarRaw": "METAR EKCH 051550Z 15002KT 6000 -SHSN NSC M00/M02 Q1010 TEMPO 1200 SHSN BKN010 SCT020CB",
      "tafRaw": "TAF EKCH 051427Z 0515/0615 12010KT 9999 BKN030 \n  TEMPO 0515/0522 1000 SHSN BKN006 SCT020CB",
      "metarHtml": "METAR EKCH 051550Z 15002KT 6000 -<span class=\"hl\">SHSN</span> NSC M00/M02 Q1010 TEMPO 1200 <span class=\"hl\">SHSN</span> BKN010 SCT020CB",
      "tafHtml": "TAF EKCH 051427Z 0515/0615 12010KT 9999 BKN030 \n  TEMPO 0515/0522 1000 <span class=\"hl\">SHSN</span> BKN006 SCT020CB"
    },
    {
      "icao": "EYKA",
      "iata": "KUN",
      "name": "Kaunas International Airport",
      "updatedAt": "051550Z",
      "visibility_m": 10000,
      "taf_visibility_m": 1500,
      "worst_visibility_m": 1500,
      "ceiling_ft": 1500,
      "hazards": [
        "BR"
      ],
      "severityScore": 32,
      "metarRaw": "METAR EYKA 051550Z 22007KT 9999 BKN015 OVC049 M02/M05 Q1015",
      "tafRaw": "TAF EYKA 051108Z 0512/0612 21012KT 9000 SCT010 OVC015 \n  TEMPO 0512/0518 BKN012CB \n  BECMG 0518/0520 VRB04KT SCT010 SCT020 \n  TEMPO 0600/0608 1500 BR BKN005 \n  BECMG 0608/0610 09014KT",
      "metarHtml": "METAR EYKA 051550Z 22007KT 9999 BKN015 OVC049 M02/M05 Q1015",
      "tafHtml": "TAF EYKA 051108Z 0512/0612 21012KT 9000 SCT010 OVC015 \n  TEMPO 0512/0518 BKN012CB \n  BECMG 0518/0520 VRB04KT SCT010 SCT020 \n  TEMPO 0600/0608 1500 <span class=\"hl\">BR</span> BKN005 \n  BECMG 0608/0610 09014KT"
    },
    {
      "icao": "LEMG",
      "iata": "AGP",
      "name": "Málaga-Costa del Sol Airport",
      "updatedAt": "051546Z",
      "visibility_m": 4000,
      "taf_visibility_m": null,
      "worst_visibility_m": 4000,
      "ceiling_ft": 7000,
      "hazards": [
        "TSRA"
      ],
      "severityScore": 30,
      "metarRaw": "SPECI LEMG 051546Z 20003KT 150V250 4000 TSRA FEW050CB BKN070 14/11 Q1006 NOSIG",
      "tafRaw": null,
      "metarHtml": "SPECI LEMG 051546Z 20003KT 150V250 4000 <span class=\"hl\">TSRA</span> FEW050CB BKN070 14/11 Q1006 NOSIG",
      "tafHtml": null
    },
    {
      "icao": "EGNM",
      "iata": "LBA",
      "name": "Leeds Bradford Airport",
      "updatedAt": "051550Z",
      "visibility_m": 10000,
      "taf_visibility_m": 4000,
      "worst_visibility_m": 4000,
      "ceiling_ft": null,
      "hazards": [
        "SN",
        "SHSN"
      ],
      "severityScore": 28,
      "metarRaw": "METAR EGNM 051550Z 24005KT CAVOK M01/M05 Q1014",
      "tafRaw": "TAF EGNM 051101Z 0512/0612 31012KT 9999 FEW020 \n  PROB30 \n  TEMPO 0512/0515 4000 -SHSN BKN009 \n  TEMPO 0607/0612 BKN010 \n  PROB30 \n  TEMPO 0607/0611 6000 -SN BKN007",
      "metarHtml": "METAR EGNM 051550Z 24005KT <span class=\"hl-vis\">CAVOK</span> M01/M05 Q1014",
      "tafHtml": "TAF EGNM 051101Z 0512/0612 31012KT 9999 FEW020 \n  PROB30 \n  TEMPO 0512/0515 4000 -<span class=\"hl\">SHSN</span> BKN009 \n  TEMPO 0607/0612 BKN010 \n  PROB30 \n  TEMPO 0607/0611 6000 -<span class=\"hl\">SN</span> BKN007"
    },
    {
      "icao": "EPSC",
      "iata": "SZZ",
      "name": "Solidarity Szczecin–Goleniów Airport",
      "updatedAt": "051530Z",
      "visibility_m": 10000,
      "taf_visibility_m": 4000,
      "worst_visibility_m": 4000,
      "ceiling_ft": null,
      "hazards": [
        "BR",
        "SN"
      ],
      "severityScore": 28,
      "metarRaw": "METAR EPSC 051530Z 15008KT 9999 FEW025 M01/M03 Q1012",
      "tafRaw": "TAF EPSC 051130Z 0512/0612 16007KT 9999 BKN025 \n  TEMPO 0512/0612 4000 -SN BR BKN006 BKN012",
      "metarHtml": "METAR EPSC 051530Z 15008KT 9999 FEW025 M01/M03 Q1012",
      "tafHtml": "TAF EPSC 051130Z 0512/0612 16007KT 9999 BKN025 \n  TEMPO 0512/0612 4000 -<span class=\"hl\">SN</span> <span class=\"hl\">BR</span> BKN006 BKN012"
    },
    {
      "icao": "LJLJ",
      "iata": "LJU",
      "name": "Ljubljana Jože Pučnik Airport",
      "updatedAt": "051530Z",
      "visibility_m": 2500,
      "taf_visibility_m": 2000,
      "worst_visibility_m": 2000,
      "ceiling_ft": 2500,
      "hazards": [
        "SN",
        "BR"
      ],
      "severityScore": 28,
      "metarRaw": "METAR LJLJ 051530Z 15003KT 140V210 2500 -SN SCT006 SCT013 OVC025 M02/M03 Q1009 RESN NOSIG",
      "tafRaw": "TAF LJLJ 051100Z 0512/0612 10004KT 7000 SCT025 OVC040 \n  TEMPO 0512/0612 3500 -SN BR \n  PROB30 \n  TEMPO 0608/0612 2000 SN",
      "metarHtml": "METAR LJLJ 051530Z 15003KT 140V210 2500 -<span class=\"hl\">SN</span> SCT006 SCT013 OVC025 M02/M03 Q1009 RESN NOSIG",
      "tafHtml": "TAF LJLJ 051100Z 0512/0612 10004KT 7000 SCT025 OVC040 \n  TEMPO 0512/0612 3500 -<span class=\"hl\">SN</span> <span class=\"hl\">BR</span> \n  PROB30 \n  TEMPO 0608/0612 2000 <span class=\"hl\">SN</span>"
    },
    {
      "icao": "LZKZ",
      "iata": "KSC",
      "name": "Košice International Airport",
      "updatedAt": "051530Z",
      "visibility_m": 10000,
      "taf_visibility_m": 1200,
      "worst_visibility_m": 1200,
      "ceiling_ft": null,
      "hazards": [
        "SN"
      ],
      "severityScore": 28,
      "metarRaw": "METAR LZKZ 051530Z 03007KT 9999 SCT030 M01/M07 Q1012 NOSIG",
      "tafRaw": "TAF LZKZ 051115Z 0512/0612 02009KT CAVOK \n  BECMG 0514/0516 7000 -SN FEW018 BKN025 \n  TEMPO 0518/0601 1200 SN BKN008 OVC020 \n  BECMG 0603/0605 CAVOK",
      "metarHtml": "METAR LZKZ 051530Z 03007KT 9999 SCT030 M01/M07 Q1012 NOSIG",
      "tafHtml": "TAF LZKZ 051115Z 0512/0612 02009KT <span class=\"hl-vis\">CAVOK</span> \n  BECMG 0514/0516 7000 -<span class=\"hl\">SN</span> FEW018 BKN025 \n  TEMPO 0518/0601 1200 <span class=\"hl\">SN</span> BKN008 OVC020 \n  BECMG 0603/0605 <span class=\"hl-vis\">CAVOK</span>"
    },
    {
      "icao": "GMMX",
      "iata": "RAK",
      "name": "Menara Airport",
      "updatedAt": "051530Z",
      "visibility_m": 2000,
      "taf_visibility_m": 3000,
      "worst_visibility_m": 2000,
      "ceiling_ft": 2000,
      "hazards": [
        "RA",
        "SHRA"
      ],
      "severityScore": 26,
      "metarRaw": "METAR GMMX 051530Z 20007KT 170V240 8000 -RA SCT010 BKN020 FEW030CB 13/11 Q1011 TEMPO 2000 SHRA",
      "tafRaw": "TAF GMMX 051100Z 0512/0618 26008KT 8000 SCT023 BKN080 \n  TEMPO 0512/0522 34020KT 3000 SHRA SCT006 BKN020 FEW030TCU",
      "metarHtml": "METAR GMMX 051530Z 20007KT 170V240 8000 -<span class=\"hl\">RA</span> SCT010 BKN020 FEW030CB 13/11 Q1011 TEMPO 2000 <span class=\"hl\">SHRA</span>",
      "tafHtml": "TAF GMMX 051100Z 0512/0618 26008KT 8000 SCT023 BKN080 \n  TEMPO 0512/0522 34020KT 3000 <span class=\"hl\">SHRA</span> SCT006 BKN020 FEW030TCU"
    },
    {
      "icao": "LATI",
      "iata": "TIA",
      "name": "Tirana International Airport Mother Teresa",
      "updatedAt": "051550Z",
      "visibility_m": 10000,
      "taf_visibility_m": 5000,
      "worst_visibility_m": 5000,
      "ceiling_ft": 7500,
      "hazards": [
        "RA",
        "SHRA"
      ],
      "severityScore": 26,
      "metarRaw": "METAR LATI 051550Z 14010KT 9999 BKN075 OVC110 16/05 Q1007 NOSIG",
      "tafRaw": "TAF LATI 051100Z 0512/0612 16012KT 9999 SCT035 BKN080 TX18/0512Z TN11/0604Z \n  TEMPO 0513/0517 16012G25KT \n  TEMPO 0523/0606 RA BKN025 OVC050 \n  PROB40 \n  TEMPO 0601/0604 VRB10G25KT 5000 SHRA FEW025CB",
      "metarHtml": "METAR LATI 051550Z 14010KT 9999 BKN075 OVC110 16/05 Q1007 NOSIG",
      "tafHtml": "TAF LATI 051100Z 0512/0612 16012KT 9999 SCT035 BKN080 TX18/0512Z TN11/0604Z \n  TEMPO 0513/0517 16012G25KT \n  TEMPO 0523/0606 <span class=\"hl\">RA</span> BKN025 OVC050 \n  PROB40 \n  TEMPO 0601/0604 VRB10G25KT 5000 <span class=\"hl\">SHRA</span> FEW025CB"
    },
    {
      "icao": "LEAL",
      "iata": "ALC",
      "name": "Alicante-Elche Miguel Hernández Airport",
      "updatedAt": "051530Z",
      "visibility_m": 10000,
      "taf_visibility_m": 3000,
      "worst_visibility_m": 3000,
      "ceiling_ft": 2400,
      "hazards": [
        "RA",
        "SHRA"
      ],
      "severityScore": 26,
      "metarRaw": "METAR LEAL 051530Z 04005KT 350V070 9999 BKN024 OVC053 11/08 Q1008 NOSIG",
      "tafRaw": "TAF LEAL 051100Z 0512/0612 VRB04KT 9999 SCT020 TX13/0514Z TN04/0606Z \n  TEMPO 0512/0608 3000 RA SHRA BKN015 FEW020TCU \n  TEMPO 0515/0520 06010KT",
      "metarHtml": "METAR LEAL 051530Z 04005KT 350V070 9999 BKN024 OVC053 11/08 Q1008 NOSIG",
      "tafHtml": "TAF LEAL 051100Z 0512/0612 VRB04KT 9999 SCT020 TX13/0514Z TN04/0606Z \n  TEMPO 0512/0608 3000 <span class=\"hl\">RA</span> <span class=\"hl\">SHRA</span> BKN015 FEW020TCU \n  TEMPO 0515/0520 06010KT"
    },
    {
      "icao": "LIRN",
      "iata": "NAP",
      "name": "Naples International Airport",
      "updatedAt": "051550Z",
      "visibility_m": 10000,
      "taf_visibility_m": 4000,
      "worst_visibility_m": 4000,
      "ceiling_ft": null,
      "hazards": [
        "RA",
        "SHRA"
      ],
      "severityScore": 26,
      "metarRaw": "METAR LIRN 051550Z 03006KT 360V060 9999 SCT070 16/11 Q1002 NOSIG",
      "tafRaw": "TAF LIRN 051100Z 0512/0612 VRB06KT 9999 SCT020 SCT050 \n  TEMPO 0600/0606 4000 SHRA \n  BECMG 0605/0607 18010KT \n  TEMPO 0606/0612 4000 RA",
      "metarHtml": "METAR LIRN 051550Z 03006KT 360V060 9999 SCT070 16/11 Q1002 NOSIG",
      "tafHtml": "TAF LIRN 051100Z 0512/0612 VRB06KT 9999 SCT020 SCT050 \n  TEMPO 0600/0606 4000 <span class=\"hl\">SHRA</span> \n  BECMG 0605/0607 18010KT \n  TEMPO 0606/0612 4000 <span class=\"hl\">RA</span>"
    },
    {
      "icao": "LPMA",
      "iata": "FNC",
      "name": "Madeira International Airport Cristiano Ronaldo",
      "updatedAt": "051530Z",
      "visibility_m": 10000,
      "taf_visibility_m": 8000,
      "worst_visibility_m": 8000,
      "ceiling_ft": 1500,
      "hazards": [
        "SHRA"
      ],
      "severityScore": 26,
      "metarRaw": "METAR LPMA 051530Z 02021G31KT 350V060 9999 -SHRA BKN015 FEW018CB 16/10 Q1020",
      "tafRaw": "TAF LPMA 051100Z 0512/0612 02017KT 9999 SCT015 \n  TEMPO 0512/0612 01022G35KT 8000 SHRA BKN013 FEW018CB",
      "metarHtml": "METAR LPMA 051530Z 02021G31KT 350V060 9999 -<span class=\"hl\">SHRA</span> BKN015 FEW018CB 16/10 Q1020",
      "tafHtml": "TAF LPMA 051100Z 0512/0612 02017KT 9999 SCT015 \n  TEMPO 0512/0612 01022G35KT 8000 <span class=\"hl\">SHRA</span> BKN013 FEW018CB"
    },
    {
      "icao": "LZIB",
      "iata": "BTS",
      "name": "M. R. Štefánik Airport",
      "updatedAt": "051530Z",
      "visibility_m": 6000,
      "taf_visibility_m": null,
      "worst_visibility_m": 6000,
      "ceiling_ft": null,
      "hazards": [
        "SN"
      ],
      "severityScore": 23,
      "metarRaw": "METAR LZIB 051530Z 35004KT 6000 -SN FEW018 SCT048 M03/M04 Q1013 NOSIG",
      "tafRaw": null,
      "metarHtml": "METAR LZIB 051530Z 35004KT 6000 -<span class=\"hl\">SN</span> FEW018 SCT048 M03/M04 Q1013 NOSIG",
      "tafHtml": null
    },
    {
      "icao": "EDDH",
      "iata": "HAM",
      "name": "Hamburg Helmut Schmidt Airport",
      "updatedAt": "051550Z",
      "visibility_m": 10000,
      "taf_visibility_m": 2000,
      "worst_visibility_m": 2000,
      "ceiling_ft": 1400,
      "hazards": [
        "SHSN"
      ],
      "severityScore": 22,
      "metarRaw": "METAR EDDH 051550Z AUTO 22006KT 180V250 9999 OVC014 M00/M03 Q1009 TEMPO OVC015",
      "tafRaw": "TAF EDDH 051100Z 0512/0618 19009KT 9999 BKN015 \n  PROB40 \n  TEMPO 0512/0614 BKN013 \n  TEMPO 0514/0611 3000 -SHSN BKN008 BKN013CB \n  BECMG 0520/0522 18004KT \n  PROB30 \n  TEMPO 0602/0609 BKN004 \n  BECMG 0612/0614 20009KT \n  PROB40 \n  TEMPO 0616/0618 2000 SHSN BKN007CB",
      "metarHtml": "METAR EDDH 051550Z AUTO 22006KT 180V250 9999 OVC014 M00/M03 Q1009 TEMPO OVC015",
      "tafHtml": "TAF EDDH 051100Z 0512/0618 19009KT 9999 BKN015 \n  PROB40 \n  TEMPO 0512/0614 BKN013 \n  TEMPO 0514/0611 3000 -<span class=\"hl\">SHSN</span> BKN008 BKN013CB \n  BECMG 0520/0522 18004KT \n  PROB30 \n  TEMPO 0602/0609 BKN004 \n  BECMG 0612/0614 20009KT \n  PROB40 \n  TEMPO 0616/0618 2000 <span class=\"hl\">SHSN</span> BKN007CB"
    },
    {
      "icao": "LBWN",
      "iata": "VAR",
      "name": "Varna Airport",
      "updatedAt": "051530Z",
      "visibility_m": 5000,
      "taf_visibility_m": 10000,
      "worst_visibility_m": 5000,
      "ceiling_ft": null,
      "hazards": [
        "BR",
        "RA"
      ],
      "severityScore": 22,
      "metarRaw": "METAR LBWN 051530Z AUTO 13003KT 8000 NSC 10/10 Q1014 TEMPO 5000 BR",
      "tafRaw": "TAF LBWN 051100Z 0512/0612 10010KT 9999 SCT010 OVC020 \n  PROB40 \n  TEMPO 0602/0605 RA OVC010 \n  BECMG 0607/0609 21012KT",
      "metarHtml": "METAR LBWN 051530Z AUTO 13003KT 8000 NSC 10/10 Q1014 TEMPO 5000 <span class=\"hl\">BR</span>",
      "tafHtml": "TAF LBWN 051100Z 0512/0612 10010KT 9999 SCT010 OVC020 \n  PROB40 \n  TEMPO 0602/0605 <span class=\"hl\">RA</span> OVC010 \n  BECMG 0607/0609 21012KT"
    },
    {
      "icao": "LEBB",
      "iata": "BIO",
      "name": "Bilbao Airport",
      "updatedAt": "051530Z",
      "visibility_m": 10000,
      "taf_visibility_m": 1500,
      "worst_visibility_m": 1500,
      "ceiling_ft": 7000,
      "hazards": [
        "RA"
      ],
      "severityScore": 22,
      "metarRaw": "METAR LEBB 051530Z 00000KT 9999 FEW040 SCT058 BKN070 07/M01 Q1015 NOSIG",
      "tafRaw": "TAF LEBB 051100Z 0512/0612 13005KT 9999 FEW030 TX07/0514Z TNM00/0521Z \n  PROB30 0513/0518 36010KT \n  PROB30 \n  TEMPO 0602/0609 1500 SNRA BKN005 \n  PROB40 \n  TEMPO 0605/0609 31010KT 3000 RA BKN010 \n  PROB40 0609/0612 05010KT",
      "metarHtml": "METAR LEBB 051530Z 00000KT 9999 FEW040 SCT058 BKN070 07/M01 Q1015 NOSIG",
      "tafHtml": "TAF LEBB 051100Z 0512/0612 13005KT 9999 FEW030 TX07/0514Z TNM00/0521Z \n  PROB30 0513/0518 36010KT \n  PROB30 \n  TEMPO 0602/0609 1500 SNRA BKN005 \n  PROB40 \n  TEMPO 0605/0609 31010KT 3000 <span class=\"hl\">RA</span> BKN010 \n  PROB40 0609/0612 05010KT"
    },
    {
      "icao": "LIPY",
      "iata": "AOI",
      "name": "Marche Airport",
      "updatedAt": "051550Z",
      "visibility_m": 5000,
      "taf_visibility_m": 4000,
      "worst_visibility_m": 4000,
      "ceiling_ft": null,
      "hazards": [
        "DZ",
        "RA"
      ],
      "severityScore": 22,
      "metarRaw": "METAR LIPY 051550Z AUTO 27004KT 5000 +DZ OVC005/// 04/03 Q1007",
      "tafRaw": "TAF LIPY 051100Z 0512/0612 32010KT 6000 OVC015 \n  TEMPO 0512/0518 4000 RA \n  BECMG 0521/0523 4000 RA",
      "metarHtml": "METAR LIPY 051550Z AUTO 27004KT 5000 +<span class=\"hl\">DZ</span> OVC005/// 04/03 Q1007",
      "tafHtml": "TAF LIPY 051100Z 0512/0612 32010KT 6000 OVC015 \n  TEMPO 0512/0518 4000 <span class=\"hl\">RA</span> \n  BECMG 0521/0523 4000 <span class=\"hl\">RA</span>"
    },
    {
      "icao": "EETN",
      "iata": "TLL",
      "name": "Lennart Meri Tallinn Airport",
      "updatedAt": "051550Z",
      "visibility_m": 10000,
      "taf_visibility_m": 1200,
      "worst_visibility_m": 1200,
      "ceiling_ft": null,
      "hazards": [
        "BR"
      ],
      "severityScore": 20,
      "metarRaw": "METAR EETN 051550Z 00000KT CAVOK M13/M14 Q1017 NOSIG",
      "tafRaw": "TAF EETN 051130Z 0512/0612 17005KT CAVOK \n  PROB40 \n  TEMPO 0519/0606 1200 BR BCFG BKN002 \n  BECMG 0604/0606 11010KT",
      "metarHtml": "METAR EETN 051550Z 00000KT <span class=\"hl-vis\">CAVOK</span> M13/M14 Q1017 NOSIG",
      "tafHtml": "TAF EETN 051130Z 0512/0612 17005KT <span class=\"hl-vis\">CAVOK</span> \n  PROB40 \n  TEMPO 0519/0606 1200 <span class=\"hl\">BR</span> BCFG BKN002 \n  BECMG 0604/0606 11010KT"
    },
    {
      "icao": "EKBI",
      "iata": "BLL",
      "name": "Billund Airport",
      "updatedAt": "051550Z",
      "visibility_m": 10000,
      "taf_visibility_m": 1400,
      "worst_visibility_m": 1400,
      "ceiling_ft": null,
      "hazards": [
        "SHSN"
      ],
      "severityScore": 20,
      "metarRaw": "METAR EKBI 051550Z AUTO 35001KT 9999 -RASN OVC007/// M01/M02 Q1008",
      "tafRaw": "TAF EKBI 051445Z 0515/0615 05005KT 9999 BKN008 \n  TEMPO 0515/0524 1400 SHSN BKN013 SCT015CB \n  BECMG 0600/0602 FEW020 \n  TEMPO 0602/0615 BKN004",
      "metarHtml": "METAR EKBI 051550Z AUTO 35001KT 9999 -RASN OVC007/// M01/M02 Q1008",
      "tafHtml": "TAF EKBI 051445Z 0515/0615 05005KT 9999 BKN008 \n  TEMPO 0515/0524 1400 <span class=\"hl\">SHSN</span> BKN013 SCT015CB \n  BECMG 0600/0602 FEW020 \n  TEMPO 0602/0615 BKN004"
    },
    {
      "icao": "ESSA",
      "iata": "ARN",
      "name": "Stockholm-Arlanda Airport",
      "updatedAt": "051550Z",
      "visibility_m": 10000,
      "taf_visibility_m": 1400,
      "worst_visibility_m": 1400,
      "ceiling_ft": 3700,
      "hazards": [
        "SHSN"
      ],
      "severityScore": 20,
      "metarRaw": "METAR ESSA 051550Z 03010KT 9999 BKN037 M10/M12 Q1015 NOSIG",
      "tafRaw": "TAF ESSA 051430Z 0515/0615 04005KT CAVOK \n  TEMPO 0521/0614 1400 SHSN BKN009 BKN015CB \n  BECMG 0522/0524 10010G20KT \n  BECMG 0610/0612 VRB02KT",
      "metarHtml": "METAR ESSA 051550Z 03010KT 9999 BKN037 M10/M12 Q1015 NOSIG",
      "tafHtml": "TAF ESSA 051430Z 0515/0615 04005KT <span class=\"hl-vis\">CAVOK</span> \n  TEMPO 0521/0614 1400 <span class=\"hl\">SHSN</span> BKN009 BKN015CB \n  BECMG 0522/0524 10010G20KT \n  BECMG 0610/0612 VRB02KT"
    },
    {
      "icao": "LTAC",
      "iata": "ESB",
      "name": "Esenboğa International Airport",
      "updatedAt": "051550Z",
      "visibility_m": 10000,
      "taf_visibility_m": 1200,
      "worst_visibility_m": 1200,
      "ceiling_ft": 10000,
      "hazards": [
        "BR"
      ],
      "severityScore": 20,
      "metarRaw": "METAR LTAC 051550Z 02005KT 340V040 9999 FEW040 BKN100 03/00 Q1022 NOSIG RMK RWY21C 01006KT RWY03L 01005KT RWY21R 01007KT RWY03R 35006KT RWY21L 36008KT",
      "tafRaw": "TAF LTAC 051040Z 0512/0612 VRB02KT 9999 SCT040 BKN200 \n  BECMG 0516/0518 CAVOK \n  BECMG 0522/0601 4000 BR \n  PROB30 \n  TEMPO 0603/0607 1200 BCFG \n  BECMG 0607/0609 9999 NSW SCT040",
      "metarHtml": "METAR LTAC 051550Z 02005KT 340V040 9999 FEW040 BKN100 03/00 Q1022 NOSIG RMK RWY21C 01006KT RWY03L 01005KT RWY21R 01007KT RWY03R 35006KT RWY21L 36008KT",
      "tafHtml": "TAF LTAC 051040Z 0512/0612 VRB02KT 9999 SCT040 BKN200 \n  BECMG 0516/0518 <span class=\"hl-vis\">CAVOK</span> \n  BECMG 0522/0601 4000 <span class=\"hl\">BR</span> \n  PROB30 \n  TEMPO 0603/0607 1200 BCFG \n  BECMG 0607/0609 9999 NSW SCT040"
    },
    {
      "icao": "EFTU",
      "iata": "TKU",
      "name": "Turku Airport",
      "updatedAt": "051550Z",
      "visibility_m": 10000,
      "taf_visibility_m": 4000,
      "worst_visibility_m": 4000,
      "ceiling_ft": null,
      "hazards": [
        "SN"
      ],
      "severityScore": 18,
      "metarRaw": "METAR EFTU 051550Z AUTO 09002KT CAVOK M19/M21 Q1016",
      "tafRaw": "TAF EFTU 051423Z 0515/0615 VRB02KT CAVOK \n  BECMG 0607/0609 10010KT BKN013 \n  BECMG 0614/0615 4000 -SN",
      "metarHtml": "METAR EFTU 051550Z AUTO 09002KT <span class=\"hl-vis\">CAVOK</span> M19/M21 Q1016",
      "tafHtml": "TAF EFTU 051423Z 0515/0615 VRB02KT <span class=\"hl-vis\">CAVOK</span> \n  BECMG 0607/0609 10010KT BKN013 \n  BECMG 0614/0615 4000 -<span class=\"hl\">SN</span>"
    },
    {
      "icao": "ENGM",
      "iata": "OSL",
      "name": "Oslo-Gardermoen International Airport",
      "updatedAt": "051550Z",
      "visibility_m": 10000,
      "taf_visibility_m": 2500,
      "worst_visibility_m": 2500,
      "ceiling_ft": 4100,
      "hazards": [
        "SN"
      ],
      "severityScore": 18,
      "metarRaw": "METAR ENGM 051550Z 03005KT 9999 -SN FEW022 BKN041 M09/M11 Q1013 NOSIG",
      "tafRaw": "TAF ENGM 051100Z 0512/0612 02005KT 8000 -SN BKN025 \n  TEMPO 0512/0524 2500 -SN VV012",
      "metarHtml": "METAR ENGM 051550Z 03005KT 9999 -<span class=\"hl\">SN</span> FEW022 BKN041 M09/M11 Q1013 NOSIG",
      "tafHtml": "TAF ENGM 051100Z 0512/0612 02005KT 8000 -<span class=\"hl\">SN</span> BKN025 \n  TEMPO 0512/0524 2500 -<span class=\"hl\">SN</span> VV012"
    },
    {
      "icao": "EPKK",
      "iata": "KRK",
      "name": "Kraków John Paul II International Airport",
      "updatedAt": "051530Z",
      "visibility_m": 10000,
      "taf_visibility_m": 4000,
      "worst_visibility_m": 4000,
      "ceiling_ft": null,
      "hazards": [
        "SN"
      ],
      "severityScore": 18,
      "metarRaw": "METAR EPKK 051530Z 03004KT 360V060 CAVOK M02/M07 Q1013",
      "tafRaw": "TAF EPKK 051430Z 0515/0615 06006KT CAVOK \n  TEMPO 0522/0608 4000 -SN BKN012 \n  BECMG 0600/0602 27010KT",
      "metarHtml": "METAR EPKK 051530Z 03004KT 360V060 <span class=\"hl-vis\">CAVOK</span> M02/M07 Q1013",
      "tafHtml": "TAF EPKK 051430Z 0515/0615 06006KT <span class=\"hl-vis\">CAVOK</span> \n  TEMPO 0522/0608 4000 -<span class=\"hl\">SN</span> BKN012 \n  BECMG 0600/0602 27010KT"
    },
    {
      "icao": "EPLB",
      "iata": "LUZ",
      "name": "Lublin Airport",
      "updatedAt": "051530Z",
      "visibility_m": 10000,
      "taf_visibility_m": 4000,
      "worst_visibility_m": 4000,
      "ceiling_ft": null,
      "hazards": [
        "SN"
      ],
      "severityScore": 18,
      "metarRaw": "METAR EPLB 051530Z 06006KT CAVOK M06/M08 Q1016",
      "tafRaw": "TAF EPLB 051130Z 0512/0612 18010KT CAVOK \n  BECMG 0512/0515 09005KT \n  BECMG 0521/0524 BKN014 \n  TEMPO 0521/0612 4000 -SN BKN008 \n  BECMG 0609/0612 30010KT BKN018",
      "metarHtml": "METAR EPLB 051530Z 06006KT <span class=\"hl-vis\">CAVOK</span> M06/M08 Q1016",
      "tafHtml": "TAF EPLB 051130Z 0512/0612 18010KT <span class=\"hl-vis\">CAVOK</span> \n  BECMG 0512/0515 09005KT \n  BECMG 0521/0524 BKN014 \n  TEMPO 0521/0612 4000 -<span class=\"hl\">SN</span> BKN008 \n  BECMG 0609/0612 30010KT BKN018"
    },
    {
      "icao": "EPRZ",
      "iata": "RZE",
      "name": "Rzeszów-Jasionka Airport",
      "updatedAt": "051530Z",
      "visibility_m": 10000,
      "taf_visibility_m": 2000,
      "worst_visibility_m": 2000,
      "ceiling_ft": null,
      "hazards": [
        "SN"
      ],
      "severityScore": 18,
      "metarRaw": "METAR EPRZ 051530Z 05006KT CAVOK M03/M08 Q1014",
      "tafRaw": "TAF EPRZ 051130Z 0512/0612 06006KT CAVOK \n  BECMG 0516/0518 BKN012 \n  BECMG 0519/0521 4000 -SN BKN006 BKN013 \n  TEMPO 0600/0606 2000 SN BKN004 BKN008 \n  BECMG 0603/0606 27010KT \n  BECMG 0606/0609 6000 BKN013",
      "metarHtml": "METAR EPRZ 051530Z 05006KT <span class=\"hl-vis\">CAVOK</span> M03/M08 Q1014",
      "tafHtml": "TAF EPRZ 051130Z 0512/0612 06006KT <span class=\"hl-vis\">CAVOK</span> \n  BECMG 0516/0518 BKN012 \n  BECMG 0519/0521 4000 -<span class=\"hl\">SN</span> BKN006 BKN013 \n  TEMPO 0600/0606 2000 <span class=\"hl\">SN</span> BKN004 BKN008 \n  BECMG 0603/0606 27010KT \n  BECMG 0606/0609 6000 BKN013"
    },
    {
      "icao": "ESGG",
      "iata": "GOT",
      "name": "Göteborg Landvetter Airport",
      "updatedAt": "051550Z",
      "visibility_m": 7000,
      "taf_visibility_m": 4000,
      "worst_visibility_m": 4000,
      "ceiling_ft": 3600,
      "hazards": [
        "SN"
      ],
      "severityScore": 18,
      "metarRaw": "METAR ESGG 051550Z 10003KT 070V130 7000 -SN SCT016 BKN036 M05/M06 Q1010",
      "tafRaw": "TAF ESGG 051430Z 0515/0615 09006KT CAVOK \n  TEMPO 0515/0519 4000 SG NSC",
      "metarHtml": "METAR ESGG 051550Z 10003KT 070V130 7000 -<span class=\"hl\">SN</span> SCT016 BKN036 M05/M06 Q1010",
      "tafHtml": "TAF ESGG 051430Z 0515/0615 09006KT <span class=\"hl-vis\">CAVOK</span> \n  TEMPO 0515/0519 4000 SG NSC"
    },
    {
      "icao": "LKMT",
      "iata": "OSR",
      "name": "Ostrava Leos Janáček Airport",
      "updatedAt": "051530Z",
      "visibility_m": 10000,
      "taf_visibility_m": 6000,
      "worst_visibility_m": 6000,
      "ceiling_ft": null,
      "hazards": [
        "SN"
      ],
      "severityScore": 18,
      "metarRaw": "METAR LKMT 051530Z 06002KT CAVOK M04/M07 Q1013 NOSIG",
      "tafRaw": "TAF LKMT 051100Z 0512/0612 20005KT CAVOK \n  TEMPO 0512/0520 VRB02KT \n  PROB30 \n  TEMPO 0516/0522 6000 -SN BKN040",
      "metarHtml": "METAR LKMT 051530Z 06002KT <span class=\"hl-vis\">CAVOK</span> M04/M07 Q1013 NOSIG",
      "tafHtml": "TAF LKMT 051100Z 0512/0612 20005KT <span class=\"hl-vis\">CAVOK</span> \n  TEMPO 0512/0520 VRB02KT \n  PROB30 \n  TEMPO 0516/0522 6000 -<span class=\"hl\">SN</span> BKN040"
    },
    {
      "icao": "LOWW",
      "iata": "VIE",
      "name": "Vienna International Airport",
      "updatedAt": "051550Z",
      "visibility_m": 10000,
      "taf_visibility_m": 4500,
      "worst_visibility_m": 4500,
      "ceiling_ft": 5000,
      "hazards": [
        "SN"
      ],
      "severityScore": 18,
      "metarRaw": "METAR LOWW 051550Z 32006KT 9999 FEW044 OVC050 M03/M08 Q1013 NOSIG",
      "tafRaw": "TAF LOWW 051415Z 0515/0621 VRB05KT 9999 FEW050 TXM02/0613Z TNM04/0607Z \n  TEMPO 0515/0517 4500 -SN \n  BECMG 0515/0517 30010KT \n  TEMPO 0610/0615 33015G25KT \n  PROB30 \n  TEMPO 0612/0615 -SN",
      "metarHtml": "METAR LOWW 051550Z 32006KT 9999 FEW044 OVC050 M03/M08 Q1013 NOSIG",
      "tafHtml": "TAF LOWW 051415Z 0515/0621 VRB05KT 9999 FEW050 TXM02/0613Z TNM04/0607Z \n  TEMPO 0515/0517 4500 -<span class=\"hl\">SN</span> \n  BECMG 0515/0517 30010KT \n  TEMPO 0610/0615 33015G25KT \n  PROB30 \n  TEMPO 0612/0615 -<span class=\"hl\">SN</span>"
    },
    {
      "icao": "LZTT",
      "iata": "TAT",
      "name": "Poprad-Tatry Airport",
      "updatedAt": "051530Z",
      "visibility_m": 10000,
      "taf_visibility_m": 4000,
      "worst_visibility_m": 4000,
      "ceiling_ft": 8000,
      "hazards": [
        "SN"
      ],
      "severityScore": 18,
      "metarRaw": "METAR LZTT 051530Z VRB02KT 9999 SCT066 BKN080 M05/M09 Q1010 NOSIG",
      "tafRaw": "TAF LZTT 051115Z 0512/0612 VRB02KT CAVOK \n  TEMPO 0517/0601 4000 -SN SCT014 BKN030",
      "metarHtml": "METAR LZTT 051530Z VRB02KT 9999 SCT066 BKN080 M05/M09 Q1010 NOSIG",
      "tafHtml": "TAF LZTT 051115Z 0512/0612 VRB02KT <span class=\"hl-vis\">CAVOK</span> \n  TEMPO 0517/0601 4000 -<span class=\"hl\">SN</span> SCT014 BKN030"
    },
    {
      "icao": "LIPQ",
      "iata": "TRS",
      "name": "Trieste–Friuli Venezia Giulia Airport",
      "updatedAt": "051550Z",
      "visibility_m": 10000,
      "taf_visibility_m": null,
      "worst_visibility_m": 10000,
      "ceiling_ft": null,
      "hazards": [
        "RA"
      ],
      "severityScore": 17,
      "metarRaw": "METAR LIPQ 051550Z AUTO 03003KT 360V070 9999 -RA OVC030/// 03/M01 Q1007",
      "tafRaw": null,
      "metarHtml": "METAR LIPQ 051550Z AUTO 03003KT 360V070 9999 -<span class=\"hl\">RA</span> OVC030/// 03/M01 Q1007",
      "tafHtml": null
    },
    {
      "icao": "LYPG",
      "iata": "TGD",
      "name": "Podgorica Airport / Podgorica Golubovci Airbase",
      "updatedAt": "051530Z",
      "visibility_m": 10000,
      "taf_visibility_m": null,
      "worst_visibility_m": 10000,
      "ceiling_ft": 8000,
      "hazards": [
        "RA"
      ],
      "severityScore": 17,
      "metarRaw": "METAR LYPG 051530Z 12013KT 090V150 9999 -RA FEW026 SCT050 BKN080 13/11 Q1007 NOSIG",
      "tafRaw": null,
      "metarHtml": "METAR LYPG 051530Z 12013KT 090V150 9999 -<span class=\"hl\">RA</span> FEW026 SCT050 BKN080 13/11 Q1007 NOSIG",
      "tafHtml": null
    },
    {
      "icao": "GCFV",
      "iata": "FUE",
      "name": "Fuerteventura Airport",
      "updatedAt": "051530Z",
      "visibility_m": 10000,
      "taf_visibility_m": 4000,
      "worst_visibility_m": 4000,
      "ceiling_ft": null,
      "hazards": [
        "SHRA"
      ],
      "severityScore": 14,
      "metarRaw": "METAR GCFV 051530Z 35016KT 9999 FEW020 FEW025TCU SCT030 20/13 Q1015",
      "tafRaw": "TAF GCFV 051400Z 0515/0615 02014KT 9999 SCT030 TX21/0614Z TN15/0606Z \n  PROB30 \n  TEMPO 0515/0517 32012KT \n  PROB40 0515/0520 4000 SHRA FEW020TCU",
      "metarHtml": "METAR GCFV 051530Z 35016KT 9999 FEW020 FEW025TCU SCT030 20/13 Q1015",
      "tafHtml": "TAF GCFV 051400Z 0515/0615 02014KT 9999 SCT030 TX21/0614Z TN15/0606Z \n  PROB30 \n  TEMPO 0515/0517 32012KT \n  PROB40 0515/0520 4000 <span class=\"hl\">SHRA</span> FEW020TCU"
    },
    {
      "icao": "GCLP",
      "iata": "LPA",
      "name": "Gran Canaria Airport",
      "updatedAt": "051530Z",
      "visibility_m": 10000,
      "taf_visibility_m": 4000,
      "worst_visibility_m": 4000,
      "ceiling_ft": null,
      "hazards": [
        "SHRA"
      ],
      "severityScore": 14,
      "metarRaw": "METAR GCLP 051530Z 36018G28KT 340V040 9999 FEW025 SCT030 19/15 Q1016 NOSIG",
      "tafRaw": "TAF GCLP 051400Z 0515/0615 35007KT 9999 SCT030 TX20/0614Z TN15/0606Z \n  BECMG 0515/0517 36017KT \n  PROB40 \n  TEMPO 0515/0612 36017G27KT \n  PROB40 \n  TEMPO 0515/0601 4000 SHRA FEW020TCU",
      "metarHtml": "METAR GCLP 051530Z 36018G28KT 340V040 9999 FEW025 SCT030 19/15 Q1016 NOSIG",
      "tafHtml": "TAF GCLP 051400Z 0515/0615 35007KT 9999 SCT030 TX20/0614Z TN15/0606Z \n  BECMG 0515/0517 36017KT \n  PROB40 \n  TEMPO 0515/0612 36017G27KT \n  PROB40 \n  TEMPO 0515/0601 4000 <span class=\"hl\">SHRA</span> FEW020TCU"
    },
    {
      "icao": "GCTS",
      "iata": "TFS",
      "name": "Tenerife Sur Airport",
      "updatedAt": "051530Z",
      "visibility_m": 10000,
      "taf_visibility_m": 4000,
      "worst_visibility_m": 4000,
      "ceiling_ft": 7000,
      "hazards": [
        "SHRA"
      ],
      "severityScore": 14,
      "metarRaw": "METAR GCTS 051530Z 18004KT 110V270 9999 FEW020 BKN070 21/14 Q1016 NOSIG",
      "tafRaw": "TAF GCTS 051400Z 0515/0615 VRB07KT 9999 SCT030 TX22/0614Z TN16/0606Z \n  PROB40 \n  TEMPO 0515/0518 09010KT \n  PROB30 \n  TEMPO 0515/0518 17010KT \n  PROB30 \n  TEMPO 0515/0518 4000 SHRA FEW020TCU \n  BECMG 0516/0518 07014KT \n  PROB40 \n  TEMPO 0611/0615 09020G32KT",
      "metarHtml": "METAR GCTS 051530Z 18004KT 110V270 9999 FEW020 BKN070 21/14 Q1016 NOSIG",
      "tafHtml": "TAF GCTS 051400Z 0515/0615 VRB07KT 9999 SCT030 TX22/0614Z TN16/0606Z \n  PROB40 \n  TEMPO 0515/0518 09010KT \n  PROB30 \n  TEMPO 0515/0518 17010KT \n  PROB30 \n  TEMPO 0515/0518 4000 <span class=\"hl\">SHRA</span> FEW020TCU \n  BECMG 0516/0518 07014KT \n  PROB40 \n  TEMPO 0611/0615 09020G32KT"
    },
    {
      "icao": "LFMN",
      "iata": "NCE",
      "name": "Nice-Côte d'Azur Airport",
      "updatedAt": "051530Z",
      "visibility_m": 10000,
      "taf_visibility_m": 10000,
      "worst_visibility_m": 10000,
      "ceiling_ft": 26000,
      "hazards": [
        "SHRA"
      ],
      "severityScore": 14,
      "metarRaw": "METAR LFMN 051530Z 17009KT 9999 FEW053 BKN260 12/04 Q1004 NOSIG",
      "tafRaw": "TAF LFMN 051400Z 0515/0621 24010KT CAVOK \n  BECMG 0518/0520 33010KT \n  PROB30 \n  TEMPO 0523/0603 -SHRA BKN045TCU \n  BECMG 0609/0611 VRB04KT \n  BECMG 0618/0620 34012KT",
      "metarHtml": "METAR LFMN 051530Z 17009KT 9999 FEW053 BKN260 12/04 Q1004 NOSIG",
      "tafHtml": "TAF LFMN 051400Z 0515/0621 24010KT <span class=\"hl-vis\">CAVOK</span> \n  BECMG 0518/0520 33010KT \n  PROB30 \n  TEMPO 0523/0603 -<span class=\"hl\">SHRA</span> BKN045TCU \n  BECMG 0609/0611 VRB04KT \n  BECMG 0618/0620 34012KT"
    },
    {
      "icao": "LIRF",
      "iata": "FCO",
      "name": "Rome–Fiumicino Leonardo da Vinci International Airport",
      "updatedAt": "051550Z",
      "visibility_m": 10000,
      "taf_visibility_m": 3000,
      "worst_visibility_m": 3000,
      "ceiling_ft": null,
      "hazards": [
        "SHRA"
      ],
      "severityScore": 14,
      "metarRaw": "METAR LIRF 051550Z 20006KT 9999 FEW018 SCT045 15/12 Q1002 NOSIG",
      "tafRaw": "TAF LIRF 051100Z 0512/0618 10010KT 8000 SCT020 \n  TEMPO 0512/0518 4000 SHRA \n  BECMG 0600/0602 03010KT \n  TEMPO 0600/0612 3000 SHRA",
      "metarHtml": "METAR LIRF 051550Z 20006KT 9999 FEW018 SCT045 15/12 Q1002 NOSIG",
      "tafHtml": "TAF LIRF 051100Z 0512/0618 10010KT 8000 SCT020 \n  TEMPO 0512/0518 4000 <span class=\"hl\">SHRA</span> \n  BECMG 0600/0602 03010KT \n  TEMPO 0600/0612 3000 <span class=\"hl\">SHRA</span>"
    },
    {
      "icao": "LPPS",
      "iata": "PXO",
      "name": "Porto Santo Airport",
      "updatedAt": "051530Z",
      "visibility_m": 10000,
      "taf_visibility_m": 8000,
      "worst_visibility_m": 8000,
      "ceiling_ft": null,
      "hazards": [
        "SHRA"
      ],
      "severityScore": 14,
      "metarRaw": "METAR LPPS 051530Z 03016KT 9999 SCT015 SCT030 16/08 Q1020",
      "tafRaw": "TAF LPPS 051100Z 0512/0618 02017KT 9999 SCT015 \n  TEMPO 0512/0612 02022G35KT 8000 SHRA BKN013 FEW018CB",
      "metarHtml": "METAR LPPS 051530Z 03016KT 9999 SCT015 SCT030 16/08 Q1020",
      "tafHtml": "TAF LPPS 051100Z 0512/0618 02017KT 9999 SCT015 \n  TEMPO 0512/0612 02022G35KT 8000 <span class=\"hl\">SHRA</span> BKN013 FEW018CB"
    },
    {
      "icao": "GMMN",
      "iata": "CMN",
      "name": "Mohammed V International Airport",
      "updatedAt": "051530Z",
      "visibility_m": 10000,
      "taf_visibility_m": 3000,
      "worst_visibility_m": 3000,
      "ceiling_ft": 2000,
      "hazards": [
        "RA"
      ],
      "severityScore": 12,
      "metarRaw": "METAR GMMN 051530Z 32014KT 9999 BKN020 SCT030TCU 15/11 Q1011 NOSIG",
      "tafRaw": "TAF GMMN 051100Z 0512/0618 32009KT 9999 SCT006 BKN030 \n  TEMPO 0512/0524 3000 RA BKN005 BKN020TCU \n  TEMPO 0607/0612 3101 \n  PROB40 \n  TEMPO 0516/0522 5000 RA BKN010 SCT020",
      "metarHtml": "METAR GMMN 051530Z 32014KT 9999 BKN020 SCT030TCU 15/11 Q1011 NOSIG",
      "tafHtml": "TAF GMMN 051100Z 0512/0618 32009KT 9999 SCT006 BKN030 \n  TEMPO 0512/0524 3000 <span class=\"hl\">RA</span> BKN005 BKN020TCU \n  TEMPO 0607/0612 3101 \n  PROB40 \n  TEMPO 0516/0522 5000 <span class=\"hl\">RA</span> BKN010 SCT020"
    },
    {
      "icao": "EGPF",
      "iata": "GLA",
      "name": "Glasgow Airport",
      "updatedAt": "051550Z",
      "visibility_m": 10000,
      "taf_visibility_m": 3000,
      "worst_visibility_m": 3000,
      "ceiling_ft": null,
      "hazards": [
        "RA"
      ],
      "severityScore": 12,
      "metarRaw": "METAR EGPF 051550Z AUTO 24004KT 9999 NCD M01/M05 Q1016",
      "tafRaw": "TAF EGPF 051056Z 0512/0612 28005KT CAVOK \n  BECMG 0600/0603 BKN020 \n  TEMPO 0601/0612 6000 RA -RASN BKN005 \n  PROB30 \n  TEMPO 0602/0609 3000 RASN BKN003 \n  BECMG 0609/0612 21010KT",
      "metarHtml": "METAR EGPF 051550Z AUTO 24004KT 9999 NCD M01/M05 Q1016",
      "tafHtml": "TAF EGPF 051056Z 0512/0612 28005KT <span class=\"hl-vis\">CAVOK</span> \n  BECMG 0600/0603 BKN020 \n  TEMPO 0601/0612 6000 <span class=\"hl\">RA</span> -RASN BKN005 \n  PROB30 \n  TEMPO 0602/0609 3000 RASN BKN003 \n  BECMG 0609/0612 21010KT"
    },
    {
      "icao": "LEZL",
      "iata": "SVQ",
      "name": "Sevilla Airport",
      "updatedAt": "051530Z",
      "visibility_m": 10000,
      "taf_visibility_m": 4000,
      "worst_visibility_m": 4000,
      "ceiling_ft": 3000,
      "hazards": [
        "RA"
      ],
      "severityScore": 12,
      "metarRaw": "METAR LEZL 051530Z 03012KT 340V060 9999 FEW015 BKN030 14/07 Q1007 NOSIG",
      "tafRaw": "TAF LEZL 051400Z 0515/0615 VRB03KT CAVOK TX15/0515Z TN02/0607Z \n  BECMG 0515/0516 02010KT \n  PROB30 \n  TEMPO 0517/0519 4000 RA BKN012 \n  BECMG 0518/0520 32005KT",
      "metarHtml": "METAR LEZL 051530Z 03012KT 340V060 9999 FEW015 BKN030 14/07 Q1007 NOSIG",
      "tafHtml": "TAF LEZL 051400Z 0515/0615 VRB03KT <span class=\"hl-vis\">CAVOK</span> TX15/0515Z TN02/0607Z \n  BECMG 0515/0516 02010KT \n  PROB30 \n  TEMPO 0517/0519 4000 <span class=\"hl\">RA</span> BKN012 \n  BECMG 0518/0520 32005KT"
    },
    {
      "icao": "LGTS",
      "iata": "SKG",
      "name": "Thessaloniki Macedonia International Airport",
      "updatedAt": "051550Z",
      "visibility_m": 10000,
      "taf_visibility_m": 5000,
      "worst_visibility_m": 5000,
      "ceiling_ft": null,
      "hazards": [
        "RA"
      ],
      "severityScore": 12,
      "metarRaw": "METAR LGTS 051550Z 12009KT 9999 SCT035 15/08 Q1013 NOSIG",
      "tafRaw": "TAF LGTS 051100Z 0512/0612 14010KT 9999 SCT030 \n  PROB30 \n  TEMPO 0518/0524 5000 RA",
      "metarHtml": "METAR LGTS 051550Z 12009KT 9999 SCT035 15/08 Q1013 NOSIG",
      "tafHtml": "TAF LGTS 051100Z 0512/0612 14010KT 9999 SCT030 \n  PROB30 \n  TEMPO 0518/0524 5000 <span class=\"hl\">RA</span>"
    },
    {
      "icao": "LIBP",
      "iata": "PSR",
      "name": "Abruzzo Airport",
      "updatedAt": "051550Z",
      "visibility_m": 10000,
      "taf_visibility_m": 2000,
      "worst_visibility_m": 2000,
      "ceiling_ft": null,
      "hazards": [
        "RA"
      ],
      "severityScore": 12,
      "metarRaw": "METAR LIBP 051550Z AUTO 33004KT 9999 OVC008/// 08/07 Q1006",
      "tafRaw": "TAF LIBP 051100Z 0512/0612 34006KT 2000 RA OVC004 \n  TEMPO 0516/0524 5000 NSW OVC015",
      "metarHtml": "METAR LIBP 051550Z AUTO 33004KT 9999 OVC008/// 08/07 Q1006",
      "tafHtml": "TAF LIBP 051100Z 0512/0612 34006KT 2000 <span class=\"hl\">RA</span> OVC004 \n  TEMPO 0516/0524 5000 NSW OVC015"
    },
    {
      "icao": "LICC",
      "iata": "CTA",
      "name": "Catania-Fontanarossa Airport",
      "updatedAt": "051550Z",
      "visibility_m": 8000,
      "taf_visibility_m": 4000,
      "worst_visibility_m": 4000,
      "ceiling_ft": null,
      "hazards": [
        "RA"
      ],
      "severityScore": 12,
      "metarRaw": "METAR LICC 051550Z 23011KT 8000 NSC 18/14 Q1004",
      "tafRaw": "TAF LICC 051100Z 0512/0612 26013KT 9999 SCT030 \n  TEMPO 0609/0612 4000 RA",
      "metarHtml": "METAR LICC 051550Z 23011KT 8000 NSC 18/14 Q1004",
      "tafHtml": "TAF LICC 051100Z 0512/0612 26013KT 9999 SCT030 \n  TEMPO 0609/0612 4000 <span class=\"hl\">RA</span>"
    },
    {
      "icao": "LIPR",
      "iata": "RMI",
      "name": "Federico Fellini International Airport",
      "updatedAt": "051550Z",
      "visibility_m": 10000,
      "taf_visibility_m": 2000,
      "worst_visibility_m": 2000,
      "ceiling_ft": 2500,
      "hazards": [
        "RA"
      ],
      "severityScore": 12,
      "metarRaw": "METAR LIPR 051550Z 28008KT 9999 -RA BKN025 02/01 Q1007",
      "tafRaw": "TAF LIPR 051100Z 0512/0612 29009KT 4000 -RA OVC020 \n  BECMG 0514/0516 8000 \n  BECMG 0600/0602 4000 RA \n  BECMG 0604/0606 2000 RASN OVC005",
      "metarHtml": "METAR LIPR 051550Z 28008KT 9999 -<span class=\"hl\">RA</span> BKN025 02/01 Q1007",
      "tafHtml": "TAF LIPR 051100Z 0512/0612 29009KT 4000 -<span class=\"hl\">RA</span> OVC020 \n  BECMG 0514/0516 8000 \n  BECMG 0600/0602 4000 <span class=\"hl\">RA</span> \n  BECMG 0604/0606 2000 RASN OVC005"
    },
    {
      "icao": "LIRP",
      "iata": "PSA",
      "name": "Pisa International Airport",
      "updatedAt": "051545Z",
      "visibility_m": 10000,
      "taf_visibility_m": 10000,
      "worst_visibility_m": 10000,
      "ceiling_ft": 7000,
      "hazards": [
        "RA"
      ],
      "severityScore": 12,
      "metarRaw": "METAR LIRP 051545Z 12008KT 9999 SCT040 BKN070 06/01 Q1005 NOSIG",
      "tafRaw": "TAF LIRP 051100Z 0512/0612 13010KT 9999 BKN040 BKN060 \n  TEMPO 0512/0514 RA \n  TEMPO 0515/0518 FEW010 \n  BECMG 0518/0520 NSC \n  TEMPO 0608/0610 RA BKN040",
      "metarHtml": "METAR LIRP 051545Z 12008KT 9999 SCT040 BKN070 06/01 Q1005 NOSIG",
      "tafHtml": "TAF LIRP 051100Z 0512/0612 13010KT 9999 BKN040 BKN060 \n  TEMPO 0512/0514 <span class=\"hl\">RA</span> \n  TEMPO 0515/0518 FEW010 \n  BECMG 0518/0520 NSC \n  TEMPO 0608/0610 <span class=\"hl\">RA</span> BKN040"
    },
    {
      "icao": "LIRZ",
      "iata": "PEG",
      "name": "Perugia San Francesco d'Assisi – Umbria International Airport",
      "updatedAt": "051550Z",
      "visibility_m": 10000,
      "taf_visibility_m": 6000,
      "worst_visibility_m": 6000,
      "ceiling_ft": null,
      "hazards": [
        "RA"
      ],
      "severityScore": 12,
      "metarRaw": "METAR LIRZ 051550Z AUTO 34007KT 9999 -RA OVC011/// 05/04 Q1004",
      "tafRaw": "TAF LIRZ 051100Z 0512/0612 01010KT 6000 RA BKN020 \n  BECMG 0520/0522 NSW \n  TEMPO 0606/0612 RA",
      "metarHtml": "METAR LIRZ 051550Z AUTO 34007KT 9999 -<span class=\"hl\">RA</span> OVC011/// 05/04 Q1004",
      "tafHtml": "TAF LIRZ 051100Z 0512/0612 01010KT 6000 <span class=\"hl\">RA</span> BKN020 \n  BECMG 0520/0522 NSW \n  TEMPO 0606/0612 <span class=\"hl\">RA</span>"
    },
    {
      "icao": "LWOH",
      "iata": "OHD",
      "name": "Ohrid St. Paul the Apostle Airport",
      "updatedAt": "051550Z",
      "visibility_m": 10000,
      "taf_visibility_m": 10000,
      "worst_visibility_m": 10000,
      "ceiling_ft": 3500,
      "hazards": [
        "RA"
      ],
      "severityScore": 12,
      "metarRaw": "METAR LWOH 051550Z 15014KT 9999 BKN035 OVC065 11/07 Q1011",
      "tafRaw": "TAF LWOH 051430Z 0515/0615 16010KT 9999 RA SCT010 BKN040 \n  TEMPO 0515/0522 16015G25KT",
      "metarHtml": "METAR LWOH 051550Z 15014KT 9999 BKN035 OVC065 11/07 Q1011",
      "tafHtml": "TAF LWOH 051430Z 0515/0615 16010KT 9999 <span class=\"hl\">RA</span> SCT010 BKN040 \n  TEMPO 0515/0522 16015G25KT"
    },
    {
      "icao": "LWSK",
      "iata": "SKP",
      "name": "Skopje International Airport",
      "updatedAt": "051550Z",
      "visibility_m": 10000,
      "taf_visibility_m": 10000,
      "worst_visibility_m": 10000,
      "ceiling_ft": 10000,
      "hazards": [
        "RA"
      ],
      "severityScore": 12,
      "metarRaw": "METAR LWSK 051550Z 11013KT 9999 SCT050 BKN100 13/07 Q1010 NOSIG",
      "tafRaw": "TAF LWSK 051430Z 0515/0615 13012KT 9999 FEW050 BKN090 \n  TEMPO 0515/0520 16020KT \n  TEMPO 0516/0603 RA SCT020 OVC045",
      "metarHtml": "METAR LWSK 051550Z 11013KT 9999 SCT050 BKN100 13/07 Q1010 NOSIG",
      "tafHtml": "TAF LWSK 051430Z 0515/0615 13012KT 9999 FEW050 BKN090 \n  TEMPO 0515/0520 16020KT \n  TEMPO 0516/0603 <span class=\"hl\">RA</span> SCT020 OVC045"
    },
    {
      "icao": "LYNI",
      "iata": "INI",
      "name": "Niš Constantine the Great Airport",
      "updatedAt": "051530Z",
      "visibility_m": 10000,
      "taf_visibility_m": 10000,
      "worst_visibility_m": 10000,
      "ceiling_ft": 9000,
      "hazards": [
        "RA"
      ],
      "severityScore": 12,
      "metarRaw": "METAR LYNI 051530Z VRB01KT 9999 BKN090 03/02 Q1010 NOSIG",
      "tafRaw": "TAF LYNI 051100Z 0512/0612 06006KT 9999 BKN070 TX05/0513Z TN02/0606Z \n  BECMG 0604/0606 34010KT BKN010 BKN030 \n  TEMPO 0605/0610 RA",
      "metarHtml": "METAR LYNI 051530Z VRB01KT 9999 BKN090 03/02 Q1010 NOSIG",
      "tafHtml": "TAF LYNI 051100Z 0512/0612 06006KT 9999 BKN070 TX05/0513Z TN02/0606Z \n  BECMG 0604/0606 34010KT BKN010 BKN030 \n  TEMPO 0605/0610 <span class=\"hl\">RA</span>"
    },
    {
      "icao": "EDJA",
      "iata": "FMM",
      "name": "Memmingen Allgau Airport",
      "updatedAt": "051550Z",
      "visibility_m": 10000,
      "taf_visibility_m": 1200,
      "worst_visibility_m": 1200,
      "ceiling_ft": null,
      "hazards": [],
      "severityScore": 10,
      "metarRaw": "METAR EDJA 051550Z 19006KT CAVOK M07/M12 Q1011",
      "tafRaw": "TAF EDJA 051400Z 0515/0524 22004KT 9999 SCT030 \n  BECMG 0520/0522 1200 BCFG",
      "metarHtml": "METAR EDJA 051550Z 19006KT <span class=\"hl-vis\">CAVOK</span> M07/M12 Q1011",
      "tafHtml": "TAF EDJA 051400Z 0515/0524 22004KT 9999 SCT030 \n  BECMG 0520/0522 1200 BCFG"
    },
    {
      "icao": "EDNY",
      "iata": "FDH",
      "name": "Friedrichshafen Airport",
      "updatedAt": "051550Z",
      "visibility_m": 10000,
      "taf_visibility_m": 1200,
      "worst_visibility_m": 1200,
      "ceiling_ft": null,
      "hazards": [],
      "severityScore": 10,
      "metarRaw": "METAR EDNY 051550Z COR 11003KT CAVOK M05/M10 Q1013",
      "tafRaw": "TAF EDNY 051400Z 0515/0524 VRB03KT 9999 SCT035 \n  PROB30 \n  TEMPO 0521/0524 1200 BCFG",
      "metarHtml": "METAR EDNY 051550Z COR 11003KT <span class=\"hl-vis\">CAVOK</span> M05/M10 Q1013",
      "tafHtml": "TAF EDNY 051400Z 0515/0524 VRB03KT 9999 SCT035 \n  PROB30 \n  TEMPO 0521/0524 1200 BCFG"
    },
    {
      "icao": "EGKK",
      "iata": "LGW",
      "name": "London Gatwick Airport",
      "updatedAt": "051550Z",
      "visibility_m": 10000,
      "taf_visibility_m": 4000,
      "worst_visibility_m": 4000,
      "ceiling_ft": null,
      "hazards": [
        "BR"
      ],
      "severityScore": 10,
      "metarRaw": "METAR EGKK 051550Z 31005KT CAVOK 02/M04 Q1014",
      "tafRaw": "TAF EGKK 051053Z 0512/0618 32006KT 9999 FEW035 \n  PROB40 0523/0610 4000 BR",
      "metarHtml": "METAR EGKK 051550Z 31005KT <span class=\"hl-vis\">CAVOK</span> 02/M04 Q1014",
      "tafHtml": "TAF EGKK 051053Z 0512/0618 32006KT 9999 FEW035 \n  PROB40 0523/0610 4000 <span class=\"hl\">BR</span>"
    },
    {
      "icao": "ENBR",
      "iata": "BGO",
      "name": "Bergen Airport, Flesland",
      "updatedAt": "051550Z",
      "visibility_m": 10000,
      "taf_visibility_m": 1200,
      "worst_visibility_m": 1200,
      "ceiling_ft": null,
      "hazards": [],
      "severityScore": 10,
      "metarRaw": "METAR ENBR 051550Z 08003KT 9999 SCT050 M06/M13 Q1010 NOSIG RMK WIND 1200FT 11015KT",
      "tafRaw": "TAF ENBR 051100Z 0512/0612 10008KT 9999 FEW040 \n  PROB40 \n  TEMPO 0512/0520 1200 SHSNGS VV008 \n  PROB40 \n  TEMPO 0512/0520 SCT030CB",
      "metarHtml": "METAR ENBR 051550Z 08003KT 9999 SCT050 M06/M13 Q1010 NOSIG RMK WIND 1200FT 11015KT",
      "tafHtml": "TAF ENBR 051100Z 0512/0612 10008KT 9999 FEW040 \n  PROB40 \n  TEMPO 0512/0520 1200 SHSNGS VV008 \n  PROB40 \n  TEMPO 0512/0520 SCT030CB"
    },
    {
      "icao": "EPKT",
      "iata": "KTW",
      "name": "Katowice Wojciech Korfanty International Airport",
      "updatedAt": "051530Z",
      "visibility_m": 10000,
      "taf_visibility_m": 4000,
      "worst_visibility_m": 4000,
      "ceiling_ft": null,
      "hazards": [
        "BR"
      ],
      "severityScore": 10,
      "metarRaw": "METAR EPKT 051530Z 01002KT CAVOK M04/M09 Q1013",
      "tafRaw": "TAF EPKT 051130Z 0512/0612 VRB02KT CAVOK \n  PROB30 0600/0606 4000 BR",
      "metarHtml": "METAR EPKT 051530Z 01002KT <span class=\"hl-vis\">CAVOK</span> M04/M09 Q1013",
      "tafHtml": "TAF EPKT 051130Z 0512/0612 VRB02KT <span class=\"hl-vis\">CAVOK</span> \n  PROB30 0600/0606 4000 <span class=\"hl\">BR</span>"
    },
    {
      "icao": "EPWR",
      "iata": "WRO",
      "name": "Copernicus Wrocław Airport",
      "updatedAt": "051530Z",
      "visibility_m": 10000,
      "taf_visibility_m": 2000,
      "worst_visibility_m": 2000,
      "ceiling_ft": null,
      "hazards": [
        "BR"
      ],
      "severityScore": 10,
      "metarRaw": "METAR EPWR 051530Z 14004KT CAVOK M04/M08 Q1013",
      "tafRaw": "TAF EPWR 051430Z 0515/0615 12005KT CAVOK \n  BECMG 0518/0521 4000 BR \n  TEMPO 0523/0606 2000 BR \n  BECMG 0606/0609 CAVOK",
      "metarHtml": "METAR EPWR 051530Z 14004KT <span class=\"hl-vis\">CAVOK</span> M04/M08 Q1013",
      "tafHtml": "TAF EPWR 051430Z 0515/0615 12005KT <span class=\"hl-vis\">CAVOK</span> \n  BECMG 0518/0521 4000 <span class=\"hl\">BR</span> \n  TEMPO 0523/0606 2000 <span class=\"hl\">BR</span> \n  BECMG 0606/0609 <span class=\"hl-vis\">CAVOK</span>"
    },
    {
      "icao": "UBBB",
      "iata": "GYD",
      "name": "Heydar Aliyev International Airport",
      "updatedAt": "051530Z",
      "visibility_m": 10000,
      "taf_visibility_m": 3000,
      "worst_visibility_m": 3000,
      "ceiling_ft": null,
      "hazards": [
        "BR"
      ],
      "severityScore": 10,
      "metarRaw": "METAR UBBB 051530Z 15012KT CAVOK 10/05 Q1023 NOSIG",
      "tafRaw": "TAF UBBB 051054Z 0512/0612 18014G24KT CAVOK TX12/0512Z TN02/0300Z \n  TEMPO 0512/0515 20020G30KT \n  BECMG 0518/0520 26005KT \n  TEMPO 0600/0604 VRB04KT 3000 BR BCFG SCT006",
      "metarHtml": "METAR UBBB 051530Z 15012KT <span class=\"hl-vis\">CAVOK</span> 10/05 Q1023 NOSIG",
      "tafHtml": "TAF UBBB 051054Z 0512/0612 18014G24KT <span class=\"hl-vis\">CAVOK</span> TX12/0512Z TN02/0300Z \n  TEMPO 0512/0515 20020G30KT \n  BECMG 0518/0520 26005KT \n  TEMPO 0600/0604 VRB04KT 3000 <span class=\"hl\">BR</span> BCFG SCT006"
    },
    {
      "icao": "UDSG",
      "iata": "LWN",
      "name": "Shirak International Airport",
      "updatedAt": "051530Z",
      "visibility_m": 10000,
      "taf_visibility_m": 5000,
      "worst_visibility_m": 5000,
      "ceiling_ft": null,
      "hazards": [
        "BR"
      ],
      "severityScore": 10,
      "metarRaw": "METAR UDSG 051530Z 03005KT 9999 NSC M13/M16 Q1030 NOSIG",
      "tafRaw": "TAF UDSG 051100Z 0512/0612 VRB06KT 9999 FEW050 \n  TEMPO 0515/0524 5000 BR",
      "metarHtml": "METAR UDSG 051530Z 03005KT 9999 NSC M13/M16 Q1030 NOSIG",
      "tafHtml": "TAF UDSG 051100Z 0512/0612 VRB06KT 9999 FEW050 \n  TEMPO 0515/0524 5000 <span class=\"hl\">BR</span>"
    },
    {
      "icao": "UDYZ",
      "iata": "EVN",
      "name": "Zvartnots International Airport",
      "updatedAt": "051530Z",
      "visibility_m": 3700,
      "taf_visibility_m": 2300,
      "worst_visibility_m": 2300,
      "ceiling_ft": null,
      "hazards": [
        "BR"
      ],
      "severityScore": 10,
      "metarRaw": "METAR UDYZ 051530Z 35003KT 3700 BR NSC M09/M12 Q1033 NOSIG",
      "tafRaw": "TAF UDYZ 051100Z 0512/0612 VRB04KT 6000 NSC \n  TEMPO 0515/0524 2300 BR",
      "metarHtml": "METAR UDYZ 051530Z 35003KT 3700 <span class=\"hl\">BR</span> NSC M09/M12 Q1033 NOSIG",
      "tafHtml": "TAF UDYZ 051100Z 0512/0612 VRB04KT 6000 NSC \n  TEMPO 0515/0524 2300 <span class=\"hl\">BR</span>"
    },
    {
      "icao": "BKPR",
      "iata": "PRN",
      "name": "Priština Adem Jashari International Airport",
      "updatedAt": null,
      "visibility_m": null,
      "taf_visibility_m": null,
      "worst_visibility_m": null,
      "ceiling_ft": null,
      "hazards": [],
      "severityScore": 5,
      "metarRaw": null,
      "tafRaw": null,
      "metarHtml": null,
      "tafHtml": null
    },
    {
      "icao": "EDSB",
      "iata": "FKB",
      "name": "Karlsruhe Baden-Baden Airport",
      "updatedAt": "051550Z",
      "visibility_m": 10000,
      "taf_visibility_m": null,
      "worst_visibility_m": 10000,
      "ceiling_ft": null,
      "hazards": [],
      "severityScore": 5,
      "metarRaw": "METAR EDSB 051550Z 33004KT CAVOK M03/M06 Q1014",
      "tafRaw": null,
      "metarHtml": "METAR EDSB 051550Z 33004KT <span class=\"hl-vis\">CAVOK</span> M03/M06 Q1014",
      "tafHtml": null
    },
    {
      "icao": "EGGW",
      "iata": "LTN",
      "name": "London Luton Airport",
      "updatedAt": "051550Z",
      "visibility_m": 10000,
      "taf_visibility_m": null,
      "worst_visibility_m": 10000,
      "ceiling_ft": null,
      "hazards": [],
      "severityScore": 5,
      "metarRaw": "METAR EGGW 051550Z AUTO 31012KT 9999 NCD M00/M05 Q1013",
      "tafRaw": null,
      "metarHtml": "METAR EGGW 051550Z AUTO 31012KT 9999 NCD M00/M05 Q1013",
      "tafHtml": null
    },
    {
      "icao": "LECH",
      "iata": "CDT",
      "name": "Castellón-Costa Azahar Airport",
      "updatedAt": "051530Z",
      "visibility_m": 10000,
      "taf_visibility_m": null,
      "worst_visibility_m": 10000,
      "ceiling_ft": 7000,
      "hazards": [],
      "severityScore": 5,
      "metarRaw": "METAR LECH 051530Z AUTO VRB01KT 9999 OVC070 05/M03 Q1008",
      "tafRaw": null,
      "metarHtml": "METAR LECH 051530Z AUTO VRB01KT 9999 OVC070 05/M03 Q1008",
      "tafHtml": null
    },
    {
      "icao": "LEVC",
      "iata": "VLC",
      "name": "Valencia Airport",
      "updatedAt": "051530Z",
      "visibility_m": 10000,
      "taf_visibility_m": null,
      "worst_visibility_m": 10000,
      "ceiling_ft": 2400,
      "hazards": [],
      "severityScore": 5,
      "metarRaw": "METAR LEVC 051530Z 07003KT 350V110 9999 BKN024 07/04 Q1009 NOSIG",
      "tafRaw": null,
      "metarHtml": "METAR LEVC 051530Z 07003KT 350V110 9999 BKN024 07/04 Q1009 NOSIG",
      "tafHtml": null
    },
    {
      "icao": "LEXJ",
      "iata": "SDR",
      "name": "Seve Ballesteros-Santander Airport",
      "updatedAt": "051530Z",
      "visibility_m": 10000,
      "taf_visibility_m": null,
      "worst_visibility_m": 10000,
      "ceiling_ft": null,
      "hazards": [],
      "severityScore": 5,
      "metarRaw": "METAR LEXJ 051530Z VRB01KT 9999 FEW075 09/M01 Q1015",
      "tafRaw": null,
      "metarHtml": "METAR LEXJ 051530Z VRB01KT 9999 FEW075 09/M01 Q1015",
      "tafHtml": null
    },
    {
      "icao": "LFLS",
      "iata": "GNB",
      "name": "Grenoble Alpes Isère Airport",
      "updatedAt": "051530Z",
      "visibility_m": 10000,
      "taf_visibility_m": null,
      "worst_visibility_m": 10000,
      "ceiling_ft": null,
      "hazards": [],
      "severityScore": 5,
      "metarRaw": "METAR LFLS 051530Z AUTO 35010KT 9999 FEW027 M02/M07 Q1011",
      "tafRaw": null,
      "metarHtml": "METAR LFLS 051530Z AUTO 35010KT 9999 FEW027 M02/M07 Q1011",
      "tafHtml": null
    },
    {
      "icao": "BIKF",
      "iata": "KEF",
      "name": "Keflavik International Airport",
      "updatedAt": "051530Z",
      "visibility_m": 10000,
      "taf_visibility_m": 10000,
      "worst_visibility_m": 10000,
      "ceiling_ft": null,
      "hazards": [],
      "severityScore": 0,
      "metarRaw": "METAR BIKF 051530Z 01009KT 9999 FEW017 M02/M04 Q1016",
      "tafRaw": "TAF BIKF 051340Z 0515/0615 03010KT 9999 SCT018 TXM01/0515Z TNM07/0609Z \n  BECMG 0518/0520 CAVOK",
      "metarHtml": "METAR BIKF 051530Z 01009KT 9999 FEW017 M02/M04 Q1016",
      "tafHtml": "TAF BIKF 051340Z 0515/0615 03010KT 9999 SCT018 TXM01/0515Z TNM07/0609Z \n  BECMG 0518/0520 <span class=\"hl-vis\">CAVOK</span>"
    },
    {
      "icao": "GMAD",
      "iata": "AGA",
      "name": "Al Massira Airport",
      "updatedAt": "051530Z",
      "visibility_m": 10000,
      "taf_visibility_m": 8000,
      "worst_visibility_m": 8000,
      "ceiling_ft": null,
      "hazards": [],
      "severityScore": 0,
      "metarRaw": "METAR GMAD 051530Z 26015KT 9999 SCT026TCU SCT030 19/15 Q1010 NOSIG",
      "tafRaw": "TAF GMAD 051100Z 0512/0618 27010KT 8000 FEW010 SCT023TCU SCT080",
      "metarHtml": "METAR GMAD 051530Z 26015KT 9999 SCT026TCU SCT030 19/15 Q1010 NOSIG",
      "tafHtml": "TAF GMAD 051100Z 0512/0618 27010KT 8000 FEW010 SCT023TCU SCT080"
    },
    {
      "icao": "EDDB",
      "iata": "BER",
      "name": "Berlin Brandenburg Airport",
      "updatedAt": "051550Z",
      "visibility_m": 10000,
      "taf_visibility_m": 10000,
      "worst_visibility_m": 10000,
      "ceiling_ft": null,
      "hazards": [],
      "severityScore": 0,
      "metarRaw": "METAR EDDB 051550Z AUTO 18005KT CAVOK M02/M06 Q1012 NOSIG",
      "tafRaw": "TAF EDDB 051100Z 0512/0612 19006KT 9999 SCT045 \n  PROB30 \n  TEMPO 0607/0610 BKN007",
      "metarHtml": "METAR EDDB 051550Z AUTO 18005KT <span class=\"hl-vis\">CAVOK</span> M02/M06 Q1012 NOSIG",
      "tafHtml": "TAF EDDB 051100Z 0512/0612 19006KT 9999 SCT045 \n  PROB30 \n  TEMPO 0607/0610 BKN007"
    },
    {
      "icao": "EDDN",
      "iata": "NUE",
      "name": "Nuremberg Airport",
      "updatedAt": "051550Z",
      "visibility_m": 10000,
      "taf_visibility_m": 10000,
      "worst_visibility_m": 10000,
      "ceiling_ft": null,
      "hazards": [],
      "severityScore": 0,
      "metarRaw": "METAR EDDN 051550Z AUTO 28002KT 9999 FEW029 M05/M09 Q1013 NOSIG",
      "tafRaw": "TAF EDDN 051100Z 0512/0612 24005KT 9999 SCT035 \n  BECMG 0518/0520 14005KT \n  BECMG 0610/0612 25004KT",
      "metarHtml": "METAR EDDN 051550Z AUTO 28002KT 9999 FEW029 M05/M09 Q1013 NOSIG",
      "tafHtml": "TAF EDDN 051100Z 0512/0612 24005KT 9999 SCT035 \n  BECMG 0518/0520 14005KT \n  BECMG 0610/0612 25004KT"
    },
    {
      "icao": "EDDS",
      "iata": "STR",
      "name": "Stuttgart Airport",
      "updatedAt": "051550Z",
      "visibility_m": 10000,
      "taf_visibility_m": 10000,
      "worst_visibility_m": 10000,
      "ceiling_ft": null,
      "hazards": [],
      "severityScore": 0,
      "metarRaw": "METAR EDDS 051550Z AUTO VRB02KT CAVOK M04/M11 Q1012 NOSIG",
      "tafRaw": "TAF EDDS 051100Z 0512/0612 19003KT CAVOK",
      "metarHtml": "METAR EDDS 051550Z AUTO VRB02KT <span class=\"hl-vis\">CAVOK</span> M04/M11 Q1012 NOSIG",
      "tafHtml": "TAF EDDS 051100Z 0512/0612 19003KT <span class=\"hl-vis\">CAVOK</span>"
    },
    {
      "icao": "EGBB",
      "iata": "BHX",
      "name": "Birmingham Airport",
      "updatedAt": "051550Z",
      "visibility_m": 10000,
      "taf_visibility_m": 6000,
      "worst_visibility_m": 6000,
      "ceiling_ft": null,
      "hazards": [],
      "severityScore": 0,
      "metarRaw": "METAR EGBB 051550Z 32009KT CAVOK M00/M05 Q1015",
      "tafRaw": "TAF EGBB 051059Z 0512/0612 31008KT 9999 FEW025 \n  PROB40 0603/0611 6000",
      "metarHtml": "METAR EGBB 051550Z 32009KT <span class=\"hl-vis\">CAVOK</span> M00/M05 Q1015",
      "tafHtml": "TAF EGBB 051059Z 0512/0612 31008KT 9999 FEW025 \n  PROB40 0603/0611 6000"
    },
    {
      "icao": "EGGP",
      "iata": "LPL",
      "name": "Liverpool John Lennon Airport",
      "updatedAt": "051550Z",
      "visibility_m": 10000,
      "taf_visibility_m": 6000,
      "worst_visibility_m": 6000,
      "ceiling_ft": null,
      "hazards": [],
      "severityScore": 0,
      "metarRaw": "METAR EGGP 051550Z 34003KT CAVOK 01/M04 Q1016",
      "tafRaw": "TAF EGGP 051053Z 0512/0612 31005KT 9999 FEW030 \n  PROB30 \n  TEMPO 0518/0607 9000 \n  PROB30 \n  TEMPO 0607/0612 6000 -RASN BKN012",
      "metarHtml": "METAR EGGP 051550Z 34003KT <span class=\"hl-vis\">CAVOK</span> 01/M04 Q1016",
      "tafHtml": "TAF EGGP 051053Z 0512/0612 31005KT 9999 FEW030 \n  PROB30 \n  TEMPO 0518/0607 9000 \n  PROB30 \n  TEMPO 0607/0612 6000 -RASN BKN012"
    },
    {
      "icao": "ENAL",
      "iata": "AES",
      "name": "Ålesund Airport, Vigra",
      "updatedAt": "051550Z",
      "visibility_m": 10000,
      "taf_visibility_m": 10000,
      "worst_visibility_m": 10000,
      "ceiling_ft": null,
      "hazards": [],
      "severityScore": 0,
      "metarRaw": "METAR ENAL 051550Z 14010KT 9999 SCT035 M04/M11 Q1011",
      "tafRaw": "TAF ENAL 051400Z 0515/0524 14012KT CAVOK",
      "metarHtml": "METAR ENAL 051550Z 14010KT 9999 SCT035 M04/M11 Q1011",
      "tafHtml": "TAF ENAL 051400Z 0515/0524 14012KT <span class=\"hl-vis\">CAVOK</span>"
    },
    {
      "icao": "ENTC",
      "iata": "TOS",
      "name": "Tromsø Airport, Langnes",
      "updatedAt": "051550Z",
      "visibility_m": 10000,
      "taf_visibility_m": 10000,
      "worst_visibility_m": 10000,
      "ceiling_ft": null,
      "hazards": [],
      "severityScore": 0,
      "metarRaw": "METAR ENTC 051550Z 05004KT CAVOK M10/M13 Q1010 NOSIG RMK WIND 2600FT 12008KT",
      "tafRaw": "TAF ENTC 051100Z 0512/0612 04010KT 9999 FEW020 SCT035 \n  BECMG 0512/0514 24008KT",
      "metarHtml": "METAR ENTC 051550Z 05004KT <span class=\"hl-vis\">CAVOK</span> M10/M13 Q1010 NOSIG RMK WIND 2600FT 12008KT",
      "tafHtml": "TAF ENTC 051100Z 0512/0612 04010KT 9999 FEW020 SCT035 \n  BECMG 0512/0514 24008KT"
    },
    {
      "icao": "ENVA",
      "iata": "TRD",
      "name": "Trondheim Airport, Værnes",
      "updatedAt": "051550Z",
      "visibility_m": 10000,
      "taf_visibility_m": 10000,
      "worst_visibility_m": 10000,
      "ceiling_ft": null,
      "hazards": [],
      "severityScore": 0,
      "metarRaw": "METAR ENVA 051550Z 08004KT CAVOK M16/M18 Q1013 NOSIG RMK WIND 670FT 10005KT",
      "tafRaw": "TAF ENVA 051100Z 0512/0612 11008KT CAVOK",
      "metarHtml": "METAR ENVA 051550Z 08004KT <span class=\"hl-vis\">CAVOK</span> M16/M18 Q1013 NOSIG RMK WIND 670FT 10005KT",
      "tafHtml": "TAF ENVA 051100Z 0512/0612 11008KT <span class=\"hl-vis\">CAVOK</span>"
    },
    {
      "icao": "EPRA",
      "iata": "RDO",
      "name": "Warsaw Radom Airport",
      "updatedAt": "051530Z",
      "visibility_m": 10000,
      "taf_visibility_m": 10000,
      "worst_visibility_m": 10000,
      "ceiling_ft": null,
      "hazards": [],
      "severityScore": 0,
      "metarRaw": "METAR EPRA 051530Z 09006KT CAVOK M04/M09 Q1015",
      "tafRaw": "TAF EPRA 051430Z 0515/0524 10006KT CAVOK",
      "metarHtml": "METAR EPRA 051530Z 09006KT <span class=\"hl-vis\">CAVOK</span> M04/M09 Q1015",
      "tafHtml": "TAF EPRA 051430Z 0515/0524 10006KT <span class=\"hl-vis\">CAVOK</span>"
    },
    {
      "icao": "HEGN",
      "iata": "HRG",
      "name": "Hurghada International Airport",
      "updatedAt": "051500Z",
      "visibility_m": 10000,
      "taf_visibility_m": 10000,
      "worst_visibility_m": 10000,
      "ceiling_ft": null,
      "hazards": [],
      "severityScore": 0,
      "metarRaw": "METAR HEGN 051500Z 02002KT CAVOK 23/11 Q1017 NOSIG",
      "tafRaw": "TAF HEGN 051100Z 0512/0618 36016KT CAVOK",
      "metarHtml": "METAR HEGN 051500Z 02002KT <span class=\"hl-vis\">CAVOK</span> 23/11 Q1017 NOSIG",
      "tafHtml": "TAF HEGN 051100Z 0512/0618 36016KT <span class=\"hl-vis\">CAVOK</span>"
    },
    {
      "icao": "HEMA",
      "iata": "RMF",
      "name": "Marsa Alam International Airport",
      "updatedAt": "051500Z",
      "visibility_m": 4000,
      "taf_visibility_m": 10000,
      "worst_visibility_m": 4000,
      "ceiling_ft": null,
      "hazards": [],
      "severityScore": 0,
      "metarRaw": "METAR HEMA 051500Z 35011KT 4000 SA NSC 23/16 Q1017 NOSIG",
      "tafRaw": "TAF HEMA 051100Z 0512/0618 35016KT CAVOK",
      "metarHtml": "METAR HEMA 051500Z 35011KT 4000 SA NSC 23/16 Q1017 NOSIG",
      "tafHtml": "TAF HEMA 051100Z 0512/0618 35016KT <span class=\"hl-vis\">CAVOK</span>"
    },
    {
      "icao": "HESH",
      "iata": "SSH",
      "name": "Sharm El Sheikh International Airport",
      "updatedAt": "051500Z",
      "visibility_m": 10000,
      "taf_visibility_m": 10000,
      "worst_visibility_m": 10000,
      "ceiling_ft": null,
      "hazards": [],
      "severityScore": 0,
      "metarRaw": "METAR HESH 051500Z 36005KT CAVOK 24/11 Q1017 NOSIG",
      "tafRaw": "TAF HESH 051100Z 0512/0618 01013KT CAVOK",
      "metarHtml": "METAR HESH 051500Z 36005KT <span class=\"hl-vis\">CAVOK</span> 24/11 Q1017 NOSIG",
      "tafHtml": "TAF HESH 051100Z 0512/0618 01013KT <span class=\"hl-vis\">CAVOK</span>"
    },
    {
      "icao": "LBPD",
      "iata": "PDV",
      "name": "Plovdiv International Airport",
      "updatedAt": "051530Z",
      "visibility_m": 10000,
      "taf_visibility_m": 10000,
      "worst_visibility_m": 10000,
      "ceiling_ft": null,
      "hazards": [],
      "severityScore": 0,
      "metarRaw": "METAR LBPD 051530Z AUTO 25002KT 9999 FEW071/// OVC120/// 11/11 Q1012 NOSIG",
      "tafRaw": "TAF LBPD 051100Z 0512/0612 VRB04KT 9999 SCT060 \n  BECMG 0514/0515 13010KT \n  PROB30 \n  TEMPO 0515/0519 15020G30KT \n  BECMG 0519/0521 VRB03KT",
      "metarHtml": "METAR LBPD 051530Z AUTO 25002KT 9999 FEW071/// OVC120/// 11/11 Q1012 NOSIG",
      "tafHtml": "TAF LBPD 051100Z 0512/0612 VRB04KT 9999 SCT060 \n  BECMG 0514/0515 13010KT \n  PROB30 \n  TEMPO 0515/0519 15020G30KT \n  BECMG 0519/0521 VRB03KT"
    },
    {
      "icao": "LBSF",
      "iata": "SOF",
      "name": "Sofia Airport",
      "updatedAt": "051530Z",
      "visibility_m": 10000,
      "taf_visibility_m": 10000,
      "worst_visibility_m": 10000,
      "ceiling_ft": 5400,
      "hazards": [],
      "severityScore": 0,
      "metarRaw": "METAR LBSF 051530Z 07006KT 340V140 9999 BKN054 11/06 Q1011 NOSIG",
      "tafRaw": "TAF LBSF 051100Z 0512/0612 11010KT 9999 SCT040 BKN060 \n  PROB40 \n  TEMPO 0513/0520 21018G30KT \n  BECMG 0607/0609 VRB04KT",
      "metarHtml": "METAR LBSF 051530Z 07006KT 340V140 9999 BKN054 11/06 Q1011 NOSIG",
      "tafHtml": "TAF LBSF 051100Z 0512/0612 11010KT 9999 SCT040 BKN060 \n  PROB40 \n  TEMPO 0513/0520 21018G30KT \n  BECMG 0607/0609 VRB04KT"
    },
    {
      "icao": "LCLK",
      "iata": "LCA",
      "name": "Larnaca International Airport",
      "updatedAt": "051530Z",
      "visibility_m": 10000,
      "taf_visibility_m": 10000,
      "worst_visibility_m": 10000,
      "ceiling_ft": null,
      "hazards": [],
      "severityScore": 0,
      "metarRaw": "METAR LCLK 051530Z 02009KT 350V050 CAVOK 15/10 Q1021 NOSIG",
      "tafRaw": "TAF LCLK 051130Z 0512/0612 05014KT CAVOK \n  BECMG 0517/0519 34008KT \n  BECMG 0610/0612 07012KT",
      "metarHtml": "METAR LCLK 051530Z 02009KT 350V050 <span class=\"hl-vis\">CAVOK</span> 15/10 Q1021 NOSIG",
      "tafHtml": "TAF LCLK 051130Z 0512/0612 05014KT <span class=\"hl-vis\">CAVOK</span> \n  BECMG 0517/0519 34008KT \n  BECMG 0610/0612 07012KT"
    },
    {
      "icao": "LCPH",
      "iata": "PFO",
      "name": "Paphos International Airport",
      "updatedAt": "051530Z",
      "visibility_m": 10000,
      "taf_visibility_m": 10000,
      "worst_visibility_m": 10000,
      "ceiling_ft": null,
      "hazards": [],
      "severityScore": 0,
      "metarRaw": "METAR LCPH 051530Z 33005KT CAVOK 16/08 Q1020 NOSIG",
      "tafRaw": "TAF LCPH 051130Z 0512/0612 14014KT 9999 FEW040 \n  BECMG 0514/0516 08008KT \n  BECMG 0610/0612 14012KT",
      "metarHtml": "METAR LCPH 051530Z 33005KT <span class=\"hl-vis\">CAVOK</span> 16/08 Q1020 NOSIG",
      "tafHtml": "TAF LCPH 051130Z 0512/0612 14014KT 9999 FEW040 \n  BECMG 0514/0516 08008KT \n  BECMG 0610/0612 14012KT"
    },
    {
      "icao": "LEBL",
      "iata": "BCN",
      "name": "Josep Tarradellas Barcelona-El Prat Airport",
      "updatedAt": "051530Z",
      "visibility_m": 10000,
      "taf_visibility_m": 10000,
      "worst_visibility_m": 10000,
      "ceiling_ft": null,
      "hazards": [],
      "severityScore": 0,
      "metarRaw": "METAR LEBL 051530Z 33012KT 290V360 9999 FEW030 05/00 Q1009 NOSIG",
      "tafRaw": "TAF LEBL 051100Z 0512/0612 33013KT 9999 BKN045 TX08/0513Z TN01/0606Z \n  PROB40 \n  TEMPO 0512/0612 33016G30KT \n  PROB30 \n  TEMPO 0512/0524 RASN FEW030TCU BKN050",
      "metarHtml": "METAR LEBL 051530Z 33012KT 290V360 9999 FEW030 05/00 Q1009 NOSIG",
      "tafHtml": "TAF LEBL 051100Z 0512/0612 33013KT 9999 BKN045 TX08/0513Z TN01/0606Z \n  PROB40 \n  TEMPO 0512/0612 33016G30KT \n  PROB30 \n  TEMPO 0512/0524 RASN FEW030TCU BKN050"
    },
    {
      "icao": "LEMD",
      "iata": "MAD",
      "name": "Adolfo Suárez Madrid–Barajas Airport",
      "updatedAt": "051530Z",
      "visibility_m": 10000,
      "taf_visibility_m": 10000,
      "worst_visibility_m": 10000,
      "ceiling_ft": null,
      "hazards": [],
      "severityScore": 0,
      "metarRaw": "METAR LEMD 051530Z 35010KT 330V030 9999 FEW040 05/M05 Q1009 NOSIG",
      "tafRaw": "TAF LEMD 051100Z 0512/0618 VRB03KT 9999 SCT025 TX06/0514Z TNM03/0608Z \n  BECMG 0516/0518 02010KT \n  BECMG 0600/0602 VRB05KT",
      "metarHtml": "METAR LEMD 051530Z 35010KT 330V030 9999 FEW040 05/M05 Q1009 NOSIG",
      "tafHtml": "TAF LEMD 051100Z 0512/0618 VRB03KT 9999 SCT025 TX06/0514Z TNM03/0608Z \n  BECMG 0516/0518 02010KT \n  BECMG 0600/0602 VRB05KT"
    },
    {
      "icao": "LEZG",
      "iata": "ZAZ",
      "name": "Zaragoza Airport",
      "updatedAt": "051530Z",
      "visibility_m": 10000,
      "taf_visibility_m": 10000,
      "worst_visibility_m": 10000,
      "ceiling_ft": null,
      "hazards": [],
      "severityScore": 0,
      "metarRaw": "METAR LEZG 051530Z 31020KT CAVOK 06/M12 Q1010 NOSIG",
      "tafRaw": "TAF LEZG 051100Z 0512/0612 31018KT 9999 FEW050 TX04/0515Z TN00/0606Z \n  TEMPO 0512/0522 31020G30KT \n  BECMG 0522/0524 31012KT",
      "metarHtml": "METAR LEZG 051530Z 31020KT <span class=\"hl-vis\">CAVOK</span> 06/M12 Q1010 NOSIG",
      "tafHtml": "TAF LEZG 051100Z 0512/0612 31018KT 9999 FEW050 TX04/0515Z TN00/0606Z \n  TEMPO 0512/0522 31020G30KT \n  BECMG 0522/0524 31012KT"
    },
    {
      "icao": "LFLL",
      "iata": "LYS",
      "name": "Lyon Saint-Exupéry Airport",
      "updatedAt": "051530Z",
      "visibility_m": 10000,
      "taf_visibility_m": 10000,
      "worst_visibility_m": 10000,
      "ceiling_ft": null,
      "hazards": [],
      "severityScore": 0,
      "metarRaw": "METAR LFLL 051530Z 35010KT CAVOK M01/M07 Q1013 NOSIG",
      "tafRaw": "TAF LFLL 051100Z 0512/0618 35010KT CAVOK \n  PROB40 \n  TEMPO 0612/0618 BKN012",
      "metarHtml": "METAR LFLL 051530Z 35010KT <span class=\"hl-vis\">CAVOK</span> M01/M07 Q1013 NOSIG",
      "tafHtml": "TAF LFLL 051100Z 0512/0618 35010KT <span class=\"hl-vis\">CAVOK</span> \n  PROB40 \n  TEMPO 0612/0618 BKN012"
    },
    {
      "icao": "LFSB",
      "iata": "BSL",
      "name": "EuroAirport Basel–Mulhouse–Freiburg",
      "updatedAt": "051530Z",
      "visibility_m": 10000,
      "taf_visibility_m": 10000,
      "worst_visibility_m": 10000,
      "ceiling_ft": null,
      "hazards": [],
      "severityScore": 0,
      "metarRaw": "METAR LFSB 051530Z AUTO VRB03KT CAVOK M01/M09 Q1013 NOSIG",
      "tafRaw": "TAF LFSB 051100Z 0512/0612 19003KT CAVOK",
      "metarHtml": "METAR LFSB 051530Z AUTO VRB03KT <span class=\"hl-vis\">CAVOK</span> M01/M09 Q1013 NOSIG",
      "tafHtml": "TAF LFSB 051100Z 0512/0612 19003KT <span class=\"hl-vis\">CAVOK</span>"
    },
    {
      "icao": "LGAV",
      "iata": "ATH",
      "name": "Athens Eleftherios Venizelos International Airport",
      "updatedAt": "051550Z",
      "visibility_m": 10000,
      "taf_visibility_m": 10000,
      "worst_visibility_m": 10000,
      "ceiling_ft": null,
      "hazards": [],
      "severityScore": 0,
      "metarRaw": "METAR LGAV 051550Z 18005KT 9999 FEW018 SCT030 15/09 Q1016 NOSIG",
      "tafRaw": "TAF LGAV 051100Z 0512/0612 20014KT 9999 SCT025 SCT070 \n  BECMG 0518/0520 FEW025",
      "metarHtml": "METAR LGAV 051550Z 18005KT 9999 FEW018 SCT030 15/09 Q1016 NOSIG",
      "tafHtml": "TAF LGAV 051100Z 0512/0612 20014KT 9999 SCT025 SCT070 \n  BECMG 0518/0520 FEW025"
    },
    {
      "icao": "LICA",
      "iata": "SUF",
      "name": "Lamezia Terme Sant'Eufemia International Airport",
      "updatedAt": "051550Z",
      "visibility_m": 10000,
      "taf_visibility_m": 10000,
      "worst_visibility_m": 10000,
      "ceiling_ft": null,
      "hazards": [],
      "severityScore": 0,
      "metarRaw": "METAR LICA 051550Z AUTO 06010KT 9999 BKN049/// 17/15 Q1003",
      "tafRaw": "TAF LICA 051100Z 0512/0612 08012KT 9999 SCT050 \n  BECMG 0516/0518 VRB05KT \n  BECMG 0605/0607 07010KT",
      "metarHtml": "METAR LICA 051550Z AUTO 06010KT 9999 BKN049/// 17/15 Q1003",
      "tafHtml": "TAF LICA 051100Z 0512/0612 08012KT 9999 SCT050 \n  BECMG 0516/0518 VRB05KT \n  BECMG 0605/0607 07010KT"
    },
    {
      "icao": "LICJ",
      "iata": "PMO",
      "name": "Falcone–Borsellino Airport",
      "updatedAt": "051550Z",
      "visibility_m": 10000,
      "taf_visibility_m": 10000,
      "worst_visibility_m": 10000,
      "ceiling_ft": null,
      "hazards": [],
      "severityScore": 0,
      "metarRaw": "METAR LICJ 051550Z 20014KT CAVOK 17/10 Q1002",
      "tafRaw": "TAF LICJ 051100Z 0512/0612 21016KT 9999 FEW030 \n  BECMG 0606/0608 21018G28KT",
      "metarHtml": "METAR LICJ 051550Z 20014KT <span class=\"hl-vis\">CAVOK</span> 17/10 Q1002",
      "tafHtml": "TAF LICJ 051100Z 0512/0612 21016KT 9999 FEW030 \n  BECMG 0606/0608 21018G28KT"
    },
    {
      "icao": "LIMC",
      "iata": "MXP",
      "name": "Milan Malpensa International Airport",
      "updatedAt": "051550Z",
      "visibility_m": 10000,
      "taf_visibility_m": 10000,
      "worst_visibility_m": 10000,
      "ceiling_ft": null,
      "hazards": [],
      "severityScore": 0,
      "metarRaw": "METAR LIMC 051550Z 19003KT 160V230 CAVOK 03/M05 Q1007 NOSIG",
      "tafRaw": "TAF LIMC 051100Z 0512/0618 VRB04KT CAVOK",
      "metarHtml": "METAR LIMC 051550Z 19003KT 160V230 <span class=\"hl-vis\">CAVOK</span> 03/M05 Q1007 NOSIG",
      "tafHtml": "TAF LIMC 051100Z 0512/0618 VRB04KT <span class=\"hl-vis\">CAVOK</span>"
    },
    {
      "icao": "LIME",
      "iata": "BGY",
      "name": "Milan Bergamo Airport / Antonio Locatelli Air Base",
      "updatedAt": "051550Z",
      "visibility_m": 10000,
      "taf_visibility_m": 10000,
      "worst_visibility_m": 10000,
      "ceiling_ft": null,
      "hazards": [],
      "severityScore": 0,
      "metarRaw": "METAR LIME 051550Z 23004KT CAVOK 02/M05 Q1007 NOSIG",
      "tafRaw": "TAF LIME 051100Z 0512/0612 VRB04KT CAVOK",
      "metarHtml": "METAR LIME 051550Z 23004KT <span class=\"hl-vis\">CAVOK</span> 02/M05 Q1007 NOSIG",
      "tafHtml": "TAF LIME 051100Z 0512/0612 VRB04KT <span class=\"hl-vis\">CAVOK</span>"
    },
    {
      "icao": "LIMF",
      "iata": "TRN",
      "name": "Turin Airport",
      "updatedAt": "051550Z",
      "visibility_m": 10000,
      "taf_visibility_m": 10000,
      "worst_visibility_m": 10000,
      "ceiling_ft": null,
      "hazards": [],
      "severityScore": 0,
      "metarRaw": "METAR LIMF 051550Z VRB01KT CAVOK 03/M06 Q1006",
      "tafRaw": "TAF LIMF 051100Z 0512/0612 VRB04KT CAVOK",
      "metarHtml": "METAR LIMF 051550Z VRB01KT <span class=\"hl-vis\">CAVOK</span> 03/M06 Q1006",
      "tafHtml": "TAF LIMF 051100Z 0512/0612 VRB04KT <span class=\"hl-vis\">CAVOK</span>"
    },
    {
      "icao": "LIMJ",
      "iata": "GOA",
      "name": "Genoa Cristoforo Colombo Airport",
      "updatedAt": "051550Z",
      "visibility_m": 10000,
      "taf_visibility_m": 10000,
      "worst_visibility_m": 10000,
      "ceiling_ft": null,
      "hazards": [],
      "severityScore": 0,
      "metarRaw": "METAR LIMJ 051550Z AUTO 03015KT 9999 BKN140/// 05/M04 Q1005",
      "tafRaw": "TAF LIMJ 051100Z 0512/0612 04016KT CAVOK \n  TEMPO 0512/0516 04016G26KT",
      "metarHtml": "METAR LIMJ 051550Z AUTO 03015KT 9999 BKN140/// 05/M04 Q1005",
      "tafHtml": "TAF LIMJ 051100Z 0512/0612 04016KT <span class=\"hl-vis\">CAVOK</span> \n  TEMPO 0512/0516 04016G26KT"
    },
    {
      "icao": "LIPE",
      "iata": "BLQ",
      "name": "Bologna Guglielmo Marconi Airport",
      "updatedAt": "051550Z",
      "visibility_m": 10000,
      "taf_visibility_m": 6000,
      "worst_visibility_m": 6000,
      "ceiling_ft": 5000,
      "hazards": [],
      "severityScore": 0,
      "metarRaw": "METAR LIPE 051550Z 29003KT 9999 BKN050 04/M06 Q1008",
      "tafRaw": "TAF LIPE 051100Z 0512/0612 28007KT 6000 SCT030 SCT060",
      "metarHtml": "METAR LIPE 051550Z 29003KT 9999 BKN050 04/M06 Q1008",
      "tafHtml": "TAF LIPE 051100Z 0512/0612 28007KT 6000 SCT030 SCT060"
    },
    {
      "icao": "LIPH",
      "iata": "TSF",
      "name": "Treviso Antonio Canova Airport",
      "updatedAt": "051550Z",
      "visibility_m": 10000,
      "taf_visibility_m": 10000,
      "worst_visibility_m": 10000,
      "ceiling_ft": null,
      "hazards": [],
      "severityScore": 0,
      "metarRaw": "METAR LIPH 051550Z 36002KT CAVOK 03/M06 Q1007",
      "tafRaw": "TAF LIPH 051100Z 0512/0612 02006KT CAVOK",
      "metarHtml": "METAR LIPH 051550Z 36002KT <span class=\"hl-vis\">CAVOK</span> 03/M06 Q1007",
      "tafHtml": "TAF LIPH 051100Z 0512/0612 02006KT <span class=\"hl-vis\">CAVOK</span>"
    },
    {
      "icao": "LIPX",
      "iata": "VRN",
      "name": "Verona Villafranca Valerio Catullo Airport",
      "updatedAt": "051550Z",
      "visibility_m": 10000,
      "taf_visibility_m": 10000,
      "worst_visibility_m": 10000,
      "ceiling_ft": null,
      "hazards": [],
      "severityScore": 0,
      "metarRaw": "METAR LIPX 051550Z 18002KT 9999 FEW070 03/M03 Q1007",
      "tafRaw": "TAF LIPX 051100Z 0512/0612 VRB04KT CAVOK",
      "metarHtml": "METAR LIPX 051550Z 18002KT 9999 FEW070 03/M03 Q1007",
      "tafHtml": "TAF LIPX 051100Z 0512/0612 VRB04KT <span class=\"hl-vis\">CAVOK</span>"
    },
    {
      "icao": "LIPZ",
      "iata": "VCE",
      "name": "Venice Marco Polo Airport",
      "updatedAt": "051550Z",
      "visibility_m": 10000,
      "taf_visibility_m": 10000,
      "worst_visibility_m": 10000,
      "ceiling_ft": null,
      "hazards": [],
      "severityScore": 0,
      "metarRaw": "METAR LIPZ 051550Z 07004KT CAVOK 03/M02 Q1007 NOSIG",
      "tafRaw": "TAF LIPZ 051100Z 0512/0618 02008KT CAVOK \n  BECMG 0610/0612 08014KT \n  BECMG 0614/0616 02008KT",
      "metarHtml": "METAR LIPZ 051550Z 07004KT <span class=\"hl-vis\">CAVOK</span> 03/M02 Q1007 NOSIG",
      "tafHtml": "TAF LIPZ 051100Z 0512/0618 02008KT <span class=\"hl-vis\">CAVOK</span> \n  BECMG 0610/0612 08014KT \n  BECMG 0614/0616 02008KT"
    },
    {
      "icao": "LKPR",
      "iata": "PRG",
      "name": "Václav Havel Airport Prague",
      "updatedAt": "051530Z",
      "visibility_m": 10000,
      "taf_visibility_m": 10000,
      "worst_visibility_m": 10000,
      "ceiling_ft": 4100,
      "hazards": [],
      "severityScore": 0,
      "metarRaw": "METAR LKPR 051530Z 20005KT 160V220 9999 BKN041 M03/M09 Q1012 NOSIG",
      "tafRaw": "TAF LKPR 051400Z 0515/0621 23007KT 9999 BKN040 \n  BECMG 0521/0523 CAVOK \n  BECMG 0613/0615 VRB02KT",
      "metarHtml": "METAR LKPR 051530Z 20005KT 160V220 9999 BKN041 M03/M09 Q1012 NOSIG",
      "tafHtml": "TAF LKPR 051400Z 0515/0621 23007KT 9999 BKN040 \n  BECMG 0521/0523 <span class=\"hl-vis\">CAVOK</span> \n  BECMG 0613/0615 VRB02KT"
    },
    {
      "icao": "LLBG",
      "iata": "TLV",
      "name": "Ben Gurion International Airport",
      "updatedAt": "051550Z",
      "visibility_m": 10000,
      "taf_visibility_m": 10000,
      "worst_visibility_m": 10000,
      "ceiling_ft": null,
      "hazards": [],
      "severityScore": 0,
      "metarRaw": "METAR LLBG 051550Z VRB03KT CAVOK 19/05 Q1019 NOSIG",
      "tafRaw": "TAF LLBG 051107Z 0512/0612 13008KT CAVOK \n  TEMPO 0512/0608 VRB04KT \n  BECMG 0608/0610 31008KT TX24/0512Z TN11/0604Z",
      "metarHtml": "METAR LLBG 051550Z VRB03KT <span class=\"hl-vis\">CAVOK</span> 19/05 Q1019 NOSIG",
      "tafHtml": "TAF LLBG 051107Z 0512/0612 13008KT <span class=\"hl-vis\">CAVOK</span> \n  TEMPO 0512/0608 VRB04KT \n  BECMG 0608/0610 31008KT TX24/0512Z TN11/0604Z"
    },
    {
      "icao": "LMML",
      "iata": "MLA",
      "name": "Malta International Airport",
      "updatedAt": "051545Z",
      "visibility_m": 8000,
      "taf_visibility_m": 5000,
      "worst_visibility_m": 5000,
      "ceiling_ft": null,
      "hazards": [],
      "severityScore": 0,
      "metarRaw": "METAR LMML 051545Z 20008KT 170V240 8000 NSC 17/15 Q1005 NOSIG",
      "tafRaw": "TAF LMML 051100Z 0512/0612 21015KT 8000 NSC \n  PROB40 \n  TEMPO 0518/0612 5000 DU",
      "metarHtml": "METAR LMML 051545Z 20008KT 170V240 8000 NSC 17/15 Q1005 NOSIG",
      "tafHtml": "TAF LMML 051100Z 0512/0612 21015KT 8000 NSC \n  PROB40 \n  TEMPO 0518/0612 5000 DU"
    },
    {
      "icao": "LPFR",
      "iata": "FAO",
      "name": "Faro Airport",
      "updatedAt": "051530Z",
      "visibility_m": 10000,
      "taf_visibility_m": 10000,
      "worst_visibility_m": 10000,
      "ceiling_ft": null,
      "hazards": [],
      "severityScore": 0,
      "metarRaw": "METAR LPFR 051530Z 34021KT CAVOK 13/M01 Q1010",
      "tafRaw": "TAF LPFR 051100Z 0512/0612 34015KT CAVOK \n  BECMG 0521/0523 33008KT \n  BECMG 0610/0612 34015KT",
      "metarHtml": "METAR LPFR 051530Z 34021KT <span class=\"hl-vis\">CAVOK</span> 13/M01 Q1010",
      "tafHtml": "TAF LPFR 051100Z 0512/0612 34015KT <span class=\"hl-vis\">CAVOK</span> \n  BECMG 0521/0523 33008KT \n  BECMG 0610/0612 34015KT"
    },
    {
      "icao": "LPPR",
      "iata": "OPO",
      "name": "Francisco de Sá Carneiro Airport",
      "updatedAt": "051530Z",
      "visibility_m": 10000,
      "taf_visibility_m": 10000,
      "worst_visibility_m": 10000,
      "ceiling_ft": null,
      "hazards": [],
      "severityScore": 0,
      "metarRaw": "METAR LPPR 051530Z 01013KT CAVOK 10/00 Q1015",
      "tafRaw": "TAF LPPR 051100Z 0512/0612 01008KT CAVOK",
      "metarHtml": "METAR LPPR 051530Z 01013KT <span class=\"hl-vis\">CAVOK</span> 10/00 Q1015",
      "tafHtml": "TAF LPPR 051100Z 0512/0612 01008KT <span class=\"hl-vis\">CAVOK</span>"
    },
    {
      "icao": "LPPT",
      "iata": "LIS",
      "name": "Lisbon Humberto Delgado Airport",
      "updatedAt": "051530Z",
      "visibility_m": 10000,
      "taf_visibility_m": 10000,
      "worst_visibility_m": 10000,
      "ceiling_ft": null,
      "hazards": [],
      "severityScore": 0,
      "metarRaw": "METAR LPPT 051530Z 35017KT 320V020 9999 FEW035 09/00 Q1014",
      "tafRaw": "TAF LPPT 051100Z 0512/0618 35017KT CAVOK \n  TEMPO 0512/0518 35022G35KT \n  BECMG 0518/0520 34010KT 9999 SCT030 \n  BECMG 0611/0613 35015KT CAVOK \n  PROB30 \n  TEMPO 0613/0618 35022G35KT",
      "metarHtml": "METAR LPPT 051530Z 35017KT 320V020 9999 FEW035 09/00 Q1014",
      "tafHtml": "TAF LPPT 051100Z 0512/0618 35017KT <span class=\"hl-vis\">CAVOK</span> \n  TEMPO 0512/0518 35022G35KT \n  BECMG 0518/0520 34010KT 9999 SCT030 \n  BECMG 0611/0613 35015KT <span class=\"hl-vis\">CAVOK</span> \n  PROB30 \n  TEMPO 0613/0618 35022G35KT"
    },
    {
      "icao": "LRBV",
      "iata": "GHV",
      "name": "Brașov-Ghimbav International Airport",
      "updatedAt": "051530Z",
      "visibility_m": 10000,
      "taf_visibility_m": 10000,
      "worst_visibility_m": 10000,
      "ceiling_ft": 6100,
      "hazards": [],
      "severityScore": 0,
      "metarRaw": "METAR LRBV 051530Z VRB01KT 9999 FEW035 BKN061 BKN083 00/M01 Q1011",
      "tafRaw": "TAF LRBV 051400Z 0515/0524 VRB04KT 9999 SCT010 OVC040",
      "metarHtml": "METAR LRBV 051530Z VRB01KT 9999 FEW035 BKN061 BKN083 00/M01 Q1011",
      "tafHtml": "TAF LRBV 051400Z 0515/0524 VRB04KT 9999 SCT010 OVC040"
    },
    {
      "icao": "LTFM",
      "iata": "IST",
      "name": "İstanbul Airport",
      "updatedAt": "051550Z",
      "visibility_m": 10000,
      "taf_visibility_m": 10000,
      "worst_visibility_m": 10000,
      "ceiling_ft": null,
      "hazards": [],
      "severityScore": 0,
      "metarRaw": "METAR LTFM 051550Z 20008KT CAVOK 13/06 Q1018 NOSIG RMK RWY17L 19010KT RWY34L 18010KT RWY16R 19010KT RWY36 20008KT RWY18 20012KT",
      "tafRaw": "TAF LTFM 051040Z 0512/0618 19014KT CAVOK \n  BECMG 0518/0521 SCT040 BKN090",
      "metarHtml": "METAR LTFM 051550Z 20008KT <span class=\"hl-vis\">CAVOK</span> 13/06 Q1018 NOSIG RMK RWY17L 19010KT RWY34L 18010KT RWY16R 19010KT RWY36 20008KT RWY18 20012KT",
      "tafHtml": "TAF LTFM 051040Z 0512/0618 19014KT <span class=\"hl-vis\">CAVOK</span> \n  BECMG 0518/0521 SCT040 BKN090"
    },
    {
      "icao": "OEJN",
      "iata": "JED",
      "name": "King Abdulaziz International Airport",
      "updatedAt": "051500Z",
      "visibility_m": 7000,
      "taf_visibility_m": 3000,
      "worst_visibility_m": 3000,
      "ceiling_ft": null,
      "hazards": [],
      "severityScore": 0,
      "metarRaw": "METAR OEJN 051500Z 25007KT 7000 FEW040 28/14 Q1014 NOSIG",
      "tafRaw": "TAF OEJN 051100Z 0512/0618 29010KT 7000 FEW040 \n  PROB30 \n  TEMPO 0512/0600 3000 BLDU FEW030CB \n  BECMG 0518/0520 VRB03KT \n  BECMG 0600/0602 08006KT",
      "metarHtml": "METAR OEJN 051500Z 25007KT 7000 FEW040 28/14 Q1014 NOSIG",
      "tafHtml": "TAF OEJN 051100Z 0512/0618 29010KT 7000 FEW040 \n  PROB30 \n  TEMPO 0512/0600 3000 BLDU FEW030CB \n  BECMG 0518/0520 VRB03KT \n  BECMG 0600/0602 08006KT"
    },
    {
      "icao": "OEMA",
      "iata": "MED",
      "name": "Prince Mohammad Bin Abdulaziz Airport",
      "updatedAt": "051500Z",
      "visibility_m": 10000,
      "taf_visibility_m": 3000,
      "worst_visibility_m": 3000,
      "ceiling_ft": null,
      "hazards": [],
      "severityScore": 0,
      "metarRaw": "METAR OEMA 051500Z 08009KT CAVOK 25/01 Q1020 NOSIG",
      "tafRaw": "TAF OEMA 051100Z 0512/0618 11015KT 7000 NSC \n  TEMPO 0512/0518 3000 BLDU \n  BECMG 0520/0522 05010KT",
      "metarHtml": "METAR OEMA 051500Z 08009KT <span class=\"hl-vis\">CAVOK</span> 25/01 Q1020 NOSIG",
      "tafHtml": "TAF OEMA 051100Z 0512/0618 11015KT 7000 NSC \n  TEMPO 0512/0518 3000 BLDU \n  BECMG 0520/0522 05010KT"
    },
    {
      "icao": "OJAI",
      "iata": "AMM",
      "name": "Queen Alia International Airport",
      "updatedAt": "051500Z",
      "visibility_m": 5000,
      "taf_visibility_m": 4000,
      "worst_visibility_m": 4000,
      "ceiling_ft": null,
      "hazards": [],
      "severityScore": 0,
      "metarRaw": "METAR OJAI 051500Z 10007KT 5000 HZ NSC 13/02 Q1023 NOSIG",
      "tafRaw": "TAF OJAI 051100Z 0512/0618 14010KT 5000 HZ NSC \n  PROB40 0512/0518 10016KT 4000 BLDU",
      "metarHtml": "METAR OJAI 051500Z 10007KT 5000 HZ NSC 13/02 Q1023 NOSIG",
      "tafHtml": "TAF OJAI 051100Z 0512/0618 14010KT 5000 HZ NSC \n  PROB40 0512/0518 10016KT 4000 BLDU"
    },
    {
      "icao": "OMAA",
      "iata": "AUH",
      "name": "Zayed International Airport",
      "updatedAt": "051500Z",
      "visibility_m": 10000,
      "taf_visibility_m": 8000,
      "worst_visibility_m": 8000,
      "ceiling_ft": null,
      "hazards": [],
      "severityScore": 0,
      "metarRaw": "METAR OMAA 051500Z 32007KT CAVOK 22/15 Q1020 NOSIG",
      "tafRaw": "TAF OMAA 051100Z 0512/0618 33010KT 8000 FEW040 \n  BECMG 0518/0520 05005KT \n  BECMG 0610/0612 34010KT",
      "metarHtml": "METAR OMAA 051500Z 32007KT <span class=\"hl-vis\">CAVOK</span> 22/15 Q1020 NOSIG",
      "tafHtml": "TAF OMAA 051100Z 0512/0618 33010KT 8000 FEW040 \n  BECMG 0518/0520 05005KT \n  BECMG 0610/0612 34010KT"
    },
    {
      "icao": "OMDB",
      "iata": "DXB",
      "name": "Dubai International Airport",
      "updatedAt": "051530Z",
      "visibility_m": 10000,
      "taf_visibility_m": 8000,
      "worst_visibility_m": 8000,
      "ceiling_ft": null,
      "hazards": [],
      "severityScore": 0,
      "metarRaw": "METAR OMDB 051530Z 04009KT 010V080 9999 FEW035 24/12 Q1020 NOSIG",
      "tafRaw": "TAF OMDB 051100Z 0512/0618 34010KT 8000 NSC \n  BECMG 0514/0516 05007KT \n  BECMG 0608/0610 35010KT \n  BECMG 0616/0618 08005KT",
      "metarHtml": "METAR OMDB 051530Z 04009KT 010V080 9999 FEW035 24/12 Q1020 NOSIG",
      "tafHtml": "TAF OMDB 051100Z 0512/0618 34010KT 8000 NSC \n  BECMG 0514/0516 05007KT \n  BECMG 0608/0610 35010KT \n  BECMG 0616/0618 08005KT"
    },
    {
      "icao": "UGKO",
      "iata": "KUT",
      "name": "David the Builder Kutaisi International Airport",
      "updatedAt": "051530Z",
      "visibility_m": 10000,
      "taf_visibility_m": 10000,
      "worst_visibility_m": 10000,
      "ceiling_ft": null,
      "hazards": [],
      "severityScore": 0,
      "metarRaw": "METAR UGKO 051530Z 10004KT CAVOK 06/01 Q1023 NOSIG",
      "tafRaw": "TAF UGKO 051100Z 0512/0612 08007KT CAVOK TX15/0512Z TN03/0523Z \n  TEMPO 0602/0612 08017KT \n  TEMPO 0606/0612 BKN080",
      "metarHtml": "METAR UGKO 051530Z 10004KT <span class=\"hl-vis\">CAVOK</span> 06/01 Q1023 NOSIG",
      "tafHtml": "TAF UGKO 051100Z 0512/0612 08007KT <span class=\"hl-vis\">CAVOK</span> TX15/0512Z TN03/0523Z \n  TEMPO 0602/0612 08017KT \n  TEMPO 0606/0612 BKN080"
    }
  ],
  "stats": {
    "icaoCount": 159,
    "metarReturned": 158,
    "tafReturned": 142,
    "stationsWritten": 159,
    "missingMetar": 1,
    "missingTaf": 17
  },
  "errors": []
}