{
  "generatedAt": "2026-01-07T09:14:56.803Z",
  "stations": [
    {
      "icao": "EBCI",
      "iata": "CRL",
      "name": "Brussels South Charleroi Airport",
      "updatedAt": "070850Z",
      "visibility_m": 800,
      "taf_visibility_m": 500,
      "worst_visibility_m": 500,
      "ceiling_ft": 400,
      "hazards": [
        "SN",
        "FG",
        "SHSN",
        "DZ"
      ],
      "severityScore": 100,
      "metarRaw": "METAR EBCI 070850Z 18015KT 1300 R24/P2000N SN SCT006 BKN009 M02/M03 Q1007 TEMPO 18020G30KT 0800 SN BKN004",
      "tafRaw": "TAF EBCI 070500Z 0706/0812 19017G30KT 9999 SCT007 BKN010 \n  BECMG 0706/0708 3000 -SN SCT004 BKN006 \n  PROB40 \n  TEMPO 0708/0712 0800 SN BKN002 BKN003 \n  BECMG 0711/0713 21012KT 6000 NSW \n  PROB40 \n  TEMPO 0712/0721 2000 SN SHSN BKN003 \n  BECMG 0720/0722 SCT035 \n  BECMG 0805/0807 3000 -DZ -RADZ BKN004 \n  PROB40 \n  TEMPO 0807/0812 0500 -DZRA FG BKN001",
      "metarHtml": "METAR EBCI 070850Z 18015KT 1300 R24/P2000N <span class=\"hl\">SN</span> SCT006 BKN009 M02/M03 Q1007 TEMPO 18020G30KT <span class=\"hl-vis\">0800</span> <span class=\"hl\">SN</span> BKN004",
      "tafHtml": "TAF EBCI 070500Z 0706/0812 19017G30KT 9999 SCT007 BKN010 \n  BECMG 0706/0708 3000 -<span class=\"hl\">SN</span> SCT004 BKN006 \n  PROB40 \n  TEMPO 0708/0712 <span class=\"hl-vis\">0800</span> <span class=\"hl\">SN</span> BKN002 BKN003 \n  BECMG 0711/0713 21012KT 6000 NSW \n  PROB40 \n  TEMPO 0712/0721 2000 <span class=\"hl\">SN</span> <span class=\"hl\">SHSN</span> BKN003 \n  BECMG 0720/0722 SCT035 \n  BECMG 0805/0807 3000 -<span class=\"hl\">DZ</span> -RADZ BKN004 \n  PROB40 \n  TEMPO 0807/0812 <span class=\"hl-vis\">0500</span> -DZRA <span class=\"hl\">FG</span> BKN001"
    },
    {
      "icao": "EPWA",
      "iata": "WAW",
      "name": "Warsaw Chopin Airport",
      "updatedAt": "070900Z",
      "visibility_m": 600,
      "taf_visibility_m": 400,
      "worst_visibility_m": 400,
      "ceiling_ft": 200,
      "hazards": [
        "FZFG",
        "BR"
      ],
      "severityScore": 100,
      "metarRaw": "METAR EPWA 070900Z 30005KT 280V340 0600 0550SE R33/0800U FZFG OVC002 M10/M11 Q1018 TEMPO 1000 BR",
      "tafRaw": "TAF EPWA 070830Z 0709/0809 32003KT 2000 BR OVC003 \n  TEMPO 0709/0712 0800 FZFG BKN002 \n  PROB40 \n  TEMPO 0709/0712 0400 FZFG BKN001 \n  TEMPO 0712/0717 3000 BR BKN005 \n  TEMPO 0717/0802 0800 FZFG BKN002 \n  BECMG 0802/0805 3000 BR \n  TEMPO 0805/0809 6000 BKN005 BKN010",
      "metarHtml": "METAR EPWA 070900Z 30005KT 280V340 <span class=\"hl-vis\">0600</span> 0550SE R33/0800U <span class=\"hl\">FZFG</span> OVC002 M10/M11 Q1018 TEMPO 1000 <span class=\"hl\">BR</span>",
      "tafHtml": "TAF EPWA 070830Z 0709/0809 32003KT 2000 <span class=\"hl\">BR</span> OVC003 \n  TEMPO 0709/0712 <span class=\"hl-vis\">0800</span> <span class=\"hl\">FZFG</span> BKN002 \n  PROB40 \n  TEMPO 0709/0712 <span class=\"hl-vis\">0400</span> <span class=\"hl\">FZFG</span> BKN001 \n  TEMPO 0712/0717 3000 <span class=\"hl\">BR</span> BKN005 \n  TEMPO 0717/0802 <span class=\"hl-vis\">0800</span> <span class=\"hl\">FZFG</span> BKN002 \n  BECMG 0802/0805 3000 <span class=\"hl\">BR</span> \n  TEMPO 0805/0809 6000 BKN005 BKN010"
    },
    {
      "icao": "LFPO",
      "iata": "ORY",
      "name": "Paris-Orly Airport",
      "updatedAt": "070900Z",
      "visibility_m": 600,
      "taf_visibility_m": 600,
      "worst_visibility_m": 600,
      "ceiling_ft": 200,
      "hazards": [
        "FG",
        "BR",
        "SN"
      ],
      "severityScore": 100,
      "metarRaw": "METAR LFPO 070900Z AUTO 20010KT 170V230 3400 -SN BR BKN005/// BKN010/// ///TCU M02/M02 Q1011 TEMPO 0600 FG BKN002",
      "tafRaw": "TAF LFPO 070500Z 0706/0812 20012KT 4000 -SN BKN007 \n  TEMPO 0706/0710 1400 SN BKN004 \n  PROB30 \n  TEMPO 0707/0710 20012G25KT 0600 FG BKN002 \n  BECMG 0711/0713 9999 NSW \n  BECMG 0715/0716 BKN016",
      "metarHtml": "METAR LFPO 070900Z AUTO 20010KT 170V230 3400 -<span class=\"hl\">SN</span> <span class=\"hl\">BR</span> BKN005/// BKN010/// ///TCU M02/M02 Q1011 TEMPO <span class=\"hl-vis\">0600</span> <span class=\"hl\">FG</span> BKN002",
      "tafHtml": "TAF LFPO 070500Z 0706/0812 20012KT 4000 -<span class=\"hl\">SN</span> BKN007 \n  TEMPO 0706/0710 1400 <span class=\"hl\">SN</span> BKN004 \n  PROB30 \n  TEMPO 0707/0710 20012G25KT <span class=\"hl-vis\">0600</span> <span class=\"hl\">FG</span> BKN002 \n  BECMG 0711/0713 9999 NSW \n  BECMG 0715/0716 BKN016"
    },
    {
      "icao": "LRIA",
      "iata": "IAS",
      "name": "Iaşi Airport",
      "updatedAt": "070900Z",
      "visibility_m": 1100,
      "taf_visibility_m": 800,
      "worst_visibility_m": 800,
      "ceiling_ft": 100,
      "hazards": [
        "BR",
        "DZ",
        "FG",
        "FZRA",
        "RA"
      ],
      "severityScore": 100,
      "metarRaw": "METAR LRIA 070900Z 29007KT 1100 R14/1600N -DZ BR OVC001 00/00 Q1011",
      "tafRaw": "TAF LRIA 070800Z 0709/0718 30006KT 0800 FG VV001 \n  TEMPO 0709/0712 1500 BR OVC002 \n  BECMG 0712/0714 3000 RA BR OVC005 \n  TEMPO 0715/0718 1500 FZRA BKN002 OVC010",
      "metarHtml": "METAR LRIA 070900Z 29007KT 1100 R14/1600N -<span class=\"hl\">DZ</span> <span class=\"hl\">BR</span> OVC001 00/00 Q1011",
      "tafHtml": "TAF LRIA 070800Z 0709/0718 30006KT <span class=\"hl-vis\">0800</span> <span class=\"hl\">FG</span> VV001 \n  TEMPO 0709/0712 1500 <span class=\"hl\">BR</span> OVC002 \n  BECMG 0712/0714 3000 <span class=\"hl\">RA</span> <span class=\"hl\">BR</span> OVC005 \n  TEMPO 0715/0718 1500 <span class=\"hl\">FZRA</span> BKN002 OVC010"
    },
    {
      "icao": "LRBC",
      "iata": "BCM",
      "name": "Bacău George Enescu International  Airport",
      "updatedAt": "070900Z",
      "visibility_m": 2800,
      "taf_visibility_m": 600,
      "worst_visibility_m": 600,
      "ceiling_ft": 200,
      "hazards": [
        "BR",
        "FG",
        "FZRA",
        "RA"
      ],
      "severityScore": 100,
      "metarRaw": "METAR LRBC 070900Z 34008KT 2800 BR OVC002 01/01 Q1010",
      "tafRaw": "TAF LRBC 070800Z 0709/0718 35007KT 1500 BR OVC002 \n  PROB40 \n  TEMPO 0709/0711 0600 FG OVC001 \n  BECMG 0711/0713 3000 RA BR BKN010 OVC020 \n  TEMPO 0715/0718 1500 FZRA BKN005 OVC015",
      "metarHtml": "METAR LRBC 070900Z 34008KT 2800 <span class=\"hl\">BR</span> OVC002 01/01 Q1010",
      "tafHtml": "TAF LRBC 070800Z 0709/0718 35007KT 1500 <span class=\"hl\">BR</span> OVC002 \n  PROB40 \n  TEMPO 0709/0711 <span class=\"hl-vis\">0600</span> <span class=\"hl\">FG</span> OVC001 \n  BECMG 0711/0713 3000 <span class=\"hl\">RA</span> <span class=\"hl\">BR</span> BKN010 OVC020 \n  TEMPO 0715/0718 1500 <span class=\"hl\">FZRA</span> BKN005 OVC015"
    },
    {
      "icao": "LRCV",
      "iata": "CRA",
      "name": "Craiova International Airport",
      "updatedAt": "070900Z",
      "visibility_m": 400,
      "taf_visibility_m": 300,
      "worst_visibility_m": 300,
      "ceiling_ft": 200,
      "hazards": [
        "FG",
        "RA",
        "BR",
        "DZ"
      ],
      "severityScore": 100,
      "metarRaw": "METAR LRCV 070900Z 27003KT 0400 R26/0600N RA FG OVC002 02/02 Q1010",
      "tafRaw": "TAF LRCV 070800Z 0709/0718 VRB04KT 0300 FG VV001 \n  PROB30 \n  TEMPO 0709/0714 1500 -DZ BR OVC005",
      "metarHtml": "METAR LRCV 070900Z 27003KT <span class=\"hl-vis\">0400</span> R26/0600N <span class=\"hl\">RA</span> <span class=\"hl\">FG</span> OVC002 02/02 Q1010",
      "tafHtml": "TAF LRCV 070800Z 0709/0718 VRB04KT <span class=\"hl-vis\">0300</span> <span class=\"hl\">FG</span> VV001 \n  PROB30 \n  TEMPO 0709/0714 1500 -<span class=\"hl\">DZ</span> <span class=\"hl\">BR</span> OVC005"
    },
    {
      "icao": "LROP",
      "iata": "OTP",
      "name": "Bucharest Henri Coandă International Airport",
      "updatedAt": "070900Z",
      "visibility_m": 200,
      "taf_visibility_m": null,
      "worst_visibility_m": 200,
      "ceiling_ft": 100,
      "hazards": [
        "FG"
      ],
      "severityScore": 100,
      "metarRaw": "METAR LROP 070900Z 05004KT 0200 R08R/0550N R08L/0350N FG OVC001 03/03 Q1010 NOSIG",
      "tafRaw": null,
      "metarHtml": "METAR LROP 070900Z 05004KT <span class=\"hl-vis\">0200</span> R08R/0550N R08L/0350N <span class=\"hl\">FG</span> OVC001 03/03 Q1010 NOSIG",
      "tafHtml": null
    },
    {
      "icao": "LRSV",
      "iata": "SCV",
      "name": "Suceava Stefan cel Mare Airport",
      "updatedAt": "070900Z",
      "visibility_m": 2000,
      "taf_visibility_m": 1500,
      "worst_visibility_m": 1500,
      "ceiling_ft": 300,
      "hazards": [
        "BR",
        "FZRA",
        "SN"
      ],
      "severityScore": 100,
      "metarRaw": "METAR LRSV 070900Z 33008KT 2000 BR OVC003 M02/M02 Q1009",
      "tafRaw": "TAF LRSV 070800Z 0709/0718 34008KT 3000 BR BKN002 OVC010 \n  TEMPO 0709/0712 1500 FZRA BKN005 OVC025 \n  BECMG 0712/0714 -SN \n  TEMPO 0714/0718 1500 SN BR",
      "metarHtml": "METAR LRSV 070900Z 33008KT 2000 <span class=\"hl\">BR</span> OVC003 M02/M02 Q1009",
      "tafHtml": "TAF LRSV 070800Z 0709/0718 34008KT 3000 <span class=\"hl\">BR</span> BKN002 OVC010 \n  TEMPO 0709/0712 1500 <span class=\"hl\">FZRA</span> BKN005 OVC025 \n  BECMG 0712/0714 -<span class=\"hl\">SN</span> \n  TEMPO 0714/0718 1500 <span class=\"hl\">SN</span> <span class=\"hl\">BR</span>"
    },
    {
      "icao": "LRTR",
      "iata": "TSR",
      "name": "Timişoara Traian Vuia Airport",
      "updatedAt": "070900Z",
      "visibility_m": 3000,
      "taf_visibility_m": 600,
      "worst_visibility_m": 600,
      "ceiling_ft": 400,
      "hazards": [
        "BR",
        "FZFG",
        "SN"
      ],
      "severityScore": 100,
      "metarRaw": "METAR LRTR 070900Z 20006KT 3000 BR OVC004 M02/M02 Q1013",
      "tafRaw": "TAF LRTR 070500Z 0706/0806 VRB04KT 3000 -SN BR SCT010 OVC035 \n  TEMPO 0706/0708 1500 SN BR BKN005 OVC030 \n  TEMPO 0708/0712 5000 BR SCT005 BKN015 \n  BECMG 0715/0717 34010KT 1500 SN BR BKN005 OVC015 \n  TEMPO 0717/0721 0600 +SN FZFG BKN002 OVC010 \n  TEMPO 0800/0804 0800 SN FZFG BKN002 OVC010",
      "metarHtml": "METAR LRTR 070900Z 20006KT 3000 <span class=\"hl\">BR</span> OVC004 M02/M02 Q1013",
      "tafHtml": "TAF LRTR 070500Z 0706/0806 VRB04KT 3000 -<span class=\"hl\">SN</span> <span class=\"hl\">BR</span> SCT010 OVC035 \n  TEMPO 0706/0708 1500 <span class=\"hl\">SN</span> <span class=\"hl\">BR</span> BKN005 OVC030 \n  TEMPO 0708/0712 5000 <span class=\"hl\">BR</span> SCT005 BKN015 \n  BECMG 0715/0717 34010KT 1500 <span class=\"hl\">SN</span> <span class=\"hl\">BR</span> BKN005 OVC015 \n  TEMPO 0717/0721 <span class=\"hl-vis\">0600</span> +<span class=\"hl\">SN</span> <span class=\"hl\">FZFG</span> BKN002 OVC010 \n  TEMPO <span class=\"hl-vis\">0800</span>/0804 <span class=\"hl-vis\">0800</span> <span class=\"hl\">SN</span> <span class=\"hl\">FZFG</span> BKN002 OVC010"
    },
    {
      "icao": "LUKK",
      "iata": "RMO",
      "name": "Chişinău International Airport",
      "updatedAt": "070900Z",
      "visibility_m": 500,
      "taf_visibility_m": null,
      "worst_visibility_m": 500,
      "ceiling_ft": 200,
      "hazards": [
        "FG",
        "DZ"
      ],
      "severityScore": 100,
      "metarRaw": "METAR LUKK 070900Z 36004KT 0500 0450SW R08/0600N -DZ FG VV002 02/02 Q1010 NOSIG",
      "tafRaw": null,
      "metarHtml": "METAR LUKK 070900Z 36004KT <span class=\"hl-vis\">0500</span> 0450SW R08/0600N -<span class=\"hl\">DZ</span> <span class=\"hl\">FG</span> VV002 02/02 Q1010 NOSIG",
      "tafHtml": null
    },
    {
      "icao": "UAAA",
      "iata": "ALA",
      "name": "Almaty International Airport",
      "updatedAt": "070900Z",
      "visibility_m": 750,
      "taf_visibility_m": 200,
      "worst_visibility_m": 200,
      "ceiling_ft": 200,
      "hazards": [
        "FZFG",
        "BR"
      ],
      "severityScore": 100,
      "metarRaw": "METAR UAAA 070900Z 05002MPS 0750 R23L/0750U FZFG VV002 M04/M05 Q1032 NOSIG RMK QBB060",
      "tafRaw": "TAF UAAA 070503Z 0706/0806 04003MPS 0800 FZFG VV003 TX02/0709Z TNM05/0801Z \n  TEMPO 0706/0710 34002MPS 0200 VV001 \n  TEMPO 0710/0713 1500 BR FU SCT011 BKN100 \n  TEMPO 0713/0801 VRB01MPS 0200 VV001 \n  TEMPO 0801/0806 29002MPS 0200 VV001",
      "metarHtml": "METAR UAAA 070900Z 05002MPS <span class=\"hl-vis\">0750</span> R23L/0750U <span class=\"hl\">FZFG</span> VV002 M04/M05 Q1032 NOSIG RMK QBB060",
      "tafHtml": "TAF UAAA 070503Z 0706/0806 04003MPS <span class=\"hl-vis\">0800</span> <span class=\"hl\">FZFG</span> VV003 TX02/0709Z TNM05/0801Z \n  TEMPO 0706/0710 34002MPS <span class=\"hl-vis\">0200</span> VV001 \n  TEMPO 0710/0713 1500 <span class=\"hl\">BR</span> FU SCT011 BKN100 \n  TEMPO 0713/0801 VRB01MPS <span class=\"hl-vis\">0200</span> VV001 \n  TEMPO 0801/0806 29002MPS <span class=\"hl-vis\">0200</span> VV001"
    },
    {
      "icao": "LFOB",
      "iata": "BVA",
      "name": "Beauvais Tillé airport",
      "updatedAt": "070900Z",
      "visibility_m": 1100,
      "taf_visibility_m": 1100,
      "worst_visibility_m": 1100,
      "ceiling_ft": 400,
      "hazards": [
        "BR",
        "SN",
        "RA",
        "SHRA"
      ],
      "severityScore": 99,
      "metarRaw": "METAR LFOB 070900Z AUTO 20014KT 170V230 5000 -SN BR OVC008 M01/M01 Q1008 TEMPO 1100 +SN OVC004 BECMG 19015G25KT",
      "tafRaw": "TAF LFOB 070500Z 0706/0806 19015G25KT 9999 OVC014 \n  TEMPO 0706/0711 2000 SN OVC009 \n  PROB40 0706/0711 1100 +SN OVC004 \n  BECMG 0711/0713 22006KT NSC \n  PROB30 \n  TEMPO 0718/0721 3500 SHRA \n  BECMG 0801/0805 4500 RA BKN009",
      "metarHtml": "METAR LFOB 070900Z AUTO 20014KT 170V230 5000 -<span class=\"hl\">SN</span> <span class=\"hl\">BR</span> OVC008 M01/M01 Q1008 TEMPO 1100 +<span class=\"hl\">SN</span> OVC004 BECMG 19015G25KT",
      "tafHtml": "TAF LFOB 070500Z 0706/0806 19015G25KT 9999 OVC014 \n  TEMPO 0706/0711 2000 <span class=\"hl\">SN</span> OVC009 \n  PROB40 0706/0711 1100 +<span class=\"hl\">SN</span> OVC004 \n  BECMG 0711/0713 22006KT NSC \n  PROB30 \n  TEMPO 0718/0721 3500 <span class=\"hl\">SHRA</span> \n  BECMG 0801/0805 4500 <span class=\"hl\">RA</span> BKN009"
    },
    {
      "icao": "EPMO",
      "iata": "WMI",
      "name": "Modlin Airport",
      "updatedAt": "070900Z",
      "visibility_m": 300,
      "taf_visibility_m": null,
      "worst_visibility_m": 300,
      "ceiling_ft": null,
      "hazards": [
        "FZFG",
        "SN"
      ],
      "severityScore": 98,
      "metarRaw": "METAR EPMO 070900Z 27004KT 0300 R08/0350N -SN FZFG SCT001 M11/M12 Q1018",
      "tafRaw": null,
      "metarHtml": "METAR EPMO 070900Z 27004KT <span class=\"hl-vis\">0300</span> R08/0350N -<span class=\"hl\">SN</span> <span class=\"hl\">FZFG</span> SCT001 M11/M12 Q1018",
      "tafHtml": null
    },
    {
      "icao": "LRBS",
      "iata": "BBU",
      "name": "Bucharest Băneasa Aurel Vlaicu International Airport",
      "updatedAt": "070900Z",
      "visibility_m": 350,
      "taf_visibility_m": null,
      "worst_visibility_m": 350,
      "ceiling_ft": 200,
      "hazards": [
        "FG"
      ],
      "severityScore": 95,
      "metarRaw": "METAR LRBS 070900Z 01003KT 330V070 0350 R07/0700N FG VV002 03/03 Q1010 NOSIG",
      "tafRaw": null,
      "metarHtml": "METAR LRBS 070900Z 01003KT 330V070 <span class=\"hl-vis\">0350</span> R07/0700N <span class=\"hl\">FG</span> VV002 03/03 Q1010 NOSIG",
      "tafHtml": null
    },
    {
      "icao": "ESSA",
      "iata": "ARN",
      "name": "Stockholm-Arlanda Airport",
      "updatedAt": "070850Z",
      "visibility_m": 10000,
      "taf_visibility_m": 600,
      "worst_visibility_m": 600,
      "ceiling_ft": 400,
      "hazards": [
        "SN",
        "SHSN"
      ],
      "severityScore": 88,
      "metarRaw": "METAR ESSA 070850Z 25007KT 9999 OVC004 M06/M06 Q1012 TEMPO BKN008",
      "tafRaw": "TAF ESSA 070830Z 0709/0809 20006KT 9999 BKN008 \n  PROB40 0709/0714 BKN004 \n  BECMG 0712/0714 10010KT \n  TEMPO 0714/0719 2000 SN VV012 \n  TEMPO 0719/0804 0600 SHSN BKN009 BKN040CB",
      "metarHtml": "METAR ESSA 070850Z 25007KT 9999 OVC004 M06/M06 Q1012 TEMPO BKN008",
      "tafHtml": "TAF ESSA 070830Z 0709/0809 20006KT 9999 BKN008 \n  PROB40 0709/0714 BKN004 \n  BECMG 0712/0714 10010KT \n  TEMPO 0714/0719 2000 <span class=\"hl\">SN</span> VV012 \n  TEMPO 0719/0804 <span class=\"hl-vis\">0600</span> <span class=\"hl\">SHSN</span> BKN009 BKN040CB"
    },
    {
      "icao": "LYNI",
      "iata": "INI",
      "name": "Niš Constantine the Great Airport",
      "updatedAt": "070900Z",
      "visibility_m": 10000,
      "taf_visibility_m": 4000,
      "worst_visibility_m": 4000,
      "ceiling_ft": 1500,
      "hazards": [
        "FZRA",
        "PL",
        "SN"
      ],
      "severityScore": 80,
      "metarRaw": "METAR LYNI 070900Z 33017KT 9999 SCT010 OVC015 M02/M04 Q1012 NOSIG",
      "tafRaw": "TAF LYNI 070500Z 0706/0806 32014KT 9999 SCT004 BKN012 BKN030 TXM00/0706Z TNM04/0806Z \n  PROB40 \n  TEMPO 0706/0709 FZRA \n  TEMPO 0714/0718 FZRA \n  TEMPO 0718/0721 33017G27KT PL \n  BECMG 0721/0723 -SN BKN005 OVC022 \n  TEMPO 0723/0802 4000 SN",
      "metarHtml": "METAR LYNI 070900Z 33017KT 9999 SCT010 OVC015 M02/M04 Q1012 NOSIG",
      "tafHtml": "TAF LYNI 070500Z 0706/0806 32014KT 9999 SCT004 BKN012 BKN030 TXM00/0706Z TNM04/0806Z \n  PROB40 \n  TEMPO 0706/0709 <span class=\"hl\">FZRA</span> \n  TEMPO 0714/0718 <span class=\"hl\">FZRA</span> \n  TEMPO 0718/0721 33017G27KT <span class=\"hl\">PL</span> \n  BECMG 0721/0723 -<span class=\"hl\">SN</span> BKN005 OVC022 \n  TEMPO 0723/0802 4000 <span class=\"hl\">SN</span>"
    },
    {
      "icao": "LJLJ",
      "iata": "LJU",
      "name": "Ljubljana Jože Pučnik Airport",
      "updatedAt": "070900Z",
      "visibility_m": 10000,
      "taf_visibility_m": 300,
      "worst_visibility_m": 300,
      "ceiling_ft": 7500,
      "hazards": [
        "FZFG"
      ],
      "severityScore": 75,
      "metarRaw": "METAR LJLJ 070900Z 00000KT 9999 FEW010 BKN075 M06/M07 Q1013 NOSIG",
      "tafRaw": "TAF LJLJ 070500Z 0706/0806 VRB02KT 9999 FEW005 BKN080 \n  PROB40 \n  TEMPO 0802/0806 0300 FZFG VV001",
      "metarHtml": "METAR LJLJ 070900Z 00000KT 9999 FEW010 BKN075 M06/M07 Q1013 NOSIG",
      "tafHtml": "TAF LJLJ 070500Z 0706/0806 VRB02KT 9999 FEW005 BKN080 \n  PROB40 \n  TEMPO 0802/0806 <span class=\"hl-vis\">0300</span> <span class=\"hl\">FZFG</span> VV001"
    },
    {
      "icao": "UBBB",
      "iata": "GYD",
      "name": "Heydar Aliyev International Airport",
      "updatedAt": "070900Z",
      "visibility_m": 5000,
      "taf_visibility_m": 300,
      "worst_visibility_m": 300,
      "ceiling_ft": null,
      "hazards": [
        "BR",
        "FG"
      ],
      "severityScore": 75,
      "metarRaw": "METAR UBBB 070900Z 14008KT 5000 BR NSC 10/08 Q1021 NOSIG",
      "tafRaw": "TAF UBBB 070502Z 0706/0806 16005KT 0400 FG VV002 TX12/0710Z TN04/0803Z \n  TEMPO 0706/0708 19010KT 1200 BR BKN006 \n  BECMG 0708/0710 18005KT 9999 NSW SCT020 \n  BECMG 0713/0715 30005KT 6000 SCT014 \n  TEMPO 0718/0720 VRB04KT 3000 BR BKN006 \n  TEMPO 0720/0805 0300 FG VV002",
      "metarHtml": "METAR UBBB 070900Z 14008KT 5000 <span class=\"hl\">BR</span> NSC 10/08 Q1021 NOSIG",
      "tafHtml": "TAF UBBB 070502Z 0706/0806 16005KT <span class=\"hl-vis\">0400</span> <span class=\"hl\">FG</span> VV002 TX12/0710Z TN04/0803Z \n  TEMPO 0706/0708 19010KT 1200 <span class=\"hl\">BR</span> BKN006 \n  BECMG 0708/0710 18005KT 9999 NSW SCT020 \n  BECMG 0713/0715 30005KT 6000 SCT014 \n  TEMPO 0718/0720 VRB04KT 3000 <span class=\"hl\">BR</span> BKN006 \n  TEMPO 0720/0805 <span class=\"hl-vis\">0300</span> <span class=\"hl\">FG</span> VV002"
    },
    {
      "icao": "EDSB",
      "iata": "FKB",
      "name": "Karlsruhe Baden-Baden Airport",
      "updatedAt": "070850Z",
      "visibility_m": 10000,
      "taf_visibility_m": 800,
      "worst_visibility_m": 800,
      "ceiling_ft": null,
      "hazards": [
        "FZFG",
        "SN"
      ],
      "severityScore": 73,
      "metarRaw": "METAR EDSB 070850Z COR 22004KT CAVOK M06/M08 Q1016",
      "tafRaw": "TAF EDSB 070500Z 0706/0806 20005KT 9999 BKN040 \n  PROB30 \n  TEMPO 0706/0707 0800 FZFG OVC001 \n  TEMPO 0718/0806 4000 -SN \n  PROB40 \n  TEMPO 0718/0720 2000 SN \n  BECMG 0721/0724 20011KT",
      "metarHtml": "METAR EDSB 070850Z COR 22004KT <span class=\"hl-vis\">CAVOK</span> M06/M08 Q1016",
      "tafHtml": "TAF EDSB 070500Z 0706/0806 20005KT 9999 BKN040 \n  PROB30 \n  TEMPO 0706/0707 <span class=\"hl-vis\">0800</span> <span class=\"hl\">FZFG</span> OVC001 \n  TEMPO 0718/0806 4000 -<span class=\"hl\">SN</span> \n  PROB40 \n  TEMPO 0718/0720 2000 <span class=\"hl\">SN</span> \n  BECMG 0721/0724 20011KT"
    },
    {
      "icao": "ESKN",
      "iata": "NYO",
      "name": "Stockholm Skavsta Airport",
      "updatedAt": "070850Z",
      "visibility_m": 8000,
      "taf_visibility_m": 1200,
      "worst_visibility_m": 1200,
      "ceiling_ft": 200,
      "hazards": [
        "BR",
        "SN"
      ],
      "severityScore": 73,
      "metarRaw": "METAR ESKN 070850Z 08004KT 8000 OVC002 M09/M09 Q1013",
      "tafRaw": "TAF ESKN 070830Z 0709/0809 15004KT 9999 BKN003 \n  PROB40 0709/0710 3000 BR BKN006 \n  BECMG 0710/0712 3000 -SN VV020 \n  TEMPO 0712/0715 1200 SN VV009 \n  PROB40 0715/0718 9999 BKN015 \n  BECMG 0718/0720 CAVOK",
      "metarHtml": "METAR ESKN 070850Z 08004KT 8000 OVC002 M09/M09 Q1013",
      "tafHtml": "TAF ESKN 070830Z 0709/0809 15004KT 9999 BKN003 \n  PROB40 0709/0710 3000 <span class=\"hl\">BR</span> BKN006 \n  BECMG 0710/0712 3000 -<span class=\"hl\">SN</span> VV020 \n  TEMPO 0712/0715 1200 <span class=\"hl\">SN</span> VV009 \n  PROB40 0715/0718 9999 BKN015 \n  BECMG 0718/0720 <span class=\"hl-vis\">CAVOK</span>"
    },
    {
      "icao": "LRSB",
      "iata": "SBZ",
      "name": "Sibiu International Airport",
      "updatedAt": "070900Z",
      "visibility_m": 10000,
      "taf_visibility_m": 600,
      "worst_visibility_m": 600,
      "ceiling_ft": 2200,
      "hazards": [
        "FG",
        "BR",
        "SN"
      ],
      "severityScore": 73,
      "metarRaw": "METAR LRSB 070900Z VRB01KT 9999 FEW010 OVC022 01/01 Q1009",
      "tafRaw": "TAF LRSB 070500Z 0706/0806 29010KT 3000 BR OVC005 \n  TEMPO 0706/0708 1500 -SN OVC002 \n  BECMG 0709/0711 9999 NSW BKN020 \n  BECMG 0713/0715 VRB04KT 3000 BR BKN010 \n  PROB40 \n  TEMPO 0716/0720 0600 FG OVC002 \n  BECMG 0720/0722 1500 SN BKN005 OVC020 \n  BECMG 0803/0805 5000 BKN010 BKN020",
      "metarHtml": "METAR LRSB 070900Z VRB01KT 9999 FEW010 OVC022 01/01 Q1009",
      "tafHtml": "TAF LRSB 070500Z 0706/0806 29010KT 3000 <span class=\"hl\">BR</span> OVC005 \n  TEMPO 0706/0708 1500 -<span class=\"hl\">SN</span> OVC002 \n  BECMG 0709/0711 9999 NSW BKN020 \n  BECMG 0713/0715 VRB04KT 3000 <span class=\"hl\">BR</span> BKN010 \n  PROB40 \n  TEMPO 0716/0720 <span class=\"hl-vis\">0600</span> <span class=\"hl\">FG</span> OVC002 \n  BECMG 0720/0722 1500 <span class=\"hl\">SN</span> BKN005 OVC020 \n  BECMG 0803/0805 5000 BKN010 BKN020"
    },
    {
      "icao": "LBPD",
      "iata": "PDV",
      "name": "Plovdiv International Airport",
      "updatedAt": "070900Z",
      "visibility_m": 2500,
      "taf_visibility_m": 800,
      "worst_visibility_m": 800,
      "ceiling_ft": 500,
      "hazards": [
        "BR",
        "RA"
      ],
      "severityScore": 72,
      "metarRaw": "METAR LBPD 070900Z AUTO 28006KT 2500 BR OVC002/// 09/09 Q1009 BECMG 5000 BR SCT002 OVC005",
      "tafRaw": "TAF LBPD 070500Z 0706/0806 VRB03KT 3000 BR SCT015 \n  TEMPO 0706/0708 0800 BCFG BKN002 OVC008 \n  BECMG 0708/0709 9999 SCT015 BKN030 \n  TEMPO 0720/0803 5000 RA SCT010 BKN020 \n  BECMG 0803/0805 32012KT",
      "metarHtml": "METAR LBPD 070900Z AUTO 28006KT 2500 <span class=\"hl\">BR</span> OVC002/// 09/09 Q1009 BECMG 5000 <span class=\"hl\">BR</span> SCT002 OVC005",
      "tafHtml": "TAF LBPD 070500Z 0706/0806 VRB03KT 3000 <span class=\"hl\">BR</span> SCT015 \n  TEMPO 0706/0708 <span class=\"hl-vis\">0800</span> BCFG BKN002 OVC008 \n  BECMG 0708/0709 9999 SCT015 BKN030 \n  TEMPO 0720/0803 5000 <span class=\"hl\">RA</span> SCT010 BKN020 \n  BECMG 0803/0805 32012KT"
    },
    {
      "icao": "LYBE",
      "iata": "BEG",
      "name": "Belgrade Nikola Tesla Airport",
      "updatedAt": "070900Z",
      "visibility_m": 10000,
      "taf_visibility_m": 700,
      "worst_visibility_m": 700,
      "ceiling_ft": 700,
      "hazards": [
        "SN"
      ],
      "severityScore": 68,
      "metarRaw": "METAR LYBE 070900Z 27008KT 9999 BKN007 BKN040 M03/M04 Q1014 NOSIG",
      "tafRaw": "TAF LYBE 070500Z 0706/0806 27010KT 7000 -SN BKN007 BKN035 TXM01/0713Z TNM04/0806Z \n  TEMPO 0715/0722 0700 +SN BKN002 OVC021 \n  TEMPO 0722/0803 1200 SN BKN002 OVC023",
      "metarHtml": "METAR LYBE 070900Z 27008KT 9999 BKN007 BKN040 M03/M04 Q1014 NOSIG",
      "tafHtml": "TAF LYBE 070500Z 0706/0806 27010KT 7000 -<span class=\"hl\">SN</span> BKN007 BKN035 TXM01/0713Z TNM04/0806Z \n  TEMPO 0715/0722 <span class=\"hl-vis\">0700</span> +<span class=\"hl\">SN</span> BKN002 OVC021 \n  TEMPO 0722/0803 1200 <span class=\"hl\">SN</span> BKN002 OVC023"
    },
    {
      "icao": "ENGM",
      "iata": "OSL",
      "name": "Oslo-Gardermoen International Airport",
      "updatedAt": "070850Z",
      "visibility_m": 10000,
      "taf_visibility_m": 500,
      "worst_visibility_m": 500,
      "ceiling_ft": 1800,
      "hazards": [
        "SN"
      ],
      "severityScore": 65,
      "metarRaw": "METAR ENGM 070850Z 33004KT 9999 VCSH OVC018 M10/M12 Q1009 NOSIG",
      "tafRaw": "TAF ENGM 070500Z 0706/0806 34003KT 9999 FEW015 BKN020 \n  TEMPO 0706/0718 BKN013 \n  BECMG 0718/0720 02013KT 4000 -SN OVC014 \n  TEMPO 0720/0806 0500 SN VV003",
      "metarHtml": "METAR ENGM 070850Z 33004KT 9999 VCSH OVC018 M10/M12 Q1009 NOSIG",
      "tafHtml": "TAF ENGM 070500Z 0706/0806 34003KT 9999 FEW015 BKN020 \n  TEMPO 0706/0718 BKN013 \n  BECMG 0718/0720 02013KT 4000 -<span class=\"hl\">SN</span> OVC014 \n  TEMPO 0720/0806 <span class=\"hl-vis\">0500</span> <span class=\"hl\">SN</span> VV003"
    },
    {
      "icao": "UDYZ",
      "iata": "EVN",
      "name": "Zvartnots International Airport",
      "updatedAt": "070900Z",
      "visibility_m": 2200,
      "taf_visibility_m": 600,
      "worst_visibility_m": 600,
      "ceiling_ft": null,
      "hazards": [
        "BR",
        "FZFG"
      ],
      "severityScore": 65,
      "metarRaw": "METAR UDYZ 070900Z VRB01KT 2200 BR NSC M04/M09 Q1029 NOSIG",
      "tafRaw": "TAF UDYZ 070500Z 0706/0806 VRB04KT 3500 BR FEW040 \n  TEMPO 0706/0709 0600 FZFG VV004",
      "metarHtml": "METAR UDYZ 070900Z VRB01KT 2200 <span class=\"hl\">BR</span> NSC M04/M09 Q1029 NOSIG",
      "tafHtml": "TAF UDYZ 070500Z 0706/0806 VRB04KT 3500 <span class=\"hl\">BR</span> FEW040 \n  TEMPO 0706/0709 <span class=\"hl-vis\">0600</span> <span class=\"hl\">FZFG</span> VV004"
    },
    {
      "icao": "LRTM",
      "iata": "TGM",
      "name": "Târgu Mureş Transilvania International Airport",
      "updatedAt": "070900Z",
      "visibility_m": 9000,
      "taf_visibility_m": 1500,
      "worst_visibility_m": 1500,
      "ceiling_ft": 1500,
      "hazards": [
        "RA",
        "BR",
        "SN"
      ],
      "severityScore": 62,
      "metarRaw": "METAR LRTM 070900Z COR 22003KT 9000 -RA FEW005 SCT008 BKN015 01/01 Q1009",
      "tafRaw": "TAF LRTM 070800Z 0709/0718 VRB04KT 5000 -RA BR BKN010 BKN045 \n  TEMPO 0709/0715 1500 -SNRA BKN005 OVC035 \n  BECMG 0715/0717 3000 -SN BKN002 OVC020",
      "metarHtml": "METAR LRTM 070900Z COR 22003KT 9000 -<span class=\"hl\">RA</span> FEW005 SCT008 BKN015 01/01 Q1009",
      "tafHtml": "TAF LRTM 070800Z 0709/0718 VRB04KT 5000 -<span class=\"hl\">RA</span> <span class=\"hl\">BR</span> BKN010 BKN045 \n  TEMPO 0709/0715 1500 -SNRA BKN005 OVC035 \n  BECMG 0715/0717 3000 -<span class=\"hl\">SN</span> BKN002 OVC020"
    },
    {
      "icao": "EPKT",
      "iata": "KTW",
      "name": "Katowice Wojciech Korfanty International Airport",
      "updatedAt": "070900Z",
      "visibility_m": 10000,
      "taf_visibility_m": 4000,
      "worst_visibility_m": 4000,
      "ceiling_ft": 900,
      "hazards": [
        "BR",
        "SN"
      ],
      "severityScore": 53,
      "metarRaw": "METAR EPKT 070900Z 05002KT 9999 FEW006 BKN009 M05/M07 Q1016",
      "tafRaw": "TAF EPKT 070530Z 0706/0806 03006KT 6000 BKN018 \n  TEMPO 0706/0710 4000 -SN BR BKN008 BKN012 \n  BECMG 0716/0718 BKN013 \n  TEMPO 0718/0806 4000 -SN BKN008 BKN013",
      "metarHtml": "METAR EPKT 070900Z 05002KT 9999 FEW006 BKN009 M05/M07 Q1016",
      "tafHtml": "TAF EPKT 070530Z 0706/0806 03006KT 6000 BKN018 \n  TEMPO 0706/0710 4000 -<span class=\"hl\">SN</span> <span class=\"hl\">BR</span> BKN008 BKN012 \n  BECMG 0716/0718 BKN013 \n  TEMPO 0718/0806 4000 -<span class=\"hl\">SN</span> BKN008 BKN013"
    },
    {
      "icao": "LRSM",
      "iata": "SUJ",
      "name": "Satu Mare International Airport",
      "updatedAt": "070900Z",
      "visibility_m": 10000,
      "taf_visibility_m": 3000,
      "worst_visibility_m": 3000,
      "ceiling_ft": 500,
      "hazards": [
        "BR",
        "SN"
      ],
      "severityScore": 53,
      "metarRaw": "METAR LRSM 070900Z 28005KT 9999 BKN005 BKN035 M02/M03 Q1011",
      "tafRaw": "TAF LRSM 070800Z 0709/0718 23006KT 9999 SCT010 OVC030 \n  BECMG 0715/0717 3000 -SN BR BKN005 OVC020",
      "metarHtml": "METAR LRSM 070900Z 28005KT 9999 BKN005 BKN035 M02/M03 Q1011",
      "tafHtml": "TAF LRSM 070800Z 0709/0718 23006KT 9999 SCT010 OVC030 \n  BECMG 0715/0717 3000 -<span class=\"hl\">SN</span> <span class=\"hl\">BR</span> BKN005 OVC020"
    },
    {
      "icao": "LATI",
      "iata": "TIA",
      "name": "Tirana International Airport Mother Teresa",
      "updatedAt": "070850Z",
      "visibility_m": 10000,
      "taf_visibility_m": 3000,
      "worst_visibility_m": 3000,
      "ceiling_ft": 7600,
      "hazards": [
        "TSRA",
        "RA",
        "SHRA"
      ],
      "severityScore": 51,
      "metarRaw": "METAR LATI 070850Z 12005KT 9999 SCT045 BKN076 13/11 Q1007 NOSIG",
      "tafRaw": "TAF LATI 070500Z 0706/0806 VRB05KT 9999 RA SCT030 OVC060 TX16/0712Z TN09/0805Z \n  TEMPO 0711/0720 16014KT 3000 TSRA FEW010 SCT025CB OVC040 \n  TEMPO 0722/0806 5000 SHRA FEW020CB BKN025",
      "metarHtml": "METAR LATI 070850Z 12005KT 9999 SCT045 BKN076 13/11 Q1007 NOSIG",
      "tafHtml": "TAF LATI 070500Z 0706/0806 VRB05KT 9999 <span class=\"hl\">RA</span> SCT030 OVC060 TX16/0712Z TN09/0805Z \n  TEMPO 0711/0720 16014KT 3000 <span class=\"hl\">TSRA</span> FEW010 SCT025CB OVC040 \n  TEMPO 0722/0806 5000 <span class=\"hl\">SHRA</span> FEW020CB BKN025"
    },
    {
      "icao": "LICJ",
      "iata": "PMO",
      "name": "Falcone–Borsellino Airport",
      "updatedAt": "070850Z",
      "visibility_m": 10000,
      "taf_visibility_m": 3000,
      "worst_visibility_m": 3000,
      "ceiling_ft": 3000,
      "hazards": [
        "RA",
        "TSRA",
        "SHRA"
      ],
      "severityScore": 51,
      "metarRaw": "METAR LICJ 070850Z 19012KT 9999 -RA FEW020 BKN030 12/10 Q1008",
      "tafRaw": "TAF LICJ 070500Z 0706/0806 22014KT 9999 SCT030 \n  TEMPO 0706/0718 4000 SHRA \n  TEMPO 0709/0712 3000 TSRA \n  TEMPO 0712/0806 27025G38KT",
      "metarHtml": "METAR LICJ 070850Z 19012KT 9999 -<span class=\"hl\">RA</span> FEW020 BKN030 12/10 Q1008",
      "tafHtml": "TAF LICJ 070500Z 0706/0806 22014KT 9999 SCT030 \n  TEMPO 0706/0718 4000 <span class=\"hl\">SHRA</span> \n  TEMPO 0709/0712 3000 <span class=\"hl\">TSRA</span> \n  TEMPO 0712/0806 27025G38KT"
    },
    {
      "icao": "EHBK",
      "iata": "MST",
      "name": "Maastricht Aachen Airport",
      "updatedAt": "070855Z",
      "visibility_m": 2000,
      "taf_visibility_m": 1000,
      "worst_visibility_m": 1000,
      "ceiling_ft": 1100,
      "hazards": [
        "SN",
        "SHSN"
      ],
      "severityScore": 50,
      "metarRaw": "METAR EHBK 070855Z AUTO 20019KT 170V230 9999 BKN017/// M01/M04 Q1008 BECMG 2000 SN BKN011",
      "tafRaw": "TAF EHBK 070521Z 0706/0812 19016G26KT CAVOK \n  BECMG 0708/0711 2000 -SN \n  TEMPO 0710/0714 1000 SN BKN014 \n  BECMG 0713/0715 9999 NSW BKN016 \n  BECMG 0715/0718 20013KT \n  TEMPO 0715/0724 3000 -SHSN SCT008 BKN012 FEW018CB \n  BECMG 0720/0723 23010KT \n  BECMG 0804/0807 20007KT",
      "metarHtml": "METAR EHBK 070855Z AUTO 20019KT 170V230 9999 BKN017/// M01/M04 Q1008 BECMG 2000 <span class=\"hl\">SN</span> BKN011",
      "tafHtml": "TAF EHBK 070521Z 0706/0812 19016G26KT <span class=\"hl-vis\">CAVOK</span> \n  BECMG 0708/0711 2000 -<span class=\"hl\">SN</span> \n  TEMPO 0710/0714 1000 <span class=\"hl\">SN</span> BKN014 \n  BECMG 0713/0715 9999 NSW BKN016 \n  BECMG 0715/0718 20013KT \n  TEMPO 0715/0724 3000 -<span class=\"hl\">SHSN</span> SCT008 BKN012 FEW018CB \n  BECMG 0720/0723 23010KT \n  BECMG 0804/0807 20007KT"
    },
    {
      "icao": "EYKA",
      "iata": "KUN",
      "name": "Kaunas International Airport",
      "updatedAt": "070850Z",
      "visibility_m": 1700,
      "taf_visibility_m": null,
      "worst_visibility_m": 1700,
      "ceiling_ft": 300,
      "hazards": [
        "BR"
      ],
      "severityScore": 50,
      "metarRaw": "METAR EYKA 070850Z 27004KT 1700 BR OVC003 M06/M06 Q1016",
      "tafRaw": null,
      "metarHtml": "METAR EYKA 070850Z 27004KT 1700 <span class=\"hl\">BR</span> OVC003 M06/M06 Q1016",
      "tafHtml": null
    },
    {
      "icao": "LFBD",
      "iata": "BOD",
      "name": "Bordeaux–Mérignac Airport",
      "updatedAt": "070900Z",
      "visibility_m": 10000,
      "taf_visibility_m": 2500,
      "worst_visibility_m": 2500,
      "ceiling_ft": 5400,
      "hazards": [
        "FZRA",
        "SHRA"
      ],
      "severityScore": 49,
      "metarRaw": "METAR LFBD 070900Z AUTO 19011KT 9999 FEW040 SCT047 OVC054 01/M03 Q1017",
      "tafRaw": "TAF LFBD 070500Z 0706/0812 19005KT CAVOK TX10/0800Z TNM01/0706Z \n  PROB30 \n  TEMPO 0706/0709 FZRA \n  BECMG 0707/0709 20010KT CAVOK \n  TEMPO 0710/0719 4500 -SHRA FEW025TCU \n  PROB40 \n  TEMPO 0712/0713 2500 SHRA BKN030TCU",
      "metarHtml": "METAR LFBD 070900Z AUTO 19011KT 9999 FEW040 SCT047 OVC054 01/M03 Q1017",
      "tafHtml": "TAF LFBD 070500Z 0706/0812 19005KT <span class=\"hl-vis\">CAVOK</span> TX10/0800Z TNM01/0706Z \n  PROB30 \n  TEMPO 0706/0709 <span class=\"hl\">FZRA</span> \n  BECMG 0707/0709 20010KT <span class=\"hl-vis\">CAVOK</span> \n  TEMPO 0710/0719 4500 -<span class=\"hl\">SHRA</span> FEW025TCU \n  PROB40 \n  TEMPO 0712/0713 2500 <span class=\"hl\">SHRA</span> BKN030TCU"
    },
    {
      "icao": "EETN",
      "iata": "TLL",
      "name": "Lennart Meri Tallinn Airport",
      "updatedAt": "070850Z",
      "visibility_m": 10000,
      "taf_visibility_m": 1000,
      "worst_visibility_m": 1000,
      "ceiling_ft": null,
      "hazards": [
        "BR",
        "SN",
        "SHSN"
      ],
      "severityScore": 48,
      "metarRaw": "METAR EETN 070850Z 07002KT 9999 0600E R08/P2000N BCFG NSC M08/M09 Q1014 NOSIG",
      "tafRaw": "TAF EETN 070530Z 0706/0806 VRB02KT 8000 SCT008 BKN025 \n  PROB40 \n  TEMPO 0706/0712 1000 SN BR BKN003 \n  PROB40 \n  TEMPO 0712/0716 BKN004 \n  PROB40 \n  TEMPO 0716/0806 3000 SHSN BR BKN006 SCT012CB",
      "metarHtml": "METAR EETN 070850Z 07002KT 9999 0600E R08/P2000N BCFG NSC M08/M09 Q1014 NOSIG",
      "tafHtml": "TAF EETN 070530Z 0706/0806 VRB02KT 8000 SCT008 BKN025 \n  PROB40 \n  TEMPO 0706/0712 1000 <span class=\"hl\">SN</span> <span class=\"hl\">BR</span> BKN003 \n  PROB40 \n  TEMPO 0712/0716 BKN004 \n  PROB40 \n  TEMPO 0716/0806 3000 <span class=\"hl\">SHSN</span> <span class=\"hl\">BR</span> BKN006 SCT012CB"
    },
    {
      "icao": "EHEH",
      "iata": "EIN",
      "name": "Eindhoven Airport",
      "updatedAt": "070755Z",
      "visibility_m": 4000,
      "taf_visibility_m": null,
      "worst_visibility_m": 4000,
      "ceiling_ft": 800,
      "hazards": [
        "SN"
      ],
      "severityScore": 48,
      "metarRaw": "METAR EHEH 070755Z AUTO 18013KT 150V220 9999 FEW015 SCT018 BKN027 M01/M04 Q1007 BLU BECMG 4000 -SN SCT005 BKN008 OVC010 RMK TREND REMOTE BY EHWX",
      "tafRaw": null,
      "metarHtml": "METAR EHEH 070755Z AUTO 18013KT 150V220 9999 FEW015 SCT018 BKN027 M01/M04 Q1007 BLU BECMG 4000 -<span class=\"hl\">SN</span> SCT005 BKN008 OVC010 RMK TREND REMOTE BY EHWX",
      "tafHtml": null
    },
    {
      "icao": "LPPR",
      "iata": "OPO",
      "name": "Francisco de Sá Carneiro Airport",
      "updatedAt": "070900Z",
      "visibility_m": 8000,
      "taf_visibility_m": 3000,
      "worst_visibility_m": 3000,
      "ceiling_ft": 800,
      "hazards": [
        "BR",
        "RA"
      ],
      "severityScore": 47,
      "metarRaw": "METAR LPPR 070900Z 06004KT 030V110 8000 FEW002 BKN008 BKN015 08/07 Q1024",
      "tafRaw": "TAF LPPR 070500Z 0706/0806 14007KT 6000 -RA SCT008 BKN015 \n  TEMPO 0706/0710 3000 RA BR SCT003 BKN006 \n  BECMG 0710/0712 32005KT 9999 NSW SCT015 \n  BECMG 0719/0721 VRB02KT \n  BECMG 0802/0804 14005KT FEW015 BKN030",
      "metarHtml": "METAR LPPR 070900Z 06004KT 030V110 8000 FEW002 BKN008 BKN015 08/07 Q1024",
      "tafHtml": "TAF LPPR 070500Z 0706/0806 14007KT 6000 -<span class=\"hl\">RA</span> SCT008 BKN015 \n  TEMPO 0706/0710 3000 <span class=\"hl\">RA</span> <span class=\"hl\">BR</span> SCT003 BKN006 \n  BECMG 0710/0712 32005KT 9999 NSW SCT015 \n  BECMG 0719/0721 VRB02KT \n  BECMG 0802/0804 14005KT FEW015 BKN030"
    },
    {
      "icao": "EPRZ",
      "iata": "RZE",
      "name": "Rzeszów-Jasionka Airport",
      "updatedAt": "070900Z",
      "visibility_m": 1100,
      "taf_visibility_m": null,
      "worst_visibility_m": 1100,
      "ceiling_ft": 2200,
      "hazards": [
        "BR",
        "SN"
      ],
      "severityScore": 43,
      "metarRaw": "METAR EPRZ 070900Z 34006KT 1100 R27/1200N SN BR FEW002 OVC022 M05/M06 Q1015",
      "tafRaw": null,
      "metarHtml": "METAR EPRZ 070900Z 34006KT 1100 R27/1200N <span class=\"hl\">SN</span> <span class=\"hl\">BR</span> FEW002 OVC022 M05/M06 Q1015",
      "tafHtml": null
    },
    {
      "icao": "LQSA",
      "iata": "SJJ",
      "name": "Sarajevo International Airport",
      "updatedAt": "070900Z",
      "visibility_m": 7000,
      "taf_visibility_m": 700,
      "worst_visibility_m": 700,
      "ceiling_ft": 3700,
      "hazards": [
        "SN"
      ],
      "severityScore": 43,
      "metarRaw": "METAR LQSA 070900Z VRB02KT 7000 -SN FEW015 SCT027 OVC037 M04/M05 Q1011 NOSIG",
      "tafRaw": "TAF LQSA 070500Z 0706/0806 29005KT 6000 -SN SCT012 OVC030 TXM02/0713Z TNM06/0806Z \n  PROB30 \n  TEMPO 0706/0709 2000 SN BKN006 OVC020 \n  TEMPO 0712/0724 1200 SN BKN004 OVC015 \n  PROB30 \n  TEMPO 0714/0718 35012KT 0700 +SN \n  PROB40 \n  TEMPO 0800/0806 35012KT",
      "metarHtml": "METAR LQSA 070900Z VRB02KT 7000 -<span class=\"hl\">SN</span> FEW015 SCT027 OVC037 M04/M05 Q1011 NOSIG",
      "tafHtml": "TAF LQSA 070500Z 0706/0806 29005KT 6000 -<span class=\"hl\">SN</span> SCT012 OVC030 TXM02/0713Z TNM06/0806Z \n  PROB30 \n  TEMPO 0706/0709 2000 <span class=\"hl\">SN</span> BKN006 OVC020 \n  TEMPO 0712/0724 1200 <span class=\"hl\">SN</span> BKN004 OVC015 \n  PROB30 \n  TEMPO 0714/0718 35012KT <span class=\"hl-vis\">0700</span> +<span class=\"hl\">SN</span> \n  PROB40 \n  TEMPO 0800/0806 35012KT"
    },
    {
      "icao": "EYVI",
      "iata": "VNO",
      "name": "Vilnius International Airport",
      "updatedAt": "070850Z",
      "visibility_m": 4400,
      "taf_visibility_m": null,
      "worst_visibility_m": 4400,
      "ceiling_ft": 700,
      "hazards": [
        "BR"
      ],
      "severityScore": 40,
      "metarRaw": "METAR EYVI 070850Z 18004KT 4400 BR OVC007 M07/M07 Q1015 NOSIG",
      "tafRaw": null,
      "metarHtml": "METAR EYVI 070850Z 18004KT 4400 <span class=\"hl\">BR</span> OVC007 M07/M07 Q1015 NOSIG",
      "tafHtml": null
    },
    {
      "icao": "LFLL",
      "iata": "LYS",
      "name": "Lyon Saint-Exupéry Airport",
      "updatedAt": "070900Z",
      "visibility_m": 10000,
      "taf_visibility_m": 2000,
      "worst_visibility_m": 2000,
      "ceiling_ft": null,
      "hazards": [
        "BR",
        "SN",
        "RA"
      ],
      "severityScore": 40,
      "metarRaw": "METAR LFLL 070900Z VRB02KT CAVOK M03/M06 Q1017 NOSIG",
      "tafRaw": "TAF LFLL 070500Z 0706/0812 VRB02KT 9999 FEW030 \n  PROB30 \n  TEMPO 0706/0709 2000 BR BKN002 \n  BECMG 0709/0712 14005KT \n  TEMPO 0714/0719 2000 -SN BR OVC004 \n  PROB40 \n  TEMPO 0719/0803 3000 BR BKN012 \n  TEMPO 0803/0807 2000 -SN BR OVC002 \n  PROB40 \n  TEMPO 0807/0812 4000 RA BKN012",
      "metarHtml": "METAR LFLL 070900Z VRB02KT <span class=\"hl-vis\">CAVOK</span> M03/M06 Q1017 NOSIG",
      "tafHtml": "TAF LFLL 070500Z 0706/0812 VRB02KT 9999 FEW030 \n  PROB30 \n  TEMPO 0706/0709 2000 <span class=\"hl\">BR</span> BKN002 \n  BECMG 0709/0712 14005KT \n  TEMPO 0714/0719 2000 -<span class=\"hl\">SN</span> <span class=\"hl\">BR</span> OVC004 \n  PROB40 \n  TEMPO 0719/0803 3000 <span class=\"hl\">BR</span> BKN012 \n  TEMPO 0803/0807 2000 -<span class=\"hl\">SN</span> <span class=\"hl\">BR</span> OVC002 \n  PROB40 \n  TEMPO 0807/0812 4000 <span class=\"hl\">RA</span> BKN012"
    },
    {
      "icao": "LFLS",
      "iata": "GNB",
      "name": "Grenoble Alpes Isère Airport",
      "updatedAt": "070900Z",
      "visibility_m": 10000,
      "taf_visibility_m": 1500,
      "worst_visibility_m": 1500,
      "ceiling_ft": null,
      "hazards": [
        "SN",
        "RA"
      ],
      "severityScore": 40,
      "metarRaw": "METAR LFLS 070900Z AUTO VRB02KT CAVOK M04/M07 Q1016 NOSIG",
      "tafRaw": "TAF LFLS 070800Z 0709/0809 VRB05KT CAVOK \n  BECMG 0714/0716 4000 -SN OVC040 \n  TEMPO 0716/0719 1500 SN BKN009 \n  FM071900 08005KT 9999 BKN040 \n  PROB30 \n  TEMPO 0719/0721 4000 -SN \n  BECMG 0802/0804 4000 -SN \n  TEMPO 0804/0808 1500 SN BKN009 \n  PROB40 \n  TEMPO 0807/0808 9999 -RA \n  FM080800 08006KT 9999 -RA OVC030 \n  TEMPO 0808/0809 4000 RA BKN012",
      "metarHtml": "METAR LFLS 070900Z AUTO VRB02KT <span class=\"hl-vis\">CAVOK</span> M04/M07 Q1016 NOSIG",
      "tafHtml": "TAF LFLS 070800Z 0709/0809 VRB05KT <span class=\"hl-vis\">CAVOK</span> \n  BECMG 0714/0716 4000 -<span class=\"hl\">SN</span> OVC040 \n  TEMPO 0716/0719 1500 <span class=\"hl\">SN</span> BKN009 \n  FM071900 08005KT 9999 BKN040 \n  PROB30 \n  TEMPO 0719/0721 4000 -<span class=\"hl\">SN</span> \n  BECMG 0802/0804 4000 -<span class=\"hl\">SN</span> \n  TEMPO 0804/0808 1500 <span class=\"hl\">SN</span> BKN009 \n  PROB40 \n  TEMPO 0807/0808 9999 -<span class=\"hl\">RA</span> \n  FM080800 08006KT 9999 -<span class=\"hl\">RA</span> OVC030 \n  TEMPO 0808/0809 4000 <span class=\"hl\">RA</span> BKN012"
    },
    {
      "icao": "LZKZ",
      "iata": "KSC",
      "name": "Košice International Airport",
      "updatedAt": "070900Z",
      "visibility_m": 10000,
      "taf_visibility_m": 2500,
      "worst_visibility_m": 2500,
      "ceiling_ft": null,
      "hazards": [
        "BLSN",
        "SN"
      ],
      "severityScore": 40,
      "metarRaw": "METAR LZKZ 070900Z 36022KT 9999 BLSN NSC M03/M07 Q1011 NOSIG",
      "tafRaw": "TAF LZKZ 070515Z 0706/0806 36020KT 9999 FEW035 \n  TEMPO 0706/0714 01025G35KT 2500 BLSN \n  TEMPO 0720/0801 4000 -SN BLSN BKN035",
      "metarHtml": "METAR LZKZ 070900Z 36022KT 9999 <span class=\"hl\">BLSN</span> NSC M03/M07 Q1011 NOSIG",
      "tafHtml": "TAF LZKZ 070515Z 0706/0806 36020KT 9999 FEW035 \n  TEMPO 0706/0714 01025G35KT 2500 <span class=\"hl\">BLSN</span> \n  TEMPO 0720/0801 4000 -<span class=\"hl\">SN</span> <span class=\"hl\">BLSN</span> BKN035"
    },
    {
      "icao": "LTFM",
      "iata": "IST",
      "name": "İstanbul Airport",
      "updatedAt": "070850Z",
      "visibility_m": 10000,
      "taf_visibility_m": 4000,
      "worst_visibility_m": 4000,
      "ceiling_ft": 8000,
      "hazards": [
        "TSRA",
        "SHRA"
      ],
      "severityScore": 39,
      "metarRaw": "METAR LTFM 070850Z 19014KT 9999 FEW040 BKN080 15/10 Q1012 NOSIG RMK RWY17L 21015KT RWY34L 19012KT RWY16R 20015KT RWY36 19016KT RWY18 20017KT",
      "tafRaw": "TAF LTFM 070440Z 0706/0812 19017G27KT 9999 SCT040 BKN080 \n  TEMPO 0708/0712 -SHRA BKN030 BKN080 \n  BECMG 0712/0715 20015KT \n  TEMPO 0717/0721 19017G37KT -SHRA BKN028 BKN070 \n  BECMG 0721/0724 20028G48KT \n  BECMG 0800/0803 -SHRA FEW020TCU BKN028 \n  TEMPO 0803/0806 4000 TSRA SCT017CB BKN025 \n  BECMG 0807/0810 23025G35KT SCT035",
      "metarHtml": "METAR LTFM 070850Z 19014KT 9999 FEW040 BKN080 15/10 Q1012 NOSIG RMK RWY17L 21015KT RWY34L 19012KT RWY16R 20015KT RWY36 19016KT RWY18 20017KT",
      "tafHtml": "TAF LTFM 070440Z 0706/0812 19017G27KT 9999 SCT040 BKN080 \n  TEMPO 0708/0712 -<span class=\"hl\">SHRA</span> BKN030 BKN080 \n  BECMG 0712/0715 20015KT \n  TEMPO 0717/0721 19017G37KT -<span class=\"hl\">SHRA</span> BKN028 BKN070 \n  BECMG 0721/0724 20028G48KT \n  BECMG 0800/0803 -<span class=\"hl\">SHRA</span> FEW020TCU BKN028 \n  TEMPO 0803/0806 4000 <span class=\"hl\">TSRA</span> SCT017CB BKN025 \n  BECMG 0807/0810 23025G35KT SCT035"
    },
    {
      "icao": "EPKK",
      "iata": "KRK",
      "name": "Kraków John Paul II International Airport",
      "updatedAt": "070900Z",
      "visibility_m": 10000,
      "taf_visibility_m": 1400,
      "worst_visibility_m": 1400,
      "ceiling_ft": null,
      "hazards": [
        "BR",
        "SN"
      ],
      "severityScore": 38,
      "metarRaw": "METAR EPKK 070900Z 02004KT 9999 FEW040 M05/M08 Q1016",
      "tafRaw": "TAF EPKK 070830Z 0709/0809 30002KT 9999 BKN025 \n  BECMG 0709/0711 04010KT \n  PROB40 \n  TEMPO 0709/0716 4000 -SN BR BKN013 BKN020 \n  BECMG 0716/0719 4000 -SN BR BKN013 \n  TEMPO 0719/0809 1400 SN BR BKN004 BKN009",
      "metarHtml": "METAR EPKK 070900Z 02004KT 9999 FEW040 M05/M08 Q1016",
      "tafHtml": "TAF EPKK 070830Z 0709/0809 30002KT 9999 BKN025 \n  BECMG 0709/0711 04010KT \n  PROB40 \n  TEMPO 0709/0716 4000 -<span class=\"hl\">SN</span> <span class=\"hl\">BR</span> BKN013 BKN020 \n  BECMG 0716/0719 4000 -<span class=\"hl\">SN</span> <span class=\"hl\">BR</span> BKN013 \n  TEMPO 0719/0809 1400 <span class=\"hl\">SN</span> <span class=\"hl\">BR</span> BKN004 BKN009"
    },
    {
      "icao": "EPLB",
      "iata": "LUZ",
      "name": "Lublin Airport",
      "updatedAt": "070900Z",
      "visibility_m": 2600,
      "taf_visibility_m": 1500,
      "worst_visibility_m": 1500,
      "ceiling_ft": null,
      "hazards": [
        "BR",
        "SN"
      ],
      "severityScore": 38,
      "metarRaw": "METAR EPLB 070900Z 36004KT 330V030 2600 -SN BR FEW041 M06/M07 Q1016",
      "tafRaw": "TAF EPLB 070530Z 0706/0806 35005KT 4000 -SN BR BKN020 \n  PROB40 \n  TEMPO 0706/0709 1500 -SN BR BKN006 \n  TEMPO 0722/0806 1500 SN BR BKN006 \n  PROB40 \n  TEMPO 0800/0806 03015G25KT",
      "metarHtml": "METAR EPLB 070900Z 36004KT 330V030 2600 -<span class=\"hl\">SN</span> <span class=\"hl\">BR</span> FEW041 M06/M07 Q1016",
      "tafHtml": "TAF EPLB 070530Z 0706/0806 35005KT 4000 -<span class=\"hl\">SN</span> <span class=\"hl\">BR</span> BKN020 \n  PROB40 \n  TEMPO 0706/0709 1500 -<span class=\"hl\">SN</span> <span class=\"hl\">BR</span> BKN006 \n  TEMPO 0722/0806 1500 <span class=\"hl\">SN</span> <span class=\"hl\">BR</span> BKN006 \n  PROB40 \n  TEMPO 0800/0806 03015G25KT"
    },
    {
      "icao": "ESGG",
      "iata": "GOT",
      "name": "Göteborg Landvetter Airport",
      "updatedAt": "070850Z",
      "visibility_m": 10000,
      "taf_visibility_m": 1200,
      "worst_visibility_m": 1200,
      "ceiling_ft": 2000,
      "hazards": [
        "SN",
        "SHSN"
      ],
      "severityScore": 38,
      "metarRaw": "METAR ESGG 070850Z 15005KT 9999 SCT015 BKN020 M03/M03 Q1006",
      "tafRaw": "TAF ESGG 070830Z 0709/0809 11006KT 5000 -SN BKN004 \n  BECMG 0711/0713 17010KT BKN015 \n  TEMPO 0713/0809 1200 SHSN BKN010 BKN020CB",
      "metarHtml": "METAR ESGG 070850Z 15005KT 9999 SCT015 BKN020 M03/M03 Q1006",
      "tafHtml": "TAF ESGG 070830Z 0709/0809 11006KT 5000 -<span class=\"hl\">SN</span> BKN004 \n  BECMG 0711/0713 17010KT BKN015 \n  TEMPO 0713/0809 1200 <span class=\"hl\">SHSN</span> BKN010 BKN020CB"
    },
    {
      "icao": "LIBR",
      "iata": "BDS",
      "name": "Brindisi Airport",
      "updatedAt": "070850Z",
      "visibility_m": 10000,
      "taf_visibility_m": 3000,
      "worst_visibility_m": 3000,
      "ceiling_ft": 2000,
      "hazards": [
        "TSRA",
        "RA"
      ],
      "severityScore": 37,
      "metarRaw": "METAR LIBR 070850Z 02006KT 9999 BKN020 13/10 Q1006",
      "tafRaw": "TAF LIBR 070500Z 0706/0806 33008KT 6000 BKN010 \n  BECMG 0708/0710 RA \n  TEMPO 0710/0718 3000 TSRA \n  BECMG 0712/0714 33018KT \n  BECMG 0802/0804 NSW SCT030",
      "metarHtml": "METAR LIBR 070850Z 02006KT 9999 BKN020 13/10 Q1006",
      "tafHtml": "TAF LIBR 070500Z 0706/0806 33008KT 6000 BKN010 \n  BECMG 0708/0710 <span class=\"hl\">RA</span> \n  TEMPO 0710/0718 3000 <span class=\"hl\">TSRA</span> \n  BECMG 0712/0714 33018KT \n  BECMG 0802/0804 NSW SCT030"
    },
    {
      "icao": "LYPG",
      "iata": "TGD",
      "name": "Podgorica Airport / Podgorica Golubovci Airbase",
      "updatedAt": "070900Z",
      "visibility_m": 10000,
      "taf_visibility_m": 2000,
      "worst_visibility_m": 2000,
      "ceiling_ft": 8000,
      "hazards": [
        "TSRA",
        "RA"
      ],
      "severityScore": 37,
      "metarRaw": "METAR LYPG 070900Z 14007KT 9999 FEW010 SCT050 BKN080 14/12 Q1006 NOSIG",
      "tafRaw": "TAF LYPG 070500Z 0706/0806 15009KT 9999 FEW020 BKN034 BKN070 TX14/0712Z TN03/0806Z \n  TEMPO 0706/0806 4000 RA \n  TEMPO 0713/0719 2000 TSRA FEW010 SCT025CB BKN030 \n  BECMG 0718/0720 36010KT \n  PROB30 \n  TEMPO 0801/0806 3000 RASN",
      "metarHtml": "METAR LYPG 070900Z 14007KT 9999 FEW010 SCT050 BKN080 14/12 Q1006 NOSIG",
      "tafHtml": "TAF LYPG 070500Z 0706/0806 15009KT 9999 FEW020 BKN034 BKN070 TX14/0712Z TN03/0806Z \n  TEMPO 0706/0806 4000 <span class=\"hl\">RA</span> \n  TEMPO 0713/0719 2000 <span class=\"hl\">TSRA</span> FEW010 SCT025CB BKN030 \n  BECMG 0718/0720 36010KT \n  PROB30 \n  TEMPO 0801/0806 3000 RASN"
    },
    {
      "icao": "LTAC",
      "iata": "ESB",
      "name": "Esenboğa International Airport",
      "updatedAt": "070850Z",
      "visibility_m": 4800,
      "taf_visibility_m": 4000,
      "worst_visibility_m": 4000,
      "ceiling_ft": null,
      "hazards": [
        "BR",
        "RA",
        "SHRA"
      ],
      "severityScore": 36,
      "metarRaw": "METAR LTAC 070850Z 32004KT 270V010 4800 BR SCT035 SCT080 06/02 Q1020 BECMG TL0950 8000",
      "tafRaw": "TAF LTAC 070440Z 0706/0806 VRB02KT 4000 BR SCT040 SCT100 \n  BECMG 0706/0708 9999 NSW \n  TEMPO 0709/0713 -SHRA BKN025 BKN080 \n  TEMPO 0802/0806 -RA FEW010 BKN030 BKN080",
      "metarHtml": "METAR LTAC 070850Z 32004KT 270V010 4800 <span class=\"hl\">BR</span> SCT035 SCT080 06/02 Q1020 BECMG TL0950 8000",
      "tafHtml": "TAF LTAC 070440Z 0706/0806 VRB02KT 4000 <span class=\"hl\">BR</span> SCT040 SCT100 \n  BECMG 0706/0708 9999 NSW \n  TEMPO 0709/0713 -<span class=\"hl\">SHRA</span> BKN025 BKN080 \n  TEMPO 0802/0806 -<span class=\"hl\">RA</span> FEW010 BKN030 BKN080"
    },
    {
      "icao": "EGPD",
      "iata": "ABZ",
      "name": "Aberdeen International Airport",
      "updatedAt": "070850Z",
      "visibility_m": 10000,
      "taf_visibility_m": 2000,
      "worst_visibility_m": 2000,
      "ceiling_ft": 1900,
      "hazards": [
        "RA",
        "BR"
      ],
      "severityScore": 34,
      "metarRaw": "METAR EGPD 070850Z COR AUTO 07013KT 030V090 9999 -RA BKN019 OVC027 04/00 Q1000 NOSIG",
      "tafRaw": "TAF EGPD 070459Z 0706/0806 03012KT 9999 BKN015 \n  TEMPO 0706/0724 6000 -RA BKN008 \n  TEMPO 0706/0709 04015G25KT \n  PROB40 \n  TEMPO 0706/0709 3000 RADZ -RASN BKN004 \n  BECMG 0709/0712 30005KT \n  PROB30 \n  TEMPO 0712/0724 2000 RASN BKN004 \n  PROB30 \n  TEMPO 0800/0806 4000 BR BKN004",
      "metarHtml": "METAR EGPD 070850Z COR AUTO 07013KT 030V090 9999 -<span class=\"hl\">RA</span> BKN019 OVC027 04/00 Q1000 NOSIG",
      "tafHtml": "TAF EGPD 070459Z 0706/0806 03012KT 9999 BKN015 \n  TEMPO 0706/0724 6000 -<span class=\"hl\">RA</span> BKN008 \n  TEMPO 0706/0709 04015G25KT \n  PROB40 \n  TEMPO 0706/0709 3000 RADZ -RASN BKN004 \n  BECMG 0709/0712 30005KT \n  PROB30 \n  TEMPO 0712/0724 2000 RASN BKN004 \n  PROB30 \n  TEMPO 0800/0806 4000 <span class=\"hl\">BR</span> BKN004"
    },
    {
      "icao": "LIBD",
      "iata": "BRI",
      "name": "Bari Karol Wojtyła International Airport",
      "updatedAt": "070850Z",
      "visibility_m": 4000,
      "taf_visibility_m": 4000,
      "worst_visibility_m": 4000,
      "ceiling_ft": 1500,
      "hazards": [
        "BR",
        "RA"
      ],
      "severityScore": 34,
      "metarRaw": "METAR LIBD 070850Z 27005KT 4000 RA BR OVC015 07/06 Q1007",
      "tafRaw": "TAF LIBD 070500Z 0706/0806 28012KT 9999 BKN010 \n  BECMG 0708/0710 4000 RA \n  BECMG 0800/0802 28015G25KT CAVOK",
      "metarHtml": "METAR LIBD 070850Z 27005KT 4000 <span class=\"hl\">RA</span> <span class=\"hl\">BR</span> OVC015 07/06 Q1007",
      "tafHtml": "TAF LIBD 070500Z 0706/0806 28012KT 9999 BKN010 \n  BECMG 0708/0710 4000 <span class=\"hl\">RA</span> \n  BECMG 0800/0802 28015G25KT <span class=\"hl-vis\">CAVOK</span>"
    },
    {
      "icao": "EGPF",
      "iata": "GLA",
      "name": "Glasgow Airport",
      "updatedAt": "070850Z",
      "visibility_m": 10000,
      "taf_visibility_m": 1400,
      "worst_visibility_m": 1400,
      "ceiling_ft": null,
      "hazards": [
        "BR",
        "RA"
      ],
      "severityScore": 32,
      "metarRaw": "METAR EGPF 070850Z AUTO 30008KT 260V320 9999 NCD 04/M00 Q1002",
      "tafRaw": "TAF EGPF 070454Z 0706/0806 29010KT 9999 SCT025 \n  PROB30 \n  TEMPO 0706/0709 BKN014 \n  PROB30 \n  TEMPO 0706/0708 30015G25KT \n  BECMG 0715/0718 VRB04KT \n  PROB30 \n  TEMPO 0720/0724 4000 BR \n  TEMPO 0800/0806 BKN012 \n  PROB30 \n  TEMPO 0800/0806 1400 RA RASN BKN003",
      "metarHtml": "METAR EGPF 070850Z AUTO 30008KT 260V320 9999 NCD 04/M00 Q1002",
      "tafHtml": "TAF EGPF 070454Z 0706/0806 29010KT 9999 SCT025 \n  PROB30 \n  TEMPO 0706/0709 BKN014 \n  PROB30 \n  TEMPO 0706/0708 30015G25KT \n  BECMG 0715/0718 VRB04KT \n  PROB30 \n  TEMPO 0720/0724 4000 <span class=\"hl\">BR</span> \n  TEMPO 0800/0806 BKN012 \n  PROB30 \n  TEMPO 0800/0806 1400 <span class=\"hl\">RA</span> RASN BKN003"
    },
    {
      "icao": "EDDN",
      "iata": "NUE",
      "name": "Nuremberg Airport",
      "updatedAt": "070850Z",
      "visibility_m": 10000,
      "taf_visibility_m": null,
      "worst_visibility_m": 10000,
      "ceiling_ft": 900,
      "hazards": [],
      "severityScore": 30,
      "metarRaw": "METAR EDDN 070850Z AUTO VRB02KT 9999 OVC009 M05/M07 Q1016 BECMG SCT012 BKN030",
      "tafRaw": null,
      "metarHtml": "METAR EDDN 070850Z AUTO VRB02KT 9999 OVC009 M05/M07 Q1016 BECMG SCT012 BKN030",
      "tafHtml": null
    },
    {
      "icao": "LRCL",
      "iata": "CLJ",
      "name": "Cluj Avram Iancu International Airport",
      "updatedAt": "070900Z",
      "visibility_m": 10000,
      "taf_visibility_m": 3000,
      "worst_visibility_m": 3000,
      "ceiling_ft": 1000,
      "hazards": [
        "SN"
      ],
      "severityScore": 30,
      "metarRaw": "METAR LRCL 070900Z VRB01KT 9999 BKN010 OVC030 01/00 Q1009",
      "tafRaw": "TAF LRCL 070800Z 0709/0718 VRB04KT 9999 BKN015 BKN045 \n  TEMPO 0709/0712 3000 -SNRA BKN010 OVC035 \n  BECMG 0715/0717 3000 -SN BKN002 OVC020",
      "metarHtml": "METAR LRCL 070900Z VRB01KT 9999 BKN010 OVC030 01/00 Q1009",
      "tafHtml": "TAF LRCL 070800Z 0709/0718 VRB04KT 9999 BKN015 BKN045 \n  TEMPO 0709/0712 3000 -SNRA BKN010 OVC035 \n  BECMG 0715/0717 3000 -<span class=\"hl\">SN</span> BKN002 OVC020"
    },
    {
      "icao": "LWSK",
      "iata": "SKP",
      "name": "Skopje International Airport",
      "updatedAt": "070850Z",
      "visibility_m": 5000,
      "taf_visibility_m": 3000,
      "worst_visibility_m": 3000,
      "ceiling_ft": 4000,
      "hazards": [
        "RA",
        "SN"
      ],
      "severityScore": 30,
      "metarRaw": "METAR LWSK 070850Z VRB02KT 5000 -RA SCT023 BKN040 OVC070 08/08 Q1009 NOSIG",
      "tafRaw": "TAF LWSK 070830Z 0709/0809 VRB02KT 5000 RA SCT020 OVC040 \n  BECMG 0710/07121 13014KT \n  BECMG 0803/0805 36012KT 3000 SN BKN010 OVC025",
      "metarHtml": "METAR LWSK 070850Z VRB02KT 5000 -<span class=\"hl\">RA</span> SCT023 BKN040 OVC070 08/08 Q1009 NOSIG",
      "tafHtml": "TAF LWSK 070830Z 0709/0809 VRB02KT 5000 <span class=\"hl\">RA</span> SCT020 OVC040 \n  BECMG 0710/07121 13014KT \n  BECMG 0803/0805 36012KT 3000 <span class=\"hl\">SN</span> BKN010 OVC025"
    },
    {
      "icao": "EDDH",
      "iata": "HAM",
      "name": "Hamburg Helmut Schmidt Airport",
      "updatedAt": "070850Z",
      "visibility_m": 10000,
      "taf_visibility_m": 1000,
      "worst_visibility_m": 1000,
      "ceiling_ft": null,
      "hazards": [
        "SN"
      ],
      "severityScore": 28,
      "metarRaw": "METAR EDDH 070850Z AUTO 16014KT 9999 FEW015 M03/M06 Q1010 NOSIG",
      "tafRaw": "TAF EDDH 070500Z 0706/0812 18011KT CAVOK \n  TEMPO 0719/0806 1000 -SN BKN005 \n  BECMG 0720/0723 BKN012 \n  BECMG 0722/0801 15006KT \n  PROB30 \n  TEMPO 0723/0806 BKN015 \n  TEMPO 0806/0812 1000 -SN BKN003 \n  BECMG 0806/0809 BKN006",
      "metarHtml": "METAR EDDH 070850Z AUTO 16014KT 9999 FEW015 M03/M06 Q1010 NOSIG",
      "tafHtml": "TAF EDDH 070500Z 0706/0812 18011KT <span class=\"hl-vis\">CAVOK</span> \n  TEMPO 0719/0806 1000 -<span class=\"hl\">SN</span> BKN005 \n  BECMG 0720/0723 BKN012 \n  BECMG 0722/0801 15006KT \n  PROB30 \n  TEMPO 0723/0806 BKN015 \n  TEMPO 0806/0812 1000 -<span class=\"hl\">SN</span> BKN003 \n  BECMG 0806/0809 BKN006"
    },
    {
      "icao": "EDDK",
      "iata": "CGN",
      "name": "Cologne Bonn Airport",
      "updatedAt": "070850Z",
      "visibility_m": 10000,
      "taf_visibility_m": 1200,
      "worst_visibility_m": 1200,
      "ceiling_ft": null,
      "hazards": [
        "SN"
      ],
      "severityScore": 28,
      "metarRaw": "METAR EDDK 070850Z AUTO 14009KT CAVOK M02/M05 Q1011 NOSIG",
      "tafRaw": "TAF EDDK 070500Z 0706/0812 14007KT 9999 BKN020 \n  BECMG 0707/0710 15012KT \n  TEMPO 0712/0716 1200 SN BKN010 \n  TEMPO 0716/0803 3000 -SN BKN013 \n  BECMG 0719/0722 17007KT \n  PROB30 \n  TEMPO 0721/0801 1200 SN BKN008",
      "metarHtml": "METAR EDDK 070850Z AUTO 14009KT <span class=\"hl-vis\">CAVOK</span> M02/M05 Q1011 NOSIG",
      "tafHtml": "TAF EDDK 070500Z 0706/0812 14007KT 9999 BKN020 \n  BECMG 0707/0710 15012KT \n  TEMPO 0712/0716 1200 <span class=\"hl\">SN</span> BKN010 \n  TEMPO 0716/0803 3000 -<span class=\"hl\">SN</span> BKN013 \n  BECMG 0719/0722 17007KT \n  PROB30 \n  TEMPO 0721/0801 1200 <span class=\"hl\">SN</span> BKN008"
    },
    {
      "icao": "EDFH",
      "iata": "HHN",
      "name": "Frankfurt-Hahn Airport",
      "updatedAt": "070850Z",
      "visibility_m": 10000,
      "taf_visibility_m": 1200,
      "worst_visibility_m": 1200,
      "ceiling_ft": null,
      "hazards": [
        "SN"
      ],
      "severityScore": 28,
      "metarRaw": "METAR EDFH 070850Z 17009KT 9999 FEW027 M05/M07 Q1011",
      "tafRaw": "TAF EDFH 070500Z 0706/0806 21011KT 8000 BKN010 \n  TEMPO 0706/0709 BKN008 \n  BECMG 0709/0712 SCT010 \n  PROB30 \n  TEMPO 0710/0713 20015G25KT \n  TEMPO 0714/0721 3000 -SN BKN010 \n  PROB40 \n  TEMPO 0715/0718 1200 SN BKN008 \n  BECMG 0718/0721 BKN005 \n  PROB30 \n  TEMPO 0721/0806 2000 -SN BKN001",
      "metarHtml": "METAR EDFH 070850Z 17009KT 9999 FEW027 M05/M07 Q1011",
      "tafHtml": "TAF EDFH 070500Z 0706/0806 21011KT 8000 BKN010 \n  TEMPO 0706/0709 BKN008 \n  BECMG 0709/0712 SCT010 \n  PROB30 \n  TEMPO 0710/0713 20015G25KT \n  TEMPO 0714/0721 3000 -<span class=\"hl\">SN</span> BKN010 \n  PROB40 \n  TEMPO 0715/0718 1200 <span class=\"hl\">SN</span> BKN008 \n  BECMG 0718/0721 BKN005 \n  PROB30 \n  TEMPO 0721/0806 2000 -<span class=\"hl\">SN</span> BKN001"
    },
    {
      "icao": "EDLW",
      "iata": "DTM",
      "name": "Dortmund Airport",
      "updatedAt": "070850Z",
      "visibility_m": 10000,
      "taf_visibility_m": 1200,
      "worst_visibility_m": 1200,
      "ceiling_ft": null,
      "hazards": [
        "SN"
      ],
      "severityScore": 28,
      "metarRaw": "METAR EDLW 070850Z 16017KT CAVOK M02/M06 Q1009",
      "tafRaw": "TAF EDLW 070500Z 0706/0806 18015G25KT 9999 BKN020 \n  TEMPO 0713/0717 1200 SN BKN008 \n  BECMG 0715/0717 18013KT \n  TEMPO 0717/0803 4500 -SN BKN010 \n  PROB30 \n  TEMPO 0721/0803 1500 -SN BKN008 \n  PROB40 \n  TEMPO 0803/0806 BKN010",
      "metarHtml": "METAR EDLW 070850Z 16017KT <span class=\"hl-vis\">CAVOK</span> M02/M06 Q1009",
      "tafHtml": "TAF EDLW 070500Z 0706/0806 18015G25KT 9999 BKN020 \n  TEMPO 0713/0717 1200 <span class=\"hl\">SN</span> BKN008 \n  BECMG 0715/0717 18013KT \n  TEMPO 0717/0803 4500 -<span class=\"hl\">SN</span> BKN010 \n  PROB30 \n  TEMPO 0721/0803 1500 -<span class=\"hl\">SN</span> BKN008 \n  PROB40 \n  TEMPO 0803/0806 BKN010"
    },
    {
      "icao": "EKBI",
      "iata": "BLL",
      "name": "Billund Airport",
      "updatedAt": "070850Z",
      "visibility_m": 2100,
      "taf_visibility_m": 1200,
      "worst_visibility_m": 1200,
      "ceiling_ft": null,
      "hazards": [
        "SN"
      ],
      "severityScore": 28,
      "metarRaw": "METAR EKBI 070850Z AUTO 14010KT 2100 -SN BKN008/// OVC023/// M02/M02 Q1006",
      "tafRaw": "TAF EKBI 070827Z 0709/0809 17010KT 9999 BKN008 \n  TEMPO 0709/0710 4000 -SN BKN012 \n  BECMG 0710/0712 1200 SN \n  TEMPO 0712/0802 17015G25KT 7000 DRSN BKN012 \n  BECMG 0802/0804 17015G25KT 9999 NSW BKN012 \n  TEMPO 0804/0809 17010KT BKN018",
      "metarHtml": "METAR EKBI 070850Z AUTO 14010KT 2100 -<span class=\"hl\">SN</span> BKN008/// OVC023/// M02/M02 Q1006",
      "tafHtml": "TAF EKBI 070827Z 0709/0809 17010KT 9999 BKN008 \n  TEMPO 0709/0710 4000 -<span class=\"hl\">SN</span> BKN012 \n  BECMG 0710/0712 1200 <span class=\"hl\">SN</span> \n  TEMPO 0712/0802 17015G25KT 7000 DRSN BKN012 \n  BECMG 0802/0804 17015G25KT 9999 NSW BKN012 \n  TEMPO 0804/0809 17010KT BKN018"
    },
    {
      "icao": "EPWR",
      "iata": "WRO",
      "name": "Copernicus Wrocław Airport",
      "updatedAt": "070900Z",
      "visibility_m": 10000,
      "taf_visibility_m": 4500,
      "worst_visibility_m": 4500,
      "ceiling_ft": 2800,
      "hazards": [
        "SN",
        "BR"
      ],
      "severityScore": 28,
      "metarRaw": "METAR EPWR 070900Z 09001KT 9999 -SN FEW022 BKN028 M03/M06 Q1017",
      "tafRaw": "TAF EPWR 070830Z 0709/0809 VRB02KT 9999 BKN030 \n  TEMPO 0709/0806 4500 -SN BR BKN012",
      "metarHtml": "METAR EPWR 070900Z 09001KT 9999 -<span class=\"hl\">SN</span> FEW022 BKN028 M03/M06 Q1017",
      "tafHtml": "TAF EPWR 070830Z 0709/0809 VRB02KT 9999 BKN030 \n  TEMPO 0709/0806 4500 -<span class=\"hl\">SN</span> <span class=\"hl\">BR</span> BKN012"
    },
    {
      "icao": "LFSB",
      "iata": "BSL",
      "name": "EuroAirport Basel–Mulhouse–Freiburg",
      "updatedAt": "070900Z",
      "visibility_m": 10000,
      "taf_visibility_m": 3000,
      "worst_visibility_m": 3000,
      "ceiling_ft": null,
      "hazards": [
        "BR",
        "SN"
      ],
      "severityScore": 28,
      "metarRaw": "METAR LFSB 070900Z AUTO 16005KT CAVOK M05/M08 Q1016 NOSIG",
      "tafRaw": "TAF LFSB 070530Z 0706/0806 18004KT 9000 FEW009 BKN020 \n  PROB40 \n  TEMPO 0706/0709 4500 BR BKN009 \n  TEMPO 0718/0801 24010KT -SN FEW008 OVC014 \n  PROB30 \n  TEMPO 0718/0722 3000 -SN BKN008",
      "metarHtml": "METAR LFSB 070900Z AUTO 16005KT <span class=\"hl-vis\">CAVOK</span> M05/M08 Q1016 NOSIG",
      "tafHtml": "TAF LFSB 070530Z 0706/0806 18004KT 9000 FEW009 BKN020 \n  PROB40 \n  TEMPO 0706/0709 4500 <span class=\"hl\">BR</span> BKN009 \n  TEMPO 0718/0801 24010KT -<span class=\"hl\">SN</span> FEW008 OVC014 \n  PROB30 \n  TEMPO 0718/0722 3000 -<span class=\"hl\">SN</span> BKN008"
    },
    {
      "icao": "LKMT",
      "iata": "OSR",
      "name": "Ostrava Leos Janáček Airport",
      "updatedAt": "070900Z",
      "visibility_m": 4500,
      "taf_visibility_m": 7000,
      "worst_visibility_m": 4500,
      "ceiling_ft": 3000,
      "hazards": [
        "BR",
        "SN"
      ],
      "severityScore": 28,
      "metarRaw": "METAR LKMT 070900Z 02005KT 4500 -SN BR BKN030 M05/M06 Q1016 TEMPO 7000 NSW",
      "tafRaw": "TAF LKMT 070500Z 0706/0806 03008KT 9999 BKN025 \n  PROB30 \n  TEMPO 0706/0710 BKN018 \n  BECMG 0801/0803 7000 -SN BKN010",
      "metarHtml": "METAR LKMT 070900Z 02005KT 4500 -<span class=\"hl\">SN</span> <span class=\"hl\">BR</span> BKN030 M05/M06 Q1016 TEMPO 7000 NSW",
      "tafHtml": "TAF LKMT 070500Z 0706/0806 03008KT 9999 BKN025 \n  PROB30 \n  TEMPO 0706/0710 BKN018 \n  BECMG 0801/0803 7000 -<span class=\"hl\">SN</span> BKN010"
    },
    {
      "icao": "LQBK",
      "iata": "BNX",
      "name": "Banja Luka International Airport",
      "updatedAt": "070900Z",
      "visibility_m": 3500,
      "taf_visibility_m": 3000,
      "worst_visibility_m": 3000,
      "ceiling_ft": 3200,
      "hazards": [
        "BR",
        "SN"
      ],
      "severityScore": 28,
      "metarRaw": "METAR LQBK 070900Z 28003KT 3500 SN BR SCT025 OVC032 M03/M04 Q1014 TEMPO 6000 -SN",
      "tafRaw": "TAF LQBK 070500Z 0706/0806 35006KT 8000 -SN SCT010 OVC020 TXM01/0713Z TNM07/0805Z \n  TEMPO 0706/0715 3000 SN BR BKN007 OVC015 \n  TEMPO 0722/0806 29010KT",
      "metarHtml": "METAR LQBK 070900Z 28003KT 3500 <span class=\"hl\">SN</span> <span class=\"hl\">BR</span> SCT025 OVC032 M03/M04 Q1014 TEMPO 6000 -<span class=\"hl\">SN</span>",
      "tafHtml": "TAF LQBK 070500Z 0706/0806 35006KT 8000 -<span class=\"hl\">SN</span> SCT010 OVC020 TXM01/0713Z TNM07/0805Z \n  TEMPO 0706/0715 3000 <span class=\"hl\">SN</span> <span class=\"hl\">BR</span> BKN007 OVC015 \n  TEMPO 0722/0806 29010KT"
    },
    {
      "icao": "LQTZ",
      "iata": "TZL",
      "name": "Tuzla International Airport",
      "updatedAt": "070900Z",
      "visibility_m": 10000,
      "taf_visibility_m": 2000,
      "worst_visibility_m": 2000,
      "ceiling_ft": 4000,
      "hazards": [
        "BR",
        "SN"
      ],
      "severityScore": 28,
      "metarRaw": "METAR LQTZ 070900Z 29003KT 9999 FEW007 SCT015 OVC040 M03/M04 Q1013",
      "tafRaw": "TAF LQTZ 070500Z 0706/0806 35005KT 6000 -SN SCT010 BKN015 OVC025 TXM01/0713Z TNM06/0805Z \n  PROB40 \n  TEMPO 0706/0709 4000 -SN BR BKN005 OVC015 \n  TEMPO 0713/0723 2000 SN BR BKN004 OVC015 \n  TEMPO 0723/0806 29010KT",
      "metarHtml": "METAR LQTZ 070900Z 29003KT 9999 FEW007 SCT015 OVC040 M03/M04 Q1013",
      "tafHtml": "TAF LQTZ 070500Z 0706/0806 35005KT 6000 -<span class=\"hl\">SN</span> SCT010 BKN015 OVC025 TXM01/0713Z TNM06/0805Z \n  PROB40 \n  TEMPO 0706/0709 4000 -<span class=\"hl\">SN</span> <span class=\"hl\">BR</span> BKN005 OVC015 \n  TEMPO 0713/0723 2000 <span class=\"hl\">SN</span> <span class=\"hl\">BR</span> BKN004 OVC015 \n  TEMPO 0723/0806 29010KT"
    },
    {
      "icao": "EGBB",
      "iata": "BHX",
      "name": "Birmingham Airport",
      "updatedAt": "070850Z",
      "visibility_m": 10000,
      "taf_visibility_m": 3000,
      "worst_visibility_m": 3000,
      "ceiling_ft": null,
      "hazards": [
        "RA",
        "SHRA"
      ],
      "severityScore": 26,
      "metarRaw": "METAR EGBB 070850Z 28011KT 9999 FEW030 SCT044 04/M01 Q1004",
      "tafRaw": "TAF EGBB 070459Z 0706/0806 28010KT 9999 SCT040 \n  TEMPO 0706/0710 8000 -SHRA \n  PROB30 \n  TEMPO 0706/0715 30015G25KT \n  PROB30 \n  TEMPO 0706/0708 4000 SHRASN BKN008 \n  BECMG 0718/0721 22005KT \n  TEMPO 0721/0724 7000 -RA -RASN \n  TEMPO 0800/0805 8000 -RA BKN010 \n  PROB40 \n  TEMPO 0800/0805 3000 RADZ BKN006",
      "metarHtml": "METAR EGBB 070850Z 28011KT 9999 FEW030 SCT044 04/M01 Q1004",
      "tafHtml": "TAF EGBB 070459Z 0706/0806 28010KT 9999 SCT040 \n  TEMPO 0706/0710 8000 -<span class=\"hl\">SHRA</span> \n  PROB30 \n  TEMPO 0706/0715 30015G25KT \n  PROB30 \n  TEMPO 0706/0708 4000 SHRASN BKN008 \n  BECMG 0718/0721 22005KT \n  TEMPO 0721/0724 7000 -<span class=\"hl\">RA</span> -RASN \n  TEMPO 0800/0805 8000 -<span class=\"hl\">RA</span> BKN010 \n  PROB40 \n  TEMPO 0800/0805 3000 RADZ BKN006"
    },
    {
      "icao": "EGGP",
      "iata": "LPL",
      "name": "Liverpool John Lennon Airport",
      "updatedAt": "070850Z",
      "visibility_m": 10000,
      "taf_visibility_m": 2500,
      "worst_visibility_m": 2500,
      "ceiling_ft": null,
      "hazards": [
        "RA",
        "SHRA"
      ],
      "severityScore": 26,
      "metarRaw": "METAR EGGP 070850Z 29021KT 9999 VCSH SCT040 04/01 Q1003",
      "tafRaw": "TAF EGGP 070503Z 0706/0806 29015KT 9999 FEW015 SCT025 \n  TEMPO 0706/0715 30020G32KT \n  TEMPO 0706/0709 2500 +SHRA BKN012 \n  BECMG 0718/0721 23007KT \n  TEMPO 0722/0806 6000 RA -RADZ BKN012 \n  PROB30 \n  TEMPO 0801/0806 3000 RADZ BKN004",
      "metarHtml": "METAR EGGP 070850Z 29021KT 9999 VCSH SCT040 04/01 Q1003",
      "tafHtml": "TAF EGGP 070503Z 0706/0806 29015KT 9999 FEW015 SCT025 \n  TEMPO 0706/0715 30020G32KT \n  TEMPO 0706/0709 2500 +<span class=\"hl\">SHRA</span> BKN012 \n  BECMG 0718/0721 23007KT \n  TEMPO 0722/0806 6000 <span class=\"hl\">RA</span> -RADZ BKN012 \n  PROB30 \n  TEMPO 0801/0806 3000 RADZ BKN004"
    },
    {
      "icao": "LICA",
      "iata": "SUF",
      "name": "Lamezia Terme Sant'Eufemia International Airport",
      "updatedAt": "070850Z",
      "visibility_m": 8000,
      "taf_visibility_m": 4000,
      "worst_visibility_m": 4000,
      "ceiling_ft": null,
      "hazards": [
        "RA",
        "SHRA"
      ],
      "severityScore": 26,
      "metarRaw": "METAR LICA 070850Z AUTO 29008KT 8000 RA FEW007/// SCT011/// OVC028/// 13/13 Q1007",
      "tafRaw": "TAF LICA 070500Z 0706/0806 27013KT 9999 SCT050 \n  TEMPO 0707/0719 4000 SHRA \n  TEMPO 0712/0718 27015G25KT \n  TEMPO 0718/0806 27025G35KT \n  TEMPO 0719/0806 RA",
      "metarHtml": "METAR LICA 070850Z AUTO 29008KT 8000 <span class=\"hl\">RA</span> FEW007/// SCT011/// OVC028/// 13/13 Q1007",
      "tafHtml": "TAF LICA 070500Z 0706/0806 27013KT 9999 SCT050 \n  TEMPO 0707/0719 4000 <span class=\"hl\">SHRA</span> \n  TEMPO 0712/0718 27015G25KT \n  TEMPO 0718/0806 27025G35KT \n  TEMPO 0719/0806 <span class=\"hl\">RA</span>"
    },
    {
      "icao": "LMML",
      "iata": "MLA",
      "name": "Malta International Airport",
      "updatedAt": "070845Z",
      "visibility_m": 10000,
      "taf_visibility_m": 8000,
      "worst_visibility_m": 8000,
      "ceiling_ft": null,
      "hazards": [
        "RA",
        "SHRA"
      ],
      "severityScore": 26,
      "metarRaw": "METAR LMML 070845Z 23010KT 9999 -RA FEW014 15/13 Q1009 NOSIG",
      "tafRaw": "TAF LMML 070500Z 0706/0806 20008KT 9999 FEW015 \n  BECMG 0707/0710 29020KT \n  TEMPO 0712/0806 29022G32KT \n  PROB40 \n  TEMPO 0710/0720 8000 SHRA BKN015TCU",
      "metarHtml": "METAR LMML 070845Z 23010KT 9999 -<span class=\"hl\">RA</span> FEW014 15/13 Q1009 NOSIG",
      "tafHtml": "TAF LMML 070500Z 0706/0806 20008KT 9999 FEW015 \n  BECMG 0707/0710 29020KT \n  TEMPO 0712/0806 29022G32KT \n  PROB40 \n  TEMPO 0710/0720 8000 <span class=\"hl\">SHRA</span> BKN015TCU"
    },
    {
      "icao": "LGTS",
      "iata": "SKG",
      "name": "Thessaloniki Macedonia International Airport",
      "updatedAt": "070850Z",
      "visibility_m": 1500,
      "taf_visibility_m": null,
      "worst_visibility_m": 1500,
      "ceiling_ft": null,
      "hazards": [
        "BR"
      ],
      "severityScore": 25,
      "metarRaw": "METAR LGTS 070850Z 11004KT 1500 R10/0600 R28/1000 BR SCT003 12/12 Q1010 NOSIG",
      "tafRaw": null,
      "metarHtml": "METAR LGTS 070850Z 11004KT 1500 R10/0600 R28/1000 <span class=\"hl\">BR</span> SCT003 12/12 Q1010 NOSIG",
      "tafHtml": null
    },
    {
      "icao": "LIBG",
      "iata": "TAR",
      "name": "Taranto-Grottaglie Marcello Arlotta Airport",
      "updatedAt": "070850Z",
      "visibility_m": 10000,
      "taf_visibility_m": 10000,
      "worst_visibility_m": 10000,
      "ceiling_ft": null,
      "hazards": [
        "TSRA"
      ],
      "severityScore": 25,
      "metarRaw": "METAR LIBG 070850Z 07007KT 9999 SCT030 11/11 Q1005",
      "tafRaw": "TAF LIBG 070800Z 0709/0718 03008KT 9999 SCT015 \n  TEMPO 0709/0718 TSRA BKN012 \n  BECMG 0715/0717 33012KT",
      "metarHtml": "METAR LIBG 070850Z 07007KT 9999 SCT030 11/11 Q1005",
      "tafHtml": "TAF LIBG 070800Z 0709/0718 03008KT 9999 SCT015 \n  TEMPO 0709/0718 <span class=\"hl\">TSRA</span> BKN012 \n  BECMG 0715/0717 33012KT"
    },
    {
      "icao": "EGGW",
      "iata": "LTN",
      "name": "London Luton Airport",
      "updatedAt": "070850Z",
      "visibility_m": 10000,
      "taf_visibility_m": 2000,
      "worst_visibility_m": 2000,
      "ceiling_ft": 3800,
      "hazards": [
        "BR",
        "RA"
      ],
      "severityScore": 22,
      "metarRaw": "METAR EGGW 070850Z AUTO 27016KT 9999 SCT032 BKN038 02/M00 Q1003",
      "tafRaw": "TAF EGGW 070455Z 0706/0806 28012KT 9999 SCT030 \n  PROB30 \n  TEMPO 0706/0711 28016G26KT 4000 -SHRASN BKN008 \n  TEMPO 0711/0718 29016G26KT \n  BECMG 0800/0803 VRB04KT \n  TEMPO 0800/0806 8000 -RA BKN010 \n  PROB40 0803/0806 2000 RADZ BR BKN003",
      "metarHtml": "METAR EGGW 070850Z AUTO 27016KT 9999 SCT032 BKN038 02/M00 Q1003",
      "tafHtml": "TAF EGGW 070455Z 0706/0806 28012KT 9999 SCT030 \n  PROB30 \n  TEMPO 0706/0711 28016G26KT 4000 -SHRASN BKN008 \n  TEMPO 0711/0718 29016G26KT \n  BECMG 0800/0803 VRB04KT \n  TEMPO 0800/0806 8000 -<span class=\"hl\">RA</span> BKN010 \n  PROB40 0803/0806 2000 RADZ <span class=\"hl\">BR</span> BKN003"
    },
    {
      "icao": "EDDS",
      "iata": "STR",
      "name": "Stuttgart Airport",
      "updatedAt": "070850Z",
      "visibility_m": 10000,
      "taf_visibility_m": 4000,
      "worst_visibility_m": 4000,
      "ceiling_ft": null,
      "hazards": [
        "SN"
      ],
      "severityScore": 18,
      "metarRaw": "METAR EDDS 070850Z AUTO VRB01KT CAVOK M08/M09 Q1015 NOSIG",
      "tafRaw": "TAF EDDS 070500Z 0706/0806 VRB03KT 9999 SCT030 \n  TEMPO 0720/0806 4000 -SN \n  PROB30 \n  TEMPO 0720/0806 BKN014 \n  BECMG 0800/0803 20005KT",
      "metarHtml": "METAR EDDS 070850Z AUTO VRB01KT <span class=\"hl-vis\">CAVOK</span> M08/M09 Q1015 NOSIG",
      "tafHtml": "TAF EDDS 070500Z 0706/0806 VRB03KT 9999 SCT030 \n  TEMPO 0720/0806 4000 -<span class=\"hl\">SN</span> \n  PROB30 \n  TEMPO 0720/0806 BKN014 \n  BECMG 0800/0803 20005KT"
    },
    {
      "icao": "EDNY",
      "iata": "FDH",
      "name": "Friedrichshafen Airport",
      "updatedAt": "070850Z",
      "visibility_m": 10000,
      "taf_visibility_m": 10000,
      "worst_visibility_m": 10000,
      "ceiling_ft": 4600,
      "hazards": [
        "SN"
      ],
      "severityScore": 18,
      "metarRaw": "METAR EDNY 070850Z 00000KT 9999 -SN SCT015 SCT040 OVC046 M05/M07 Q1016",
      "tafRaw": "TAF EDNY 070800Z 0709/0718 04002KT 9999 BKN020 \n  PROB40 \n  TEMPO 0709/0712 BKN011 \n  TEMPO 0709/0714 24005KT",
      "metarHtml": "METAR EDNY 070850Z 00000KT 9999 -<span class=\"hl\">SN</span> SCT015 SCT040 OVC046 M05/M07 Q1016",
      "tafHtml": "TAF EDNY 070800Z 0709/0718 04002KT 9999 BKN020 \n  PROB40 \n  TEMPO 0709/0712 BKN011 \n  TEMPO 0709/0714 24005KT"
    },
    {
      "icao": "EGNM",
      "iata": "LBA",
      "name": "Leeds Bradford Airport",
      "updatedAt": "070850Z",
      "visibility_m": 10000,
      "taf_visibility_m": 3000,
      "worst_visibility_m": 3000,
      "ceiling_ft": null,
      "hazards": [
        "SN"
      ],
      "severityScore": 18,
      "metarRaw": "METAR EGNM 070850Z 28011KT 250V320 9999 FEW035 02/00 Q0999",
      "tafRaw": "TAF EGNM 070502Z 0706/0806 28010KT 9999 FEW015 SCT025 \n  TEMPO 0706/0716 29016G26KT \n  BECMG 0800/0803 21005KT \n  TEMPO 0802/0806 3000 RASN -SN BKN007",
      "metarHtml": "METAR EGNM 070850Z 28011KT 250V320 9999 FEW035 02/00 Q0999",
      "tafHtml": "TAF EGNM 070502Z 0706/0806 28010KT 9999 FEW015 SCT025 \n  TEMPO 0706/0716 29016G26KT \n  BECMG 0800/0803 21005KT \n  TEMPO 0802/0806 3000 RASN -<span class=\"hl\">SN</span> BKN007"
    },
    {
      "icao": "LHDC",
      "iata": "DEB",
      "name": "Debrecen International Airport",
      "updatedAt": "070845Z",
      "visibility_m": 10000,
      "taf_visibility_m": 3500,
      "worst_visibility_m": 3500,
      "ceiling_ft": 2800,
      "hazards": [
        "SN"
      ],
      "severityScore": 18,
      "metarRaw": "METAR LHDC 070845Z AUTO 36007KT 330V030 9999 FEW018 BKN028 BKN051 M02/M05 Q1012 NOSIG",
      "tafRaw": "TAF LHDC 070815Z 0709/0718 02007KT 9999 SCT004 BKN040 \n  TEMPO 0709/0718 3500 -SN BKN004 OVC030 \n  TEMPO 0715/0718 02012KT DRSN",
      "metarHtml": "METAR LHDC 070845Z AUTO 36007KT 330V030 9999 FEW018 BKN028 BKN051 M02/M05 Q1012 NOSIG",
      "tafHtml": "TAF LHDC 070815Z 0709/0718 02007KT 9999 SCT004 BKN040 \n  TEMPO 0709/0718 3500 -<span class=\"hl\">SN</span> BKN004 OVC030 \n  TEMPO 0715/0718 02012KT DRSN"
    },
    {
      "icao": "LIPR",
      "iata": "RMI",
      "name": "Federico Fellini International Airport",
      "updatedAt": "070850Z",
      "visibility_m": 10000,
      "taf_visibility_m": 3000,
      "worst_visibility_m": 3000,
      "ceiling_ft": 3500,
      "hazards": [
        "SN"
      ],
      "severityScore": 18,
      "metarRaw": "METAR LIPR 070850Z 29013KT 9999 -SN BKN035 01/M02 Q1011",
      "tafRaw": "TAF LIPR 070500Z 0706/0806 29012KT 9999 BKN030 \n  TEMPO 0706/0714 3000 -RASN BKN008 \n  BECMG 0800/0802 VRB05KT",
      "metarHtml": "METAR LIPR 070850Z 29013KT 9999 -<span class=\"hl\">SN</span> BKN035 01/M02 Q1011",
      "tafHtml": "TAF LIPR 070500Z 0706/0806 29012KT 9999 BKN030 \n  TEMPO 0706/0714 3000 -RASN BKN008 \n  BECMG 0800/0802 VRB05KT"
    },
    {
      "icao": "LZTT",
      "iata": "TAT",
      "name": "Poprad-Tatry Airport",
      "updatedAt": "070900Z",
      "visibility_m": 10000,
      "taf_visibility_m": 4000,
      "worst_visibility_m": 4000,
      "ceiling_ft": null,
      "hazards": [
        "SN"
      ],
      "severityScore": 18,
      "metarRaw": "METAR LZTT 070900Z 11001KT 9999 -SN FEW016 SCT053 M07/M10 Q1010 NOSIG",
      "tafRaw": "TAF LZTT 070515Z 0706/0806 09007KT 9999 FEW020 BKN060 \n  TEMPO 0706/0709 VRB02KT BKN012 \n  TEMPO 0721/0801 4000 -SN BKN040",
      "metarHtml": "METAR LZTT 070900Z 11001KT 9999 -<span class=\"hl\">SN</span> FEW016 SCT053 M07/M10 Q1010 NOSIG",
      "tafHtml": "TAF LZTT 070515Z 0706/0806 09007KT 9999 FEW020 BKN060 \n  TEMPO 0706/0709 VRB02KT BKN012 \n  TEMPO 0721/0801 4000 -<span class=\"hl\">SN</span> BKN040"
    },
    {
      "icao": "ENTO",
      "iata": "TRF",
      "name": "Sandefjord Airport, Torp",
      "updatedAt": "070850Z",
      "visibility_m": 10000,
      "taf_visibility_m": null,
      "worst_visibility_m": 10000,
      "ceiling_ft": 1400,
      "hazards": [],
      "severityScore": 17,
      "metarRaw": "METAR ENTO 070850Z 36010KT 9999 BKN014 M11/M13 Q1010 TEMPO BKN016",
      "tafRaw": null,
      "metarHtml": "METAR ENTO 070850Z 36010KT 9999 BKN014 M11/M13 Q1010 TEMPO BKN016",
      "tafHtml": null
    },
    {
      "icao": "EPPO",
      "iata": "POZ",
      "name": "Poznań-Ławica Airport",
      "updatedAt": "070900Z",
      "visibility_m": 3800,
      "taf_visibility_m": null,
      "worst_visibility_m": 3800,
      "ceiling_ft": 3300,
      "hazards": [
        "BR"
      ],
      "severityScore": 15,
      "metarRaw": "METAR EPPO 070900Z 11003KT 3800 BR FEW008 OVC033 M05/M06 Q1017",
      "tafRaw": null,
      "metarHtml": "METAR EPPO 070900Z 11003KT 3800 <span class=\"hl\">BR</span> FEW008 OVC033 M05/M06 Q1017",
      "tafHtml": null
    },
    {
      "icao": "LICC",
      "iata": "CTA",
      "name": "Catania-Fontanarossa Airport",
      "updatedAt": "070850Z",
      "visibility_m": 10000,
      "taf_visibility_m": 7000,
      "worst_visibility_m": 7000,
      "ceiling_ft": 8000,
      "hazards": [
        "SHRA"
      ],
      "severityScore": 14,
      "metarRaw": "METAR LICC 070850Z 27006KT 9999 FEW040 BKN080 13/11 Q1007",
      "tafRaw": "TAF LICC 070500Z 0706/0806 26013KT 7000 FEW060 \n  TEMPO 0706/0709 SHRA \n  TEMPO 0712/0718 26018G28KT",
      "metarHtml": "METAR LICC 070850Z 27006KT 9999 FEW040 BKN080 13/11 Q1007",
      "tafHtml": "TAF LICC 070500Z 0706/0806 26013KT 7000 FEW060 \n  TEMPO 0706/0709 <span class=\"hl\">SHRA</span> \n  TEMPO 0712/0718 26018G28KT"
    },
    {
      "icao": "LBSF",
      "iata": "SOF",
      "name": "Sofia Airport",
      "updatedAt": "070900Z",
      "visibility_m": 10000,
      "taf_visibility_m": 5000,
      "worst_visibility_m": 5000,
      "ceiling_ft": 4100,
      "hazards": [
        "RA"
      ],
      "severityScore": 12,
      "metarRaw": "METAR LBSF 070900Z 10007KT 9999 BKN041 BKN080 09/07 Q1008 TEMPO RA",
      "tafRaw": "TAF LBSF 070500Z 0706/0806 10010KT 9999 SCT040 BKN060 \n  TEMPO 0718/0724 5000 RA SCT010 BKN015 \n  BECMG 0800/0802 32012KT \n  TEMPO 0802/0806 5000 RA SCT010 BKN015",
      "metarHtml": "METAR LBSF 070900Z 10007KT 9999 BKN041 BKN080 09/07 Q1008 TEMPO <span class=\"hl\">RA</span>",
      "tafHtml": "TAF LBSF 070500Z 0706/0806 10010KT 9999 SCT040 BKN060 \n  TEMPO 0718/0724 5000 <span class=\"hl\">RA</span> SCT010 BKN015 \n  BECMG 0800/0802 32012KT \n  TEMPO 0802/0806 5000 <span class=\"hl\">RA</span> SCT010 BKN015"
    },
    {
      "icao": "LBWN",
      "iata": "VAR",
      "name": "Varna Airport",
      "updatedAt": "070900Z",
      "visibility_m": 10000,
      "taf_visibility_m": 3000,
      "worst_visibility_m": 3000,
      "ceiling_ft": null,
      "hazards": [
        "RA"
      ],
      "severityScore": 12,
      "metarRaw": "METAR LBWN 070900Z 13005KT 080V160 9999 FEW019 16/11 Q1009 NOSIG",
      "tafRaw": "TAF LBWN 070500Z 0706/0806 13012KT 9999 SCT020 BKN040 \n  TEMPO 0710/0715 21016G26KT \n  PROB30 0711/0714 5000 RA \n  BECMG 0720/0722 19016G26KT \n  TEMPO 0800/0806 3000 RA BKN015 OVC030",
      "metarHtml": "METAR LBWN 070900Z 13005KT 080V160 9999 FEW019 16/11 Q1009 NOSIG",
      "tafHtml": "TAF LBWN 070500Z 0706/0806 13012KT 9999 SCT020 BKN040 \n  TEMPO 0710/0715 21016G26KT \n  PROB30 0711/0714 5000 <span class=\"hl\">RA</span> \n  BECMG 0720/0722 19016G26KT \n  TEMPO 0800/0806 3000 <span class=\"hl\">RA</span> BKN015 OVC030"
    },
    {
      "icao": "LEBB",
      "iata": "BIO",
      "name": "Bilbao Airport",
      "updatedAt": "070900Z",
      "visibility_m": 10000,
      "taf_visibility_m": 3000,
      "worst_visibility_m": 3000,
      "ceiling_ft": 3200,
      "hazards": [
        "RA"
      ],
      "severityScore": 12,
      "metarRaw": "METAR LEBB 070900Z 10005KT 060V160 9999 BKN032 06/00 Q1020 NOSIG",
      "tafRaw": "TAF LEBB 070500Z 0706/0806 15008KT 9999 SCT020 BKN040 TX11/0714Z TN04/0706Z \n  PROB40 \n  TEMPO 0706/0713 21010KT \n  TEMPO 0708/0724 3000 RA \n  TEMPO 0710/0718 29011KT \n  PROB40 \n  TEMPO 0711/0717 29018G30KT BKN010",
      "metarHtml": "METAR LEBB 070900Z 10005KT 060V160 9999 BKN032 06/00 Q1020 NOSIG",
      "tafHtml": "TAF LEBB 070500Z 0706/0806 15008KT 9999 SCT020 BKN040 TX11/0714Z TN04/0706Z \n  PROB40 \n  TEMPO 0706/0713 21010KT \n  TEMPO 0708/0724 3000 <span class=\"hl\">RA</span> \n  TEMPO 0710/0718 29011KT \n  PROB40 \n  TEMPO 0711/0717 29018G30KT BKN010"
    },
    {
      "icao": "LEXJ",
      "iata": "SDR",
      "name": "Seve Ballesteros-Santander Airport",
      "updatedAt": "070900Z",
      "visibility_m": 8000,
      "taf_visibility_m": 3000,
      "worst_visibility_m": 3000,
      "ceiling_ft": 2500,
      "hazards": [
        "RA"
      ],
      "severityScore": 12,
      "metarRaw": "METAR LEXJ 070900Z 23008KT 200V260 8000 -RA FEW018 BKN025 OVC040 06/03 Q1019",
      "tafRaw": "TAF LEXJ 070800Z 0709/0809 24009KT 9999 BKN050 TX12/0713Z TN08/0802Z \n  PROB40 \n  TEMPO 0709/0722 3000 RA BKN010 \n  TEMPO 0709/0718 30015KT \n  PROB40 \n  TEMPO 0709/0717 28018G28KT",
      "metarHtml": "METAR LEXJ 070900Z 23008KT 200V260 8000 -<span class=\"hl\">RA</span> FEW018 BKN025 OVC040 06/03 Q1019",
      "tafHtml": "TAF LEXJ 070800Z 0709/0809 24009KT 9999 BKN050 TX12/0713Z TN08/0802Z \n  PROB40 \n  TEMPO 0709/0722 3000 <span class=\"hl\">RA</span> BKN010 \n  TEMPO 0709/0718 30015KT \n  PROB40 \n  TEMPO 0709/0717 28018G28KT"
    },
    {
      "icao": "LEZL",
      "iata": "SVQ",
      "name": "Sevilla Airport",
      "updatedAt": "070900Z",
      "visibility_m": 10000,
      "taf_visibility_m": 10000,
      "worst_visibility_m": 10000,
      "ceiling_ft": null,
      "hazards": [
        "RA"
      ],
      "severityScore": 12,
      "metarRaw": "METAR LEZL 070900Z VRB02KT CAVOK 04/01 Q1027 NOSIG",
      "tafRaw": "TAF LEZL 070800Z 0709/0809 19004KT 9999 FEW030 TX12/0715Z TN03/0807Z \n  PROB30 \n  TEMPO 0711/0717 RA",
      "metarHtml": "METAR LEZL 070900Z VRB02KT <span class=\"hl-vis\">CAVOK</span> 04/01 Q1027 NOSIG",
      "tafHtml": "TAF LEZL 070800Z 0709/0809 19004KT 9999 FEW030 TX12/0715Z TN03/0807Z \n  PROB30 \n  TEMPO 0711/0717 <span class=\"hl\">RA</span>"
    },
    {
      "icao": "LGAV",
      "iata": "ATH",
      "name": "Athens Eleftherios Venizelos International Airport",
      "updatedAt": "070850Z",
      "visibility_m": 10000,
      "taf_visibility_m": 5000,
      "worst_visibility_m": 5000,
      "ceiling_ft": null,
      "hazards": [
        "RA"
      ],
      "severityScore": 12,
      "metarRaw": "METAR LGAV 070850Z 15007KT 9999 SCT025 18/14 Q1013 NOSIG",
      "tafRaw": "TAF LGAV 070500Z 0706/0806 16010KT 9999 FEW020 SCT030 \n  PROB30 \n  TEMPO 0706/0709 5000 RA FEW018TCU SCT020 BKN030 \n  BECMG 0709/0711 20019KT \n  BECMG 0718/0720 20020G30KT \n  TEMPO 0714/0724 21020G30KT \n  PROB30 \n  TEMPO 0723/0806 5000 RA FEW018TCU SCT020 BKN030",
      "metarHtml": "METAR LGAV 070850Z 15007KT 9999 SCT025 18/14 Q1013 NOSIG",
      "tafHtml": "TAF LGAV 070500Z 0706/0806 16010KT 9999 FEW020 SCT030 \n  PROB30 \n  TEMPO 0706/0709 5000 <span class=\"hl\">RA</span> FEW018TCU SCT020 BKN030 \n  BECMG 0709/0711 20019KT \n  BECMG 0718/0720 20020G30KT \n  TEMPO 0714/0724 21020G30KT \n  PROB30 \n  TEMPO 0723/0806 5000 <span class=\"hl\">RA</span> FEW018TCU SCT020 BKN030"
    },
    {
      "icao": "LIPY",
      "iata": "AOI",
      "name": "Marche Airport",
      "updatedAt": "070850Z",
      "visibility_m": 10000,
      "taf_visibility_m": 10000,
      "worst_visibility_m": 10000,
      "ceiling_ft": null,
      "hazards": [
        "RA"
      ],
      "severityScore": 12,
      "metarRaw": "METAR LIPY 070850Z AUTO 29009KT 9999 OVC039/// 03/M00 Q1010",
      "tafRaw": "TAF LIPY 070500Z 0706/0806 33013KT 9999 BKN020 \n  TEMPO 0706/0718 RA \n  BECMG 0804/0806 VRB05KT",
      "metarHtml": "METAR LIPY 070850Z AUTO 29009KT 9999 OVC039/// 03/M00 Q1010",
      "tafHtml": "TAF LIPY 070500Z 0706/0806 33013KT 9999 BKN020 \n  TEMPO 0706/0718 <span class=\"hl\">RA</span> \n  BECMG 0804/0806 VRB05KT"
    },
    {
      "icao": "LIRN",
      "iata": "NAP",
      "name": "Naples International Airport",
      "updatedAt": "070850Z",
      "visibility_m": 10000,
      "taf_visibility_m": 10000,
      "worst_visibility_m": 10000,
      "ceiling_ft": 5000,
      "hazards": [
        "RA"
      ],
      "severityScore": 12,
      "metarRaw": "METAR LIRN 070850Z VRB02KT 9999 FEW020 BKN050 10/09 Q1006 NOSIG",
      "tafRaw": "TAF LIRN 070500Z 0706/0806 VRB06KT 9999 SCT030 \n  BECMG 0710/0712 26012KT \n  TEMPO 0714/0720 RA",
      "metarHtml": "METAR LIRN 070850Z VRB02KT 9999 FEW020 BKN050 10/09 Q1006 NOSIG",
      "tafHtml": "TAF LIRN 070500Z 0706/0806 VRB06KT 9999 SCT030 \n  BECMG 0710/0712 26012KT \n  TEMPO 0714/0720 <span class=\"hl\">RA</span>"
    },
    {
      "icao": "LPFR",
      "iata": "FAO",
      "name": "Faro Airport",
      "updatedAt": "070900Z",
      "visibility_m": 10000,
      "taf_visibility_m": 6000,
      "worst_visibility_m": 6000,
      "ceiling_ft": null,
      "hazards": [
        "RA"
      ],
      "severityScore": 12,
      "metarRaw": "METAR LPFR 070900Z 36004KT 300V040 9999 SCT030 08/04 Q1026",
      "tafRaw": "TAF LPFR 070500Z 0706/0806 VRB05KT 9999 FEW015 SCT035 \n  TEMPO 0706/0716 6000 -RA SCT012 BKN020 \n  BECMG 0712/0714 25007KT \n  BECMG 0720/0722 VRB02KT \n  BECMG 0801/0803 03005KT SCT015",
      "metarHtml": "METAR LPFR 070900Z 36004KT 300V040 9999 SCT030 08/04 Q1026",
      "tafHtml": "TAF LPFR 070500Z 0706/0806 VRB05KT 9999 FEW015 SCT035 \n  TEMPO 0706/0716 6000 -<span class=\"hl\">RA</span> SCT012 BKN020 \n  BECMG 0712/0714 25007KT \n  BECMG 0720/0722 VRB02KT \n  BECMG 0801/0803 03005KT SCT015"
    },
    {
      "icao": "LRBV",
      "iata": "GHV",
      "name": "Brașov-Ghimbav International Airport",
      "updatedAt": "070900Z",
      "visibility_m": 10000,
      "taf_visibility_m": 5000,
      "worst_visibility_m": 5000,
      "ceiling_ft": null,
      "hazards": [
        "RA"
      ],
      "severityScore": 12,
      "metarRaw": "METAR LRBV 070900Z 30013KT 270V330 9999 -RA FEW019 SCT040 05/03 Q1007",
      "tafRaw": "TAF LRBV 070800Z 0709/0718 VRB04KT 9999 BKN035 \n  BECMG 0711/0713 31010KT 5000 -RASN BKN010 OVC030",
      "metarHtml": "METAR LRBV 070900Z 30013KT 270V330 9999 -<span class=\"hl\">RA</span> FEW019 SCT040 05/03 Q1007",
      "tafHtml": "TAF LRBV 070800Z 0709/0718 VRB04KT 9999 BKN035 \n  BECMG 0711/0713 31010KT 5000 -RASN BKN010 OVC030"
    },
    {
      "icao": "LWOH",
      "iata": "OHD",
      "name": "Ohrid St. Paul the Apostle Airport",
      "updatedAt": "070850Z",
      "visibility_m": 10000,
      "taf_visibility_m": 5000,
      "worst_visibility_m": 5000,
      "ceiling_ft": 4000,
      "hazards": [
        "RA"
      ],
      "severityScore": 12,
      "metarRaw": "METAR LWOH 070850Z 11007KT 070V140 9999 -RA SCT010 OVC040 09/07 Q1009",
      "tafRaw": "TAF LWOH 070830Z 0709/0809 VRB02KT 9999 RA SCT010 OVC040 \n  TEMPO 0712/0718 18015G25KT \n  TEMPO 0718/0806 5000 +RA BKN010 OVC025",
      "metarHtml": "METAR LWOH 070850Z 11007KT 070V140 9999 -<span class=\"hl\">RA</span> SCT010 OVC040 09/07 Q1009",
      "tafHtml": "TAF LWOH 070830Z 0709/0809 VRB02KT 9999 <span class=\"hl\">RA</span> SCT010 OVC040 \n  TEMPO 0712/0718 18015G25KT \n  TEMPO 0718/0806 5000 +<span class=\"hl\">RA</span> BKN010 OVC025"
    },
    {
      "icao": "EFTU",
      "iata": "TKU",
      "name": "Turku Airport",
      "updatedAt": "070850Z",
      "visibility_m": 10000,
      "taf_visibility_m": 3000,
      "worst_visibility_m": 3000,
      "ceiling_ft": 2200,
      "hazards": [
        "SHSN"
      ],
      "severityScore": 10,
      "metarRaw": "METAR EFTU 070850Z AUTO 09008KT 9999 FEW018 BKN022 M06/M08 Q1015",
      "tafRaw": "TAF EFTU 070826Z 0709/0809 09007KT 9999 BKN025 \n  PROB30 0712/0718 3000 -SHSN BKN012",
      "metarHtml": "METAR EFTU 070850Z AUTO 09008KT 9999 FEW018 BKN022 M06/M08 Q1015",
      "tafHtml": "TAF EFTU 070826Z 0709/0809 09007KT 9999 BKN025 \n  PROB30 0712/0718 3000 -<span class=\"hl\">SHSN</span> BKN012"
    },
    {
      "icao": "EPRA",
      "iata": "RDO",
      "name": "Warsaw Radom Airport",
      "updatedAt": "070900Z",
      "visibility_m": 4000,
      "taf_visibility_m": 3000,
      "worst_visibility_m": 3000,
      "ceiling_ft": null,
      "hazards": [
        "BR"
      ],
      "severityScore": 10,
      "metarRaw": "METAR EPRA 070900Z 32004KT 4000 BR FEW005 M08/M10 Q1017",
      "tafRaw": "TAF EPRA 070830Z 0709/0718 34005KT 5000 BR NSC \n  BECMG 0710/0712 BKN006 \n  PROB40 0715/0718 3000 BR BKN003",
      "metarHtml": "METAR EPRA 070900Z 32004KT 4000 <span class=\"hl\">BR</span> FEW005 M08/M10 Q1017",
      "tafHtml": "TAF EPRA 070830Z 0709/0718 34005KT 5000 <span class=\"hl\">BR</span> NSC \n  BECMG 0710/0712 BKN006 \n  PROB40 0715/0718 3000 <span class=\"hl\">BR</span> BKN003"
    },
    {
      "icao": "EPSC",
      "iata": "SZZ",
      "name": "Solidarity Szczecin–Goleniów Airport",
      "updatedAt": "070900Z",
      "visibility_m": 7000,
      "taf_visibility_m": 4000,
      "worst_visibility_m": 4000,
      "ceiling_ft": 3600,
      "hazards": [
        "BR"
      ],
      "severityScore": 10,
      "metarRaw": "METAR EPSC 070900Z 14011KT 7000 BKN036 M05/M06 Q1015",
      "tafRaw": "TAF EPSC 070530Z 0706/0806 15008KT 4000 BR OVC010 \n  BECMG 0707/0710 7000 SCT015",
      "metarHtml": "METAR EPSC 070900Z 14011KT 7000 BKN036 M05/M06 Q1015",
      "tafHtml": "TAF EPSC 070530Z 0706/0806 15008KT 4000 <span class=\"hl\">BR</span> OVC010 \n  BECMG 0707/0710 7000 SCT015"
    },
    {
      "icao": "EPSY",
      "iata": "SZY",
      "name": "Olsztyn-Mazury Airport",
      "updatedAt": "070900Z",
      "visibility_m": 3200,
      "taf_visibility_m": 2000,
      "worst_visibility_m": 2000,
      "ceiling_ft": null,
      "hazards": [
        "BR"
      ],
      "severityScore": 10,
      "metarRaw": "METAR EPSY 070900Z 20003KT 3200 BR NSC M15/M16 Q1017",
      "tafRaw": "TAF EPSY 070830Z 0709/0718 VRB02KT 4000 BR NSC \n  BECMG 0709/0711 7000 \n  PROB40 \n  TEMPO 0710/0714 2000 BR BKN003",
      "metarHtml": "METAR EPSY 070900Z 20003KT 3200 <span class=\"hl\">BR</span> NSC M15/M16 Q1017",
      "tafHtml": "TAF EPSY 070830Z 0709/0718 VRB02KT 4000 <span class=\"hl\">BR</span> NSC \n  BECMG 0709/0711 7000 \n  PROB40 \n  TEMPO 0710/0714 2000 <span class=\"hl\">BR</span> BKN003"
    },
    {
      "icao": "LEMD",
      "iata": "MAD",
      "name": "Adolfo Suárez Madrid–Barajas Airport",
      "updatedAt": "070900Z",
      "visibility_m": 10000,
      "taf_visibility_m": 1500,
      "worst_visibility_m": 1500,
      "ceiling_ft": null,
      "hazards": [],
      "severityScore": 10,
      "metarRaw": "METAR LEMD 070900Z VRB01KT 9999 SCT060 M02/M06 Q1021 NOSIG",
      "tafRaw": "TAF LEMD 070500Z 0706/0812 VRB04KT CAVOK TX08/0715Z TNM00/0800Z \n  BECMG 0722/0724 BKN005 \n  PROB40 \n  TEMPO 0723/0810 1500 BCFG BKN002",
      "metarHtml": "METAR LEMD 070900Z VRB01KT 9999 SCT060 M02/M06 Q1021 NOSIG",
      "tafHtml": "TAF LEMD 070500Z 0706/0812 VRB04KT <span class=\"hl-vis\">CAVOK</span> TX08/0715Z TNM00/0800Z \n  BECMG 0722/0724 BKN005 \n  PROB40 \n  TEMPO 0723/0810 1500 BCFG BKN002"
    },
    {
      "icao": "LIMC",
      "iata": "MXP",
      "name": "Milan Malpensa International Airport",
      "updatedAt": "070850Z",
      "visibility_m": 9000,
      "taf_visibility_m": 1500,
      "worst_visibility_m": 1500,
      "ceiling_ft": null,
      "hazards": [],
      "severityScore": 10,
      "metarRaw": "METAR LIMC 070850Z VRB02KT 9000 NSC M02/M03 Q1012 NOSIG",
      "tafRaw": "TAF LIMC 070500Z 0706/0812 VRB04KT CAVOK \n  PROB30 \n  TEMPO 0706/0707 2000 BCFG \n  TEMPO 0720/0803 1500 BCFG",
      "metarHtml": "METAR LIMC 070850Z VRB02KT 9000 NSC M02/M03 Q1012 NOSIG",
      "tafHtml": "TAF LIMC 070500Z 0706/0812 VRB04KT <span class=\"hl-vis\">CAVOK</span> \n  PROB30 \n  TEMPO 0706/0707 2000 BCFG \n  TEMPO 0720/0803 1500 BCFG"
    },
    {
      "icao": "UDSG",
      "iata": "LWN",
      "name": "Shirak International Airport",
      "updatedAt": "070900Z",
      "visibility_m": 6000,
      "taf_visibility_m": 5000,
      "worst_visibility_m": 5000,
      "ceiling_ft": null,
      "hazards": [
        "BR"
      ],
      "severityScore": 10,
      "metarRaw": "METAR UDSG 070900Z 00000KT 6000 NSC M06/M12 Q1027 NOSIG",
      "tafRaw": "TAF UDSG 070458Z 0706/0806 VRB06KT 9999 FEW040 \n  TEMPO 0706/0709 5000 BR",
      "metarHtml": "METAR UDSG 070900Z 00000KT 6000 NSC M06/M12 Q1027 NOSIG",
      "tafHtml": "TAF UDSG 070458Z 0706/0806 VRB06KT 9999 FEW040 \n  TEMPO 0706/0709 5000 <span class=\"hl\">BR</span>"
    },
    {
      "icao": "BKPR",
      "iata": "PRN",
      "name": "Priština Adem Jashari International Airport",
      "updatedAt": "070900Z",
      "visibility_m": 10000,
      "taf_visibility_m": null,
      "worst_visibility_m": 10000,
      "ceiling_ft": 4500,
      "hazards": [],
      "severityScore": 5,
      "metarRaw": "METAR BKPR 070900Z 16004KT 120V210 9999 BKN045 09/07 Q1007 NOSIG",
      "tafRaw": null,
      "metarHtml": "METAR BKPR 070900Z 16004KT 120V210 9999 BKN045 09/07 Q1007 NOSIG",
      "tafHtml": null
    },
    {
      "icao": "EPGD",
      "iata": "GDN",
      "name": "Gdańsk Lech Wałęsa Airport",
      "updatedAt": "070900Z",
      "visibility_m": 10000,
      "taf_visibility_m": null,
      "worst_visibility_m": 10000,
      "ceiling_ft": null,
      "hazards": [],
      "severityScore": 5,
      "metarRaw": "METAR EPGD 070900Z 22004KT 9999 SCT004 M07/M08 Q1016",
      "tafRaw": null,
      "metarHtml": "METAR EPGD 070900Z 22004KT 9999 SCT004 M07/M08 Q1016",
      "tafHtml": null
    },
    {
      "icao": "EYPA",
      "iata": "PLQ",
      "name": "Palanga International Airport",
      "updatedAt": "070850Z",
      "visibility_m": 6000,
      "taf_visibility_m": null,
      "worst_visibility_m": 6000,
      "ceiling_ft": 3200,
      "hazards": [],
      "severityScore": 5,
      "metarRaw": "METAR EYPA 070850Z 17004KT 6000 OVC032 M06/M08 Q1015",
      "tafRaw": null,
      "metarHtml": "METAR EYPA 070850Z 17004KT 6000 OVC032 M06/M08 Q1015",
      "tafHtml": null
    },
    {
      "icao": "LECH",
      "iata": "CDT",
      "name": "Castellón-Costa Azahar Airport",
      "updatedAt": "070900Z",
      "visibility_m": 10000,
      "taf_visibility_m": null,
      "worst_visibility_m": 10000,
      "ceiling_ft": null,
      "hazards": [],
      "severityScore": 5,
      "metarRaw": "METAR LECH 070900Z AUTO 21004KT 150V240 CAVOK 05/M07 Q1019",
      "tafRaw": null,
      "metarHtml": "METAR LECH 070900Z AUTO 21004KT 150V240 <span class=\"hl-vis\">CAVOK</span> 05/M07 Q1019",
      "tafHtml": null
    },
    {
      "icao": "LHBP",
      "iata": "BUD",
      "name": "Budapest Liszt Ferenc International Airport",
      "updatedAt": "070900Z",
      "visibility_m": 8000,
      "taf_visibility_m": null,
      "worst_visibility_m": 8000,
      "ceiling_ft": 2800,
      "hazards": [],
      "severityScore": 5,
      "metarRaw": "METAR LHBP 070900Z 30005KT 8000 BKN028 OVC050 M03/M04 Q1013 NOSIG",
      "tafRaw": null,
      "metarHtml": "METAR LHBP 070900Z 30005KT 8000 BKN028 OVC050 M03/M04 Q1013 NOSIG",
      "tafHtml": null
    },
    {
      "icao": "LPPT",
      "iata": "LIS",
      "name": "Lisbon Humberto Delgado Airport",
      "updatedAt": "070900Z",
      "visibility_m": 10000,
      "taf_visibility_m": null,
      "worst_visibility_m": 10000,
      "ceiling_ft": null,
      "hazards": [],
      "severityScore": 5,
      "metarRaw": "METAR LPPT 070900Z 33009KT 9999 FEW025 11/10 Q1024",
      "tafRaw": null,
      "metarHtml": "METAR LPPT 070900Z 33009KT 9999 FEW025 11/10 Q1024",
      "tafHtml": null
    },
    {
      "icao": "BIKF",
      "iata": "KEF",
      "name": "Keflavik International Airport",
      "updatedAt": "070900Z",
      "visibility_m": 10000,
      "taf_visibility_m": 10000,
      "worst_visibility_m": 10000,
      "ceiling_ft": 19000,
      "hazards": [],
      "severityScore": 0,
      "metarRaw": "METAR BIKF 070900Z 08019KT 9999 SCT045 BKN190 M02/M07 Q1007",
      "tafRaw": "TAF BIKF 070751Z 0709/0809 08018KT 9999 FEW035 TX01/0809Z TNM03/0720Z",
      "metarHtml": "METAR BIKF 070900Z 08019KT 9999 SCT045 BKN190 M02/M07 Q1007",
      "tafHtml": "TAF BIKF 070751Z 0709/0809 08018KT 9999 FEW035 TX01/0809Z TNM03/0720Z"
    },
    {
      "icao": "GCFV",
      "iata": "FUE",
      "name": "Fuerteventura Airport",
      "updatedAt": "070900Z",
      "visibility_m": 10000,
      "taf_visibility_m": 10000,
      "worst_visibility_m": 10000,
      "ceiling_ft": null,
      "hazards": [],
      "severityScore": 0,
      "metarRaw": "METAR GCFV 070900Z 02023KT 9999 SCT040 17/06 Q1027",
      "tafRaw": "TAF GCFV 070800Z 0709/0809 04024KT 9999 SCT035 TX20/0714Z TN14/0806Z \n  PROB40 \n  TEMPO 0709/0718 04024G34KT \n  BECMG 0802/0804 06012KT",
      "metarHtml": "METAR GCFV 070900Z 02023KT 9999 SCT040 17/06 Q1027",
      "tafHtml": "TAF GCFV 070800Z 0709/0809 04024KT 9999 SCT035 TX20/0714Z TN14/0806Z \n  PROB40 \n  TEMPO 0709/0718 04024G34KT \n  BECMG 0802/0804 06012KT"
    },
    {
      "icao": "GCLP",
      "iata": "LPA",
      "name": "Gran Canaria Airport",
      "updatedAt": "070900Z",
      "visibility_m": 10000,
      "taf_visibility_m": 10000,
      "worst_visibility_m": 10000,
      "ceiling_ft": 3500,
      "hazards": [],
      "severityScore": 0,
      "metarRaw": "METAR GCLP 070900Z 36016KT 9999 BKN035 16/10 Q1027 NOSIG",
      "tafRaw": "TAF GCLP 070800Z 0709/0809 02025KT 9999 SCT040 TX18/0714Z TN14/0806Z \n  TEMPO 0709/0721 02025G35KT \n  BECMG 0723/0801 04015KT",
      "metarHtml": "METAR GCLP 070900Z 36016KT 9999 BKN035 16/10 Q1027 NOSIG",
      "tafHtml": "TAF GCLP 070800Z 0709/0809 02025KT 9999 SCT040 TX18/0714Z TN14/0806Z \n  TEMPO 0709/0721 02025G35KT \n  BECMG 0723/0801 04015KT"
    },
    {
      "icao": "GCTS",
      "iata": "TFS",
      "name": "Tenerife Sur Airport",
      "updatedAt": "070900Z",
      "visibility_m": 10000,
      "taf_visibility_m": 10000,
      "worst_visibility_m": 10000,
      "ceiling_ft": null,
      "hazards": [],
      "severityScore": 0,
      "metarRaw": "METAR GCTS 070900Z 03012KT 9999 FEW050 16/05 Q1027 BECMG 08025KT",
      "tafRaw": "TAF GCTS 070800Z 0709/0809 08025KT 9999 SCT035 TX22/0714Z TN16/0806Z \n  TEMPO 0709/0721 09025G37KT \n  PROB40 \n  TEMPO 0721/0803 08020G30KT \n  TEMPO 0803/0809 05015KT",
      "metarHtml": "METAR GCTS 070900Z 03012KT 9999 FEW050 16/05 Q1027 BECMG 08025KT",
      "tafHtml": "TAF GCTS 070800Z 0709/0809 08025KT 9999 SCT035 TX22/0714Z TN16/0806Z \n  TEMPO 0709/0721 09025G37KT \n  PROB40 \n  TEMPO 0721/0803 08020G30KT \n  TEMPO 0803/0809 05015KT"
    },
    {
      "icao": "GMAD",
      "iata": "AGA",
      "name": "Al Massira Airport",
      "updatedAt": "070900Z",
      "visibility_m": 10000,
      "taf_visibility_m": 6000,
      "worst_visibility_m": 6000,
      "ceiling_ft": null,
      "hazards": [],
      "severityScore": 0,
      "metarRaw": "METAR GMAD 070900Z 04004KT CAVOK 07/07 Q1024 NOSIG",
      "tafRaw": "TAF GMAD 070500Z 0706/0812 22006KT 6000 SCT020",
      "metarHtml": "METAR GMAD 070900Z 04004KT <span class=\"hl-vis\">CAVOK</span> 07/07 Q1024 NOSIG",
      "tafHtml": "TAF GMAD 070500Z 0706/0812 22006KT 6000 SCT020"
    },
    {
      "icao": "GMMN",
      "iata": "CMN",
      "name": "Mohammed V International Airport",
      "updatedAt": "070900Z",
      "visibility_m": 10000,
      "taf_visibility_m": 10000,
      "worst_visibility_m": 10000,
      "ceiling_ft": 4000,
      "hazards": [],
      "severityScore": 0,
      "metarRaw": "METAR GMMN 070900Z 19004KT 9999 BKN040 06/04 Q1029 NOSIG",
      "tafRaw": "TAF GMMN 070500Z 0706/0812 20006KT CAVOK \n  BECMG 0711/0715 24012KT",
      "metarHtml": "METAR GMMN 070900Z 19004KT 9999 BKN040 06/04 Q1029 NOSIG",
      "tafHtml": "TAF GMMN 070500Z 0706/0812 20006KT <span class=\"hl-vis\">CAVOK</span> \n  BECMG 0711/0715 24012KT"
    },
    {
      "icao": "GMMX",
      "iata": "RAK",
      "name": "Menara Airport",
      "updatedAt": "070900Z",
      "visibility_m": 10000,
      "taf_visibility_m": 8000,
      "worst_visibility_m": 8000,
      "ceiling_ft": null,
      "hazards": [],
      "severityScore": 0,
      "metarRaw": "METAR GMMX 070900Z 06003KT 040V100 CAVOK 06/04 Q1028 NOSIG",
      "tafRaw": "TAF GMMX 070500Z 0706/0812 06006KT 8000 NSC",
      "metarHtml": "METAR GMMX 070900Z 06003KT 040V100 <span class=\"hl-vis\">CAVOK</span> 06/04 Q1028 NOSIG",
      "tafHtml": "TAF GMMX 070500Z 0706/0812 06006KT 8000 NSC"
    },
    {
      "icao": "EDDB",
      "iata": "BER",
      "name": "Berlin Brandenburg Airport",
      "updatedAt": "070850Z",
      "visibility_m": 10000,
      "taf_visibility_m": 10000,
      "worst_visibility_m": 10000,
      "ceiling_ft": null,
      "hazards": [],
      "severityScore": 0,
      "metarRaw": "METAR EDDB 070850Z AUTO 15005KT CAVOK M07/M09 Q1016 NOSIG",
      "tafRaw": "TAF EDDB 070500Z 0706/0806 18007KT CAVOK",
      "metarHtml": "METAR EDDB 070850Z AUTO 15005KT <span class=\"hl-vis\">CAVOK</span> M07/M09 Q1016 NOSIG",
      "tafHtml": "TAF EDDB 070500Z 0706/0806 18007KT <span class=\"hl-vis\">CAVOK</span>"
    },
    {
      "icao": "EDJA",
      "iata": "FMM",
      "name": "Memmingen Allgau Airport",
      "updatedAt": "070850Z",
      "visibility_m": 10000,
      "taf_visibility_m": 10000,
      "worst_visibility_m": 10000,
      "ceiling_ft": 3500,
      "hazards": [],
      "severityScore": 0,
      "metarRaw": "METAR EDJA 070850Z 16003KT 9999 BKN035 M08/M10 Q1014",
      "tafRaw": "TAF EDJA 070800Z 0709/0718 21004KT 9999 SCT012 BKN040 \n  PROB30 \n  TEMPO 0710/0713 BKN012",
      "metarHtml": "METAR EDJA 070850Z 16003KT 9999 BKN035 M08/M10 Q1014",
      "tafHtml": "TAF EDJA 070800Z 0709/0718 21004KT 9999 SCT012 BKN040 \n  PROB30 \n  TEMPO 0710/0713 BKN012"
    },
    {
      "icao": "EGKK",
      "iata": "LGW",
      "name": "London Gatwick Airport",
      "updatedAt": "070850Z",
      "visibility_m": 10000,
      "taf_visibility_m": 4000,
      "worst_visibility_m": 4000,
      "ceiling_ft": null,
      "hazards": [],
      "severityScore": 0,
      "metarRaw": "METAR EGKK 070850Z 25008KT CAVOK 02/01 Q1005",
      "tafRaw": "TAF EGKK 070454Z 0706/0812 27009KT 9999 FEW045 \n  PROB30 \n  TEMPO 0709/0716 25015G25KT \n  TEMPO 0723/0806 6000 -RADZ BKN009 \n  PROB30 \n  TEMPO 0803/0806 4000 RADZ BKN004",
      "metarHtml": "METAR EGKK 070850Z 25008KT <span class=\"hl-vis\">CAVOK</span> 02/01 Q1005",
      "tafHtml": "TAF EGKK 070454Z 0706/0812 27009KT 9999 FEW045 \n  PROB30 \n  TEMPO 0709/0716 25015G25KT \n  TEMPO 0723/0806 6000 -RADZ BKN009 \n  PROB30 \n  TEMPO 0803/0806 4000 RADZ BKN004"
    },
    {
      "icao": "EKCH",
      "iata": "CPH",
      "name": "Copenhagen Kastrup Airport",
      "updatedAt": "070850Z",
      "visibility_m": 10000,
      "taf_visibility_m": 10000,
      "worst_visibility_m": 10000,
      "ceiling_ft": null,
      "hazards": [],
      "severityScore": 0,
      "metarRaw": "METAR EKCH 070850Z AUTO 20012KT 9999 OVC017/// 01/M03 Q1011 NOSIG",
      "tafRaw": "TAF EKCH 070827Z 0709/0809 17012KT 9999 BKN018 \n  TEMPO 0712/0803 18018G30KT",
      "metarHtml": "METAR EKCH 070850Z AUTO 20012KT 9999 OVC017/// 01/M03 Q1011 NOSIG",
      "tafHtml": "TAF EKCH 070827Z 0709/0809 17012KT 9999 BKN018 \n  TEMPO 0712/0803 18018G30KT"
    },
    {
      "icao": "ENAL",
      "iata": "AES",
      "name": "Ålesund Airport, Vigra",
      "updatedAt": "070850Z",
      "visibility_m": 10000,
      "taf_visibility_m": 10000,
      "worst_visibility_m": 10000,
      "ceiling_ft": null,
      "hazards": [],
      "severityScore": 0,
      "metarRaw": "METAR ENAL 070850Z 00000KT CAVOK M04/M10 Q1009",
      "tafRaw": "TAF ENAL 070800Z 0709/0718 14009KT CAVOK",
      "metarHtml": "METAR ENAL 070850Z 00000KT <span class=\"hl-vis\">CAVOK</span> M04/M10 Q1009",
      "tafHtml": "TAF ENAL 070800Z 0709/0718 14009KT <span class=\"hl-vis\">CAVOK</span>"
    },
    {
      "icao": "ENBR",
      "iata": "BGO",
      "name": "Bergen Airport, Flesland",
      "updatedAt": "070850Z",
      "visibility_m": 10000,
      "taf_visibility_m": 10000,
      "worst_visibility_m": 10000,
      "ceiling_ft": null,
      "hazards": [],
      "severityScore": 0,
      "metarRaw": "METAR ENBR 070850Z 06003KT CAVOK M09/M14 Q1007 NOSIG RMK WIND 1200FT 36004KT",
      "tafRaw": "TAF ENBR 070500Z 0706/0806 06005KT CAVOK",
      "metarHtml": "METAR ENBR 070850Z 06003KT <span class=\"hl-vis\">CAVOK</span> M09/M14 Q1007 NOSIG RMK WIND 1200FT 36004KT",
      "tafHtml": "TAF ENBR 070500Z 0706/0806 06005KT <span class=\"hl-vis\">CAVOK</span>"
    },
    {
      "icao": "ENHD",
      "iata": "HAU",
      "name": "Haugesund Airport, Karmøy",
      "updatedAt": "070850Z",
      "visibility_m": 10000,
      "taf_visibility_m": 10000,
      "worst_visibility_m": 10000,
      "ceiling_ft": null,
      "hazards": [],
      "severityScore": 0,
      "metarRaw": "METAR ENHD 070850Z 08010KT CAVOK M05/M11 Q1006",
      "tafRaw": "TAF ENHD 070800Z 0709/0718 08009KT CAVOK",
      "metarHtml": "METAR ENHD 070850Z 08010KT <span class=\"hl-vis\">CAVOK</span> M05/M11 Q1006",
      "tafHtml": "TAF ENHD 070800Z 0709/0718 08009KT <span class=\"hl-vis\">CAVOK</span>"
    },
    {
      "icao": "ENTC",
      "iata": "TOS",
      "name": "Tromsø Airport, Langnes",
      "updatedAt": "070850Z",
      "visibility_m": 10000,
      "taf_visibility_m": 10000,
      "worst_visibility_m": 10000,
      "ceiling_ft": null,
      "hazards": [],
      "severityScore": 0,
      "metarRaw": "METAR ENTC 070850Z 05005KT CAVOK M13/M16 Q1024 NOSIG RMK WIND 2600FT 16016KT",
      "tafRaw": "TAF ENTC 070500Z 0706/0806 VRB03KT CAVOK",
      "metarHtml": "METAR ENTC 070850Z 05005KT <span class=\"hl-vis\">CAVOK</span> M13/M16 Q1024 NOSIG RMK WIND 2600FT 16016KT",
      "tafHtml": "TAF ENTC 070500Z 0706/0806 VRB03KT <span class=\"hl-vis\">CAVOK</span>"
    },
    {
      "icao": "ENVA",
      "iata": "TRD",
      "name": "Trondheim Airport, Værnes",
      "updatedAt": "070850Z",
      "visibility_m": 10000,
      "taf_visibility_m": 10000,
      "worst_visibility_m": 10000,
      "ceiling_ft": null,
      "hazards": [],
      "severityScore": 0,
      "metarRaw": "METAR ENVA 070850Z 10004KT 040V130 CAVOK M15/M17 Q1015 NOSIG RMK WIND 670FT 08011KT",
      "tafRaw": "TAF ENVA 070500Z 0706/0806 11008KT CAVOK",
      "metarHtml": "METAR ENVA 070850Z 10004KT 040V130 <span class=\"hl-vis\">CAVOK</span> M15/M17 Q1015 NOSIG RMK WIND 670FT 08011KT",
      "tafHtml": "TAF ENVA 070500Z 0706/0806 11008KT <span class=\"hl-vis\">CAVOK</span>"
    },
    {
      "icao": "ENZV",
      "iata": "SVG",
      "name": "Stavanger Airport, Sola",
      "updatedAt": "070850Z",
      "visibility_m": 10000,
      "taf_visibility_m": 10000,
      "worst_visibility_m": 10000,
      "ceiling_ft": null,
      "hazards": [],
      "severityScore": 0,
      "metarRaw": "METAR ENZV 070850Z 02006KT CAVOK M03/M10 Q1005 NOSIG",
      "tafRaw": "TAF ENZV 070500Z 0706/0806 08006KT CAVOK",
      "metarHtml": "METAR ENZV 070850Z 02006KT <span class=\"hl-vis\">CAVOK</span> M03/M10 Q1005 NOSIG",
      "tafHtml": "TAF ENZV 070500Z 0706/0806 08006KT <span class=\"hl-vis\">CAVOK</span>"
    },
    {
      "icao": "ESMS",
      "iata": "MMX",
      "name": "Malmö Sturup Airport",
      "updatedAt": "070850Z",
      "visibility_m": 8000,
      "taf_visibility_m": 10000,
      "worst_visibility_m": 8000,
      "ceiling_ft": 2300,
      "hazards": [],
      "severityScore": 0,
      "metarRaw": "METAR ESMS 070850Z COR 19010KT 8000 FEW002 SCT018 OVC023 M00/M00 Q1011",
      "tafRaw": "TAF ESMS 070827Z 0709/0809 21008KT 9999 BKN012 \n  BECMG 0709/0711 BKN018 \n  TEMPO 0711/0713 BKN010",
      "metarHtml": "METAR ESMS 070850Z COR 19010KT 8000 FEW002 SCT018 OVC023 M00/M00 Q1011",
      "tafHtml": "TAF ESMS 070827Z 0709/0809 21008KT 9999 BKN012 \n  BECMG 0709/0711 BKN018 \n  TEMPO 0711/0713 BKN010"
    },
    {
      "icao": "HEGN",
      "iata": "HRG",
      "name": "Hurghada International Airport",
      "updatedAt": "070800Z",
      "visibility_m": 10000,
      "taf_visibility_m": 10000,
      "worst_visibility_m": 10000,
      "ceiling_ft": null,
      "hazards": [],
      "severityScore": 0,
      "metarRaw": "METAR HEGN 070800Z 32010KT CAVOK 21/05 Q1022 NOSIG",
      "tafRaw": "TAF HEGN 070500Z 0706/0812 33013KT CAVOK",
      "metarHtml": "METAR HEGN 070800Z 32010KT <span class=\"hl-vis\">CAVOK</span> 21/05 Q1022 NOSIG",
      "tafHtml": "TAF HEGN 070500Z 0706/0812 33013KT <span class=\"hl-vis\">CAVOK</span>"
    },
    {
      "icao": "HEMA",
      "iata": "RMF",
      "name": "Marsa Alam International Airport",
      "updatedAt": "070800Z",
      "visibility_m": 10000,
      "taf_visibility_m": 3000,
      "worst_visibility_m": 3000,
      "ceiling_ft": null,
      "hazards": [],
      "severityScore": 0,
      "metarRaw": "METAR HEMA 070800Z 32015KT CAVOK 24/10 Q1020 NOSIG",
      "tafRaw": "TAF HEMA 070500Z 0706/0812 33015KT 6000 NSC \n  TEMPO 0706/0918 3000 SA",
      "metarHtml": "METAR HEMA 070800Z 32015KT <span class=\"hl-vis\">CAVOK</span> 24/10 Q1020 NOSIG",
      "tafHtml": "TAF HEMA 070500Z 0706/0812 33015KT 6000 NSC \n  TEMPO 0706/0918 3000 SA"
    },
    {
      "icao": "HESH",
      "iata": "SSH",
      "name": "Sharm El Sheikh International Airport",
      "updatedAt": "070800Z",
      "visibility_m": 10000,
      "taf_visibility_m": 10000,
      "worst_visibility_m": 10000,
      "ceiling_ft": null,
      "hazards": [],
      "severityScore": 0,
      "metarRaw": "METAR HESH 070800Z 34009KT CAVOK 24/11 Q1020 NOSIG",
      "tafRaw": "TAF HESH 070500Z 0706/0812 35011KT CAVOK",
      "metarHtml": "METAR HESH 070800Z 34009KT <span class=\"hl-vis\">CAVOK</span> 24/11 Q1020 NOSIG",
      "tafHtml": "TAF HESH 070500Z 0706/0812 35011KT <span class=\"hl-vis\">CAVOK</span>"
    },
    {
      "icao": "HESX",
      "iata": "SPX",
      "name": "Sphinx International Airport",
      "updatedAt": "070800Z",
      "visibility_m": 6000,
      "taf_visibility_m": 3000,
      "worst_visibility_m": 3000,
      "ceiling_ft": null,
      "hazards": [],
      "severityScore": 0,
      "metarRaw": "METAR HESX 070800Z 00000KT 6000 NSC 16/07 Q1022 NOSIG",
      "tafRaw": "TAF HESX 070500Z 0706/0812 14009KT CAVOK \n  PROB40 \n  TEMPO 0706/0710 3000 HZ NSC",
      "metarHtml": "METAR HESX 070800Z 00000KT 6000 NSC 16/07 Q1022 NOSIG",
      "tafHtml": "TAF HESX 070500Z 0706/0812 14009KT <span class=\"hl-vis\">CAVOK</span> \n  PROB40 \n  TEMPO 0706/0710 3000 HZ NSC"
    },
    {
      "icao": "LCLK",
      "iata": "LCA",
      "name": "Larnaca International Airport",
      "updatedAt": "070900Z",
      "visibility_m": 10000,
      "taf_visibility_m": 10000,
      "worst_visibility_m": 10000,
      "ceiling_ft": null,
      "hazards": [],
      "severityScore": 0,
      "metarRaw": "METAR LCLK 070900Z 04008KT CAVOK 20/12 Q1023 NOSIG",
      "tafRaw": "TAF LCLK 070530Z 0706/0806 34006KT 9999 FEW035 \n  BECMG 0708/0711 10010KT \n  BECMG 0715/0718 34006KT",
      "metarHtml": "METAR LCLK 070900Z 04008KT <span class=\"hl-vis\">CAVOK</span> 20/12 Q1023 NOSIG",
      "tafHtml": "TAF LCLK 070530Z 0706/0806 34006KT 9999 FEW035 \n  BECMG 0708/0711 10010KT \n  BECMG 0715/0718 34006KT"
    },
    {
      "icao": "LCPH",
      "iata": "PFO",
      "name": "Paphos International Airport",
      "updatedAt": "070900Z",
      "visibility_m": 10000,
      "taf_visibility_m": 10000,
      "worst_visibility_m": 10000,
      "ceiling_ft": null,
      "hazards": [],
      "severityScore": 0,
      "metarRaw": "METAR LCPH 070900Z 15011KT 9999 FEW040 20/13 Q1023 NOSIG",
      "tafRaw": "TAF LCPH 070530Z 0706/0806 07008KT 9999 FEW030 \n  BECMG 0707/0711 14014KT \n  BECMG 0715/0718 07008KT",
      "metarHtml": "METAR LCPH 070900Z 15011KT 9999 FEW040 20/13 Q1023 NOSIG",
      "tafHtml": "TAF LCPH 070530Z 0706/0806 07008KT 9999 FEW030 \n  BECMG 0707/0711 14014KT \n  BECMG 0715/0718 07008KT"
    },
    {
      "icao": "LEAL",
      "iata": "ALC",
      "name": "Alicante-Elche Miguel Hernández Airport",
      "updatedAt": "070900Z",
      "visibility_m": 10000,
      "taf_visibility_m": 10000,
      "worst_visibility_m": 10000,
      "ceiling_ft": null,
      "hazards": [],
      "severityScore": 0,
      "metarRaw": "METAR LEAL 070900Z 31011KT 270V340 CAVOK 07/M05 Q1022 NOSIG",
      "tafRaw": "TAF LEAL 070500Z 0706/0806 30012KT 9999 FEW030 TX13/0714Z TN03/0706Z \n  PROB40 \n  TEMPO 0712/0715 30015G25KT \n  TEMPO 0718/0721 VRB03KT \n  TEMPO 0721/0806 30015G25KT",
      "metarHtml": "METAR LEAL 070900Z 31011KT 270V340 <span class=\"hl-vis\">CAVOK</span> 07/M05 Q1022 NOSIG",
      "tafHtml": "TAF LEAL 070500Z 0706/0806 30012KT 9999 FEW030 TX13/0714Z TN03/0706Z \n  PROB40 \n  TEMPO 0712/0715 30015G25KT \n  TEMPO 0718/0721 VRB03KT \n  TEMPO 0721/0806 30015G25KT"
    },
    {
      "icao": "LEBL",
      "iata": "BCN",
      "name": "Josep Tarradellas Barcelona-El Prat Airport",
      "updatedAt": "070830Z",
      "visibility_m": 10000,
      "taf_visibility_m": 10000,
      "worst_visibility_m": 10000,
      "ceiling_ft": null,
      "hazards": [],
      "severityScore": 0,
      "metarRaw": "METAR LEBL 070830Z 32015G28KT CAVOK 02/M04 Q1018 NOSIG",
      "tafRaw": "TAF LEBL 070500Z 0706/0806 34013KT CAVOK TX10/0713Z TN00/0706Z \n  PROB30 \n  TEMPO 0706/0710 36017G27KT \n  TEMPO 0713/0722 27007KT \n  PROB30 \n  TEMPO 0718/0801 33020G30KT",
      "metarHtml": "METAR LEBL 070830Z 32015G28KT <span class=\"hl-vis\">CAVOK</span> 02/M04 Q1018 NOSIG",
      "tafHtml": "TAF LEBL 070500Z 0706/0806 34013KT <span class=\"hl-vis\">CAVOK</span> TX10/0713Z TN00/0706Z \n  PROB30 \n  TEMPO 0706/0710 36017G27KT \n  TEMPO 0713/0722 27007KT \n  PROB30 \n  TEMPO 0718/0801 33020G30KT"
    },
    {
      "icao": "LEMG",
      "iata": "AGP",
      "name": "Málaga-Costa del Sol Airport",
      "updatedAt": "070900Z",
      "visibility_m": 10000,
      "taf_visibility_m": 10000,
      "worst_visibility_m": 10000,
      "ceiling_ft": null,
      "hazards": [],
      "severityScore": 0,
      "metarRaw": "METAR LEMG 070900Z 28012KT CAVOK 06/M03 Q1025 NOSIG",
      "tafRaw": "TAF LEMG 070500Z 0706/0806 29012KT 9999 FEW040 TX13/0714Z TN04/0706Z",
      "metarHtml": "METAR LEMG 070900Z 28012KT <span class=\"hl-vis\">CAVOK</span> 06/M03 Q1025 NOSIG",
      "tafHtml": "TAF LEMG 070500Z 0706/0806 29012KT 9999 FEW040 TX13/0714Z TN04/0706Z"
    },
    {
      "icao": "LEVC",
      "iata": "VLC",
      "name": "Valencia Airport",
      "updatedAt": "070900Z",
      "visibility_m": 10000,
      "taf_visibility_m": 10000,
      "worst_visibility_m": 10000,
      "ceiling_ft": null,
      "hazards": [],
      "severityScore": 0,
      "metarRaw": "METAR LEVC 070900Z 25008KT CAVOK 04/M03 Q1021 NOSIG",
      "tafRaw": "TAF LEVC 070500Z 0706/0806 27007KT CAVOK TX13/0714Z TNM01/0706Z \n  PROB30 \n  TEMPO 0712/0715 27015G25KT",
      "metarHtml": "METAR LEVC 070900Z 25008KT <span class=\"hl-vis\">CAVOK</span> 04/M03 Q1021 NOSIG",
      "tafHtml": "TAF LEVC 070500Z 0706/0806 27007KT <span class=\"hl-vis\">CAVOK</span> TX13/0714Z TNM01/0706Z \n  PROB30 \n  TEMPO 0712/0715 27015G25KT"
    },
    {
      "icao": "LEZG",
      "iata": "ZAZ",
      "name": "Zaragoza Airport",
      "updatedAt": "070900Z",
      "visibility_m": 10000,
      "taf_visibility_m": 10000,
      "worst_visibility_m": 10000,
      "ceiling_ft": null,
      "hazards": [],
      "severityScore": 0,
      "metarRaw": "METAR LEZG 070900Z 27014KT CAVOK 04/M04 Q1020 NOSIG",
      "tafRaw": "TAF LEZG 070500Z 0706/0806 25009KT 9999 FEW030 TX09/0715Z TNM01/0706Z \n  TEMPO 0710/0713 24015G25KT \n  BECMG 0711/0713 29008KT \n  BECMG 0720/0722 24012KT \n  TEMPO 0723/0806 24015G25KT",
      "metarHtml": "METAR LEZG 070900Z 27014KT <span class=\"hl-vis\">CAVOK</span> 04/M04 Q1020 NOSIG",
      "tafHtml": "TAF LEZG 070500Z 0706/0806 25009KT 9999 FEW030 TX09/0715Z TNM01/0706Z \n  TEMPO 0710/0713 24015G25KT \n  BECMG 0711/0713 29008KT \n  BECMG 0720/0722 24012KT \n  TEMPO 0723/0806 24015G25KT"
    },
    {
      "icao": "LFMN",
      "iata": "NCE",
      "name": "Nice-Côte d'Azur Airport",
      "updatedAt": "070900Z",
      "visibility_m": 10000,
      "taf_visibility_m": 10000,
      "worst_visibility_m": 10000,
      "ceiling_ft": null,
      "hazards": [],
      "severityScore": 0,
      "metarRaw": "METAR LFMN 070900Z 33007KT 9999 FEW093 05/M04 Q1010 NOSIG",
      "tafRaw": "TAF LFMN 070800Z 0709/0815 34012KT CAVOK \n  BECMG 0709/0712 24013KT \n  BECMG 0717/0719 32012KT \n  BECMG 0811/0813 09010KT",
      "metarHtml": "METAR LFMN 070900Z 33007KT 9999 FEW093 05/M04 Q1010 NOSIG",
      "tafHtml": "TAF LFMN 070800Z 0709/0815 34012KT <span class=\"hl-vis\">CAVOK</span> \n  BECMG 0709/0712 24013KT \n  BECMG 0717/0719 32012KT \n  BECMG 0811/0813 09010KT"
    },
    {
      "icao": "LIBP",
      "iata": "PSR",
      "name": "Abruzzo Airport",
      "updatedAt": "070850Z",
      "visibility_m": 10000,
      "taf_visibility_m": 10000,
      "worst_visibility_m": 10000,
      "ceiling_ft": null,
      "hazards": [],
      "severityScore": 0,
      "metarRaw": "METAR LIBP 070850Z AUTO 23004KT 9999 OVC047/// 05/02 Q1010",
      "tafRaw": "TAF LIBP 070500Z 0706/0806 30009KT 9999 BKN030",
      "metarHtml": "METAR LIBP 070850Z AUTO 23004KT 9999 OVC047/// 05/02 Q1010",
      "tafHtml": "TAF LIBP 070500Z 0706/0806 30009KT 9999 BKN030"
    },
    {
      "icao": "LIME",
      "iata": "BGY",
      "name": "Milan Bergamo Airport / Antonio Locatelli Air Base",
      "updatedAt": "070850Z",
      "visibility_m": 10000,
      "taf_visibility_m": 10000,
      "worst_visibility_m": 10000,
      "ceiling_ft": null,
      "hazards": [],
      "severityScore": 0,
      "metarRaw": "METAR LIME 070850Z VRB02KT CAVOK M01/M06 Q1012 NOSIG",
      "tafRaw": "TAF LIME 070500Z 0706/0806 VRB04KT 9999 FEW025",
      "metarHtml": "METAR LIME 070850Z VRB02KT <span class=\"hl-vis\">CAVOK</span> M01/M06 Q1012 NOSIG",
      "tafHtml": "TAF LIME 070500Z 0706/0806 VRB04KT 9999 FEW025"
    },
    {
      "icao": "LIMF",
      "iata": "TRN",
      "name": "Turin Airport",
      "updatedAt": "070850Z",
      "visibility_m": 10000,
      "taf_visibility_m": 10000,
      "worst_visibility_m": 10000,
      "ceiling_ft": null,
      "hazards": [],
      "severityScore": 0,
      "metarRaw": "METAR LIMF 070850Z 28003KT CAVOK M02/M09 Q1012",
      "tafRaw": "TAF LIMF 070500Z 0706/0806 VRB03KT CAVOK",
      "metarHtml": "METAR LIMF 070850Z 28003KT <span class=\"hl-vis\">CAVOK</span> M02/M09 Q1012",
      "tafHtml": "TAF LIMF 070500Z 0706/0806 VRB03KT <span class=\"hl-vis\">CAVOK</span>"
    },
    {
      "icao": "LIMJ",
      "iata": "GOA",
      "name": "Genoa Cristoforo Colombo Airport",
      "updatedAt": "070850Z",
      "visibility_m": 10000,
      "taf_visibility_m": 10000,
      "worst_visibility_m": 10000,
      "ceiling_ft": null,
      "hazards": [],
      "severityScore": 0,
      "metarRaw": "METAR LIMJ 070850Z 04017KT CAVOK 02/M04 Q1011",
      "tafRaw": "TAF LIMJ 070500Z 0706/0806 04015KT CAVOK \n  BECMG 0716/0718 06005KT",
      "metarHtml": "METAR LIMJ 070850Z 04017KT <span class=\"hl-vis\">CAVOK</span> 02/M04 Q1011",
      "tafHtml": "TAF LIMJ 070500Z 0706/0806 04015KT <span class=\"hl-vis\">CAVOK</span> \n  BECMG 0716/0718 06005KT"
    },
    {
      "icao": "LIPE",
      "iata": "BLQ",
      "name": "Bologna Guglielmo Marconi Airport",
      "updatedAt": "070850Z",
      "visibility_m": 8000,
      "taf_visibility_m": 10000,
      "worst_visibility_m": 8000,
      "ceiling_ft": null,
      "hazards": [],
      "severityScore": 0,
      "metarRaw": "METAR LIPE 070850Z 25005KT 8000 NSC 00/M02 Q1013",
      "tafRaw": "TAF LIPE 070500Z 0706/0806 26007KT 9999 BKN030",
      "metarHtml": "METAR LIPE 070850Z 25005KT 8000 NSC 00/M02 Q1013",
      "tafHtml": "TAF LIPE 070500Z 0706/0806 26007KT 9999 BKN030"
    },
    {
      "icao": "LIPH",
      "iata": "TSF",
      "name": "Treviso Antonio Canova Airport",
      "updatedAt": "070850Z",
      "visibility_m": 10000,
      "taf_visibility_m": 10000,
      "worst_visibility_m": 10000,
      "ceiling_ft": null,
      "hazards": [],
      "severityScore": 0,
      "metarRaw": "METAR LIPH 070850Z VRB01KT CAVOK 00/M04 Q1012",
      "tafRaw": "TAF LIPH 070500Z 0706/0806 VRB05KT CAVOK",
      "metarHtml": "METAR LIPH 070850Z VRB01KT <span class=\"hl-vis\">CAVOK</span> 00/M04 Q1012",
      "tafHtml": "TAF LIPH 070500Z 0706/0806 VRB05KT <span class=\"hl-vis\">CAVOK</span>"
    },
    {
      "icao": "LIPQ",
      "iata": "TRS",
      "name": "Trieste–Friuli Venezia Giulia Airport",
      "updatedAt": "070850Z",
      "visibility_m": 10000,
      "taf_visibility_m": 10000,
      "worst_visibility_m": 10000,
      "ceiling_ft": null,
      "hazards": [],
      "severityScore": 0,
      "metarRaw": "METAR LIPQ 070850Z AUTO 19002KT 9999 OVC088/// 01/M02 Q1012",
      "tafRaw": "TAF LIPQ 070500Z 0706/0806 08006KT 9999 SCT070",
      "metarHtml": "METAR LIPQ 070850Z AUTO 19002KT 9999 OVC088/// 01/M02 Q1012",
      "tafHtml": "TAF LIPQ 070500Z 0706/0806 08006KT 9999 SCT070"
    },
    {
      "icao": "LIPX",
      "iata": "VRN",
      "name": "Verona Villafranca Valerio Catullo Airport",
      "updatedAt": "070850Z",
      "visibility_m": 10000,
      "taf_visibility_m": 10000,
      "worst_visibility_m": 10000,
      "ceiling_ft": null,
      "hazards": [],
      "severityScore": 0,
      "metarRaw": "METAR LIPX 070850Z VRB01KT CAVOK M01/M06 Q1012",
      "tafRaw": "TAF LIPX 070500Z 0706/0806 VRB05KT 9999 FEW030",
      "metarHtml": "METAR LIPX 070850Z VRB01KT <span class=\"hl-vis\">CAVOK</span> M01/M06 Q1012",
      "tafHtml": "TAF LIPX 070500Z 0706/0806 VRB05KT 9999 FEW030"
    },
    {
      "icao": "LIPZ",
      "iata": "VCE",
      "name": "Venice Marco Polo Airport",
      "updatedAt": "070850Z",
      "visibility_m": 10000,
      "taf_visibility_m": 10000,
      "worst_visibility_m": 10000,
      "ceiling_ft": null,
      "hazards": [],
      "severityScore": 0,
      "metarRaw": "METAR LIPZ 070850Z 34007KT CAVOK 02/M04 Q1012 NOSIG",
      "tafRaw": "TAF LIPZ 070500Z 0706/0812 34006KT CAVOK",
      "metarHtml": "METAR LIPZ 070850Z 34007KT <span class=\"hl-vis\">CAVOK</span> 02/M04 Q1012 NOSIG",
      "tafHtml": "TAF LIPZ 070500Z 0706/0812 34006KT <span class=\"hl-vis\">CAVOK</span>"
    },
    {
      "icao": "LIRF",
      "iata": "FCO",
      "name": "Rome–Fiumicino Leonardo da Vinci International Airport",
      "updatedAt": "070850Z",
      "visibility_m": 10000,
      "taf_visibility_m": 10000,
      "worst_visibility_m": 10000,
      "ceiling_ft": null,
      "hazards": [],
      "severityScore": 0,
      "metarRaw": "METAR LIRF 070850Z 05007KT CAVOK 05/03 Q1007 NOSIG",
      "tafRaw": "TAF LIRF 070500Z 0706/0812 04010KT 9999 SCT020 \n  BECMG 0711/0713 34013KT \n  BECMG 0800/0802 04010KT \n  BECMG 0810/0812 34010KT",
      "metarHtml": "METAR LIRF 070850Z 05007KT <span class=\"hl-vis\">CAVOK</span> 05/03 Q1007 NOSIG",
      "tafHtml": "TAF LIRF 070500Z 0706/0812 04010KT 9999 SCT020 \n  BECMG 0711/0713 34013KT \n  BECMG 0800/0802 04010KT \n  BECMG 0810/0812 34010KT"
    },
    {
      "icao": "LIRP",
      "iata": "PSA",
      "name": "Pisa International Airport",
      "updatedAt": "070845Z",
      "visibility_m": 10000,
      "taf_visibility_m": 10000,
      "worst_visibility_m": 10000,
      "ceiling_ft": null,
      "hazards": [],
      "severityScore": 0,
      "metarRaw": "METAR LIRP 070845Z 12009KT CAVOK 04/M03 Q1009 NOSIG",
      "tafRaw": "TAF LIRP 070500Z 0706/0806 12007KT 9999 SCT080 \n  BECMG 0713/0715 CAVOK \n  TEMPO 0723/0805 VRB03KT 9999 FEW025 SCT080",
      "metarHtml": "METAR LIRP 070845Z 12009KT <span class=\"hl-vis\">CAVOK</span> 04/M03 Q1009 NOSIG",
      "tafHtml": "TAF LIRP 070500Z 0706/0806 12007KT 9999 SCT080 \n  BECMG 0713/0715 <span class=\"hl-vis\">CAVOK</span> \n  TEMPO 0723/0805 VRB03KT 9999 FEW025 SCT080"
    },
    {
      "icao": "LIRZ",
      "iata": "PEG",
      "name": "Perugia San Francesco d'Assisi – Umbria International Airport",
      "updatedAt": "070850Z",
      "visibility_m": 10000,
      "taf_visibility_m": 10000,
      "worst_visibility_m": 10000,
      "ceiling_ft": null,
      "hazards": [],
      "severityScore": 0,
      "metarRaw": "METAR LIRZ 070850Z AUTO 01010KT 9999 FEW020/// BKN049/// 03/M01 Q1008",
      "tafRaw": "TAF LIRZ 070500Z 0706/0806 01013KT 9999 BKN020 \n  BECMG 0718/0720 VRB05KT",
      "metarHtml": "METAR LIRZ 070850Z AUTO 01010KT 9999 FEW020/// BKN049/// 03/M01 Q1008",
      "tafHtml": "TAF LIRZ 070500Z 0706/0806 01013KT 9999 BKN020 \n  BECMG 0718/0720 VRB05KT"
    },
    {
      "icao": "LKPR",
      "iata": "PRG",
      "name": "Václav Havel Airport Prague",
      "updatedAt": "070900Z",
      "visibility_m": 10000,
      "taf_visibility_m": 10000,
      "worst_visibility_m": 10000,
      "ceiling_ft": 3400,
      "hazards": [],
      "severityScore": 0,
      "metarRaw": "METAR LKPR 070900Z 22008KT 9999 BKN034 M06/M08 Q1016 NOSIG",
      "tafRaw": "TAF LKPR 070800Z 0709/0815 21006KT 9999 BKN030 \n  TEMPO 0800/0807 CAVOK",
      "metarHtml": "METAR LKPR 070900Z 22008KT 9999 BKN034 M06/M08 Q1016 NOSIG",
      "tafHtml": "TAF LKPR 070800Z 0709/0815 21006KT 9999 BKN030 \n  TEMPO 0800/0807 <span class=\"hl-vis\">CAVOK</span>"
    },
    {
      "icao": "LLBG",
      "iata": "TLV",
      "name": "Ben Gurion International Airport",
      "updatedAt": "070850Z",
      "visibility_m": 10000,
      "taf_visibility_m": 10000,
      "worst_visibility_m": 10000,
      "ceiling_ft": null,
      "hazards": [],
      "severityScore": 0,
      "metarRaw": "METAR LLBG 070850Z VRB02KT CAVOK 20/09 Q1022 NOSIG",
      "tafRaw": "TAF LLBG 070501Z 0706/0806 VRB03KT CAVOK \n  BECMG 0707/0709 33010KT \n  BECMG 0715/0717 VRB04KT TX23/0712Z TN10/0804Z",
      "metarHtml": "METAR LLBG 070850Z VRB02KT <span class=\"hl-vis\">CAVOK</span> 20/09 Q1022 NOSIG",
      "tafHtml": "TAF LLBG 070501Z 0706/0806 VRB03KT <span class=\"hl-vis\">CAVOK</span> \n  BECMG 0707/0709 33010KT \n  BECMG 0715/0717 VRB04KT TX23/0712Z TN10/0804Z"
    },
    {
      "icao": "LOWW",
      "iata": "VIE",
      "name": "Vienna International Airport",
      "updatedAt": "070850Z",
      "visibility_m": 10000,
      "taf_visibility_m": 10000,
      "worst_visibility_m": 10000,
      "ceiling_ft": null,
      "hazards": [],
      "severityScore": 0,
      "metarRaw": "METAR LOWW 070850Z 32014KT 9999 FEW038 M03/M09 Q1016 NOSIG",
      "tafRaw": "TAF LOWW 070815Z 0709/0815 32012KT 9999 FEW040 TXM01/0813Z TNM06/0806Z \n  TEMPO 0709/0715 33015G25KT \n  BECMG 0717/0719 32007KT",
      "metarHtml": "METAR LOWW 070850Z 32014KT 9999 FEW038 M03/M09 Q1016 NOSIG",
      "tafHtml": "TAF LOWW 070815Z 0709/0815 32012KT 9999 FEW040 TXM01/0813Z TNM06/0806Z \n  TEMPO 0709/0715 33015G25KT \n  BECMG 0717/0719 32007KT"
    },
    {
      "icao": "LPMA",
      "iata": "FNC",
      "name": "Madeira International Airport Cristiano Ronaldo",
      "updatedAt": "070900Z",
      "visibility_m": 10000,
      "taf_visibility_m": 10000,
      "worst_visibility_m": 10000,
      "ceiling_ft": null,
      "hazards": [],
      "severityScore": 0,
      "metarRaw": "METAR LPMA 070900Z 01012KT 340V050 9999 FEW015 15/08 Q1032",
      "tafRaw": "TAF LPMA 070500Z 0706/0806 02012KT 9999 SCT016 \n  TEMPO 0706/0718 02017G27KT BKN014",
      "metarHtml": "METAR LPMA 070900Z 01012KT 340V050 9999 FEW015 15/08 Q1032",
      "tafHtml": "TAF LPMA 070500Z 0706/0806 02012KT 9999 SCT016 \n  TEMPO 0706/0718 02017G27KT BKN014"
    },
    {
      "icao": "LPPS",
      "iata": "PXO",
      "name": "Porto Santo Airport",
      "updatedAt": "070900Z",
      "visibility_m": 10000,
      "taf_visibility_m": 10000,
      "worst_visibility_m": 10000,
      "ceiling_ft": null,
      "hazards": [],
      "severityScore": 0,
      "metarRaw": "METAR LPPS 070900Z 04010KT 360V080 9999 SCT015 15/07 Q1032",
      "tafRaw": "TAF LPPS 070500Z 0706/0812 04010KT 9999 SCT015 \n  BECMG 0803/0806 SCT012 BKN030",
      "metarHtml": "METAR LPPS 070900Z 04010KT 360V080 9999 SCT015 15/07 Q1032",
      "tafHtml": "TAF LPPS 070500Z 0706/0812 04010KT 9999 SCT015 \n  BECMG 0803/0806 SCT012 BKN030"
    },
    {
      "icao": "LZIB",
      "iata": "BTS",
      "name": "M. R. Štefánik Airport",
      "updatedAt": "070900Z",
      "visibility_m": 10000,
      "taf_visibility_m": 10000,
      "worst_visibility_m": 10000,
      "ceiling_ft": null,
      "hazards": [],
      "severityScore": 0,
      "metarRaw": "METAR LZIB 070900Z 36009KT 9999 FEW025 M01/M08 Q1015 NOSIG",
      "tafRaw": "TAF LZIB 070515Z 0706/0806 35009KT 9999 FEW022",
      "metarHtml": "METAR LZIB 070900Z 36009KT 9999 FEW025 M01/M08 Q1015 NOSIG",
      "tafHtml": "TAF LZIB 070515Z 0706/0806 35009KT 9999 FEW022"
    },
    {
      "icao": "OEJN",
      "iata": "JED",
      "name": "King Abdulaziz International Airport",
      "updatedAt": "070900Z",
      "visibility_m": 6000,
      "taf_visibility_m": 7000,
      "worst_visibility_m": 6000,
      "ceiling_ft": null,
      "hazards": [],
      "severityScore": 0,
      "metarRaw": "METAR OEJN 070900Z 21004KT 6000 NSC 30/14 Q1017 NOSIG",
      "tafRaw": "TAF OEJN 070500Z 0706/0812 19006KT 7000 NSC \n  BECMG 0712/0714 24010KT 9999 FEW040 \n  BECMG 0718/0720 VRB03KT CAVOK",
      "metarHtml": "METAR OEJN 070900Z 21004KT 6000 NSC 30/14 Q1017 NOSIG",
      "tafHtml": "TAF OEJN 070500Z 0706/0812 19006KT 7000 NSC \n  BECMG 0712/0714 24010KT 9999 FEW040 \n  BECMG 0718/0720 VRB03KT <span class=\"hl-vis\">CAVOK</span>"
    },
    {
      "icao": "OEMA",
      "iata": "MED",
      "name": "Prince Mohammad Bin Abdulaziz Airport",
      "updatedAt": "070900Z",
      "visibility_m": 10000,
      "taf_visibility_m": 10000,
      "worst_visibility_m": 10000,
      "ceiling_ft": null,
      "hazards": [],
      "severityScore": 0,
      "metarRaw": "METAR OEMA 070900Z 09007KT CAVOK 23/M02 Q1025 NOSIG",
      "tafRaw": "TAF OEMA 070500Z 0706/0812 09010KT CAVOK \n  BECMG 0720/0722 08006KT",
      "metarHtml": "METAR OEMA 070900Z 09007KT <span class=\"hl-vis\">CAVOK</span> 23/M02 Q1025 NOSIG",
      "tafHtml": "TAF OEMA 070500Z 0706/0812 09010KT <span class=\"hl-vis\">CAVOK</span> \n  BECMG 0720/0722 08006KT"
    },
    {
      "icao": "OJAI",
      "iata": "AMM",
      "name": "Queen Alia International Airport",
      "updatedAt": "070800Z",
      "visibility_m": 5000,
      "taf_visibility_m": 5000,
      "worst_visibility_m": 5000,
      "ceiling_ft": null,
      "hazards": [],
      "severityScore": 0,
      "metarRaw": "METAR OJAI 070800Z 07004KT 5000 HZ NSC 13/03 Q1026 NOSIG",
      "tafRaw": "TAF OJAI 070447Z 0706/0812 VRB02KT 5000 HZ NSC \n  BECMG 0708/0710 10008KT",
      "metarHtml": "METAR OJAI 070800Z 07004KT 5000 HZ NSC 13/03 Q1026 NOSIG",
      "tafHtml": "TAF OJAI 070447Z 0706/0812 VRB02KT 5000 HZ NSC \n  BECMG 0708/0710 10008KT"
    },
    {
      "icao": "OMAA",
      "iata": "AUH",
      "name": "Zayed International Airport",
      "updatedAt": "070900Z",
      "visibility_m": 10000,
      "taf_visibility_m": 8000,
      "worst_visibility_m": 8000,
      "ceiling_ft": null,
      "hazards": [],
      "severityScore": 0,
      "metarRaw": "METAR OMAA 070900Z 32010KT 300V360 9999 FEW045 25/08 Q1020 NOSIG",
      "tafRaw": "TAF OMAA 070500Z 0706/0812 VRB02KT 8000 NSC \n  BECMG 0707/0709 34011KT \n  BECMG 0716/0718 04005KT \n  BECMG 0809/0811 33010KT",
      "metarHtml": "METAR OMAA 070900Z 32010KT 300V360 9999 FEW045 25/08 Q1020 NOSIG",
      "tafHtml": "TAF OMAA 070500Z 0706/0812 VRB02KT 8000 NSC \n  BECMG 0707/0709 34011KT \n  BECMG 0716/0718 04005KT \n  BECMG 0809/0811 33010KT"
    },
    {
      "icao": "OMDB",
      "iata": "DXB",
      "name": "Dubai International Airport",
      "updatedAt": "070900Z",
      "visibility_m": 10000,
      "taf_visibility_m": 8000,
      "worst_visibility_m": 8000,
      "ceiling_ft": null,
      "hazards": [],
      "severityScore": 0,
      "metarRaw": "METAR OMDB 070900Z 32012KT 9999 FEW045 24/12 Q1020 NOSIG",
      "tafRaw": "TAF OMDB 070500Z 0706/0812 07005KT 8000 NSC \n  BECMG 0708/0710 34010KT \n  BECMG 0716/0718 12005KT \n  BECMG 0808/0810 33012KT",
      "metarHtml": "METAR OMDB 070900Z 32012KT 9999 FEW045 24/12 Q1020 NOSIG",
      "tafHtml": "TAF OMDB 070500Z 0706/0812 07005KT 8000 NSC \n  BECMG 0708/0710 34010KT \n  BECMG 0716/0718 12005KT \n  BECMG 0808/0810 33012KT"
    },
    {
      "icao": "UGKO",
      "iata": "KUT",
      "name": "David the Builder Kutaisi International Airport",
      "updatedAt": "070900Z",
      "visibility_m": 10000,
      "taf_visibility_m": 10000,
      "worst_visibility_m": 10000,
      "ceiling_ft": null,
      "hazards": [],
      "severityScore": 0,
      "metarRaw": "METAR UGKO 070900Z 09013KT CAVOK 13/M03 Q1019 NOSIG",
      "tafRaw": "TAF UGKO 070500Z 0706/0806 09007KT CAVOK TX16/0712Z TN02/0706Z \n  TEMPO 0800/0806 08017KT",
      "metarHtml": "METAR UGKO 070900Z 09013KT <span class=\"hl-vis\">CAVOK</span> 13/M03 Q1019 NOSIG",
      "tafHtml": "TAF UGKO 070500Z 0706/0806 09007KT <span class=\"hl-vis\">CAVOK</span> TX16/0712Z TN02/0706Z \n  TEMPO 0800/0806 08017KT"
    }
  ],
  "stats": {
    "icaoCount": 159,
    "metarReturned": 159,
    "tafReturned": 141,
    "stationsWritten": 159,
    "missingMetar": 0,
    "missingTaf": 18
  },
  "errors": []
}