{
  "generatedAt": "2026-01-07T14:43:31.417Z",
  "stations": [
    {
      "icao": "EPGD",
      "iata": "GDN",
      "name": "Gdańsk Lech Wałęsa Airport",
      "updatedAt": "071430Z",
      "visibility_m": 8000,
      "taf_visibility_m": 800,
      "worst_visibility_m": 800,
      "ceiling_ft": 400,
      "hazards": [
        "FZFG",
        "BR"
      ],
      "severityScore": 100,
      "metarRaw": "METAR EPGD 071430Z 22006KT 180V250 8000 BKN004 M07/M07 Q1015",
      "tafRaw": "TAF EPGD 071130Z 0712/0812 23005KT 8000 NSC \n  PROB40 0712/0716 1000 BR BKN002 \n  BECMG 0721/0724 2000 BR BKN005 \n  PROB40 \n  TEMPO 0800/0810 0800 FZFG OVC002",
      "metarHtml": "METAR EPGD 071430Z 22006KT 180V250 8000 BKN004 M07/M07 Q1015",
      "tafHtml": "TAF EPGD 071130Z 0712/0812 23005KT 8000 NSC \n  PROB40 0712/0716 1000 <span class=\"hl\">BR</span> BKN002 \n  BECMG 0721/0724 2000 <span class=\"hl\">BR</span> BKN005 \n  PROB40 \n  TEMPO <span class=\"hl-vis\">0800</span>/0810 <span class=\"hl-vis\">0800</span> <span class=\"hl\">FZFG</span> OVC002"
    },
    {
      "icao": "EPWA",
      "iata": "WAW",
      "name": "Warsaw Chopin Airport",
      "updatedAt": "071430Z",
      "visibility_m": 3000,
      "taf_visibility_m": 800,
      "worst_visibility_m": 800,
      "ceiling_ft": 300,
      "hazards": [
        "BR",
        "FZFG"
      ],
      "severityScore": 100,
      "metarRaw": "METAR EPWA 071430Z 32005KT 290V010 3000 BR BKN003 M09/M10 Q1016 TEMPO BKN005",
      "tafRaw": "TAF EPWA 071430Z 0715/0815 01003KT 3000 BR BKN005 \n  BECMG 0715/0718 SCT005 \n  TEMPO 0715/0724 2000 BR BKN003 \n  PROB40 \n  TEMPO 0718/0724 0800 FZFG BKN002 \n  BECMG 0723/0801 OVC005 \n  TEMPO 0800/0807 2000 -SG BR BKN002 \n  BECMG 0807/0810 04010KT 8000 BKN012",
      "metarHtml": "METAR EPWA 071430Z 32005KT 290V010 3000 <span class=\"hl\">BR</span> BKN003 M09/M10 Q1016 TEMPO BKN005",
      "tafHtml": "TAF EPWA 071430Z 0715/0815 01003KT 3000 <span class=\"hl\">BR</span> BKN005 \n  BECMG 0715/0718 SCT005 \n  TEMPO 0715/0724 2000 <span class=\"hl\">BR</span> BKN003 \n  PROB40 \n  TEMPO 0718/0724 <span class=\"hl-vis\">0800</span> <span class=\"hl\">FZFG</span> BKN002 \n  BECMG 0723/0801 OVC005 \n  TEMPO <span class=\"hl-vis\">0800</span>/0807 2000 -SG <span class=\"hl\">BR</span> BKN002 \n  BECMG 0807/0810 04010KT 8000 BKN012"
    },
    {
      "icao": "EYKA",
      "iata": "KUN",
      "name": "Kaunas International Airport",
      "updatedAt": "071420Z",
      "visibility_m": 3400,
      "taf_visibility_m": 300,
      "worst_visibility_m": 300,
      "ceiling_ft": 300,
      "hazards": [
        "BR",
        "FZFG"
      ],
      "severityScore": 100,
      "metarRaw": "METAR EYKA 071420Z VRB02KT 3400 BR OVC003 M06/M07 Q1016",
      "tafRaw": "TAF EYKA 071124Z 0712/0812 VRB04KT 3000 BR OVC002 \n  TEMPO 0712/0718 0800 FZFG OVC005 \n  PROB40 \n  TEMPO 0712/0718 0300 \n  BECMG 0718/0719 0400 FZFG \n  TEMPO 0719/0806 1500 BR \n  BECMG 0806/0809 07010KT 5000 BR BKN005 \n  TEMPO 0809/0812 BKN010",
      "metarHtml": "METAR EYKA 071420Z VRB02KT 3400 <span class=\"hl\">BR</span> OVC003 M06/M07 Q1016",
      "tafHtml": "TAF EYKA 071124Z 0712/0812 VRB04KT 3000 <span class=\"hl\">BR</span> OVC002 \n  TEMPO 0712/0718 <span class=\"hl-vis\">0800</span> <span class=\"hl\">FZFG</span> OVC005 \n  PROB40 \n  TEMPO 0712/0718 <span class=\"hl-vis\">0300</span> \n  BECMG 0718/0719 <span class=\"hl-vis\">0400</span> <span class=\"hl\">FZFG</span> \n  TEMPO 0719/0806 1500 <span class=\"hl\">BR</span> \n  BECMG 0806/0809 07010KT 5000 <span class=\"hl\">BR</span> BKN005 \n  TEMPO 0809/0812 BKN010"
    },
    {
      "icao": "EYVI",
      "iata": "VNO",
      "name": "Vilnius International Airport",
      "updatedAt": "071420Z",
      "visibility_m": 800,
      "taf_visibility_m": null,
      "worst_visibility_m": 800,
      "ceiling_ft": 100,
      "hazards": [
        "FZFG",
        "BR"
      ],
      "severityScore": 100,
      "metarRaw": "METAR EYVI 071420Z VRB02KT 1500 R01/1400VP2000D BR OVC001 M06/M07 Q1015 TEMPO 0800 FZFG",
      "tafRaw": null,
      "metarHtml": "METAR EYVI 071420Z VRB02KT 1500 R01/1400VP2000D <span class=\"hl\">BR</span> OVC001 M06/M07 Q1015 TEMPO <span class=\"hl-vis\">0800</span> <span class=\"hl\">FZFG</span>",
      "tafHtml": null
    },
    {
      "icao": "LRBS",
      "iata": "BBU",
      "name": "Bucharest Băneasa Aurel Vlaicu International Airport",
      "updatedAt": "071430Z",
      "visibility_m": 800,
      "taf_visibility_m": 600,
      "worst_visibility_m": 600,
      "ceiling_ft": 100,
      "hazards": [
        "FG",
        "BR",
        "RA",
        "SN"
      ],
      "severityScore": 100,
      "metarRaw": "METAR LRBS 071430Z 27003KT 240V300 0800 R07/1500N FG OVC001 04/04 Q1008 BECMG 1500 -RA BR",
      "tafRaw": "TAF LRBS 071100Z 0712/0812 07006KT 0600 FG OVC001 \n  BECMG 0714/0716 07016KT 3000 -RA BR BKN005 OVC025 \n  BECMG 0722/0724 07006KT -RASN BKN002 OVC020 \n  PROB40 \n  TEMPO 0802/0806 5000 -SHRASN BKN005 SCT025CB \n  BECMG 0808/0810 1500 SN",
      "metarHtml": "METAR LRBS 071430Z 27003KT 240V300 <span class=\"hl-vis\">0800</span> R07/1500N <span class=\"hl\">FG</span> OVC001 04/04 Q1008 BECMG 1500 -<span class=\"hl\">RA</span> <span class=\"hl\">BR</span>",
      "tafHtml": "TAF LRBS 071100Z 0712/0812 07006KT <span class=\"hl-vis\">0600</span> <span class=\"hl\">FG</span> OVC001 \n  BECMG 0714/0716 07016KT 3000 -<span class=\"hl\">RA</span> <span class=\"hl\">BR</span> BKN005 OVC025 \n  BECMG 0722/0724 07006KT -RASN BKN002 OVC020 \n  PROB40 \n  TEMPO 0802/0806 5000 -SHRASN BKN005 SCT025CB \n  BECMG 0808/0810 1500 <span class=\"hl\">SN</span>"
    },
    {
      "icao": "LRCV",
      "iata": "CRA",
      "name": "Craiova International Airport",
      "updatedAt": "071430Z",
      "visibility_m": 3500,
      "taf_visibility_m": 600,
      "worst_visibility_m": 600,
      "ceiling_ft": 200,
      "hazards": [
        "BR",
        "FG",
        "RA",
        "DZ"
      ],
      "severityScore": 100,
      "metarRaw": "METAR LRCV 071430Z 00000KT 3500 BR OVC002 03/03 Q1008",
      "tafRaw": "TAF LRCV 071400Z 0715/0724 VRB04KT 3000 -RA BR OVC002 \n  BECMG 0715/0717 1500 -DZ BR \n  BECMG 0717/0719 0600 -DZ FG VV001",
      "metarHtml": "METAR LRCV 071430Z 00000KT 3500 <span class=\"hl\">BR</span> OVC002 03/03 Q1008",
      "tafHtml": "TAF LRCV 071400Z 0715/0724 VRB04KT 3000 -<span class=\"hl\">RA</span> <span class=\"hl\">BR</span> OVC002 \n  BECMG 0715/0717 1500 -<span class=\"hl\">DZ</span> <span class=\"hl\">BR</span> \n  BECMG 0717/0719 <span class=\"hl-vis\">0600</span> -<span class=\"hl\">DZ</span> <span class=\"hl\">FG</span> VV001"
    },
    {
      "icao": "LROP",
      "iata": "OTP",
      "name": "Bucharest Henri Coandă International Airport",
      "updatedAt": "071430Z",
      "visibility_m": 1300,
      "taf_visibility_m": 600,
      "worst_visibility_m": 600,
      "ceiling_ft": 100,
      "hazards": [
        "BR",
        "FG",
        "SN",
        "RA"
      ],
      "severityScore": 100,
      "metarRaw": "METAR LROP 071430Z VRB03KT 1300 R08R/1900U R08L/1300D BR BKN001 OVC002 05/05 Q1008 BECMG 3000",
      "tafRaw": "TAF LROP 071100Z 0712/0812 07006KT 0600 FG OVC001 \n  BECMG 0714/0716 07016KT 3000 -RA BR BKN005 OVC025 \n  BECMG 0722/0724 07006KT -RASN BKN002 OVC020 \n  PROB40 \n  TEMPO 0802/0806 5000 -SHRASN BKN005 SCT025CB \n  BECMG 0808/0810 1500 SN",
      "metarHtml": "METAR LROP 071430Z VRB03KT 1300 R08R/1900U R08L/1300D <span class=\"hl\">BR</span> BKN001 OVC002 05/05 Q1008 BECMG 3000",
      "tafHtml": "TAF LROP 071100Z 0712/0812 07006KT <span class=\"hl-vis\">0600</span> <span class=\"hl\">FG</span> OVC001 \n  BECMG 0714/0716 07016KT 3000 -<span class=\"hl\">RA</span> <span class=\"hl\">BR</span> BKN005 OVC025 \n  BECMG 0722/0724 07006KT -RASN BKN002 OVC020 \n  PROB40 \n  TEMPO 0802/0806 5000 -SHRASN BKN005 SCT025CB \n  BECMG 0808/0810 1500 <span class=\"hl\">SN</span>"
    },
    {
      "icao": "LRSM",
      "iata": "SUJ",
      "name": "Satu Mare International Airport",
      "updatedAt": "071430Z",
      "visibility_m": 7000,
      "taf_visibility_m": 800,
      "worst_visibility_m": 800,
      "ceiling_ft": 700,
      "hazards": [
        "FZFG",
        "BR",
        "SN"
      ],
      "severityScore": 100,
      "metarRaw": "METAR LRSM 071430Z VRB02KT 7000 FEW004 OVC007 M02/M03 Q1010",
      "tafRaw": "TAF LRSM 071400Z 0715/0724 VRB04KT 9999 BKN010 OVC030 \n  BECMG 0715/0717 3000 -SN BR BKN005 OVC020 \n  BECMG 0718/0720 0800 SN FZFG BKN002 OVC015",
      "metarHtml": "METAR LRSM 071430Z VRB02KT 7000 FEW004 OVC007 M02/M03 Q1010",
      "tafHtml": "TAF LRSM 071400Z 0715/0724 VRB04KT 9999 BKN010 OVC030 \n  BECMG 0715/0717 3000 -<span class=\"hl\">SN</span> <span class=\"hl\">BR</span> BKN005 OVC020 \n  BECMG 0718/0720 <span class=\"hl-vis\">0800</span> <span class=\"hl\">SN</span> <span class=\"hl\">FZFG</span> BKN002 OVC015"
    },
    {
      "icao": "LRTR",
      "iata": "TSR",
      "name": "Timişoara Traian Vuia Airport",
      "updatedAt": "071430Z",
      "visibility_m": 3000,
      "taf_visibility_m": 350,
      "worst_visibility_m": 350,
      "ceiling_ft": 600,
      "hazards": [
        "BR",
        "SN",
        "FZFG"
      ],
      "severityScore": 100,
      "metarRaw": "METAR LRTR 071430Z 30005KT 3000 -SN BR FEW003 BKN006 OVC011 M02/M02 Q1011",
      "tafRaw": "TAF LRTR 071100Z 0712/0812 VRB04KT 3000 BR BKN005 OVC015 \n  BECMG 0713/0715 1500 -SN BR BKN002 OVC010 \n  TEMPO 0715/0721 0600 SN FZFG \n  PROB40 \n  TEMPO 0715/0718 0350 +SN FZFG VV001 \n  BECMG 0721/0723 33010KT \n  BECMG 0807/0809 5000 BR OVC005 \n  BECMG 0809/0811 9999 NSW BKN010",
      "metarHtml": "METAR LRTR 071430Z 30005KT 3000 -<span class=\"hl\">SN</span> <span class=\"hl\">BR</span> FEW003 BKN006 OVC011 M02/M02 Q1011",
      "tafHtml": "TAF LRTR 071100Z 0712/0812 VRB04KT 3000 <span class=\"hl\">BR</span> BKN005 OVC015 \n  BECMG 0713/0715 1500 -<span class=\"hl\">SN</span> <span class=\"hl\">BR</span> BKN002 OVC010 \n  TEMPO 0715/0721 <span class=\"hl-vis\">0600</span> <span class=\"hl\">SN</span> <span class=\"hl\">FZFG</span> \n  PROB40 \n  TEMPO 0715/0718 <span class=\"hl-vis\">0350</span> +<span class=\"hl\">SN</span> <span class=\"hl\">FZFG</span> VV001 \n  BECMG 0721/0723 33010KT \n  BECMG 0807/0809 5000 <span class=\"hl\">BR</span> OVC005 \n  BECMG 0809/0811 9999 NSW BKN010"
    },
    {
      "icao": "LUKK",
      "iata": "RMO",
      "name": "Chişinău International Airport",
      "updatedAt": "071430Z",
      "visibility_m": 9000,
      "taf_visibility_m": 300,
      "worst_visibility_m": 300,
      "ceiling_ft": 500,
      "hazards": [
        "FG",
        "BR",
        "SHRA",
        "DZ"
      ],
      "severityScore": 100,
      "metarRaw": "METAR LUKK 071430Z 36008KT 9000 BKN005 OVC009 02/02 Q1008 NOSIG",
      "tafRaw": "TAF LUKK 071114Z 0712/0812 35006KT 0800 -DZ FG VV002 \n  TEMPO 0712/0718 2000 BR OVC003 \n  BECMG 0718/0720 1500 -DZ BR OVC003 \n  TEMPO 0720/0805 0300 FG VV001 \n  BECMG 0805/0807 5000 BKN015 \n  TEMPO 0805/0812 3000 -SHRA BKN008 SCT025CB",
      "metarHtml": "METAR LUKK 071430Z 36008KT 9000 BKN005 OVC009 02/02 Q1008 NOSIG",
      "tafHtml": "TAF LUKK 071114Z 0712/0812 35006KT <span class=\"hl-vis\">0800</span> -<span class=\"hl\">DZ</span> <span class=\"hl\">FG</span> VV002 \n  TEMPO 0712/0718 2000 <span class=\"hl\">BR</span> OVC003 \n  BECMG 0718/0720 1500 -<span class=\"hl\">DZ</span> <span class=\"hl\">BR</span> OVC003 \n  TEMPO 0720/0805 <span class=\"hl-vis\">0300</span> <span class=\"hl\">FG</span> VV001 \n  BECMG 0805/0807 5000 BKN015 \n  TEMPO 0805/0812 3000 -<span class=\"hl\">SHRA</span> BKN008 SCT025CB"
    },
    {
      "icao": "UAAA",
      "iata": "ALA",
      "name": "Almaty International Airport",
      "updatedAt": "071434Z",
      "visibility_m": 500,
      "taf_visibility_m": 200,
      "worst_visibility_m": 200,
      "ceiling_ft": 200,
      "hazards": [
        "FZFG",
        "BR"
      ],
      "severityScore": 100,
      "metarRaw": "SPECI UAAA 071434Z VRB01MPS 0500 R23L/1500 FZFG VV002 M04/M05 Q1032 NOSIG RMK QBB070",
      "tafRaw": "TAF UAAA 071102Z 0712/0812 VRB01MPS 0600 FZFG VV003 TXM01/0809Z TNM05/0801Z \n  TEMPO 0712/0724 0200 VV001 \n  TEMPO 0800/0806 0200 VV001 \n  FM080600 33003MPS 1300 BR BKN005 OVC011 \n  TEMPO 0806/0812 03003MPS 3100 SCT011 BKN100",
      "metarHtml": "SPECI UAAA 071434Z VRB01MPS <span class=\"hl-vis\">0500</span> R23L/1500 <span class=\"hl\">FZFG</span> VV002 M04/M05 Q1032 NOSIG RMK QBB070",
      "tafHtml": "TAF UAAA 071102Z 0712/0812 VRB01MPS <span class=\"hl-vis\">0600</span> <span class=\"hl\">FZFG</span> VV003 TXM01/0809Z TNM05/0801Z \n  TEMPO 0712/0724 <span class=\"hl-vis\">0200</span> VV001 \n  TEMPO 0800/0806 <span class=\"hl-vis\">0200</span> VV001 \n  FM080600 33003MPS 1300 <span class=\"hl\">BR</span> BKN005 OVC011 \n  TEMPO 0806/0812 03003MPS 3100 SCT011 BKN100"
    },
    {
      "icao": "UBBB",
      "iata": "GYD",
      "name": "Heydar Aliyev International Airport",
      "updatedAt": "071430Z",
      "visibility_m": 100,
      "taf_visibility_m": null,
      "worst_visibility_m": 100,
      "ceiling_ft": 100,
      "hazards": [
        "FG"
      ],
      "severityScore": 100,
      "metarRaw": "METAR UBBB 071430Z 16004KT 0100 R34/0300 R35/0300 FG VV001 06/06 Q1021 NOSIG",
      "tafRaw": null,
      "metarHtml": "METAR UBBB 071430Z 16004KT <span class=\"hl-vis\">0100</span> R34/0300 R35/0300 <span class=\"hl\">FG</span> VV001 06/06 Q1021 NOSIG",
      "tafHtml": null
    },
    {
      "icao": "LRBV",
      "iata": "GHV",
      "name": "Brașov-Ghimbav International Airport",
      "updatedAt": "071430Z",
      "visibility_m": 6000,
      "taf_visibility_m": 600,
      "worst_visibility_m": 600,
      "ceiling_ft": 1100,
      "hazards": [
        "FG",
        "BR",
        "FZDZ"
      ],
      "severityScore": 95,
      "metarRaw": "METAR LRBV 071430Z 31010KT 6000 SCT004 OVC011 01/01 Q1006",
      "tafRaw": "TAF LRBV 071400Z 0715/0724 30008KT 9999 BKN035 \n  TEMPO 0715/0718 5000 -RASN BKN005 OVC030 \n  PROB30 \n  TEMPO 0716/0718 -FZDZ \n  BECMG 0718/0719 1500 BR BKN005 OVC020 \n  BECMG 0719/0721 0600 FG VV001",
      "metarHtml": "METAR LRBV 071430Z 31010KT 6000 SCT004 OVC011 01/01 Q1006",
      "tafHtml": "TAF LRBV 071400Z 0715/0724 30008KT 9999 BKN035 \n  TEMPO 0715/0718 5000 -RASN BKN005 OVC030 \n  PROB30 \n  TEMPO 0716/0718 -<span class=\"hl\">FZDZ</span> \n  BECMG 0718/0719 1500 <span class=\"hl\">BR</span> BKN005 OVC020 \n  BECMG 0719/0721 <span class=\"hl-vis\">0600</span> <span class=\"hl\">FG</span> VV001"
    },
    {
      "icao": "LJLJ",
      "iata": "LJU",
      "name": "Ljubljana Jože Pučnik Airport",
      "updatedAt": "071430Z",
      "visibility_m": 8000,
      "taf_visibility_m": 300,
      "worst_visibility_m": 300,
      "ceiling_ft": 2000,
      "hazards": [
        "SN",
        "FZFG"
      ],
      "severityScore": 93,
      "metarRaw": "METAR LJLJ 071430Z 07002KT 8000 -SN FEW006 BKN020 BKN065 M04/M06 Q1011 NOSIG",
      "tafRaw": "TAF LJLJ 071100Z 0712/0812 VRB02KT 9999 FEW005 BKN080 \n  PROB30 \n  TEMPO 0712/0716 -SN \n  PROB30 \n  TEMPO 0802/0809 0300 FZFG VV001",
      "metarHtml": "METAR LJLJ 071430Z 07002KT 8000 -<span class=\"hl\">SN</span> FEW006 BKN020 BKN065 M04/M06 Q1011 NOSIG",
      "tafHtml": "TAF LJLJ 071100Z 0712/0812 VRB02KT 9999 FEW005 BKN080 \n  PROB30 \n  TEMPO 0712/0716 -<span class=\"hl\">SN</span> \n  PROB30 \n  TEMPO 0802/0809 <span class=\"hl-vis\">0300</span> <span class=\"hl\">FZFG</span> VV001"
    },
    {
      "icao": "LRSB",
      "iata": "SBZ",
      "name": "Sibiu International Airport",
      "updatedAt": "071430Z",
      "visibility_m": 10000,
      "taf_visibility_m": 600,
      "worst_visibility_m": 600,
      "ceiling_ft": 1900,
      "hazards": [
        "BR",
        "SN",
        "FZDZ"
      ],
      "severityScore": 93,
      "metarRaw": "METAR LRSB 071430Z 36005KT 9999 FEW013 OVC019 01/M01 Q1007",
      "tafRaw": "TAF LRSB 071100Z 0712/0812 VRB04KT 9999 BKN010 OVC020 \n  BECMG 0713/0715 3000 BR BKN010 \n  PROB30 \n  TEMPO 0717/0721 1500 -FZDZ BR OVC002 \n  BECMG 0721/0723 1500 SN BKN005 OVC020 \n  PROB40 \n  TEMPO 0800/0805 0600 +SN \n  BECMG 0806/0808 5000 -SN BKN010 BKN025",
      "metarHtml": "METAR LRSB 071430Z 36005KT 9999 FEW013 OVC019 01/M01 Q1007",
      "tafHtml": "TAF LRSB 071100Z 0712/0812 VRB04KT 9999 BKN010 OVC020 \n  BECMG 0713/0715 3000 <span class=\"hl\">BR</span> BKN010 \n  PROB30 \n  TEMPO 0717/0721 1500 -<span class=\"hl\">FZDZ</span> <span class=\"hl\">BR</span> OVC002 \n  BECMG 0721/0723 1500 <span class=\"hl\">SN</span> BKN005 OVC020 \n  PROB40 \n  TEMPO 0800/0805 <span class=\"hl-vis\">0600</span> +<span class=\"hl\">SN</span> \n  BECMG 0806/0808 5000 -<span class=\"hl\">SN</span> BKN010 BKN025"
    },
    {
      "icao": "LRIA",
      "iata": "IAS",
      "name": "Iaşi Airport",
      "updatedAt": "071430Z",
      "visibility_m": 2000,
      "taf_visibility_m": 1500,
      "worst_visibility_m": 1500,
      "ceiling_ft": 100,
      "hazards": [
        "BR",
        "FZRA"
      ],
      "severityScore": 90,
      "metarRaw": "METAR LRIA 071430Z 31007KT 2000 BR OVC001 M00/M00 Q1010",
      "tafRaw": "TAF LRIA 071400Z 0715/0724 30006KT 3000 BR VV001 \n  TEMPO 0715/0719 1500 -FZRA BKN005 OVC020",
      "metarHtml": "METAR LRIA 071430Z 31007KT 2000 <span class=\"hl\">BR</span> OVC001 M00/M00 Q1010",
      "tafHtml": "TAF LRIA 071400Z 0715/0724 30006KT 3000 <span class=\"hl\">BR</span> VV001 \n  TEMPO 0715/0719 1500 -<span class=\"hl\">FZRA</span> BKN005 OVC020"
    },
    {
      "icao": "ESSA",
      "iata": "ARN",
      "name": "Stockholm-Arlanda Airport",
      "updatedAt": "071420Z",
      "visibility_m": 10000,
      "taf_visibility_m": 600,
      "worst_visibility_m": 600,
      "ceiling_ft": 400,
      "hazards": [
        "SN",
        "SHSN"
      ],
      "severityScore": 88,
      "metarRaw": "METAR ESSA 071420Z 16006KT 9999 OVC004 M08/M08 Q1012 TEMPO BKN008",
      "tafRaw": "TAF ESSA 071430Z 0715/0815 12006KT 9999 BKN008 \n  PROB40 0715/0716 BKN004 \n  TEMPO 0716/0719 2000 SN VV012 \n  TEMPO 0719/0804 0600 SHSN BKN009 BKN040CB \n  BECMG 0804/0806 BKN020",
      "metarHtml": "METAR ESSA 071420Z 16006KT 9999 OVC004 M08/M08 Q1012 TEMPO BKN008",
      "tafHtml": "TAF ESSA 071430Z 0715/0815 12006KT 9999 BKN008 \n  PROB40 0715/0716 BKN004 \n  TEMPO 0716/0719 2000 <span class=\"hl\">SN</span> VV012 \n  TEMPO 0719/0804 <span class=\"hl-vis\">0600</span> <span class=\"hl\">SHSN</span> BKN009 BKN040CB \n  BECMG 0804/0806 BKN020"
    },
    {
      "icao": "LRBC",
      "iata": "BCM",
      "name": "Bacău George Enescu International  Airport",
      "updatedAt": "071430Z",
      "visibility_m": 4000,
      "taf_visibility_m": 3000,
      "worst_visibility_m": 3000,
      "ceiling_ft": 400,
      "hazards": [
        "BR",
        "FZRA"
      ],
      "severityScore": 80,
      "metarRaw": "METAR LRBC 071430Z 35009KT 4000 BR OVC004 00/M01 Q1009",
      "tafRaw": "TAF LRBC 071400Z 0715/0724 35008KT 5000 BR OVC004 \n  TEMPO 0715/0719 3000 FZRA BKN005 OVC015",
      "metarHtml": "METAR LRBC 071430Z 35009KT 4000 <span class=\"hl\">BR</span> OVC004 00/M01 Q1009",
      "tafHtml": "TAF LRBC 071400Z 0715/0724 35008KT 5000 <span class=\"hl\">BR</span> OVC004 \n  TEMPO 0715/0719 3000 <span class=\"hl\">FZRA</span> BKN005 OVC015"
    },
    {
      "icao": "EPRZ",
      "iata": "RZE",
      "name": "Rzeszów-Jasionka Airport",
      "updatedAt": "071430Z",
      "visibility_m": 3500,
      "taf_visibility_m": 600,
      "worst_visibility_m": 600,
      "ceiling_ft": 800,
      "hazards": [
        "BR",
        "SN"
      ],
      "severityScore": 78,
      "metarRaw": "METAR EPRZ 071430Z 02007KT 3500 -SN BR BKN008 OVC026 M04/M06 Q1013",
      "tafRaw": "TAF EPRZ 071130Z 0712/0812 01007KT 3500 -SN BR OVC045 \n  TEMPO 0712/0714 2000 SN BR BKN004 OVC015 \n  TEMPO 0714/0721 5000 -SN BR BKN009 OVC013 \n  BECMG 0721/0724 2000 SN BR BKN006 OVC012 \n  TEMPO 0800/0810 0600 +SN BKN002 OVC009",
      "metarHtml": "METAR EPRZ 071430Z 02007KT 3500 -<span class=\"hl\">SN</span> <span class=\"hl\">BR</span> BKN008 OVC026 M04/M06 Q1013",
      "tafHtml": "TAF EPRZ 071130Z 0712/0812 01007KT 3500 -<span class=\"hl\">SN</span> <span class=\"hl\">BR</span> OVC045 \n  TEMPO 0712/0714 2000 <span class=\"hl\">SN</span> <span class=\"hl\">BR</span> BKN004 OVC015 \n  TEMPO 0714/0721 5000 -<span class=\"hl\">SN</span> <span class=\"hl\">BR</span> BKN009 OVC013 \n  BECMG 0721/0724 2000 <span class=\"hl\">SN</span> <span class=\"hl\">BR</span> BKN006 OVC012 \n  TEMPO 0800/0810 <span class=\"hl-vis\">0600</span> +<span class=\"hl\">SN</span> BKN002 OVC009"
    },
    {
      "icao": "LYBE",
      "iata": "BEG",
      "name": "Belgrade Nikola Tesla Airport",
      "updatedAt": "071430Z",
      "visibility_m": 1200,
      "taf_visibility_m": 700,
      "worst_visibility_m": 700,
      "ceiling_ft": 400,
      "hazards": [
        "SN"
      ],
      "severityScore": 78,
      "metarRaw": "METAR LYBE 071430Z 31005KT 1200 R12L/1500N R30R/1400U SN BKN004 OVC027 M03/M03 Q1011 NOSIG",
      "tafRaw": "TAF LYBE 071100Z 0712/0812 27008KT 7000 BKN007 BKN035 TXM01/0713Z TNM04/0806Z \n  BECMG 0713/0715 2000 SN BKN003 OVC025 \n  TEMPO 0715/0723 0700 +SN BKN001 OVC021 \n  BECMG 0807/0809 8000 NSW SCT025 \n  TEMPO 0809/0812 28018KT",
      "metarHtml": "METAR LYBE 071430Z 31005KT 1200 R12L/1500N R30R/1400U <span class=\"hl\">SN</span> BKN004 OVC027 M03/M03 Q1011 NOSIG",
      "tafHtml": "TAF LYBE 071100Z 0712/0812 27008KT 7000 BKN007 BKN035 TXM01/0713Z TNM04/0806Z \n  BECMG 0713/0715 2000 <span class=\"hl\">SN</span> BKN003 OVC025 \n  TEMPO 0715/0723 <span class=\"hl-vis\">0700</span> +<span class=\"hl\">SN</span> BKN001 OVC021 \n  BECMG 0807/0809 8000 NSW SCT025 \n  TEMPO 0809/0812 28018KT"
    },
    {
      "icao": "LBPD",
      "iata": "PDV",
      "name": "Plovdiv International Airport",
      "updatedAt": "071430Z",
      "visibility_m": 5000,
      "taf_visibility_m": 500,
      "worst_visibility_m": 500,
      "ceiling_ft": null,
      "hazards": [
        "BR",
        "FG",
        "RA"
      ],
      "severityScore": 77,
      "metarRaw": "METAR LBPD 071430Z AUTO 32006KT 6000 OVC070/// 11/11 Q1006 TEMPO 5000 BR",
      "tafRaw": "TAF LBPD 071100Z 0712/0812 VRB03KT 3000 BR OVC004 \n  TEMPO 0712/0716 0800 BCFG OVC002 \n  BECMG 0716/0718 0500 FG VV002 \n  BECMG 0803/0805 29020KT 9999 NSW BKN030 OVC050 \n  PROB30 \n  TEMPO 0805/0808 5000 RA",
      "metarHtml": "METAR LBPD 071430Z AUTO 32006KT 6000 OVC070/// 11/11 Q1006 TEMPO 5000 <span class=\"hl\">BR</span>",
      "tafHtml": "TAF LBPD 071100Z 0712/0812 VRB03KT 3000 <span class=\"hl\">BR</span> OVC004 \n  TEMPO 0712/0716 <span class=\"hl-vis\">0800</span> BCFG OVC002 \n  BECMG 0716/0718 <span class=\"hl-vis\">0500</span> <span class=\"hl\">FG</span> VV002 \n  BECMG 0803/0805 29020KT 9999 NSW BKN030 OVC050 \n  PROB30 \n  TEMPO 0805/0808 5000 <span class=\"hl\">RA</span>"
    },
    {
      "icao": "EYPA",
      "iata": "PLQ",
      "name": "Palanga International Airport",
      "updatedAt": "071420Z",
      "visibility_m": 5000,
      "taf_visibility_m": 600,
      "worst_visibility_m": 600,
      "ceiling_ft": null,
      "hazards": [
        "BR",
        "FZFG",
        "SHSN"
      ],
      "severityScore": 75,
      "metarRaw": "METAR EYPA 071420Z 15005KT 5000 BR NSC M09/M09 Q1016",
      "tafRaw": "TAF EYPA 071100Z 0712/0812 VRB04KT 5000 BR SCT005 \n  TEMPO 0712/0715 1500 BKN002 \n  PROB40 \n  TEMPO 0712/0715 0600 FZFG \n  BECMG 0715/0718 0600 FZFG VV002 \n  TEMPO 0718/0722 1500 SHSN BKN002 BKN015CB \n  BECMG 0722/0724 5000 BR SCT005 BKN015 \n  TEMPO 0800/0809 1500 BKN003 \n  BECMG 0809/0810 8000 NSW BKN010",
      "metarHtml": "METAR EYPA 071420Z 15005KT 5000 <span class=\"hl\">BR</span> NSC M09/M09 Q1016",
      "tafHtml": "TAF EYPA 071100Z 0712/0812 VRB04KT 5000 <span class=\"hl\">BR</span> SCT005 \n  TEMPO 0712/0715 1500 BKN002 \n  PROB40 \n  TEMPO 0712/0715 <span class=\"hl-vis\">0600</span> <span class=\"hl\">FZFG</span> \n  BECMG 0715/0718 <span class=\"hl-vis\">0600</span> <span class=\"hl\">FZFG</span> VV002 \n  TEMPO 0718/0722 1500 <span class=\"hl\">SHSN</span> BKN002 BKN015CB \n  BECMG 0722/0724 5000 <span class=\"hl\">BR</span> SCT005 BKN015 \n  TEMPO 0800/0809 1500 BKN003 \n  BECMG 0809/0810 8000 NSW BKN010"
    },
    {
      "icao": "LEMD",
      "iata": "MAD",
      "name": "Adolfo Suárez Madrid–Barajas Airport",
      "updatedAt": "071430Z",
      "visibility_m": 10000,
      "taf_visibility_m": 300,
      "worst_visibility_m": 300,
      "ceiling_ft": null,
      "hazards": [
        "FZFG"
      ],
      "severityScore": 75,
      "metarRaw": "METAR LEMD 071430Z 14002KT 9999 FEW060 08/M00 Q1021 NOSIG",
      "tafRaw": "TAF LEMD 071100Z 0712/0818 25005KT CAVOK TX08/0715Z TNM02/0806Z \n  BECMG 0723/0801 BKN005 \n  PROB40 \n  TEMPO 0723/0810 1500 BCFG OVC002 \n  PROB30 0801/0809 0300 FZFG VV001 \n  TEMPO 0812/0818 22010KT BKN008",
      "metarHtml": "METAR LEMD 071430Z 14002KT 9999 FEW060 08/M00 Q1021 NOSIG",
      "tafHtml": "TAF LEMD 071100Z 0712/0818 25005KT <span class=\"hl-vis\">CAVOK</span> TX08/0715Z TNM02/0806Z \n  BECMG 0723/0801 BKN005 \n  PROB40 \n  TEMPO 0723/0810 1500 BCFG OVC002 \n  PROB30 0801/0809 <span class=\"hl-vis\">0300</span> <span class=\"hl\">FZFG</span> VV001 \n  TEMPO 0812/0818 22010KT BKN008"
    },
    {
      "icao": "LYNI",
      "iata": "INI",
      "name": "Niš Constantine the Great Airport",
      "updatedAt": "071430Z",
      "visibility_m": 10000,
      "taf_visibility_m": 2000,
      "worst_visibility_m": 2000,
      "ceiling_ft": 2000,
      "hazards": [
        "FZRA",
        "PL",
        "SN"
      ],
      "severityScore": 68,
      "metarRaw": "METAR LYNI 071430Z 34011KT 310V010 9999 SCT013 OVC020 M02/M04 Q1009 NOSIG",
      "tafRaw": "TAF LYNI 071100Z 0712/0812 34014KT 9999 SCT008 BKN012 BKN030 TXM01/0712Z TNM04/0806Z \n  TEMPO 0714/0718 FZRA BKN004 OVC025 \n  TEMPO 0718/0721 33017G27KT PL BKN004 OVC023 \n  BECMG 0720/0722 5000 -SN BKN008 OVC025 \n  TEMPO 0722/0803 2000 SN BKN004 OVC022 \n  BECMG 0804/0806 8000 NSW SCT017 BKN025",
      "metarHtml": "METAR LYNI 071430Z 34011KT 310V010 9999 SCT013 OVC020 M02/M04 Q1009 NOSIG",
      "tafHtml": "TAF LYNI 071100Z 0712/0812 34014KT 9999 SCT008 BKN012 BKN030 TXM01/0712Z TNM04/0806Z \n  TEMPO 0714/0718 <span class=\"hl\">FZRA</span> BKN004 OVC025 \n  TEMPO 0718/0721 33017G27KT <span class=\"hl\">PL</span> BKN004 OVC023 \n  BECMG 0720/0722 5000 -<span class=\"hl\">SN</span> BKN008 OVC025 \n  TEMPO 0722/0803 2000 <span class=\"hl\">SN</span> BKN004 OVC022 \n  BECMG 0804/0806 8000 NSW SCT017 BKN025"
    },
    {
      "icao": "EGBB",
      "iata": "BHX",
      "name": "Birmingham Airport",
      "updatedAt": "071420Z",
      "visibility_m": 10000,
      "taf_visibility_m": 600,
      "worst_visibility_m": 600,
      "ceiling_ft": null,
      "hazards": [
        "FG",
        "BR",
        "RA"
      ],
      "severityScore": 67,
      "metarRaw": "METAR EGBB 071420Z COR 29012KT 9999 VCSH SCT038CB 05/M02 Q1004",
      "tafRaw": "TAF EGBB 071105Z 0712/0812 28012KT 9999 SCT025 \n  PROB30 \n  TEMPO 0712/0715 30015G25KT \n  BECMG 0718/0721 22005KT \n  TEMPO 0721/0724 7000 -RA -RASN \n  TEMPO 0800/0804 8000 -RA BKN008 \n  PROB40 \n  TEMPO 0800/0804 3000 RADZ BKN004 \n  BECMG 0804/0808 BKN003 \n  PROB40 \n  TEMPO 0804/0810 0600 -RADZ FG BKN001 \n  TEMPO 0810/0812 3000 -RADZ BR",
      "metarHtml": "METAR EGBB 071420Z COR 29012KT 9999 VCSH SCT038CB 05/M02 Q1004",
      "tafHtml": "TAF EGBB 071105Z 0712/0812 28012KT 9999 SCT025 \n  PROB30 \n  TEMPO 0712/0715 30015G25KT \n  BECMG 0718/0721 22005KT \n  TEMPO 0721/0724 7000 -<span class=\"hl\">RA</span> -RASN \n  TEMPO 0800/0804 8000 -<span class=\"hl\">RA</span> BKN008 \n  PROB40 \n  TEMPO 0800/0804 3000 RADZ BKN004 \n  BECMG 0804/0808 BKN003 \n  PROB40 \n  TEMPO 0804/0810 <span class=\"hl-vis\">0600</span> -RADZ <span class=\"hl\">FG</span> BKN001 \n  TEMPO 0810/0812 3000 -RADZ <span class=\"hl\">BR</span>"
    },
    {
      "icao": "EHEH",
      "iata": "EIN",
      "name": "Eindhoven Airport",
      "updatedAt": "071425Z",
      "visibility_m": 2500,
      "taf_visibility_m": 2500,
      "worst_visibility_m": 2500,
      "ceiling_ft": 400,
      "hazards": [
        "SN",
        "RA"
      ],
      "severityScore": 65,
      "metarRaw": "METAR EHEH 071425Z AUTO 19014KT 9999 OVC016 M00/M03 Q1004 WHT TEMPO 19017G27KT 2500 -SN FEW002 BKN004 OVC008",
      "tafRaw": "TAF EHEH 071117Z 0712/0818 19015G25KT 2500 -SN FEW002 SCT005 BKN008 \n  BECMG 0713/0715 20013KT 7000 NSW SCT010 BKN015 \n  TEMPO 0713/0800 2500 -SN FEW003 BKN005 OVC008 \n  BECMG 0800/0802 24010KT FEW018 BKN022 \n  BECMG 0816/0818 4000 RA RASN SCT008 BKN012 OVC015",
      "metarHtml": "METAR EHEH 071425Z AUTO 19014KT 9999 OVC016 M00/M03 Q1004 WHT TEMPO 19017G27KT 2500 -<span class=\"hl\">SN</span> FEW002 BKN004 OVC008",
      "tafHtml": "TAF EHEH 071117Z 0712/0818 19015G25KT 2500 -<span class=\"hl\">SN</span> FEW002 SCT005 BKN008 \n  BECMG 0713/0715 20013KT 7000 NSW SCT010 BKN015 \n  TEMPO 0713/0800 2500 -<span class=\"hl\">SN</span> FEW003 BKN005 OVC008 \n  BECMG 0800/0802 24010KT FEW018 BKN022 \n  BECMG 0816/0818 4000 <span class=\"hl\">RA</span> RASN SCT008 BKN012 OVC015"
    },
    {
      "icao": "EPSY",
      "iata": "SZY",
      "name": "Olsztyn-Mazury Airport",
      "updatedAt": "071430Z",
      "visibility_m": 4000,
      "taf_visibility_m": 800,
      "worst_visibility_m": 800,
      "ceiling_ft": null,
      "hazards": [
        "BR",
        "FZFG"
      ],
      "severityScore": 65,
      "metarRaw": "METAR EPSY 071430Z VRB02KT 4000 BR NSC M12/M13 Q1016",
      "tafRaw": "TAF EPSY 071430Z 0715/0724 VRB02KT 3000 BR NSC \n  TEMPO 0715/0722 1400 BR \n  PROB40 0716/0722 0800 FZFG OVC001",
      "metarHtml": "METAR EPSY 071430Z VRB02KT 4000 <span class=\"hl\">BR</span> NSC M12/M13 Q1016",
      "tafHtml": "TAF EPSY 071430Z 0715/0724 VRB02KT 3000 <span class=\"hl\">BR</span> NSC \n  TEMPO 0715/0722 1400 <span class=\"hl\">BR</span> \n  PROB40 0716/0722 <span class=\"hl-vis\">0800</span> <span class=\"hl\">FZFG</span> OVC001"
    },
    {
      "icao": "LFLS",
      "iata": "GNB",
      "name": "Grenoble Alpes Isère Airport",
      "updatedAt": "071430Z",
      "visibility_m": 1200,
      "taf_visibility_m": 1200,
      "worst_visibility_m": 1200,
      "ceiling_ft": 900,
      "hazards": [
        "SN",
        "RA"
      ],
      "severityScore": 65,
      "metarRaw": "METAR LFLS 071430Z AUTO 11004KT 9999 FEW050 OVC060 M01/M07 Q1014 TEMPO 1200 SN BKN009",
      "tafRaw": "TAF LFLS 071400Z 0715/0815 VRB05KT CAVOK \n  BECMG 0715/0716 4000 -SN OVC040 \n  TEMPO 0716/0718 1200 SN BKN009 \n  FM071800 08005KT 9999 BKN030 \n  PROB30 \n  TEMPO 0718/0720 4000 -SN \n  BECMG 0802/0804 4000 -SN \n  TEMPO 0804/0808 1200 SN BKN009 \n  PROB40 \n  TEMPO 0807/0808 9999 -RA \n  FM080800 08006KT 9999 -RA OVC030 \n  TEMPO 0808/0815 20010KT 4000 RA BKN012",
      "metarHtml": "METAR LFLS 071430Z AUTO 11004KT 9999 FEW050 OVC060 M01/M07 Q1014 TEMPO 1200 <span class=\"hl\">SN</span> BKN009",
      "tafHtml": "TAF LFLS 071400Z 0715/0815 VRB05KT <span class=\"hl-vis\">CAVOK</span> \n  BECMG 0715/0716 4000 -<span class=\"hl\">SN</span> OVC040 \n  TEMPO 0716/0718 1200 <span class=\"hl\">SN</span> BKN009 \n  FM071800 08005KT 9999 BKN030 \n  PROB30 \n  TEMPO 0718/0720 4000 -<span class=\"hl\">SN</span> \n  BECMG 0802/0804 4000 -<span class=\"hl\">SN</span> \n  TEMPO 0804/0808 1200 <span class=\"hl\">SN</span> BKN009 \n  PROB40 \n  TEMPO 0807/0808 9999 -<span class=\"hl\">RA</span> \n  FM080800 08006KT 9999 -<span class=\"hl\">RA</span> OVC030 \n  TEMPO 0808/0815 20010KT 4000 <span class=\"hl\">RA</span> BKN012"
    },
    {
      "icao": "LRCL",
      "iata": "CLJ",
      "name": "Cluj Avram Iancu International Airport",
      "updatedAt": "071430Z",
      "visibility_m": 10000,
      "taf_visibility_m": 3000,
      "worst_visibility_m": 3000,
      "ceiling_ft": 1100,
      "hazards": [
        "FZRA",
        "SN"
      ],
      "severityScore": 65,
      "metarRaw": "METAR LRCL 071430Z 01003KT 340V050 9999 BKN011 OVC023 M00/M02 Q1009",
      "tafRaw": "TAF LRCL 071400Z 0715/0724 36009KT 9999 BKN010 BKN035 \n  PROB30 \n  TEMPO 0715/0718 5000 -FZRA BKN005 OVC020 \n  BECMG 0719/0721 3000 SN BKN002 OVC015",
      "metarHtml": "METAR LRCL 071430Z 01003KT 340V050 9999 BKN011 OVC023 M00/M02 Q1009",
      "tafHtml": "TAF LRCL 071400Z 0715/0724 36009KT 9999 BKN010 BKN035 \n  PROB30 \n  TEMPO 0715/0718 5000 -<span class=\"hl\">FZRA</span> BKN005 OVC020 \n  BECMG 0719/0721 3000 <span class=\"hl\">SN</span> BKN002 OVC015"
    },
    {
      "icao": "LRTM",
      "iata": "TGM",
      "name": "Târgu Mureş Transilvania International Airport",
      "updatedAt": "071430Z",
      "visibility_m": 10000,
      "taf_visibility_m": 3000,
      "worst_visibility_m": 3000,
      "ceiling_ft": 1300,
      "hazards": [
        "FZRA",
        "SN"
      ],
      "severityScore": 65,
      "metarRaw": "METAR LRTM 071430Z 29003KT 250V320 9999 FEW007 SCT009 BKN013 01/M00 Q1008",
      "tafRaw": "TAF LRTM 071400Z 0715/0724 VRB04KT 9999 BKN010 BKN035 \n  PROB40 \n  TEMPO 0715/0720 5000 -FZRA BKN005 OVC020 \n  BECMG 0721/0723 29010KT 3000 SN BKN002 OVC015",
      "metarHtml": "METAR LRTM 071430Z 29003KT 250V320 9999 FEW007 SCT009 BKN013 01/M00 Q1008",
      "tafHtml": "TAF LRTM 071400Z 0715/0724 VRB04KT 9999 BKN010 BKN035 \n  PROB40 \n  TEMPO 0715/0720 5000 -<span class=\"hl\">FZRA</span> BKN005 OVC020 \n  BECMG 0721/0723 29010KT 3000 <span class=\"hl\">SN</span> BKN002 OVC015"
    },
    {
      "icao": "LIBR",
      "iata": "BDS",
      "name": "Brindisi Airport",
      "updatedAt": "071420Z",
      "visibility_m": 9000,
      "taf_visibility_m": 3000,
      "worst_visibility_m": 3000,
      "ceiling_ft": 800,
      "hazards": [
        "TSRA",
        "RA"
      ],
      "severityScore": 62,
      "metarRaw": "METAR LIBR 071420Z 34007KT 9000 BKN008 OVC030 11/10 Q1003",
      "tafRaw": "TAF LIBR 071100Z 0712/0812 33008KT 6000 RA BKN016 \n  PROB40 \n  TEMPO 0712/0718 3000 TSRA \n  BECMG 0712/0714 33018KT \n  BECMG 0802/0804 NSW SCT030",
      "metarHtml": "METAR LIBR 071420Z 34007KT 9000 BKN008 OVC030 11/10 Q1003",
      "tafHtml": "TAF LIBR 071100Z 0712/0812 33008KT 6000 <span class=\"hl\">RA</span> BKN016 \n  PROB40 \n  TEMPO 0712/0718 3000 <span class=\"hl\">TSRA</span> \n  BECMG 0712/0714 33018KT \n  BECMG 0802/0804 NSW SCT030"
    },
    {
      "icao": "EPMO",
      "iata": "WMI",
      "name": "Modlin Airport",
      "updatedAt": "071430Z",
      "visibility_m": 1100,
      "taf_visibility_m": null,
      "worst_visibility_m": 1100,
      "ceiling_ft": 100,
      "hazards": [
        "BR"
      ],
      "severityScore": 60,
      "metarRaw": "METAR EPMO 071430Z VRB02KT 1100 R08/1500N BR OVC001 M09/M09 Q1016",
      "tafRaw": null,
      "metarHtml": "METAR EPMO 071430Z VRB02KT 1100 R08/1500N <span class=\"hl\">BR</span> OVC001 M09/M09 Q1016",
      "tafHtml": null
    },
    {
      "icao": "EGGW",
      "iata": "LTN",
      "name": "London Luton Airport",
      "updatedAt": "071420Z",
      "visibility_m": 10000,
      "taf_visibility_m": 800,
      "worst_visibility_m": 800,
      "ceiling_ft": null,
      "hazards": [
        "FG",
        "BR"
      ],
      "severityScore": 55,
      "metarRaw": "METAR EGGW 071420Z AUTO 29017KT 9999 SCT038 05/M01 Q1003",
      "tafRaw": "TAF EGGW 071056Z 0712/0812 28012KT 9999 SCT030 \n  TEMPO 0712/0718 29016G26KT \n  BECMG 0801/0804 VRB04KT BKN008 \n  TEMPO 0803/0812 4000 RADZ BR BKN003 \n  PROB40 \n  TEMPO 0805/0811 0800 FG BKN001",
      "metarHtml": "METAR EGGW 071420Z AUTO 29017KT 9999 SCT038 05/M01 Q1003",
      "tafHtml": "TAF EGGW 071056Z 0712/0812 28012KT 9999 SCT030 \n  TEMPO 0712/0718 29016G26KT \n  BECMG 0801/0804 VRB04KT BKN008 \n  TEMPO 0803/0812 4000 RADZ <span class=\"hl\">BR</span> BKN003 \n  PROB40 \n  TEMPO 0805/0811 <span class=\"hl-vis\">0800</span> <span class=\"hl\">FG</span> BKN001"
    },
    {
      "icao": "EDDK",
      "iata": "CGN",
      "name": "Cologne Bonn Airport",
      "updatedAt": "071420Z",
      "visibility_m": 2000,
      "taf_visibility_m": 1200,
      "worst_visibility_m": 1200,
      "ceiling_ft": 800,
      "hazards": [
        "SN"
      ],
      "severityScore": 53,
      "metarRaw": "METAR EDDK 071420Z AUTO 17012KT 9999 FEW017 BKN036 OVC047 M01/M05 Q1008 TEMPO 2000 SN BKN008",
      "tafRaw": "TAF EDDK 071100Z 0712/0818 15012KT 9999 SCT020 BKN030 \n  TEMPO 0712/0801 4000 -SN \n  PROB30 \n  TEMPO 0713/0721 1200 SN BKN005 \n  BECMG 0718/0721 16006KT \n  PROB30 \n  TEMPO 0815/0818 4500 -DZRA BKN010",
      "metarHtml": "METAR EDDK 071420Z AUTO 17012KT 9999 FEW017 BKN036 OVC047 M01/M05 Q1008 TEMPO 2000 <span class=\"hl\">SN</span> BKN008",
      "tafHtml": "TAF EDDK 071100Z 0712/0818 15012KT 9999 SCT020 BKN030 \n  TEMPO 0712/0801 4000 -<span class=\"hl\">SN</span> \n  PROB30 \n  TEMPO 0713/0721 1200 <span class=\"hl\">SN</span> BKN005 \n  BECMG 0718/0721 16006KT \n  PROB30 \n  TEMPO 0815/0818 4500 -DZRA BKN010"
    },
    {
      "icao": "ENGM",
      "iata": "OSL",
      "name": "Oslo-Gardermoen International Airport",
      "updatedAt": "071420Z",
      "visibility_m": 10000,
      "taf_visibility_m": 500,
      "worst_visibility_m": 500,
      "ceiling_ft": null,
      "hazards": [
        "SN"
      ],
      "severityScore": 53,
      "metarRaw": "METAR ENGM 071420Z 04004KT 9999 -SN FEW011 SCT031 M09/M11 Q1007 NOSIG",
      "tafRaw": "TAF ENGM 071100Z 0712/0812 01003KT 9999 FEW015 BKN020 \n  TEMPO 0715/0718 BKN014 \n  BECMG 0718/0720 02013KT 4000 -SN OVC014 \n  TEMPO 0720/0808 0500 SN VV003 \n  BECMG 0808/0811 27005KT 9999 NSW FEW010",
      "metarHtml": "METAR ENGM 071420Z 04004KT 9999 -<span class=\"hl\">SN</span> FEW011 SCT031 M09/M11 Q1007 NOSIG",
      "tafHtml": "TAF ENGM 071100Z 0712/0812 01003KT 9999 FEW015 BKN020 \n  TEMPO 0715/0718 BKN014 \n  BECMG 0718/0720 02013KT 4000 -<span class=\"hl\">SN</span> OVC014 \n  TEMPO 0720/0808 <span class=\"hl-vis\">0500</span> <span class=\"hl\">SN</span> VV003 \n  BECMG 0808/0811 27005KT 9999 NSW FEW010"
    },
    {
      "icao": "LQSA",
      "iata": "SJJ",
      "name": "Sarajevo International Airport",
      "updatedAt": "071430Z",
      "visibility_m": 6000,
      "taf_visibility_m": 500,
      "worst_visibility_m": 500,
      "ceiling_ft": 3500,
      "hazards": [
        "SN"
      ],
      "severityScore": 53,
      "metarRaw": "METAR LQSA 071430Z 31004KT 6000 -SN FEW018 SCT025 OVC035 M03/M04 Q1008 NOSIG",
      "tafRaw": "TAF LQSA 071100Z 0712/0812 29005KT 7000 -SN SCT012 OVC030 TXM03/0712Z TNM07/0806Z \n  TEMPO 0712/0806 1500 SN BKN004 OVC015 \n  PROB30 \n  TEMPO 0713/0718 35012KT 0500 +SN \n  PROB40 \n  TEMPO 0800/0810 35010KT",
      "metarHtml": "METAR LQSA 071430Z 31004KT 6000 -<span class=\"hl\">SN</span> FEW018 SCT025 OVC035 M03/M04 Q1008 NOSIG",
      "tafHtml": "TAF LQSA 071100Z 0712/0812 29005KT 7000 -<span class=\"hl\">SN</span> SCT012 OVC030 TXM03/0712Z TNM07/0806Z \n  TEMPO 0712/0806 1500 <span class=\"hl\">SN</span> BKN004 OVC015 \n  PROB30 \n  TEMPO 0713/0718 35012KT <span class=\"hl-vis\">0500</span> +<span class=\"hl\">SN</span> \n  PROB40 \n  TEMPO 0800/0810 35010KT"
    },
    {
      "icao": "LQTZ",
      "iata": "TZL",
      "name": "Tuzla International Airport",
      "updatedAt": "071430Z",
      "visibility_m": 6000,
      "taf_visibility_m": 800,
      "worst_visibility_m": 800,
      "ceiling_ft": 3500,
      "hazards": [
        "BR",
        "SN"
      ],
      "severityScore": 53,
      "metarRaw": "METAR LQTZ 071430Z 30004KT 6000 FEW010 SCT020 OVC035 M03/M04 Q1011",
      "tafRaw": "TAF LQTZ 071100Z 0712/0812 27007KT 9999 SCT010 BKN020 OVC040 TXM01/0812Z TNM05/0805Z \n  TEMPO 0712/0802 3000 SN BR BKN008 OVC020 \n  PROB40 \n  TEMPO 0716/0724 0800 +SN BKN003 OVC008 \n  TEMPO 0802/0812 33012KT \n  PROB30 \n  TEMPO 0802/0808 5000 -SN BKN012 OVC035",
      "metarHtml": "METAR LQTZ 071430Z 30004KT 6000 FEW010 SCT020 OVC035 M03/M04 Q1011",
      "tafHtml": "TAF LQTZ 071100Z 0712/0812 27007KT 9999 SCT010 BKN020 OVC040 TXM01/0812Z TNM05/0805Z \n  TEMPO 0712/0802 3000 <span class=\"hl\">SN</span> <span class=\"hl\">BR</span> BKN008 OVC020 \n  PROB40 \n  TEMPO 0716/0724 <span class=\"hl-vis\">0800</span> +<span class=\"hl\">SN</span> BKN003 OVC008 \n  TEMPO 0802/0812 33012KT \n  PROB30 \n  TEMPO 0802/0808 5000 -<span class=\"hl\">SN</span> BKN012 OVC035"
    },
    {
      "icao": "EETN",
      "iata": "TLL",
      "name": "Lennart Meri Tallinn Airport",
      "updatedAt": "071420Z",
      "visibility_m": 10000,
      "taf_visibility_m": 1200,
      "worst_visibility_m": 1200,
      "ceiling_ft": 1400,
      "hazards": [
        "BR",
        "SN"
      ],
      "severityScore": 50,
      "metarRaw": "METAR EETN 071420Z VRB01KT 9999 FEW017 BKN024 M07/M08 Q1015 TEMPO BKN014",
      "tafRaw": "TAF EETN 071130Z 0712/0812 VRB02KT 9999 BKN018 \n  PROB30 \n  TEMPO 0712/0717 1200 BR BKN004 \n  PROB40 \n  TEMPO 0717/0806 2000 SN BR SCT003 BKN012",
      "metarHtml": "METAR EETN 071420Z VRB01KT 9999 FEW017 BKN024 M07/M08 Q1015 TEMPO BKN014",
      "tafHtml": "TAF EETN 071130Z 0712/0812 VRB02KT 9999 BKN018 \n  PROB30 \n  TEMPO 0712/0717 1200 <span class=\"hl\">BR</span> BKN004 \n  PROB40 \n  TEMPO 0717/0806 2000 <span class=\"hl\">SN</span> <span class=\"hl\">BR</span> SCT003 BKN012"
    },
    {
      "icao": "EHBK",
      "iata": "MST",
      "name": "Maastricht Aachen Airport",
      "updatedAt": "071425Z",
      "visibility_m": 10000,
      "taf_visibility_m": 1000,
      "worst_visibility_m": 1000,
      "ceiling_ft": 2500,
      "hazards": [
        "SN",
        "RA",
        "SHSN"
      ],
      "severityScore": 50,
      "metarRaw": "METAR EHBK 071425Z AUTO 20021KT 9999 OVC025 M01/M04 Q1005 NOSIG",
      "tafRaw": "TAF EHBK 071124Z 0712/0818 20017KT 2500 -SN BKN025 \n  PROB30 \n  TEMPO 0712/0713 1000 SN \n  BECMG 0713/0715 9999 NSW \n  TEMPO 0715/0724 3000 -SHSN SCT008 BKN012 FEW018CB \n  BECMG 0720/0723 23010KT \n  BECMG 0804/0807 20007KT \n  BECMG 0815/0818 7000 -RA",
      "metarHtml": "METAR EHBK 071425Z AUTO 20021KT 9999 OVC025 M01/M04 Q1005 NOSIG",
      "tafHtml": "TAF EHBK 071124Z 0712/0818 20017KT 2500 -<span class=\"hl\">SN</span> BKN025 \n  PROB30 \n  TEMPO 0712/0713 1000 <span class=\"hl\">SN</span> \n  BECMG 0713/0715 9999 NSW \n  TEMPO 0715/0724 3000 -<span class=\"hl\">SHSN</span> SCT008 BKN012 FEW018CB \n  BECMG 0720/0723 23010KT \n  BECMG 0804/0807 20007KT \n  BECMG 0815/0818 7000 -<span class=\"hl\">RA</span>"
    },
    {
      "icao": "LFBD",
      "iata": "BOD",
      "name": "Bordeaux–Mérignac Airport",
      "updatedAt": "071430Z",
      "visibility_m": 10000,
      "taf_visibility_m": 2500,
      "worst_visibility_m": 2500,
      "ceiling_ft": null,
      "hazards": [
        "FZRA",
        "SHRA"
      ],
      "severityScore": 49,
      "metarRaw": "METAR LFBD 071430Z AUTO VRB02KT 9999 FEW015/// SCT047/// BKN100/// ///TCU 07/06 Q1015",
      "tafRaw": "TAF LFBD 070500Z 0706/0812 19005KT CAVOK TX10/0800Z TNM01/0706Z \n  PROB30 \n  TEMPO 0706/0709 FZRA \n  BECMG 0707/0709 20010KT CAVOK \n  TEMPO 0710/0719 4500 -SHRA FEW025TCU \n  PROB40 \n  TEMPO 0712/0713 2500 SHRA BKN030TCU",
      "metarHtml": "METAR LFBD 071430Z AUTO VRB02KT 9999 FEW015/// SCT047/// BKN100/// ///TCU 07/06 Q1015",
      "tafHtml": "TAF LFBD 070500Z 0706/0812 19005KT <span class=\"hl-vis\">CAVOK</span> TX10/0800Z TNM01/0706Z \n  PROB30 \n  TEMPO 0706/0709 <span class=\"hl\">FZRA</span> \n  BECMG 0707/0709 20010KT <span class=\"hl-vis\">CAVOK</span> \n  TEMPO 0710/0719 4500 -<span class=\"hl\">SHRA</span> FEW025TCU \n  PROB40 \n  TEMPO 0712/0713 2500 <span class=\"hl\">SHRA</span> BKN030TCU"
    },
    {
      "icao": "EGPD",
      "iata": "ABZ",
      "name": "Aberdeen International Airport",
      "updatedAt": "071420Z",
      "visibility_m": 10000,
      "taf_visibility_m": 2000,
      "worst_visibility_m": 2000,
      "ceiling_ft": 1400,
      "hazards": [
        "SHRA",
        "BR",
        "RA"
      ],
      "severityScore": 48,
      "metarRaw": "METAR EGPD 071420Z AUTO 31008KT 9999 SCT025/// BKN034/// //////TCU 02/00 Q1002 TEMPO SHRA BKN014",
      "tafRaw": "TAF EGPD 071102Z 0712/0812 03009KT 9999 BKN024 \n  TEMPO 0712/0724 6000 -RA BKN014 \n  PROB30 \n  TEMPO 0712/0724 2000 RASN BKN004 \n  PROB30 \n  TEMPO 0800/0808 4000 BR BKN004",
      "metarHtml": "METAR EGPD 071420Z AUTO 31008KT 9999 SCT025/// BKN034/// //////TCU 02/00 Q1002 TEMPO <span class=\"hl\">SHRA</span> BKN014",
      "tafHtml": "TAF EGPD 071102Z 0712/0812 03009KT 9999 BKN024 \n  TEMPO 0712/0724 6000 -<span class=\"hl\">RA</span> BKN014 \n  PROB30 \n  TEMPO 0712/0724 2000 RASN BKN004 \n  PROB30 \n  TEMPO 0800/0808 4000 <span class=\"hl\">BR</span> BKN004"
    },
    {
      "icao": "EDLW",
      "iata": "DTM",
      "name": "Dortmund Airport",
      "updatedAt": "071420Z",
      "visibility_m": 9000,
      "taf_visibility_m": 700,
      "worst_visibility_m": 700,
      "ceiling_ft": null,
      "hazards": [
        "SN"
      ],
      "severityScore": 43,
      "metarRaw": "METAR EDLW 071420Z 18019KT 9000 VCSH FEW036 M01/M05 Q1005",
      "tafRaw": "TAF EDLW 071100Z 0712/0812 18015G25KT 9999 SCT015 BKN030 \n  TEMPO 0713/0802 4000 -SN \n  PROB30 \n  TEMPO 0713/0715 18020G30KT DRSN \n  PROB40 \n  TEMPO 0713/0723 0700 SN BKN004 \n  BECMG 0716/0720 20011KT \n  BECMG 0723/0802 BKN012 \n  BECMG 0807/0811 BKN020",
      "metarHtml": "METAR EDLW 071420Z 18019KT 9000 VCSH FEW036 M01/M05 Q1005",
      "tafHtml": "TAF EDLW 071100Z 0712/0812 18015G25KT 9999 SCT015 BKN030 \n  TEMPO 0713/0802 4000 -<span class=\"hl\">SN</span> \n  PROB30 \n  TEMPO 0713/0715 18020G30KT DRSN \n  PROB40 \n  TEMPO 0713/0723 <span class=\"hl-vis\">0700</span> <span class=\"hl\">SN</span> BKN004 \n  BECMG 0716/0720 20011KT \n  BECMG 0723/0802 BKN012 \n  BECMG 0807/0811 BKN020"
    },
    {
      "icao": "LHDC",
      "iata": "DEB",
      "name": "Debrecen International Airport",
      "updatedAt": "071415Z",
      "visibility_m": 6000,
      "taf_visibility_m": 600,
      "worst_visibility_m": 600,
      "ceiling_ft": 3000,
      "hazards": [
        "SN"
      ],
      "severityScore": 43,
      "metarRaw": "METAR LHDC 071415Z AUTO 36006KT 330V030 9999 OVC030 M01/M06 Q1011 BECMG 6000 -SN",
      "tafRaw": "TAF LHDC 071415Z 0715/0724 36006KT 9999 OVC025 \n  TEMPO 0715/0718 4000 -SN BKN006 OVC020 \n  BECMG 0718/0721 1400 SN BKN004 OVC015 \n  TEMPO 0721/0724 36012KT DRSN \n  PROB40 \n  TEMPO 0721/0724 0600 +SN VV001",
      "metarHtml": "METAR LHDC 071415Z AUTO 36006KT 330V030 9999 OVC030 M01/M06 Q1011 BECMG 6000 -<span class=\"hl\">SN</span>",
      "tafHtml": "TAF LHDC 071415Z 0715/0724 36006KT 9999 OVC025 \n  TEMPO 0715/0718 4000 -<span class=\"hl\">SN</span> BKN006 OVC020 \n  BECMG 0718/0721 1400 <span class=\"hl\">SN</span> BKN004 OVC015 \n  TEMPO 0721/0724 36012KT DRSN \n  PROB40 \n  TEMPO 0721/0724 <span class=\"hl-vis\">0600</span> +<span class=\"hl\">SN</span> VV001"
    },
    {
      "icao": "EPKT",
      "iata": "KTW",
      "name": "Katowice Wojciech Korfanty International Airport",
      "updatedAt": "071430Z",
      "visibility_m": 10000,
      "taf_visibility_m": 4000,
      "worst_visibility_m": 4000,
      "ceiling_ft": 1800,
      "hazards": [
        "BR",
        "SN"
      ],
      "severityScore": 40,
      "metarRaw": "METAR EPKT 071430Z 04002KT 9999 OVC018 M04/M09 Q1014",
      "tafRaw": "TAF EPKT 071130Z 0712/0812 04005KT 9999 BKN018 \n  TEMPO 0712/0717 BKN013 \n  BECMG 0717/0720 BKN013 \n  TEMPO 0720/0811 4000 -SN BR BKN008 BKN013",
      "metarHtml": "METAR EPKT 071430Z 04002KT 9999 OVC018 M04/M09 Q1014",
      "tafHtml": "TAF EPKT 071130Z 0712/0812 04005KT 9999 BKN018 \n  TEMPO 0712/0717 BKN013 \n  BECMG 0717/0720 BKN013 \n  TEMPO 0720/0811 4000 -<span class=\"hl\">SN</span> <span class=\"hl\">BR</span> BKN008 BKN013"
    },
    {
      "icao": "LFLL",
      "iata": "LYS",
      "name": "Lyon Saint-Exupéry Airport",
      "updatedAt": "071430Z",
      "visibility_m": 10000,
      "taf_visibility_m": 2000,
      "worst_visibility_m": 2000,
      "ceiling_ft": null,
      "hazards": [
        "BR",
        "SN",
        "RA"
      ],
      "severityScore": 40,
      "metarRaw": "METAR LFLL 071430Z 14009KT CAVOK M00/M07 Q1014 NOSIG",
      "tafRaw": "TAF LFLL 071100Z 0712/0818 16005KT CAVOK \n  BECMG 0713/0715 BKN033 \n  TEMPO 0715/0720 2000 -SN OVC004 \n  PROB30 \n  TEMPO 0720/0724 3000 BR BKN009 \n  TEMPO 0804/0809 2000 SN OVC004 \n  TEMPO 0809/0814 RA \n  BECMG 0814/0816 18013KT",
      "metarHtml": "METAR LFLL 071430Z 14009KT <span class=\"hl-vis\">CAVOK</span> M00/M07 Q1014 NOSIG",
      "tafHtml": "TAF LFLL 071100Z 0712/0818 16005KT <span class=\"hl-vis\">CAVOK</span> \n  BECMG 0713/0715 BKN033 \n  TEMPO 0715/0720 2000 -<span class=\"hl\">SN</span> OVC004 \n  PROB30 \n  TEMPO 0720/0724 3000 <span class=\"hl\">BR</span> BKN009 \n  TEMPO 0804/0809 2000 <span class=\"hl\">SN</span> OVC004 \n  TEMPO 0809/0814 <span class=\"hl\">RA</span> \n  BECMG 0814/0816 18013KT"
    },
    {
      "icao": "LTFM",
      "iata": "IST",
      "name": "İstanbul Airport",
      "updatedAt": "071420Z",
      "visibility_m": 10000,
      "taf_visibility_m": 4000,
      "worst_visibility_m": 4000,
      "ceiling_ft": 8000,
      "hazards": [
        "SHRA",
        "TSRA"
      ],
      "severityScore": 39,
      "metarRaw": "METAR LTFM 071420Z 21016KT 9999 -SHRA SCT040 BKN080 17/09 Q1010 NOSIG RMK RWY17L 21016KT RWY34L 19013KT RWY16R 20013KT RWY36 21017KT RWY18 22018KT",
      "tafRaw": "TAF LTFM 071040Z 0712/0818 20015G25KT 9999 SCT040 BKN080 \n  BECMG 0712/0715 19012KT \n  TEMPO 0713/0717 -SHRA BKN028 \n  BECMG 0718/0721 19017G33KT \n  TEMPO 0718/0722 -SHRA BKN028 BKN070 \n  BECMG 0722/0801 20028G44KT -SHRA BKN028 BKN080 \n  TEMPO 0804/0808 20032G54KT 4000 TSRA SCT017CB BKN025 \n  BECMG 0808/0810 22020G34KT SCT032 BKN090 \n  BECMG 0813/0816 28015G25KT \n  PROB30 \n  TEMPO 0815/0818 4000 TSRA SCT017CB BKN025",
      "metarHtml": "METAR LTFM 071420Z 21016KT 9999 -<span class=\"hl\">SHRA</span> SCT040 BKN080 17/09 Q1010 NOSIG RMK RWY17L 21016KT RWY34L 19013KT RWY16R 20013KT RWY36 21017KT RWY18 22018KT",
      "tafHtml": "TAF LTFM 071040Z 0712/0818 20015G25KT 9999 SCT040 BKN080 \n  BECMG 0712/0715 19012KT \n  TEMPO 0713/0717 -<span class=\"hl\">SHRA</span> BKN028 \n  BECMG 0718/0721 19017G33KT \n  TEMPO 0718/0722 -<span class=\"hl\">SHRA</span> BKN028 BKN070 \n  BECMG 0722/0801 20028G44KT -<span class=\"hl\">SHRA</span> BKN028 BKN080 \n  TEMPO 0804/0808 20032G54KT 4000 <span class=\"hl\">TSRA</span> SCT017CB BKN025 \n  BECMG 0808/0810 22020G34KT SCT032 BKN090 \n  BECMG 0813/0816 28015G25KT \n  PROB30 \n  TEMPO 0815/0818 4000 <span class=\"hl\">TSRA</span> SCT017CB BKN025"
    },
    {
      "icao": "EDFH",
      "iata": "HHN",
      "name": "Frankfurt-Hahn Airport",
      "updatedAt": "071420Z",
      "visibility_m": 7000,
      "taf_visibility_m": 1000,
      "worst_visibility_m": 1000,
      "ceiling_ft": 4800,
      "hazards": [
        "SN",
        "BR"
      ],
      "severityScore": 38,
      "metarRaw": "METAR EDFH 071420Z 20010KT 7000 -SN FEW022 BKN048 M04/M07 Q1007",
      "tafRaw": "TAF EDFH 071100Z 0712/0812 21013KT 9999 SCT010 \n  PROB30 \n  TEMPO 0712/0715 20015G25KT \n  BECMG 0714/0717 BKN010 \n  TEMPO 0714/0723 3000 -SN \n  PROB40 \n  TEMPO 0714/0718 1000 SN \n  BECMG 0718/0721 BKN005 \n  BECMG 0721/0724 24008KT 4500 BR BKN003",
      "metarHtml": "METAR EDFH 071420Z 20010KT 7000 -<span class=\"hl\">SN</span> FEW022 BKN048 M04/M07 Q1007",
      "tafHtml": "TAF EDFH 071100Z 0712/0812 21013KT 9999 SCT010 \n  PROB30 \n  TEMPO 0712/0715 20015G25KT \n  BECMG 0714/0717 BKN010 \n  TEMPO 0714/0723 3000 -<span class=\"hl\">SN</span> \n  PROB40 \n  TEMPO 0714/0718 1000 <span class=\"hl\">SN</span> \n  BECMG 0718/0721 BKN005 \n  BECMG 0721/0724 24008KT 4500 <span class=\"hl\">BR</span> BKN003"
    },
    {
      "icao": "EKBI",
      "iata": "BLL",
      "name": "Billund Airport",
      "updatedAt": "071420Z",
      "visibility_m": 3700,
      "taf_visibility_m": 1200,
      "worst_visibility_m": 1200,
      "ceiling_ft": null,
      "hazards": [
        "SN",
        "BR"
      ],
      "severityScore": 38,
      "metarRaw": "METAR EKBI 071420Z AUTO 16012KT 3700 -SN OVC008/// M01/M02 Q1002",
      "tafRaw": "TAF EKBI 071427Z 0715/0815 17010KT 5000 -SN SCT005 BKN010 \n  TEMPO 0715/0804 17015G25KT 1200 SN DRSN BKN004 \n  TEMPO 0804/0815 3000 BR BKN004",
      "metarHtml": "METAR EKBI 071420Z AUTO 16012KT 3700 -<span class=\"hl\">SN</span> OVC008/// M01/M02 Q1002",
      "tafHtml": "TAF EKBI 071427Z 0715/0815 17010KT 5000 -<span class=\"hl\">SN</span> SCT005 BKN010 \n  TEMPO 0715/0804 17015G25KT 1200 <span class=\"hl\">SN</span> DRSN BKN004 \n  TEMPO 0804/0815 3000 <span class=\"hl\">BR</span> BKN004"
    },
    {
      "icao": "EPLB",
      "iata": "LUZ",
      "name": "Lublin Airport",
      "updatedAt": "071430Z",
      "visibility_m": 2800,
      "taf_visibility_m": 1000,
      "worst_visibility_m": 1000,
      "ceiling_ft": 4600,
      "hazards": [
        "BR",
        "SN"
      ],
      "severityScore": 38,
      "metarRaw": "METAR EPLB 071430Z 36003KT 2800 -SN BR BKN046 M04/M05 Q1014",
      "tafRaw": "TAF EPLB 071130Z 0712/0812 02007KT 3500 -SN BR SCT020 BKN045 \n  PROB40 \n  TEMPO 0712/0713 2800 -SN BR \n  TEMPO 0714/0721 6000 \n  BECMG 0722/0801 BKN012 \n  TEMPO 0803/0812 1000 SN BKN007",
      "metarHtml": "METAR EPLB 071430Z 36003KT 2800 -<span class=\"hl\">SN</span> <span class=\"hl\">BR</span> BKN046 M04/M05 Q1014",
      "tafHtml": "TAF EPLB 071130Z 0712/0812 02007KT 3500 -<span class=\"hl\">SN</span> <span class=\"hl\">BR</span> SCT020 BKN045 \n  PROB40 \n  TEMPO 0712/0713 2800 -<span class=\"hl\">SN</span> <span class=\"hl\">BR</span> \n  TEMPO 0714/0721 6000 \n  BECMG 0722/0801 BKN012 \n  TEMPO 0803/0812 1000 <span class=\"hl\">SN</span> BKN007"
    },
    {
      "icao": "ESGG",
      "iata": "GOT",
      "name": "Göteborg Landvetter Airport",
      "updatedAt": "071420Z",
      "visibility_m": 10000,
      "taf_visibility_m": 1200,
      "worst_visibility_m": 1200,
      "ceiling_ft": 3200,
      "hazards": [
        "SN",
        "SHSN"
      ],
      "severityScore": 38,
      "metarRaw": "METAR ESGG 071420Z 16005KT 9999 OVC032 M01/M03 Q1005",
      "tafRaw": "TAF ESGG 071430Z 0715/0815 16009KT 5000 -SN SCT005 BKN015 \n  BECMG 0718/0720 16015G25KT \n  TEMPO 0715/0815 1200 SHSN BKN006 BKN020CB \n  BECMG 0810/0812 18005KT",
      "metarHtml": "METAR ESGG 071420Z 16005KT 9999 OVC032 M01/M03 Q1005",
      "tafHtml": "TAF ESGG 071430Z 0715/0815 16009KT 5000 -<span class=\"hl\">SN</span> SCT005 BKN015 \n  BECMG 0718/0720 16015G25KT \n  TEMPO 0715/0815 1200 <span class=\"hl\">SHSN</span> BKN006 BKN020CB \n  BECMG 0810/0812 18005KT"
    },
    {
      "icao": "LATI",
      "iata": "TIA",
      "name": "Tirana International Airport Mother Teresa",
      "updatedAt": "071420Z",
      "visibility_m": 6000,
      "taf_visibility_m": 3000,
      "worst_visibility_m": 3000,
      "ceiling_ft": 3500,
      "hazards": [
        "RA",
        "TSRA"
      ],
      "severityScore": 37,
      "metarRaw": "METAR LATI 071420Z 22005KT 170V250 6000 RA FEW016 SCT025CB BKN035 12/10 Q1003 RETS RESHRA NOSIG",
      "tafRaw": "TAF LATI 071100Z 0712/0812 15010KT 9999 SCT040 BKN060 TX16/0712Z TN06/0806Z \n  TEMPO 0714/0806 RA BKN020 \n  TEMPO 0716/0803 VRB10G25KT 3000 TSRA SCT020CB OVC040 \n  BECMG 0806/0808 28013KT",
      "metarHtml": "METAR LATI 071420Z 22005KT 170V250 6000 <span class=\"hl\">RA</span> FEW016 SCT025CB BKN035 12/10 Q1003 RETS RESHRA NOSIG",
      "tafHtml": "TAF LATI 071100Z 0712/0812 15010KT 9999 SCT040 BKN060 TX16/0712Z TN06/0806Z \n  TEMPO 0714/0806 <span class=\"hl\">RA</span> BKN020 \n  TEMPO 0716/0803 VRB10G25KT 3000 <span class=\"hl\">TSRA</span> SCT020CB OVC040 \n  BECMG 0806/0808 28013KT"
    },
    {
      "icao": "LGTS",
      "iata": "SKG",
      "name": "Thessaloniki Macedonia International Airport",
      "updatedAt": "071420Z",
      "visibility_m": 10000,
      "taf_visibility_m": 3000,
      "worst_visibility_m": 3000,
      "ceiling_ft": null,
      "hazards": [
        "TSRA",
        "RA"
      ],
      "severityScore": 37,
      "metarRaw": "METAR LGTS 071420Z VRB03KT 9999 FEW025 17/12 Q1006 NOSIG",
      "tafRaw": "TAF LGTS 071100Z 0712/0812 16013KT 9999 SCT025 \n  TEMPO 0714/0724 16015G25KT 5000 RA FEW012 BKN025 \n  PROB30 \n  TEMPO 0717/0724 3000 TSRA SCT008 FEW018CB BKN020 \n  BECMG 0807/0809 34015KT",
      "metarHtml": "METAR LGTS 071420Z VRB03KT 9999 FEW025 17/12 Q1006 NOSIG",
      "tafHtml": "TAF LGTS 071100Z 0712/0812 16013KT 9999 SCT025 \n  TEMPO 0714/0724 16015G25KT 5000 <span class=\"hl\">RA</span> FEW012 BKN025 \n  PROB30 \n  TEMPO 0717/0724 3000 <span class=\"hl\">TSRA</span> SCT008 FEW018CB BKN020 \n  BECMG 0807/0809 34015KT"
    },
    {
      "icao": "LIBG",
      "iata": "TAR",
      "name": "Taranto-Grottaglie Marcello Arlotta Airport",
      "updatedAt": "071429Z",
      "visibility_m": 7000,
      "taf_visibility_m": 10000,
      "worst_visibility_m": 7000,
      "ceiling_ft": 2000,
      "hazards": [
        "RA",
        "TSRA"
      ],
      "severityScore": 37,
      "metarRaw": "SPECI LIBG 071429Z 35007KT 7000 RA FEW010 BKN020 10/10 Q1003",
      "tafRaw": "TAF LIBG 071400Z 0715/0724 35012KT 9999 SCT015 \n  TEMPO 0715/0718 RA BKN012 \n  PROB30 \n  TEMPO 0715/0718 TSRA",
      "metarHtml": "SPECI LIBG 071429Z 35007KT 7000 <span class=\"hl\">RA</span> FEW010 BKN020 10/10 Q1003",
      "tafHtml": "TAF LIBG 071400Z 0715/0724 35012KT 9999 SCT015 \n  TEMPO 0715/0718 <span class=\"hl\">RA</span> BKN012 \n  PROB30 \n  TEMPO 0715/0718 <span class=\"hl\">TSRA</span>"
    },
    {
      "icao": "LICA",
      "iata": "SUF",
      "name": "Lamezia Terme Sant'Eufemia International Airport",
      "updatedAt": "071420Z",
      "visibility_m": 8000,
      "taf_visibility_m": 10000,
      "worst_visibility_m": 8000,
      "ceiling_ft": null,
      "hazards": [
        "RA",
        "TSRA"
      ],
      "severityScore": 37,
      "metarRaw": "METAR LICA 071420Z AUTO 29015KT 8000 RA FEW023/// BKN035/// 11/09 Q1006",
      "tafRaw": "TAF LICA 071100Z 0712/0812 27013KT 9999 RA SCT050 \n  TEMPO 0712/0718 27016G26KT TSRA \n  BECMG 0715/0717 27020G30KT",
      "metarHtml": "METAR LICA 071420Z AUTO 29015KT 8000 <span class=\"hl\">RA</span> FEW023/// BKN035/// 11/09 Q1006",
      "tafHtml": "TAF LICA 071100Z 0712/0812 27013KT 9999 <span class=\"hl\">RA</span> SCT050 \n  TEMPO 0712/0718 27016G26KT <span class=\"hl\">TSRA</span> \n  BECMG 0715/0717 27020G30KT"
    },
    {
      "icao": "LYPG",
      "iata": "TGD",
      "name": "Podgorica Airport / Podgorica Golubovci Airbase",
      "updatedAt": "071430Z",
      "visibility_m": 8000,
      "taf_visibility_m": 2000,
      "worst_visibility_m": 2000,
      "ceiling_ft": 7000,
      "hazards": [
        "RA",
        "TSRA"
      ],
      "severityScore": 37,
      "metarRaw": "METAR LYPG 071430Z 33009KT 300V010 8000 -RA FEW010 SCT030 OVC070 11/08 Q1003 RERA NOSIG",
      "tafRaw": "TAF LYPG 071100Z 0712/0812 15007KT 9999 FEW020 BKN034 OVC070 TX13/0712Z TN03/0806Z \n  TEMPO 0712/0806 4000 RA \n  PROB40 \n  TEMPO 0712/0719 2000 TSRA FEW010 SCT025CB BKN030 \n  BECMG 0718/0720 36010KT \n  PROB30 \n  TEMPO 0801/0806 3000 RASN",
      "metarHtml": "METAR LYPG 071430Z 33009KT 300V010 8000 -<span class=\"hl\">RA</span> FEW010 SCT030 OVC070 11/08 Q1003 RERA NOSIG",
      "tafHtml": "TAF LYPG 071100Z 0712/0812 15007KT 9999 FEW020 BKN034 OVC070 TX13/0712Z TN03/0806Z \n  TEMPO 0712/0806 4000 <span class=\"hl\">RA</span> \n  PROB40 \n  TEMPO 0712/0719 2000 <span class=\"hl\">TSRA</span> FEW010 SCT025CB BKN030 \n  BECMG 0718/0720 36010KT \n  PROB30 \n  TEMPO 0801/0806 3000 RASN"
    },
    {
      "icao": "EGPF",
      "iata": "GLA",
      "name": "Glasgow Airport",
      "updatedAt": "071420Z",
      "visibility_m": 10000,
      "taf_visibility_m": 1400,
      "worst_visibility_m": 1400,
      "ceiling_ft": null,
      "hazards": [
        "BR",
        "RA"
      ],
      "severityScore": 32,
      "metarRaw": "METAR EGPF 071420Z AUTO 28009KT 9999 NCD 04/M00 Q1003",
      "tafRaw": "TAF EGPF 071056Z 0712/0812 29010KT 9999 FEW035 \n  BECMG 0715/0718 VRB04KT \n  PROB30 \n  TEMPO 0720/0723 4000 BR \n  TEMPO 0723/0812 BKN012 \n  PROB30 \n  TEMPO 0723/0808 1400 RA RASN BKN003 \n  PROB30 \n  TEMPO 0808/0812 3000 SHRASN BKN005",
      "metarHtml": "METAR EGPF 071420Z AUTO 28009KT 9999 NCD 04/M00 Q1003",
      "tafHtml": "TAF EGPF 071056Z 0712/0812 29010KT 9999 FEW035 \n  BECMG 0715/0718 VRB04KT \n  PROB30 \n  TEMPO 0720/0723 4000 <span class=\"hl\">BR</span> \n  TEMPO 0723/0812 BKN012 \n  PROB30 \n  TEMPO 0723/0808 1400 <span class=\"hl\">RA</span> RASN BKN003 \n  PROB30 \n  TEMPO 0808/0812 3000 SHRASN BKN005"
    },
    {
      "icao": "LWSK",
      "iata": "SKP",
      "name": "Skopje International Airport",
      "updatedAt": "071420Z",
      "visibility_m": 6000,
      "taf_visibility_m": 3000,
      "worst_visibility_m": 3000,
      "ceiling_ft": 7000,
      "hazards": [
        "RA",
        "SN"
      ],
      "severityScore": 30,
      "metarRaw": "METAR LWSK 071420Z VRB02KT 6000 -RA FEW015 SCT040 BKN070 10/09 Q1004 NOSIG",
      "tafRaw": "TAF LWSK 071420Z 0715/0815 VRB02KT 6000 RA FEW015 SCT040 BKN070 \n  TEMPO 0715/0719 15014KT \n  BECMG 0803/0810 36012KT 3000 SN BKN010 OVC025",
      "metarHtml": "METAR LWSK 071420Z VRB02KT 6000 -<span class=\"hl\">RA</span> FEW015 SCT040 BKN070 10/09 Q1004 NOSIG",
      "tafHtml": "TAF LWSK 071420Z 0715/0815 VRB02KT 6000 <span class=\"hl\">RA</span> FEW015 SCT040 BKN070 \n  TEMPO 0715/0719 15014KT \n  BECMG 0803/0810 36012KT 3000 <span class=\"hl\">SN</span> BKN010 OVC025"
    },
    {
      "icao": "EDDH",
      "iata": "HAM",
      "name": "Hamburg Helmut Schmidt Airport",
      "updatedAt": "071420Z",
      "visibility_m": 10000,
      "taf_visibility_m": 1200,
      "worst_visibility_m": 1200,
      "ceiling_ft": null,
      "hazards": [
        "SN"
      ],
      "severityScore": 28,
      "metarRaw": "METAR EDDH 071420Z AUTO 15014KT CAVOK M01/M05 Q1006 NOSIG",
      "tafRaw": "TAF EDDH 071100Z 0712/0818 17012KT 9999 BKN025 \n  TEMPO 0719/0818 1200 SN BKN004 \n  BECMG 0720/0723 BKN012 \n  BECMG 0800/0802 13006KT \n  BECMG 0806/0808 BKN006",
      "metarHtml": "METAR EDDH 071420Z AUTO 15014KT <span class=\"hl-vis\">CAVOK</span> M01/M05 Q1006 NOSIG",
      "tafHtml": "TAF EDDH 071100Z 0712/0818 17012KT 9999 BKN025 \n  TEMPO 0719/0818 1200 <span class=\"hl\">SN</span> BKN004 \n  BECMG 0720/0723 BKN012 \n  BECMG 0800/0802 13006KT \n  BECMG 0806/0808 BKN006"
    },
    {
      "icao": "EPKK",
      "iata": "KRK",
      "name": "Kraków John Paul II International Airport",
      "updatedAt": "071430Z",
      "visibility_m": 10000,
      "taf_visibility_m": 2000,
      "worst_visibility_m": 2000,
      "ceiling_ft": 2600,
      "hazards": [
        "BR",
        "SN"
      ],
      "severityScore": 28,
      "metarRaw": "METAR EPKK 071430Z 03004KT 340V040 9999 BKN026 M04/M09 Q1014",
      "tafRaw": "TAF EPKK 071430Z 0715/0815 04003KT 9999 BKN030 \n  BECMG 0718/0720 4000 -SN BR BKN013 \n  TEMPO 0720/0811 2000 SN BR BKN004 BKN011 \n  BECMG 0811/0813 33010KT 6000 BKN030",
      "metarHtml": "METAR EPKK 071430Z 03004KT 340V040 9999 BKN026 M04/M09 Q1014",
      "tafHtml": "TAF EPKK 071430Z 0715/0815 04003KT 9999 BKN030 \n  BECMG 0718/0720 4000 -<span class=\"hl\">SN</span> <span class=\"hl\">BR</span> BKN013 \n  TEMPO 0720/0811 2000 <span class=\"hl\">SN</span> <span class=\"hl\">BR</span> BKN004 BKN011 \n  BECMG 0811/0813 33010KT 6000 BKN030"
    },
    {
      "icao": "ESKN",
      "iata": "NYO",
      "name": "Stockholm Skavsta Airport",
      "updatedAt": "071420Z",
      "visibility_m": 10000,
      "taf_visibility_m": 1000,
      "worst_visibility_m": 1000,
      "ceiling_ft": 5900,
      "hazards": [
        "SN"
      ],
      "severityScore": 28,
      "metarRaw": "METAR ESKN 071420Z 08005KT 9999 SCT021 BKN059 M07/M07 Q1011",
      "tafRaw": "TAF ESKN 071430Z 0715/0815 11005KT 9999 BKN015 \n  PROB40 \n  TEMPO 0715/0720 1000 SN VV006 \n  PROB40 0720/0724 BKN012",
      "metarHtml": "METAR ESKN 071420Z 08005KT 9999 SCT021 BKN059 M07/M07 Q1011",
      "tafHtml": "TAF ESKN 071430Z 0715/0815 11005KT 9999 BKN015 \n  PROB40 \n  TEMPO 0715/0720 1000 <span class=\"hl\">SN</span> VV006 \n  PROB40 0720/0724 BKN012"
    },
    {
      "icao": "LKPR",
      "iata": "PRG",
      "name": "Václav Havel Airport Prague",
      "updatedAt": "071430Z",
      "visibility_m": 10000,
      "taf_visibility_m": 3000,
      "worst_visibility_m": 3000,
      "ceiling_ft": 3000,
      "hazards": [
        "BR",
        "SN"
      ],
      "severityScore": 28,
      "metarRaw": "METAR LKPR 071430Z 20008KT 9999 BKN030 M05/M10 Q1013 NOSIG",
      "tafRaw": "TAF LKPR 071400Z 0715/0821 21006KT 9999 BKN025 \n  TEMPO 0721/0807 CAVOK \n  TEMPO 0809/0820 8000 BKN017 \n  PROB30 \n  TEMPO 0809/0819 17006KT 3000 -SN BR BKN007",
      "metarHtml": "METAR LKPR 071430Z 20008KT 9999 BKN030 M05/M10 Q1013 NOSIG",
      "tafHtml": "TAF LKPR 071400Z 0715/0821 21006KT 9999 BKN025 \n  TEMPO 0721/0807 <span class=\"hl-vis\">CAVOK</span> \n  TEMPO 0809/0820 8000 BKN017 \n  PROB30 \n  TEMPO 0809/0819 17006KT 3000 -<span class=\"hl\">SN</span> <span class=\"hl\">BR</span> BKN007"
    },
    {
      "icao": "LQBK",
      "iata": "BNX",
      "name": "Banja Luka International Airport",
      "updatedAt": "071430Z",
      "visibility_m": 10000,
      "taf_visibility_m": 2000,
      "worst_visibility_m": 2000,
      "ceiling_ft": 3500,
      "hazards": [
        "BR",
        "SN"
      ],
      "severityScore": 28,
      "metarRaw": "METAR LQBK 071430Z 31004KT 9999 FEW010 BKN035 M03/M04 Q1012 RESN NOSIG",
      "tafRaw": "TAF LQBK 071100Z 0712/0812 35006KT 7000 -SN SCT020 BKN030 TXM02/0713Z TNM07/0805Z \n  TEMPO 0712/0714 2000 SN BR BKN012 OVC020 \n  TEMPO 0720/0805 29010KT",
      "metarHtml": "METAR LQBK 071430Z 31004KT 9999 FEW010 BKN035 M03/M04 Q1012 RESN NOSIG",
      "tafHtml": "TAF LQBK 071100Z 0712/0812 35006KT 7000 -<span class=\"hl\">SN</span> SCT020 BKN030 TXM02/0713Z TNM07/0805Z \n  TEMPO 0712/0714 2000 <span class=\"hl\">SN</span> <span class=\"hl\">BR</span> BKN012 OVC020 \n  TEMPO 0720/0805 29010KT"
    },
    {
      "icao": "LRSV",
      "iata": "SCV",
      "name": "Suceava Stefan cel Mare Airport",
      "updatedAt": "071430Z",
      "visibility_m": 6000,
      "taf_visibility_m": 3000,
      "worst_visibility_m": 3000,
      "ceiling_ft": 2000,
      "hazards": [
        "BR",
        "SN"
      ],
      "severityScore": 28,
      "metarRaw": "METAR LRSV 071430Z 33009KT 6000 SCT007 OVC020 M02/M03 Q1009",
      "tafRaw": "TAF LRSV 071400Z 0715/0724 34010KT 5000 BR OVC020 \n  TEMPO 0716/0721 3000 SN BR BKN005 OVC020",
      "metarHtml": "METAR LRSV 071430Z 33009KT 6000 SCT007 OVC020 M02/M03 Q1009",
      "tafHtml": "TAF LRSV 071400Z 0715/0724 34010KT 5000 <span class=\"hl\">BR</span> OVC020 \n  TEMPO 0716/0721 3000 <span class=\"hl\">SN</span> <span class=\"hl\">BR</span> BKN005 OVC020"
    },
    {
      "icao": "EBCI",
      "iata": "CRL",
      "name": "Brussels South Charleroi Airport",
      "updatedAt": "071420Z",
      "visibility_m": 3500,
      "taf_visibility_m": null,
      "worst_visibility_m": 3500,
      "ceiling_ft": 1200,
      "hazards": [
        "SHSN"
      ],
      "severityScore": 27,
      "metarRaw": "METAR EBCI 071420Z 20015KT 3500 -SHSN BKN012 M02/M04 Q1006 TEMPO 20016G26KT",
      "tafRaw": null,
      "metarHtml": "METAR EBCI 071420Z 20015KT 3500 -<span class=\"hl\">SHSN</span> BKN012 M02/M04 Q1006 TEMPO 20016G26KT",
      "tafHtml": null
    },
    {
      "icao": "LMML",
      "iata": "MLA",
      "name": "Malta International Airport",
      "updatedAt": "071415Z",
      "visibility_m": 10000,
      "taf_visibility_m": 5000,
      "worst_visibility_m": 5000,
      "ceiling_ft": 2100,
      "hazards": [
        "RA",
        "SHRA"
      ],
      "severityScore": 26,
      "metarRaw": "METAR LMML 071415Z 30014KT 9999 -RA FEW012 BKN021 12/10 Q1009 NOSIG",
      "tafRaw": "TAF LMML 071100Z 0712/0812 28015KT 9999 SCT018 \n  TEMPO 0712/0812 8000 SHRA SCT020TCU \n  PROB40 \n  TEMPO 0713/0717 5000 RA BKN012 BKN030 \n  BECMG 0714/0716 29025KT \n  TEMPO 0714/0812 29025G35KT",
      "metarHtml": "METAR LMML 071415Z 30014KT 9999 -<span class=\"hl\">RA</span> FEW012 BKN021 12/10 Q1009 NOSIG",
      "tafHtml": "TAF LMML 071100Z 0712/0812 28015KT 9999 SCT018 \n  TEMPO 0712/0812 8000 <span class=\"hl\">SHRA</span> SCT020TCU \n  PROB40 \n  TEMPO 0713/0717 5000 <span class=\"hl\">RA</span> BKN012 BKN030 \n  BECMG 0714/0716 29025KT \n  TEMPO 0714/0812 29025G35KT"
    },
    {
      "icao": "LTAC",
      "iata": "ESB",
      "name": "Esenboğa International Airport",
      "updatedAt": "071420Z",
      "visibility_m": 10000,
      "taf_visibility_m": 10000,
      "worst_visibility_m": 10000,
      "ceiling_ft": null,
      "hazards": [
        "RA",
        "SHRA"
      ],
      "severityScore": 26,
      "metarRaw": "METAR LTAC 071420Z 06003KT 020V100 9999 FEW040 SCT100 10/03 Q1018 NOSIG RMK RWY21C 05004KT RWY03L 04005KT RWY21R 04004KT 010V070 RWY03R VRB02KT RWY21L 04004KT",
      "tafRaw": "TAF LTAC 071040Z 0712/0812 VRB02KT 9999 SCT040 SCT100 \n  BECMG 0721/0724 BKN035 BKN080 \n  TEMPO 0800/0804 -RA FEW010 BKN025 BKN080 \n  PROB30 \n  TEMPO 0808/0812 22012KT -SHRA FEW025CB BKN035 BKN080",
      "metarHtml": "METAR LTAC 071420Z 06003KT 020V100 9999 FEW040 SCT100 10/03 Q1018 NOSIG RMK RWY21C 05004KT RWY03L 04005KT RWY21R 04004KT 010V070 RWY03R VRB02KT RWY21L 04004KT",
      "tafHtml": "TAF LTAC 071040Z 0712/0812 VRB02KT 9999 SCT040 SCT100 \n  BECMG 0721/0724 BKN035 BKN080 \n  TEMPO 0800/0804 -<span class=\"hl\">RA</span> FEW010 BKN025 BKN080 \n  PROB30 \n  TEMPO 0808/0812 22012KT -<span class=\"hl\">SHRA</span> FEW025CB BKN035 BKN080"
    },
    {
      "icao": "LEBB",
      "iata": "BIO",
      "name": "Bilbao Airport",
      "updatedAt": "071430Z",
      "visibility_m": 3000,
      "taf_visibility_m": 3000,
      "worst_visibility_m": 3000,
      "ceiling_ft": 1800,
      "hazards": [
        "RA"
      ],
      "severityScore": 24,
      "metarRaw": "METAR LEBB 071430Z VRB02KT 9999 -RA FEW005 BKN018 08/07 Q1020 RERA TEMPO 3000 RA",
      "tafRaw": "TAF LEBB 071100Z 0712/0812 22005KT 9999 SCT020 BKN030 TX11/0714Z TN08/0806Z \n  TEMPO 0712/0724 3000 RA \n  PROB30 \n  TEMPO 0712/0724 BKN010 \n  TEMPO 0712/0718 29011KT \n  PROB40 \n  TEMPO 0712/0717 29018G28KT",
      "metarHtml": "METAR LEBB 071430Z VRB02KT 9999 -<span class=\"hl\">RA</span> FEW005 BKN018 08/07 Q1020 RERA TEMPO 3000 <span class=\"hl\">RA</span>",
      "tafHtml": "TAF LEBB 071100Z 0712/0812 22005KT 9999 SCT020 BKN030 TX11/0714Z TN08/0806Z \n  TEMPO 0712/0724 3000 <span class=\"hl\">RA</span> \n  PROB30 \n  TEMPO 0712/0724 BKN010 \n  TEMPO 0712/0718 29011KT \n  PROB40 \n  TEMPO 0712/0717 29018G28KT"
    },
    {
      "icao": "LFPO",
      "iata": "ORY",
      "name": "Paris-Orly Airport",
      "updatedAt": "071430Z",
      "visibility_m": 10000,
      "taf_visibility_m": 2500,
      "worst_visibility_m": 2500,
      "ceiling_ft": null,
      "hazards": [
        "BR",
        "RA"
      ],
      "severityScore": 22,
      "metarRaw": "METAR LFPO 071430Z AUTO 25008KT 210V270 9999 FEW010 SCT062 01/00 Q1009 NOSIG",
      "tafRaw": "TAF LFPO 071100Z 0712/0818 22012KT 9999 BKN009 \n  BECMG 0712/0715 NSC \n  TEMPO 0720/0808 BKN004 \n  PROB30 \n  TEMPO 0721/0801 4000 BR \n  TEMPO 0801/0806 3500 -DZRA \n  PROB40 \n  TEMPO 0805/0808 2500 BR BKN002 \n  TEMPO 0812/0816 4000 -RA BKN004 \n  BECMG 0816/0818 20015G30KT BKN012",
      "metarHtml": "METAR LFPO 071430Z AUTO 25008KT 210V270 9999 FEW010 SCT062 01/00 Q1009 NOSIG",
      "tafHtml": "TAF LFPO 071100Z 0712/0818 22012KT 9999 BKN009 \n  BECMG 0712/0715 NSC \n  TEMPO 0720/0808 BKN004 \n  PROB30 \n  TEMPO 0721/0801 4000 <span class=\"hl\">BR</span> \n  TEMPO 0801/0806 3500 -DZRA \n  PROB40 \n  TEMPO 0805/0808 2500 <span class=\"hl\">BR</span> BKN002 \n  TEMPO 0812/0816 4000 -<span class=\"hl\">RA</span> BKN004 \n  BECMG 0816/0818 20015G30KT BKN012"
    },
    {
      "icao": "LPPT",
      "iata": "LIS",
      "name": "Lisbon Humberto Delgado Airport",
      "updatedAt": "071430Z",
      "visibility_m": 10000,
      "taf_visibility_m": 3000,
      "worst_visibility_m": 3000,
      "ceiling_ft": null,
      "hazards": [
        "BR",
        "RA"
      ],
      "severityScore": 22,
      "metarRaw": "METAR LPPT 071430Z 35014KT 9999 FEW025 SCT032 14/07 Q1026",
      "tafRaw": "TAF LPPT 071100Z 0712/0818 34012KT 9999 SCT025 \n  BECMG 0720/0722 VRB05KT FEW012 \n  PROB30 \n  TEMPO 0805/0808 3000 BR BKN004 \n  BECMG 0808/0810 BKN025 \n  BECMG 0811/0813 24007KT \n  PROB40 \n  TEMPO 0816/0818 6000 -RA SCT006 BKN012",
      "metarHtml": "METAR LPPT 071430Z 35014KT 9999 FEW025 SCT032 14/07 Q1026",
      "tafHtml": "TAF LPPT 071100Z 0712/0818 34012KT 9999 SCT025 \n  BECMG 0720/0722 VRB05KT FEW012 \n  PROB30 \n  TEMPO 0805/0808 3000 <span class=\"hl\">BR</span> BKN004 \n  BECMG 0808/0810 BKN025 \n  BECMG 0811/0813 24007KT \n  PROB40 \n  TEMPO 0816/0818 6000 -<span class=\"hl\">RA</span> SCT006 BKN012"
    },
    {
      "icao": "UDSG",
      "iata": "LWN",
      "name": "Shirak International Airport",
      "updatedAt": "071430Z",
      "visibility_m": 4500,
      "taf_visibility_m": 1000,
      "worst_visibility_m": 1000,
      "ceiling_ft": null,
      "hazards": [
        "BR"
      ],
      "severityScore": 20,
      "metarRaw": "METAR UDSG 071430Z 27001KT 4500 BR FEW049 M10/M12 Q1025 NOSIG",
      "tafRaw": "TAF UDSG 071058Z 0712/0812 VRB06KT 5000 BR FEW040 \n  TEMPO 0713/0718 1000 BR",
      "metarHtml": "METAR UDSG 071430Z 27001KT 4500 <span class=\"hl\">BR</span> FEW049 M10/M12 Q1025 NOSIG",
      "tafHtml": "TAF UDSG 071058Z 0712/0812 VRB06KT 5000 <span class=\"hl\">BR</span> FEW040 \n  TEMPO 0713/0718 1000 <span class=\"hl\">BR</span>"
    },
    {
      "icao": "EDDN",
      "iata": "NUE",
      "name": "Nuremberg Airport",
      "updatedAt": "071420Z",
      "visibility_m": 10000,
      "taf_visibility_m": 2000,
      "worst_visibility_m": 2000,
      "ceiling_ft": null,
      "hazards": [
        "SN"
      ],
      "severityScore": 18,
      "metarRaw": "METAR EDDN 071420Z AUTO 19006KT 170V230 9999 FEW033 M03/M10 Q1012 NOSIG",
      "tafRaw": "TAF EDDN 071100Z 0712/0812 15006KT CAVOK \n  BECMG 0722/0724 4000 -SN BKN009 OVC013 \n  TEMPO 0801/0805 2000 -SN \n  BECMG 0806/0809 7000 \n  PROB40 \n  TEMPO 0809/0812 4000 -SN",
      "metarHtml": "METAR EDDN 071420Z AUTO 19006KT 170V230 9999 FEW033 M03/M10 Q1012 NOSIG",
      "tafHtml": "TAF EDDN 071100Z 0712/0812 15006KT <span class=\"hl-vis\">CAVOK</span> \n  BECMG 0722/0724 4000 -<span class=\"hl\">SN</span> BKN009 OVC013 \n  TEMPO 0801/0805 2000 -<span class=\"hl\">SN</span> \n  BECMG 0806/0809 7000 \n  PROB40 \n  TEMPO 0809/0812 4000 -<span class=\"hl\">SN</span>"
    },
    {
      "icao": "EDDS",
      "iata": "STR",
      "name": "Stuttgart Airport",
      "updatedAt": "071420Z",
      "visibility_m": 10000,
      "taf_visibility_m": 4000,
      "worst_visibility_m": 4000,
      "ceiling_ft": null,
      "hazards": [
        "SN"
      ],
      "severityScore": 18,
      "metarRaw": "METAR EDDS 071420Z AUTO 16005KT 130V190 CAVOK M02/M08 Q1010 NOSIG",
      "tafRaw": "TAF EDDS 071100Z 0712/0812 14004KT CAVOK \n  TEMPO 0719/0806 4000 -SN \n  BECMG 0806/0808 20005KT \n  TEMPO 0809/0812 4500 -SN",
      "metarHtml": "METAR EDDS 071420Z AUTO 16005KT 130V190 <span class=\"hl-vis\">CAVOK</span> M02/M08 Q1010 NOSIG",
      "tafHtml": "TAF EDDS 071100Z 0712/0812 14004KT <span class=\"hl-vis\">CAVOK</span> \n  TEMPO 0719/0806 4000 -<span class=\"hl\">SN</span> \n  BECMG 0806/0808 20005KT \n  TEMPO 0809/0812 4500 -<span class=\"hl\">SN</span>"
    },
    {
      "icao": "EDJA",
      "iata": "FMM",
      "name": "Memmingen Allgau Airport",
      "updatedAt": "071420Z",
      "visibility_m": 10000,
      "taf_visibility_m": 4000,
      "worst_visibility_m": 4000,
      "ceiling_ft": null,
      "hazards": [
        "SN"
      ],
      "severityScore": 18,
      "metarRaw": "METAR EDJA 071420Z 18003KT CAVOK M04/M09 Q1010",
      "tafRaw": "TAF EDJA 071400Z 0715/0724 20004KT CAVOK \n  BECMG 0720/0722 22009KT BKN014 \n  PROB40 \n  TEMPO 0722/0724 4000 -SN BKN008",
      "metarHtml": "METAR EDJA 071420Z 18003KT <span class=\"hl-vis\">CAVOK</span> M04/M09 Q1010",
      "tafHtml": "TAF EDJA 071400Z 0715/0724 20004KT <span class=\"hl-vis\">CAVOK</span> \n  BECMG 0720/0722 22009KT BKN014 \n  PROB40 \n  TEMPO 0722/0724 4000 -<span class=\"hl\">SN</span> BKN008"
    },
    {
      "icao": "EDNY",
      "iata": "FDH",
      "name": "Friedrichshafen Airport",
      "updatedAt": "071420Z",
      "visibility_m": 10000,
      "taf_visibility_m": 4000,
      "worst_visibility_m": 4000,
      "ceiling_ft": null,
      "hazards": [
        "SN"
      ],
      "severityScore": 18,
      "metarRaw": "METAR EDNY 071420Z COR 24003KT CAVOK M03/M07 Q1012",
      "tafRaw": "TAF EDNY 071400Z 0715/0724 04002KT 9999 BKN025 \n  PROB40 \n  TEMPO 0721/0724 4000 -SN BKN014",
      "metarHtml": "METAR EDNY 071420Z COR 24003KT <span class=\"hl-vis\">CAVOK</span> M03/M07 Q1012",
      "tafHtml": "TAF EDNY 071400Z 0715/0724 04002KT 9999 BKN025 \n  PROB40 \n  TEMPO 0721/0724 4000 -<span class=\"hl\">SN</span> BKN014"
    },
    {
      "icao": "EDSB",
      "iata": "FKB",
      "name": "Karlsruhe Baden-Baden Airport",
      "updatedAt": "071420Z",
      "visibility_m": 10000,
      "taf_visibility_m": 4000,
      "worst_visibility_m": 4000,
      "ceiling_ft": null,
      "hazards": [
        "SN"
      ],
      "severityScore": 18,
      "metarRaw": "METAR EDSB 071420Z 21007KT CAVOK M01/M07 Q1012",
      "tafRaw": "TAF EDSB 071100Z 0712/0812 22007KT CAVOK \n  TEMPO 0717/0812 4000 -SN \n  BECMG 0802/0804 20012KT \n  PROB30 \n  TEMPO 0805/0810 BKN005",
      "metarHtml": "METAR EDSB 071420Z 21007KT <span class=\"hl-vis\">CAVOK</span> M01/M07 Q1012",
      "tafHtml": "TAF EDSB 071100Z 0712/0812 22007KT <span class=\"hl-vis\">CAVOK</span> \n  TEMPO 0717/0812 4000 -<span class=\"hl\">SN</span> \n  BECMG 0802/0804 20012KT \n  PROB30 \n  TEMPO 0805/0810 BKN005"
    },
    {
      "icao": "LFSB",
      "iata": "BSL",
      "name": "EuroAirport Basel–Mulhouse–Freiburg",
      "updatedAt": "071430Z",
      "visibility_m": 10000,
      "taf_visibility_m": 3000,
      "worst_visibility_m": 3000,
      "ceiling_ft": null,
      "hazards": [
        "SN"
      ],
      "severityScore": 18,
      "metarRaw": "METAR LFSB 071430Z AUTO 13008KT CAVOK M01/M07 Q1012 NOSIG",
      "tafRaw": "TAF LFSB 071100Z 0712/0812 16005KT CAVOK \n  TEMPO 0718/0801 24010KT -SN FEW008 OVC011 \n  PROB30 \n  TEMPO 0718/0721 3000 -SN BKN008 \n  PROB40 \n  TEMPO 0807/0812 4000 -SN BKN014",
      "metarHtml": "METAR LFSB 071430Z AUTO 13008KT <span class=\"hl-vis\">CAVOK</span> M01/M07 Q1012 NOSIG",
      "tafHtml": "TAF LFSB 071100Z 0712/0812 16005KT <span class=\"hl-vis\">CAVOK</span> \n  TEMPO 0718/0801 24010KT -<span class=\"hl\">SN</span> FEW008 OVC011 \n  PROB30 \n  TEMPO 0718/0721 3000 -<span class=\"hl\">SN</span> BKN008 \n  PROB40 \n  TEMPO 0807/0812 4000 -<span class=\"hl\">SN</span> BKN014"
    },
    {
      "icao": "LHBP",
      "iata": "BUD",
      "name": "Budapest Liszt Ferenc International Airport",
      "updatedAt": "071430Z",
      "visibility_m": 9000,
      "taf_visibility_m": 4500,
      "worst_visibility_m": 4500,
      "ceiling_ft": 8000,
      "hazards": [
        "SN"
      ],
      "severityScore": 18,
      "metarRaw": "METAR LHBP 071430Z 31006KT 9000 -SN SCT048 OVC080 M02/M04 Q1011 NOSIG",
      "tafRaw": "TAF LHBP 071115Z 0712/0812 33005KT 9999 BKN040 \n  TEMPO 0713/0720 4500 -SN BKN008 OVC030 \n  BECMG 0802/0805 31011KT CAVOK \n  TEMPO 0805/0812 30015G25KT DRSN FEW020",
      "metarHtml": "METAR LHBP 071430Z 31006KT 9000 -<span class=\"hl\">SN</span> SCT048 OVC080 M02/M04 Q1011 NOSIG",
      "tafHtml": "TAF LHBP 071115Z 0712/0812 33005KT 9999 BKN040 \n  TEMPO 0713/0720 4500 -<span class=\"hl\">SN</span> BKN008 OVC030 \n  BECMG 0802/0805 31011KT <span class=\"hl-vis\">CAVOK</span> \n  TEMPO 0805/0812 30015G25KT DRSN FEW020"
    },
    {
      "icao": "LKMT",
      "iata": "OSR",
      "name": "Ostrava Leos Janáček Airport",
      "updatedAt": "071430Z",
      "visibility_m": 10000,
      "taf_visibility_m": 6000,
      "worst_visibility_m": 6000,
      "ceiling_ft": 2100,
      "hazards": [
        "SN"
      ],
      "severityScore": 18,
      "metarRaw": "METAR LKMT 071430Z 03009KT 9999 OVC021 M04/M08 Q1014 NOSIG",
      "tafRaw": "TAF LKMT 071100Z 0712/0812 02007KT 9999 BKN030 \n  TEMPO 0800/0810 6000 -SN BKN018",
      "metarHtml": "METAR LKMT 071430Z 03009KT 9999 OVC021 M04/M08 Q1014 NOSIG",
      "tafHtml": "TAF LKMT 071100Z 0712/0812 02007KT 9999 BKN030 \n  TEMPO 0800/0810 6000 -<span class=\"hl\">SN</span> BKN018"
    },
    {
      "icao": "LICJ",
      "iata": "PMO",
      "name": "Falcone–Borsellino Airport",
      "updatedAt": "071420Z",
      "visibility_m": 10000,
      "taf_visibility_m": 4000,
      "worst_visibility_m": 4000,
      "ceiling_ft": null,
      "hazards": [
        "SHRA"
      ],
      "severityScore": 14,
      "metarRaw": "METAR LICJ 071420Z 27024KT 9999 FEW030 SCT040 13/05 Q1009",
      "tafRaw": "TAF LICJ 071100Z 0712/0812 27018KT 9999 SCT030 \n  BECMG 0712/0714 27022G35KT \n  TEMPO 0712/0724 4000 SHRA",
      "metarHtml": "METAR LICJ 071420Z 27024KT 9999 FEW030 SCT040 13/05 Q1009",
      "tafHtml": "TAF LICJ 071100Z 0712/0812 27018KT 9999 SCT030 \n  BECMG 0712/0714 27022G35KT \n  TEMPO 0712/0724 4000 <span class=\"hl\">SHRA</span>"
    },
    {
      "icao": "LIRF",
      "iata": "FCO",
      "name": "Rome–Fiumicino Leonardo da Vinci International Airport",
      "updatedAt": "071420Z",
      "visibility_m": 10000,
      "taf_visibility_m": 10000,
      "worst_visibility_m": 10000,
      "ceiling_ft": null,
      "hazards": [
        "SHRA"
      ],
      "severityScore": 14,
      "metarRaw": "METAR LIRF 071420Z 01006KT 9999 -SHRA SCT030 08/03 Q1006 NOSIG",
      "tafRaw": "TAF LIRF 071100Z 0712/0818 01010KT 9999 FEW040 \n  BECMG 0800/0802 07008KT",
      "metarHtml": "METAR LIRF 071420Z 01006KT 9999 -<span class=\"hl\">SHRA</span> SCT030 08/03 Q1006 NOSIG",
      "tafHtml": "TAF LIRF 071100Z 0712/0818 01010KT 9999 FEW040 \n  BECMG 0800/0802 07008KT"
    },
    {
      "icao": "EGGP",
      "iata": "LPL",
      "name": "Liverpool John Lennon Airport",
      "updatedAt": "071420Z",
      "visibility_m": 10000,
      "taf_visibility_m": 3000,
      "worst_visibility_m": 3000,
      "ceiling_ft": 3300,
      "hazards": [
        "RA"
      ],
      "severityScore": 12,
      "metarRaw": "METAR EGGP 071420Z 31014KT 9999 -RA SCT026 BKN033 05/00 Q1004",
      "tafRaw": "TAF EGGP 071055Z 0712/0812 29015KT 9999 FEW025 \n  TEMPO 0712/0715 30018G30KT \n  BECMG 0719/0722 19004KT \n  TEMPO 0721/0808 6000 RA -RADZ BKN012 \n  PROB30 \n  TEMPO 0801/0806 3000 RADZ BKN004",
      "metarHtml": "METAR EGGP 071420Z 31014KT 9999 -<span class=\"hl\">RA</span> SCT026 BKN033 05/00 Q1004",
      "tafHtml": "TAF EGGP 071055Z 0712/0812 29015KT 9999 FEW025 \n  TEMPO 0712/0715 30018G30KT \n  BECMG 0719/0722 19004KT \n  TEMPO 0721/0808 6000 <span class=\"hl\">RA</span> -RADZ BKN012 \n  PROB30 \n  TEMPO 0801/0806 3000 RADZ BKN004"
    },
    {
      "icao": "EGKK",
      "iata": "LGW",
      "name": "London Gatwick Airport",
      "updatedAt": "071420Z",
      "visibility_m": 10000,
      "taf_visibility_m": 3000,
      "worst_visibility_m": 3000,
      "ceiling_ft": null,
      "hazards": [
        "RA"
      ],
      "severityScore": 12,
      "metarRaw": "METAR EGKK 071420Z 27011KT 9999 FEW032 06/01 Q1005",
      "tafRaw": "TAF EGKK 071100Z 0712/0818 27010KT 9999 FEW030 \n  PROB30 \n  TEMPO 0712/0715 28015G25KT \n  BECMG 0721/0724 21004KT \n  PROB30 \n  TEMPO 0802/0805 8000 -RA BKN014 \n  TEMPO 0805/0812 6000 -RADZ BKN006 \n  PROB30 \n  TEMPO 0806/0810 3000 RADZ BKN002 \n  BECMG 0813/0816 11011KT \n  TEMPO 0814/0818 6000 RA BKN012 \n  PROB30 \n  TEMPO 0817/0818 4000 +RA",
      "metarHtml": "METAR EGKK 071420Z 27011KT 9999 FEW032 06/01 Q1005",
      "tafHtml": "TAF EGKK 071100Z 0712/0818 27010KT 9999 FEW030 \n  PROB30 \n  TEMPO 0712/0715 28015G25KT \n  BECMG 0721/0724 21004KT \n  PROB30 \n  TEMPO 0802/0805 8000 -<span class=\"hl\">RA</span> BKN014 \n  TEMPO 0805/0812 6000 -RADZ BKN006 \n  PROB30 \n  TEMPO 0806/0810 3000 RADZ BKN002 \n  BECMG 0813/0816 11011KT \n  TEMPO 0814/0818 6000 <span class=\"hl\">RA</span> BKN012 \n  PROB30 \n  TEMPO 0817/0818 4000 +<span class=\"hl\">RA</span>"
    },
    {
      "icao": "LBWN",
      "iata": "VAR",
      "name": "Varna Airport",
      "updatedAt": "071430Z",
      "visibility_m": 10000,
      "taf_visibility_m": 3000,
      "worst_visibility_m": 3000,
      "ceiling_ft": null,
      "hazards": [
        "RA"
      ],
      "severityScore": 12,
      "metarRaw": "METAR LBWN 071430Z AUTO 21007KT 9999 NSC 16/10 Q1006 NOSIG",
      "tafRaw": "TAF LBWN 071100Z 0712/0812 19012KT 9999 SCT020 BKN040 \n  TEMPO 0717/0804 21016G28KT 6000 RA BKN018 BKN030 \n  TEMPO 0804/0809 3000 RA BKN015 OVC030 \n  BECMG 0805/0806 28016G32KT",
      "metarHtml": "METAR LBWN 071430Z AUTO 21007KT 9999 NSC 16/10 Q1006 NOSIG",
      "tafHtml": "TAF LBWN 071100Z 0712/0812 19012KT 9999 SCT020 BKN040 \n  TEMPO 0717/0804 21016G28KT 6000 <span class=\"hl\">RA</span> BKN018 BKN030 \n  TEMPO 0804/0809 3000 <span class=\"hl\">RA</span> BKN015 OVC030 \n  BECMG 0805/0806 28016G32KT"
    },
    {
      "icao": "LEXJ",
      "iata": "SDR",
      "name": "Seve Ballesteros-Santander Airport",
      "updatedAt": "071430Z",
      "visibility_m": 9000,
      "taf_visibility_m": 3000,
      "worst_visibility_m": 3000,
      "ceiling_ft": 4300,
      "hazards": [
        "RA"
      ],
      "severityScore": 12,
      "metarRaw": "METAR LEXJ 071430Z 32019G29KT 290V010 9000 SCT036 BKN043 BKN053 12/07 Q1021",
      "tafRaw": "TAF LEXJ 071400Z 0715/0815 24009KT 9999 BKN020 TX12/0813Z TN08/0802Z \n  PROB40 \n  TEMPO 0715/0722 3000 RA BKN010 \n  TEMPO 0715/0718 30015KT \n  PROB40 \n  TEMPO 0715/0717 28018G28KT \n  TEMPO 0810/0815 24015G25KT",
      "metarHtml": "METAR LEXJ 071430Z 32019G29KT 290V010 9000 SCT036 BKN043 BKN053 12/07 Q1021",
      "tafHtml": "TAF LEXJ 071400Z 0715/0815 24009KT 9999 BKN020 TX12/0813Z TN08/0802Z \n  PROB40 \n  TEMPO 0715/0722 3000 <span class=\"hl\">RA</span> BKN010 \n  TEMPO 0715/0718 30015KT \n  PROB40 \n  TEMPO 0715/0717 28018G28KT \n  TEMPO 0810/0815 24015G25KT"
    },
    {
      "icao": "LEZL",
      "iata": "SVQ",
      "name": "Sevilla Airport",
      "updatedAt": "071430Z",
      "visibility_m": 10000,
      "taf_visibility_m": 10000,
      "worst_visibility_m": 10000,
      "ceiling_ft": 4700,
      "hazards": [
        "RA"
      ],
      "severityScore": 12,
      "metarRaw": "METAR LEZL 071430Z VRB01KT 9999 BKN047 10/03 Q1027 NOSIG",
      "tafRaw": "TAF LEZL 071400Z 0715/0815 25004KT 9999 FEW030 TX14/0815Z TN03/0807Z \n  PROB30 \n  TEMPO 0715/0717 RA",
      "metarHtml": "METAR LEZL 071430Z VRB01KT 9999 BKN047 10/03 Q1027 NOSIG",
      "tafHtml": "TAF LEZL 071400Z 0715/0815 25004KT 9999 FEW030 TX14/0815Z TN03/0807Z \n  PROB30 \n  TEMPO 0715/0717 <span class=\"hl\">RA</span>"
    },
    {
      "icao": "LGAV",
      "iata": "ATH",
      "name": "Athens Eleftherios Venizelos International Airport",
      "updatedAt": "071420Z",
      "visibility_m": 10000,
      "taf_visibility_m": 5000,
      "worst_visibility_m": 5000,
      "ceiling_ft": null,
      "hazards": [
        "RA"
      ],
      "severityScore": 12,
      "metarRaw": "METAR LGAV 071420Z 20019KT 9999 FEW025 19/10 Q1009 NOSIG",
      "tafRaw": "TAF LGAV 071100Z 0712/0812 20015KT 9999 FEW020 SCT030 \n  BECMG 0718/0720 20018G28KT \n  PROB30 \n  TEMPO 0722/0803 5000 RA FEW018TCU SCT020 BKN030 \n  BECMG 0803/0805 26015KT",
      "metarHtml": "METAR LGAV 071420Z 20019KT 9999 FEW025 19/10 Q1009 NOSIG",
      "tafHtml": "TAF LGAV 071100Z 0712/0812 20015KT 9999 FEW020 SCT030 \n  BECMG 0718/0720 20018G28KT \n  PROB30 \n  TEMPO 0722/0803 5000 <span class=\"hl\">RA</span> FEW018TCU SCT020 BKN030 \n  BECMG 0803/0805 26015KT"
    },
    {
      "icao": "LIBD",
      "iata": "BRI",
      "name": "Bari Karol Wojtyła International Airport",
      "updatedAt": "071420Z",
      "visibility_m": 8000,
      "taf_visibility_m": 4000,
      "worst_visibility_m": 4000,
      "ceiling_ft": 3000,
      "hazards": [
        "RA"
      ],
      "severityScore": 12,
      "metarRaw": "METAR LIBD 071420Z 28006KT 8000 -RA FEW015 BKN030 07/06 Q1004",
      "tafRaw": "TAF LIBD 071100Z 0712/0812 28012KT 4000 RA BKN020 \n  BECMG 0800/0802 28015G25KT CAVOK",
      "metarHtml": "METAR LIBD 071420Z 28006KT 8000 -<span class=\"hl\">RA</span> FEW015 BKN030 07/06 Q1004",
      "tafHtml": "TAF LIBD 071100Z 0712/0812 28012KT 4000 <span class=\"hl\">RA</span> BKN020 \n  BECMG 0800/0802 28015G25KT <span class=\"hl-vis\">CAVOK</span>"
    },
    {
      "icao": "LIPY",
      "iata": "AOI",
      "name": "Marche Airport",
      "updatedAt": "071420Z",
      "visibility_m": 10000,
      "taf_visibility_m": 10000,
      "worst_visibility_m": 10000,
      "ceiling_ft": null,
      "hazards": [
        "RA"
      ],
      "severityScore": 12,
      "metarRaw": "METAR LIPY 071420Z AUTO 30008KT 9999 -RA OVC034/// 02/M01 Q1009",
      "tafRaw": "TAF LIPY 071100Z 0712/0812 33013KT 9999 BKN020 \n  PROB40 \n  TEMPO 0712/0718 RA \n  BECMG 0804/0806 VRB05KT",
      "metarHtml": "METAR LIPY 071420Z AUTO 30008KT 9999 -<span class=\"hl\">RA</span> OVC034/// 02/M01 Q1009",
      "tafHtml": "TAF LIPY 071100Z 0712/0812 33013KT 9999 BKN020 \n  PROB40 \n  TEMPO 0712/0718 <span class=\"hl\">RA</span> \n  BECMG 0804/0806 VRB05KT"
    },
    {
      "icao": "LIRN",
      "iata": "NAP",
      "name": "Naples International Airport",
      "updatedAt": "071420Z",
      "visibility_m": 9000,
      "taf_visibility_m": 10000,
      "worst_visibility_m": 9000,
      "ceiling_ft": 8000,
      "hazards": [
        "RA"
      ],
      "severityScore": 12,
      "metarRaw": "METAR LIRN 071420Z VRB01KT 9000 SCT030 BKN080 11/05 Q1004 NOSIG",
      "tafRaw": "TAF LIRN 071100Z 0712/0812 28012KT 9999 SCT030 \n  TEMPO 0712/0718 RA \n  BECMG 0800/0802 03006KT",
      "metarHtml": "METAR LIRN 071420Z VRB01KT 9000 SCT030 BKN080 11/05 Q1004 NOSIG",
      "tafHtml": "TAF LIRN 071100Z 0712/0812 28012KT 9999 SCT030 \n  TEMPO 0712/0718 <span class=\"hl\">RA</span> \n  BECMG 0800/0802 03006KT"
    },
    {
      "icao": "LPPR",
      "iata": "OPO",
      "name": "Francisco de Sá Carneiro Airport",
      "updatedAt": "071430Z",
      "visibility_m": 10000,
      "taf_visibility_m": 6000,
      "worst_visibility_m": 6000,
      "ceiling_ft": null,
      "hazards": [
        "RA"
      ],
      "severityScore": 12,
      "metarRaw": "METAR LPPR 071430Z 32007KT 280V350 9999 SCT030 13/09 Q1026",
      "tafRaw": "TAF LPPR 071100Z 0712/0812 01005KT 9999 SCT015 \n  BECMG 0712/0714 33007KT \n  BECMG 0718/0720 VRB02KT \n  BECMG 0802/0804 14007KT FEW015 BKN030 \n  TEMPO 0807/0812 6000 -RA SCT006 BKN012 \n  BECMG 0809/0811 19012KT",
      "metarHtml": "METAR LPPR 071430Z 32007KT 280V350 9999 SCT030 13/09 Q1026",
      "tafHtml": "TAF LPPR 071100Z 0712/0812 01005KT 9999 SCT015 \n  BECMG 0712/0714 33007KT \n  BECMG 0718/0720 VRB02KT \n  BECMG 0802/0804 14007KT FEW015 BKN030 \n  TEMPO 0807/0812 6000 -<span class=\"hl\">RA</span> SCT006 BKN012 \n  BECMG 0809/0811 19012KT"
    },
    {
      "icao": "LWOH",
      "iata": "OHD",
      "name": "Ohrid St. Paul the Apostle Airport",
      "updatedAt": "071420Z",
      "visibility_m": 5000,
      "taf_visibility_m": 5000,
      "worst_visibility_m": 5000,
      "ceiling_ft": 3000,
      "hazards": [
        "RA"
      ],
      "severityScore": 12,
      "metarRaw": "METAR LWOH 071420Z VRB02KT 5000 RA SCT010 OVC030 08/08 Q1005",
      "tafRaw": "TAF LWOH 071420Z 0715/0815 VRB02KT 9999 RA SCT010 OVC040 \n  TEMPO 0715/0720 18015KT \n  TEMPO 0722/0809 5000 RA BKN010 OVC025",
      "metarHtml": "METAR LWOH 071420Z VRB02KT 5000 <span class=\"hl\">RA</span> SCT010 OVC030 08/08 Q1005",
      "tafHtml": "TAF LWOH 071420Z 0715/0815 VRB02KT 9999 <span class=\"hl\">RA</span> SCT010 OVC040 \n  TEMPO 0715/0720 18015KT \n  TEMPO 0722/0809 5000 <span class=\"hl\">RA</span> BKN010 OVC025"
    },
    {
      "icao": "GMMN",
      "iata": "CMN",
      "name": "Mohammed V International Airport",
      "updatedAt": "071430Z",
      "visibility_m": 10000,
      "taf_visibility_m": 4000,
      "worst_visibility_m": 4000,
      "ceiling_ft": null,
      "hazards": [
        "BR"
      ],
      "severityScore": 10,
      "metarRaw": "METAR GMMN 071430Z VRB02KT 9999 SCT040 14/06 Q1029 NOSIG",
      "tafRaw": "TAF GMMN 071100Z 0712/0818 24011KT 9999 SCT040 \n  BECMG 0721/0724 14004KT BKN030 \n  PROB30 0801/0805 4000 BR BKN010 SCT030 \n  BECMG 0810/0813 32012KT CAVOK",
      "metarHtml": "METAR GMMN 071430Z VRB02KT 9999 SCT040 14/06 Q1029 NOSIG",
      "tafHtml": "TAF GMMN 071100Z 0712/0818 24011KT 9999 SCT040 \n  BECMG 0721/0724 14004KT BKN030 \n  PROB30 0801/0805 4000 <span class=\"hl\">BR</span> BKN010 SCT030 \n  BECMG 0810/0813 32012KT <span class=\"hl-vis\">CAVOK</span>"
    },
    {
      "icao": "EPRA",
      "iata": "RDO",
      "name": "Warsaw Radom Airport",
      "updatedAt": "071430Z",
      "visibility_m": 4700,
      "taf_visibility_m": 2000,
      "worst_visibility_m": 2000,
      "ceiling_ft": null,
      "hazards": [
        "BR"
      ],
      "severityScore": 10,
      "metarRaw": "METAR EPRA 071430Z 35005KT 4700 BR NSC M07/M09 Q1015",
      "tafRaw": "TAF EPRA 071430Z 0715/0724 34005KT 4000 BR NSC \n  BECMG 0717/0720 2000 BR BKN003",
      "metarHtml": "METAR EPRA 071430Z 35005KT 4700 <span class=\"hl\">BR</span> NSC M07/M09 Q1015",
      "tafHtml": "TAF EPRA 071430Z 0715/0724 34005KT 4000 <span class=\"hl\">BR</span> NSC \n  BECMG 0717/0720 2000 <span class=\"hl\">BR</span> BKN003"
    },
    {
      "icao": "EPSC",
      "iata": "SZZ",
      "name": "Solidarity Szczecin–Goleniów Airport",
      "updatedAt": "071430Z",
      "visibility_m": 10000,
      "taf_visibility_m": 2000,
      "worst_visibility_m": 2000,
      "ceiling_ft": null,
      "hazards": [
        "BR"
      ],
      "severityScore": 10,
      "metarRaw": "METAR EPSC 071430Z 15010KT CAVOK M04/M08 Q1013",
      "tafRaw": "TAF EPSC 071130Z 0712/0812 14012KT 9999 BKN030 \n  PROB30 0720/0806 2000 BR",
      "metarHtml": "METAR EPSC 071430Z 15010KT <span class=\"hl-vis\">CAVOK</span> M04/M08 Q1013",
      "tafHtml": "TAF EPSC 071130Z 0712/0812 14012KT 9999 BKN030 \n  PROB30 0720/0806 2000 <span class=\"hl\">BR</span>"
    },
    {
      "icao": "EPWR",
      "iata": "WRO",
      "name": "Copernicus Wrocław Airport",
      "updatedAt": "071430Z",
      "visibility_m": 10000,
      "taf_visibility_m": 4500,
      "worst_visibility_m": 4500,
      "ceiling_ft": 2300,
      "hazards": [
        "BR"
      ],
      "severityScore": 10,
      "metarRaw": "METAR EPWR 071430Z 19002KT 9999 FEW015 BKN023 M02/M06 Q1015",
      "tafRaw": "TAF EPWR 071430Z 0715/0815 VRB02KT 9999 BKN025 \n  PROB30 \n  TEMPO 0715/0806 4500 -SG BR BKN013",
      "metarHtml": "METAR EPWR 071430Z 19002KT 9999 FEW015 BKN023 M02/M06 Q1015",
      "tafHtml": "TAF EPWR 071430Z 0715/0815 VRB02KT 9999 BKN025 \n  PROB30 \n  TEMPO 0715/0806 4500 -SG <span class=\"hl\">BR</span> BKN013"
    },
    {
      "icao": "UDYZ",
      "iata": "EVN",
      "name": "Zvartnots International Airport",
      "updatedAt": "071430Z",
      "visibility_m": 3300,
      "taf_visibility_m": 2300,
      "worst_visibility_m": 2300,
      "ceiling_ft": null,
      "hazards": [
        "BR"
      ],
      "severityScore": 10,
      "metarRaw": "METAR UDYZ 071430Z 34003KT 3300 BR NSC M05/M09 Q1028 NOSIG",
      "tafRaw": "TAF UDYZ 071100Z 0712/0812 22006KT 2300 BR NSC",
      "metarHtml": "METAR UDYZ 071430Z 34003KT 3300 <span class=\"hl\">BR</span> NSC M05/M09 Q1028 NOSIG",
      "tafHtml": "TAF UDYZ 071100Z 0712/0812 22006KT 2300 <span class=\"hl\">BR</span> NSC"
    },
    {
      "icao": "BKPR",
      "iata": "PRN",
      "name": "Priština Adem Jashari International Airport",
      "updatedAt": "071430Z",
      "visibility_m": 10000,
      "taf_visibility_m": null,
      "worst_visibility_m": 10000,
      "ceiling_ft": 5500,
      "hazards": [],
      "severityScore": 5,
      "metarRaw": "METAR BKPR 071430Z 34013KT 9999 BKN055 03/03 Q1003 NOSIG",
      "tafRaw": null,
      "metarHtml": "METAR BKPR 071430Z 34013KT 9999 BKN055 03/03 Q1003 NOSIG",
      "tafHtml": null
    },
    {
      "icao": "ENTO",
      "iata": "TRF",
      "name": "Sandefjord Airport, Torp",
      "updatedAt": "071420Z",
      "visibility_m": 10000,
      "taf_visibility_m": null,
      "worst_visibility_m": 10000,
      "ceiling_ft": 2600,
      "hazards": [],
      "severityScore": 5,
      "metarRaw": "METAR ENTO 071420Z 36013KT 9999 OVC026 M09/M11 Q1007 NOSIG",
      "tafRaw": null,
      "metarHtml": "METAR ENTO 071420Z 36013KT 9999 OVC026 M09/M11 Q1007 NOSIG",
      "tafHtml": null
    },
    {
      "icao": "EPPO",
      "iata": "POZ",
      "name": "Poznań-Ławica Airport",
      "updatedAt": "071430Z",
      "visibility_m": 6000,
      "taf_visibility_m": null,
      "worst_visibility_m": 6000,
      "ceiling_ft": null,
      "hazards": [],
      "severityScore": 5,
      "metarRaw": "METAR EPPO 071430Z 11003KT 6000 NSC M04/M06 Q1015",
      "tafRaw": null,
      "metarHtml": "METAR EPPO 071430Z 11003KT 6000 NSC M04/M06 Q1015",
      "tafHtml": null
    },
    {
      "icao": "HESX",
      "iata": "SPX",
      "name": "Sphinx International Airport",
      "updatedAt": "071400Z",
      "visibility_m": 6000,
      "taf_visibility_m": null,
      "worst_visibility_m": 6000,
      "ceiling_ft": null,
      "hazards": [],
      "severityScore": 5,
      "metarRaw": "METAR HESX 071400Z 03007KT 6000 NSC 22/06 Q1019 NOSIG",
      "tafRaw": null,
      "metarHtml": "METAR HESX 071400Z 03007KT 6000 NSC 22/06 Q1019 NOSIG",
      "tafHtml": null
    },
    {
      "icao": "LBSF",
      "iata": "SOF",
      "name": "Sofia Airport",
      "updatedAt": "071430Z",
      "visibility_m": 10000,
      "taf_visibility_m": null,
      "worst_visibility_m": 10000,
      "ceiling_ft": 5400,
      "hazards": [],
      "severityScore": 5,
      "metarRaw": "METAR LBSF 071430Z 01005KT 300V030 9999 FEW020 SCT035 BKN054 09/07 Q1006 RERA NOSIG",
      "tafRaw": null,
      "metarHtml": "METAR LBSF 071430Z 01005KT 300V030 9999 FEW020 SCT035 BKN054 09/07 Q1006 RERA NOSIG",
      "tafHtml": null
    },
    {
      "icao": "LEBL",
      "iata": "BCN",
      "name": "Josep Tarradellas Barcelona-El Prat Airport",
      "updatedAt": "071430Z",
      "visibility_m": 10000,
      "taf_visibility_m": null,
      "worst_visibility_m": 10000,
      "ceiling_ft": null,
      "hazards": [],
      "severityScore": 5,
      "metarRaw": "METAR LEBL 071430Z 24005KT 200V310 CAVOK 09/M01 Q1017 NOSIG",
      "tafRaw": null,
      "metarHtml": "METAR LEBL 071430Z 24005KT 200V310 <span class=\"hl-vis\">CAVOK</span> 09/M01 Q1017 NOSIG",
      "tafHtml": null
    },
    {
      "icao": "LECH",
      "iata": "CDT",
      "name": "Castellón-Costa Azahar Airport",
      "updatedAt": "071430Z",
      "visibility_m": 10000,
      "taf_visibility_m": null,
      "worst_visibility_m": 10000,
      "ceiling_ft": null,
      "hazards": [],
      "severityScore": 5,
      "metarRaw": "METAR LECH 071430Z AUTO 03003KT CAVOK 11/M05 Q1018",
      "tafRaw": null,
      "metarHtml": "METAR LECH 071430Z AUTO 03003KT <span class=\"hl-vis\">CAVOK</span> 11/M05 Q1018",
      "tafHtml": null
    },
    {
      "icao": "LFOB",
      "iata": "BVA",
      "name": "Beauvais Tillé airport",
      "updatedAt": "071430Z",
      "visibility_m": 10000,
      "taf_visibility_m": null,
      "worst_visibility_m": 10000,
      "ceiling_ft": null,
      "hazards": [],
      "severityScore": 5,
      "metarRaw": "METAR LFOB 071430Z AUTO 23007KT 9999 FEW019 03/01 Q1007 NOSIG",
      "tafRaw": null,
      "metarHtml": "METAR LFOB 071430Z AUTO 23007KT 9999 FEW019 03/01 Q1007 NOSIG",
      "tafHtml": null
    },
    {
      "icao": "LPFR",
      "iata": "FAO",
      "name": "Faro Airport",
      "updatedAt": "071430Z",
      "visibility_m": 10000,
      "taf_visibility_m": null,
      "worst_visibility_m": 10000,
      "ceiling_ft": null,
      "hazards": [],
      "severityScore": 5,
      "metarRaw": "METAR LPFR 071430Z 03010KT 9999 FEW003 SCT008 12/11 Q1026",
      "tafRaw": null,
      "metarHtml": "METAR LPFR 071430Z 03010KT 9999 FEW003 SCT008 12/11 Q1026",
      "tafHtml": null
    },
    {
      "icao": "LZKZ",
      "iata": "KSC",
      "name": "Košice International Airport",
      "updatedAt": "071430Z",
      "visibility_m": 10000,
      "taf_visibility_m": null,
      "worst_visibility_m": 10000,
      "ceiling_ft": 4600,
      "hazards": [],
      "severityScore": 5,
      "metarRaw": "METAR LZKZ 071430Z 36018KT 9999 OVC046 M03/M07 Q1011 NOSIG",
      "tafRaw": null,
      "metarHtml": "METAR LZKZ 071430Z 36018KT 9999 OVC046 M03/M07 Q1011 NOSIG",
      "tafHtml": null
    },
    {
      "icao": "LZTT",
      "iata": "TAT",
      "name": "Poprad-Tatry Airport",
      "updatedAt": "071430Z",
      "visibility_m": 10000,
      "taf_visibility_m": null,
      "worst_visibility_m": 10000,
      "ceiling_ft": 4600,
      "hazards": [],
      "severityScore": 5,
      "metarRaw": "METAR LZTT 071430Z 09010KT 9999 FEW016 BKN046 M07/M10 Q1009 NOSIG",
      "tafRaw": null,
      "metarHtml": "METAR LZTT 071430Z 09010KT 9999 FEW016 BKN046 M07/M10 Q1009 NOSIG",
      "tafHtml": null
    },
    {
      "icao": "BIKF",
      "iata": "KEF",
      "name": "Keflavik International Airport",
      "updatedAt": "071430Z",
      "visibility_m": 10000,
      "taf_visibility_m": 10000,
      "worst_visibility_m": 10000,
      "ceiling_ft": null,
      "hazards": [],
      "severityScore": 0,
      "metarRaw": "METAR BIKF 071430Z 08021KT CAVOK M03/M11 Q1005",
      "tafRaw": "TAF BIKF 071332Z 0715/0815 07018KT 9999 FEW035 SCT045 TX02/0812Z TNM04/0720Z \n  TEMPO 0806/0810 07023G33KT",
      "metarHtml": "METAR BIKF 071430Z 08021KT <span class=\"hl-vis\">CAVOK</span> M03/M11 Q1005",
      "tafHtml": "TAF BIKF 071332Z 0715/0815 07018KT 9999 FEW035 SCT045 TX02/0812Z TNM04/0720Z \n  TEMPO 0806/0810 07023G33KT"
    },
    {
      "icao": "GCFV",
      "iata": "FUE",
      "name": "Fuerteventura Airport",
      "updatedAt": "071430Z",
      "visibility_m": 10000,
      "taf_visibility_m": 10000,
      "worst_visibility_m": 10000,
      "ceiling_ft": null,
      "hazards": [],
      "severityScore": 0,
      "metarRaw": "METAR GCFV 071430Z 03024KT 9999 SCT035 19/09 Q1027",
      "tafRaw": "TAF GCFV 071400Z 0715/0815 04023KT 9999 FEW035 TX20/0814Z TN14/0806Z \n  PROB40 \n  TEMPO 0715/0720 04023G33KT \n  BECMG 0802/0804 06013KT",
      "metarHtml": "METAR GCFV 071430Z 03024KT 9999 SCT035 19/09 Q1027",
      "tafHtml": "TAF GCFV 071400Z 0715/0815 04023KT 9999 FEW035 TX20/0814Z TN14/0806Z \n  PROB40 \n  TEMPO 0715/0720 04023G33KT \n  BECMG 0802/0804 06013KT"
    },
    {
      "icao": "GCLP",
      "iata": "LPA",
      "name": "Gran Canaria Airport",
      "updatedAt": "071430Z",
      "visibility_m": 10000,
      "taf_visibility_m": 10000,
      "worst_visibility_m": 10000,
      "ceiling_ft": 5000,
      "hazards": [],
      "severityScore": 0,
      "metarRaw": "METAR GCLP 071430Z 02022KT 9999 FEW030 BKN050 19/10 Q1027 NOSIG",
      "tafRaw": "TAF GCLP 071400Z 0715/0815 03025KT 9999 BKN035 TX20/0814Z TN14/0806Z \n  TEMPO 0715/0721 02025G35KT \n  BECMG 0723/0801 04015KT",
      "metarHtml": "METAR GCLP 071430Z 02022KT 9999 FEW030 BKN050 19/10 Q1027 NOSIG",
      "tafHtml": "TAF GCLP 071400Z 0715/0815 03025KT 9999 BKN035 TX20/0814Z TN14/0806Z \n  TEMPO 0715/0721 02025G35KT \n  BECMG 0723/0801 04015KT"
    },
    {
      "icao": "GCTS",
      "iata": "TFS",
      "name": "Tenerife Sur Airport",
      "updatedAt": "071430Z",
      "visibility_m": 10000,
      "taf_visibility_m": 10000,
      "worst_visibility_m": 10000,
      "ceiling_ft": null,
      "hazards": [],
      "severityScore": 0,
      "metarRaw": "METAR GCTS 071430Z 08024G34KT 9999 FEW035 21/07 Q1027 NOSIG",
      "tafRaw": "TAF GCTS 071400Z 0715/0815 06026KT 9999 FEW035 TX23/0814Z TN16/0806Z \n  TEMPO 0715/0721 06026G36KT \n  PROB40 \n  TEMPO 0721/0803 05020G30KT \n  TEMPO 0803/0809 05016KT",
      "metarHtml": "METAR GCTS 071430Z 08024G34KT 9999 FEW035 21/07 Q1027 NOSIG",
      "tafHtml": "TAF GCTS 071400Z 0715/0815 06026KT 9999 FEW035 TX23/0814Z TN16/0806Z \n  TEMPO 0715/0721 06026G36KT \n  PROB40 \n  TEMPO 0721/0803 05020G30KT \n  TEMPO 0803/0809 05016KT"
    },
    {
      "icao": "GMAD",
      "iata": "AGA",
      "name": "Al Massira Airport",
      "updatedAt": "071430Z",
      "visibility_m": 10000,
      "taf_visibility_m": 10000,
      "worst_visibility_m": 10000,
      "ceiling_ft": null,
      "hazards": [],
      "severityScore": 0,
      "metarRaw": "METAR GMAD 071430Z 26003KT CAVOK 17/08 Q1024 NOSIG",
      "tafRaw": "TAF GMAD 071100Z 0712/0818 22006KT CAVOK",
      "metarHtml": "METAR GMAD 071430Z 26003KT <span class=\"hl-vis\">CAVOK</span> 17/08 Q1024 NOSIG",
      "tafHtml": "TAF GMAD 071100Z 0712/0818 22006KT <span class=\"hl-vis\">CAVOK</span>"
    },
    {
      "icao": "GMMX",
      "iata": "RAK",
      "name": "Menara Airport",
      "updatedAt": "071430Z",
      "visibility_m": 10000,
      "taf_visibility_m": 8000,
      "worst_visibility_m": 8000,
      "ceiling_ft": null,
      "hazards": [],
      "severityScore": 0,
      "metarRaw": "METAR GMMX 071430Z 10006KT 020V140 CAVOK 13/02 Q1028 NOSIG",
      "tafRaw": "TAF GMMX 071100Z 0712/0818 06006KT 8000 NSC \n  TEMPO 0715/0721 34016KT",
      "metarHtml": "METAR GMMX 071430Z 10006KT 020V140 <span class=\"hl-vis\">CAVOK</span> 13/02 Q1028 NOSIG",
      "tafHtml": "TAF GMMX 071100Z 0712/0818 06006KT 8000 NSC \n  TEMPO 0715/0721 34016KT"
    },
    {
      "icao": "EDDB",
      "iata": "BER",
      "name": "Berlin Brandenburg Airport",
      "updatedAt": "071420Z",
      "visibility_m": 10000,
      "taf_visibility_m": 10000,
      "worst_visibility_m": 10000,
      "ceiling_ft": null,
      "hazards": [],
      "severityScore": 0,
      "metarRaw": "METAR EDDB 071420Z AUTO 15007KT CAVOK M04/M07 Q1013 NOSIG",
      "tafRaw": "TAF EDDB 071100Z 0712/0812 16007KT CAVOK",
      "metarHtml": "METAR EDDB 071420Z AUTO 15007KT <span class=\"hl-vis\">CAVOK</span> M04/M07 Q1013 NOSIG",
      "tafHtml": "TAF EDDB 071100Z 0712/0812 16007KT <span class=\"hl-vis\">CAVOK</span>"
    },
    {
      "icao": "EFTU",
      "iata": "TKU",
      "name": "Turku Airport",
      "updatedAt": "071420Z",
      "visibility_m": 10000,
      "taf_visibility_m": 10000,
      "worst_visibility_m": 10000,
      "ceiling_ft": 3400,
      "hazards": [],
      "severityScore": 0,
      "metarRaw": "METAR EFTU 071420Z AUTO 09011KT 9999 OVC034 M06/M08 Q1015",
      "tafRaw": "TAF EFTU 071425Z 0715/0815 09011KT 9999 BKN035 \n  BECMG 0808/0810 BKN008",
      "metarHtml": "METAR EFTU 071420Z AUTO 09011KT 9999 OVC034 M06/M08 Q1015",
      "tafHtml": "TAF EFTU 071425Z 0715/0815 09011KT 9999 BKN035 \n  BECMG 0808/0810 BKN008"
    },
    {
      "icao": "EGNM",
      "iata": "LBA",
      "name": "Leeds Bradford Airport",
      "updatedAt": "071420Z",
      "visibility_m": 10000,
      "taf_visibility_m": 3000,
      "worst_visibility_m": 3000,
      "ceiling_ft": null,
      "hazards": [],
      "severityScore": 0,
      "metarRaw": "METAR EGNM 071420Z 28020KT 9999 FEW016 04/M00 Q1000",
      "tafRaw": "TAF EGNM 071055Z 0712/0812 28015KT 9999 FEW015 \n  TEMPO 0712/0716 29018G28KT \n  BECMG 0800/0803 21004KT \n  TEMPO 0801/0806 3000 RASN BKN009",
      "metarHtml": "METAR EGNM 071420Z 28020KT 9999 FEW016 04/M00 Q1000",
      "tafHtml": "TAF EGNM 071055Z 0712/0812 28015KT 9999 FEW015 \n  TEMPO 0712/0716 29018G28KT \n  BECMG 0800/0803 21004KT \n  TEMPO 0801/0806 3000 RASN BKN009"
    },
    {
      "icao": "EKCH",
      "iata": "CPH",
      "name": "Copenhagen Kastrup Airport",
      "updatedAt": "071420Z",
      "visibility_m": 10000,
      "taf_visibility_m": 10000,
      "worst_visibility_m": 10000,
      "ceiling_ft": null,
      "hazards": [],
      "severityScore": 0,
      "metarRaw": "METAR EKCH 071420Z AUTO 18018KT 9999 BKN018/// M00/M04 Q1008 TEMPO 17015G25KT",
      "tafRaw": "TAF EKCH 071427Z 0715/0815 17015KT 9999 BKN018 \n  TEMPO 0715/0803 18015G25KT \n  TEMPO 0804/0815 BKN012",
      "metarHtml": "METAR EKCH 071420Z AUTO 18018KT 9999 BKN018/// M00/M04 Q1008 TEMPO 17015G25KT",
      "tafHtml": "TAF EKCH 071427Z 0715/0815 17015KT 9999 BKN018 \n  TEMPO 0715/0803 18015G25KT \n  TEMPO 0804/0815 BKN012"
    },
    {
      "icao": "ENAL",
      "iata": "AES",
      "name": "Ålesund Airport, Vigra",
      "updatedAt": "071420Z",
      "visibility_m": 10000,
      "taf_visibility_m": 10000,
      "worst_visibility_m": 10000,
      "ceiling_ft": null,
      "hazards": [],
      "severityScore": 0,
      "metarRaw": "METAR ENAL 071420Z 12012KT CAVOK M03/M11 Q1007",
      "tafRaw": "TAF ENAL 071400Z 0715/0724 14009KT CAVOK",
      "metarHtml": "METAR ENAL 071420Z 12012KT <span class=\"hl-vis\">CAVOK</span> M03/M11 Q1007",
      "tafHtml": "TAF ENAL 071400Z 0715/0724 14009KT <span class=\"hl-vis\">CAVOK</span>"
    },
    {
      "icao": "ENBR",
      "iata": "BGO",
      "name": "Bergen Airport, Flesland",
      "updatedAt": "071420Z",
      "visibility_m": 10000,
      "taf_visibility_m": 10000,
      "worst_visibility_m": 10000,
      "ceiling_ft": null,
      "hazards": [],
      "severityScore": 0,
      "metarRaw": "METAR ENBR 071420Z 07001KT CAVOK M05/M13 Q1005 NOSIG RMK WIND 1200FT 04004KT",
      "tafRaw": "TAF ENBR 071100Z 0712/0812 06005KT CAVOK",
      "metarHtml": "METAR ENBR 071420Z 07001KT <span class=\"hl-vis\">CAVOK</span> M05/M13 Q1005 NOSIG RMK WIND 1200FT 04004KT",
      "tafHtml": "TAF ENBR 071100Z 0712/0812 06005KT <span class=\"hl-vis\">CAVOK</span>"
    },
    {
      "icao": "ENHD",
      "iata": "HAU",
      "name": "Haugesund Airport, Karmøy",
      "updatedAt": "071420Z",
      "visibility_m": 10000,
      "taf_visibility_m": 10000,
      "worst_visibility_m": 10000,
      "ceiling_ft": null,
      "hazards": [],
      "severityScore": 0,
      "metarRaw": "METAR ENHD 071420Z 09011KT CAVOK M05/M13 Q1004",
      "tafRaw": "TAF ENHD 071400Z 0715/0723 07008KT CAVOK",
      "metarHtml": "METAR ENHD 071420Z 09011KT <span class=\"hl-vis\">CAVOK</span> M05/M13 Q1004",
      "tafHtml": "TAF ENHD 071400Z 0715/0723 07008KT <span class=\"hl-vis\">CAVOK</span>"
    },
    {
      "icao": "ENTC",
      "iata": "TOS",
      "name": "Tromsø Airport, Langnes",
      "updatedAt": "071420Z",
      "visibility_m": 10000,
      "taf_visibility_m": 10000,
      "worst_visibility_m": 10000,
      "ceiling_ft": null,
      "hazards": [],
      "severityScore": 0,
      "metarRaw": "METAR ENTC 071420Z 09004KT 060V140 CAVOK M12/M14 Q1023 NOSIG RMK WIND 2600FT 16017KT",
      "tafRaw": "TAF ENTC 071100Z 0712/0812 VRB05KT CAVOK \n  TEMPO 0800/0812 20020KT",
      "metarHtml": "METAR ENTC 071420Z 09004KT 060V140 <span class=\"hl-vis\">CAVOK</span> M12/M14 Q1023 NOSIG RMK WIND 2600FT 16017KT",
      "tafHtml": "TAF ENTC 071100Z 0712/0812 VRB05KT <span class=\"hl-vis\">CAVOK</span> \n  TEMPO 0800/0812 20020KT"
    },
    {
      "icao": "ENVA",
      "iata": "TRD",
      "name": "Trondheim Airport, Værnes",
      "updatedAt": "071420Z",
      "visibility_m": 10000,
      "taf_visibility_m": 10000,
      "worst_visibility_m": 10000,
      "ceiling_ft": null,
      "hazards": [],
      "severityScore": 0,
      "metarRaw": "METAR ENVA 071420Z 07008KT 9999 VCSH FEW029 M08/M13 Q1013 NOSIG RMK WIND 670FT 08010KT",
      "tafRaw": "TAF ENVA 071100Z 0712/0812 11008KT 9999 FEW025",
      "metarHtml": "METAR ENVA 071420Z 07008KT 9999 VCSH FEW029 M08/M13 Q1013 NOSIG RMK WIND 670FT 08010KT",
      "tafHtml": "TAF ENVA 071100Z 0712/0812 11008KT 9999 FEW025"
    },
    {
      "icao": "ENZV",
      "iata": "SVG",
      "name": "Stavanger Airport, Sola",
      "updatedAt": "071420Z",
      "visibility_m": 10000,
      "taf_visibility_m": 10000,
      "worst_visibility_m": 10000,
      "ceiling_ft": null,
      "hazards": [],
      "severityScore": 0,
      "metarRaw": "METAR ENZV 071420Z 08003KT CAVOK M03/M12 Q1004 NOSIG",
      "tafRaw": "TAF ENZV 071100Z 0712/0812 08006KT CAVOK",
      "metarHtml": "METAR ENZV 071420Z 08003KT <span class=\"hl-vis\">CAVOK</span> M03/M12 Q1004 NOSIG",
      "tafHtml": "TAF ENZV 071100Z 0712/0812 08006KT <span class=\"hl-vis\">CAVOK</span>"
    },
    {
      "icao": "ESMS",
      "iata": "MMX",
      "name": "Malmö Sturup Airport",
      "updatedAt": "071420Z",
      "visibility_m": 10000,
      "taf_visibility_m": 10000,
      "worst_visibility_m": 10000,
      "ceiling_ft": null,
      "hazards": [],
      "severityScore": 0,
      "metarRaw": "METAR ESMS 071420Z 18013KT 9999 FEW020 M02/M04 Q1009",
      "tafRaw": "TAF ESMS 071427Z 0715/0815 20012KT 9999 BKN018 \n  TEMPO 0715/0717 BKN014",
      "metarHtml": "METAR ESMS 071420Z 18013KT 9999 FEW020 M02/M04 Q1009",
      "tafHtml": "TAF ESMS 071427Z 0715/0815 20012KT 9999 BKN018 \n  TEMPO 0715/0717 BKN014"
    },
    {
      "icao": "HEGN",
      "iata": "HRG",
      "name": "Hurghada International Airport",
      "updatedAt": "071400Z",
      "visibility_m": 10000,
      "taf_visibility_m": 10000,
      "worst_visibility_m": 10000,
      "ceiling_ft": null,
      "hazards": [],
      "severityScore": 0,
      "metarRaw": "METAR HEGN 071400Z 36004KT CAVOK 25/10 Q1019 NOSIG",
      "tafRaw": "TAF HEGN 071100Z 0712/0818 36014KT CAVOK",
      "metarHtml": "METAR HEGN 071400Z 36004KT <span class=\"hl-vis\">CAVOK</span> 25/10 Q1019 NOSIG",
      "tafHtml": "TAF HEGN 071100Z 0712/0818 36014KT <span class=\"hl-vis\">CAVOK</span>"
    },
    {
      "icao": "HEMA",
      "iata": "RMF",
      "name": "Marsa Alam International Airport",
      "updatedAt": "071400Z",
      "visibility_m": 4000,
      "taf_visibility_m": 3000,
      "worst_visibility_m": 3000,
      "ceiling_ft": null,
      "hazards": [],
      "severityScore": 0,
      "metarRaw": "METAR HEMA 071400Z 35016KT 4000 SA NSC 24/16 Q1018 NOSIG",
      "tafRaw": "TAF HEMA 071100Z 0712/0818 36016KT 6000 NSC \n  TEMPO 0712/0921 3000 SA",
      "metarHtml": "METAR HEMA 071400Z 35016KT 4000 SA NSC 24/16 Q1018 NOSIG",
      "tafHtml": "TAF HEMA 071100Z 0712/0818 36016KT 6000 NSC \n  TEMPO 0712/0921 3000 SA"
    },
    {
      "icao": "HESH",
      "iata": "SSH",
      "name": "Sharm El Sheikh International Airport",
      "updatedAt": "071400Z",
      "visibility_m": 10000,
      "taf_visibility_m": 10000,
      "worst_visibility_m": 10000,
      "ceiling_ft": null,
      "hazards": [],
      "severityScore": 0,
      "metarRaw": "METAR HESH 071400Z 03006KT CAVOK 25/11 Q1018 NOSIG",
      "tafRaw": "TAF HESH 071100Z 0712/0818 01012KT CAVOK",
      "metarHtml": "METAR HESH 071400Z 03006KT <span class=\"hl-vis\">CAVOK</span> 25/11 Q1018 NOSIG",
      "tafHtml": "TAF HESH 071100Z 0712/0818 01012KT <span class=\"hl-vis\">CAVOK</span>"
    },
    {
      "icao": "LCLK",
      "iata": "LCA",
      "name": "Larnaca International Airport",
      "updatedAt": "071430Z",
      "visibility_m": 10000,
      "taf_visibility_m": 10000,
      "worst_visibility_m": 10000,
      "ceiling_ft": null,
      "hazards": [],
      "severityScore": 0,
      "metarRaw": "METAR LCLK 071430Z 11004KT CAVOK 18/14 Q1021 NOSIG",
      "tafRaw": "TAF LCLK 071130Z 0712/0812 09010KT 9999 FEW040 \n  BECMG 0714/0717 35007KT \n  BECMG 0808/0811 14010KT",
      "metarHtml": "METAR LCLK 071430Z 11004KT <span class=\"hl-vis\">CAVOK</span> 18/14 Q1021 NOSIG",
      "tafHtml": "TAF LCLK 071130Z 0712/0812 09010KT 9999 FEW040 \n  BECMG 0714/0717 35007KT \n  BECMG 0808/0811 14010KT"
    },
    {
      "icao": "LCPH",
      "iata": "PFO",
      "name": "Paphos International Airport",
      "updatedAt": "071430Z",
      "visibility_m": 10000,
      "taf_visibility_m": 10000,
      "worst_visibility_m": 10000,
      "ceiling_ft": null,
      "hazards": [],
      "severityScore": 0,
      "metarRaw": "METAR LCPH 071430Z 15011KT CAVOK 19/14 Q1021 NOSIG",
      "tafRaw": "TAF LCPH 071130Z 0712/0812 15015KT 9999 FEW040 \n  BECMG 0713/0716 08009KT \n  PROB30 \n  TEMPO 0723/0805 10019KT \n  BECMG 0805/0809 14016KT",
      "metarHtml": "METAR LCPH 071430Z 15011KT <span class=\"hl-vis\">CAVOK</span> 19/14 Q1021 NOSIG",
      "tafHtml": "TAF LCPH 071130Z 0712/0812 15015KT 9999 FEW040 \n  BECMG 0713/0716 08009KT \n  PROB30 \n  TEMPO 0723/0805 10019KT \n  BECMG 0805/0809 14016KT"
    },
    {
      "icao": "LEAL",
      "iata": "ALC",
      "name": "Alicante-Elche Miguel Hernández Airport",
      "updatedAt": "071430Z",
      "visibility_m": 10000,
      "taf_visibility_m": 10000,
      "worst_visibility_m": 10000,
      "ceiling_ft": null,
      "hazards": [],
      "severityScore": 0,
      "metarRaw": "METAR LEAL 071430Z 28011KT 240V300 CAVOK 14/M02 Q1021 NOSIG",
      "tafRaw": "TAF LEAL 071100Z 0712/0812 29012KT CAVOK TX13/0714Z TN07/0806Z \n  TEMPO 0712/0714 29015G25KT \n  TEMPO 0717/0720 VRB04KT \n  TEMPO 0720/0812 29015G25KT \n  TEMPO 0801/0808 29023G33KT",
      "metarHtml": "METAR LEAL 071430Z 28011KT 240V300 <span class=\"hl-vis\">CAVOK</span> 14/M02 Q1021 NOSIG",
      "tafHtml": "TAF LEAL 071100Z 0712/0812 29012KT <span class=\"hl-vis\">CAVOK</span> TX13/0714Z TN07/0806Z \n  TEMPO 0712/0714 29015G25KT \n  TEMPO 0717/0720 VRB04KT \n  TEMPO 0720/0812 29015G25KT \n  TEMPO 0801/0808 29023G33KT"
    },
    {
      "icao": "LEMG",
      "iata": "AGP",
      "name": "Málaga-Costa del Sol Airport",
      "updatedAt": "071430Z",
      "visibility_m": 10000,
      "taf_visibility_m": 10000,
      "worst_visibility_m": 10000,
      "ceiling_ft": null,
      "hazards": [],
      "severityScore": 0,
      "metarRaw": "METAR LEMG 071430Z 30012KT 260V320 CAVOK 13/M00 Q1025 NOSIG",
      "tafRaw": "TAF LEMG 071100Z 0712/0812 29012KT 9999 FEW040 TX13/0714Z TN06/0806Z",
      "metarHtml": "METAR LEMG 071430Z 30012KT 260V320 <span class=\"hl-vis\">CAVOK</span> 13/M00 Q1025 NOSIG",
      "tafHtml": "TAF LEMG 071100Z 0712/0812 29012KT 9999 FEW040 TX13/0714Z TN06/0806Z"
    },
    {
      "icao": "LEVC",
      "iata": "VLC",
      "name": "Valencia Airport",
      "updatedAt": "071430Z",
      "visibility_m": 10000,
      "taf_visibility_m": 10000,
      "worst_visibility_m": 10000,
      "ceiling_ft": null,
      "hazards": [],
      "severityScore": 0,
      "metarRaw": "METAR LEVC 071430Z 26015KT CAVOK 13/M02 Q1019 NOSIG",
      "tafRaw": "TAF LEVC 071100Z 0712/0812 25012KT CAVOK TX13/0714Z TN06/0806Z \n  PROB40 \n  TEMPO 0712/0718 25015G25KT \n  TEMPO 0806/0812 25015G25KT \n  PROB40 \n  TEMPO 0810/0812 25020G30KT",
      "metarHtml": "METAR LEVC 071430Z 26015KT <span class=\"hl-vis\">CAVOK</span> 13/M02 Q1019 NOSIG",
      "tafHtml": "TAF LEVC 071100Z 0712/0812 25012KT <span class=\"hl-vis\">CAVOK</span> TX13/0714Z TN06/0806Z \n  PROB40 \n  TEMPO 0712/0718 25015G25KT \n  TEMPO 0806/0812 25015G25KT \n  PROB40 \n  TEMPO 0810/0812 25020G30KT"
    },
    {
      "icao": "LEZG",
      "iata": "ZAZ",
      "name": "Zaragoza Airport",
      "updatedAt": "071430Z",
      "visibility_m": 10000,
      "taf_visibility_m": 10000,
      "worst_visibility_m": 10000,
      "ceiling_ft": 6000,
      "hazards": [],
      "severityScore": 0,
      "metarRaw": "METAR LEZG 071430Z 29011KT 9999 SCT050 BKN060 08/M02 Q1020 NOSIG",
      "tafRaw": "TAF LEZG 071100Z 0712/0812 30007KT 9999 FEW030 TX08/0715Z TN05/0806Z \n  BECMG 0718/0720 24012KT \n  TEMPO 0720/0812 24015G25KT \n  TEMPO 0803/0805 24020G30KT \n  PROB40 \n  TEMPO 0808/0812 24023G33KT",
      "metarHtml": "METAR LEZG 071430Z 29011KT 9999 SCT050 BKN060 08/M02 Q1020 NOSIG",
      "tafHtml": "TAF LEZG 071100Z 0712/0812 30007KT 9999 FEW030 TX08/0715Z TN05/0806Z \n  BECMG 0718/0720 24012KT \n  TEMPO 0720/0812 24015G25KT \n  TEMPO 0803/0805 24020G30KT \n  PROB40 \n  TEMPO 0808/0812 24023G33KT"
    },
    {
      "icao": "LFMN",
      "iata": "NCE",
      "name": "Nice-Côte d'Azur Airport",
      "updatedAt": "071430Z",
      "visibility_m": 10000,
      "taf_visibility_m": 10000,
      "worst_visibility_m": 10000,
      "ceiling_ft": null,
      "hazards": [],
      "severityScore": 0,
      "metarRaw": "METAR LFMN 071430Z 24015KT 9999 FEW040 10/M02 Q1010 NOSIG",
      "tafRaw": "TAF LFMN 071400Z 0715/0821 24012KT CAVOK \n  BECMG 0717/0719 32012KT \n  TEMPO 0810/0817 VRB03KT",
      "metarHtml": "METAR LFMN 071430Z 24015KT 9999 FEW040 10/M02 Q1010 NOSIG",
      "tafHtml": "TAF LFMN 071400Z 0715/0821 24012KT <span class=\"hl-vis\">CAVOK</span> \n  BECMG 0717/0719 32012KT \n  TEMPO 0810/0817 VRB03KT"
    },
    {
      "icao": "LIBP",
      "iata": "PSR",
      "name": "Abruzzo Airport",
      "updatedAt": "071420Z",
      "visibility_m": 10000,
      "taf_visibility_m": 10000,
      "worst_visibility_m": 10000,
      "ceiling_ft": null,
      "hazards": [],
      "severityScore": 0,
      "metarRaw": "METAR LIBP 071420Z AUTO 33007KT 270V350 9999 BKN042/// BKN110/// 06/M00 Q1008",
      "tafRaw": "TAF LIBP 071100Z 0712/0812 30007KT 9999 BKN030",
      "metarHtml": "METAR LIBP 071420Z AUTO 33007KT 270V350 9999 BKN042/// BKN110/// 06/M00 Q1008",
      "tafHtml": "TAF LIBP 071100Z 0712/0812 30007KT 9999 BKN030"
    },
    {
      "icao": "LICC",
      "iata": "CTA",
      "name": "Catania-Fontanarossa Airport",
      "updatedAt": "071420Z",
      "visibility_m": 10000,
      "taf_visibility_m": 10000,
      "worst_visibility_m": 10000,
      "ceiling_ft": 7000,
      "hazards": [],
      "severityScore": 0,
      "metarRaw": "METAR LICC 071420Z 25013KT 9999 FEW040 BKN070 14/12 Q1005",
      "tafRaw": "TAF LICC 071100Z 0712/0812 26013KT 9999 SCT050 \n  BECMG 0712/0714 26018G28KT",
      "metarHtml": "METAR LICC 071420Z 25013KT 9999 FEW040 BKN070 14/12 Q1005",
      "tafHtml": "TAF LICC 071100Z 0712/0812 26013KT 9999 SCT050 \n  BECMG 0712/0714 26018G28KT"
    },
    {
      "icao": "LIMC",
      "iata": "MXP",
      "name": "Milan Malpensa International Airport",
      "updatedAt": "071420Z",
      "visibility_m": 10000,
      "taf_visibility_m": 10000,
      "worst_visibility_m": 10000,
      "ceiling_ft": null,
      "hazards": [],
      "severityScore": 0,
      "metarRaw": "METAR LIMC 071420Z 22006KT 190V260 CAVOK 02/M02 Q1010 NOSIG",
      "tafRaw": "TAF LIMC 071100Z 0712/0818 VRB04KT CAVOK",
      "metarHtml": "METAR LIMC 071420Z 22006KT 190V260 <span class=\"hl-vis\">CAVOK</span> 02/M02 Q1010 NOSIG",
      "tafHtml": "TAF LIMC 071100Z 0712/0818 VRB04KT <span class=\"hl-vis\">CAVOK</span>"
    },
    {
      "icao": "LIME",
      "iata": "BGY",
      "name": "Milan Bergamo Airport / Antonio Locatelli Air Base",
      "updatedAt": "071420Z",
      "visibility_m": 10000,
      "taf_visibility_m": 10000,
      "worst_visibility_m": 10000,
      "ceiling_ft": null,
      "hazards": [],
      "severityScore": 0,
      "metarRaw": "METAR LIME 071420Z 23006KT 190V260 CAVOK 03/M03 Q1010 NOSIG",
      "tafRaw": "TAF LIME 071100Z 0712/0812 VRB04KT CAVOK",
      "metarHtml": "METAR LIME 071420Z 23006KT 190V260 <span class=\"hl-vis\">CAVOK</span> 03/M03 Q1010 NOSIG",
      "tafHtml": "TAF LIME 071100Z 0712/0812 VRB04KT <span class=\"hl-vis\">CAVOK</span>"
    },
    {
      "icao": "LIMF",
      "iata": "TRN",
      "name": "Turin Airport",
      "updatedAt": "071420Z",
      "visibility_m": 10000,
      "taf_visibility_m": 10000,
      "worst_visibility_m": 10000,
      "ceiling_ft": null,
      "hazards": [],
      "severityScore": 0,
      "metarRaw": "METAR LIMF 071420Z 19005KT CAVOK 04/M08 Q1010",
      "tafRaw": "TAF LIMF 071100Z 0712/0812 VRB03KT CAVOK",
      "metarHtml": "METAR LIMF 071420Z 19005KT <span class=\"hl-vis\">CAVOK</span> 04/M08 Q1010",
      "tafHtml": "TAF LIMF 071100Z 0712/0812 VRB03KT <span class=\"hl-vis\">CAVOK</span>"
    },
    {
      "icao": "LIMJ",
      "iata": "GOA",
      "name": "Genoa Cristoforo Colombo Airport",
      "updatedAt": "071420Z",
      "visibility_m": 10000,
      "taf_visibility_m": 10000,
      "worst_visibility_m": 10000,
      "ceiling_ft": null,
      "hazards": [],
      "severityScore": 0,
      "metarRaw": "METAR LIMJ 071420Z VRB04KT CAVOK 08/M14 Q1010",
      "tafRaw": "TAF LIMJ 071100Z 0712/0812 04017KT CAVOK \n  BECMG 0719/0721 04007KT \n  BECMG 0810/0812 12010KT",
      "metarHtml": "METAR LIMJ 071420Z VRB04KT <span class=\"hl-vis\">CAVOK</span> 08/M14 Q1010",
      "tafHtml": "TAF LIMJ 071100Z 0712/0812 04017KT <span class=\"hl-vis\">CAVOK</span> \n  BECMG 0719/0721 04007KT \n  BECMG 0810/0812 12010KT"
    },
    {
      "icao": "LIPE",
      "iata": "BLQ",
      "name": "Bologna Guglielmo Marconi Airport",
      "updatedAt": "071420Z",
      "visibility_m": 10000,
      "taf_visibility_m": 10000,
      "worst_visibility_m": 10000,
      "ceiling_ft": null,
      "hazards": [],
      "severityScore": 0,
      "metarRaw": "METAR LIPE 071420Z 28005KT CAVOK 03/M01 Q1011",
      "tafRaw": "TAF LIPE 071100Z 0712/0812 26007KT 9999 BKN030",
      "metarHtml": "METAR LIPE 071420Z 28005KT <span class=\"hl-vis\">CAVOK</span> 03/M01 Q1011",
      "tafHtml": "TAF LIPE 071100Z 0712/0812 26007KT 9999 BKN030"
    },
    {
      "icao": "LIPH",
      "iata": "TSF",
      "name": "Treviso Antonio Canova Airport",
      "updatedAt": "071420Z",
      "visibility_m": 10000,
      "taf_visibility_m": 10000,
      "worst_visibility_m": 10000,
      "ceiling_ft": null,
      "hazards": [],
      "severityScore": 0,
      "metarRaw": "METAR LIPH 071420Z 20004KT 160V230 CAVOK 06/M08 Q1010",
      "tafRaw": "TAF LIPH 071100Z 0712/0812 VRB05KT CAVOK",
      "metarHtml": "METAR LIPH 071420Z 20004KT 160V230 <span class=\"hl-vis\">CAVOK</span> 06/M08 Q1010",
      "tafHtml": "TAF LIPH 071100Z 0712/0812 VRB05KT <span class=\"hl-vis\">CAVOK</span>"
    },
    {
      "icao": "LIPQ",
      "iata": "TRS",
      "name": "Trieste–Friuli Venezia Giulia Airport",
      "updatedAt": "071420Z",
      "visibility_m": 10000,
      "taf_visibility_m": 10000,
      "worst_visibility_m": 10000,
      "ceiling_ft": null,
      "hazards": [],
      "severityScore": 0,
      "metarRaw": "METAR LIPQ 071420Z AUTO 12008KT 9999 NCD 03/M05 Q1010",
      "tafRaw": "TAF LIPQ 071100Z 0712/0812 08006KT 9999 SCT070",
      "metarHtml": "METAR LIPQ 071420Z AUTO 12008KT 9999 NCD 03/M05 Q1010",
      "tafHtml": "TAF LIPQ 071100Z 0712/0812 08006KT 9999 SCT070"
    },
    {
      "icao": "LIPR",
      "iata": "RMI",
      "name": "Federico Fellini International Airport",
      "updatedAt": "071420Z",
      "visibility_m": 10000,
      "taf_visibility_m": 10000,
      "worst_visibility_m": 10000,
      "ceiling_ft": 3000,
      "hazards": [],
      "severityScore": 0,
      "metarRaw": "METAR LIPR 071420Z 28011KT 9999 BKN030 02/M02 Q1010",
      "tafRaw": "TAF LIPR 071100Z 0712/0812 30012KT 9999 BKN030 \n  PROB40 \n  TEMPO 0712/0714 -RASN BKN008 \n  BECMG 0800/0802 VRB05KT",
      "metarHtml": "METAR LIPR 071420Z 28011KT 9999 BKN030 02/M02 Q1010",
      "tafHtml": "TAF LIPR 071100Z 0712/0812 30012KT 9999 BKN030 \n  PROB40 \n  TEMPO 0712/0714 -RASN BKN008 \n  BECMG 0800/0802 VRB05KT"
    },
    {
      "icao": "LIPX",
      "iata": "VRN",
      "name": "Verona Villafranca Valerio Catullo Airport",
      "updatedAt": "071420Z",
      "visibility_m": 10000,
      "taf_visibility_m": 10000,
      "worst_visibility_m": 10000,
      "ceiling_ft": null,
      "hazards": [],
      "severityScore": 0,
      "metarRaw": "METAR LIPX 071420Z 24007KT CAVOK 05/M05 Q1010",
      "tafRaw": "TAF LIPX 071100Z 0712/0812 VRB05KT CAVOK",
      "metarHtml": "METAR LIPX 071420Z 24007KT <span class=\"hl-vis\">CAVOK</span> 05/M05 Q1010",
      "tafHtml": "TAF LIPX 071100Z 0712/0812 VRB05KT <span class=\"hl-vis\">CAVOK</span>"
    },
    {
      "icao": "LIPZ",
      "iata": "VCE",
      "name": "Venice Marco Polo Airport",
      "updatedAt": "071420Z",
      "visibility_m": 10000,
      "taf_visibility_m": 10000,
      "worst_visibility_m": 10000,
      "ceiling_ft": null,
      "hazards": [],
      "severityScore": 0,
      "metarRaw": "METAR LIPZ 071420Z 09006KT CAVOK 05/M07 Q1011 NOSIG",
      "tafRaw": "TAF LIPZ 071100Z 0712/0818 VRB05KT CAVOK",
      "metarHtml": "METAR LIPZ 071420Z 09006KT <span class=\"hl-vis\">CAVOK</span> 05/M07 Q1011 NOSIG",
      "tafHtml": "TAF LIPZ 071100Z 0712/0818 VRB05KT <span class=\"hl-vis\">CAVOK</span>"
    },
    {
      "icao": "LIRP",
      "iata": "PSA",
      "name": "Pisa International Airport",
      "updatedAt": "071415Z",
      "visibility_m": 10000,
      "taf_visibility_m": 10000,
      "worst_visibility_m": 10000,
      "ceiling_ft": null,
      "hazards": [],
      "severityScore": 0,
      "metarRaw": "METAR LIRP 071415Z 12009KT CAVOK 06/M05 Q1009 NOSIG",
      "tafRaw": "TAF LIRP 071100Z 0712/0812 12007KT CAVOK",
      "metarHtml": "METAR LIRP 071415Z 12009KT <span class=\"hl-vis\">CAVOK</span> 06/M05 Q1009 NOSIG",
      "tafHtml": "TAF LIRP 071100Z 0712/0812 12007KT <span class=\"hl-vis\">CAVOK</span>"
    },
    {
      "icao": "LIRZ",
      "iata": "PEG",
      "name": "Perugia San Francesco d'Assisi – Umbria International Airport",
      "updatedAt": "071420Z",
      "visibility_m": 10000,
      "taf_visibility_m": 10000,
      "worst_visibility_m": 10000,
      "ceiling_ft": null,
      "hazards": [],
      "severityScore": 0,
      "metarRaw": "METAR LIRZ 071420Z AUTO 01011KT 9999 OVC039/// 03/M01 Q1007",
      "tafRaw": "TAF LIRZ 071100Z 0712/0812 01013KT 9999 BKN040 \n  BECMG 0718/0720 VRB05KT",
      "metarHtml": "METAR LIRZ 071420Z AUTO 01011KT 9999 OVC039/// 03/M01 Q1007",
      "tafHtml": "TAF LIRZ 071100Z 0712/0812 01013KT 9999 BKN040 \n  BECMG 0718/0720 VRB05KT"
    },
    {
      "icao": "LLBG",
      "iata": "TLV",
      "name": "Ben Gurion International Airport",
      "updatedAt": "071420Z",
      "visibility_m": 10000,
      "taf_visibility_m": 10000,
      "worst_visibility_m": 10000,
      "ceiling_ft": null,
      "hazards": [],
      "severityScore": 0,
      "metarRaw": "METAR LLBG 071420Z 28005KT CAVOK 20/13 Q1020 NOSIG",
      "tafRaw": "TAF LLBG 071102Z 0712/0812 33006KT CAVOK \n  BECMG 0715/0717 VRB04KT \n  TEMPO 0800/0807 13005KT \n  BECMG 0807/0809 26006KT TX23/0712Z TN10/0804Z",
      "metarHtml": "METAR LLBG 071420Z 28005KT <span class=\"hl-vis\">CAVOK</span> 20/13 Q1020 NOSIG",
      "tafHtml": "TAF LLBG 071102Z 0712/0812 33006KT <span class=\"hl-vis\">CAVOK</span> \n  BECMG 0715/0717 VRB04KT \n  TEMPO 0800/0807 13005KT \n  BECMG 0807/0809 26006KT TX23/0712Z TN10/0804Z"
    },
    {
      "icao": "LOWW",
      "iata": "VIE",
      "name": "Vienna International Airport",
      "updatedAt": "071420Z",
      "visibility_m": 10000,
      "taf_visibility_m": 10000,
      "worst_visibility_m": 10000,
      "ceiling_ft": 3400,
      "hazards": [],
      "severityScore": 0,
      "metarRaw": "METAR LOWW 071420Z 36012KT 9999 FEW032 BKN034 M02/M10 Q1014 NOSIG",
      "tafRaw": "TAF LOWW 071415Z 0715/0821 32010KT 9999 FEW040 TXM02/0814Z TNM06/0805Z \n  TEMPO 0715/0717 33015G25KT \n  BECMG 0816/0818 VRB03KT",
      "metarHtml": "METAR LOWW 071420Z 36012KT 9999 FEW032 BKN034 M02/M10 Q1014 NOSIG",
      "tafHtml": "TAF LOWW 071415Z 0715/0821 32010KT 9999 FEW040 TXM02/0814Z TNM06/0805Z \n  TEMPO 0715/0717 33015G25KT \n  BECMG 0816/0818 VRB03KT"
    },
    {
      "icao": "LPMA",
      "iata": "FNC",
      "name": "Madeira International Airport Cristiano Ronaldo",
      "updatedAt": "071430Z",
      "visibility_m": 10000,
      "taf_visibility_m": 10000,
      "worst_visibility_m": 10000,
      "ceiling_ft": null,
      "hazards": [],
      "severityScore": 0,
      "metarRaw": "METAR LPMA 071430Z 01012KT 330V040 9999 SCT015 17/08 Q1032",
      "tafRaw": "TAF LPMA 071100Z 0712/0812 02012KT 9999 SCT015 \n  TEMPO 0712/0720 02015G25KT",
      "metarHtml": "METAR LPMA 071430Z 01012KT 330V040 9999 SCT015 17/08 Q1032",
      "tafHtml": "TAF LPMA 071100Z 0712/0812 02012KT 9999 SCT015 \n  TEMPO 0712/0720 02015G25KT"
    },
    {
      "icao": "LPPS",
      "iata": "PXO",
      "name": "Porto Santo Airport",
      "updatedAt": "071430Z",
      "visibility_m": 10000,
      "taf_visibility_m": 10000,
      "worst_visibility_m": 10000,
      "ceiling_ft": null,
      "hazards": [],
      "severityScore": 0,
      "metarRaw": "METAR LPPS 071430Z 03011KT 350V080 9999 SCT015 16/08 Q1032",
      "tafRaw": "TAF LPPS 071100Z 0712/0818 02012KT 9999 SCT015 \n  TEMPO 0712/0818 FEW015 BKN030",
      "metarHtml": "METAR LPPS 071430Z 03011KT 350V080 9999 SCT015 16/08 Q1032",
      "tafHtml": "TAF LPPS 071100Z 0712/0818 02012KT 9999 SCT015 \n  TEMPO 0712/0818 FEW015 BKN030"
    },
    {
      "icao": "LZIB",
      "iata": "BTS",
      "name": "M. R. Štefánik Airport",
      "updatedAt": "071430Z",
      "visibility_m": 10000,
      "taf_visibility_m": 10000,
      "worst_visibility_m": 10000,
      "ceiling_ft": null,
      "hazards": [],
      "severityScore": 0,
      "metarRaw": "METAR LZIB 071430Z 33014KT 9999 FEW030 M02/M08 Q1013 NOSIG",
      "tafRaw": "TAF LZIB 071115Z 0712/0812 33009KT 9999 FEW035",
      "metarHtml": "METAR LZIB 071430Z 33014KT 9999 FEW030 M02/M08 Q1013 NOSIG",
      "tafHtml": "TAF LZIB 071115Z 0712/0812 33009KT 9999 FEW035"
    },
    {
      "icao": "OEJN",
      "iata": "JED",
      "name": "King Abdulaziz International Airport",
      "updatedAt": "071400Z",
      "visibility_m": 8000,
      "taf_visibility_m": 7000,
      "worst_visibility_m": 7000,
      "ceiling_ft": null,
      "hazards": [],
      "severityScore": 0,
      "metarRaw": "METAR OEJN 071400Z 25009KT 8000 NSC 28/18 Q1015 NOSIG",
      "tafRaw": "TAF OEJN 071100Z 0712/0818 26010KT 7000 FEW040 \n  BECMG 0718/0720 VRB03KT CAVOK \n  BECMG 0806/0808 25010KT",
      "metarHtml": "METAR OEJN 071400Z 25009KT 8000 NSC 28/18 Q1015 NOSIG",
      "tafHtml": "TAF OEJN 071100Z 0712/0818 26010KT 7000 FEW040 \n  BECMG 0718/0720 VRB03KT <span class=\"hl-vis\">CAVOK</span> \n  BECMG 0806/0808 25010KT"
    },
    {
      "icao": "OEMA",
      "iata": "MED",
      "name": "Prince Mohammad Bin Abdulaziz Airport",
      "updatedAt": "071400Z",
      "visibility_m": 10000,
      "taf_visibility_m": 8000,
      "worst_visibility_m": 8000,
      "ceiling_ft": null,
      "hazards": [],
      "severityScore": 0,
      "metarRaw": "METAR OEMA 071400Z 10005KT CAVOK 27/00 Q1022 NOSIG",
      "tafRaw": "TAF OEMA 071100Z 0712/0818 10010KT 8000 NSC \n  BECMG 0720/0722 VRB03KT CAVOK \n  BECMG 0806/0808 11008KT",
      "metarHtml": "METAR OEMA 071400Z 10005KT <span class=\"hl-vis\">CAVOK</span> 27/00 Q1022 NOSIG",
      "tafHtml": "TAF OEMA 071100Z 0712/0818 10010KT 8000 NSC \n  BECMG 0720/0722 VRB03KT <span class=\"hl-vis\">CAVOK</span> \n  BECMG 0806/0808 11008KT"
    },
    {
      "icao": "OJAI",
      "iata": "AMM",
      "name": "Queen Alia International Airport",
      "updatedAt": "071400Z",
      "visibility_m": 5000,
      "taf_visibility_m": 4000,
      "worst_visibility_m": 4000,
      "ceiling_ft": null,
      "hazards": [],
      "severityScore": 0,
      "metarRaw": "METAR OJAI 071400Z 08006KT 5000 HZ NSC 17/05 Q1024 NOSIG",
      "tafRaw": "TAF OJAI 071100Z 0712/0818 07010KT 5000 HZ NSC \n  PROB30 0812/0818 13016KT 4000 BLDU",
      "metarHtml": "METAR OJAI 071400Z 08006KT 5000 HZ NSC 17/05 Q1024 NOSIG",
      "tafHtml": "TAF OJAI 071100Z 0712/0818 07010KT 5000 HZ NSC \n  PROB30 0812/0818 13016KT 4000 BLDU"
    },
    {
      "icao": "OMAA",
      "iata": "AUH",
      "name": "Zayed International Airport",
      "updatedAt": "071400Z",
      "visibility_m": 10000,
      "taf_visibility_m": 10000,
      "worst_visibility_m": 10000,
      "ceiling_ft": null,
      "hazards": [],
      "severityScore": 0,
      "metarRaw": "METAR OMAA 071400Z 31011KT CAVOK 22/13 Q1020 NOSIG",
      "tafRaw": "TAF OMAA 071100Z 0712/0818 34011KT 9999 FEW040 \n  BECMG 0716/0718 28005KT \n  BECMG 0808/0810 34011KT \n  BECMG 0816/0818 28005KT",
      "metarHtml": "METAR OMAA 071400Z 31011KT <span class=\"hl-vis\">CAVOK</span> 22/13 Q1020 NOSIG",
      "tafHtml": "TAF OMAA 071100Z 0712/0818 34011KT 9999 FEW040 \n  BECMG 0716/0718 28005KT \n  BECMG 0808/0810 34011KT \n  BECMG 0816/0818 28005KT"
    },
    {
      "icao": "OMDB",
      "iata": "DXB",
      "name": "Dubai International Airport",
      "updatedAt": "071430Z",
      "visibility_m": 10000,
      "taf_visibility_m": 8000,
      "worst_visibility_m": 8000,
      "ceiling_ft": null,
      "hazards": [],
      "severityScore": 0,
      "metarRaw": "METAR OMDB 071430Z 34008KT 310V010 CAVOK 23/10 Q1020 NOSIG",
      "tafRaw": "TAF OMDB 071100Z 0712/0818 34010KT 8000 FEW045 \n  BECMG 0716/0718 07005KT \n  BECMG 0808/0810 33012KT \n  BECMG 0816/0818 07005KT",
      "metarHtml": "METAR OMDB 071430Z 34008KT 310V010 <span class=\"hl-vis\">CAVOK</span> 23/10 Q1020 NOSIG",
      "tafHtml": "TAF OMDB 071100Z 0712/0818 34010KT 8000 FEW045 \n  BECMG 0716/0718 07005KT \n  BECMG 0808/0810 33012KT \n  BECMG 0816/0818 07005KT"
    },
    {
      "icao": "UGKO",
      "iata": "KUT",
      "name": "David the Builder Kutaisi International Airport",
      "updatedAt": "071430Z",
      "visibility_m": 10000,
      "taf_visibility_m": 10000,
      "worst_visibility_m": 10000,
      "ceiling_ft": null,
      "hazards": [],
      "severityScore": 0,
      "metarRaw": "METAR UGKO 071430Z 08005KT CAVOK 10/M02 Q1017 NOSIG",
      "tafRaw": "TAF UGKO 071100Z 0712/0812 09010KT CAVOK TX18/0812Z TN06/0722Z \n  TEMPO 0718/0806 BKN050",
      "metarHtml": "METAR UGKO 071430Z 08005KT <span class=\"hl-vis\">CAVOK</span> 10/M02 Q1017 NOSIG",
      "tafHtml": "TAF UGKO 071100Z 0712/0812 09010KT <span class=\"hl-vis\">CAVOK</span> TX18/0812Z TN06/0722Z \n  TEMPO 0718/0806 BKN050"
    }
  ],
  "stats": {
    "icaoCount": 159,
    "metarReturned": 159,
    "tafReturned": 144,
    "stationsWritten": 159,
    "missingMetar": 0,
    "missingTaf": 15
  },
  "errors": []
}