{
  "generatedAt": "2026-01-07T22:50:25.740Z",
  "stations": [
    {
      "icao": "EPGD",
      "iata": "GDN",
      "name": "Gdańsk Lech Wałęsa Airport",
      "updatedAt": "072230Z",
      "visibility_m": 5000,
      "taf_visibility_m": 500,
      "worst_visibility_m": 500,
      "ceiling_ft": 200,
      "hazards": [
        "BR",
        "FZFG"
      ],
      "severityScore": 100,
      "metarRaw": "METAR EPGD 072230Z 16007KT 5000 -SG BR OVC002 M08/M09 Q1014",
      "tafRaw": "TAF EPGD 071730Z 0718/0818 22010KT 8000 BKN003 \n  BECMG 0718/0721 2000 BR \n  PROB40 0720/0808 0500 FZFG OVC001 \n  BECMG 0810/0813 6000 BKN010 \n  PROB40 0813/0816 BKN016",
      "metarHtml": "METAR EPGD 072230Z 16007KT 5000 -SG <span class=\"hl\">BR</span> OVC002 M08/M09 Q1014",
      "tafHtml": "TAF EPGD 071730Z 0718/0818 22010KT 8000 BKN003 \n  BECMG 0718/0721 2000 <span class=\"hl\">BR</span> \n  PROB40 0720/0808 <span class=\"hl-vis\">0500</span> <span class=\"hl\">FZFG</span> OVC001 \n  BECMG 0810/0813 6000 BKN010 \n  PROB40 0813/0816 BKN016"
    },
    {
      "icao": "EYKA",
      "iata": "KUN",
      "name": "Kaunas International Airport",
      "updatedAt": "072250Z",
      "visibility_m": 2700,
      "taf_visibility_m": 600,
      "worst_visibility_m": 600,
      "ceiling_ft": 200,
      "hazards": [
        "BR",
        "FZFG"
      ],
      "severityScore": 100,
      "metarRaw": "METAR EYKA 072250Z VRB01KT 2700 BR OVC002 M08/M08 Q1016",
      "tafRaw": "TAF EYKA 071731Z 0718/0818 VRB03KT 1500 BR OVC002 \n  TEMPO 0718/0801 0600 FZFG VV002 \n  PROB30 \n  TEMPO 0720/0801 5000 BR \n  BECMG 0801/0804 5000 OVC005 \n  BECMG 0806/0809 9000 NSW 05010KT OVC010",
      "metarHtml": "METAR EYKA 072250Z VRB01KT 2700 <span class=\"hl\">BR</span> OVC002 M08/M08 Q1016",
      "tafHtml": "TAF EYKA 071731Z 0718/0818 VRB03KT 1500 <span class=\"hl\">BR</span> OVC002 \n  TEMPO 0718/0801 <span class=\"hl-vis\">0600</span> <span class=\"hl\">FZFG</span> VV002 \n  PROB30 \n  TEMPO 0720/0801 5000 <span class=\"hl\">BR</span> \n  BECMG 0801/0804 5000 OVC005 \n  BECMG 0806/0809 9000 NSW 05010KT OVC010"
    },
    {
      "icao": "EYPA",
      "iata": "PLQ",
      "name": "Palanga International Airport",
      "updatedAt": "072250Z",
      "visibility_m": 1300,
      "taf_visibility_m": 400,
      "worst_visibility_m": 400,
      "ceiling_ft": 200,
      "hazards": [
        "BR",
        "FZFG",
        "SHSN"
      ],
      "severityScore": 100,
      "metarRaw": "METAR EYPA 072250Z 16004KT 1300 R19/1600N BR OVC002 M04/M04 Q1016",
      "tafRaw": "TAF EYPA 071726Z 0718/0818 15006KT 0800 FZFG VV002 \n  TEMPO 0718/0719 0400 FZFG VV001 \n  TEMPO 0719/0721 1500 -SHSN BR BKN002 SCT010CB \n  BECMG 0721/0724 5000 OVC002 \n  TEMPO 0800/0807 1500 \n  PROB40 \n  TEMPO 0800/0807 0600 FZFG VV002 \n  BECMG 0807/0810 9000 NSW OVC005",
      "metarHtml": "METAR EYPA 072250Z 16004KT 1300 R19/1600N <span class=\"hl\">BR</span> OVC002 M04/M04 Q1016",
      "tafHtml": "TAF EYPA 071726Z 0718/0818 15006KT <span class=\"hl-vis\">0800</span> <span class=\"hl\">FZFG</span> VV002 \n  TEMPO 0718/0719 <span class=\"hl-vis\">0400</span> <span class=\"hl\">FZFG</span> VV001 \n  TEMPO 0719/0721 1500 -<span class=\"hl\">SHSN</span> <span class=\"hl\">BR</span> BKN002 SCT010CB \n  BECMG 0721/0724 5000 OVC002 \n  TEMPO <span class=\"hl-vis\">0800</span>/0807 1500 \n  PROB40 \n  TEMPO <span class=\"hl-vis\">0800</span>/0807 <span class=\"hl-vis\">0600</span> <span class=\"hl\">FZFG</span> VV002 \n  BECMG 0807/0810 9000 NSW OVC005"
    },
    {
      "icao": "EYVI",
      "iata": "VNO",
      "name": "Vilnius International Airport",
      "updatedAt": "072220Z",
      "visibility_m": 4200,
      "taf_visibility_m": 400,
      "worst_visibility_m": 400,
      "ceiling_ft": 100,
      "hazards": [
        "BR",
        "FZFG"
      ],
      "severityScore": 100,
      "metarRaw": "METAR EYVI 072220Z 05004KT 4200 BR OVC001 M08/M09 Q1015 NOSIG",
      "tafRaw": "TAF EYVI 071728Z 0718/0818 VRB03KT 1500 BR OVC002 \n  TEMPO 0718/0722 0400 FZFG VV002 \n  TEMPO 0722/0724 5000 BR OVC005 \n  PROB30 \n  TEMPO 0722/0724 0400 FZFG VV002 \n  BECMG 0800/0801 5000 OVC005 \n  TEMPO 0801/0806 3000 OVC002 \n  BECMG 0806/0809 05011KT 9000 NSW OVC010",
      "metarHtml": "METAR EYVI 072220Z 05004KT 4200 <span class=\"hl\">BR</span> OVC001 M08/M09 Q1015 NOSIG",
      "tafHtml": "TAF EYVI 071728Z 0718/0818 VRB03KT 1500 <span class=\"hl\">BR</span> OVC002 \n  TEMPO 0718/0722 <span class=\"hl-vis\">0400</span> <span class=\"hl\">FZFG</span> VV002 \n  TEMPO 0722/0724 5000 <span class=\"hl\">BR</span> OVC005 \n  PROB30 \n  TEMPO 0722/0724 <span class=\"hl-vis\">0400</span> <span class=\"hl\">FZFG</span> VV002 \n  BECMG 0800/0801 5000 OVC005 \n  TEMPO 0801/0806 3000 OVC002 \n  BECMG 0806/0809 05011KT 9000 NSW OVC010"
    },
    {
      "icao": "LBPD",
      "iata": "PDV",
      "name": "Plovdiv International Airport",
      "updatedAt": "072230Z",
      "visibility_m": 350,
      "taf_visibility_m": 1500,
      "worst_visibility_m": 350,
      "ceiling_ft": 100,
      "hazards": [
        "FG",
        "SHRA",
        "BR",
        "RA"
      ],
      "severityScore": 100,
      "metarRaw": "METAR LBPD 072230Z AUTO 29004KT 230V320 0350 0300E R30/0400N -SHRA FG VV001 09/09 Q1000",
      "tafRaw": "TAF LBPD 071700Z 0718/0818 VRB04KT 4000 BR SCT040 BKN060 \n  TEMPO 0722/0803 1500 BR \n  BECMG 0803/0805 29020G35KT 9999 BKN030 OVC050 \n  TEMPO 0805/0808 5000 RA BKN020 OVC040",
      "metarHtml": "METAR LBPD 072230Z AUTO 29004KT 230V320 <span class=\"hl-vis\">0350</span> 0300E R30/0400N -<span class=\"hl\">SHRA</span> <span class=\"hl\">FG</span> VV001 09/09 Q1000",
      "tafHtml": "TAF LBPD 071700Z 0718/0818 VRB04KT 4000 <span class=\"hl\">BR</span> SCT040 BKN060 \n  TEMPO 0722/0803 1500 <span class=\"hl\">BR</span> \n  BECMG 0803/0805 29020G35KT 9999 BKN030 OVC050 \n  TEMPO 0805/0808 5000 <span class=\"hl\">RA</span> BKN020 OVC040"
    },
    {
      "icao": "LIPX",
      "iata": "VRN",
      "name": "Verona Villafranca Valerio Catullo Airport",
      "updatedAt": "072220Z",
      "visibility_m": 200,
      "taf_visibility_m": 400,
      "worst_visibility_m": 200,
      "ceiling_ft": 100,
      "hazards": [
        "FZFG",
        "BR"
      ],
      "severityScore": 100,
      "metarRaw": "METAR LIPX 072220Z 22006KT 0200 R04/0400N FZFG VV001 M05/M05 Q1011",
      "tafRaw": "TAF LIPX 071700Z 0718/0818 VRB05KT CAVOK \n  TEMPO 0720/0808 3000 BR \n  PROB40 \n  TEMPO 0722/0806 0400 FZFG",
      "metarHtml": "METAR LIPX 072220Z 22006KT <span class=\"hl-vis\">0200</span> R04/0400N <span class=\"hl\">FZFG</span> VV001 M05/M05 Q1011",
      "tafHtml": "TAF LIPX 071700Z 0718/0818 VRB05KT <span class=\"hl-vis\">CAVOK</span> \n  TEMPO 0720/0808 3000 <span class=\"hl\">BR</span> \n  PROB40 \n  TEMPO 0722/0806 <span class=\"hl-vis\">0400</span> <span class=\"hl\">FZFG</span>"
    },
    {
      "icao": "LRIA",
      "iata": "IAS",
      "name": "Iaşi Airport",
      "updatedAt": "072230Z",
      "visibility_m": 8000,
      "taf_visibility_m": 350,
      "worst_visibility_m": 350,
      "ceiling_ft": 500,
      "hazards": [
        "FZDZ",
        "FZFG",
        "BR",
        "FZRA"
      ],
      "severityScore": 100,
      "metarRaw": "METAR LRIA 072230Z 30006KT 8000 -FZDZ OVC005 M01/M01 Q1007",
      "tafRaw": "TAF LRIA 072000Z 0721/0806 31006KT 6000 -FZRA BKN005 OVC020 \n  BECMG 0722/0724 1500 BR BKN002 OVC015 \n  PROB40 \n  TEMPO 0800/0803 0350 FZFG VV001 \n  TEMPO 0803/0806 -FZRA",
      "metarHtml": "METAR LRIA 072230Z 30006KT 8000 -<span class=\"hl\">FZDZ</span> OVC005 M01/M01 Q1007",
      "tafHtml": "TAF LRIA 072000Z 0721/0806 31006KT 6000 -<span class=\"hl\">FZRA</span> BKN005 OVC020 \n  BECMG 0722/0724 1500 <span class=\"hl\">BR</span> BKN002 OVC015 \n  PROB40 \n  TEMPO 0800/0803 <span class=\"hl-vis\">0350</span> <span class=\"hl\">FZFG</span> VV001 \n  TEMPO 0803/0806 -<span class=\"hl\">FZRA</span>"
    },
    {
      "icao": "LRBC",
      "iata": "BCM",
      "name": "Bacău George Enescu International  Airport",
      "updatedAt": "072230Z",
      "visibility_m": 8000,
      "taf_visibility_m": 350,
      "worst_visibility_m": 350,
      "ceiling_ft": 1300,
      "hazards": [
        "BR",
        "FZRA",
        "SN"
      ],
      "severityScore": 100,
      "metarRaw": "METAR LRBC 072230Z 35009KT 8000 OVC013 M00/M03 Q1007",
      "tafRaw": "TAF LRBC 072000Z 0721/0806 35008KT 7000 BKN010 OVC020 \n  PROB40 \n  TEMPO 0800/0802 5000 -FZRA BR OVC005 \n  BECMG 0802/0804 1500 SN BKN002 OVC010 \n  TEMPO 0804/0806 0350 +SN OVC001",
      "metarHtml": "METAR LRBC 072230Z 35009KT 8000 OVC013 M00/M03 Q1007",
      "tafHtml": "TAF LRBC 072000Z 0721/0806 35008KT 7000 BKN010 OVC020 \n  PROB40 \n  TEMPO 0800/0802 5000 -<span class=\"hl\">FZRA</span> <span class=\"hl\">BR</span> OVC005 \n  BECMG 0802/0804 1500 <span class=\"hl\">SN</span> BKN002 OVC010 \n  TEMPO 0804/0806 <span class=\"hl-vis\">0350</span> +<span class=\"hl\">SN</span> OVC001"
    },
    {
      "icao": "LRBS",
      "iata": "BBU",
      "name": "Bucharest Băneasa Aurel Vlaicu International Airport",
      "updatedAt": "072230Z",
      "visibility_m": 10000,
      "taf_visibility_m": 600,
      "worst_visibility_m": 600,
      "ceiling_ft": 500,
      "hazards": [
        "FG",
        "BR",
        "SN",
        "RA"
      ],
      "severityScore": 100,
      "metarRaw": "METAR LRBS 072230Z 07014KT 9999 OVC005 02/02 Q1004 NOSIG",
      "tafRaw": "TAF LRBS 071700Z 0718/0818 VRB04KT 0600 -RA FG BKN001 OVC010 \n  BECMG 0719/0721 07015KT 3000 -RA BR BKN002 OVC020 \n  BECMG 0722/0724 -RASN BKN005 OVC030 \n  TEMPO 0802/0808 5000 -SHRASN BKN010 SCT025CB \n  BECMG 0808/0810 25012KT 5000 -SN \n  BECMG 0811/0813 9999 NSW BKN020",
      "metarHtml": "METAR LRBS 072230Z 07014KT 9999 OVC005 02/02 Q1004 NOSIG",
      "tafHtml": "TAF LRBS 071700Z 0718/0818 VRB04KT <span class=\"hl-vis\">0600</span> -<span class=\"hl\">RA</span> <span class=\"hl\">FG</span> BKN001 OVC010 \n  BECMG 0719/0721 07015KT 3000 -<span class=\"hl\">RA</span> <span class=\"hl\">BR</span> BKN002 OVC020 \n  BECMG 0722/0724 -RASN BKN005 OVC030 \n  TEMPO 0802/0808 5000 -SHRASN BKN010 SCT025CB \n  BECMG 0808/0810 25012KT 5000 -<span class=\"hl\">SN</span> \n  BECMG 0811/0813 9999 NSW BKN020"
    },
    {
      "icao": "LRBV",
      "iata": "GHV",
      "name": "Brașov-Ghimbav International Airport",
      "updatedAt": "072230Z",
      "visibility_m": 500,
      "taf_visibility_m": 600,
      "worst_visibility_m": 500,
      "ceiling_ft": 200,
      "hazards": [
        "FG",
        "FZFG",
        "BR",
        "SN"
      ],
      "severityScore": 100,
      "metarRaw": "METAR LRBV 072230Z AUTO VRB02KT 0700 0500 R21/1700D FG VV002 00/00 Q1000 REUP",
      "tafRaw": "TAF LRBV 072000Z 0721/0806 VRB04KT 9999 OVC002 \n  BECMG 0721/0722 3000 BR \n  TEMPO 0722/0724 0600 FZFG VV001 \n  BECMG 0800/0802 30010KT 1500 SN BKN005 OVC025",
      "metarHtml": "METAR LRBV 072230Z AUTO VRB02KT <span class=\"hl-vis\">0700</span> <span class=\"hl-vis\">0500</span> R21/1700D <span class=\"hl\">FG</span> VV002 00/00 Q1000 REUP",
      "tafHtml": "TAF LRBV 072000Z 0721/0806 VRB04KT 9999 OVC002 \n  BECMG 0721/0722 3000 <span class=\"hl\">BR</span> \n  TEMPO 0722/0724 <span class=\"hl-vis\">0600</span> <span class=\"hl\">FZFG</span> VV001 \n  BECMG 0800/0802 30010KT 1500 <span class=\"hl\">SN</span> BKN005 OVC025"
    },
    {
      "icao": "LRCV",
      "iata": "CRA",
      "name": "Craiova International Airport",
      "updatedAt": "072230Z",
      "visibility_m": 800,
      "taf_visibility_m": 350,
      "worst_visibility_m": 350,
      "ceiling_ft": 200,
      "hazards": [
        "FG",
        "RA",
        "BR",
        "SN"
      ],
      "severityScore": 100,
      "metarRaw": "METAR LRCV 072230Z 25004KT 0800 R26/1200N RA FG OVC002 01/01 Q1003",
      "tafRaw": "TAF LRCV 072000Z 0721/0806 VRB04KT 0350 FG OVC002 \n  PROB30 \n  TEMPO 0721/0724 1500 -RA BR \n  BECMG 0800/0802 0600 SN FG VV001 \n  BECMG 0802/0804 28012KT 1500 BKN002 \n  BECMG 0804/0806 3000 BR BKN005",
      "metarHtml": "METAR LRCV 072230Z 25004KT <span class=\"hl-vis\">0800</span> R26/1200N <span class=\"hl\">RA</span> <span class=\"hl\">FG</span> OVC002 01/01 Q1003",
      "tafHtml": "TAF LRCV 072000Z 0721/0806 VRB04KT <span class=\"hl-vis\">0350</span> <span class=\"hl\">FG</span> OVC002 \n  PROB30 \n  TEMPO 0721/0724 1500 -<span class=\"hl\">RA</span> <span class=\"hl\">BR</span> \n  BECMG 0800/0802 <span class=\"hl-vis\">0600</span> <span class=\"hl\">SN</span> <span class=\"hl\">FG</span> VV001 \n  BECMG 0802/0804 28012KT 1500 BKN002 \n  BECMG 0804/0806 3000 <span class=\"hl\">BR</span> BKN005"
    },
    {
      "icao": "LROP",
      "iata": "OTP",
      "name": "Bucharest Henri Coandă International Airport",
      "updatedAt": "072230Z",
      "visibility_m": 10000,
      "taf_visibility_m": 600,
      "worst_visibility_m": 600,
      "ceiling_ft": 700,
      "hazards": [
        "FG",
        "BR",
        "SN",
        "RA"
      ],
      "severityScore": 100,
      "metarRaw": "METAR LROP 072230Z 09014KT 9999 OVC007 02/02 Q1004 NOSIG",
      "tafRaw": "TAF LROP 071700Z 0718/0818 VRB04KT 0600 -RA FG BKN001 OVC010 \n  BECMG 0719/0721 07015KT 3000 -RA BR BKN002 OVC020 \n  BECMG 0722/0724 -RASN BKN005 OVC030 \n  TEMPO 0802/0808 5000 -SHRASN BKN010 SCT025CB \n  BECMG 0808/0810 25012KT 5000 -SN \n  BECMG 0811/0813 9999 NSW BKN020",
      "metarHtml": "METAR LROP 072230Z 09014KT 9999 OVC007 02/02 Q1004 NOSIG",
      "tafHtml": "TAF LROP 071700Z 0718/0818 VRB04KT <span class=\"hl-vis\">0600</span> -<span class=\"hl\">RA</span> <span class=\"hl\">FG</span> BKN001 OVC010 \n  BECMG 0719/0721 07015KT 3000 -<span class=\"hl\">RA</span> <span class=\"hl\">BR</span> BKN002 OVC020 \n  BECMG 0722/0724 -RASN BKN005 OVC030 \n  TEMPO 0802/0808 5000 -SHRASN BKN010 SCT025CB \n  BECMG 0808/0810 25012KT 5000 -<span class=\"hl\">SN</span> \n  BECMG 0811/0813 9999 NSW BKN020"
    },
    {
      "icao": "LRSB",
      "iata": "SBZ",
      "name": "Sibiu International Airport",
      "updatedAt": "072230Z",
      "visibility_m": 4500,
      "taf_visibility_m": null,
      "worst_visibility_m": 4500,
      "ceiling_ft": 400,
      "hazards": [
        "BR",
        "FZRA",
        "PL"
      ],
      "severityScore": 100,
      "metarRaw": "METAR LRSB 072230Z 30006KT 4500 -FZRA PL BR FEW002 OVC004 M01/M01 Q1002",
      "tafRaw": null,
      "metarHtml": "METAR LRSB 072230Z 30006KT 4500 -<span class=\"hl\">FZRA</span> <span class=\"hl\">PL</span> <span class=\"hl\">BR</span> FEW002 OVC004 M01/M01 Q1002",
      "tafHtml": null
    },
    {
      "icao": "LRSM",
      "iata": "SUJ",
      "name": "Satu Mare International Airport",
      "updatedAt": "072230Z",
      "visibility_m": 2500,
      "taf_visibility_m": 800,
      "worst_visibility_m": 800,
      "ceiling_ft": 900,
      "hazards": [
        "SN",
        "FZFG",
        "BR"
      ],
      "severityScore": 100,
      "metarRaw": "METAR LRSM 072230Z AUTO 31003KT 2500 -SN VV009 M03/M04 Q1006",
      "tafRaw": "TAF LRSM 071400Z 0715/0724 VRB04KT 9999 BKN010 OVC030 \n  BECMG 0715/0717 3000 -SN BR BKN005 OVC020 \n  BECMG 0718/0720 0800 SN FZFG BKN002 OVC015",
      "metarHtml": "METAR LRSM 072230Z AUTO 31003KT 2500 -<span class=\"hl\">SN</span> VV009 M03/M04 Q1006",
      "tafHtml": "TAF LRSM 071400Z 0715/0724 VRB04KT 9999 BKN010 OVC030 \n  BECMG 0715/0717 3000 -<span class=\"hl\">SN</span> <span class=\"hl\">BR</span> BKN005 OVC020 \n  BECMG 0718/0720 <span class=\"hl-vis\">0800</span> <span class=\"hl\">SN</span> <span class=\"hl\">FZFG</span> BKN002 OVC015"
    },
    {
      "icao": "LUKK",
      "iata": "RMO",
      "name": "Chişinău International Airport",
      "updatedAt": "072230Z",
      "visibility_m": 7000,
      "taf_visibility_m": 500,
      "worst_visibility_m": 500,
      "ceiling_ft": 400,
      "hazards": [
        "DZ",
        "FG",
        "BR",
        "FZRA",
        "SN",
        "SHRA"
      ],
      "severityScore": 100,
      "metarRaw": "METAR LUKK 072230Z 35006KT 7000 -DZ OVC004 01/01 Q1007 NOSIG",
      "tafRaw": "TAF LUKK 071718Z 0718/0818 36006KT 4000 -DZ BR OVC004 \n  TEMPO 0721/0806 0500 FG VV/// \n  BECMG 0806/0808 30014KT 9999 NSW BKN015 \n  TEMPO 0808/0811 5000 -SHRA BKN008 SCT025CB \n  TEMPO 0811/0815 29016G28KT 4000 -FZRA BKN006 \n  TEMPO 0815/0818 29020G36KT 3000 -SN BKN006",
      "metarHtml": "METAR LUKK 072230Z 35006KT 7000 -<span class=\"hl\">DZ</span> OVC004 01/01 Q1007 NOSIG",
      "tafHtml": "TAF LUKK 071718Z 0718/0818 36006KT 4000 -<span class=\"hl\">DZ</span> <span class=\"hl\">BR</span> OVC004 \n  TEMPO 0721/0806 <span class=\"hl-vis\">0500</span> <span class=\"hl\">FG</span> VV/// \n  BECMG 0806/0808 30014KT 9999 NSW BKN015 \n  TEMPO 0808/0811 5000 -<span class=\"hl\">SHRA</span> BKN008 SCT025CB \n  TEMPO 0811/0815 29016G28KT 4000 -<span class=\"hl\">FZRA</span> BKN006 \n  TEMPO 0815/0818 29020G36KT 3000 -<span class=\"hl\">SN</span> BKN006"
    },
    {
      "icao": "UAAA",
      "iata": "ALA",
      "name": "Almaty International Airport",
      "updatedAt": "072230Z",
      "visibility_m": 700,
      "taf_visibility_m": 200,
      "worst_visibility_m": 200,
      "ceiling_ft": 200,
      "hazards": [
        "FZFG",
        "BR"
      ],
      "severityScore": 100,
      "metarRaw": "METAR UAAA 072230Z 00000MPS 0700 R23L/1800 FZFG VV002 M06/M06 Q1032 NOSIG RMK QBB080",
      "tafRaw": "TAF UAAA 071706Z 0718/0818 03002MPS 0600 FZFG VV003 TXM00/0809Z TNM07/0801Z \n  TEMPO 0718/0806 0200 VV001 \n  FM080700 04003MPS 3100 BR SCT011 BKN100 \n  TEMPO 0807/0814 1200 BKN004 OVC011 \n  TEMPO 0814/0818 VRB01MPS 0500 FZFG VV002",
      "metarHtml": "METAR UAAA 072230Z 00000MPS <span class=\"hl-vis\">0700</span> R23L/1800 <span class=\"hl\">FZFG</span> VV002 M06/M06 Q1032 NOSIG RMK QBB080",
      "tafHtml": "TAF UAAA 071706Z 0718/0818 03002MPS <span class=\"hl-vis\">0600</span> <span class=\"hl\">FZFG</span> VV003 TXM00/0809Z TNM07/0801Z \n  TEMPO 0718/0806 <span class=\"hl-vis\">0200</span> VV001 \n  FM080700 04003MPS 3100 <span class=\"hl\">BR</span> SCT011 BKN100 \n  TEMPO 0807/0814 1200 BKN004 OVC011 \n  TEMPO 0814/0818 VRB01MPS <span class=\"hl-vis\">0500</span> <span class=\"hl\">FZFG</span> VV002"
    },
    {
      "icao": "UBBB",
      "iata": "GYD",
      "name": "Heydar Aliyev International Airport",
      "updatedAt": "072230Z",
      "visibility_m": 100,
      "taf_visibility_m": 200,
      "worst_visibility_m": 100,
      "ceiling_ft": 200,
      "hazards": [
        "FG",
        "BR"
      ],
      "severityScore": 100,
      "metarRaw": "METAR UBBB 072230Z 00000KT 0100 R34/0300 R35/0600 FG VV002 05/05 Q1020 NOSIG",
      "tafRaw": "TAF UBBB 071702Z 0718/0818 17005KT 0200 FG VV001 TX09/0810Z TN02/0803Z \n  TEMPO 0718/0724 VRB04KT 0400 VV002 \n  BECMG 0805/0806 3000 BR BKN004 \n  BECMG 0806/0808 20008KT 8000 NSW SCT012 \n  TEMPO 0808/0813 21014KT",
      "metarHtml": "METAR UBBB 072230Z 00000KT <span class=\"hl-vis\">0100</span> R34/0300 R35/0600 <span class=\"hl\">FG</span> VV002 05/05 Q1020 NOSIG",
      "tafHtml": "TAF UBBB 071702Z 0718/0818 17005KT <span class=\"hl-vis\">0200</span> <span class=\"hl\">FG</span> VV001 TX09/0810Z TN02/0803Z \n  TEMPO 0718/0724 VRB04KT <span class=\"hl-vis\">0400</span> VV002 \n  BECMG 0805/0806 3000 <span class=\"hl\">BR</span> BKN004 \n  BECMG 0806/0808 20008KT 8000 NSW SCT012 \n  TEMPO 0808/0813 21014KT"
    },
    {
      "icao": "EDFH",
      "iata": "HHN",
      "name": "Frankfurt-Hahn Airport",
      "updatedAt": "072220Z",
      "visibility_m": 10000,
      "taf_visibility_m": 1000,
      "worst_visibility_m": 1000,
      "ceiling_ft": 600,
      "hazards": [
        "SN",
        "BR",
        "FZRA"
      ],
      "severityScore": 98,
      "metarRaw": "METAR EDFH 072220Z 24007KT 200V260 9999 -SN OVC006 M03/M04 Q1006",
      "tafRaw": "TAF EDFH 071700Z 0718/0818 20009KT 6000 BKN015 \n  TEMPO 0718/0724 2000 -SN BKN008 \n  BECMG 0721/0724 BKN004 \n  PROB40 \n  TEMPO 0800/0810 1000 -SN BR BKN001 \n  TEMPO 0812/0818 2000 SNRA \n  PROB40 \n  TEMPO 0812/0818 1200 SN BKN001 \n  PROB30 \n  TEMPO 0815/0818 FZRA",
      "metarHtml": "METAR EDFH 072220Z 24007KT 200V260 9999 -<span class=\"hl\">SN</span> OVC006 M03/M04 Q1006",
      "tafHtml": "TAF EDFH 071700Z 0718/0818 20009KT 6000 BKN015 \n  TEMPO 0718/0724 2000 -<span class=\"hl\">SN</span> BKN008 \n  BECMG 0721/0724 BKN004 \n  PROB40 \n  TEMPO 0800/0810 1000 -<span class=\"hl\">SN</span> <span class=\"hl\">BR</span> BKN001 \n  TEMPO 0812/0818 2000 SNRA \n  PROB40 \n  TEMPO 0812/0818 1200 <span class=\"hl\">SN</span> BKN001 \n  PROB30 \n  TEMPO 0815/0818 <span class=\"hl\">FZRA</span>"
    },
    {
      "icao": "LRSV",
      "iata": "SCV",
      "name": "Suceava Stefan cel Mare Airport",
      "updatedAt": "072230Z",
      "visibility_m": 7000,
      "taf_visibility_m": 350,
      "worst_visibility_m": 350,
      "ceiling_ft": 2200,
      "hazards": [
        "BR",
        "FZRA",
        "SN"
      ],
      "severityScore": 98,
      "metarRaw": "METAR LRSV 072230Z 35009KT 7000 SCT007 OVC022 M03/M04 Q1006 REFZRA",
      "tafRaw": "TAF LRSV 072000Z 0721/0806 34010KT 5000 BR BKN005 OVC025 \n  PROB30 \n  TEMPO 0721/0724 3000 -FZRA \n  BECMG 0801/0803 1500 SN BR BKN002 OVC010 \n  TEMPO 0803/0806 0350 +SN OVC001",
      "metarHtml": "METAR LRSV 072230Z 35009KT 7000 SCT007 OVC022 M03/M04 Q1006 REFZRA",
      "tafHtml": "TAF LRSV 072000Z 0721/0806 34010KT 5000 <span class=\"hl\">BR</span> BKN005 OVC025 \n  PROB30 \n  TEMPO 0721/0724 3000 -<span class=\"hl\">FZRA</span> \n  BECMG 0801/0803 1500 <span class=\"hl\">SN</span> <span class=\"hl\">BR</span> BKN002 OVC010 \n  TEMPO 0803/0806 <span class=\"hl-vis\">0350</span> +<span class=\"hl\">SN</span> OVC001"
    },
    {
      "icao": "EPMO",
      "iata": "WMI",
      "name": "Modlin Airport",
      "updatedAt": "072230Z",
      "visibility_m": 3700,
      "taf_visibility_m": 200,
      "worst_visibility_m": 200,
      "ceiling_ft": null,
      "hazards": [
        "BR",
        "FZFG"
      ],
      "severityScore": 95,
      "metarRaw": "METAR EPMO 072230Z 34003KT 3700 BR NSC M13/M14 Q1014",
      "tafRaw": "TAF EPMO 071730Z 0718/0818 VRB03KT 1000 BR OVC002 \n  TEMPO 0718/0802 0200 FZFG OVC001 \n  BECMG 0802/0805 2000 BR \n  BECMG 0806/0809 03010KT 4000 BR BKN008 \n  BECMG 0809/0811 8000 BKN012 \n  BECMG 0811/0813 BKN015",
      "metarHtml": "METAR EPMO 072230Z 34003KT 3700 <span class=\"hl\">BR</span> NSC M13/M14 Q1014",
      "tafHtml": "TAF EPMO 071730Z 0718/0818 VRB03KT 1000 <span class=\"hl\">BR</span> OVC002 \n  TEMPO 0718/0802 <span class=\"hl-vis\">0200</span> <span class=\"hl\">FZFG</span> OVC001 \n  BECMG 0802/0805 2000 <span class=\"hl\">BR</span> \n  BECMG 0806/0809 03010KT 4000 <span class=\"hl\">BR</span> BKN008 \n  BECMG 0809/0811 8000 BKN012 \n  BECMG 0811/0813 BKN015"
    },
    {
      "icao": "LRTR",
      "iata": "TSR",
      "name": "Timişoara Traian Vuia Airport",
      "updatedAt": "072230Z",
      "visibility_m": 1600,
      "taf_visibility_m": 600,
      "worst_visibility_m": 600,
      "ceiling_ft": 1100,
      "hazards": [
        "BR",
        "SN",
        "FZFG"
      ],
      "severityScore": 95,
      "metarRaw": "METAR LRTR 072230Z 30005KT 1600 SN BR SCT004 BKN011 OVC017 M03/M03 Q1007",
      "tafRaw": "TAF LRTR 071700Z 0718/0818 VRB04KT 1500 -SN BR BKN015 OVC040 \n  TEMPO 0718/0724 0600 SN FZFG BKN002 OVC015 \n  BECMG 0807/0809 30012KT 5000 BR",
      "metarHtml": "METAR LRTR 072230Z 30005KT 1600 <span class=\"hl\">SN</span> <span class=\"hl\">BR</span> SCT004 BKN011 OVC017 M03/M03 Q1007",
      "tafHtml": "TAF LRTR 071700Z 0718/0818 VRB04KT 1500 -<span class=\"hl\">SN</span> <span class=\"hl\">BR</span> BKN015 OVC040 \n  TEMPO 0718/0724 <span class=\"hl-vis\">0600</span> <span class=\"hl\">SN</span> <span class=\"hl\">FZFG</span> BKN002 OVC015 \n  BECMG 0807/0809 30012KT 5000 <span class=\"hl\">BR</span>"
    },
    {
      "icao": "UDYZ",
      "iata": "EVN",
      "name": "Zvartnots International Airport",
      "updatedAt": "072230Z",
      "visibility_m": 2100,
      "taf_visibility_m": 200,
      "worst_visibility_m": 200,
      "ceiling_ft": null,
      "hazards": [
        "BR",
        "FZFG"
      ],
      "severityScore": 95,
      "metarRaw": "METAR UDYZ 072230Z VRB01KT 2100 BR NSC M10/M11 Q1028 NOSIG",
      "tafRaw": "TAF UDYZ 071700Z 0718/0818 VRB04KT 1500 BR FEW040 \n  TEMPO 0718/0806 0200 FZFG VV001",
      "metarHtml": "METAR UDYZ 072230Z VRB01KT 2100 <span class=\"hl\">BR</span> NSC M10/M11 Q1028 NOSIG",
      "tafHtml": "TAF UDYZ 071700Z 0718/0818 VRB04KT 1500 <span class=\"hl\">BR</span> FEW040 \n  TEMPO 0718/0806 <span class=\"hl-vis\">0200</span> <span class=\"hl\">FZFG</span> VV001"
    },
    {
      "icao": "LBSF",
      "iata": "SOF",
      "name": "Sofia Airport",
      "updatedAt": "072230Z",
      "visibility_m": 10000,
      "taf_visibility_m": 2000,
      "worst_visibility_m": 2000,
      "ceiling_ft": null,
      "hazards": [
        "SHRA",
        "FZRA",
        "SN",
        "RA"
      ],
      "severityScore": 79,
      "metarRaw": "METAR LBSF 072230Z AUTO 12006KT 9999 -SHRA OVC050/// 08/07 Q0999 BECMG 28020G30KT",
      "tafRaw": "TAF LBSF 071700Z 0718/0818 10010KT 9999 SCT025 BKN050 \n  TEMPO 0718/0801 5000 RA SCT010 BKN020 OVC040 \n  PROB30 0800/0801 5000 FZRA \n  BECMG 0801/0802 30016KT 2000 SN SCT005 BKN010 OVC015 \n  TEMPO 0802/0805 30020G34KT \n  BECMG 0805/0807 4000 -SN SCT010 BKN020 OVC030 \n  BECMG 0810/0812 9999 NSW SCT040 BKN060",
      "metarHtml": "METAR LBSF 072230Z AUTO 12006KT 9999 -<span class=\"hl\">SHRA</span> OVC050/// 08/07 Q0999 BECMG 28020G30KT",
      "tafHtml": "TAF LBSF 071700Z 0718/0818 10010KT 9999 SCT025 BKN050 \n  TEMPO 0718/0801 5000 <span class=\"hl\">RA</span> SCT010 BKN020 OVC040 \n  PROB30 0800/0801 5000 <span class=\"hl\">FZRA</span> \n  BECMG 0801/0802 30016KT 2000 <span class=\"hl\">SN</span> SCT005 BKN010 OVC015 \n  TEMPO 0802/0805 30020G34KT \n  BECMG 0805/0807 4000 -<span class=\"hl\">SN</span> SCT010 BKN020 OVC030 \n  BECMG 0810/0812 9999 NSW SCT040 BKN060"
    },
    {
      "icao": "EGBB",
      "iata": "BHX",
      "name": "Birmingham Airport",
      "updatedAt": "072220Z",
      "visibility_m": 10000,
      "taf_visibility_m": 600,
      "worst_visibility_m": 600,
      "ceiling_ft": null,
      "hazards": [
        "FG",
        "BR",
        "RA",
        "DZ"
      ],
      "severityScore": 77,
      "metarRaw": "METAR EGBB 072220Z 25005KT CAVOK 03/M01 Q1005",
      "tafRaw": "TAF EGBB 071706Z 0718/0818 28012KT 9999 SCT025 \n  BECMG 0718/0721 22006KT \n  TEMPO 0721/0724 7000 -RA -RASN \n  TEMPO 0800/0803 8000 -RA BKN008 \n  BECMG 0803/0806 3000 -DZ BR BKN003 \n  PROB40 \n  TEMPO 0803/0815 0600 DZ FG BKN001 \n  BECMG 0815/0818 06013KT \n  TEMPO 0815/0818 +RA",
      "metarHtml": "METAR EGBB 072220Z 25005KT <span class=\"hl-vis\">CAVOK</span> 03/M01 Q1005",
      "tafHtml": "TAF EGBB 071706Z 0718/0818 28012KT 9999 SCT025 \n  BECMG 0718/0721 22006KT \n  TEMPO 0721/0724 7000 -<span class=\"hl\">RA</span> -RASN \n  TEMPO 0800/0803 8000 -<span class=\"hl\">RA</span> BKN008 \n  BECMG 0803/0806 3000 -<span class=\"hl\">DZ</span> <span class=\"hl\">BR</span> BKN003 \n  PROB40 \n  TEMPO 0803/0815 <span class=\"hl-vis\">0600</span> <span class=\"hl\">DZ</span> <span class=\"hl\">FG</span> BKN001 \n  BECMG 0815/0818 06013KT \n  TEMPO 0815/0818 +<span class=\"hl\">RA</span>"
    },
    {
      "icao": "EPLB",
      "iata": "LUZ",
      "name": "Lublin Airport",
      "updatedAt": "072230Z",
      "visibility_m": 3200,
      "taf_visibility_m": 600,
      "worst_visibility_m": 600,
      "ceiling_ft": 3500,
      "hazards": [
        "BR",
        "SN",
        "BLSN"
      ],
      "severityScore": 75,
      "metarRaw": "METAR EPLB 072230Z 02008KT 3200 -SN BR BKN035 OVC041 M06/M07 Q1012",
      "tafRaw": "TAF EPLB 071730Z 0718/0818 02007KT 4000 -SN BR SCT020 BKN045 \n  TEMPO 0718/0721 6000 \n  BECMG 0721/0724 2500 -SN BKN010 \n  TEMPO 0803/0818 1200 SN BKN007 \n  PROB40 \n  TEMPO 0810/0818 01015G25KT 0600 BLSN",
      "metarHtml": "METAR EPLB 072230Z 02008KT 3200 -<span class=\"hl\">SN</span> <span class=\"hl\">BR</span> BKN035 OVC041 M06/M07 Q1012",
      "tafHtml": "TAF EPLB 071730Z 0718/0818 02007KT 4000 -<span class=\"hl\">SN</span> <span class=\"hl\">BR</span> SCT020 BKN045 \n  TEMPO 0718/0721 6000 \n  BECMG 0721/0724 2500 -<span class=\"hl\">SN</span> BKN010 \n  TEMPO 0803/0818 1200 <span class=\"hl\">SN</span> BKN007 \n  PROB40 \n  TEMPO 0810/0818 01015G25KT <span class=\"hl-vis\">0600</span> <span class=\"hl\">BLSN</span>"
    },
    {
      "icao": "LEMD",
      "iata": "MAD",
      "name": "Adolfo Suárez Madrid–Barajas Airport",
      "updatedAt": "072230Z",
      "visibility_m": 10000,
      "taf_visibility_m": 300,
      "worst_visibility_m": 300,
      "ceiling_ft": null,
      "hazards": [
        "FZFG"
      ],
      "severityScore": 75,
      "metarRaw": "METAR LEMD 072230Z VRB01KT CAVOK M00/M00 Q1027 NOSIG",
      "tafRaw": "TAF LEMD 071700Z 0718/0824 VRB03KT CAVOK TX08/0815Z TNM02/0806Z \n  BECMG 0723/0802 BKN005 \n  PROB40 \n  TEMPO 0800/0810 1500 BCFG OVC002 \n  PROB30 0801/0809 0300 FZFG VV001 \n  TEMPO 0812/0818 BKN008 \n  BECMG 0817/0819 22010KT \n  PROB40 \n  TEMPO 0822/0824 1200 BCFG BKN003",
      "metarHtml": "METAR LEMD 072230Z VRB01KT <span class=\"hl-vis\">CAVOK</span> M00/M00 Q1027 NOSIG",
      "tafHtml": "TAF LEMD 071700Z 0718/0824 VRB03KT <span class=\"hl-vis\">CAVOK</span> TX08/0815Z TNM02/0806Z \n  BECMG 0723/0802 BKN005 \n  PROB40 \n  TEMPO 0800/0810 1500 BCFG OVC002 \n  PROB30 0801/0809 <span class=\"hl-vis\">0300</span> <span class=\"hl\">FZFG</span> VV001 \n  TEMPO 0812/0818 BKN008 \n  BECMG 0817/0819 22010KT \n  PROB40 \n  TEMPO 0822/0824 1200 BCFG BKN003"
    },
    {
      "icao": "LJLJ",
      "iata": "LJU",
      "name": "Ljubljana Jože Pučnik Airport",
      "updatedAt": "072230Z",
      "visibility_m": 10000,
      "taf_visibility_m": 300,
      "worst_visibility_m": 300,
      "ceiling_ft": 3000,
      "hazards": [
        "FZFG"
      ],
      "severityScore": 75,
      "metarRaw": "METAR LJLJ 072230Z 00000KT 9999 SCT010 OVC030 M06/M07 Q1010 NOSIG",
      "tafRaw": "TAF LJLJ 071700Z 0718/0818 VRB02KT 9999 FEW005 BKN020 \n  PROB30 \n  TEMPO 0802/0809 0300 FZFG VV001",
      "metarHtml": "METAR LJLJ 072230Z 00000KT 9999 SCT010 OVC030 M06/M07 Q1010 NOSIG",
      "tafHtml": "TAF LJLJ 071700Z 0718/0818 VRB02KT 9999 FEW005 BKN020 \n  PROB30 \n  TEMPO 0802/0809 <span class=\"hl-vis\">0300</span> <span class=\"hl\">FZFG</span> VV001"
    },
    {
      "icao": "LFOB",
      "iata": "BVA",
      "name": "Beauvais Tillé airport",
      "updatedAt": "072230Z",
      "visibility_m": 10000,
      "taf_visibility_m": 4000,
      "worst_visibility_m": 4000,
      "ceiling_ft": 800,
      "hazards": [
        "FZRA",
        "RA"
      ],
      "severityScore": 72,
      "metarRaw": "METAR LFOB 072230Z AUTO 22005KT 200V270 9999 FEW025 BKN031 BKN043 03/01 Q1009 BECMG OVC008",
      "tafRaw": "TAF LFOB 071700Z 0718/0818 22006KT 9999 BKN040 \n  BECMG 0723/0803 VRB03KT OVC008 \n  PROB40 \n  TEMPO 0803/0808 4000 RA BKN005 OVC008 \n  PROB30 \n  TEMPO 0803/0808 FZRA \n  BECMG 0808/0810 22012KT BKN012 \n  BECMG 0813/0816 OVC010 \n  TEMPO 0813/0818 4000 RA BKN005 OVC010",
      "metarHtml": "METAR LFOB 072230Z AUTO 22005KT 200V270 9999 FEW025 BKN031 BKN043 03/01 Q1009 BECMG OVC008",
      "tafHtml": "TAF LFOB 071700Z 0718/0818 22006KT 9999 BKN040 \n  BECMG 0723/0803 VRB03KT OVC008 \n  PROB40 \n  TEMPO 0803/0808 4000 <span class=\"hl\">RA</span> BKN005 OVC008 \n  PROB30 \n  TEMPO 0803/0808 <span class=\"hl\">FZRA</span> \n  BECMG 0808/0810 22012KT BKN012 \n  BECMG 0813/0816 OVC010 \n  TEMPO 0813/0818 4000 <span class=\"hl\">RA</span> BKN005 OVC010"
    },
    {
      "icao": "LYBE",
      "iata": "BEG",
      "name": "Belgrade Nikola Tesla Airport",
      "updatedAt": "072230Z",
      "visibility_m": 2500,
      "taf_visibility_m": 700,
      "worst_visibility_m": 700,
      "ceiling_ft": 700,
      "hazards": [
        "SN"
      ],
      "severityScore": 68,
      "metarRaw": "METAR LYBE 072230Z 29008KT 2500 SN BKN007 OVC025 M04/M04 Q1009 NOSIG",
      "tafRaw": "TAF LYBE 071700Z 0718/0818 28008KT 3000 -SN BKN005 OVC027 TXM03/0718Z TNM07/0818Z \n  TEMPO 0718/0804 1200 SN BKN002 OVC025 \n  PROB40 \n  TEMPO 0720/0723 0700 +SN BKN001 OVC021 \n  BECMG 0807/0809 8000 NSW SCT025 \n  TEMPO 0808/0814 28018KT",
      "metarHtml": "METAR LYBE 072230Z 29008KT 2500 <span class=\"hl\">SN</span> BKN007 OVC025 M04/M04 Q1009 NOSIG",
      "tafHtml": "TAF LYBE 071700Z 0718/0818 28008KT 3000 -<span class=\"hl\">SN</span> BKN005 OVC027 TXM03/0718Z TNM07/0818Z \n  TEMPO 0718/0804 1200 <span class=\"hl\">SN</span> BKN002 OVC025 \n  PROB40 \n  TEMPO 0720/0723 <span class=\"hl-vis\">0700</span> +<span class=\"hl\">SN</span> BKN001 OVC021 \n  BECMG 0807/0809 8000 NSW SCT025 \n  TEMPO 0808/0814 28018KT"
    },
    {
      "icao": "EGGW",
      "iata": "LTN",
      "name": "London Luton Airport",
      "updatedAt": "072220Z",
      "visibility_m": 10000,
      "taf_visibility_m": 600,
      "worst_visibility_m": 600,
      "ceiling_ft": null,
      "hazards": [
        "FG",
        "BR",
        "RA"
      ],
      "severityScore": 67,
      "metarRaw": "METAR EGGW 072220Z AUTO 27009KT 9999 NCD 02/M01 Q1005",
      "tafRaw": "TAF EGGW 071704Z 0718/0818 28012KT 9999 SCT030 \n  BECMG 0801/0804 VRB04KT BKN008 \n  TEMPO 0803/0815 4000 RADZ BR BKN003 \n  PROB40 \n  TEMPO 0805/0813 0600 FG BKN001 \n  BECMG 0813/0815 15010KT \n  PROB30 \n  TEMPO 0813/0817 0800 FG BKN001 \n  TEMPO 0815/0818 4000 RA BKN004",
      "metarHtml": "METAR EGGW 072220Z AUTO 27009KT 9999 NCD 02/M01 Q1005",
      "tafHtml": "TAF EGGW 071704Z 0718/0818 28012KT 9999 SCT030 \n  BECMG 0801/0804 VRB04KT BKN008 \n  TEMPO 0803/0815 4000 RADZ <span class=\"hl\">BR</span> BKN003 \n  PROB40 \n  TEMPO 0805/0813 <span class=\"hl-vis\">0600</span> <span class=\"hl\">FG</span> BKN001 \n  BECMG 0813/0815 15010KT \n  PROB30 \n  TEMPO 0813/0817 <span class=\"hl-vis\">0800</span> <span class=\"hl\">FG</span> BKN001 \n  TEMPO 0815/0818 4000 <span class=\"hl\">RA</span> BKN004"
    },
    {
      "icao": "EPWA",
      "iata": "WAW",
      "name": "Warsaw Chopin Airport",
      "updatedAt": "072230Z",
      "visibility_m": 4000,
      "taf_visibility_m": 800,
      "worst_visibility_m": 800,
      "ceiling_ft": null,
      "hazards": [
        "BR",
        "FZFG"
      ],
      "severityScore": 65,
      "metarRaw": "METAR EPWA 072230Z VRB02KT 5000 BR FEW006 M09/M10 Q1014 TEMPO 4000 BR",
      "tafRaw": "TAF EPWA 072030Z 0721/0821 35004KT 3000 BR BKN004 \n  TEMPO 0721/0808 1500 BR BKN002 \n  PROB40 \n  TEMPO 0723/0807 0800 FZFG BKN001 \n  BECMG 0808/0811 6000 BKN007",
      "metarHtml": "METAR EPWA 072230Z VRB02KT 5000 <span class=\"hl\">BR</span> FEW006 M09/M10 Q1014 TEMPO 4000 <span class=\"hl\">BR</span>",
      "tafHtml": "TAF EPWA 072030Z 0721/0821 35004KT 3000 <span class=\"hl\">BR</span> BKN004 \n  TEMPO 0721/0808 1500 <span class=\"hl\">BR</span> BKN002 \n  PROB40 \n  TEMPO 0723/0807 <span class=\"hl-vis\">0800</span> <span class=\"hl\">FZFG</span> BKN001 \n  BECMG 0808/0811 6000 BKN007"
    },
    {
      "icao": "LQTZ",
      "iata": "TZL",
      "name": "Tuzla International Airport",
      "updatedAt": "072230Z",
      "visibility_m": 7000,
      "taf_visibility_m": 800,
      "worst_visibility_m": 800,
      "ceiling_ft": 1800,
      "hazards": [
        "BR",
        "SN"
      ],
      "severityScore": 65,
      "metarRaw": "METAR LQTZ 072230Z 29006KT 7000 BKN018 OVC033 M04/M05 Q1009",
      "tafRaw": "TAF LQTZ 071700Z 0718/0818 27007KT 9999 SCT020 BKN040 TXM01/0813Z TNM07/0818Z \n  TEMPO 0718/0802 3000 SN BR BKN008 OVC020 \n  PROB30 \n  TEMPO 0718/0724 0800 +SN BKN003 OVC008 \n  TEMPO 0802/0812 33012KT \n  PROB30 \n  TEMPO 0802/0808 5000 -SN BKN012 OVC030",
      "metarHtml": "METAR LQTZ 072230Z 29006KT 7000 BKN018 OVC033 M04/M05 Q1009",
      "tafHtml": "TAF LQTZ 071700Z 0718/0818 27007KT 9999 SCT020 BKN040 TXM01/0813Z TNM07/0818Z \n  TEMPO 0718/0802 3000 <span class=\"hl\">SN</span> <span class=\"hl\">BR</span> BKN008 OVC020 \n  PROB30 \n  TEMPO 0718/0724 <span class=\"hl-vis\">0800</span> +<span class=\"hl\">SN</span> BKN003 OVC008 \n  TEMPO 0802/0812 33012KT \n  PROB30 \n  TEMPO 0802/0808 5000 -<span class=\"hl\">SN</span> BKN012 OVC030"
    },
    {
      "icao": "EKBI",
      "iata": "BLL",
      "name": "Billund Airport",
      "updatedAt": "072220Z",
      "visibility_m": 10000,
      "taf_visibility_m": 1200,
      "worst_visibility_m": 1200,
      "ceiling_ft": 800,
      "hazards": [
        "BR",
        "SN"
      ],
      "severityScore": 63,
      "metarRaw": "METAR EKBI 072220Z 15010KT 9999 DRSN BKN008 M02/M03 Q1002",
      "tafRaw": "TAF EKBI 072027Z 0721/0821 16012KT 5000 -SN SCT005 BKN010 \n  TEMPO 0721/0805 17015G25KT 1200 SN DRSN BKN004 \n  TEMPO 0805/0821 3000 BR BKN004 \n  BECMG 0815/0818 10008KT",
      "metarHtml": "METAR EKBI 072220Z 15010KT 9999 DRSN BKN008 M02/M03 Q1002",
      "tafHtml": "TAF EKBI 072027Z 0721/0821 16012KT 5000 -<span class=\"hl\">SN</span> SCT005 BKN010 \n  TEMPO 0721/0805 17015G25KT 1200 <span class=\"hl\">SN</span> DRSN BKN004 \n  TEMPO 0805/0821 3000 <span class=\"hl\">BR</span> BKN004 \n  BECMG 0815/0818 10008KT"
    },
    {
      "icao": "ENGM",
      "iata": "OSL",
      "name": "Oslo-Gardermoen International Airport",
      "updatedAt": "072220Z",
      "visibility_m": 2500,
      "taf_visibility_m": 500,
      "worst_visibility_m": 500,
      "ceiling_ft": 2000,
      "hazards": [
        "BR",
        "SN"
      ],
      "severityScore": 63,
      "metarRaw": "METAR ENGM 072220Z 01007KT 2500 -SN BR OVC020 M07/M09 Q1003",
      "tafRaw": "TAF ENGM 071700Z 0718/0818 01003KT 9999 FEW015 BKN020 \n  BECMG 0718/0720 02013KT 4000 -SN OVC014 \n  TEMPO 0720/0808 0500 SN VV003 \n  BECMG 0808/0811 27005KT 9999 NSW FEW010",
      "metarHtml": "METAR ENGM 072220Z 01007KT 2500 -<span class=\"hl\">SN</span> <span class=\"hl\">BR</span> OVC020 M07/M09 Q1003",
      "tafHtml": "TAF ENGM 071700Z 0718/0818 01003KT 9999 FEW015 BKN020 \n  BECMG 0718/0720 02013KT 4000 -<span class=\"hl\">SN</span> OVC014 \n  TEMPO 0720/0808 <span class=\"hl-vis\">0500</span> <span class=\"hl\">SN</span> VV003 \n  BECMG 0808/0811 27005KT 9999 NSW FEW010"
    },
    {
      "icao": "LFBD",
      "iata": "BOD",
      "name": "Bordeaux–Mérignac Airport",
      "updatedAt": "072230Z",
      "visibility_m": 3000,
      "taf_visibility_m": 3000,
      "worst_visibility_m": 3000,
      "ceiling_ft": 500,
      "hazards": [
        "RA",
        "TSRA"
      ],
      "severityScore": 62,
      "metarRaw": "METAR LFBD 072230Z AUTO 26009KT 9999 -RA BKN007/// BKN011/// BKN016/// ///TCU 10/09 Q1018 TEMPO 27015G25KT 3000 RA BKN005 OVC015",
      "tafRaw": "TAF LFBD 071700Z 0718/0824 24005KT 9999 BKN030 TX13/0814Z TN06/0718Z \n  TEMPO 0718/0804 3000 RA BKN005 OVC015 \n  TEMPO 0800/0806 27015G25KT \n  PROB40 \n  TEMPO 0804/0821 4000 -RA BKN015 \n  TEMPO 0821/0824 27015G35KT 4000 TSRA BKN015 BKN030CB",
      "metarHtml": "METAR LFBD 072230Z AUTO 26009KT 9999 -<span class=\"hl\">RA</span> BKN007/// BKN011/// BKN016/// ///TCU 10/09 Q1018 TEMPO 27015G25KT 3000 <span class=\"hl\">RA</span> BKN005 OVC015",
      "tafHtml": "TAF LFBD 071700Z 0718/0824 24005KT 9999 BKN030 TX13/0814Z TN06/0718Z \n  TEMPO 0718/0804 3000 <span class=\"hl\">RA</span> BKN005 OVC015 \n  TEMPO 0800/0806 27015G25KT \n  PROB40 \n  TEMPO 0804/0821 4000 -<span class=\"hl\">RA</span> BKN015 \n  TEMPO 0821/0824 27015G35KT 4000 <span class=\"hl\">TSRA</span> BKN015 BKN030CB"
    },
    {
      "icao": "LTAC",
      "iata": "ESB",
      "name": "Esenboğa International Airport",
      "updatedAt": "072220Z",
      "visibility_m": 6000,
      "taf_visibility_m": 4000,
      "worst_visibility_m": 4000,
      "ceiling_ft": 4000,
      "hazards": [
        "BR",
        "TSRA",
        "RA",
        "SHRA"
      ],
      "severityScore": 61,
      "metarRaw": "METAR LTAC 072220Z VRB01KT 6000 BKN040 BKN100 01/M00 Q1017 NOSIG RMK RWY21C VRB01KT RWY03L VRB01KT RWY21R 00000KT RWY03R VRB02KT RWY21L 00000KT",
      "tafRaw": "TAF LTAC 071640Z 0718/0818 VRB02KT 9999 SCT040 \n  BECMG 0720/0723 BKN035 BKN080 \n  TEMPO 0723/0803 4000 -RA BR FEW010 BKN025 BKN080 \n  PROB30 \n  TEMPO 0803/0807 4000 BR SCT010 BKN025 \n  BECMG 0807/0810 21012KT \n  TEMPO 0810/0814 22015G25KT -SHRA FEW025CB BKN035 BKN080 \n  TEMPO 0814/0818 22020G30KT -TSRA SCT025CB BKN035",
      "metarHtml": "METAR LTAC 072220Z VRB01KT 6000 BKN040 BKN100 01/M00 Q1017 NOSIG RMK RWY21C VRB01KT RWY03L VRB01KT RWY21R 00000KT RWY03R VRB02KT RWY21L 00000KT",
      "tafHtml": "TAF LTAC 071640Z 0718/0818 VRB02KT 9999 SCT040 \n  BECMG 0720/0723 BKN035 BKN080 \n  TEMPO 0723/0803 4000 -<span class=\"hl\">RA</span> <span class=\"hl\">BR</span> FEW010 BKN025 BKN080 \n  PROB30 \n  TEMPO 0803/0807 4000 <span class=\"hl\">BR</span> SCT010 BKN025 \n  BECMG 0807/0810 21012KT \n  TEMPO 0810/0814 22015G25KT -<span class=\"hl\">SHRA</span> FEW025CB BKN035 BKN080 \n  TEMPO 0814/0818 22020G30KT -<span class=\"hl\">TSRA</span> SCT025CB BKN035"
    },
    {
      "icao": "EBCI",
      "iata": "CRL",
      "name": "Brussels South Charleroi Airport",
      "updatedAt": "072220Z",
      "visibility_m": 7000,
      "taf_visibility_m": 1200,
      "worst_visibility_m": 1200,
      "ceiling_ft": null,
      "hazards": [
        "BR",
        "SHSN",
        "FZDZ"
      ],
      "severityScore": 58,
      "metarRaw": "METAR EBCI 072220Z 22009KT 7000 FEW005 M00/M01 Q1007 NOSIG",
      "tafRaw": "TAF EBCI 071710Z 0718/0824 23008KT 9999 SCT007 BKN012 \n  PROB30 \n  TEMPO 0718/0721 3500 -SHSN BKN006 \n  BECMG 0723/0801 SCT030 \n  BECMG 0803/0805 BKN005 \n  PROB30 \n  TEMPO 0806/0809 -FZDZ \n  TEMPO 0808/0824 2500 RADZ \n  PROB30 \n  TEMPO 0808/0816 1200 DZRA BR BKN003 \n  BECMG 0819/0821 17010KT \n  BECMG 0822/0824 19015G25KT",
      "metarHtml": "METAR EBCI 072220Z 22009KT 7000 FEW005 M00/M01 Q1007 NOSIG",
      "tafHtml": "TAF EBCI 071710Z 0718/0824 23008KT 9999 SCT007 BKN012 \n  PROB30 \n  TEMPO 0718/0721 3500 -<span class=\"hl\">SHSN</span> BKN006 \n  BECMG 0723/0801 SCT030 \n  BECMG 0803/0805 BKN005 \n  PROB30 \n  TEMPO 0806/0809 -<span class=\"hl\">FZDZ</span> \n  TEMPO 0808/0824 2500 RADZ \n  PROB30 \n  TEMPO 0808/0816 1200 DZRA <span class=\"hl\">BR</span> BKN003 \n  BECMG 0819/0821 17010KT \n  BECMG 0822/0824 19015G25KT"
    },
    {
      "icao": "EPRZ",
      "iata": "RZE",
      "name": "Rzeszów-Jasionka Airport",
      "updatedAt": "072230Z",
      "visibility_m": 3000,
      "taf_visibility_m": null,
      "worst_visibility_m": 3000,
      "ceiling_ft": 500,
      "hazards": [
        "BR",
        "SN"
      ],
      "severityScore": 58,
      "metarRaw": "METAR EPRZ 072230Z 02008KT 3000 -SN BR OVC005 M05/M06 Q1010",
      "tafRaw": null,
      "metarHtml": "METAR EPRZ 072230Z 02008KT 3000 -<span class=\"hl\">SN</span> <span class=\"hl\">BR</span> OVC005 M05/M06 Q1010",
      "tafHtml": null
    },
    {
      "icao": "LYNI",
      "iata": "INI",
      "name": "Niš Constantine the Great Airport",
      "updatedAt": "072230Z",
      "visibility_m": 3000,
      "taf_visibility_m": 2000,
      "worst_visibility_m": 2000,
      "ceiling_ft": 700,
      "hazards": [
        "SN",
        "PL"
      ],
      "severityScore": 58,
      "metarRaw": "METAR LYNI 072230Z 31010KT 9999 -SN SCT010 BKN037 OVC080 M02/M04 Q1007 TEMPO 33020KT 3000 SN BKN007 BKN025 OVC070",
      "tafRaw": "TAF LYNI 071700Z 0718/0818 34012KT 9999 BKN008 OVC027 TXM01/0812Z TNM05/0818Z \n  TEMPO 0718/0721 33017G27KT PL BKN004 OVC023 \n  BECMG 0720/0722 5000 -SN \n  TEMPO 0721/0803 33015G25KT 2000 SN BKN004 OVC022 \n  BECMG 0807/0809 8000 NSW SCT017 BKN025 \n  BECMG 0816/0818 18004KT",
      "metarHtml": "METAR LYNI 072230Z 31010KT 9999 -<span class=\"hl\">SN</span> SCT010 BKN037 OVC080 M02/M04 Q1007 TEMPO 33020KT 3000 <span class=\"hl\">SN</span> BKN007 BKN025 OVC070",
      "tafHtml": "TAF LYNI 071700Z 0718/0818 34012KT 9999 BKN008 OVC027 TXM01/0812Z TNM05/0818Z \n  TEMPO 0718/0721 33017G27KT <span class=\"hl\">PL</span> BKN004 OVC023 \n  BECMG 0720/0722 5000 -<span class=\"hl\">SN</span> \n  TEMPO 0721/0803 33015G25KT 2000 <span class=\"hl\">SN</span> BKN004 OVC022 \n  BECMG 0807/0809 8000 NSW SCT017 BKN025 \n  BECMG 0816/0818 18004KT"
    },
    {
      "icao": "EHEH",
      "iata": "EIN",
      "name": "Eindhoven Airport",
      "updatedAt": "072225Z",
      "visibility_m": 10000,
      "taf_visibility_m": 500,
      "worst_visibility_m": 500,
      "ceiling_ft": 3900,
      "hazards": [
        "RA",
        "SHSN"
      ],
      "severityScore": 57,
      "metarRaw": "METAR EHEH 072225Z AUTO 21012KT 9999 FEW021 BKN039 OVC044 02/M00 Q1005 REDZ BLU",
      "tafRaw": "TAF EHEH 071753Z 0718/0824 20010KT 9999 SCT008 BKN010 \n  TEMPO 0718/0724 1500 -SHSN -SHSNRA SCT005 BKN006 SCT020CB \n  PROB30 \n  TEMPO 0718/0722 0500 SHSN SCT003 BKN004 SCT018CB \n  BECMG 0723/0801 21008KT BKN025 \n  BECMG 0816/0818 13005KT SCT012 BKN015 OVC018 \n  TEMPO 0817/0824 3500 RA RASN SCT005 BKN007 OVC010 \n  BECMG 0822/0824 13012G22KT",
      "metarHtml": "METAR EHEH 072225Z AUTO 21012KT 9999 FEW021 BKN039 OVC044 02/M00 Q1005 REDZ BLU",
      "tafHtml": "TAF EHEH 071753Z 0718/0824 20010KT 9999 SCT008 BKN010 \n  TEMPO 0718/0724 1500 -<span class=\"hl\">SHSN</span> -SHSNRA SCT005 BKN006 SCT020CB \n  PROB30 \n  TEMPO 0718/0722 <span class=\"hl-vis\">0500</span> <span class=\"hl\">SHSN</span> SCT003 BKN004 SCT018CB \n  BECMG 0723/0801 21008KT BKN025 \n  BECMG 0816/0818 13005KT SCT012 BKN015 OVC018 \n  TEMPO 0817/0824 3500 <span class=\"hl\">RA</span> RASN SCT005 BKN007 OVC010 \n  BECMG 0822/0824 13012G22KT"
    },
    {
      "icao": "ESGG",
      "iata": "GOT",
      "name": "Göteborg Landvetter Airport",
      "updatedAt": "072220Z",
      "visibility_m": 10000,
      "taf_visibility_m": 700,
      "worst_visibility_m": 700,
      "ceiling_ft": 1000,
      "hazards": [
        "SN"
      ],
      "severityScore": 55,
      "metarRaw": "METAR ESGG 072220Z 16011KT 9999 OVC010 M02/M04 Q1004",
      "tafRaw": "TAF ESGG 072030Z 0721/0821 16014KT 5000 -SN SCT010 BKN015 \n  TEMPO 0721/0803 16015G25KT 0700 SN VV006 \n  TEMPO 0802/0818 2500 SN VV008",
      "metarHtml": "METAR ESGG 072220Z 16011KT 9999 OVC010 M02/M04 Q1004",
      "tafHtml": "TAF ESGG 072030Z 0721/0821 16014KT 5000 -<span class=\"hl\">SN</span> SCT010 BKN015 \n  TEMPO 0721/0803 16015G25KT <span class=\"hl-vis\">0700</span> <span class=\"hl\">SN</span> VV006 \n  TEMPO 0802/0818 2500 <span class=\"hl\">SN</span> VV008"
    },
    {
      "icao": "LHDC",
      "iata": "DEB",
      "name": "Debrecen International Airport",
      "updatedAt": "072215Z",
      "visibility_m": 9000,
      "taf_visibility_m": 600,
      "worst_visibility_m": 600,
      "ceiling_ft": 1400,
      "hazards": [
        "SN"
      ],
      "severityScore": 55,
      "metarRaw": "METAR LHDC 072215Z AUTO 36007KT 9000 OVC014 M03/M05 Q1007",
      "tafRaw": "TAF LHDC 071415Z 0715/0724 36006KT 9999 OVC025 \n  TEMPO 0715/0718 4000 -SN BKN006 OVC020 \n  BECMG 0718/0721 1400 SN BKN004 OVC015 \n  TEMPO 0721/0724 36012KT DRSN \n  PROB40 \n  TEMPO 0721/0724 0600 +SN VV001",
      "metarHtml": "METAR LHDC 072215Z AUTO 36007KT 9000 OVC014 M03/M05 Q1007",
      "tafHtml": "TAF LHDC 071415Z 0715/0724 36006KT 9999 OVC025 \n  TEMPO 0715/0718 4000 -<span class=\"hl\">SN</span> BKN006 OVC020 \n  BECMG 0718/0721 1400 <span class=\"hl\">SN</span> BKN004 OVC015 \n  TEMPO 0721/0724 36012KT DRSN \n  PROB40 \n  TEMPO 0721/0724 <span class=\"hl-vis\">0600</span> +<span class=\"hl\">SN</span> VV001"
    },
    {
      "icao": "LRTM",
      "iata": "TGM",
      "name": "Târgu Mureş Transilvania International Airport",
      "updatedAt": "072230Z",
      "visibility_m": 10000,
      "taf_visibility_m": 3000,
      "worst_visibility_m": 3000,
      "ceiling_ft": null,
      "hazards": [
        "FZRA",
        "SN"
      ],
      "severityScore": 53,
      "metarRaw": "METAR LRTM 072230Z AUTO 28004KT 9999 R25////// -FZRA BKN007/// OVC009/// M00/M01 Q1002",
      "tafRaw": "TAF LRTM 071400Z 0715/0724 VRB04KT 9999 BKN010 BKN035 \n  PROB40 \n  TEMPO 0715/0720 5000 -FZRA BKN005 OVC020 \n  BECMG 0721/0723 29010KT 3000 SN BKN002 OVC015",
      "metarHtml": "METAR LRTM 072230Z AUTO 28004KT 9999 R25////// -<span class=\"hl\">FZRA</span> BKN007/// OVC009/// M00/M01 Q1002",
      "tafHtml": "TAF LRTM 071400Z 0715/0724 VRB04KT 9999 BKN010 BKN035 \n  PROB40 \n  TEMPO 0715/0720 5000 -<span class=\"hl\">FZRA</span> BKN005 OVC020 \n  BECMG 0721/0723 29010KT 3000 <span class=\"hl\">SN</span> BKN002 OVC015"
    },
    {
      "icao": "LICJ",
      "iata": "PMO",
      "name": "Falcone–Borsellino Airport",
      "updatedAt": "072220Z",
      "visibility_m": 10000,
      "taf_visibility_m": 4000,
      "worst_visibility_m": 4000,
      "ceiling_ft": null,
      "hazards": [
        "RA",
        "TSRA",
        "SHRA"
      ],
      "severityScore": 51,
      "metarRaw": "METAR LICJ 072220Z 28019KT 9999 -RA FEW030 SCT050 11/06 Q1014",
      "tafRaw": "TAF LICJ 071700Z 0718/0818 28025G40KT 9999 BKN025 \n  TEMPO 0718/0807 4000 TSRA \n  TEMPO 0807/0818 4000 SHRA \n  BECMG 0815/0817 28018G30KT",
      "metarHtml": "METAR LICJ 072220Z 28019KT 9999 -<span class=\"hl\">RA</span> FEW030 SCT050 11/06 Q1014",
      "tafHtml": "TAF LICJ 071700Z 0718/0818 28025G40KT 9999 BKN025 \n  TEMPO 0718/0807 4000 <span class=\"hl\">TSRA</span> \n  TEMPO 0807/0818 4000 <span class=\"hl\">SHRA</span> \n  BECMG 0815/0817 28018G30KT"
    },
    {
      "icao": "LFLL",
      "iata": "LYS",
      "name": "Lyon Saint-Exupéry Airport",
      "updatedAt": "072230Z",
      "visibility_m": 10000,
      "taf_visibility_m": 1500,
      "worst_visibility_m": 1500,
      "ceiling_ft": 6600,
      "hazards": [
        "BR",
        "SN",
        "RA"
      ],
      "severityScore": 50,
      "metarRaw": "METAR LFLL 072230Z 14009KT 9999 SCT026 BKN066 M00/M04 Q1017 NOSIG",
      "tafRaw": "TAF LFLL 071700Z 0718/0824 16005KT 9999 BKN033 \n  TEMPO 0718/0720 1500 -SN OVC004 \n  PROB30 \n  TEMPO 0720/0724 3000 BR BKN009 \n  TEMPO 0803/0809 1500 SN OVC004 \n  TEMPO 0809/0815 RA \n  BECMG 0815/0817 18013KT \n  TEMPO 0820/0824 18018G30KT",
      "metarHtml": "METAR LFLL 072230Z 14009KT 9999 SCT026 BKN066 M00/M04 Q1017 NOSIG",
      "tafHtml": "TAF LFLL 071700Z 0718/0824 16005KT 9999 BKN033 \n  TEMPO 0718/0720 1500 -<span class=\"hl\">SN</span> OVC004 \n  PROB30 \n  TEMPO 0720/0724 3000 <span class=\"hl\">BR</span> BKN009 \n  TEMPO 0803/0809 1500 <span class=\"hl\">SN</span> OVC004 \n  TEMPO 0809/0815 <span class=\"hl\">RA</span> \n  BECMG 0815/0817 18013KT \n  TEMPO 0820/0824 18018G30KT"
    },
    {
      "icao": "EGPF",
      "iata": "GLA",
      "name": "Glasgow Airport",
      "updatedAt": "072220Z",
      "visibility_m": 10000,
      "taf_visibility_m": 1400,
      "worst_visibility_m": 1400,
      "ceiling_ft": null,
      "hazards": [
        "BR",
        "RA",
        "SHRA"
      ],
      "severityScore": 46,
      "metarRaw": "METAR EGPF 072220Z AUTO 00000KT 9999 NCD M00/M02 Q1003",
      "tafRaw": "TAF EGPF 071658Z 0718/0818 VRB04KT 9999 FEW040 \n  PROB30 \n  TEMPO 0720/0801 4000 BR \n  TEMPO 0801/0818 BKN012 \n  PROB40 \n  TEMPO 0801/0808 1400 RA RASN BKN002 \n  PROB30 \n  TEMPO 0808/0812 3000 SHRASN BKN005 \n  PROB30 \n  TEMPO 0812/0818 5000 SHRA BKN006",
      "metarHtml": "METAR EGPF 072220Z AUTO 00000KT 9999 NCD M00/M02 Q1003",
      "tafHtml": "TAF EGPF 071658Z 0718/0818 VRB04KT 9999 FEW040 \n  PROB30 \n  TEMPO 0720/0801 4000 <span class=\"hl\">BR</span> \n  TEMPO 0801/0818 BKN012 \n  PROB40 \n  TEMPO 0801/0808 1400 <span class=\"hl\">RA</span> RASN BKN002 \n  PROB30 \n  TEMPO 0808/0812 3000 SHRASN BKN005 \n  PROB30 \n  TEMPO 0812/0818 5000 <span class=\"hl\">SHRA</span> BKN006"
    },
    {
      "icao": "ENTO",
      "iata": "TRF",
      "name": "Sandefjord Airport, Torp",
      "updatedAt": "072220Z",
      "visibility_m": 2300,
      "taf_visibility_m": 800,
      "worst_visibility_m": 800,
      "ceiling_ft": null,
      "hazards": [
        "SN"
      ],
      "severityScore": 43,
      "metarRaw": "METAR ENTO 072220Z AUTO 36013KT 2300 -SN OVC026/// M07/M09 Q1002",
      "tafRaw": "TAF ENTO 071700Z 0718/0818 36015KT 9999 -SN BKN012 \n  BECMG 0718/0720 4000 -SN \n  TEMPO 0718/0803 0800 SN DRSN VV004 \n  BECMG 0803/0805 27005KT 9999 NSW FEW012",
      "metarHtml": "METAR ENTO 072220Z AUTO 36013KT 2300 -<span class=\"hl\">SN</span> OVC026/// M07/M09 Q1002",
      "tafHtml": "TAF ENTO 071700Z 0718/0818 36015KT 9999 -<span class=\"hl\">SN</span> BKN012 \n  BECMG 0718/0720 4000 -<span class=\"hl\">SN</span> \n  TEMPO 0718/0803 <span class=\"hl-vis\">0800</span> <span class=\"hl\">SN</span> DRSN VV004 \n  BECMG 0803/0805 27005KT 9999 NSW FEW012"
    },
    {
      "icao": "EPPO",
      "iata": "POZ",
      "name": "Poznań-Ławica Airport",
      "updatedAt": "072230Z",
      "visibility_m": 4700,
      "taf_visibility_m": null,
      "worst_visibility_m": 4700,
      "ceiling_ft": 600,
      "hazards": [
        "BR"
      ],
      "severityScore": 40,
      "metarRaw": "METAR EPPO 072230Z 10007KT 4700 BR OVC006 M06/M08 Q1013",
      "tafRaw": null,
      "metarHtml": "METAR EPPO 072230Z 10007KT 4700 <span class=\"hl\">BR</span> OVC006 M06/M08 Q1013",
      "tafHtml": null
    },
    {
      "icao": "LFPO",
      "iata": "ORY",
      "name": "Paris-Orly Airport",
      "updatedAt": "072230Z",
      "visibility_m": 8000,
      "taf_visibility_m": null,
      "worst_visibility_m": 8000,
      "ceiling_ft": 400,
      "hazards": [],
      "severityScore": 40,
      "metarRaw": "METAR LFPO 072230Z 24008KT 8000 BKN006 BKN083 03/02 Q1010 TEMPO BKN004",
      "tafRaw": null,
      "metarHtml": "METAR LFPO 072230Z 24008KT 8000 BKN006 BKN083 03/02 Q1010 TEMPO BKN004",
      "tafHtml": null
    },
    {
      "icao": "LHBP",
      "iata": "BUD",
      "name": "Budapest Liszt Ferenc International Airport",
      "updatedAt": "072230Z",
      "visibility_m": 10000,
      "taf_visibility_m": 2500,
      "worst_visibility_m": 2500,
      "ceiling_ft": null,
      "hazards": [
        "SN",
        "BLSN"
      ],
      "severityScore": 40,
      "metarRaw": "METAR LHBP 072230Z 31006KT CAVOK M04/M06 Q1009 NOSIG",
      "tafRaw": "TAF LHBP 071715Z 0718/0818 33006KT CAVOK \n  TEMPO 0718/0722 4500 -SN BKN013 OVC035 \n  PROB30 \n  TEMPO 0722/0805 BKN007 \n  BECMG 0802/0805 31012KT DRSN \n  TEMPO 0805/0818 30018G28KT 2500 BLSN FEW020",
      "metarHtml": "METAR LHBP 072230Z 31006KT <span class=\"hl-vis\">CAVOK</span> M04/M06 Q1009 NOSIG",
      "tafHtml": "TAF LHBP 071715Z 0718/0818 33006KT <span class=\"hl-vis\">CAVOK</span> \n  TEMPO 0718/0722 4500 -<span class=\"hl\">SN</span> BKN013 OVC035 \n  PROB30 \n  TEMPO 0722/0805 BKN007 \n  BECMG 0802/0805 31012KT DRSN \n  TEMPO 0805/0818 30018G28KT 2500 <span class=\"hl\">BLSN</span> FEW020"
    },
    {
      "icao": "LQBK",
      "iata": "BNX",
      "name": "Banja Luka International Airport",
      "updatedAt": "072230Z",
      "visibility_m": 10000,
      "taf_visibility_m": 4000,
      "worst_visibility_m": 4000,
      "ceiling_ft": 1500,
      "hazards": [
        "BR",
        "SN"
      ],
      "severityScore": 40,
      "metarRaw": "METAR LQBK 072230Z 26007KT 9999 FEW009 BKN015 OVC025 M03/M05 Q1011 NOSIG",
      "tafRaw": "TAF LQBK 071700Z 0718/0818 35006KT CAVOK TXM03/0813Z TNM08/0805Z \n  PROB30 \n  TEMPO 0718/0804 4000 -SN BR SCT010 BKN015 \n  TEMPO 0721/0805 29010KT",
      "metarHtml": "METAR LQBK 072230Z 26007KT 9999 FEW009 BKN015 OVC025 M03/M05 Q1011 NOSIG",
      "tafHtml": "TAF LQBK 071700Z 0718/0818 35006KT <span class=\"hl-vis\">CAVOK</span> TXM03/0813Z TNM08/0805Z \n  PROB30 \n  TEMPO 0718/0804 4000 -<span class=\"hl\">SN</span> <span class=\"hl\">BR</span> SCT010 BKN015 \n  TEMPO 0721/0805 29010KT"
    },
    {
      "icao": "LZKZ",
      "iata": "KSC",
      "name": "Košice International Airport",
      "updatedAt": "072230Z",
      "visibility_m": 10000,
      "taf_visibility_m": 2500,
      "worst_visibility_m": 2500,
      "ceiling_ft": null,
      "hazards": [
        "SN",
        "BLSN"
      ],
      "severityScore": 40,
      "metarRaw": "METAR LZKZ 072230Z 35016KT 9999 FEW030 M03/M08 Q1007 NOSIG",
      "tafRaw": "TAF LZKZ 071715Z 0718/0818 36017KT 9999 SCT040 \n  TEMPO 0718/0809 4000 -SN DRSN FEW010 BKN025 \n  PROB30 \n  TEMPO 0803/0806 01020G30KT 2500 SN BLSN SCT010 BKN020 \n  BECMG 0811/0813 34006KT",
      "metarHtml": "METAR LZKZ 072230Z 35016KT 9999 FEW030 M03/M08 Q1007 NOSIG",
      "tafHtml": "TAF LZKZ 071715Z 0718/0818 36017KT 9999 SCT040 \n  TEMPO 0718/0809 4000 -<span class=\"hl\">SN</span> DRSN FEW010 BKN025 \n  PROB30 \n  TEMPO 0803/0806 01020G30KT 2500 <span class=\"hl\">SN</span> <span class=\"hl\">BLSN</span> SCT010 BKN020 \n  BECMG 0811/0813 34006KT"
    },
    {
      "icao": "LTFM",
      "iata": "IST",
      "name": "İstanbul Airport",
      "updatedAt": "072220Z",
      "visibility_m": 10000,
      "taf_visibility_m": 4000,
      "worst_visibility_m": 4000,
      "ceiling_ft": 8000,
      "hazards": [
        "TSRA",
        "SHRA"
      ],
      "severityScore": 39,
      "metarRaw": "METAR LTFM 072220Z 20016KT 9999 SCT040 BKN080 17/08 Q1006 NOSIG RMK RWY17L 20015KT RWY34L 19016KT RWY16R 20017KT RWY36 20020KT RWY18 21018G28KT",
      "tafRaw": "TAF LTFM 071640Z 0718/0824 18010KT 9999 SCT040 BKN080 \n  TEMPO 0718/0722 -SHRA \n  BECMG 0720/0723 19022G32KT \n  BECMG 0723/0801 20026G42KT -SHRA BKN028 BKN080 \n  TEMPO 0804/0808 20032G52KT 4000 TSRA SCT017CB BKN025 \n  BECMG 0808/0810 22020G32KT SCT032 BKN090 \n  BECMG 0813/0816 27014KT \n  PROB40 \n  TEMPO 0815/0818 4000 TSRA SCT017CB BKN025",
      "metarHtml": "METAR LTFM 072220Z 20016KT 9999 SCT040 BKN080 17/08 Q1006 NOSIG RMK RWY17L 20015KT RWY34L 19016KT RWY16R 20017KT RWY36 20020KT RWY18 21018G28KT",
      "tafHtml": "TAF LTFM 071640Z 0718/0824 18010KT 9999 SCT040 BKN080 \n  TEMPO 0718/0722 -<span class=\"hl\">SHRA</span> \n  BECMG 0720/0723 19022G32KT \n  BECMG 0723/0801 20026G42KT -<span class=\"hl\">SHRA</span> BKN028 BKN080 \n  TEMPO 0804/0808 20032G52KT 4000 <span class=\"hl\">TSRA</span> SCT017CB BKN025 \n  BECMG 0808/0810 22020G32KT SCT032 BKN090 \n  BECMG 0813/0816 27014KT \n  PROB40 \n  TEMPO 0815/0818 4000 <span class=\"hl\">TSRA</span> SCT017CB BKN025"
    },
    {
      "icao": "ESSA",
      "iata": "ARN",
      "name": "Stockholm-Arlanda Airport",
      "updatedAt": "072220Z",
      "visibility_m": 10000,
      "taf_visibility_m": 1400,
      "worst_visibility_m": 1400,
      "ceiling_ft": 2700,
      "hazards": [
        "SN",
        "SHSN"
      ],
      "severityScore": 38,
      "metarRaw": "METAR ESSA 072220Z 14009KT 9999 -SN FEW007 SCT010 BKN027 M02/M02 Q1011 NOSIG",
      "tafRaw": "TAF ESSA 072030Z 0721/0821 09006KT 9999 SCT015 BKN030 \n  TEMPO 0721/0724 1400 SHSN BKN008 BKN020CB \n  BECMG 0723/0801 17010KT \n  TEMPO 0800/0805 2500 SHSN BKN009 BKN020CB \n  BECMG 0810/0812 18015G25KT \n  BECMG 0816/0818 17008KT",
      "metarHtml": "METAR ESSA 072220Z 14009KT 9999 -<span class=\"hl\">SN</span> FEW007 SCT010 BKN027 M02/M02 Q1011 NOSIG",
      "tafHtml": "TAF ESSA 072030Z 0721/0821 09006KT 9999 SCT015 BKN030 \n  TEMPO 0721/0724 1400 <span class=\"hl\">SHSN</span> BKN008 BKN020CB \n  BECMG 0723/0801 17010KT \n  TEMPO 0800/0805 2500 <span class=\"hl\">SHSN</span> BKN009 BKN020CB \n  BECMG 0810/0812 18015G25KT \n  BECMG 0816/0818 17008KT"
    },
    {
      "icao": "LGTS",
      "iata": "SKG",
      "name": "Thessaloniki Macedonia International Airport",
      "updatedAt": "072220Z",
      "visibility_m": 7000,
      "taf_visibility_m": 3000,
      "worst_visibility_m": 3000,
      "ceiling_ft": null,
      "hazards": [
        "RA",
        "TSRA"
      ],
      "severityScore": 37,
      "metarRaw": "METAR LGTS 072220Z 28006KT 150V320 7000 -RA FEW004 SCT020 12/12 Q1002 RERA NOSIG",
      "tafRaw": "TAF LGTS 071700Z 0718/0818 16013KT 9999 SCT025 \n  TEMPO 0718/0802 16015G25KT 5000 RA FEW012 BKN025 \n  PROB30 \n  TEMPO 0718/0724 3000 TSRA SCT008 FEW018CB BKN020 \n  BECMG 0807/0809 34015KT \n  TEMPO 0814/0818 34015G25KT",
      "metarHtml": "METAR LGTS 072220Z 28006KT 150V320 7000 -<span class=\"hl\">RA</span> FEW004 SCT020 12/12 Q1002 RERA NOSIG",
      "tafHtml": "TAF LGTS 071700Z 0718/0818 16013KT 9999 SCT025 \n  TEMPO 0718/0802 16015G25KT 5000 <span class=\"hl\">RA</span> FEW012 BKN025 \n  PROB30 \n  TEMPO 0718/0724 3000 <span class=\"hl\">TSRA</span> SCT008 FEW018CB BKN020 \n  BECMG 0807/0809 34015KT \n  TEMPO 0814/0818 34015G25KT"
    },
    {
      "icao": "LICA",
      "iata": "SUF",
      "name": "Lamezia Terme Sant'Eufemia International Airport",
      "updatedAt": "072220Z",
      "visibility_m": 10000,
      "taf_visibility_m": 3000,
      "worst_visibility_m": 3000,
      "ceiling_ft": null,
      "hazards": [
        "RA",
        "TSRA"
      ],
      "severityScore": 37,
      "metarRaw": "METAR LICA 072220Z AUTO 24020G30KT 9999 -RA BKN032/// BKN061/// 10/06 Q1008",
      "tafRaw": "TAF LICA 071700Z 0718/0818 28023G40KT 7000 RA BKN020 \n  TEMPO 0718/0809 3000 TSRA BKN010 \n  BECMG 0808/0810 29016G30KT \n  BECMG 0815/0817 29013KT NSW",
      "metarHtml": "METAR LICA 072220Z AUTO 24020G30KT 9999 -<span class=\"hl\">RA</span> BKN032/// BKN061/// 10/06 Q1008",
      "tafHtml": "TAF LICA 071700Z 0718/0818 28023G40KT 7000 <span class=\"hl\">RA</span> BKN020 \n  TEMPO 0718/0809 3000 <span class=\"hl\">TSRA</span> BKN010 \n  BECMG 0808/0810 29016G30KT \n  BECMG 0815/0817 29013KT NSW"
    },
    {
      "icao": "EGKK",
      "iata": "LGW",
      "name": "London Gatwick Airport",
      "updatedAt": "072220Z",
      "visibility_m": 10000,
      "taf_visibility_m": 2000,
      "worst_visibility_m": 2000,
      "ceiling_ft": null,
      "hazards": [
        "BR",
        "RA",
        "SHRA"
      ],
      "severityScore": 36,
      "metarRaw": "METAR EGKK 072220Z 21005KT CAVOK 03/01 Q1006",
      "tafRaw": "TAF EGKK 071657Z 0718/0824 26010KT 9999 FEW035 \n  BECMG 0722/0801 20003KT \n  PROB30 \n  TEMPO 0802/0805 8000 -RA BKN014 \n  TEMPO 0805/0812 6000 -RADZ BKN005 \n  PROB30 \n  TEMPO 0805/0810 2000 RADZ BR BKN001 \n  PROB30 \n  TEMPO 0812/0814 8000 -RA BKN008 \n  BECMG 0813/0816 11011KT \n  TEMPO 0814/0821 6000 RA BKN010 \n  PROB40 \n  TEMPO 0817/0820 4000 +RA BKN006 \n  BECMG 0819/0822 18009KT \n  PROB40 \n  TEMPO 0821/0824 7000 RA SHRA",
      "metarHtml": "METAR EGKK 072220Z 21005KT <span class=\"hl-vis\">CAVOK</span> 03/01 Q1006",
      "tafHtml": "TAF EGKK 071657Z 0718/0824 26010KT 9999 FEW035 \n  BECMG 0722/0801 20003KT \n  PROB30 \n  TEMPO 0802/0805 8000 -<span class=\"hl\">RA</span> BKN014 \n  TEMPO 0805/0812 6000 -RADZ BKN005 \n  PROB30 \n  TEMPO 0805/0810 2000 RADZ <span class=\"hl\">BR</span> BKN001 \n  PROB30 \n  TEMPO 0812/0814 8000 -<span class=\"hl\">RA</span> BKN008 \n  BECMG 0813/0816 11011KT \n  TEMPO 0814/0821 6000 <span class=\"hl\">RA</span> BKN010 \n  PROB40 \n  TEMPO 0817/0820 4000 +<span class=\"hl\">RA</span> BKN006 \n  BECMG 0819/0822 18009KT \n  PROB40 \n  TEMPO 0821/0824 7000 <span class=\"hl\">RA</span> <span class=\"hl\">SHRA</span>"
    },
    {
      "icao": "EPKK",
      "iata": "KRK",
      "name": "Kraków John Paul II International Airport",
      "updatedAt": "072230Z",
      "visibility_m": 3800,
      "taf_visibility_m": null,
      "worst_visibility_m": 3800,
      "ceiling_ft": 3000,
      "hazards": [
        "BR",
        "SN"
      ],
      "severityScore": 33,
      "metarRaw": "METAR EPKK 072230Z 03003KT 3800 -SN BR SCT014 BKN030 M06/M08 Q1010",
      "tafRaw": null,
      "metarHtml": "METAR EPKK 072230Z 03003KT 3800 -<span class=\"hl\">SN</span> <span class=\"hl\">BR</span> SCT014 BKN030 M06/M08 Q1010",
      "tafHtml": null
    },
    {
      "icao": "LRCL",
      "iata": "CLJ",
      "name": "Cluj Avram Iancu International Airport",
      "updatedAt": "072230Z",
      "visibility_m": 2500,
      "taf_visibility_m": null,
      "worst_visibility_m": 2500,
      "ceiling_ft": 2000,
      "hazards": [
        "BR",
        "SN"
      ],
      "severityScore": 33,
      "metarRaw": "METAR LRCL 072230Z 26005KT 2500 -SN BR SCT004 OVC020 M02/M02 Q1003 RESN",
      "tafRaw": null,
      "metarHtml": "METAR LRCL 072230Z 26005KT 2500 -<span class=\"hl\">SN</span> <span class=\"hl\">BR</span> SCT004 OVC020 M02/M02 Q1003 RESN",
      "tafHtml": null
    },
    {
      "icao": "LKMT",
      "iata": "OSR",
      "name": "Ostrava Leos Janáček Airport",
      "updatedAt": "072230Z",
      "visibility_m": 10000,
      "taf_visibility_m": 6000,
      "worst_visibility_m": 6000,
      "ceiling_ft": 1800,
      "hazards": [
        "SN"
      ],
      "severityScore": 30,
      "metarRaw": "METAR LKMT 072230Z 01006KT 9999 OVC023 M05/M08 Q1011 TEMPO BKN018",
      "tafRaw": "TAF LKMT 071700Z 0718/0818 02007KT 9999 BKN018 \n  TEMPO 0722/0810 OVC012 \n  PROB30 \n  TEMPO 0723/0809 6000 -SN OVC007",
      "metarHtml": "METAR LKMT 072230Z 01006KT 9999 OVC023 M05/M08 Q1011 TEMPO BKN018",
      "tafHtml": "TAF LKMT 071700Z 0718/0818 02007KT 9999 BKN018 \n  TEMPO 0722/0810 OVC012 \n  PROB30 \n  TEMPO 0723/0809 6000 -<span class=\"hl\">SN</span> OVC007"
    },
    {
      "icao": "LWSK",
      "iata": "SKP",
      "name": "Skopje International Airport",
      "updatedAt": "072250Z",
      "visibility_m": 2500,
      "taf_visibility_m": 3000,
      "worst_visibility_m": 2500,
      "ceiling_ft": 3500,
      "hazards": [
        "RA",
        "SN"
      ],
      "severityScore": 30,
      "metarRaw": "METAR LWSK 072250Z VRB02KT 2500 -RA FEW010 SCT015 OVC035 08/08 Q1000 NOSIG",
      "tafRaw": "TAF LWSK 072045Z 0721/0821 25006KT 5000 RA SCT010 BKN050 OVC070 \n  BECMG 0803/0805 32014KT \n  TEMPO 0804/0808 3000 SN BKN010 OVC025 \n  BECMG 0810/0812 9999 NSW SCT030 BKN050",
      "metarHtml": "METAR LWSK 072250Z VRB02KT 2500 -<span class=\"hl\">RA</span> FEW010 SCT015 OVC035 08/08 Q1000 NOSIG",
      "tafHtml": "TAF LWSK 072045Z 0721/0821 25006KT 5000 <span class=\"hl\">RA</span> SCT010 BKN050 OVC070 \n  BECMG 0803/0805 32014KT \n  TEMPO 0804/0808 3000 <span class=\"hl\">SN</span> BKN010 OVC025 \n  BECMG 0810/0812 9999 NSW SCT030 BKN050"
    },
    {
      "icao": "EETN",
      "iata": "TLL",
      "name": "Lennart Meri Tallinn Airport",
      "updatedAt": "072250Z",
      "visibility_m": 10000,
      "taf_visibility_m": 2000,
      "worst_visibility_m": 2000,
      "ceiling_ft": 2500,
      "hazards": [
        "BR",
        "SN"
      ],
      "severityScore": 28,
      "metarRaw": "METAR EETN 072250Z VRB02KT 9999 OVC025 M07/M09 Q1017",
      "tafRaw": "TAF EETN 071730Z 0718/0818 VRB02KT 9999 OVC018 \n  PROB40 \n  TEMPO 0718/0724 2000 SN SCT008 BKN014 \n  TEMPO 0800/0807 SCT003 BKN010 \n  PROB40 \n  TEMPO 0800/0807 3000 SN BR",
      "metarHtml": "METAR EETN 072250Z VRB02KT 9999 OVC025 M07/M09 Q1017",
      "tafHtml": "TAF EETN 071730Z 0718/0818 VRB02KT 9999 OVC018 \n  PROB40 \n  TEMPO 0718/0724 2000 <span class=\"hl\">SN</span> SCT008 BKN014 \n  TEMPO 0800/0807 SCT003 BKN010 \n  PROB40 \n  TEMPO 0800/0807 3000 <span class=\"hl\">SN</span> <span class=\"hl\">BR</span>"
    },
    {
      "icao": "EPRA",
      "iata": "RDO",
      "name": "Warsaw Radom Airport",
      "updatedAt": "072230Z",
      "visibility_m": 3700,
      "taf_visibility_m": 2000,
      "worst_visibility_m": 2000,
      "ceiling_ft": 2500,
      "hazards": [
        "BR",
        "SN"
      ],
      "severityScore": 28,
      "metarRaw": "METAR EPRA 072230Z 02005KT 3700 -SN BR SCT006 OVC025 M08/M10 Q1012",
      "tafRaw": "TAF EPRA 072030Z 0721/0806 34006KT 4000 -SN BR OVC020 \n  PROB40 \n  TEMPO 0722/0806 2000 SN SCT005 OVC012",
      "metarHtml": "METAR EPRA 072230Z 02005KT 3700 -<span class=\"hl\">SN</span> <span class=\"hl\">BR</span> SCT006 OVC025 M08/M10 Q1012",
      "tafHtml": "TAF EPRA 072030Z 0721/0806 34006KT 4000 -<span class=\"hl\">SN</span> <span class=\"hl\">BR</span> OVC020 \n  PROB40 \n  TEMPO 0722/0806 2000 <span class=\"hl\">SN</span> SCT005 OVC012"
    },
    {
      "icao": "EPWR",
      "iata": "WRO",
      "name": "Copernicus Wrocław Airport",
      "updatedAt": "072230Z",
      "visibility_m": 4000,
      "taf_visibility_m": 3500,
      "worst_visibility_m": 3500,
      "ceiling_ft": null,
      "hazards": [
        "BR",
        "SN"
      ],
      "severityScore": 28,
      "metarRaw": "METAR EPWR 072230Z 11004KT 4000 BR FEW029 M10/M10 Q1013",
      "tafRaw": "TAF EPWR 072030Z 0721/0821 11004KT 5000 BR NSC \n  TEMPO 0721/0806 3500 BR \n  PROB30 \n  TEMPO 0721/0806 -SN BKN013",
      "metarHtml": "METAR EPWR 072230Z 11004KT 4000 <span class=\"hl\">BR</span> FEW029 M10/M10 Q1013",
      "tafHtml": "TAF EPWR 072030Z 0721/0821 11004KT 5000 <span class=\"hl\">BR</span> NSC \n  TEMPO 0721/0806 3500 <span class=\"hl\">BR</span> \n  PROB30 \n  TEMPO 0721/0806 -<span class=\"hl\">SN</span> BKN013"
    },
    {
      "icao": "LKPR",
      "iata": "PRG",
      "name": "Václav Havel Airport Prague",
      "updatedAt": "072230Z",
      "visibility_m": 10000,
      "taf_visibility_m": 3000,
      "worst_visibility_m": 3000,
      "ceiling_ft": 2900,
      "hazards": [
        "BR",
        "SN"
      ],
      "severityScore": 28,
      "metarRaw": "METAR LKPR 072230Z 19005KT 120V210 9999 BKN029 M06/M10 Q1010 NOSIG",
      "tafRaw": "TAF LKPR 072000Z 0721/0903 20006KT 9999 BKN030 \n  BECMG 0721/0722 CAVOK \n  BECMG 0807/0809 9999 BKN025 \n  TEMPO 0809/0902 13004KT 8000 BKN014 \n  PROB30 \n  TEMPO 0809/0819 3000 -SN BR BKN007",
      "metarHtml": "METAR LKPR 072230Z 19005KT 120V210 9999 BKN029 M06/M10 Q1010 NOSIG",
      "tafHtml": "TAF LKPR 072000Z 0721/0903 20006KT 9999 BKN030 \n  BECMG 0721/0722 <span class=\"hl-vis\">CAVOK</span> \n  BECMG 0807/0809 9999 BKN025 \n  TEMPO 0809/0902 13004KT 8000 BKN014 \n  PROB30 \n  TEMPO 0809/0819 3000 -<span class=\"hl\">SN</span> <span class=\"hl\">BR</span> BKN007"
    },
    {
      "icao": "LQSA",
      "iata": "SJJ",
      "name": "Sarajevo International Airport",
      "updatedAt": "072230Z",
      "visibility_m": 10000,
      "taf_visibility_m": 1500,
      "worst_visibility_m": 1500,
      "ceiling_ft": 3000,
      "hazards": [
        "SN"
      ],
      "severityScore": 28,
      "metarRaw": "METAR LQSA 072230Z 33006KT 9999 BKN030 M05/M06 Q1006",
      "tafRaw": "TAF LQSA 071700Z 0718/0818 29005KT 7000 -SN SCT012 OVC030 TXM03/0813Z TNM07/0806Z \n  TEMPO 0718/0806 1500 SN BKN004 OVC015 \n  PROB40 \n  TEMPO 0800/0811 35010KT",
      "metarHtml": "METAR LQSA 072230Z 33006KT 9999 BKN030 M05/M06 Q1006",
      "tafHtml": "TAF LQSA 071700Z 0718/0818 29005KT 7000 -<span class=\"hl\">SN</span> SCT012 OVC030 TXM03/0813Z TNM07/0806Z \n  TEMPO 0718/0806 1500 <span class=\"hl\">SN</span> BKN004 OVC015 \n  PROB40 \n  TEMPO 0800/0811 35010KT"
    },
    {
      "icao": "LIRN",
      "iata": "NAP",
      "name": "Naples International Airport",
      "updatedAt": "072220Z",
      "visibility_m": 10000,
      "taf_visibility_m": 4000,
      "worst_visibility_m": 4000,
      "ceiling_ft": null,
      "hazards": [
        "TSRA"
      ],
      "severityScore": 25,
      "metarRaw": "METAR LIRN 072220Z 29007KT CAVOK 06/02 Q1008 NOSIG",
      "tafRaw": "TAF LIRN 071700Z 0718/0818 29010KT 9999 SCT020 \n  PROB40 \n  TEMPO 0718/0722 4000 TSRA \n  BECMG 0801/0803 03006KT",
      "metarHtml": "METAR LIRN 072220Z 29007KT <span class=\"hl-vis\">CAVOK</span> 06/02 Q1008 NOSIG",
      "tafHtml": "TAF LIRN 071700Z 0718/0818 29010KT 9999 SCT020 \n  PROB40 \n  TEMPO 0718/0722 4000 <span class=\"hl\">TSRA</span> \n  BECMG 0801/0803 03006KT"
    },
    {
      "icao": "LBWN",
      "iata": "VAR",
      "name": "Varna Airport",
      "updatedAt": "072230Z",
      "visibility_m": 5000,
      "taf_visibility_m": 3000,
      "worst_visibility_m": 3000,
      "ceiling_ft": 1500,
      "hazards": [
        "RA"
      ],
      "severityScore": 24,
      "metarRaw": "METAR LBWN 072230Z AUTO 10011KT 9999 SCT006/// OVC022/// 12/12 Q1003 TEMPO 5000 RA SCT008 BKN015",
      "tafRaw": "TAF LBWN 071700Z 0718/0818 18008KT 9999 BKN045 \n  BECMG 0720/0722 18016G28KT \n  TEMPO 0722/0804 5000 RA BKN020 OVC040 \n  BECMG 0804/0805 28022G38KT 3000 RA SCT010 BKN015 OVC030 \n  BECMG 0808/0809 9999 NSW BKN025",
      "metarHtml": "METAR LBWN 072230Z AUTO 10011KT 9999 SCT006/// OVC022/// 12/12 Q1003 TEMPO 5000 <span class=\"hl\">RA</span> SCT008 BKN015",
      "tafHtml": "TAF LBWN 071700Z 0718/0818 18008KT 9999 BKN045 \n  BECMG 0720/0722 18016G28KT \n  TEMPO 0722/0804 5000 <span class=\"hl\">RA</span> BKN020 OVC040 \n  BECMG 0804/0805 28022G38KT 3000 <span class=\"hl\">RA</span> SCT010 BKN015 OVC030 \n  BECMG 0808/0809 9999 NSW BKN025"
    },
    {
      "icao": "EPKT",
      "iata": "KTW",
      "name": "Katowice Wojciech Korfanty International Airport",
      "updatedAt": "072230Z",
      "visibility_m": 7000,
      "taf_visibility_m": null,
      "worst_visibility_m": 7000,
      "ceiling_ft": 2200,
      "hazards": [
        "SN"
      ],
      "severityScore": 23,
      "metarRaw": "METAR EPKT 072230Z 36003KT 320V030 7000 -SN SCT007 BKN022 M07/M08 Q1010",
      "tafRaw": null,
      "metarHtml": "METAR EPKT 072230Z 36003KT 320V030 7000 -<span class=\"hl\">SN</span> SCT007 BKN022 M07/M08 Q1010",
      "tafHtml": null
    },
    {
      "icao": "EDDK",
      "iata": "CGN",
      "name": "Cologne Bonn Airport",
      "updatedAt": "072220Z",
      "visibility_m": 10000,
      "taf_visibility_m": 2000,
      "worst_visibility_m": 2000,
      "ceiling_ft": 2000,
      "hazards": [
        "RA",
        "SHSN"
      ],
      "severityScore": 22,
      "metarRaw": "METAR EDDK 072220Z AUTO 16008KT 9999 OVC020 M00/M03 Q1007 NOSIG",
      "tafRaw": "TAF EDDK 071700Z 0718/0824 16008KT 9999 BKN030 \n  TEMPO 0719/0801 4000 -SHSN BKN012TCU \n  PROB30 \n  TEMPO 0720/0723 2000 SHSN BKN008TCU \n  BECMG 0819/0822 14013KT \n  TEMPO 0819/0824 4000 RA BKN012",
      "metarHtml": "METAR EDDK 072220Z AUTO 16008KT 9999 OVC020 M00/M03 Q1007 NOSIG",
      "tafHtml": "TAF EDDK 071700Z 0718/0824 16008KT 9999 BKN030 \n  TEMPO 0719/0801 4000 -<span class=\"hl\">SHSN</span> BKN012TCU \n  PROB30 \n  TEMPO 0720/0723 2000 <span class=\"hl\">SHSN</span> BKN008TCU \n  BECMG 0819/0822 14013KT \n  TEMPO 0819/0824 4000 <span class=\"hl\">RA</span> BKN012"
    },
    {
      "icao": "EGPD",
      "iata": "ABZ",
      "name": "Aberdeen International Airport",
      "updatedAt": "072220Z",
      "visibility_m": 5000,
      "taf_visibility_m": 2000,
      "worst_visibility_m": 2000,
      "ceiling_ft": null,
      "hazards": [
        "RA",
        "BR"
      ],
      "severityScore": 22,
      "metarRaw": "METAR EGPD 072220Z AUTO 34003KT 290V360 5000 -RA BKN017/// OVC039/// //////TCU 01/00 Q1003 RERA TEMPO RA",
      "tafRaw": "TAF EGPD 071658Z 0718/0818 33005KT 9999 BKN018 \n  TEMPO 0718/0724 6000 -RA BKN014 \n  PROB30 \n  TEMPO 0718/0724 2000 RASN BKN004 \n  PROB30 \n  TEMPO 0800/0808 4000 BR BKN004 \n  TEMPO 0817/0818 4000 BR BKN002",
      "metarHtml": "METAR EGPD 072220Z AUTO 34003KT 290V360 5000 -<span class=\"hl\">RA</span> BKN017/// OVC039/// //////TCU 01/00 Q1003 RERA TEMPO <span class=\"hl\">RA</span>",
      "tafHtml": "TAF EGPD 071658Z 0718/0818 33005KT 9999 BKN018 \n  TEMPO 0718/0724 6000 -<span class=\"hl\">RA</span> BKN014 \n  PROB30 \n  TEMPO 0718/0724 2000 RASN BKN004 \n  PROB30 \n  TEMPO 0800/0808 4000 <span class=\"hl\">BR</span> BKN004 \n  TEMPO 0817/0818 4000 <span class=\"hl\">BR</span> BKN002"
    },
    {
      "icao": "EHBK",
      "iata": "MST",
      "name": "Maastricht Aachen Airport",
      "updatedAt": "072225Z",
      "visibility_m": 10000,
      "taf_visibility_m": 2500,
      "worst_visibility_m": 2500,
      "ceiling_ft": null,
      "hazards": [
        "RA",
        "SHSN"
      ],
      "severityScore": 22,
      "metarRaw": "METAR EHBK 072225Z AUTO 21013KT 9999 BKN012/// BKN014/// OVC016/// 01/M01 Q1006",
      "tafRaw": "TAF EHBK 071713Z 0718/0824 20014KT 9999 OVC016 \n  TEMPO 0718/0724 2500 -SHSN BKN008 FEW012CB \n  BECMG 0815/0818 15006KT 7000 -RA \n  BECMG 0821/0824 18015G25KT",
      "metarHtml": "METAR EHBK 072225Z AUTO 21013KT 9999 BKN012/// BKN014/// OVC016/// 01/M01 Q1006",
      "tafHtml": "TAF EHBK 071713Z 0718/0824 20014KT 9999 OVC016 \n  TEMPO 0718/0724 2500 -<span class=\"hl\">SHSN</span> BKN008 FEW012CB \n  BECMG 0815/0818 15006KT 7000 -<span class=\"hl\">RA</span> \n  BECMG 0821/0824 18015G25KT"
    },
    {
      "icao": "LPPT",
      "iata": "LIS",
      "name": "Lisbon Humberto Delgado Airport",
      "updatedAt": "072230Z",
      "visibility_m": 10000,
      "taf_visibility_m": 3000,
      "worst_visibility_m": 3000,
      "ceiling_ft": null,
      "hazards": [
        "BR",
        "RA"
      ],
      "severityScore": 22,
      "metarRaw": "METAR LPPT 072230Z 29002KT 9999 FEW030 09/06 Q1031",
      "tafRaw": "TAF LPPT 071700Z 0718/0824 35010KT 9999 FEW035 \n  BECMG 0720/0722 VRB05KT FEW012 \n  PROB30 \n  TEMPO 0805/0808 3000 BR BKN004 \n  BECMG 0808/0810 BKN025 \n  BECMG 0811/0813 24007KT \n  PROB40 \n  TEMPO 0816/0820 6000 -RA SCT006 BKN012",
      "metarHtml": "METAR LPPT 072230Z 29002KT 9999 FEW030 09/06 Q1031",
      "tafHtml": "TAF LPPT 071700Z 0718/0824 35010KT 9999 FEW035 \n  BECMG 0720/0722 VRB05KT FEW012 \n  PROB30 \n  TEMPO 0805/0808 3000 <span class=\"hl\">BR</span> BKN004 \n  BECMG 0808/0810 BKN025 \n  BECMG 0811/0813 24007KT \n  PROB40 \n  TEMPO 0816/0820 6000 -<span class=\"hl\">RA</span> SCT006 BKN012"
    },
    {
      "icao": "EDLW",
      "iata": "DTM",
      "name": "Dortmund Airport",
      "updatedAt": "072220Z",
      "visibility_m": 10000,
      "taf_visibility_m": 1200,
      "worst_visibility_m": 1200,
      "ceiling_ft": null,
      "hazards": [
        "SHSN"
      ],
      "severityScore": 20,
      "metarRaw": "METAR EDLW 072220Z AUTO 19015KT 9999 // OVC015/// M01/M04 Q1005",
      "tafRaw": "TAF EDLW 071700Z 0718/0818 18015G25KT 9999 BKN020 \n  TEMPO 0718/0804 4000 -SHSN BKN012TCU \n  PROB30 \n  TEMPO 0718/0802 1200 SHSN BKN007TCU \n  BECMG 0719/0722 20011KT \n  BECMG 0812/0815 15006KT",
      "metarHtml": "METAR EDLW 072220Z AUTO 19015KT 9999 // OVC015/// M01/M04 Q1005",
      "tafHtml": "TAF EDLW 071700Z 0718/0818 18015G25KT 9999 BKN020 \n  TEMPO 0718/0804 4000 -<span class=\"hl\">SHSN</span> BKN012TCU \n  PROB30 \n  TEMPO 0718/0802 1200 <span class=\"hl\">SHSN</span> BKN007TCU \n  BECMG 0719/0722 20011KT \n  BECMG 0812/0815 15006KT"
    },
    {
      "icao": "EPSY",
      "iata": "SZY",
      "name": "Olsztyn-Mazury Airport",
      "updatedAt": "072230Z",
      "visibility_m": 5000,
      "taf_visibility_m": 1000,
      "worst_visibility_m": 1000,
      "ceiling_ft": 3400,
      "hazards": [
        "BR"
      ],
      "severityScore": 20,
      "metarRaw": "METAR EPSY 072230Z 00000KT 5000 BR BKN034 M17/M19 Q1015",
      "tafRaw": "TAF EPSY 072030Z 0721/0806 VRB02KT 4000 BR NSC \n  PROB40 \n  TEMPO 0721/0803 1000 BR BKN002",
      "metarHtml": "METAR EPSY 072230Z 00000KT 5000 <span class=\"hl\">BR</span> BKN034 M17/M19 Q1015",
      "tafHtml": "TAF EPSY 072030Z 0721/0806 VRB02KT 4000 <span class=\"hl\">BR</span> NSC \n  PROB40 \n  TEMPO 0721/0803 1000 <span class=\"hl\">BR</span> BKN002"
    },
    {
      "icao": "UDSG",
      "iata": "LWN",
      "name": "Shirak International Airport",
      "updatedAt": "072230Z",
      "visibility_m": 2800,
      "taf_visibility_m": 1000,
      "worst_visibility_m": 1000,
      "ceiling_ft": null,
      "hazards": [
        "BR"
      ],
      "severityScore": 20,
      "metarRaw": "METAR UDSG 072230Z 09002KT 2800 BR NSC M15/M16 Q1025 NOSIG",
      "tafRaw": "TAF UDSG 071658Z 0718/0818 VRB06KT 5000 BR FEW040 \n  TEMPO 0718/0806 1000 BR",
      "metarHtml": "METAR UDSG 072230Z 09002KT 2800 <span class=\"hl\">BR</span> NSC M15/M16 Q1025 NOSIG",
      "tafHtml": "TAF UDSG 071658Z 0718/0818 VRB06KT 5000 <span class=\"hl\">BR</span> FEW040 \n  TEMPO 0718/0806 1000 <span class=\"hl\">BR</span>"
    },
    {
      "icao": "EDDB",
      "iata": "BER",
      "name": "Berlin Brandenburg Airport",
      "updatedAt": "072220Z",
      "visibility_m": 10000,
      "taf_visibility_m": 4500,
      "worst_visibility_m": 4500,
      "ceiling_ft": null,
      "hazards": [
        "SN"
      ],
      "severityScore": 18,
      "metarRaw": "METAR EDDB 072220Z AUTO 14007KT CAVOK M08/M10 Q1011 NOSIG",
      "tafRaw": "TAF EDDB 071700Z 0718/0818 13006KT CAVOK \n  TEMPO 0813/0818 4500 -SN BKN012",
      "metarHtml": "METAR EDDB 072220Z AUTO 14007KT <span class=\"hl-vis\">CAVOK</span> M08/M10 Q1011 NOSIG",
      "tafHtml": "TAF EDDB 071700Z 0718/0818 13006KT <span class=\"hl-vis\">CAVOK</span> \n  TEMPO 0813/0818 4500 -<span class=\"hl\">SN</span> BKN012"
    },
    {
      "icao": "EDDN",
      "iata": "NUE",
      "name": "Nuremberg Airport",
      "updatedAt": "072220Z",
      "visibility_m": 10000,
      "taf_visibility_m": 2000,
      "worst_visibility_m": 2000,
      "ceiling_ft": null,
      "hazards": [
        "SN"
      ],
      "severityScore": 18,
      "metarRaw": "METAR EDDN 072220Z AUTO 12007KT CAVOK M08/M11 Q1010",
      "tafRaw": "TAF EDDN 071700Z 0718/0818 13006KT CAVOK \n  TEMPO 0800/0810 4000 -SN BKN009 \n  PROB30 \n  TEMPO 0803/0808 2000 -SN BKN004 \n  BECMG 0816/0818 4000 -SN OVC010",
      "metarHtml": "METAR EDDN 072220Z AUTO 12007KT <span class=\"hl-vis\">CAVOK</span> M08/M11 Q1010",
      "tafHtml": "TAF EDDN 071700Z 0718/0818 13006KT <span class=\"hl-vis\">CAVOK</span> \n  TEMPO 0800/0810 4000 -<span class=\"hl\">SN</span> BKN009 \n  PROB30 \n  TEMPO 0803/0808 2000 -<span class=\"hl\">SN</span> BKN004 \n  BECMG 0816/0818 4000 -<span class=\"hl\">SN</span> OVC010"
    },
    {
      "icao": "EDJA",
      "iata": "FMM",
      "name": "Memmingen Allgau Airport",
      "updatedAt": "072150Z",
      "visibility_m": 5000,
      "taf_visibility_m": 2500,
      "worst_visibility_m": 2500,
      "ceiling_ft": 2600,
      "hazards": [
        "SN"
      ],
      "severityScore": 18,
      "metarRaw": "METAR EDJA 072150Z 20009KT 5000 SN FEW023 BKN026 OVC032 M07/M09 Q1009",
      "tafRaw": "TAF EDJA 071700Z 0718/0803 18005KT CAVOK \n  BECMG 0721/0723 23010KT \n  TEMPO 0721/0803 2500 -SN BKN009",
      "metarHtml": "METAR EDJA 072150Z 20009KT 5000 <span class=\"hl\">SN</span> FEW023 BKN026 OVC032 M07/M09 Q1009",
      "tafHtml": "TAF EDJA 071700Z 0718/0803 18005KT <span class=\"hl-vis\">CAVOK</span> \n  BECMG 0721/0723 23010KT \n  TEMPO 0721/0803 2500 -<span class=\"hl\">SN</span> BKN009"
    },
    {
      "icao": "EDNY",
      "iata": "FDH",
      "name": "Friedrichshafen Airport",
      "updatedAt": "072220Z",
      "visibility_m": 3100,
      "taf_visibility_m": 2500,
      "worst_visibility_m": 2500,
      "ceiling_ft": null,
      "hazards": [
        "SN"
      ],
      "severityScore": 18,
      "metarRaw": "METAR EDNY 072220Z AUTO 22014KT 3100 // SCT006/// BKN008/// OVC010/// M03/M04 Q1012",
      "tafRaw": "TAF EDNY 071700Z 0718/0803 VRB02KT CAVOK \n  BECMG 0719/0721 25005KT \n  TEMPO 0720/0803 2500 -SN BKN012",
      "metarHtml": "METAR EDNY 072220Z AUTO 22014KT 3100 // SCT006/// BKN008/// OVC010/// M03/M04 Q1012",
      "tafHtml": "TAF EDNY 071700Z 0718/0803 VRB02KT <span class=\"hl-vis\">CAVOK</span> \n  BECMG 0719/0721 25005KT \n  TEMPO 0720/0803 2500 -<span class=\"hl\">SN</span> BKN012"
    },
    {
      "icao": "EDSB",
      "iata": "FKB",
      "name": "Karlsruhe Baden-Baden Airport",
      "updatedAt": "072220Z",
      "visibility_m": 10000,
      "taf_visibility_m": 2000,
      "worst_visibility_m": 2000,
      "ceiling_ft": null,
      "hazards": [
        "SN"
      ],
      "severityScore": 18,
      "metarRaw": "METAR EDSB 072220Z AUTO 19016KT 9999 // SCT024/// BKN029/// OVC043/// M01/M04 Q1011",
      "tafRaw": "TAF EDSB 071700Z 0718/0818 20006KT 9999 BKN025 \n  TEMPO 0718/0805 4000 -SN \n  BECMG 0723/0802 20012KT \n  TEMPO 0809/0812 4000 RASN \n  PROB30 \n  TEMPO 0809/0812 2000 SN BKN014",
      "metarHtml": "METAR EDSB 072220Z AUTO 19016KT 9999 // SCT024/// BKN029/// OVC043/// M01/M04 Q1011",
      "tafHtml": "TAF EDSB 071700Z 0718/0818 20006KT 9999 BKN025 \n  TEMPO 0718/0805 4000 -<span class=\"hl\">SN</span> \n  BECMG 0723/0802 20012KT \n  TEMPO 0809/0812 4000 RASN \n  PROB30 \n  TEMPO 0809/0812 2000 <span class=\"hl\">SN</span> BKN014"
    },
    {
      "icao": "ENVA",
      "iata": "TRD",
      "name": "Trondheim Airport, Værnes",
      "updatedAt": "072220Z",
      "visibility_m": 10000,
      "taf_visibility_m": 10000,
      "worst_visibility_m": 10000,
      "ceiling_ft": null,
      "hazards": [
        "SN"
      ],
      "severityScore": 18,
      "metarRaw": "METAR ENVA 072220Z 07006KT 030V110 CAVOK M07/M13 Q1011 RMK WIND 670FT 09014KT",
      "tafRaw": "TAF ENVA 071700Z 0718/0818 11008KT 9999 -SN FEW025 SCT050",
      "metarHtml": "METAR ENVA 072220Z 07006KT 030V110 <span class=\"hl-vis\">CAVOK</span> M07/M13 Q1011 RMK WIND 670FT 09014KT",
      "tafHtml": "TAF ENVA 071700Z 0718/0818 11008KT 9999 -<span class=\"hl\">SN</span> FEW025 SCT050"
    },
    {
      "icao": "LZTT",
      "iata": "TAT",
      "name": "Poprad-Tatry Airport",
      "updatedAt": "072230Z",
      "visibility_m": 10000,
      "taf_visibility_m": 4000,
      "worst_visibility_m": 4000,
      "ceiling_ft": 2100,
      "hazards": [
        "SN"
      ],
      "severityScore": 18,
      "metarRaw": "METAR LZTT 072230Z VRB02KT 9999 FEW005 OVC021 M08/M10 Q1006",
      "tafRaw": "TAF LZTT 071715Z 0718/0818 09008KT 9999 FEW020 BKN060 \n  TEMPO 0718/0809 4000 -SN SCT010 BKN020 \n  BECMG 0803/0805 24005KT",
      "metarHtml": "METAR LZTT 072230Z VRB02KT 9999 FEW005 OVC021 M08/M10 Q1006",
      "tafHtml": "TAF LZTT 071715Z 0718/0818 09008KT 9999 FEW020 BKN060 \n  TEMPO 0718/0809 4000 -<span class=\"hl\">SN</span> SCT010 BKN020 \n  BECMG 0803/0805 24005KT"
    },
    {
      "icao": "BKPR",
      "iata": "PRN",
      "name": "Priština Adem Jashari International Airport",
      "updatedAt": "072230Z",
      "visibility_m": 10000,
      "taf_visibility_m": null,
      "worst_visibility_m": 10000,
      "ceiling_ft": 1200,
      "hazards": [],
      "severityScore": 17,
      "metarRaw": "METAR BKPR 072230Z 35026KT 9999 -RASN BKN012 OVC025 M02/M02 Q1001 NOSIG",
      "tafRaw": null,
      "metarHtml": "METAR BKPR 072230Z 35026KT 9999 -RASN BKN012 OVC025 M02/M02 Q1001 NOSIG",
      "tafHtml": null
    },
    {
      "icao": "EDDH",
      "iata": "HAM",
      "name": "Hamburg Helmut Schmidt Airport",
      "updatedAt": "072220Z",
      "visibility_m": 10000,
      "taf_visibility_m": null,
      "worst_visibility_m": 10000,
      "ceiling_ft": 1400,
      "hazards": [],
      "severityScore": 17,
      "metarRaw": "METAR EDDH 072220Z AUTO 15010KT 9999 OVC020 OVC031 M02/M05 Q1005 TEMPO BKN014",
      "tafRaw": null,
      "metarHtml": "METAR EDDH 072220Z AUTO 15010KT 9999 OVC020 OVC031 M02/M05 Q1005 TEMPO BKN014",
      "tafHtml": null
    },
    {
      "icao": "EDDS",
      "iata": "STR",
      "name": "Stuttgart Airport",
      "updatedAt": "072220Z",
      "visibility_m": 10000,
      "taf_visibility_m": null,
      "worst_visibility_m": 10000,
      "ceiling_ft": 1800,
      "hazards": [],
      "severityScore": 17,
      "metarRaw": "METAR EDDS 072220Z AUTO 19004KT 9999 OVC018 M04/M07 Q1009",
      "tafRaw": null,
      "metarHtml": "METAR EDDS 072220Z AUTO 19004KT 9999 OVC018 M04/M07 Q1009",
      "tafHtml": null
    },
    {
      "icao": "EFTU",
      "iata": "TKU",
      "name": "Turku Airport",
      "updatedAt": "072220Z",
      "visibility_m": 10000,
      "taf_visibility_m": null,
      "worst_visibility_m": 10000,
      "ceiling_ft": 1400,
      "hazards": [],
      "severityScore": 17,
      "metarRaw": "METAR EFTU 072220Z AUTO 10009KT 9999 BKN014 OVC024 M09/M11 Q1017",
      "tafRaw": null,
      "metarHtml": "METAR EFTU 072220Z AUTO 10009KT 9999 BKN014 OVC024 M09/M11 Q1017",
      "tafHtml": null
    },
    {
      "icao": "LATI",
      "iata": "TIA",
      "name": "Tirana International Airport Mother Teresa",
      "updatedAt": "072250Z",
      "visibility_m": 7000,
      "taf_visibility_m": null,
      "worst_visibility_m": 7000,
      "ceiling_ft": 4200,
      "hazards": [
        "RA"
      ],
      "severityScore": 17,
      "metarRaw": "METAR LATI 072250Z 13005KT 7000 RA FEW022 OVC042 10/08 Q1003 NOSIG",
      "tafRaw": null,
      "metarHtml": "METAR LATI 072250Z 13005KT 7000 <span class=\"hl\">RA</span> FEW022 OVC042 10/08 Q1003 NOSIG",
      "tafHtml": null
    },
    {
      "icao": "LFSB",
      "iata": "BSL",
      "name": "EuroAirport Basel–Mulhouse–Freiburg",
      "updatedAt": "072230Z",
      "visibility_m": 10000,
      "taf_visibility_m": null,
      "worst_visibility_m": 10000,
      "ceiling_ft": 1200,
      "hazards": [],
      "severityScore": 17,
      "metarRaw": "METAR LFSB 072230Z AUTO 10005KT 9999 BKN018 OVC023 M02/M04 Q1013 TEMPO BKN012",
      "tafRaw": null,
      "metarHtml": "METAR LFSB 072230Z AUTO 10005KT 9999 BKN018 OVC023 M02/M04 Q1013 TEMPO BKN012",
      "tafHtml": null
    },
    {
      "icao": "LCPH",
      "iata": "PFO",
      "name": "Paphos International Airport",
      "updatedAt": "072230Z",
      "visibility_m": 10000,
      "taf_visibility_m": 5000,
      "worst_visibility_m": 5000,
      "ceiling_ft": null,
      "hazards": [
        "SHRA"
      ],
      "severityScore": 14,
      "metarRaw": "METAR LCPH 072230Z 09005KT CAVOK 14/06 Q1020 NOSIG",
      "tafRaw": "TAF LCPH 071730Z 0718/0818 08009KT CAVOK \n  PROB30 \n  TEMPO 0800/0805 10019KT \n  BECMG 0805/0809 14016KT \n  BECMG 0816/0818 28018KT \n  PROB30 \n  TEMPO 0816/0818 5000 SHRA BKN015",
      "metarHtml": "METAR LCPH 072230Z 09005KT <span class=\"hl-vis\">CAVOK</span> 14/06 Q1020 NOSIG",
      "tafHtml": "TAF LCPH 071730Z 0718/0818 08009KT <span class=\"hl-vis\">CAVOK</span> \n  PROB30 \n  TEMPO 0800/0805 10019KT \n  BECMG 0805/0809 14016KT \n  BECMG 0816/0818 28018KT \n  PROB30 \n  TEMPO 0816/0818 5000 <span class=\"hl\">SHRA</span> BKN015"
    },
    {
      "icao": "LMML",
      "iata": "MLA",
      "name": "Malta International Airport",
      "updatedAt": "072245Z",
      "visibility_m": 10000,
      "taf_visibility_m": 8000,
      "worst_visibility_m": 8000,
      "ceiling_ft": null,
      "hazards": [
        "SHRA"
      ],
      "severityScore": 14,
      "metarRaw": "METAR LMML 072245Z 28021KT 9999 FEW025 11/05 Q1015 NOSIG",
      "tafRaw": "TAF LMML 071700Z 0718/0818 29025KT 9999 FEW020 SCT040 \n  TEMPO 0718/0818 29025G35KT \n  TEMPO 0806/0818 8000 SHRA SCT020TCU",
      "metarHtml": "METAR LMML 072245Z 28021KT 9999 FEW025 11/05 Q1015 NOSIG",
      "tafHtml": "TAF LMML 071700Z 0718/0818 29025KT 9999 FEW020 SCT040 \n  TEMPO 0718/0818 29025G35KT \n  TEMPO 0806/0818 8000 <span class=\"hl\">SHRA</span> SCT020TCU"
    },
    {
      "icao": "EGGP",
      "iata": "LPL",
      "name": "Liverpool John Lennon Airport",
      "updatedAt": "072220Z",
      "visibility_m": 10000,
      "taf_visibility_m": 3000,
      "worst_visibility_m": 3000,
      "ceiling_ft": null,
      "hazards": [
        "RA"
      ],
      "severityScore": 12,
      "metarRaw": "METAR EGGP 072220Z 26005KT CAVOK 02/M01 Q1004",
      "tafRaw": "TAF EGGP 071657Z 0718/0818 27010KT 9999 SCT045 \n  BECMG 0721/0724 17003KT \n  TEMPO 0721/0808 6000 RA -RADZ BKN012 \n  PROB30 \n  TEMPO 0801/0808 3000 RADZ BKN004 \n  PROB30 \n  TEMPO 0808/0815 6000 -RADZ BKN012 \n  BECMG 0815/0818 07010KT \n  TEMPO 0815/0818 6000 RA -RADZ BKN012 \n  PROB30 \n  TEMPO 0815/0818 BKN008",
      "metarHtml": "METAR EGGP 072220Z 26005KT <span class=\"hl-vis\">CAVOK</span> 02/M01 Q1004",
      "tafHtml": "TAF EGGP 071657Z 0718/0818 27010KT 9999 SCT045 \n  BECMG 0721/0724 17003KT \n  TEMPO 0721/0808 6000 <span class=\"hl\">RA</span> -RADZ BKN012 \n  PROB30 \n  TEMPO 0801/0808 3000 RADZ BKN004 \n  PROB30 \n  TEMPO 0808/0815 6000 -RADZ BKN012 \n  BECMG 0815/0818 07010KT \n  TEMPO 0815/0818 6000 <span class=\"hl\">RA</span> -RADZ BKN012 \n  PROB30 \n  TEMPO 0815/0818 BKN008"
    },
    {
      "icao": "EGNM",
      "iata": "LBA",
      "name": "Leeds Bradford Airport",
      "updatedAt": null,
      "visibility_m": null,
      "taf_visibility_m": 3000,
      "worst_visibility_m": 3000,
      "ceiling_ft": null,
      "hazards": [
        "RA"
      ],
      "severityScore": 12,
      "metarRaw": null,
      "tafRaw": "TAF EGNM 071656Z 0718/0818 25012KT 9999 FEW015 \n  TEMPO 0801/0808 6000 -RASN BKN010 \n  PROB30 \n  TEMPO 0801/0808 3000 RASN BKN006 \n  BECMG 0804/0807 19004KT \n  TEMPO 0808/0816 BKN012 \n  TEMPO 0816/0818 6000 RA -RADZ BKN010 \n  PROB30 \n  TEMPO 0816/0818 BKN006",
      "metarHtml": null,
      "tafHtml": "TAF EGNM 071656Z 0718/0818 25012KT 9999 FEW015 \n  TEMPO 0801/0808 6000 -RASN BKN010 \n  PROB30 \n  TEMPO 0801/0808 3000 RASN BKN006 \n  BECMG 0804/0807 19004KT \n  TEMPO 0808/0816 BKN012 \n  TEMPO 0816/0818 6000 <span class=\"hl\">RA</span> -RADZ BKN010 \n  PROB30 \n  TEMPO 0816/0818 BKN006"
    },
    {
      "icao": "ESMS",
      "iata": "MMX",
      "name": "Malmö Sturup Airport",
      "updatedAt": "072220Z",
      "visibility_m": 10000,
      "taf_visibility_m": 10000,
      "worst_visibility_m": 10000,
      "ceiling_ft": 1800,
      "hazards": [],
      "severityScore": 12,
      "metarRaw": "METAR ESMS 072220Z 18017KT 9999 BKN018 M03/M05 Q1007",
      "tafRaw": "TAF ESMS 072027Z 0721/0821 16012KT 9999 SCT020 \n  BECMG 0818/0821 10006KT",
      "metarHtml": "METAR ESMS 072220Z 18017KT 9999 BKN018 M03/M05 Q1007",
      "tafHtml": "TAF ESMS 072027Z 0721/0821 16012KT 9999 SCT020 \n  BECMG 0818/0821 10006KT"
    },
    {
      "icao": "LEBB",
      "iata": "BIO",
      "name": "Bilbao Airport",
      "updatedAt": "072230Z",
      "visibility_m": 10000,
      "taf_visibility_m": 3000,
      "worst_visibility_m": 3000,
      "ceiling_ft": 2600,
      "hazards": [
        "RA"
      ],
      "severityScore": 12,
      "metarRaw": "METAR LEBB 072230Z 26004KT 210V320 9999 BKN026 11/08 Q1024 NOSIG",
      "tafRaw": "TAF LEBB 071700Z 0718/0818 22005KT 9999 SCT020 BKN040 TX12/0814Z TN08/0806Z \n  TEMPO 0718/0724 3000 RA \n  PROB30 \n  TEMPO 0718/0724 BKN010 \n  PROB40 \n  TEMPO 0806/0812 22015G25KT \n  TEMPO 0812/0818 22018G33KT",
      "metarHtml": "METAR LEBB 072230Z 26004KT 210V320 9999 BKN026 11/08 Q1024 NOSIG",
      "tafHtml": "TAF LEBB 071700Z 0718/0818 22005KT 9999 SCT020 BKN040 TX12/0814Z TN08/0806Z \n  TEMPO 0718/0724 3000 <span class=\"hl\">RA</span> \n  PROB30 \n  TEMPO 0718/0724 BKN010 \n  PROB40 \n  TEMPO 0806/0812 22015G25KT \n  TEMPO 0812/0818 22018G33KT"
    },
    {
      "icao": "LEXJ",
      "iata": "SDR",
      "name": "Seve Ballesteros-Santander Airport",
      "updatedAt": "072230Z",
      "visibility_m": 7000,
      "taf_visibility_m": 3000,
      "worst_visibility_m": 3000,
      "ceiling_ft": 3400,
      "hazards": [
        "RA"
      ],
      "severityScore": 12,
      "metarRaw": "METAR LEXJ 072230Z AUTO 28012KT 250V320 7000 OVC034 12/06 Q1024",
      "tafRaw": "TAF LEXJ 072000Z 0721/0821 24009KT 9999 SCT030 BKN060 TX12/0813Z TN08/0802Z \n  PROB30 \n  TEMPO 0721/0722 3000 RA BKN010 \n  TEMPO 0810/0821 22018G28KT \n  PROB40 \n  TEMPO 0819/0821 27020G33KT 3000 RA",
      "metarHtml": "METAR LEXJ 072230Z AUTO 28012KT 250V320 7000 OVC034 12/06 Q1024",
      "tafHtml": "TAF LEXJ 072000Z 0721/0821 24009KT 9999 SCT030 BKN060 TX12/0813Z TN08/0802Z \n  PROB30 \n  TEMPO 0721/0722 3000 <span class=\"hl\">RA</span> BKN010 \n  TEMPO 0810/0821 22018G28KT \n  PROB40 \n  TEMPO 0819/0821 27020G33KT 3000 <span class=\"hl\">RA</span>"
    },
    {
      "icao": "LGAV",
      "iata": "ATH",
      "name": "Athens Eleftherios Venizelos International Airport",
      "updatedAt": "072220Z",
      "visibility_m": 10000,
      "taf_visibility_m": 5000,
      "worst_visibility_m": 5000,
      "ceiling_ft": null,
      "hazards": [
        "RA"
      ],
      "severityScore": 12,
      "metarRaw": "METAR LGAV 072220Z 21020KT 9999 FEW025 18/11 Q1007 NOSIG",
      "tafRaw": "TAF LGAV 071700Z 0718/0818 20018G30KT 9999 FEW020 SCT030 \n  PROB30 \n  TEMPO 0722/0803 5000 RA FEW018TCU SCT020 BKN030 \n  BECMG 0802/0804 24016KT",
      "metarHtml": "METAR LGAV 072220Z 21020KT 9999 FEW025 18/11 Q1007 NOSIG",
      "tafHtml": "TAF LGAV 071700Z 0718/0818 20018G30KT 9999 FEW020 SCT030 \n  PROB30 \n  TEMPO 0722/0803 5000 <span class=\"hl\">RA</span> FEW018TCU SCT020 BKN030 \n  BECMG 0802/0804 24016KT"
    },
    {
      "icao": "LIBD",
      "iata": "BRI",
      "name": "Bari Karol Wojtyła International Airport",
      "updatedAt": "072220Z",
      "visibility_m": 10000,
      "taf_visibility_m": 4000,
      "worst_visibility_m": 4000,
      "ceiling_ft": null,
      "hazards": [
        "RA"
      ],
      "severityScore": 12,
      "metarRaw": "METAR LIBD 072220Z 28011KT CAVOK 04/03 Q1006",
      "tafRaw": "TAF LIBD 071700Z 0718/0818 28012KT 7000 BKN020 \n  TEMPO 0718/0804 4000 RA BKN005 \n  BECMG 0720/0722 28015G30KT CAVOK",
      "metarHtml": "METAR LIBD 072220Z 28011KT <span class=\"hl-vis\">CAVOK</span> 04/03 Q1006",
      "tafHtml": "TAF LIBD 071700Z 0718/0818 28012KT 7000 BKN020 \n  TEMPO 0718/0804 4000 <span class=\"hl\">RA</span> BKN005 \n  BECMG 0720/0722 28015G30KT <span class=\"hl-vis\">CAVOK</span>"
    },
    {
      "icao": "LIBG",
      "iata": "TAR",
      "name": "Taranto-Grottaglie Marcello Arlotta Airport",
      "updatedAt": null,
      "visibility_m": null,
      "taf_visibility_m": 10000,
      "worst_visibility_m": 10000,
      "ceiling_ft": null,
      "hazards": [
        "RA"
      ],
      "severityScore": 12,
      "metarRaw": null,
      "tafRaw": "TAF LIBG 071700Z 0718/0803 32012KT 9999 SCT020 \n  TEMPO 0718/0720 RA BKN010",
      "metarHtml": null,
      "tafHtml": "TAF LIBG 071700Z 0718/0803 32012KT 9999 SCT020 \n  TEMPO 0718/0720 <span class=\"hl\">RA</span> BKN010"
    },
    {
      "icao": "LIBP",
      "iata": "PSR",
      "name": "Abruzzo Airport",
      "updatedAt": "072220Z",
      "visibility_m": 10000,
      "taf_visibility_m": 10000,
      "worst_visibility_m": 10000,
      "ceiling_ft": null,
      "hazards": [
        "RA"
      ],
      "severityScore": 12,
      "metarRaw": "METAR LIBP 072220Z AUTO 29004KT 9999 OVC053/// 04/M01 Q1010",
      "tafRaw": "TAF LIBP 071700Z 0718/0818 30010KT 9999 BKN030 \n  PROB30 \n  TEMPO 0718/0720 RA \n  BECMG 0804/0806 VRB05KT",
      "metarHtml": "METAR LIBP 072220Z AUTO 29004KT 9999 OVC053/// 04/M01 Q1010",
      "tafHtml": "TAF LIBP 071700Z 0718/0818 30010KT 9999 BKN030 \n  PROB30 \n  TEMPO 0718/0720 <span class=\"hl\">RA</span> \n  BECMG 0804/0806 VRB05KT"
    },
    {
      "icao": "LIBR",
      "iata": "BDS",
      "name": "Brindisi Airport",
      "updatedAt": "072220Z",
      "visibility_m": 10000,
      "taf_visibility_m": 3000,
      "worst_visibility_m": 3000,
      "ceiling_ft": 3000,
      "hazards": [
        "RA"
      ],
      "severityScore": 12,
      "metarRaw": "METAR LIBR 072220Z 27008KT 9999 BKN030 08/06 Q1005",
      "tafRaw": "TAF LIBR 071700Z 0718/0818 33018KT 7000 SCT030 \n  TEMPO 0718/0804 3000 RA BKN005 \n  BECMG 0804/0806 33018G30KT",
      "metarHtml": "METAR LIBR 072220Z 27008KT 9999 BKN030 08/06 Q1005",
      "tafHtml": "TAF LIBR 071700Z 0718/0818 33018KT 7000 SCT030 \n  TEMPO 0718/0804 3000 <span class=\"hl\">RA</span> BKN005 \n  BECMG 0804/0806 33018G30KT"
    },
    {
      "icao": "LIPY",
      "iata": "AOI",
      "name": "Marche Airport",
      "updatedAt": "072220Z",
      "visibility_m": 10000,
      "taf_visibility_m": 10000,
      "worst_visibility_m": 10000,
      "ceiling_ft": null,
      "hazards": [
        "RA"
      ],
      "severityScore": 12,
      "metarRaw": "METAR LIPY 072220Z AUTO 28010KT 9999 OVC050/// 03/M03 Q1010",
      "tafRaw": "TAF LIPY 071700Z 0718/0818 32014KT 9999 SCT030 \n  PROB40 \n  TEMPO 0718/0720 RA \n  BECMG 0803/0805 23006KT",
      "metarHtml": "METAR LIPY 072220Z AUTO 28010KT 9999 OVC050/// 03/M03 Q1010",
      "tafHtml": "TAF LIPY 071700Z 0718/0818 32014KT 9999 SCT030 \n  PROB40 \n  TEMPO 0718/0720 <span class=\"hl\">RA</span> \n  BECMG 0803/0805 23006KT"
    },
    {
      "icao": "LPPR",
      "iata": "OPO",
      "name": "Francisco de Sá Carneiro Airport",
      "updatedAt": "072230Z",
      "visibility_m": 10000,
      "taf_visibility_m": 6000,
      "worst_visibility_m": 6000,
      "ceiling_ft": null,
      "hazards": [
        "RA"
      ],
      "severityScore": 12,
      "metarRaw": "METAR LPPR 072230Z 11003KT 070V140 9999 FEW030 07/06 Q1030",
      "tafRaw": "TAF LPPR 071700Z 0718/0818 VRB02KT 9999 FEW020 \n  BECMG 0802/0804 14007KT FEW015 BKN030 \n  TEMPO 0807/0818 6000 -RA SCT006 BKN012 \n  BECMG 0809/0811 19012KT \n  BECMG 0815/0817 23015KT",
      "metarHtml": "METAR LPPR 072230Z 11003KT 070V140 9999 FEW030 07/06 Q1030",
      "tafHtml": "TAF LPPR 071700Z 0718/0818 VRB02KT 9999 FEW020 \n  BECMG 0802/0804 14007KT FEW015 BKN030 \n  TEMPO 0807/0818 6000 -<span class=\"hl\">RA</span> SCT006 BKN012 \n  BECMG 0809/0811 19012KT \n  BECMG 0815/0817 23015KT"
    },
    {
      "icao": "LPPS",
      "iata": "PXO",
      "name": "Porto Santo Airport",
      "updatedAt": "072230Z",
      "visibility_m": 10000,
      "taf_visibility_m": 6000,
      "worst_visibility_m": 6000,
      "ceiling_ft": null,
      "hazards": [
        "RA"
      ],
      "severityScore": 12,
      "metarRaw": "METAR LPPS 072230Z 04007KT 9999 FEW015 15/09 Q1034",
      "tafRaw": "TAF LPPS 071700Z 0718/0824 02012KT 9999 SCT015 \n  TEMPO 0718/0818 FEW015 BKN030 \n  PROB30 \n  TEMPO 0816/0824 6000 -RA SCT006 BKN012",
      "metarHtml": "METAR LPPS 072230Z 04007KT 9999 FEW015 15/09 Q1034",
      "tafHtml": "TAF LPPS 071700Z 0718/0824 02012KT 9999 SCT015 \n  TEMPO 0718/0818 FEW015 BKN030 \n  PROB30 \n  TEMPO 0816/0824 6000 -<span class=\"hl\">RA</span> SCT006 BKN012"
    },
    {
      "icao": "LWOH",
      "iata": "OHD",
      "name": "Ohrid St. Paul the Apostle Airport",
      "updatedAt": null,
      "visibility_m": null,
      "taf_visibility_m": 3000,
      "worst_visibility_m": 3000,
      "ceiling_ft": null,
      "hazards": [
        "RA"
      ],
      "severityScore": 12,
      "metarRaw": null,
      "tafRaw": "TAF LWOH 072045Z 0721/0821 18012KT 5000 RA SCT010 OVC030 \n  BECMG 0801/0803 24015KT \n  TEMPO 0806/0812 3000 SNRA SCT005 BKN010 OVC025 \n  BECMG 0812/0814 30005KT NSW SCT030 BKN050",
      "metarHtml": null,
      "tafHtml": "TAF LWOH 072045Z 0721/0821 18012KT 5000 <span class=\"hl\">RA</span> SCT010 OVC030 \n  BECMG 0801/0803 24015KT \n  TEMPO 0806/0812 3000 SNRA SCT005 BKN010 OVC025 \n  BECMG 0812/0814 30005KT NSW SCT030 BKN050"
    },
    {
      "icao": "LYPG",
      "iata": "TGD",
      "name": "Podgorica Airport / Podgorica Golubovci Airbase",
      "updatedAt": "072230Z",
      "visibility_m": 10000,
      "taf_visibility_m": 3000,
      "worst_visibility_m": 3000,
      "ceiling_ft": 8000,
      "hazards": [
        "RA"
      ],
      "severityScore": 12,
      "metarRaw": "METAR LYPG 072230Z 05004KT 9999 -RA FEW030 SCT050 OVC080 08/08 Q1002 NOSIG",
      "tafRaw": "TAF LYPG 071700Z 0718/0818 35009KT 9999 FEW020 BKN034 OVC070 TX07/0812Z TN03/0806Z \n  TEMPO 0718/0806 5000 RA \n  PROB30 \n  TEMPO 0803/0808 3000 RASN",
      "metarHtml": "METAR LYPG 072230Z 05004KT 9999 -<span class=\"hl\">RA</span> FEW030 SCT050 OVC080 08/08 Q1002 NOSIG",
      "tafHtml": "TAF LYPG 071700Z 0718/0818 35009KT 9999 FEW020 BKN034 OVC070 TX07/0812Z TN03/0806Z \n  TEMPO 0718/0806 5000 <span class=\"hl\">RA</span> \n  PROB30 \n  TEMPO 0803/0808 3000 RASN"
    },
    {
      "icao": "EPSC",
      "iata": "SZZ",
      "name": "Solidarity Szczecin–Goleniów Airport",
      "updatedAt": "072230Z",
      "visibility_m": 10000,
      "taf_visibility_m": 2000,
      "worst_visibility_m": 2000,
      "ceiling_ft": null,
      "hazards": [
        "BR"
      ],
      "severityScore": 10,
      "metarRaw": "METAR EPSC 072230Z 14007KT CAVOK M07/M10 Q1012",
      "tafRaw": "TAF EPSC 071730Z 0718/0818 14012KT CAVOK \n  PROB30 0800/0810 2000 BR BKN004",
      "metarHtml": "METAR EPSC 072230Z 14007KT <span class=\"hl-vis\">CAVOK</span> M07/M10 Q1012",
      "tafHtml": "TAF EPSC 071730Z 0718/0818 14012KT <span class=\"hl-vis\">CAVOK</span> \n  PROB30 0800/0810 2000 <span class=\"hl\">BR</span> BKN004"
    },
    {
      "icao": "HESX",
      "iata": "SPX",
      "name": "Sphinx International Airport",
      "updatedAt": "072200Z",
      "visibility_m": 4000,
      "taf_visibility_m": 3000,
      "worst_visibility_m": 3000,
      "ceiling_ft": null,
      "hazards": [
        "BR"
      ],
      "severityScore": 10,
      "metarRaw": "METAR HESX 072200Z 06004KT 4000 BR NSC 13/09 Q1019 NOSIG",
      "tafRaw": "TAF HESX 071700Z 0718/0824 12008KT 6000 NSC \n  TEMPO 0800/0806 VRB03KT 3000 BR \n  BECMG 0806/0808 20012KT \n  PROB40 \n  TEMPO 0808/0816 4000 SA",
      "metarHtml": "METAR HESX 072200Z 06004KT 4000 <span class=\"hl\">BR</span> NSC 13/09 Q1019 NOSIG",
      "tafHtml": "TAF HESX 071700Z 0718/0824 12008KT 6000 NSC \n  TEMPO 0800/0806 VRB03KT 3000 <span class=\"hl\">BR</span> \n  BECMG 0806/0808 20012KT \n  PROB40 \n  TEMPO 0808/0816 4000 SA"
    },
    {
      "icao": "LCLK",
      "iata": "LCA",
      "name": "Larnaca International Airport",
      "updatedAt": "072230Z",
      "visibility_m": 10000,
      "taf_visibility_m": 5000,
      "worst_visibility_m": 5000,
      "ceiling_ft": null,
      "hazards": [
        "BR"
      ],
      "severityScore": 10,
      "metarRaw": "METAR LCLK 072230Z 29002KT CAVOK 13/11 Q1021 NOSIG",
      "tafRaw": "TAF LCLK 071730Z 0718/0818 35006KT CAVOK \n  PROB30 \n  TEMPO 0722/0805 5000 BR \n  BECMG 0809/0813 18010KT",
      "metarHtml": "METAR LCLK 072230Z 29002KT <span class=\"hl-vis\">CAVOK</span> 13/11 Q1021 NOSIG",
      "tafHtml": "TAF LCLK 071730Z 0718/0818 35006KT <span class=\"hl-vis\">CAVOK</span> \n  PROB30 \n  TEMPO 0722/0805 5000 <span class=\"hl\">BR</span> \n  BECMG 0809/0813 18010KT"
    },
    {
      "icao": "LEZL",
      "iata": "SVQ",
      "name": "Sevilla Airport",
      "updatedAt": "072230Z",
      "visibility_m": 10000,
      "taf_visibility_m": 4000,
      "worst_visibility_m": 4000,
      "ceiling_ft": 3500,
      "hazards": [
        "BR"
      ],
      "severityScore": 10,
      "metarRaw": "METAR LEZL 072230Z VRB02KT 9999 FEW020 OVC035 09/08 Q1031 NOSIG",
      "tafRaw": "TAF LEZL 072000Z 0721/0821 25004KT 9999 SCT020 TX14/0815Z TN04/0807Z \n  PROB30 \n  TEMPO 0800/0807 4000 BR",
      "metarHtml": "METAR LEZL 072230Z VRB02KT 9999 FEW020 OVC035 09/08 Q1031 NOSIG",
      "tafHtml": "TAF LEZL 072000Z 0721/0821 25004KT 9999 SCT020 TX14/0815Z TN04/0807Z \n  PROB30 \n  TEMPO 0800/0807 4000 <span class=\"hl\">BR</span>"
    },
    {
      "icao": "HEGN",
      "iata": "HRG",
      "name": "Hurghada International Airport",
      "updatedAt": "072200Z",
      "visibility_m": 10000,
      "taf_visibility_m": null,
      "worst_visibility_m": 10000,
      "ceiling_ft": null,
      "hazards": [],
      "severityScore": 5,
      "metarRaw": "METAR HEGN 072200Z 27004KT CAVOK 17/09 Q1020 NOSIG",
      "tafRaw": null,
      "metarHtml": "METAR HEGN 072200Z 27004KT <span class=\"hl-vis\">CAVOK</span> 17/09 Q1020 NOSIG",
      "tafHtml": null
    },
    {
      "icao": "HEMA",
      "iata": "RMF",
      "name": "Marsa Alam International Airport",
      "updatedAt": "072200Z",
      "visibility_m": 10000,
      "taf_visibility_m": null,
      "worst_visibility_m": 10000,
      "ceiling_ft": null,
      "hazards": [],
      "severityScore": 5,
      "metarRaw": "METAR HEMA 072200Z 29010KT CAVOK 21/08 Q1018 NOSIG",
      "tafRaw": null,
      "metarHtml": "METAR HEMA 072200Z 29010KT <span class=\"hl-vis\">CAVOK</span> 21/08 Q1018 NOSIG",
      "tafHtml": null
    },
    {
      "icao": "HESH",
      "iata": "SSH",
      "name": "Sharm El Sheikh International Airport",
      "updatedAt": "072200Z",
      "visibility_m": 10000,
      "taf_visibility_m": null,
      "worst_visibility_m": 10000,
      "ceiling_ft": null,
      "hazards": [],
      "severityScore": 5,
      "metarRaw": "METAR HESH 072200Z 32004KT CAVOK 19/12 Q1021 NOSIG",
      "tafRaw": null,
      "metarHtml": "METAR HESH 072200Z 32004KT <span class=\"hl-vis\">CAVOK</span> 19/12 Q1021 NOSIG",
      "tafHtml": null
    },
    {
      "icao": "LEAL",
      "iata": "ALC",
      "name": "Alicante-Elche Miguel Hernández Airport",
      "updatedAt": "072230Z",
      "visibility_m": 10000,
      "taf_visibility_m": null,
      "worst_visibility_m": 10000,
      "ceiling_ft": null,
      "hazards": [],
      "severityScore": 5,
      "metarRaw": "METAR LEAL 072230Z 27010KT 230V300 CAVOK 11/01 Q1025 NOSIG",
      "tafRaw": null,
      "metarHtml": "METAR LEAL 072230Z 27010KT 230V300 <span class=\"hl-vis\">CAVOK</span> 11/01 Q1025 NOSIG",
      "tafHtml": null
    },
    {
      "icao": "LECH",
      "iata": "CDT",
      "name": "Castellón-Costa Azahar Airport",
      "updatedAt": "072230Z",
      "visibility_m": 10000,
      "taf_visibility_m": null,
      "worst_visibility_m": 10000,
      "ceiling_ft": null,
      "hazards": [],
      "severityScore": 5,
      "metarRaw": "METAR LECH 072230Z AUTO 31013KT 270V350 CAVOK 11/00 Q1021",
      "tafRaw": null,
      "metarHtml": "METAR LECH 072230Z AUTO 31013KT 270V350 <span class=\"hl-vis\">CAVOK</span> 11/00 Q1021",
      "tafHtml": null
    },
    {
      "icao": "LFLS",
      "iata": "GNB",
      "name": "Grenoble Alpes Isère Airport",
      "updatedAt": "072230Z",
      "visibility_m": 10000,
      "taf_visibility_m": null,
      "worst_visibility_m": 10000,
      "ceiling_ft": 3000,
      "hazards": [],
      "severityScore": 5,
      "metarRaw": "METAR LFLS 072230Z AUTO 09009KT 9999 BKN030 BKN036 OVC068 M02/M04 Q1017",
      "tafRaw": null,
      "metarHtml": "METAR LFLS 072230Z AUTO 09009KT 9999 BKN030 BKN036 OVC068 M02/M04 Q1017",
      "tafHtml": null
    },
    {
      "icao": "BIKF",
      "iata": "KEF",
      "name": "Keflavik International Airport",
      "updatedAt": "072230Z",
      "visibility_m": 10000,
      "taf_visibility_m": 10000,
      "worst_visibility_m": 10000,
      "ceiling_ft": null,
      "hazards": [],
      "severityScore": 0,
      "metarRaw": "METAR BIKF 072230Z 07016KT CAVOK M02/M09 Q1002",
      "tafRaw": "TAF BIKF 072219Z 0800/0900 07018KT 9999 FEW045 TX02/0816Z TNM02/0800Z \n  TEMPO 0806/0810 07020G32KT \n  BECMG 0818/0820 06008KT",
      "metarHtml": "METAR BIKF 072230Z 07016KT <span class=\"hl-vis\">CAVOK</span> M02/M09 Q1002",
      "tafHtml": "TAF BIKF 072219Z 0800/0900 07018KT 9999 FEW045 TX02/0816Z TNM02/0800Z \n  TEMPO 0806/0810 07020G32KT \n  BECMG 0818/0820 06008KT"
    },
    {
      "icao": "GCFV",
      "iata": "FUE",
      "name": "Fuerteventura Airport",
      "updatedAt": "072230Z",
      "visibility_m": 10000,
      "taf_visibility_m": 10000,
      "worst_visibility_m": 10000,
      "ceiling_ft": null,
      "hazards": [],
      "severityScore": 0,
      "metarRaw": "METAR GCFV 072230Z 04021KT 9999 SCT038 17/09 Q1029",
      "tafRaw": "TAF GCFV 072000Z 0721/0821 05019KT 9999 FEW035 TX20/0814Z TN14/0806Z \n  TEMPO 0812/0819 14008KT",
      "metarHtml": "METAR GCFV 072230Z 04021KT 9999 SCT038 17/09 Q1029",
      "tafHtml": "TAF GCFV 072000Z 0721/0821 05019KT 9999 FEW035 TX20/0814Z TN14/0806Z \n  TEMPO 0812/0819 14008KT"
    },
    {
      "icao": "GCLP",
      "iata": "LPA",
      "name": "Gran Canaria Airport",
      "updatedAt": "072230Z",
      "visibility_m": 10000,
      "taf_visibility_m": 10000,
      "worst_visibility_m": 10000,
      "ceiling_ft": 4500,
      "hazards": [],
      "severityScore": 0,
      "metarRaw": "METAR GCLP 072230Z 03018KT 9999 FEW040 BKN045 17/09 Q1030 NOSIG",
      "tafRaw": "TAF GCLP 072000Z 0721/0821 03019KT 9999 SCT035 TX20/0814Z TN14/0806Z \n  BECMG 0814/0816 05009KT",
      "metarHtml": "METAR GCLP 072230Z 03018KT 9999 FEW040 BKN045 17/09 Q1030 NOSIG",
      "tafHtml": "TAF GCLP 072000Z 0721/0821 03019KT 9999 SCT035 TX20/0814Z TN14/0806Z \n  BECMG 0814/0816 05009KT"
    },
    {
      "icao": "GCTS",
      "iata": "TFS",
      "name": "Tenerife Sur Airport",
      "updatedAt": "072230Z",
      "visibility_m": 10000,
      "taf_visibility_m": 10000,
      "worst_visibility_m": 10000,
      "ceiling_ft": 4000,
      "hazards": [],
      "severityScore": 0,
      "metarRaw": "METAR GCTS 072230Z 07023KT 9999 BKN040 17/09 Q1029 NOSIG",
      "tafRaw": "TAF GCTS 072000Z 0721/0821 05019KT 9999 FEW035 TX23/0814Z TN16/0806Z \n  PROB40 \n  TEMPO 0721/0803 08020G30KT",
      "metarHtml": "METAR GCTS 072230Z 07023KT 9999 BKN040 17/09 Q1029 NOSIG",
      "tafHtml": "TAF GCTS 072000Z 0721/0821 05019KT 9999 FEW035 TX23/0814Z TN16/0806Z \n  PROB40 \n  TEMPO 0721/0803 08020G30KT"
    },
    {
      "icao": "GMAD",
      "iata": "AGA",
      "name": "Al Massira Airport",
      "updatedAt": "072230Z",
      "visibility_m": 10000,
      "taf_visibility_m": 10000,
      "worst_visibility_m": 10000,
      "ceiling_ft": null,
      "hazards": [],
      "severityScore": 0,
      "metarRaw": "METAR GMAD 072230Z 09006KT CAVOK 08/07 Q1028 NOSIG",
      "tafRaw": "TAF GMAD 071700Z 0718/0824 26008KT CAVOK",
      "metarHtml": "METAR GMAD 072230Z 09006KT <span class=\"hl-vis\">CAVOK</span> 08/07 Q1028 NOSIG",
      "tafHtml": "TAF GMAD 071700Z 0718/0824 26008KT <span class=\"hl-vis\">CAVOK</span>"
    },
    {
      "icao": "GMMN",
      "iata": "CMN",
      "name": "Mohammed V International Airport",
      "updatedAt": "072230Z",
      "visibility_m": 10000,
      "taf_visibility_m": 10000,
      "worst_visibility_m": 10000,
      "ceiling_ft": null,
      "hazards": [],
      "severityScore": 0,
      "metarRaw": "METAR GMMN 072230Z 15003KT CAVOK 06/04 Q1031 NOSIG",
      "tafRaw": "TAF GMMN 071700Z 0718/0824 26006KT 9999 SCT030 \n  BECMG 0719/0722 16004KT \n  BECMG 0810/0813 36012KT CAVOK",
      "metarHtml": "METAR GMMN 072230Z 15003KT <span class=\"hl-vis\">CAVOK</span> 06/04 Q1031 NOSIG",
      "tafHtml": "TAF GMMN 071700Z 0718/0824 26006KT 9999 SCT030 \n  BECMG 0719/0722 16004KT \n  BECMG 0810/0813 36012KT <span class=\"hl-vis\">CAVOK</span>"
    },
    {
      "icao": "GMMX",
      "iata": "RAK",
      "name": "Menara Airport",
      "updatedAt": "072230Z",
      "visibility_m": 10000,
      "taf_visibility_m": 8000,
      "worst_visibility_m": 8000,
      "ceiling_ft": null,
      "hazards": [],
      "severityScore": 0,
      "metarRaw": "METAR GMMX 072230Z 10006KT CAVOK 07/03 Q1030 NOSIG",
      "tafRaw": "TAF GMMX 071700Z 0718/0824 22004KT 8000 NSC \n  TEMPO 0719/0721 34016KT",
      "metarHtml": "METAR GMMX 072230Z 10006KT <span class=\"hl-vis\">CAVOK</span> 07/03 Q1030 NOSIG",
      "tafHtml": "TAF GMMX 071700Z 0718/0824 22004KT 8000 NSC \n  TEMPO 0719/0721 34016KT"
    },
    {
      "icao": "EKCH",
      "iata": "CPH",
      "name": "Copenhagen Kastrup Airport",
      "updatedAt": "072220Z",
      "visibility_m": 10000,
      "taf_visibility_m": 10000,
      "worst_visibility_m": 10000,
      "ceiling_ft": null,
      "hazards": [],
      "severityScore": 0,
      "metarRaw": "METAR EKCH 072220Z AUTO 18016KT 9999 BKN016/// M01/M04 Q1007 TEMPO 17015G25KT",
      "tafRaw": "TAF EKCH 072027Z 0721/0821 17015KT 9999 BKN018 \n  TEMPO 0721/0804 18015G25KT \n  TEMPO 0804/0821 BKN012 \n  BECMG 0818/0821 11012KT",
      "metarHtml": "METAR EKCH 072220Z AUTO 18016KT 9999 BKN016/// M01/M04 Q1007 TEMPO 17015G25KT",
      "tafHtml": "TAF EKCH 072027Z 0721/0821 17015KT 9999 BKN018 \n  TEMPO 0721/0804 18015G25KT \n  TEMPO 0804/0821 BKN012 \n  BECMG 0818/0821 11012KT"
    },
    {
      "icao": "ENAL",
      "iata": "AES",
      "name": "Ålesund Airport, Vigra",
      "updatedAt": "072220Z",
      "visibility_m": 10000,
      "taf_visibility_m": 10000,
      "worst_visibility_m": 10000,
      "ceiling_ft": null,
      "hazards": [],
      "severityScore": 0,
      "metarRaw": "METAR ENAL 072220Z AUTO 12013KT 9999 NCD M04/M12 Q1006",
      "tafRaw": "TAF ENAL 072000Z 0721/0806 13012KT CAVOK",
      "metarHtml": "METAR ENAL 072220Z AUTO 12013KT 9999 NCD M04/M12 Q1006",
      "tafHtml": "TAF ENAL 072000Z 0721/0806 13012KT <span class=\"hl-vis\">CAVOK</span>"
    },
    {
      "icao": "ENBR",
      "iata": "BGO",
      "name": "Bergen Airport, Flesland",
      "updatedAt": "072220Z",
      "visibility_m": 10000,
      "taf_visibility_m": 10000,
      "worst_visibility_m": 10000,
      "ceiling_ft": null,
      "hazards": [],
      "severityScore": 0,
      "metarRaw": "METAR ENBR 072220Z 05003KT CAVOK M08/M15 Q1004 RMK WIND 1200FT 09002KT",
      "tafRaw": "TAF ENBR 071700Z 0718/0818 06005KT CAVOK",
      "metarHtml": "METAR ENBR 072220Z 05003KT <span class=\"hl-vis\">CAVOK</span> M08/M15 Q1004 RMK WIND 1200FT 09002KT",
      "tafHtml": "TAF ENBR 071700Z 0718/0818 06005KT <span class=\"hl-vis\">CAVOK</span>"
    },
    {
      "icao": "ENHD",
      "iata": "HAU",
      "name": "Haugesund Airport, Karmøy",
      "updatedAt": "072220Z",
      "visibility_m": 10000,
      "taf_visibility_m": 10000,
      "worst_visibility_m": 10000,
      "ceiling_ft": null,
      "hazards": [],
      "severityScore": 0,
      "metarRaw": "METAR ENHD 072220Z AUTO 07005KT 9999 NCD M11/M14 Q1004",
      "tafRaw": "TAF ENHD 071400Z 0715/0723 07008KT CAVOK",
      "metarHtml": "METAR ENHD 072220Z AUTO 07005KT 9999 NCD M11/M14 Q1004",
      "tafHtml": "TAF ENHD 071400Z 0715/0723 07008KT <span class=\"hl-vis\">CAVOK</span>"
    },
    {
      "icao": "ENTC",
      "iata": "TOS",
      "name": "Tromsø Airport, Langnes",
      "updatedAt": "072220Z",
      "visibility_m": 10000,
      "taf_visibility_m": 10000,
      "worst_visibility_m": 10000,
      "ceiling_ft": null,
      "hazards": [],
      "severityScore": 0,
      "metarRaw": "METAR ENTC 072220Z VRB01KT CAVOK M12/M14 Q1022 RMK WIND 2600FT 03009KT",
      "tafRaw": "TAF ENTC 071700Z 0718/0818 VRB05KT CAVOK \n  BECMG 0802/0804 19015KT \n  PROB40 \n  TEMPO 0802/0808 FEW025CB",
      "metarHtml": "METAR ENTC 072220Z VRB01KT <span class=\"hl-vis\">CAVOK</span> M12/M14 Q1022 RMK WIND 2600FT 03009KT",
      "tafHtml": "TAF ENTC 071700Z 0718/0818 VRB05KT <span class=\"hl-vis\">CAVOK</span> \n  BECMG 0802/0804 19015KT \n  PROB40 \n  TEMPO 0802/0808 FEW025CB"
    },
    {
      "icao": "ENZV",
      "iata": "SVG",
      "name": "Stavanger Airport, Sola",
      "updatedAt": "072220Z",
      "visibility_m": 10000,
      "taf_visibility_m": 10000,
      "worst_visibility_m": 10000,
      "ceiling_ft": null,
      "hazards": [],
      "severityScore": 0,
      "metarRaw": "METAR ENZV 072220Z VRB02KT CAVOK M07/M11 Q1003",
      "tafRaw": "TAF ENZV 071700Z 0718/0818 05008KT CAVOK",
      "metarHtml": "METAR ENZV 072220Z VRB02KT <span class=\"hl-vis\">CAVOK</span> M07/M11 Q1003",
      "tafHtml": "TAF ENZV 071700Z 0718/0818 05008KT <span class=\"hl-vis\">CAVOK</span>"
    },
    {
      "icao": "ESKN",
      "iata": "NYO",
      "name": "Stockholm Skavsta Airport",
      "updatedAt": "072220Z",
      "visibility_m": 10000,
      "taf_visibility_m": 10000,
      "worst_visibility_m": 10000,
      "ceiling_ft": 5300,
      "hazards": [],
      "severityScore": 0,
      "metarRaw": "METAR ESKN 072220Z 16005KT 9999 FEW033 BKN053 M01/M02 Q1010",
      "tafRaw": "TAF ESKN 072030Z 0721/0821 16005KT 9999 BKN035 \n  BECMG 0806/0808 18015G25KT \n  BECMG 0814/0816 18009KT",
      "metarHtml": "METAR ESKN 072220Z 16005KT 9999 FEW033 BKN053 M01/M02 Q1010",
      "tafHtml": "TAF ESKN 072030Z 0721/0821 16005KT 9999 BKN035 \n  BECMG 0806/0808 18015G25KT \n  BECMG 0814/0816 18009KT"
    },
    {
      "icao": "LEBL",
      "iata": "BCN",
      "name": "Josep Tarradellas Barcelona-El Prat Airport",
      "updatedAt": "072230Z",
      "visibility_m": 10000,
      "taf_visibility_m": 10000,
      "worst_visibility_m": 10000,
      "ceiling_ft": null,
      "hazards": [],
      "severityScore": 0,
      "metarRaw": "METAR LEBL 072230Z 35007KT 9999 FEW022 06/01 Q1020 NOSIG",
      "tafRaw": "TAF LEBL 071700Z 0718/0818 33008KT 9999 FEW040 TX15/0813Z TN04/0806Z \n  TEMPO 0810/0813 32015KT \n  TEMPO 0813/0815 33018G28KT",
      "metarHtml": "METAR LEBL 072230Z 35007KT 9999 FEW022 06/01 Q1020 NOSIG",
      "tafHtml": "TAF LEBL 071700Z 0718/0818 33008KT 9999 FEW040 TX15/0813Z TN04/0806Z \n  TEMPO 0810/0813 32015KT \n  TEMPO 0813/0815 33018G28KT"
    },
    {
      "icao": "LEMG",
      "iata": "AGP",
      "name": "Málaga-Costa del Sol Airport",
      "updatedAt": "072230Z",
      "visibility_m": 10000,
      "taf_visibility_m": 10000,
      "worst_visibility_m": 10000,
      "ceiling_ft": null,
      "hazards": [],
      "severityScore": 0,
      "metarRaw": "METAR LEMG 072230Z 27009KT 9999 SCT029 SCT042 09/05 Q1030 NOSIG",
      "tafRaw": "TAF LEMG 071700Z 0718/0818 29012KT 9999 FEW040 TX16/0814Z TN06/0806Z",
      "metarHtml": "METAR LEMG 072230Z 27009KT 9999 SCT029 SCT042 09/05 Q1030 NOSIG",
      "tafHtml": "TAF LEMG 071700Z 0718/0818 29012KT 9999 FEW040 TX16/0814Z TN06/0806Z"
    },
    {
      "icao": "LEVC",
      "iata": "VLC",
      "name": "Valencia Airport",
      "updatedAt": "072230Z",
      "visibility_m": 10000,
      "taf_visibility_m": 10000,
      "worst_visibility_m": 10000,
      "ceiling_ft": null,
      "hazards": [],
      "severityScore": 0,
      "metarRaw": "METAR LEVC 072230Z 26012KT CAVOK 09/M00 Q1024 NOSIG",
      "tafRaw": "TAF LEVC 071700Z 0718/0818 27010KT CAVOK TX15/0814Z TN06/0806Z \n  TEMPO 0802/0818 25015G25KT \n  TEMPO 0808/0817 25020G30KT",
      "metarHtml": "METAR LEVC 072230Z 26012KT <span class=\"hl-vis\">CAVOK</span> 09/M00 Q1024 NOSIG",
      "tafHtml": "TAF LEVC 071700Z 0718/0818 27010KT <span class=\"hl-vis\">CAVOK</span> TX15/0814Z TN06/0806Z \n  TEMPO 0802/0818 25015G25KT \n  TEMPO 0808/0817 25020G30KT"
    },
    {
      "icao": "LEZG",
      "iata": "ZAZ",
      "name": "Zaragoza Airport",
      "updatedAt": "072230Z",
      "visibility_m": 10000,
      "taf_visibility_m": 10000,
      "worst_visibility_m": 10000,
      "ceiling_ft": null,
      "hazards": [],
      "severityScore": 0,
      "metarRaw": "METAR LEZG 072230Z 29008KT 250V320 9999 FEW040 06/02 Q1023 NOSIG",
      "tafRaw": "TAF LEZG 071700Z 0718/0818 VRB04KT 9999 FEW030 TX12/0815Z TN05/0806Z \n  BECMG 0718/0720 24012KT \n  TEMPO 0720/0804 25015G25KT \n  PROB30 \n  TEMPO 0804/0810 25015G25KT \n  TEMPO 0810/0818 23020G30KT",
      "metarHtml": "METAR LEZG 072230Z 29008KT 250V320 9999 FEW040 06/02 Q1023 NOSIG",
      "tafHtml": "TAF LEZG 071700Z 0718/0818 VRB04KT 9999 FEW030 TX12/0815Z TN05/0806Z \n  BECMG 0718/0720 24012KT \n  TEMPO 0720/0804 25015G25KT \n  PROB30 \n  TEMPO 0804/0810 25015G25KT \n  TEMPO 0810/0818 23020G30KT"
    },
    {
      "icao": "LFMN",
      "iata": "NCE",
      "name": "Nice-Côte d'Azur Airport",
      "updatedAt": "072230Z",
      "visibility_m": 10000,
      "taf_visibility_m": 10000,
      "worst_visibility_m": 10000,
      "ceiling_ft": null,
      "hazards": [],
      "severityScore": 0,
      "metarRaw": "METAR LFMN 072230Z 33008KT CAVOK 03/M05 Q1009 NOSIG",
      "tafRaw": "TAF LFMN 072000Z 0721/0903 33010KT CAVOK \n  BECMG 0808/0810 VRB05KT \n  BECMG 0810/0812 09010KT \n  BECMG 0816/0818 33010KT \n  BECMG 0900/0902 24020G30KT",
      "metarHtml": "METAR LFMN 072230Z 33008KT <span class=\"hl-vis\">CAVOK</span> 03/M05 Q1009 NOSIG",
      "tafHtml": "TAF LFMN 072000Z 0721/0903 33010KT <span class=\"hl-vis\">CAVOK</span> \n  BECMG 0808/0810 VRB05KT \n  BECMG 0810/0812 09010KT \n  BECMG 0816/0818 33010KT \n  BECMG 0900/0902 24020G30KT"
    },
    {
      "icao": "LICC",
      "iata": "CTA",
      "name": "Catania-Fontanarossa Airport",
      "updatedAt": "072220Z",
      "visibility_m": 10000,
      "taf_visibility_m": 10000,
      "worst_visibility_m": 10000,
      "ceiling_ft": null,
      "hazards": [],
      "severityScore": 0,
      "metarRaw": "METAR LICC 072220Z 25013KT CAVOK 08/05 Q1011",
      "tafRaw": "TAF LICC 071700Z 0718/0818 27018G32KT 9999 FEW050",
      "metarHtml": "METAR LICC 072220Z 25013KT <span class=\"hl-vis\">CAVOK</span> 08/05 Q1011",
      "tafHtml": "TAF LICC 071700Z 0718/0818 27018G32KT 9999 FEW050"
    },
    {
      "icao": "LIMC",
      "iata": "MXP",
      "name": "Milan Malpensa International Airport",
      "updatedAt": "072220Z",
      "visibility_m": 10000,
      "taf_visibility_m": 10000,
      "worst_visibility_m": 10000,
      "ceiling_ft": null,
      "hazards": [],
      "severityScore": 0,
      "metarRaw": "METAR LIMC 072220Z 01003KT CAVOK M06/M06 Q1010 NOSIG",
      "tafRaw": "TAF LIMC 071700Z 0718/0824 VRB04KT CAVOK",
      "metarHtml": "METAR LIMC 072220Z 01003KT <span class=\"hl-vis\">CAVOK</span> M06/M06 Q1010 NOSIG",
      "tafHtml": "TAF LIMC 071700Z 0718/0824 VRB04KT <span class=\"hl-vis\">CAVOK</span>"
    },
    {
      "icao": "LIME",
      "iata": "BGY",
      "name": "Milan Bergamo Airport / Antonio Locatelli Air Base",
      "updatedAt": "072220Z",
      "visibility_m": 10000,
      "taf_visibility_m": 10000,
      "worst_visibility_m": 10000,
      "ceiling_ft": null,
      "hazards": [],
      "severityScore": 0,
      "metarRaw": "METAR LIME 072220Z 02003KT CAVOK M03/M07 Q1010 NOSIG",
      "tafRaw": "TAF LIME 071700Z 0718/0818 VRB04KT CAVOK",
      "metarHtml": "METAR LIME 072220Z 02003KT <span class=\"hl-vis\">CAVOK</span> M03/M07 Q1010 NOSIG",
      "tafHtml": "TAF LIME 071700Z 0718/0818 VRB04KT <span class=\"hl-vis\">CAVOK</span>"
    },
    {
      "icao": "LIMF",
      "iata": "TRN",
      "name": "Turin Airport",
      "updatedAt": "072220Z",
      "visibility_m": 10000,
      "taf_visibility_m": 10000,
      "worst_visibility_m": 10000,
      "ceiling_ft": null,
      "hazards": [],
      "severityScore": 0,
      "metarRaw": "METAR LIMF 072220Z AUTO VRB01KT 9999 NCD M02/M09 Q1010",
      "tafRaw": "TAF LIMF 071700Z 0718/0818 VRB03KT CAVOK",
      "metarHtml": "METAR LIMF 072220Z AUTO VRB01KT 9999 NCD M02/M09 Q1010",
      "tafHtml": "TAF LIMF 071700Z 0718/0818 VRB03KT <span class=\"hl-vis\">CAVOK</span>"
    },
    {
      "icao": "LIMJ",
      "iata": "GOA",
      "name": "Genoa Cristoforo Colombo Airport",
      "updatedAt": "072220Z",
      "visibility_m": 10000,
      "taf_visibility_m": 10000,
      "worst_visibility_m": 10000,
      "ceiling_ft": null,
      "hazards": [],
      "severityScore": 0,
      "metarRaw": "METAR LIMJ 072220Z 05006KT 020V080 CAVOK 03/M14 Q1010",
      "tafRaw": "TAF LIMJ 071700Z 0718/0818 04008KT CAVOK \n  BECMG 0810/0812 12010KT",
      "metarHtml": "METAR LIMJ 072220Z 05006KT 020V080 <span class=\"hl-vis\">CAVOK</span> 03/M14 Q1010",
      "tafHtml": "TAF LIMJ 071700Z 0718/0818 04008KT <span class=\"hl-vis\">CAVOK</span> \n  BECMG 0810/0812 12010KT"
    },
    {
      "icao": "LIPE",
      "iata": "BLQ",
      "name": "Bologna Guglielmo Marconi Airport",
      "updatedAt": "072220Z",
      "visibility_m": 10000,
      "taf_visibility_m": 10000,
      "worst_visibility_m": 10000,
      "ceiling_ft": null,
      "hazards": [],
      "severityScore": 0,
      "metarRaw": "METAR LIPE 072220Z 19008KT CAVOK M01/M05 Q1011",
      "tafRaw": "TAF LIPE 071700Z 0718/0818 VRB05KT 9999 FEW030",
      "metarHtml": "METAR LIPE 072220Z 19008KT <span class=\"hl-vis\">CAVOK</span> M01/M05 Q1011",
      "tafHtml": "TAF LIPE 071700Z 0718/0818 VRB05KT 9999 FEW030"
    },
    {
      "icao": "LIPH",
      "iata": "TSF",
      "name": "Treviso Antonio Canova Airport",
      "updatedAt": "072220Z",
      "visibility_m": 10000,
      "taf_visibility_m": 10000,
      "worst_visibility_m": 10000,
      "ceiling_ft": null,
      "hazards": [],
      "severityScore": 0,
      "metarRaw": "METAR LIPH 072220Z AUTO 03004KT 9999 NCD M02/M06 Q1011",
      "tafRaw": "TAF LIPH 071700Z 0718/0818 VRB05KT CAVOK",
      "metarHtml": "METAR LIPH 072220Z AUTO 03004KT 9999 NCD M02/M06 Q1011",
      "tafHtml": "TAF LIPH 071700Z 0718/0818 VRB05KT <span class=\"hl-vis\">CAVOK</span>"
    },
    {
      "icao": "LIPQ",
      "iata": "TRS",
      "name": "Trieste–Friuli Venezia Giulia Airport",
      "updatedAt": "072220Z",
      "visibility_m": 10000,
      "taf_visibility_m": 10000,
      "worst_visibility_m": 10000,
      "ceiling_ft": null,
      "hazards": [],
      "severityScore": 0,
      "metarRaw": "METAR LIPQ 072220Z AUTO VRB01KT 9999 NCD M04/M06 Q1011",
      "tafRaw": "TAF LIPQ 071700Z 0718/0818 08006KT 9999 SCT070",
      "metarHtml": "METAR LIPQ 072220Z AUTO VRB01KT 9999 NCD M04/M06 Q1011",
      "tafHtml": "TAF LIPQ 071700Z 0718/0818 08006KT 9999 SCT070"
    },
    {
      "icao": "LIPR",
      "iata": "RMI",
      "name": "Federico Fellini International Airport",
      "updatedAt": "072220Z",
      "visibility_m": 10000,
      "taf_visibility_m": 10000,
      "worst_visibility_m": 10000,
      "ceiling_ft": null,
      "hazards": [],
      "severityScore": 0,
      "metarRaw": "METAR LIPR 072220Z AUTO 25007KT 9999 NCD M01/M04 Q1011",
      "tafRaw": "TAF LIPR 071700Z 0718/0818 29012KT 9999 SCT030 \n  BECMG 0721/0723 23006KT",
      "metarHtml": "METAR LIPR 072220Z AUTO 25007KT 9999 NCD M01/M04 Q1011",
      "tafHtml": "TAF LIPR 071700Z 0718/0818 29012KT 9999 SCT030 \n  BECMG 0721/0723 23006KT"
    },
    {
      "icao": "LIPZ",
      "iata": "VCE",
      "name": "Venice Marco Polo Airport",
      "updatedAt": "072220Z",
      "visibility_m": 10000,
      "taf_visibility_m": 10000,
      "worst_visibility_m": 10000,
      "ceiling_ft": null,
      "hazards": [],
      "severityScore": 0,
      "metarRaw": "METAR LIPZ 072220Z 06004KT CAVOK M02/M05 Q1011 NOSIG",
      "tafRaw": "TAF LIPZ 071700Z 0718/0824 VRB05KT CAVOK",
      "metarHtml": "METAR LIPZ 072220Z 06004KT <span class=\"hl-vis\">CAVOK</span> M02/M05 Q1011 NOSIG",
      "tafHtml": "TAF LIPZ 071700Z 0718/0824 VRB05KT <span class=\"hl-vis\">CAVOK</span>"
    },
    {
      "icao": "LIRF",
      "iata": "FCO",
      "name": "Rome–Fiumicino Leonardo da Vinci International Airport",
      "updatedAt": "072220Z",
      "visibility_m": 10000,
      "taf_visibility_m": 10000,
      "worst_visibility_m": 10000,
      "ceiling_ft": null,
      "hazards": [],
      "severityScore": 0,
      "metarRaw": "METAR LIRF 072220Z 34007KT CAVOK 01/M02 Q1011 NOSIG",
      "tafRaw": "TAF LIRF 071700Z 0718/0824 35012KT CAVOK \n  BECMG 0801/0803 05010KT \n  BECMG 0811/0813 VRB04KT \n  BECMG 0822/0824 14010KT",
      "metarHtml": "METAR LIRF 072220Z 34007KT <span class=\"hl-vis\">CAVOK</span> 01/M02 Q1011 NOSIG",
      "tafHtml": "TAF LIRF 071700Z 0718/0824 35012KT <span class=\"hl-vis\">CAVOK</span> \n  BECMG 0801/0803 05010KT \n  BECMG 0811/0813 VRB04KT \n  BECMG 0822/0824 14010KT"
    },
    {
      "icao": "LIRP",
      "iata": "PSA",
      "name": "Pisa International Airport",
      "updatedAt": "072215Z",
      "visibility_m": 10000,
      "taf_visibility_m": 10000,
      "worst_visibility_m": 10000,
      "ceiling_ft": null,
      "hazards": [],
      "severityScore": 0,
      "metarRaw": "METAR LIRP 072215Z 13002KT CAVOK M01/M03 Q1012 NOSIG",
      "tafRaw": "TAF LIRP 071700Z 0718/0818 13006KT CAVOK \n  BECMG 0815/0817 9999 SCT020 SCT050",
      "metarHtml": "METAR LIRP 072215Z 13002KT <span class=\"hl-vis\">CAVOK</span> M01/M03 Q1012 NOSIG",
      "tafHtml": "TAF LIRP 071700Z 0718/0818 13006KT <span class=\"hl-vis\">CAVOK</span> \n  BECMG 0815/0817 9999 SCT020 SCT050"
    },
    {
      "icao": "LIRZ",
      "iata": "PEG",
      "name": "Perugia San Francesco d'Assisi – Umbria International Airport",
      "updatedAt": "072220Z",
      "visibility_m": 10000,
      "taf_visibility_m": 10000,
      "worst_visibility_m": 10000,
      "ceiling_ft": null,
      "hazards": [],
      "severityScore": 0,
      "metarRaw": "METAR LIRZ 072220Z AUTO 29005KT 9999 NCD M01/M04 Q1011",
      "tafRaw": "TAF LIRZ 071700Z 0718/0818 35010KT 9999 FEW060 \n  BECMG 0718/0720 VRB05KT",
      "metarHtml": "METAR LIRZ 072220Z AUTO 29005KT 9999 NCD M01/M04 Q1011",
      "tafHtml": "TAF LIRZ 071700Z 0718/0818 35010KT 9999 FEW060 \n  BECMG 0718/0720 VRB05KT"
    },
    {
      "icao": "LLBG",
      "iata": "TLV",
      "name": "Ben Gurion International Airport",
      "updatedAt": "072220Z",
      "visibility_m": 10000,
      "taf_visibility_m": 10000,
      "worst_visibility_m": 10000,
      "ceiling_ft": null,
      "hazards": [],
      "severityScore": 0,
      "metarRaw": "METAR LLBG 072220Z VRB02KT CAVOK 13/08 Q1020 NOSIG",
      "tafRaw": "TAF LLBG 071703Z 0718/0818 VRB04KT CAVOK \n  TEMPO 0800/0807 13005KT \n  BECMG 0807/0809 26006KT TX26/0812Z TN10/0804Z",
      "metarHtml": "METAR LLBG 072220Z VRB02KT <span class=\"hl-vis\">CAVOK</span> 13/08 Q1020 NOSIG",
      "tafHtml": "TAF LLBG 071703Z 0718/0818 VRB04KT <span class=\"hl-vis\">CAVOK</span> \n  TEMPO 0800/0807 13005KT \n  BECMG 0807/0809 26006KT TX26/0812Z TN10/0804Z"
    },
    {
      "icao": "LOWW",
      "iata": "VIE",
      "name": "Vienna International Airport",
      "updatedAt": "072220Z",
      "visibility_m": 10000,
      "taf_visibility_m": 10000,
      "worst_visibility_m": 10000,
      "ceiling_ft": null,
      "hazards": [],
      "severityScore": 0,
      "metarRaw": "METAR LOWW 072220Z 33008KT CAVOK M06/M11 Q1012 NOSIG",
      "tafRaw": "TAF LOWW 072015Z 0721/0903 33010KT 9999 FEW050 TXM02/0814Z TNM07/0805Z \n  BECMG 0816/0818 VRB03KT \n  BECMG 0901/0903 13007KT",
      "metarHtml": "METAR LOWW 072220Z 33008KT <span class=\"hl-vis\">CAVOK</span> M06/M11 Q1012 NOSIG",
      "tafHtml": "TAF LOWW 072015Z 0721/0903 33010KT 9999 FEW050 TXM02/0814Z TNM07/0805Z \n  BECMG 0816/0818 VRB03KT \n  BECMG 0901/0903 13007KT"
    },
    {
      "icao": "LPFR",
      "iata": "FAO",
      "name": "Faro Airport",
      "updatedAt": "072230Z",
      "visibility_m": 10000,
      "taf_visibility_m": 10000,
      "worst_visibility_m": 10000,
      "ceiling_ft": null,
      "hazards": [],
      "severityScore": 0,
      "metarRaw": "METAR LPFR 072230Z 12002KT CAVOK 08/06 Q1030",
      "tafRaw": "TAF LPFR 071700Z 0718/0818 VRB05KT 9999 FEW020 \n  BECMG 0801/0803 03005KT SCT008 \n  BECMG 0809/0811 14005KT FEW020 \n  BECMG 0812/0814 20005KT",
      "metarHtml": "METAR LPFR 072230Z 12002KT <span class=\"hl-vis\">CAVOK</span> 08/06 Q1030",
      "tafHtml": "TAF LPFR 071700Z 0718/0818 VRB05KT 9999 FEW020 \n  BECMG 0801/0803 03005KT SCT008 \n  BECMG 0809/0811 14005KT FEW020 \n  BECMG 0812/0814 20005KT"
    },
    {
      "icao": "LPMA",
      "iata": "FNC",
      "name": "Madeira International Airport Cristiano Ronaldo",
      "updatedAt": "072230Z",
      "visibility_m": 10000,
      "taf_visibility_m": 10000,
      "worst_visibility_m": 10000,
      "ceiling_ft": null,
      "hazards": [],
      "severityScore": 0,
      "metarRaw": "METAR LPMA 072230Z 36007KT 9999 FEW015 15/08 Q1034",
      "tafRaw": "TAF LPMA 071700Z 0718/0818 02012KT 9999 SCT015 \n  TEMPO 0718/0720 02015G25KT",
      "metarHtml": "METAR LPMA 072230Z 36007KT 9999 FEW015 15/08 Q1034",
      "tafHtml": "TAF LPMA 071700Z 0718/0818 02012KT 9999 SCT015 \n  TEMPO 0718/0720 02015G25KT"
    },
    {
      "icao": "LZIB",
      "iata": "BTS",
      "name": "M. R. Štefánik Airport",
      "updatedAt": "072230Z",
      "visibility_m": 10000,
      "taf_visibility_m": 10000,
      "worst_visibility_m": 10000,
      "ceiling_ft": 2900,
      "hazards": [],
      "severityScore": 0,
      "metarRaw": "METAR LZIB 072230Z 35003KT 300V020 9999 BKN029 M04/M09 Q1011 NOSIG",
      "tafRaw": "TAF LZIB 071715Z 0718/0818 33009KT 9999 SCT040 \n  BECMG 0816/0818 VRB02KT",
      "metarHtml": "METAR LZIB 072230Z 35003KT 300V020 9999 BKN029 M04/M09 Q1011 NOSIG",
      "tafHtml": "TAF LZIB 071715Z 0718/0818 33009KT 9999 SCT040 \n  BECMG 0816/0818 VRB02KT"
    },
    {
      "icao": "OEJN",
      "iata": "JED",
      "name": "King Abdulaziz International Airport",
      "updatedAt": "072200Z",
      "visibility_m": 10000,
      "taf_visibility_m": 7000,
      "worst_visibility_m": 7000,
      "ceiling_ft": null,
      "hazards": [],
      "severityScore": 0,
      "metarRaw": "METAR OEJN 072200Z 01003KT CAVOK 24/17 Q1017 NOSIG",
      "tafRaw": "TAF OEJN 071700Z 0718/0824 02006KT 7000 NSC \n  BECMG 0800/0802 VRB03KT \n  BECMG 0808/0810 24010KT 9999 FEW040 \n  BECMG 0818/0820 VRB03KT 7000",
      "metarHtml": "METAR OEJN 072200Z 01003KT <span class=\"hl-vis\">CAVOK</span> 24/17 Q1017 NOSIG",
      "tafHtml": "TAF OEJN 071700Z 0718/0824 02006KT 7000 NSC \n  BECMG 0800/0802 VRB03KT \n  BECMG 0808/0810 24010KT 9999 FEW040 \n  BECMG 0818/0820 VRB03KT 7000"
    },
    {
      "icao": "OEMA",
      "iata": "MED",
      "name": "Prince Mohammad Bin Abdulaziz Airport",
      "updatedAt": "072200Z",
      "visibility_m": 10000,
      "taf_visibility_m": 7000,
      "worst_visibility_m": 7000,
      "ceiling_ft": null,
      "hazards": [],
      "severityScore": 0,
      "metarRaw": "METAR OEMA 072200Z 32003KT CAVOK 18/00 Q1023 NOSIG",
      "tafRaw": "TAF OEMA 071700Z 0718/0824 08006KT CAVOK \n  BECMG 0808/0810 12012KT 7000 NSC",
      "metarHtml": "METAR OEMA 072200Z 32003KT <span class=\"hl-vis\">CAVOK</span> 18/00 Q1023 NOSIG",
      "tafHtml": "TAF OEMA 071700Z 0718/0824 08006KT <span class=\"hl-vis\">CAVOK</span> \n  BECMG 0808/0810 12012KT 7000 NSC"
    },
    {
      "icao": "OJAI",
      "iata": "AMM",
      "name": "Queen Alia International Airport",
      "updatedAt": null,
      "visibility_m": null,
      "taf_visibility_m": 4000,
      "worst_visibility_m": 4000,
      "ceiling_ft": null,
      "hazards": [],
      "severityScore": 0,
      "metarRaw": null,
      "tafRaw": "TAF OJAI 071700Z 0718/0824 12010KT 5000 HZ NSC \n  PROB40 \n  TEMPO 0809/0815 13016KT 4000 BLDU \n  BECMG 0816/0818 23012KT",
      "metarHtml": null,
      "tafHtml": "TAF OJAI 071700Z 0718/0824 12010KT 5000 HZ NSC \n  PROB40 \n  TEMPO 0809/0815 13016KT 4000 BLDU \n  BECMG 0816/0818 23012KT"
    },
    {
      "icao": "OMAA",
      "iata": "AUH",
      "name": "Zayed International Airport",
      "updatedAt": "072200Z",
      "visibility_m": 10000,
      "taf_visibility_m": 8000,
      "worst_visibility_m": 8000,
      "ceiling_ft": null,
      "hazards": [],
      "severityScore": 0,
      "metarRaw": "METAR OMAA 072200Z 14001KT CAVOK 18/13 Q1020 NOSIG",
      "tafRaw": "TAF OMAA 071700Z 0718/0900 29004KT 8000 NSC \n  BECMG 0808/0810 34014KT \n  BECMG 0816/0818 28005KT",
      "metarHtml": "METAR OMAA 072200Z 14001KT <span class=\"hl-vis\">CAVOK</span> 18/13 Q1020 NOSIG",
      "tafHtml": "TAF OMAA 071700Z 0718/0900 29004KT 8000 NSC \n  BECMG 0808/0810 34014KT \n  BECMG 0816/0818 28005KT"
    },
    {
      "icao": "OMDB",
      "iata": "DXB",
      "name": "Dubai International Airport",
      "updatedAt": "072230Z",
      "visibility_m": 10000,
      "taf_visibility_m": 8000,
      "worst_visibility_m": 8000,
      "ceiling_ft": null,
      "hazards": [],
      "severityScore": 0,
      "metarRaw": "METAR OMDB 072230Z 16002KT CAVOK 19/09 Q1020 NOSIG",
      "tafRaw": "TAF OMDB 071700Z 0718/0900 07005KT 8000 NSC \n  BECMG 0808/0810 33012KT \n  BECMG 0816/0818 07005KT",
      "metarHtml": "METAR OMDB 072230Z 16002KT <span class=\"hl-vis\">CAVOK</span> 19/09 Q1020 NOSIG",
      "tafHtml": "TAF OMDB 071700Z 0718/0900 07005KT 8000 NSC \n  BECMG 0808/0810 33012KT \n  BECMG 0816/0818 07005KT"
    },
    {
      "icao": "UGKO",
      "iata": "KUT",
      "name": "David the Builder Kutaisi International Airport",
      "updatedAt": "072230Z",
      "visibility_m": 10000,
      "taf_visibility_m": 10000,
      "worst_visibility_m": 10000,
      "ceiling_ft": null,
      "hazards": [],
      "severityScore": 0,
      "metarRaw": "METAR UGKO 072230Z 06007KT CAVOK 07/M01 Q1017 NOSIG",
      "tafRaw": "TAF UGKO 071700Z 0718/0818 07010KT CAVOK TX18/0812Z TN06/0722Z \n  TEMPO 0718/0806 BKN080 \n  BECMG 0801/0803 07019G29KT",
      "metarHtml": "METAR UGKO 072230Z 06007KT <span class=\"hl-vis\">CAVOK</span> 07/M01 Q1017 NOSIG",
      "tafHtml": "TAF UGKO 071700Z 0718/0818 07010KT <span class=\"hl-vis\">CAVOK</span> TX18/0812Z TN06/0722Z \n  TEMPO 0718/0806 BKN080 \n  BECMG 0801/0803 07019G29KT"
    }
  ],
  "stats": {
    "icaoCount": 159,
    "metarReturned": 155,
    "tafReturned": 140,
    "stationsWritten": 159,
    "missingMetar": 4,
    "missingTaf": 19
  },
  "errors": []
}