{
  "generatedAt": "2026-01-11T11:45:35.409Z",
  "stations": [
    {
      "icao": "EDDH",
      "iata": "HAM",
      "name": "Hamburg Helmut Schmidt Airport",
      "updatedAt": "111120Z",
      "visibility_m": 150,
      "taf_visibility_m": null,
      "worst_visibility_m": 150,
      "ceiling_ft": 300,
      "hazards": [
        "FZFG"
      ],
      "severityScore": 100,
      "metarRaw": "METAR EDDH 111120Z AUTO 00000KT 0350 0150 R23/0500N R15/0500D FZFG VV003 M07/M08 Q1025 TEMPO 0800",
      "tafRaw": null,
      "metarHtml": "METAR EDDH 111120Z AUTO 00000KT <span class=\"hl-vis\">0350</span> <span class=\"hl-vis\">0150</span> R23/0500N R15/0500D <span class=\"hl\">FZFG</span> VV003 M07/M08 Q1025 TEMPO <span class=\"hl-vis\">0800</span>",
      "tafHtml": null
    },
    {
      "icao": "EDFH",
      "iata": "HHN",
      "name": "Frankfurt-Hahn Airport",
      "updatedAt": "111120Z",
      "visibility_m": 10000,
      "taf_visibility_m": 500,
      "worst_visibility_m": 500,
      "ceiling_ft": 600,
      "hazards": [
        "FZFG",
        "FG",
        "BR",
        "FZRA",
        "SN",
        "RA"
      ],
      "severityScore": 100,
      "metarRaw": "METAR EDFH 111120Z 13005KT 9999 BKN006 M05/M06 Q1023",
      "tafRaw": "TAF EDFH 111100Z 1112/1212 17008KT 8000 BKN008 \n  PROB30 \n  TEMPO 1112/1122 4000 BR BKN004 \n  BECMG 1122/1124 SCT008 \n  TEMPO 1200/1204 4000 -SN BKN010 \n  TEMPO 1204/1210 2000 -FZRA BR BKN004 \n  PROB30 \n  TEMPO 1206/1208 0500 FZRA FZFG BKN001 \n  PROB30 \n  TEMPO 1208/1212 0500 -RA FG BKN001",
      "metarHtml": "METAR EDFH 111120Z 13005KT 9999 BKN006 M05/M06 Q1023",
      "tafHtml": "TAF EDFH 111100Z 1112/1212 17008KT 8000 BKN008 \n  PROB30 \n  TEMPO 1112/1122 4000 <span class=\"hl\">BR</span> BKN004 \n  BECMG 1122/1124 SCT008 \n  TEMPO 1200/1204 4000 -<span class=\"hl\">SN</span> BKN010 \n  TEMPO 1204/1210 2000 -<span class=\"hl\">FZRA</span> <span class=\"hl\">BR</span> BKN004 \n  PROB30 \n  TEMPO 1206/1208 <span class=\"hl-vis\">0500</span> <span class=\"hl\">FZRA</span> <span class=\"hl\">FZFG</span> BKN001 \n  PROB30 \n  TEMPO 1208/1212 <span class=\"hl-vis\">0500</span> -<span class=\"hl\">RA</span> <span class=\"hl\">FG</span> BKN001"
    },
    {
      "icao": "EETN",
      "iata": "TLL",
      "name": "Lennart Meri Tallinn Airport",
      "updatedAt": "111120Z",
      "visibility_m": 500,
      "taf_visibility_m": 600,
      "worst_visibility_m": 500,
      "ceiling_ft": 500,
      "hazards": [
        "SN",
        "BLSN",
        "SHSN"
      ],
      "severityScore": 100,
      "metarRaw": "METAR EETN 111120Z 07007KT 0500 R08/0900N +SN DRSN VV005 M05/M06 Q1010 NOSIG",
      "tafRaw": "TAF EETN 111130Z 1112/1212 07012KT 2500 SN DRSN BKN010 OVC020 \n  TEMPO 1112/1116 0600 +SN VV005 \n  TEMPO 1116/1120 06016G26KT 0700 +SHSN BLSN BKN006 SCT015CB \n  BECMG 1120/1122 09006KT \n  TEMPO 1122/1202 6000 NSW \n  BECMG 1202/1204 8000 NSW",
      "metarHtml": "METAR EETN 111120Z 07007KT <span class=\"hl-vis\">0500</span> R08/0900N +<span class=\"hl\">SN</span> DRSN VV005 M05/M06 Q1010 NOSIG",
      "tafHtml": "TAF EETN 111130Z 1112/1212 07012KT 2500 <span class=\"hl\">SN</span> DRSN BKN010 OVC020 \n  TEMPO 1112/1116 <span class=\"hl-vis\">0600</span> +<span class=\"hl\">SN</span> VV005 \n  TEMPO 1116/1120 06016G26KT <span class=\"hl-vis\">0700</span> +<span class=\"hl\">SHSN</span> <span class=\"hl\">BLSN</span> BKN006 SCT015CB \n  BECMG 1120/1122 09006KT \n  TEMPO 1122/1202 6000 NSW \n  BECMG 1202/1204 8000 NSW"
    },
    {
      "icao": "EGNM",
      "iata": "LBA",
      "name": "Leeds Bradford Airport",
      "updatedAt": "111120Z",
      "visibility_m": 2500,
      "taf_visibility_m": 300,
      "worst_visibility_m": 300,
      "ceiling_ft": 400,
      "hazards": [
        "BR",
        "RA",
        "FG",
        "SHRA"
      ],
      "severityScore": 100,
      "metarRaw": "METAR EGNM 111120Z 15011KT 2500 -RA BR SCT002 BKN004 01/01 Q1006",
      "tafRaw": "TAF EGNM 111100Z 1112/1212 15015G28KT 9999 BKN006 \n  TEMPO 1112/1123 2000 RADZ BR BKN003 \n  PROB40 \n  TEMPO 1112/1122 0300 FG BKN000 \n  PROB30 \n  TEMPO 1120/1122 +RA \n  BECMG 1121/1124 FEW040 \n  BECMG 1122/1201 20012KT \n  PROB30 \n  TEMPO 1200/1212 21015G25KT 8000 -SHRA",
      "metarHtml": "METAR EGNM 111120Z 15011KT 2500 -<span class=\"hl\">RA</span> <span class=\"hl\">BR</span> SCT002 BKN004 01/01 Q1006",
      "tafHtml": "TAF EGNM 111100Z 1112/1212 15015G28KT 9999 BKN006 \n  TEMPO 1112/1123 2000 RADZ <span class=\"hl\">BR</span> BKN003 \n  PROB40 \n  TEMPO 1112/1122 <span class=\"hl-vis\">0300</span> <span class=\"hl\">FG</span> BKN000 \n  PROB30 \n  TEMPO 1120/1122 +<span class=\"hl\">RA</span> \n  BECMG 1121/1124 FEW040 \n  BECMG 1122/1201 20012KT \n  PROB30 \n  TEMPO 1200/1212 21015G25KT 8000 -<span class=\"hl\">SHRA</span>"
    },
    {
      "icao": "ENGM",
      "iata": "OSL",
      "name": "Oslo-Gardermoen International Airport",
      "updatedAt": "111120Z",
      "visibility_m": 10000,
      "taf_visibility_m": 300,
      "worst_visibility_m": 300,
      "ceiling_ft": 300,
      "hazards": [
        "FZFG"
      ],
      "severityScore": 100,
      "metarRaw": "METAR ENGM 111120Z 34003KT 300V020 9999 FEW002 M17/M19 Q1023 TEMPO BKN003",
      "tafRaw": "TAF ENGM 111100Z 1112/1212 VRB03KT CAVOK \n  TEMPO 1112/1115 BKN004 \n  PROB30 1118/1124 2000 BCFG BKN002 \n  PROB30 \n  TEMPO 1200/1205 0300 FZFG VV002 \n  TEMPO 1205/1212 BKN008",
      "metarHtml": "METAR ENGM 111120Z 34003KT 300V020 9999 FEW002 M17/M19 Q1023 TEMPO BKN003",
      "tafHtml": "TAF ENGM 111100Z 1112/1212 VRB03KT <span class=\"hl-vis\">CAVOK</span> \n  TEMPO 1112/1115 BKN004 \n  PROB30 1118/1124 2000 BCFG BKN002 \n  PROB30 \n  TEMPO 1200/1205 <span class=\"hl-vis\">0300</span> <span class=\"hl\">FZFG</span> VV002 \n  TEMPO 1205/1212 BKN008"
    },
    {
      "icao": "EPGD",
      "iata": "GDN",
      "name": "Gdańsk Lech Wałęsa Airport",
      "updatedAt": "111130Z",
      "visibility_m": 1300,
      "taf_visibility_m": 100,
      "worst_visibility_m": 100,
      "ceiling_ft": 600,
      "hazards": [
        "SHSN",
        "BLSN"
      ],
      "severityScore": 100,
      "metarRaw": "METAR EPGD 111130Z 32012KT 1300 R29/P2000N SHSN VV006 M01/M02 Q1009 RESHSN",
      "tafRaw": "TAF EPGD 111130Z 1112/1212 33012KT 9999 SCT016 \n  TEMPO 1112/1122 34015G25KT 1200 SHSN DRSN BKN005 BKN012CB \n  PROB40 \n  TEMPO 1112/1209 34022G35KT 0100 +SHSN BLSN BKN001 BKN006CB \n  TEMPO 1122/1209 1200 SHSN BKN002 BKN008CB \n  PROB40 \n  TEMPO 1209/1212 4000 -SHSN BKN005 BKN010CB",
      "metarHtml": "METAR EPGD 111130Z 32012KT 1300 R29/P2000N <span class=\"hl\">SHSN</span> VV006 M01/M02 Q1009 RESHSN",
      "tafHtml": "TAF EPGD 111130Z 1112/1212 33012KT 9999 SCT016 \n  TEMPO 1112/1122 34015G25KT 1200 <span class=\"hl\">SHSN</span> DRSN BKN005 BKN012CB \n  PROB40 \n  TEMPO 1112/1209 34022G35KT <span class=\"hl-vis\">0100</span> +<span class=\"hl\">SHSN</span> <span class=\"hl\">BLSN</span> BKN001 BKN006CB \n  TEMPO 1122/1209 1200 <span class=\"hl\">SHSN</span> BKN002 BKN008CB \n  PROB40 \n  TEMPO 1209/1212 4000 -<span class=\"hl\">SHSN</span> BKN005 BKN010CB"
    },
    {
      "icao": "EYKA",
      "iata": "KUN",
      "name": "Kaunas International Airport",
      "updatedAt": "111120Z",
      "visibility_m": 10000,
      "taf_visibility_m": 300,
      "worst_visibility_m": 300,
      "ceiling_ft": 1500,
      "hazards": [
        "SN",
        "FZFG",
        "BR"
      ],
      "severityScore": 100,
      "metarRaw": "METAR EYKA 111120Z 33003KT 250V030 9999 -SN BKN015 OVC022 M11/M12 Q1006",
      "tafRaw": "TAF EYKA 111110Z 1112/1212 VRB03KT 5000 SN BKN030 \n  TEMPO 1112/1121 3000 BKN010 BKN030 \n  PROB30 \n  TEMPO 1114/1121 1500 \n  BECMG 1121/1123 BR BKN005 \n  TEMPO 1123/1208 1500 BKN002 \n  PROB40 \n  TEMPO 1123/1206 0300 FZFG VV002",
      "metarHtml": "METAR EYKA 111120Z 33003KT 250V030 9999 -<span class=\"hl\">SN</span> BKN015 OVC022 M11/M12 Q1006",
      "tafHtml": "TAF EYKA 111110Z 1112/1212 VRB03KT 5000 <span class=\"hl\">SN</span> BKN030 \n  TEMPO 1112/1121 3000 BKN010 BKN030 \n  PROB30 \n  TEMPO 1114/1121 1500 \n  BECMG 1121/1123 <span class=\"hl\">BR</span> BKN005 \n  TEMPO 1123/1208 1500 BKN002 \n  PROB40 \n  TEMPO 1123/1206 <span class=\"hl-vis\">0300</span> <span class=\"hl\">FZFG</span> VV002"
    },
    {
      "icao": "EYPA",
      "iata": "PLQ",
      "name": "Palanga International Airport",
      "updatedAt": "111120Z",
      "visibility_m": 10000,
      "taf_visibility_m": 300,
      "worst_visibility_m": 300,
      "ceiling_ft": null,
      "hazards": [
        "FZFG",
        "BR",
        "SN"
      ],
      "severityScore": 100,
      "metarRaw": "METAR EYPA 111120Z 02010KT CAVOK M04/M07 Q1007",
      "tafRaw": "TAF EYPA 111102Z 1112/1212 02007KT 7000 BKN030 \n  TEMPO 1112/1118 3000 SN BKN015 \n  PROB30 \n  TEMPO 1112/1115 1500 BKN010 \n  TEMPO 1118/1123 1500 BR \n  TEMPO 1123/1209 0300 FZFG VV001",
      "metarHtml": "METAR EYPA 111120Z 02010KT <span class=\"hl-vis\">CAVOK</span> M04/M07 Q1007",
      "tafHtml": "TAF EYPA 111102Z 1112/1212 02007KT 7000 BKN030 \n  TEMPO 1112/1118 3000 <span class=\"hl\">SN</span> BKN015 \n  PROB30 \n  TEMPO 1112/1115 1500 BKN010 \n  TEMPO 1118/1123 1500 <span class=\"hl\">BR</span> \n  TEMPO 1123/1209 <span class=\"hl-vis\">0300</span> <span class=\"hl\">FZFG</span> VV001"
    },
    {
      "icao": "UAAA",
      "iata": "ALA",
      "name": "Almaty International Airport",
      "updatedAt": "111130Z",
      "visibility_m": 1800,
      "taf_visibility_m": 200,
      "worst_visibility_m": 200,
      "ceiling_ft": 20000,
      "hazards": [
        "FZFG",
        "BR",
        "SHRA"
      ],
      "severityScore": 100,
      "metarRaw": "METAR UAAA 111130Z 17002MPS 1800 R05R/1800 FU FEW100 BKN200 05/M02 Q1019 NOSIG",
      "tafRaw": "TAF UAAA 111103Z 1112/1212 21002MPS 1200 BR FU SCT050 BKN100 TX07/1209Z TNM04/1201Z \n  TEMPO 1112/1118 0400 FZFG SCT005 BKN011 \n  TEMPO 1118/1205 0200 FZFG VV001 \n  FM120600 34003MPS 6000 BKN050CB OVC100 \n  TEMPO 1209/1212 28004G10MPS 3100 -SHRA BR SCT011 BKN030CB OVC050",
      "metarHtml": "METAR UAAA 111130Z 17002MPS 1800 R05R/1800 FU FEW100 BKN200 05/M02 Q1019 NOSIG",
      "tafHtml": "TAF UAAA 111103Z 1112/1212 21002MPS 1200 <span class=\"hl\">BR</span> FU SCT050 BKN100 TX07/1209Z TNM04/1201Z \n  TEMPO 1112/1118 <span class=\"hl-vis\">0400</span> <span class=\"hl\">FZFG</span> SCT005 BKN011 \n  TEMPO 1118/1205 <span class=\"hl-vis\">0200</span> <span class=\"hl\">FZFG</span> VV001 \n  FM120600 34003MPS 6000 BKN050CB OVC100 \n  TEMPO 1209/1212 28004G10MPS 3100 -<span class=\"hl\">SHRA</span> <span class=\"hl\">BR</span> SCT011 BKN030CB OVC050"
    },
    {
      "icao": "EPKT",
      "iata": "KTW",
      "name": "Katowice Wojciech Korfanty International Airport",
      "updatedAt": "111130Z",
      "visibility_m": 3000,
      "taf_visibility_m": 500,
      "worst_visibility_m": 500,
      "ceiling_ft": 1200,
      "hazards": [
        "SN",
        "BR",
        "BLSN"
      ],
      "severityScore": 97,
      "metarRaw": "METAR EPKT 111130Z 28013KT 3000 SN DRSN SCT010 OVC012 M04/M06 Q1011",
      "tafRaw": "TAF EPKT 111130Z 1112/1212 28015KT 3000 -SN BR BKN014 BKN016 \n  TEMPO 1112/1204 28016G26KT 1400 SN DRSN BKN006 BKN012 \n  PROB40 \n  TEMPO 1112/1124 0500 +SN BLSN BKN004 OVC006 \n  TEMPO 1204/1208 2000 SN BKN006 BKN010 \n  BECMG 1208/1211 27005KT 8000 SCT030",
      "metarHtml": "METAR EPKT 111130Z 28013KT 3000 <span class=\"hl\">SN</span> DRSN SCT010 OVC012 M04/M06 Q1011",
      "tafHtml": "TAF EPKT 111130Z 1112/1212 28015KT 3000 -<span class=\"hl\">SN</span> <span class=\"hl\">BR</span> BKN014 BKN016 \n  TEMPO 1112/1204 28016G26KT 1400 <span class=\"hl\">SN</span> DRSN BKN006 BKN012 \n  PROB40 \n  TEMPO 1112/1124 <span class=\"hl-vis\">0500</span> +<span class=\"hl\">SN</span> <span class=\"hl\">BLSN</span> BKN004 OVC006 \n  TEMPO 1204/1208 2000 <span class=\"hl\">SN</span> BKN006 BKN010 \n  BECMG 1208/1211 27005KT 8000 SCT030"
    },
    {
      "icao": "EBCI",
      "iata": "CRL",
      "name": "Brussels South Charleroi Airport",
      "updatedAt": "111120Z",
      "visibility_m": 6000,
      "taf_visibility_m": 1500,
      "worst_visibility_m": 1500,
      "ceiling_ft": 700,
      "hazards": [
        "FZRA",
        "RA",
        "DZ"
      ],
      "severityScore": 92,
      "metarRaw": "METAR EBCI 111120Z 19012KT 6000 BKN007 OVC009 M02/M03 Q1023 BECMG SCT008 BKN012",
      "tafRaw": "TAF EBCI 111100Z 1112/1218 19010KT 9999 BKN013 \n  TEMPO 1121/1203 18015G25KT 3500 RA BKN008 \n  PROB30 \n  TEMPO 1121/1123 -FZRA BKN008 \n  BECMG 1202/1204 BKN004 \n  TEMPO 1205/1211 1500 DZ BKN002 \n  BECMG 1212/1214 BKN006",
      "metarHtml": "METAR EBCI 111120Z 19012KT 6000 BKN007 OVC009 M02/M03 Q1023 BECMG SCT008 BKN012",
      "tafHtml": "TAF EBCI 111100Z 1112/1218 19010KT 9999 BKN013 \n  TEMPO 1121/1203 18015G25KT 3500 <span class=\"hl\">RA</span> BKN008 \n  PROB30 \n  TEMPO 1121/1123 -<span class=\"hl\">FZRA</span> BKN008 \n  BECMG 1202/1204 BKN004 \n  TEMPO 1205/1211 1500 <span class=\"hl\">DZ</span> BKN002 \n  BECMG 1212/1214 BKN006"
    },
    {
      "icao": "EDDS",
      "iata": "STR",
      "name": "Stuttgart Airport",
      "updatedAt": "111120Z",
      "visibility_m": 10000,
      "taf_visibility_m": 4000,
      "worst_visibility_m": 4000,
      "ceiling_ft": 1500,
      "hazards": [
        "BR",
        "FZRA",
        "SN",
        "RA"
      ],
      "severityScore": 87,
      "metarRaw": "METAR EDDS 111120Z AUTO VRB01KT 9999 OVC015 M01/M04 Q1024 NOSIG",
      "tafRaw": "TAF EDDS 111100Z 1112/1212 VRB03KT 9999 SCT015 \n  PROB30 \n  TEMPO 1112/1115 BKN012 \n  TEMPO 1204/1206 4000 -SN BKN014 \n  BECMG 1206/1210 20005KT \n  TEMPO 1206/1210 4000 -FZRA BR BKN014 \n  TEMPO 1210/1212 4000 -RA BR BKN014",
      "metarHtml": "METAR EDDS 111120Z AUTO VRB01KT 9999 OVC015 M01/M04 Q1024 NOSIG",
      "tafHtml": "TAF EDDS 111100Z 1112/1212 VRB03KT 9999 SCT015 \n  PROB30 \n  TEMPO 1112/1115 BKN012 \n  TEMPO 1204/1206 4000 -<span class=\"hl\">SN</span> BKN014 \n  BECMG 1206/1210 20005KT \n  TEMPO 1206/1210 4000 -<span class=\"hl\">FZRA</span> <span class=\"hl\">BR</span> BKN014 \n  TEMPO 1210/1212 4000 -<span class=\"hl\">RA</span> <span class=\"hl\">BR</span> BKN014"
    },
    {
      "icao": "EDSB",
      "iata": "FKB",
      "name": "Karlsruhe Baden-Baden Airport",
      "updatedAt": "111120Z",
      "visibility_m": 9000,
      "taf_visibility_m": 1000,
      "worst_visibility_m": 1000,
      "ceiling_ft": 2300,
      "hazards": [
        "BR",
        "FZRA",
        "SN",
        "RA"
      ],
      "severityScore": 85,
      "metarRaw": "METAR EDSB 111120Z 35003KT 9000 OVC023 M00/M02 Q1026",
      "tafRaw": "TAF EDSB 111100Z 1112/1212 VRB03KT 8000 BKN020 \n  TEMPO 1122/1124 1000 BCFG \n  PROB30 \n  TEMPO 1204/1205 4500 -SN \n  BECMG 1204/1208 20009KT \n  TEMPO 1204/1209 -FZRA \n  PROB30 \n  TEMPO 1207/1209 4000 FZRA BR BKN014 \n  TEMPO 1209/1212 4000 RA BR BKN014",
      "metarHtml": "METAR EDSB 111120Z 35003KT 9000 OVC023 M00/M02 Q1026",
      "tafHtml": "TAF EDSB 111100Z 1112/1212 VRB03KT 8000 BKN020 \n  TEMPO 1122/1124 1000 BCFG \n  PROB30 \n  TEMPO 1204/1205 4500 -<span class=\"hl\">SN</span> \n  BECMG 1204/1208 20009KT \n  TEMPO 1204/1209 -<span class=\"hl\">FZRA</span> \n  PROB30 \n  TEMPO 1207/1209 4000 <span class=\"hl\">FZRA</span> <span class=\"hl\">BR</span> BKN014 \n  TEMPO 1209/1212 4000 <span class=\"hl\">RA</span> <span class=\"hl\">BR</span> BKN014"
    },
    {
      "icao": "EPMO",
      "iata": "WMI",
      "name": "Modlin Airport",
      "updatedAt": "111130Z",
      "visibility_m": 3400,
      "taf_visibility_m": 300,
      "worst_visibility_m": 300,
      "ceiling_ft": 1300,
      "hazards": [
        "SN",
        "SHSN"
      ],
      "severityScore": 85,
      "metarRaw": "METAR EPMO 111130Z 31007KT 280V340 3400 SN BKN013 M03/M05 Q1008",
      "tafRaw": "TAF EPMO 111130Z 1112/1212 31010KT 7000 -SN BKN025 \n  TEMPO 1112/1114 4500 -SN BKN014 \n  TEMPO 1114/1210 1500 SN BKN007 BKN014 \n  PROB40 \n  TEMPO 1114/1124 0300 +SHSN BKN002 BKN014CB",
      "metarHtml": "METAR EPMO 111130Z 31007KT 280V340 3400 <span class=\"hl\">SN</span> BKN013 M03/M05 Q1008",
      "tafHtml": "TAF EPMO 111130Z 1112/1212 31010KT 7000 -<span class=\"hl\">SN</span> BKN025 \n  TEMPO 1112/1114 4500 -<span class=\"hl\">SN</span> BKN014 \n  TEMPO 1114/1210 1500 <span class=\"hl\">SN</span> BKN007 BKN014 \n  PROB40 \n  TEMPO 1114/1124 <span class=\"hl-vis\">0300</span> +<span class=\"hl\">SHSN</span> BKN002 BKN014CB"
    },
    {
      "icao": "EPWA",
      "iata": "WAW",
      "name": "Warsaw Chopin Airport",
      "updatedAt": "111130Z",
      "visibility_m": 4000,
      "taf_visibility_m": 300,
      "worst_visibility_m": 300,
      "ceiling_ft": 1300,
      "hazards": [
        "SN",
        "SHSN"
      ],
      "severityScore": 85,
      "metarRaw": "METAR EPWA 111130Z 30009KT 9999 -SN FEW014 M04/M06 Q1008 TEMPO 4000 SN BKN013",
      "tafRaw": "TAF EPWA 111130Z 1112/1212 31008KT 8000 -SN BKN025 \n  TEMPO 1112/1114 4500 -SN BKN014 \n  TEMPO 1114/1210 1500 SN BKN007 BKN014 \n  PROB40 \n  TEMPO 1115/1124 0300 +SHSN BKN002 BKN014CB",
      "metarHtml": "METAR EPWA 111130Z 30009KT 9999 -<span class=\"hl\">SN</span> FEW014 M04/M06 Q1008 TEMPO 4000 <span class=\"hl\">SN</span> BKN013",
      "tafHtml": "TAF EPWA 111130Z 1112/1212 31008KT 8000 -<span class=\"hl\">SN</span> BKN025 \n  TEMPO 1112/1114 4500 -<span class=\"hl\">SN</span> BKN014 \n  TEMPO 1114/1210 1500 <span class=\"hl\">SN</span> BKN007 BKN014 \n  PROB40 \n  TEMPO 1115/1124 <span class=\"hl-vis\">0300</span> +<span class=\"hl\">SHSN</span> BKN002 BKN014CB"
    },
    {
      "icao": "EDDK",
      "iata": "CGN",
      "name": "Cologne Bonn Airport",
      "updatedAt": "111120Z",
      "visibility_m": 10000,
      "taf_visibility_m": 3000,
      "worst_visibility_m": 3000,
      "ceiling_ft": null,
      "hazards": [
        "FZRA",
        "SN",
        "RA",
        "DZ"
      ],
      "severityScore": 75,
      "metarRaw": "METAR EDDK 111120Z AUTO 14009KT CAVOK M03/M06 Q1025 NOSIG",
      "tafRaw": "TAF EDDK 111100Z 1112/1218 14009KT 9999 SCT020 \n  TEMPO 1200/1204 14014KT FZRA \n  PROB30 \n  TEMPO 1200/1203 3000 SN BKN010 \n  PROB30 \n  TEMPO 1204/1207 14014KT 4000 FZRA BKN010 \n  PROB30 \n  TEMPO 1207/1211 4000 -DZ BKN012 \n  TEMPO 1213/1218 RA BKN012",
      "metarHtml": "METAR EDDK 111120Z AUTO 14009KT <span class=\"hl-vis\">CAVOK</span> M03/M06 Q1025 NOSIG",
      "tafHtml": "TAF EDDK 111100Z 1112/1218 14009KT 9999 SCT020 \n  TEMPO 1200/1204 14014KT <span class=\"hl\">FZRA</span> \n  PROB30 \n  TEMPO 1200/1203 3000 <span class=\"hl\">SN</span> BKN010 \n  PROB30 \n  TEMPO 1204/1207 14014KT 4000 <span class=\"hl\">FZRA</span> BKN010 \n  PROB30 \n  TEMPO 1207/1211 4000 -<span class=\"hl\">DZ</span> BKN012 \n  TEMPO 1213/1218 <span class=\"hl\">RA</span> BKN012"
    },
    {
      "icao": "EPRZ",
      "iata": "RZE",
      "name": "Rzeszów-Jasionka Airport",
      "updatedAt": "111130Z",
      "visibility_m": 1200,
      "taf_visibility_m": 500,
      "worst_visibility_m": 500,
      "ceiling_ft": 1700,
      "hazards": [
        "BR",
        "SN"
      ],
      "severityScore": 75,
      "metarRaw": "METAR EPRZ 111130Z 28008KT 1200 R27/1300D SN BR SCT002 OVC017 M04/M05 Q1008",
      "tafRaw": "TAF EPRZ 111130Z 1112/1212 28008KT 3000 -SN BR BKN016 \n  TEMPO 1112/1209 1400 SN FEW002 BKN012 \n  PROB40 \n  TEMPO 1112/1206 26015G25KT 0500 +SN DRSN BKN002 BKN008 \n  TEMPO 1209/1212 2000 SN BKN012",
      "metarHtml": "METAR EPRZ 111130Z 28008KT 1200 R27/1300D <span class=\"hl\">SN</span> <span class=\"hl\">BR</span> SCT002 OVC017 M04/M05 Q1008",
      "tafHtml": "TAF EPRZ 111130Z 1112/1212 28008KT 3000 -<span class=\"hl\">SN</span> <span class=\"hl\">BR</span> BKN016 \n  TEMPO 1112/1209 1400 <span class=\"hl\">SN</span> FEW002 BKN012 \n  PROB40 \n  TEMPO 1112/1206 26015G25KT <span class=\"hl-vis\">0500</span> +<span class=\"hl\">SN</span> DRSN BKN002 BKN008 \n  TEMPO 1209/1212 2000 <span class=\"hl\">SN</span> BKN012"
    },
    {
      "icao": "LJLJ",
      "iata": "LJU",
      "name": "Ljubljana Jože Pučnik Airport",
      "updatedAt": "111130Z",
      "visibility_m": 10000,
      "taf_visibility_m": 400,
      "worst_visibility_m": 400,
      "ceiling_ft": 21000,
      "hazards": [
        "FZFG",
        "BR"
      ],
      "severityScore": 75,
      "metarRaw": "METAR LJLJ 111130Z VRB01KT 9999 SCT017 BKN210 M03/M07 Q1019 NOSIG",
      "tafRaw": "TAF LJLJ 111100Z 1112/1212 11008KT 9999 SCT010 BKN018 \n  TEMPO 1120/1208 2500 PRFG BR \n  PROB40 \n  TEMPO 1200/1208 0400 FZFG VV001",
      "metarHtml": "METAR LJLJ 111130Z VRB01KT 9999 SCT017 BKN210 M03/M07 Q1019 NOSIG",
      "tafHtml": "TAF LJLJ 111100Z 1112/1212 11008KT 9999 SCT010 BKN018 \n  TEMPO 1120/1208 2500 PRFG <span class=\"hl\">BR</span> \n  PROB40 \n  TEMPO 1200/1208 <span class=\"hl-vis\">0400</span> <span class=\"hl\">FZFG</span> VV001"
    },
    {
      "icao": "EHEH",
      "iata": "EIN",
      "name": "Eindhoven Airport",
      "updatedAt": "111125Z",
      "visibility_m": 6000,
      "taf_visibility_m": 4000,
      "worst_visibility_m": 4000,
      "ceiling_ft": 1100,
      "hazards": [
        "BR",
        "FZRA",
        "PL"
      ],
      "severityScore": 72,
      "metarRaw": "METAR EHEH 111125Z AUTO 18009KT 150V210 6000 BR OVC011 M01/M04 Q1023 GRN BECMG BKN012 RMK TREND REMOTE BY EHWX",
      "tafRaw": "TAF EHEH 110923Z 1106/1212 07004KT CAVOK \n  BECMG 1106/1107 13003KT \n  PROB30 1108/1112 SCT008 BKN012 \n  BECMG 1119/1121 17011KT \n  PROB40 \n  TEMPO 1123/1201 4000 -RASN PL \n  BECMG 1200/1203 6000 RADZ SCT015 OVC020 \n  PROB30 \n  TEMPO 1200/1202 -FZRA \n  TEMPO 1200/1206 20012G22KT \n  TEMPO 1205/1206 4000 RADZ SCT008 BKN012",
      "metarHtml": "METAR EHEH 111125Z AUTO 18009KT 150V210 6000 <span class=\"hl\">BR</span> OVC011 M01/M04 Q1023 GRN BECMG BKN012 RMK TREND REMOTE BY EHWX",
      "tafHtml": "TAF EHEH 110923Z 1106/1212 07004KT <span class=\"hl-vis\">CAVOK</span> \n  BECMG 1106/1107 13003KT \n  PROB30 1108/1112 SCT008 BKN012 \n  BECMG 1119/1121 17011KT \n  PROB40 \n  TEMPO 1123/1201 4000 -RASN <span class=\"hl\">PL</span> \n  BECMG 1200/1203 6000 RADZ SCT015 OVC020 \n  PROB30 \n  TEMPO 1200/1202 -<span class=\"hl\">FZRA</span> \n  TEMPO 1200/1206 20012G22KT \n  TEMPO 1205/1206 4000 RADZ SCT008 BKN012"
    },
    {
      "icao": "EPRA",
      "iata": "RDO",
      "name": "Warsaw Radom Airport",
      "updatedAt": "111130Z",
      "visibility_m": 3500,
      "taf_visibility_m": 1500,
      "worst_visibility_m": 1500,
      "ceiling_ft": 2000,
      "hazards": [
        "BR",
        "SN",
        "BLSN",
        "SHSN"
      ],
      "severityScore": 70,
      "metarRaw": "METAR EPRA 111130Z 31007KT 3500 -SN BR SCT010 BKN020 M04/M06 Q1008",
      "tafRaw": "TAF EPRA 111130Z 1112/1121 30010KT 8000 -SN BKN018 \n  TEMPO 1112/1116 3000 SN BKN012 \n  PROB40 \n  TEMPO 1116/1121 29015G25KT 1500 SHSN BLSN BKN007 BKN014TCU",
      "metarHtml": "METAR EPRA 111130Z 31007KT 3500 -<span class=\"hl\">SN</span> <span class=\"hl\">BR</span> SCT010 BKN020 M04/M06 Q1008",
      "tafHtml": "TAF EPRA 111130Z 1112/1121 30010KT 8000 -<span class=\"hl\">SN</span> BKN018 \n  TEMPO 1112/1116 3000 <span class=\"hl\">SN</span> BKN012 \n  PROB40 \n  TEMPO 1116/1121 29015G25KT 1500 <span class=\"hl\">SHSN</span> <span class=\"hl\">BLSN</span> BKN007 BKN014TCU"
    },
    {
      "icao": "EDJA",
      "iata": "FMM",
      "name": "Memmingen Allgau Airport",
      "updatedAt": "111120Z",
      "visibility_m": 10000,
      "taf_visibility_m": 600,
      "worst_visibility_m": 600,
      "ceiling_ft": 1300,
      "hazards": [
        "FZFG"
      ],
      "severityScore": 67,
      "metarRaw": "METAR EDJA 111120Z 22005KT 9999 FEW008 OVC013 M03/M05 Q1023",
      "tafRaw": "TAF EDJA 111100Z 1112/1121 23005KT 9000 SCT010 BKN015 \n  TEMPO 1112/1117 BKN010 \n  BECMG 1115/1117 VRB03KT \n  PROB40 \n  TEMPO 1119/1121 0600 FZFG",
      "metarHtml": "METAR EDJA 111120Z 22005KT 9999 FEW008 OVC013 M03/M05 Q1023",
      "tafHtml": "TAF EDJA 111100Z 1112/1121 23005KT 9000 SCT010 BKN015 \n  TEMPO 1112/1117 BKN010 \n  BECMG 1115/1117 VRB03KT \n  PROB40 \n  TEMPO 1119/1121 <span class=\"hl-vis\">0600</span> <span class=\"hl\">FZFG</span>"
    },
    {
      "icao": "LEMD",
      "iata": "MAD",
      "name": "Adolfo Suárez Madrid–Barajas Airport",
      "updatedAt": "111130Z",
      "visibility_m": 10000,
      "taf_visibility_m": 350,
      "worst_visibility_m": 350,
      "ceiling_ft": null,
      "hazards": [
        "FG",
        "BR"
      ],
      "severityScore": 65,
      "metarRaw": "METAR LEMD 111130Z VRB02KT CAVOK 05/M00 Q1026 NOSIG",
      "tafRaw": "TAF LEMD 111100Z 1112/1218 VRB03KT CAVOK TX10/1114Z TN02/1200Z \n  TEMPO 1201/1214 3000 BR BCFG BKN004 BKN010 \n  PROB40 \n  TEMPO 1202/1211 0350 FG VV002",
      "metarHtml": "METAR LEMD 111130Z VRB02KT <span class=\"hl-vis\">CAVOK</span> 05/M00 Q1026 NOSIG",
      "tafHtml": "TAF LEMD 111100Z 1112/1218 VRB03KT <span class=\"hl-vis\">CAVOK</span> TX10/1114Z TN02/1200Z \n  TEMPO 1201/1214 3000 <span class=\"hl\">BR</span> BCFG BKN004 BKN010 \n  PROB40 \n  TEMPO 1202/1211 <span class=\"hl-vis\">0350</span> <span class=\"hl\">FG</span> VV002"
    },
    {
      "icao": "UDYZ",
      "iata": "EVN",
      "name": "Zvartnots International Airport",
      "updatedAt": "111130Z",
      "visibility_m": 5000,
      "taf_visibility_m": 600,
      "worst_visibility_m": 600,
      "ceiling_ft": null,
      "hazards": [
        "BR",
        "FZFG"
      ],
      "severityScore": 65,
      "metarRaw": "METAR UDYZ 111130Z 09002KT 5000 BR SCT046 01/M04 Q1022 NOSIG",
      "tafRaw": "TAF UDYZ 111100Z 1112/1212 VRB06KT 3500 BR SCT040 \n  TEMPO 1121/1208 0600 FZFG VV003",
      "metarHtml": "METAR UDYZ 111130Z 09002KT 5000 <span class=\"hl\">BR</span> SCT046 01/M04 Q1022 NOSIG",
      "tafHtml": "TAF UDYZ 111100Z 1112/1212 VRB06KT 3500 <span class=\"hl\">BR</span> SCT040 \n  TEMPO 1121/1208 <span class=\"hl-vis\">0600</span> <span class=\"hl\">FZFG</span> VV003"
    },
    {
      "icao": "LCLK",
      "iata": "LCA",
      "name": "Larnaca International Airport",
      "updatedAt": "111130Z",
      "visibility_m": 10000,
      "taf_visibility_m": 2000,
      "worst_visibility_m": 2000,
      "ceiling_ft": null,
      "hazards": [
        "TS",
        "TSRA",
        "SHRA"
      ],
      "severityScore": 64,
      "metarRaw": "METAR LCLK 111130Z 20021KT 9999 FEW020 FEW025TCU FEW030CB SCT040 21/14 Q1013 NOSIG RMK CB TO W NW",
      "tafRaw": "TAF LCLK 111130Z 1112/1212 21021KT 9999 FEW025TCU FEW030CB SCT035 \n  PROB40 \n  TEMPO 1112/1212 5000 SHRA SCT025TCU \n  PROB40 \n  TEMPO 1112/1122 22024G34KT \n  PROB30 \n  TEMPO 1112/1118 TS \n  PROB30 \n  TEMPO 1121/1212 VRB25G35KT 2000 TSRA SCT030CB \n  PROB30 \n  TEMPO 1121/1207 24009KT",
      "metarHtml": "METAR LCLK 111130Z 20021KT 9999 FEW020 FEW025TCU FEW030CB SCT040 21/14 Q1013 NOSIG RMK CB TO W NW",
      "tafHtml": "TAF LCLK 111130Z 1112/1212 21021KT 9999 FEW025TCU FEW030CB SCT035 \n  PROB40 \n  TEMPO 1112/1212 5000 <span class=\"hl\">SHRA</span> SCT025TCU \n  PROB40 \n  TEMPO 1112/1122 22024G34KT \n  PROB30 \n  TEMPO 1112/1118 <span class=\"hl\">TS</span> \n  PROB30 \n  TEMPO 1121/1212 VRB25G35KT 2000 <span class=\"hl\">TSRA</span> SCT030CB \n  PROB30 \n  TEMPO 1121/1207 24009KT"
    },
    {
      "icao": "EDDN",
      "iata": "NUE",
      "name": "Nuremberg Airport",
      "updatedAt": "111120Z",
      "visibility_m": 10000,
      "taf_visibility_m": 1000,
      "worst_visibility_m": 1000,
      "ceiling_ft": null,
      "hazards": [
        "FZRA",
        "SN"
      ],
      "severityScore": 63,
      "metarRaw": "METAR EDDN 111120Z AUTO VRB02KT CAVOK M05/M08 Q1026 NOSIG",
      "tafRaw": "TAF EDDN 111100Z 1112/1212 VRB03KT CAVOK \n  PROB30 \n  TEMPO 1117/1121 BKN012 \n  BECMG 1121/1123 13005KT \n  BECMG 1206/1208 4000 -SN SCT003 BKN006 \n  TEMPO 1207/1211 1000 SN VV002 \n  BECMG 1211/1212 5000 -FZRA \n  TEMPO 1211/1212 2000 FZRA OVC004",
      "metarHtml": "METAR EDDN 111120Z AUTO VRB02KT <span class=\"hl-vis\">CAVOK</span> M05/M08 Q1026 NOSIG",
      "tafHtml": "TAF EDDN 111100Z 1112/1212 VRB03KT <span class=\"hl-vis\">CAVOK</span> \n  PROB30 \n  TEMPO 1117/1121 BKN012 \n  BECMG 1121/1123 13005KT \n  BECMG 1206/1208 4000 -<span class=\"hl\">SN</span> SCT003 BKN006 \n  TEMPO 1207/1211 1000 <span class=\"hl\">SN</span> VV002 \n  BECMG 1211/1212 5000 -<span class=\"hl\">FZRA</span> \n  TEMPO 1211/1212 2000 <span class=\"hl\">FZRA</span> OVC004"
    },
    {
      "icao": "LFBD",
      "iata": "BOD",
      "name": "Bordeaux–Mérignac Airport",
      "updatedAt": "111130Z",
      "visibility_m": 500,
      "taf_visibility_m": null,
      "worst_visibility_m": 500,
      "ceiling_ft": null,
      "hazards": [
        "FG"
      ],
      "severityScore": 60,
      "metarRaw": "METAR LFBD 111130Z AUTO 15007KT 0600 0500 R23/0800N R05/1100U R29/0800N FG VV/// 05/05 Q1023",
      "tafRaw": null,
      "metarHtml": "METAR LFBD 111130Z AUTO 15007KT <span class=\"hl-vis\">0600</span> <span class=\"hl-vis\">0500</span> R23/0800N R05/1100U R29/0800N <span class=\"hl\">FG</span> VV/// 05/05 Q1023",
      "tafHtml": null
    },
    {
      "icao": "LPPR",
      "iata": "OPO",
      "name": "Francisco de Sá Carneiro Airport",
      "updatedAt": "111130Z",
      "visibility_m": 10000,
      "taf_visibility_m": 1500,
      "worst_visibility_m": 1500,
      "ceiling_ft": 500,
      "hazards": [
        "BR",
        "RA"
      ],
      "severityScore": 57,
      "metarRaw": "METAR LPPR 111130Z 18014KT 9999 BKN005 BKN011 13/12 Q1025",
      "tafRaw": "TAF LPPR 111106Z 1112/1212 18013KT 9999 SCT006 BKN015 \n  TEMPO 1112/1210 3000 -RA BR SCT002 BKN004 \n  PROB30 \n  TEMPO 1118/1208 1500 -RADZ BR BKN002",
      "metarHtml": "METAR LPPR 111130Z 18014KT 9999 BKN005 BKN011 13/12 Q1025",
      "tafHtml": "TAF LPPR 111106Z 1112/1212 18013KT 9999 SCT006 BKN015 \n  TEMPO 1112/1210 3000 -<span class=\"hl\">RA</span> <span class=\"hl\">BR</span> SCT002 BKN004 \n  PROB30 \n  TEMPO 1118/1208 1500 -RADZ <span class=\"hl\">BR</span> BKN002"
    },
    {
      "icao": "LPPT",
      "iata": "LIS",
      "name": "Lisbon Humberto Delgado Airport",
      "updatedAt": "111130Z",
      "visibility_m": 1500,
      "taf_visibility_m": 1200,
      "worst_visibility_m": 1200,
      "ceiling_ft": 300,
      "hazards": [
        "BR"
      ],
      "severityScore": 55,
      "metarRaw": "METAR LPPT 111130Z 10003KT 040V150 1500 -DZRA BR FEW001 BKN003 11/11 Q1027",
      "tafRaw": "TAF LPPT 111106Z 1112/1218 VRB02KT 2000 -RADZ BR SCT001 BKN003 \n  TEMPO 1112/1114 1200 PRFG BKN001 \n  BECMG 1114/1116 20008KT 9999 NSW SCT008 BKN015 \n  TEMPO 1116/1205 3000 -RADZ BR SCT002 BKN004 \n  BECMG 1205/1207 FEW015 BKN025 \n  BECMG 1213/1215 20013KT",
      "metarHtml": "METAR LPPT 111130Z 10003KT 040V150 1500 -DZRA <span class=\"hl\">BR</span> FEW001 BKN003 11/11 Q1027",
      "tafHtml": "TAF LPPT 111106Z 1112/1218 VRB02KT 2000 -RADZ <span class=\"hl\">BR</span> SCT001 BKN003 \n  TEMPO 1112/1114 1200 PRFG BKN001 \n  BECMG 1114/1116 20008KT 9999 NSW SCT008 BKN015 \n  TEMPO 1116/1205 3000 -RADZ <span class=\"hl\">BR</span> SCT002 BKN004 \n  BECMG 1205/1207 FEW015 BKN025 \n  BECMG 1213/1215 20013KT"
    },
    {
      "icao": "EDLW",
      "iata": "DTM",
      "name": "Dortmund Airport",
      "updatedAt": "111120Z",
      "visibility_m": 10000,
      "taf_visibility_m": 3000,
      "worst_visibility_m": 3000,
      "ceiling_ft": null,
      "hazards": [
        "FZRA",
        "SN"
      ],
      "severityScore": 53,
      "metarRaw": "METAR EDLW 111120Z 12008KT 090V160 CAVOK M02/M07 Q1024",
      "tafRaw": "TAF EDLW 111120Z 1112/1212 17008KT CAVOK \n  BECMG 1120/1123 17013KT \n  PROB40 \n  TEMPO 1200/1206 17015G25KT \n  TEMPO 1201/1205 FZRA \n  PROB30 \n  TEMPO 1201/1204 3000 SN BKN010 \n  PROB30 \n  TEMPO 1205/1207 FZRA \n  PROB30 \n  TEMPO 1207/1212 BKN010",
      "metarHtml": "METAR EDLW 111120Z 12008KT 090V160 <span class=\"hl-vis\">CAVOK</span> M02/M07 Q1024",
      "tafHtml": "TAF EDLW 111120Z 1112/1212 17008KT <span class=\"hl-vis\">CAVOK</span> \n  BECMG 1120/1123 17013KT \n  PROB40 \n  TEMPO 1200/1206 17015G25KT \n  TEMPO 1201/1205 <span class=\"hl\">FZRA</span> \n  PROB30 \n  TEMPO 1201/1204 3000 <span class=\"hl\">SN</span> BKN010 \n  PROB30 \n  TEMPO 1205/1207 <span class=\"hl\">FZRA</span> \n  PROB30 \n  TEMPO 1207/1212 BKN010"
    },
    {
      "icao": "EPKK",
      "iata": "KRK",
      "name": "Kraków John Paul II International Airport",
      "updatedAt": "111130Z",
      "visibility_m": 4500,
      "taf_visibility_m": 600,
      "worst_visibility_m": 600,
      "ceiling_ft": 2800,
      "hazards": [
        "BR",
        "SN"
      ],
      "severityScore": 53,
      "metarRaw": "METAR EPKK 111130Z 27016KT 4500 -SN DRSN BR FEW015 OVC028 M03/M06 Q1011",
      "tafRaw": "TAF EPKK 111130Z 1112/1212 27015KT 5000 -SN BR OVC020 \n  TEMPO 1112/1203 28015G25KT 1400 SN DRSN BKN008 BKN012 \n  PROB40 \n  TEMPO 1112/1122 0600 +SN BKN004 \n  TEMPO 1203/1208 1500 SN BKN009 BKN015",
      "metarHtml": "METAR EPKK 111130Z 27016KT 4500 -<span class=\"hl\">SN</span> DRSN <span class=\"hl\">BR</span> FEW015 OVC028 M03/M06 Q1011",
      "tafHtml": "TAF EPKK 111130Z 1112/1212 27015KT 5000 -<span class=\"hl\">SN</span> <span class=\"hl\">BR</span> OVC020 \n  TEMPO 1112/1203 28015G25KT 1400 <span class=\"hl\">SN</span> DRSN BKN008 BKN012 \n  PROB40 \n  TEMPO 1112/1122 <span class=\"hl-vis\">0600</span> +<span class=\"hl\">SN</span> BKN004 \n  TEMPO 1203/1208 1500 <span class=\"hl\">SN</span> BKN009 BKN015"
    },
    {
      "icao": "EPLB",
      "iata": "LUZ",
      "name": "Lublin Airport",
      "updatedAt": "111130Z",
      "visibility_m": 8000,
      "taf_visibility_m": 500,
      "worst_visibility_m": 500,
      "ceiling_ft": 3000,
      "hazards": [
        "SN"
      ],
      "severityScore": 53,
      "metarRaw": "METAR EPLB 111130Z 30008KT 8000 -SN FEW015 BKN030 M05/M08 Q1006",
      "tafRaw": "TAF EPLB 111130Z 1112/1212 30010KT 8000 -SN BKN030 \n  TEMPO 1112/1212 3000 SN BKN007 BKN012 \n  PROB40 \n  TEMPO 1116/1206 32015G25KT 0500 SN DRSN BKN003",
      "metarHtml": "METAR EPLB 111130Z 30008KT 8000 -<span class=\"hl\">SN</span> FEW015 BKN030 M05/M08 Q1006",
      "tafHtml": "TAF EPLB 111130Z 1112/1212 30010KT 8000 -<span class=\"hl\">SN</span> BKN030 \n  TEMPO 1112/1212 3000 <span class=\"hl\">SN</span> BKN007 BKN012 \n  PROB40 \n  TEMPO 1116/1206 32015G25KT <span class=\"hl-vis\">0500</span> <span class=\"hl\">SN</span> DRSN BKN003"
    },
    {
      "icao": "LTFM",
      "iata": "IST",
      "name": "İstanbul Airport",
      "updatedAt": "111120Z",
      "visibility_m": 10000,
      "taf_visibility_m": 2500,
      "worst_visibility_m": 2500,
      "ceiling_ft": 1200,
      "hazards": [
        "RA",
        "SHRA",
        "SHSN"
      ],
      "severityScore": 48,
      "metarRaw": "METAR LTFM 111120Z 01017KT 9999 -RA BKN012 BKN025 05/03 Q1006 RESHRA NOSIG RMK RWY17L 01015KT RWY34L 01015KT RWY16R 01014KT RWY36 01018KT RWY18 02016KT",
      "tafRaw": "TAF LTFM 111040Z 1112/1218 03015KT 9999 -RA BKN012 BKN020 \n  BECMG 1112/1115 02020G30KT -SHRA \n  BECMG 1116/1119 -SHSNRA \n  BECMG 1121/1124 -SHSN \n  TEMPO 1123/1203 2500 SHSN BKN006 BKN020 \n  TEMPO 1203/1207 2500 SHSN BKN006 BKN020 \n  BECMG 1211/1214 36016KT",
      "metarHtml": "METAR LTFM 111120Z 01017KT 9999 -<span class=\"hl\">RA</span> BKN012 BKN025 05/03 Q1006 RESHRA NOSIG RMK RWY17L 01015KT RWY34L 01015KT RWY16R 01014KT RWY36 01018KT RWY18 02016KT",
      "tafHtml": "TAF LTFM 111040Z 1112/1218 03015KT 9999 -<span class=\"hl\">RA</span> BKN012 BKN020 \n  BECMG 1112/1115 02020G30KT -<span class=\"hl\">SHRA</span> \n  BECMG 1116/1119 -SHSNRA \n  BECMG 1121/1124 -<span class=\"hl\">SHSN</span> \n  TEMPO 1123/1203 2500 <span class=\"hl\">SHSN</span> BKN006 BKN020 \n  TEMPO 1203/1207 2500 <span class=\"hl\">SHSN</span> BKN006 BKN020 \n  BECMG 1211/1214 36016KT"
    },
    {
      "icao": "EPSY",
      "iata": "SZY",
      "name": "Olsztyn-Mazury Airport",
      "updatedAt": "111130Z",
      "visibility_m": 10000,
      "taf_visibility_m": 2000,
      "worst_visibility_m": 2000,
      "ceiling_ft": 1400,
      "hazards": [
        "SN",
        "SHSN"
      ],
      "severityScore": 40,
      "metarRaw": "METAR EPSY 111130Z 33006KT 300V010 9999 BKN014 M06/M09 Q1008",
      "tafRaw": "TAF EPSY 111130Z 1112/1121 32007KT CAVOK \n  TEMPO 1112/1121 4000 -SN BKN014 \n  PROB40 \n  TEMPO 1113/1121 2000 SHSN BKN005 BKN012CB",
      "metarHtml": "METAR EPSY 111130Z 33006KT 300V010 9999 BKN014 M06/M09 Q1008",
      "tafHtml": "TAF EPSY 111130Z 1112/1121 32007KT <span class=\"hl-vis\">CAVOK</span> \n  TEMPO 1112/1121 4000 -<span class=\"hl\">SN</span> BKN014 \n  PROB40 \n  TEMPO 1113/1121 2000 <span class=\"hl\">SHSN</span> BKN005 BKN012CB"
    },
    {
      "icao": "LFLS",
      "iata": "GNB",
      "name": "Grenoble Alpes Isère Airport",
      "updatedAt": "111130Z",
      "visibility_m": 10000,
      "taf_visibility_m": 2500,
      "worst_visibility_m": 2500,
      "ceiling_ft": 1200,
      "hazards": [
        "BR",
        "SN"
      ],
      "severityScore": 40,
      "metarRaw": "METAR LFLS 111130Z AUTO 35007KT 9999 BKN012 01/M02 Q1023",
      "tafRaw": "TAF LFLS 110200Z 1103/1203 33008KT 9999 FEW013 BKN030 \n  PROB30 \n  TEMPO 1103/1105 -SN \n  PROB40 \n  TEMPO 1105/1109 2500 BR BKN006 \n  BECMG 1112/1114 09005KT NSC \n  BECMG 1200/1202 BKN060",
      "metarHtml": "METAR LFLS 111130Z AUTO 35007KT 9999 BKN012 01/M02 Q1023",
      "tafHtml": "TAF LFLS 110200Z 1103/1203 33008KT 9999 FEW013 BKN030 \n  PROB30 \n  TEMPO 1103/1105 -<span class=\"hl\">SN</span> \n  PROB40 \n  TEMPO 1105/1109 2500 <span class=\"hl\">BR</span> BKN006 \n  BECMG 1112/1114 09005KT NSC \n  BECMG 1200/1202 BKN060"
    },
    {
      "icao": "LCPH",
      "iata": "PFO",
      "name": "Paphos International Airport",
      "updatedAt": "111130Z",
      "visibility_m": 5000,
      "taf_visibility_m": 2000,
      "worst_visibility_m": 2000,
      "ceiling_ft": null,
      "hazards": [
        "SHRA",
        "TSRA"
      ],
      "severityScore": 39,
      "metarRaw": "METAR LCPH 111130Z 24011KT 9999 SCT030 FEW035CB SCT045 19/13 Q1013 TEMPO 5000 SHRA",
      "tafRaw": "TAF LCPH 111130Z 1112/1212 24019KT 9999 FEW025TCU SCT030 FEW035CB \n  PROB40 \n  TEMPO 1112/1212 4000 SHRA SCT025TCU \n  PROB40 \n  TEMPO 1112/1212 VRB25G35KT 2000 TSRA SCT030CB \n  PROB30 \n  TEMPO 1112/1212 25020G30KT \n  PROB30 \n  TEMPO 1119/1206 25009KT",
      "metarHtml": "METAR LCPH 111130Z 24011KT 9999 SCT030 FEW035CB SCT045 19/13 Q1013 TEMPO 5000 <span class=\"hl\">SHRA</span>",
      "tafHtml": "TAF LCPH 111130Z 1112/1212 24019KT 9999 FEW025TCU SCT030 FEW035CB \n  PROB40 \n  TEMPO 1112/1212 4000 <span class=\"hl\">SHRA</span> SCT025TCU \n  PROB40 \n  TEMPO 1112/1212 VRB25G35KT 2000 <span class=\"hl\">TSRA</span> SCT030CB \n  PROB30 \n  TEMPO 1112/1212 25020G30KT \n  PROB30 \n  TEMPO 1119/1206 25009KT"
    },
    {
      "icao": "EGGP",
      "iata": "LPL",
      "name": "Liverpool John Lennon Airport",
      "updatedAt": "111120Z",
      "visibility_m": 10000,
      "taf_visibility_m": 4000,
      "worst_visibility_m": 4000,
      "ceiling_ft": 1300,
      "hazards": [
        "RA",
        "SHRA"
      ],
      "severityScore": 38,
      "metarRaw": "METAR EGGP 111120Z 15014KT 9999 -RA SCT011 BKN013 05/04 Q1005",
      "tafRaw": "TAF EGGP 111059Z 1112/1212 16015G28KT 9999 BKN012 \n  TEMPO 1112/1121 6000 RA -RADZ BKN008 \n  PROB30 \n  TEMPO 1112/1120 4000 RADZ BKN004 \n  PROB30 \n  TEMPO 1119/1121 +RA \n  BECMG 1120/1123 20012KT SCT030 \n  PROB30 \n  TEMPO 1123/1212 21015G27KT 6000 SHRA",
      "metarHtml": "METAR EGGP 111120Z 15014KT 9999 -<span class=\"hl\">RA</span> SCT011 BKN013 05/04 Q1005",
      "tafHtml": "TAF EGGP 111059Z 1112/1212 16015G28KT 9999 BKN012 \n  TEMPO 1112/1121 6000 <span class=\"hl\">RA</span> -RADZ BKN008 \n  PROB30 \n  TEMPO 1112/1120 4000 RADZ BKN004 \n  PROB30 \n  TEMPO 1119/1121 +<span class=\"hl\">RA</span> \n  BECMG 1120/1123 20012KT SCT030 \n  PROB30 \n  TEMPO 1123/1212 21015G27KT 6000 <span class=\"hl\">SHRA</span>"
    },
    {
      "icao": "LFSB",
      "iata": "BSL",
      "name": "EuroAirport Basel–Mulhouse–Freiburg",
      "updatedAt": "111130Z",
      "visibility_m": 10000,
      "taf_visibility_m": 10000,
      "worst_visibility_m": 10000,
      "ceiling_ft": 1000,
      "hazards": [
        "RA",
        "SHRA"
      ],
      "severityScore": 38,
      "metarRaw": "METAR LFSB 111130Z AUTO 29001KT 9999 OVC010 01/M01 Q1025 BECMG NSC",
      "tafRaw": "TAF LFSB 111100Z 1112/1212 VRB03KT 9999 BKN015 \n  PROB40 \n  TEMPO 1112/1113 BKN013 \n  BECMG 1113/1115 NSC \n  BECMG 1120/1122 13006KT \n  BECMG 1202/1204 OVC045 \n  PROB40 \n  TEMPO 1202/1206 -SNRA \n  PROB40 \n  TEMPO 1206/1208 -RA \n  TEMPO 1208/1212 -SHRA FEW025TCU",
      "metarHtml": "METAR LFSB 111130Z AUTO 29001KT 9999 OVC010 01/M01 Q1025 BECMG NSC",
      "tafHtml": "TAF LFSB 111100Z 1112/1212 VRB03KT 9999 BKN015 \n  PROB40 \n  TEMPO 1112/1113 BKN013 \n  BECMG 1113/1115 NSC \n  BECMG 1120/1122 13006KT \n  BECMG 1202/1204 OVC045 \n  PROB40 \n  TEMPO 1202/1206 -SNRA \n  PROB40 \n  TEMPO 1206/1208 -<span class=\"hl\">RA</span> \n  TEMPO 1208/1212 -<span class=\"hl\">SHRA</span> FEW025TCU"
    },
    {
      "icao": "LRBS",
      "iata": "BBU",
      "name": "Bucharest Băneasa Aurel Vlaicu International Airport",
      "updatedAt": "111130Z",
      "visibility_m": 4000,
      "taf_visibility_m": 1500,
      "worst_visibility_m": 1500,
      "ceiling_ft": 3000,
      "hazards": [
        "BR",
        "SN"
      ],
      "severityScore": 38,
      "metarRaw": "METAR LRBS 111130Z 06003KT 4000 -SN BR SCT013 OVC030 M05/M07 Q1012 NOSIG",
      "tafRaw": "TAF LRBS 111100Z 1112/1212 07008KT 5000 BR BKN035 \n  TEMPO 1112/1116 3000 -SN BR BKN015 OVC030 \n  PROB40 \n  TEMPO 1122/1203 1500 BR BKN005 \n  BECMG 1204/1206 24010KT 9999 NSW",
      "metarHtml": "METAR LRBS 111130Z 06003KT 4000 -<span class=\"hl\">SN</span> <span class=\"hl\">BR</span> SCT013 OVC030 M05/M07 Q1012 NOSIG",
      "tafHtml": "TAF LRBS 111100Z 1112/1212 07008KT 5000 <span class=\"hl\">BR</span> BKN035 \n  TEMPO 1112/1116 3000 -<span class=\"hl\">SN</span> <span class=\"hl\">BR</span> BKN015 OVC030 \n  PROB40 \n  TEMPO 1122/1203 1500 <span class=\"hl\">BR</span> BKN005 \n  BECMG 1204/1206 24010KT 9999 NSW"
    },
    {
      "icao": "LROP",
      "iata": "OTP",
      "name": "Bucharest Henri Coandă International Airport",
      "updatedAt": "111130Z",
      "visibility_m": 6000,
      "taf_visibility_m": 1500,
      "worst_visibility_m": 1500,
      "ceiling_ft": 3000,
      "hazards": [
        "SN",
        "BR"
      ],
      "severityScore": 38,
      "metarRaw": "METAR LROP 111130Z 08004KT 6000 -SN OVC030 M05/M07 Q1012 NOSIG",
      "tafRaw": "TAF LROP 111100Z 1112/1212 07008KT 5000 BR BKN035 \n  TEMPO 1112/1116 3000 -SN BR BKN015 OVC030 \n  PROB40 \n  TEMPO 1122/1203 1500 BR BKN005 \n  BECMG 1204/1206 24010KT 9999 NSW",
      "metarHtml": "METAR LROP 111130Z 08004KT 6000 -<span class=\"hl\">SN</span> OVC030 M05/M07 Q1012 NOSIG",
      "tafHtml": "TAF LROP 111100Z 1112/1212 07008KT 5000 <span class=\"hl\">BR</span> BKN035 \n  TEMPO 1112/1116 3000 -<span class=\"hl\">SN</span> <span class=\"hl\">BR</span> BKN015 OVC030 \n  PROB40 \n  TEMPO 1122/1203 1500 <span class=\"hl\">BR</span> BKN005 \n  BECMG 1204/1206 24010KT 9999 NSW"
    },
    {
      "icao": "LTAC",
      "iata": "ESB",
      "name": "Esenboğa International Airport",
      "updatedAt": "111120Z",
      "visibility_m": 3700,
      "taf_visibility_m": 1000,
      "worst_visibility_m": 1000,
      "ceiling_ft": 2500,
      "hazards": [
        "BR",
        "SN"
      ],
      "severityScore": 38,
      "metarRaw": "METAR LTAC 111120Z 20004KT 160V220 3700 -RASN BR SCT010 BKN025 BKN080 01/00 Q1005 NOSIG RMK RWY21C 16003KT RWY03L 19003KT 150V210 RWY21R 15003KT RWY03R 20004KT RWY21L 18003KT",
      "tafRaw": "TAF LTAC 111040Z 1112/1212 VRB02KT 6000 SCT035 BKN090 \n  TEMPO 1112/1116 2500 -RASN BR SCT005 BKN025 BKN080 \n  TEMPO 1116/1120 1200 -SN BR SCT005 BKN025 BKN080 \n  TEMPO 1120/1124 1000 -SN BCFG SCT005 BKN025 BKN080 \n  TEMPO 1200/1204 1000 -SN BCFG SCT005 BKN025 BKN080 \n  TEMPO 1204/1208 1000 -SN BCFG SCT005 BKN025 BKN080",
      "metarHtml": "METAR LTAC 111120Z 20004KT 160V220 3700 -RASN <span class=\"hl\">BR</span> SCT010 BKN025 BKN080 01/00 Q1005 NOSIG RMK RWY21C 16003KT RWY03L 19003KT 150V210 RWY21R 15003KT RWY03R 20004KT RWY21L 18003KT",
      "tafHtml": "TAF LTAC 111040Z 1112/1212 VRB02KT 6000 SCT035 BKN090 \n  TEMPO 1112/1116 2500 -RASN <span class=\"hl\">BR</span> SCT005 BKN025 BKN080 \n  TEMPO 1116/1120 1200 -<span class=\"hl\">SN</span> <span class=\"hl\">BR</span> SCT005 BKN025 BKN080 \n  TEMPO 1120/1124 1000 -<span class=\"hl\">SN</span> BCFG SCT005 BKN025 BKN080 \n  TEMPO 1200/1204 1000 -<span class=\"hl\">SN</span> BCFG SCT005 BKN025 BKN080 \n  TEMPO 1204/1208 1000 -<span class=\"hl\">SN</span> BCFG SCT005 BKN025 BKN080"
    },
    {
      "icao": "EGPD",
      "iata": "ABZ",
      "name": "Aberdeen International Airport",
      "updatedAt": "111120Z",
      "visibility_m": 9000,
      "taf_visibility_m": 2000,
      "worst_visibility_m": 2000,
      "ceiling_ft": 800,
      "hazards": [
        "RA"
      ],
      "severityScore": 37,
      "metarRaw": "METAR EGPD 111120Z 18022KT 9000 -RA BKN010 03/02 Q0999 TEMPO BKN008",
      "tafRaw": "TAF EGPD 111056Z 1112/1212 17025G38KT 9999 BKN016 \n  BECMG 1112/1115 16015G25KT \n  TEMPO 1112/1116 8000 -RA BKN010 \n  PROB30 \n  TEMPO 1112/1117 BKN006 \n  PROB40 \n  TEMPO 1115/1118 17022G35KT \n  TEMPO 1116/1201 5000 RA BKN010 \n  PROB40 \n  TEMPO 1117/1124 2000 +RA BKN005 \n  BECMG 1118/1121 16022G38KT \n  BECMG 1200/1203 19018G34KT",
      "metarHtml": "METAR EGPD 111120Z 18022KT 9000 -<span class=\"hl\">RA</span> BKN010 03/02 Q0999 TEMPO BKN008",
      "tafHtml": "TAF EGPD 111056Z 1112/1212 17025G38KT 9999 BKN016 \n  BECMG 1112/1115 16015G25KT \n  TEMPO 1112/1116 8000 -<span class=\"hl\">RA</span> BKN010 \n  PROB30 \n  TEMPO 1112/1117 BKN006 \n  PROB40 \n  TEMPO 1115/1118 17022G35KT \n  TEMPO 1116/1201 5000 <span class=\"hl\">RA</span> BKN010 \n  PROB40 \n  TEMPO 1117/1124 2000 +<span class=\"hl\">RA</span> BKN005 \n  BECMG 1118/1121 16022G38KT \n  BECMG 1200/1203 19018G34KT"
    },
    {
      "icao": "LIBP",
      "iata": "PSR",
      "name": "Abruzzo Airport",
      "updatedAt": "111120Z",
      "visibility_m": 10000,
      "taf_visibility_m": 4000,
      "worst_visibility_m": 4000,
      "ceiling_ft": null,
      "hazards": [
        "TSRA",
        "RA"
      ],
      "severityScore": 37,
      "metarRaw": "METAR LIBP 111120Z AUTO 25006KT 9999 FEW020/// OVC035/// 05/04 Q1019",
      "tafRaw": "TAF LIBP 111100Z 1112/1212 35010KT 9999 SCT040 \n  PROB30 \n  TEMPO 1112/1116 4000 TSRA \n  TEMPO 1116/1119 4000 RA \n  BECMG 1117/1119 22006KT",
      "metarHtml": "METAR LIBP 111120Z AUTO 25006KT 9999 FEW020/// OVC035/// 05/04 Q1019",
      "tafHtml": "TAF LIBP 111100Z 1112/1212 35010KT 9999 SCT040 \n  PROB30 \n  TEMPO 1112/1116 4000 <span class=\"hl\">TSRA</span> \n  TEMPO 1116/1119 4000 <span class=\"hl\">RA</span> \n  BECMG 1117/1119 22006KT"
    },
    {
      "icao": "EGGW",
      "iata": "LTN",
      "name": "London Luton Airport",
      "updatedAt": "111120Z",
      "visibility_m": 10000,
      "taf_visibility_m": 2000,
      "worst_visibility_m": 2000,
      "ceiling_ft": 1200,
      "hazards": [
        "BR",
        "RA"
      ],
      "severityScore": 34,
      "metarRaw": "METAR EGGW 111120Z AUTO 16013KT 9999 BKN012 04/02 Q1013",
      "tafRaw": "TAF EGGW 111103Z 1112/1212 17018G32KT 9999 FEW010 BKN040 \n  BECMG 1112/1115 SCT005 BKN010 \n  TEMPO 1112/1124 5000 RA BKN005 \n  PROB30 \n  TEMPO 1115/1118 3000 RADZ BR OVC002 \n  PROB40 \n  TEMPO 1118/1124 2000 +RADZ BR OVC002 \n  BECMG 1200/1203 21012KT FEW010 SCT025 \n  PROB30 \n  TEMPO 1203/1212 21015G25KT BKN008",
      "metarHtml": "METAR EGGW 111120Z AUTO 16013KT 9999 BKN012 04/02 Q1013",
      "tafHtml": "TAF EGGW 111103Z 1112/1212 17018G32KT 9999 FEW010 BKN040 \n  BECMG 1112/1115 SCT005 BKN010 \n  TEMPO 1112/1124 5000 <span class=\"hl\">RA</span> BKN005 \n  PROB30 \n  TEMPO 1115/1118 3000 RADZ <span class=\"hl\">BR</span> OVC002 \n  PROB40 \n  TEMPO 1118/1124 2000 +RADZ <span class=\"hl\">BR</span> OVC002 \n  BECMG 1200/1203 21012KT FEW010 SCT025 \n  PROB30 \n  TEMPO 1203/1212 21015G25KT BKN008"
    },
    {
      "icao": "LBPD",
      "iata": "PDV",
      "name": "Plovdiv International Airport",
      "updatedAt": "111130Z",
      "visibility_m": 10000,
      "taf_visibility_m": 3000,
      "worst_visibility_m": 3000,
      "ceiling_ft": null,
      "hazards": [
        "SHRA",
        "SN"
      ],
      "severityScore": 32,
      "metarRaw": "METAR LBPD 111130Z AUTO 28016KT 9999 -SHRA BKN028/// OVC039/// 03/M02 Q1008 NOSIG",
      "tafRaw": "TAF LBPD 111100Z 1112/1212 28020KT 9999 SCT020 BKN050 \n  TEMPO 1112/1115 29020G30KT 5000 RASN BKN015 OVC030 \n  PROB40 \n  TEMPO 1115/1124 28020G30KT 3000 SN BKN010 OVC020",
      "metarHtml": "METAR LBPD 111130Z AUTO 28016KT 9999 -<span class=\"hl\">SHRA</span> BKN028/// OVC039/// 03/M02 Q1008 NOSIG",
      "tafHtml": "TAF LBPD 111100Z 1112/1212 28020KT 9999 SCT020 BKN050 \n  TEMPO 1112/1115 29020G30KT 5000 RASN BKN015 OVC030 \n  PROB40 \n  TEMPO 1115/1124 28020G30KT 3000 <span class=\"hl\">SN</span> BKN010 OVC020"
    },
    {
      "icao": "LBSF",
      "iata": "SOF",
      "name": "Sofia Airport",
      "updatedAt": "111130Z",
      "visibility_m": 10000,
      "taf_visibility_m": 3000,
      "worst_visibility_m": 3000,
      "ceiling_ft": 1600,
      "hazards": [
        "SN"
      ],
      "severityScore": 30,
      "metarRaw": "METAR LBSF 111130Z 28019G29KT 9999 -SN BKN016 OVC025 M03/M07 Q1010 NOSIG",
      "tafRaw": "TAF LBSF 111100Z 1112/1212 28018KT 7000 BKN012 OVC040 \n  TEMPO 1112/1118 29020G30KT 3000 SN BKN008 OVC015 \n  PROB30 \n  TEMPO 1118/1123 5000 -SN BKN010 OVC020",
      "metarHtml": "METAR LBSF 111130Z 28019G29KT 9999 -<span class=\"hl\">SN</span> BKN016 OVC025 M03/M07 Q1010 NOSIG",
      "tafHtml": "TAF LBSF 111100Z 1112/1212 28018KT 7000 BKN012 OVC040 \n  TEMPO 1112/1118 29020G30KT 3000 <span class=\"hl\">SN</span> BKN008 OVC015 \n  PROB30 \n  TEMPO 1118/1123 5000 -<span class=\"hl\">SN</span> BKN010 OVC020"
    },
    {
      "icao": "EKBI",
      "iata": "BLL",
      "name": "Billund Airport",
      "updatedAt": "111120Z",
      "visibility_m": 10000,
      "taf_visibility_m": 1200,
      "worst_visibility_m": 1200,
      "ceiling_ft": null,
      "hazards": [
        "SN"
      ],
      "severityScore": 28,
      "metarRaw": "METAR EKBI 111120Z AUTO 10001KT 9999 NCD M07/M08 Q1024",
      "tafRaw": "TAF EKBI 111127Z 1112/1212 VRB02KT CAVOK \n  BECMG 1121/1124 14012KT \n  TEMPO 1202/1209 13015G25KT \n  BECMG 1207/1209 1200 SN BKN006 \n  TEMPO 1209/1212 14015G25KT 6000 -SN BKN010",
      "metarHtml": "METAR EKBI 111120Z AUTO 10001KT 9999 NCD M07/M08 Q1024",
      "tafHtml": "TAF EKBI 111127Z 1112/1212 VRB02KT <span class=\"hl-vis\">CAVOK</span> \n  BECMG 1121/1124 14012KT \n  TEMPO 1202/1209 13015G25KT \n  BECMG 1207/1209 1200 <span class=\"hl\">SN</span> BKN006 \n  TEMPO 1209/1212 14015G25KT 6000 -<span class=\"hl\">SN</span> BKN010"
    },
    {
      "icao": "EPWR",
      "iata": "WRO",
      "name": "Copernicus Wrocław Airport",
      "updatedAt": "111130Z",
      "visibility_m": 10000,
      "taf_visibility_m": 2000,
      "worst_visibility_m": 2000,
      "ceiling_ft": 2000,
      "hazards": [
        "SN",
        "SHSN"
      ],
      "severityScore": 28,
      "metarRaw": "METAR EPWR 111130Z 28020KT 9999 -SN DRSN FEW012 BKN020 M05/M07 Q1016",
      "tafRaw": "TAF EPWR 111130Z 1112/1212 29015KT 9999 -SN BKN030 \n  TEMPO 1112/1116 31020G30KT 2000 SHSN DRSN BKN007 BKN012CB \n  PROB30 \n  TEMPO 1116/1121 4000 SHSN BKN007 BKN012CB \n  BECMG 1203/1205 VRB02KT",
      "metarHtml": "METAR EPWR 111130Z 28020KT 9999 -<span class=\"hl\">SN</span> DRSN FEW012 BKN020 M05/M07 Q1016",
      "tafHtml": "TAF EPWR 111130Z 1112/1212 29015KT 9999 -<span class=\"hl\">SN</span> BKN030 \n  TEMPO 1112/1116 31020G30KT 2000 <span class=\"hl\">SHSN</span> DRSN BKN007 BKN012CB \n  PROB30 \n  TEMPO 1116/1121 4000 <span class=\"hl\">SHSN</span> BKN007 BKN012CB \n  BECMG 1203/1205 VRB02KT"
    },
    {
      "icao": "EYVI",
      "iata": "VNO",
      "name": "Vilnius International Airport",
      "updatedAt": "111120Z",
      "visibility_m": 10000,
      "taf_visibility_m": 1500,
      "worst_visibility_m": 1500,
      "ceiling_ft": null,
      "hazards": [
        "SN"
      ],
      "severityScore": 28,
      "metarRaw": "METAR EYVI 111120Z 31004KT 290V350 9999 -SN FEW007 SCT023 M13/M14 Q1004 NOSIG",
      "tafRaw": "TAF EYVI 111100Z 1112/1212 VRB04KT 5000 SN BKN025 \n  TEMPO 1112/1115 30010KT 3000 SCT005 BKN010 \n  TEMPO 1115/1124 3000 SCT010 \n  TEMPO 1200/1208 1500 BKN005 \n  TEMPO 1208/1212 3000 BKN010",
      "metarHtml": "METAR EYVI 111120Z 31004KT 290V350 9999 -<span class=\"hl\">SN</span> FEW007 SCT023 M13/M14 Q1004 NOSIG",
      "tafHtml": "TAF EYVI 111100Z 1112/1212 VRB04KT 5000 <span class=\"hl\">SN</span> BKN025 \n  TEMPO 1112/1115 30010KT 3000 SCT005 BKN010 \n  TEMPO 1115/1124 3000 SCT010 \n  TEMPO 1200/1208 1500 BKN005 \n  TEMPO 1208/1212 3000 BKN010"
    },
    {
      "icao": "LKPR",
      "iata": "PRG",
      "name": "Václav Havel Airport Prague",
      "updatedAt": "111130Z",
      "visibility_m": 10000,
      "taf_visibility_m": 4000,
      "worst_visibility_m": 4000,
      "ceiling_ft": null,
      "hazards": [
        "BR",
        "SN"
      ],
      "severityScore": 28,
      "metarRaw": "METAR LKPR 111130Z 26015KT CAVOK M06/M11 Q1020 NOSIG",
      "tafRaw": "TAF LKPR 111100Z 1112/1218 28012KT CAVOK \n  BECMG 1209/1211 20004KT \n  BECMG 1213/1215 9999 BKN012 \n  TEMPO 1215/1218 4000 -SN BR SCT003 BKN006",
      "metarHtml": "METAR LKPR 111130Z 26015KT <span class=\"hl-vis\">CAVOK</span> M06/M11 Q1020 NOSIG",
      "tafHtml": "TAF LKPR 111100Z 1112/1218 28012KT <span class=\"hl-vis\">CAVOK</span> \n  BECMG 1209/1211 20004KT \n  BECMG 1213/1215 9999 BKN012 \n  TEMPO 1215/1218 4000 -<span class=\"hl\">SN</span> <span class=\"hl\">BR</span> SCT003 BKN006"
    },
    {
      "icao": "LOWW",
      "iata": "VIE",
      "name": "Vienna International Airport",
      "updatedAt": "111120Z",
      "visibility_m": 10000,
      "taf_visibility_m": 7000,
      "worst_visibility_m": 7000,
      "ceiling_ft": null,
      "hazards": [
        "SN",
        "SHSN"
      ],
      "severityScore": 28,
      "metarRaw": "METAR LOWW 111120Z 31022KT CAVOK M02/M09 Q1019 NOSIG",
      "tafRaw": "TAF LOWW 111115Z 1112/1218 30020G30KT 9999 FEW030 TXM02/1112Z TNM09/1207Z \n  PROB30 \n  TEMPO 1112/1116 31025G40KT -SHSN DRSN \n  BECMG 1118/1120 30012KT \n  FM112200 32008KT CAVOK \n  BECMG 1206/1208 13005KT \n  FM121600 17006KT 7000 -SN FEW012 OVC030",
      "metarHtml": "METAR LOWW 111120Z 31022KT <span class=\"hl-vis\">CAVOK</span> M02/M09 Q1019 NOSIG",
      "tafHtml": "TAF LOWW 111115Z 1112/1218 30020G30KT 9999 FEW030 TXM02/1112Z TNM09/1207Z \n  PROB30 \n  TEMPO 1112/1116 31025G40KT -<span class=\"hl\">SHSN</span> DRSN \n  BECMG 1118/1120 30012KT \n  FM112200 32008KT <span class=\"hl-vis\">CAVOK</span> \n  BECMG 1206/1208 13005KT \n  FM121600 17006KT 7000 -<span class=\"hl\">SN</span> FEW012 OVC030"
    },
    {
      "icao": "EGKK",
      "iata": "LGW",
      "name": "London Gatwick Airport",
      "updatedAt": "111120Z",
      "visibility_m": 10000,
      "taf_visibility_m": 2500,
      "worst_visibility_m": 2500,
      "ceiling_ft": null,
      "hazards": [
        "RA",
        "SHRA"
      ],
      "severityScore": 26,
      "metarRaw": "METAR EGKK 111120Z 17012KT 140V200 9999 SCT015 06/04 Q1015",
      "tafRaw": "TAF EGKK 111057Z 1112/1218 16010KT 9999 SCT015 \n  BECMG 1112/1115 BKN010 \n  PROB30 \n  TEMPO 1112/1113 16015G25KT 9000 -RA \n  TEMPO 1113/1201 18016G30KT 6000 -RADZ BKN006 \n  PROB40 \n  TEMPO 1114/1118 3000 RADZ BKN004 \n  PROB40 \n  TEMPO 1118/1201 2500 +RADZ BKN004 \n  BECMG 1123/1202 22012KT SCT015 \n  TEMPO 1201/1218 BKN007 \n  PROB30 \n  TEMPO 1202/1218 6000 SHRA \n  PROB30 \n  TEMPO 1202/1209 22015G25KT",
      "metarHtml": "METAR EGKK 111120Z 17012KT 140V200 9999 SCT015 06/04 Q1015",
      "tafHtml": "TAF EGKK 111057Z 1112/1218 16010KT 9999 SCT015 \n  BECMG 1112/1115 BKN010 \n  PROB30 \n  TEMPO 1112/1113 16015G25KT 9000 -<span class=\"hl\">RA</span> \n  TEMPO 1113/1201 18016G30KT 6000 -RADZ BKN006 \n  PROB40 \n  TEMPO 1114/1118 3000 RADZ BKN004 \n  PROB40 \n  TEMPO 1118/1201 2500 +RADZ BKN004 \n  BECMG 1123/1202 22012KT SCT015 \n  TEMPO 1201/1218 BKN007 \n  PROB30 \n  TEMPO 1202/1218 6000 <span class=\"hl\">SHRA</span> \n  PROB30 \n  TEMPO 1202/1209 22015G25KT"
    },
    {
      "icao": "EGPF",
      "iata": "GLA",
      "name": "Glasgow Airport",
      "updatedAt": "111120Z",
      "visibility_m": 8000,
      "taf_visibility_m": 3000,
      "worst_visibility_m": 3000,
      "ceiling_ft": null,
      "hazards": [
        "RA",
        "SHRA"
      ],
      "severityScore": 26,
      "metarRaw": "METAR EGPF 111120Z AUTO 14005G15KT 090V190 8000 -RA BKN012/// BKN024/// //////TCU 07/05 Q0997 RERA",
      "tafRaw": "TAF EGPF 111103Z 1112/1212 14009KT 9999 FEW015 SCT030 \n  TEMPO 1112/1122 6000 RA -RADZ BKN011 \n  TEMPO 1112/1118 16020G30KT \n  PROB30 \n  TEMPO 1112/1122 3000 +RA RADZ BKN007 \n  BECMG 1118/1121 16020G38KT \n  BECMG 1121/1124 21020G38KT \n  PROB30 \n  TEMPO 1122/1202 4000 +SHRA BKN014 \n  BECMG 1206/1209 21015KT \n  TEMPO 1209/1212 22017G32KT",
      "metarHtml": "METAR EGPF 111120Z AUTO 14005G15KT 090V190 8000 -<span class=\"hl\">RA</span> BKN012/// BKN024/// //////TCU 07/05 Q0997 RERA",
      "tafHtml": "TAF EGPF 111103Z 1112/1212 14009KT 9999 FEW015 SCT030 \n  TEMPO 1112/1122 6000 <span class=\"hl\">RA</span> -RADZ BKN011 \n  TEMPO 1112/1118 16020G30KT \n  PROB30 \n  TEMPO 1112/1122 3000 +<span class=\"hl\">RA</span> RADZ BKN007 \n  BECMG 1118/1121 16020G38KT \n  BECMG 1121/1124 21020G38KT \n  PROB30 \n  TEMPO 1122/1202 4000 +<span class=\"hl\">SHRA</span> BKN014 \n  BECMG 1206/1209 21015KT \n  TEMPO 1209/1212 22017G32KT"
    },
    {
      "icao": "LFOB",
      "iata": "BVA",
      "name": "Beauvais Tillé airport",
      "updatedAt": "111130Z",
      "visibility_m": 10000,
      "taf_visibility_m": 2500,
      "worst_visibility_m": 2500,
      "ceiling_ft": null,
      "hazards": [
        "RA",
        "SHRA"
      ],
      "severityScore": 26,
      "metarRaw": "METAR LFOB 111130Z AUTO 18011KT CAVOK 02/M01 Q1022 NOSIG",
      "tafRaw": "TAF LFOB 111100Z 1112/1212 18012KT 9999 BKN020 \n  TEMPO 1118/1204 4000 -RA OVC010 \n  PROB40 \n  TEMPO 1120/1202 2500 SHRA BKN008 BKN012TCU \n  TEMPO 1208/1212 4000 -RA \n  PROB40 \n  TEMPO 1210/1212 2500 SHRA BKN012TCU",
      "metarHtml": "METAR LFOB 111130Z AUTO 18011KT <span class=\"hl-vis\">CAVOK</span> 02/M01 Q1022 NOSIG",
      "tafHtml": "TAF LFOB 111100Z 1112/1212 18012KT 9999 BKN020 \n  TEMPO 1118/1204 4000 -<span class=\"hl\">RA</span> OVC010 \n  PROB40 \n  TEMPO 1120/1202 2500 <span class=\"hl\">SHRA</span> BKN008 BKN012TCU \n  TEMPO 1208/1212 4000 -<span class=\"hl\">RA</span> \n  PROB40 \n  TEMPO 1210/1212 2500 <span class=\"hl\">SHRA</span> BKN012TCU"
    },
    {
      "icao": "LRCV",
      "iata": "CRA",
      "name": "Craiova International Airport",
      "updatedAt": "111130Z",
      "visibility_m": 10000,
      "taf_visibility_m": 10000,
      "worst_visibility_m": 10000,
      "ceiling_ft": 800,
      "hazards": [],
      "severityScore": 25,
      "metarRaw": "METAR LRCV 111130Z 32008KT 9999 FEW006 BKN008 OVC015 M02/M03 Q1010",
      "tafRaw": "TAF LRCV 111100Z 1112/1121 VRB04KT 9999 BKN005 BKN030 \n  BECMG 1112/1114 28014KT SCT015 BKN035",
      "metarHtml": "METAR LRCV 111130Z 32008KT 9999 FEW006 BKN008 OVC015 M02/M03 Q1010",
      "tafHtml": "TAF LRCV 111100Z 1112/1121 VRB04KT 9999 BKN005 BKN030 \n  BECMG 1112/1114 28014KT SCT015 BKN035"
    },
    {
      "icao": "EPPO",
      "iata": "POZ",
      "name": "Poznań-Ławica Airport",
      "updatedAt": "111130Z",
      "visibility_m": 10000,
      "taf_visibility_m": 4000,
      "worst_visibility_m": 4000,
      "ceiling_ft": 1900,
      "hazards": [
        "SHSN"
      ],
      "severityScore": 22,
      "metarRaw": "METAR EPPO 111130Z 29014KT 9999 OVC019 M02/M06 Q1014",
      "tafRaw": "TAF EPPO 111130Z 1112/1212 30012KT 9999 BKN020 \n  PROB40 \n  TEMPO 1112/1121 4000 -SHSN BKN006 BKN013CB \n  BECMG 1203/1205 VRB02KT",
      "metarHtml": "METAR EPPO 111130Z 29014KT 9999 OVC019 M02/M06 Q1014",
      "tafHtml": "TAF EPPO 111130Z 1112/1212 30012KT 9999 BKN020 \n  PROB40 \n  TEMPO 1112/1121 4000 -<span class=\"hl\">SHSN</span> BKN006 BKN013CB \n  BECMG 1203/1205 VRB02KT"
    },
    {
      "icao": "EPSC",
      "iata": "SZZ",
      "name": "Solidarity Szczecin–Goleniów Airport",
      "updatedAt": "111130Z",
      "visibility_m": 10000,
      "taf_visibility_m": 2000,
      "worst_visibility_m": 2000,
      "ceiling_ft": 1900,
      "hazards": [
        "BR"
      ],
      "severityScore": 22,
      "metarRaw": "METAR EPSC 111130Z 31014KT 9999 BKN019 M01/M04 Q1018",
      "tafRaw": "TAF EPSC 111130Z 1112/1212 33014KT 9999 BKN020 \n  TEMPO 1112/1116 32018G28KT \n  BECMG 1119/1122 27010KT \n  BECMG 1203/1206 VRB02KT \n  PROB40 1203/1209 2000 BR",
      "metarHtml": "METAR EPSC 111130Z 31014KT 9999 BKN019 M01/M04 Q1018",
      "tafHtml": "TAF EPSC 111130Z 1112/1212 33014KT 9999 BKN020 \n  TEMPO 1112/1116 32018G28KT \n  BECMG 1119/1122 27010KT \n  BECMG 1203/1206 VRB02KT \n  PROB40 1203/1209 2000 <span class=\"hl\">BR</span>"
    },
    {
      "icao": "LHBP",
      "iata": "BUD",
      "name": "Budapest Liszt Ferenc International Airport",
      "updatedAt": "111130Z",
      "visibility_m": 10000,
      "taf_visibility_m": 4500,
      "worst_visibility_m": 4500,
      "ceiling_ft": 8500,
      "hazards": [
        "BLSN"
      ],
      "severityScore": 22,
      "metarRaw": "METAR LHBP 111130Z 31020KT 9999 DRSN FEW024 BKN085 M03/M06 Q1015 NOSIG",
      "tafRaw": "TAF LHBP 111115Z 1112/1212 30020G30KT 9999 DRSN FEW020 SCT080 \n  PROB30 \n  TEMPO 1112/1117 31025G35KT 4500 BLSN \n  BECMG 1117/1120 30014KT CAVOK \n  BECMG 1202/1205 27008KT",
      "metarHtml": "METAR LHBP 111130Z 31020KT 9999 DRSN FEW024 BKN085 M03/M06 Q1015 NOSIG",
      "tafHtml": "TAF LHBP 111115Z 1112/1212 30020G30KT 9999 DRSN FEW020 SCT080 \n  PROB30 \n  TEMPO 1112/1117 31025G35KT 4500 <span class=\"hl\">BLSN</span> \n  BECMG 1117/1120 30014KT <span class=\"hl-vis\">CAVOK</span> \n  BECMG 1202/1205 27008KT"
    },
    {
      "icao": "GMMN",
      "iata": "CMN",
      "name": "Mohammed V International Airport",
      "updatedAt": "111130Z",
      "visibility_m": 10000,
      "taf_visibility_m": 1200,
      "worst_visibility_m": 1200,
      "ceiling_ft": null,
      "hazards": [
        "BR"
      ],
      "severityScore": 20,
      "metarRaw": "METAR GMMN 111130Z 08012KT 9999 FEW023 14/09 Q1027 NOSIG",
      "tafRaw": "TAF GMMN 111100Z 1112/1218 05012KT 9999 FEW020 \n  BECMG 1118/1120 17005KT \n  TEMPO 1200/1208 1200 BR BKN008 \n  BECMG 1212/1214 22012KT",
      "metarHtml": "METAR GMMN 111130Z 08012KT 9999 FEW023 14/09 Q1027 NOSIG",
      "tafHtml": "TAF GMMN 111100Z 1112/1218 05012KT 9999 FEW020 \n  BECMG 1118/1120 17005KT \n  TEMPO 1200/1208 1200 <span class=\"hl\">BR</span> BKN008 \n  BECMG 1212/1214 22012KT"
    },
    {
      "icao": "LRTR",
      "iata": "TSR",
      "name": "Timişoara Traian Vuia Airport",
      "updatedAt": "111130Z",
      "visibility_m": 10000,
      "taf_visibility_m": 3000,
      "worst_visibility_m": 3000,
      "ceiling_ft": null,
      "hazards": [
        "BR",
        "SHSN"
      ],
      "severityScore": 20,
      "metarRaw": "METAR LRTR 111130Z 28008KT CAVOK M07/M10 Q1017",
      "tafRaw": "TAF LRTR 111100Z 1112/1212 28010KT CAVOK \n  PROB40 \n  TEMPO 1115/1119 5000 -SHSN BKN015 SCT025 OVC030 \n  BECMG 1120/1122 5000 BR BKN010 \n  TEMPO 1200/1206 3000 BR BKN005",
      "metarHtml": "METAR LRTR 111130Z 28008KT <span class=\"hl-vis\">CAVOK</span> M07/M10 Q1017",
      "tafHtml": "TAF LRTR 111100Z 1112/1212 28010KT <span class=\"hl-vis\">CAVOK</span> \n  PROB40 \n  TEMPO 1115/1119 5000 -<span class=\"hl\">SHSN</span> BKN015 SCT025 OVC030 \n  BECMG 1120/1122 5000 <span class=\"hl\">BR</span> BKN010 \n  TEMPO 1200/1206 3000 <span class=\"hl\">BR</span> BKN005"
    },
    {
      "icao": "EFTU",
      "iata": "TKU",
      "name": "Turku Airport",
      "updatedAt": "111120Z",
      "visibility_m": 8000,
      "taf_visibility_m": 4000,
      "worst_visibility_m": 4000,
      "ceiling_ft": 4600,
      "hazards": [
        "SN"
      ],
      "severityScore": 18,
      "metarRaw": "METAR EFTU 111120Z AUTO 03008KT 350V060 8000 -SN FEW015 OVC046 M07/M09 Q1014",
      "tafRaw": "TAF EFTU 111124Z 1112/1212 03008KT 8000 -SN FEW015 \n  TEMPO 1112/1114 4000 \n  TEMPO 1114/1122 6000",
      "metarHtml": "METAR EFTU 111120Z AUTO 03008KT 350V060 8000 -<span class=\"hl\">SN</span> FEW015 OVC046 M07/M09 Q1014",
      "tafHtml": "TAF EFTU 111124Z 1112/1212 03008KT 8000 -<span class=\"hl\">SN</span> FEW015 \n  TEMPO 1112/1114 4000 \n  TEMPO 1114/1122 6000"
    },
    {
      "icao": "LBWN",
      "iata": "VAR",
      "name": "Varna Airport",
      "updatedAt": "111130Z",
      "visibility_m": 10000,
      "taf_visibility_m": 3000,
      "worst_visibility_m": 3000,
      "ceiling_ft": null,
      "hazards": [
        "SN"
      ],
      "severityScore": 18,
      "metarRaw": "METAR LBWN 111130Z 32007KT 290V350 9999 FEW018 M00/M03 Q1009 NOSIG",
      "tafRaw": "TAF LBWN 111100Z 1112/1212 33010KT 9999 SCT010 BKN015 OVC030 \n  BECMG 1116/1118 BKN010 OVC025 \n  TEMPO 1118/1202 3000 SN BKN005 OVC015",
      "metarHtml": "METAR LBWN 111130Z 32007KT 290V350 9999 FEW018 M00/M03 Q1009 NOSIG",
      "tafHtml": "TAF LBWN 111100Z 1112/1212 33010KT 9999 SCT010 BKN015 OVC030 \n  BECMG 1116/1118 BKN010 OVC025 \n  TEMPO 1118/1202 3000 <span class=\"hl\">SN</span> BKN005 OVC015"
    },
    {
      "icao": "LKMT",
      "iata": "OSR",
      "name": "Ostrava Leos Janáček Airport",
      "updatedAt": "111130Z",
      "visibility_m": 3000,
      "taf_visibility_m": 10000,
      "worst_visibility_m": 3000,
      "ceiling_ft": 2500,
      "hazards": [
        "SN"
      ],
      "severityScore": 18,
      "metarRaw": "METAR LKMT 111130Z 25008KT 3000 SN OVC025 M04/M06 Q1015 NOSIG",
      "tafRaw": "TAF LKMT 111100Z 1112/1212 23010KT 9999 BKN025 \n  TEMPO 1112/1120 -SN BKN014 \n  BECMG 1203/1205 CAVOK",
      "metarHtml": "METAR LKMT 111130Z 25008KT 3000 <span class=\"hl\">SN</span> OVC025 M04/M06 Q1015 NOSIG",
      "tafHtml": "TAF LKMT 111100Z 1112/1212 23010KT 9999 BKN025 \n  TEMPO 1112/1120 -<span class=\"hl\">SN</span> BKN014 \n  BECMG 1203/1205 <span class=\"hl-vis\">CAVOK</span>"
    },
    {
      "icao": "LQSA",
      "iata": "SJJ",
      "name": "Sarajevo International Airport",
      "updatedAt": "111130Z",
      "visibility_m": 10000,
      "taf_visibility_m": 10000,
      "worst_visibility_m": 10000,
      "ceiling_ft": 4000,
      "hazards": [
        "SN"
      ],
      "severityScore": 18,
      "metarRaw": "METAR LQSA 111130Z 30007KT 260V330 9999 -SN FEW025 BKN040 M05/M09 Q1018 NOSIG",
      "tafRaw": "TAF LQSA 111100Z 1112/1212 29006KT 9999 BKN030 TXM04/1212Z TNM14/1206Z \n  PROB30 \n  TEMPO 1116/1120 35011KT",
      "metarHtml": "METAR LQSA 111130Z 30007KT 260V330 9999 -<span class=\"hl\">SN</span> FEW025 BKN040 M05/M09 Q1018 NOSIG",
      "tafHtml": "TAF LQSA 111100Z 1112/1212 29006KT 9999 BKN030 TXM04/1212Z TNM14/1206Z \n  PROB30 \n  TEMPO 1116/1120 35011KT"
    },
    {
      "icao": "LRSB",
      "iata": "SBZ",
      "name": "Sibiu International Airport",
      "updatedAt": "111130Z",
      "visibility_m": 10000,
      "taf_visibility_m": 5000,
      "worst_visibility_m": 5000,
      "ceiling_ft": 3200,
      "hazards": [
        "SN"
      ],
      "severityScore": 18,
      "metarRaw": "METAR LRSB 111130Z 25004KT 9999 -SN FEW015 BKN032 OVC045 M05/M09 Q1011",
      "tafRaw": "TAF LRSB 111100Z 1112/1212 35008KT 9999 BKN025 OVC040 \n  PROB40 \n  TEMPO 1112/1116 5000 SN OVC020",
      "metarHtml": "METAR LRSB 111130Z 25004KT 9999 -<span class=\"hl\">SN</span> FEW015 BKN032 OVC045 M05/M09 Q1011",
      "tafHtml": "TAF LRSB 111100Z 1112/1212 35008KT 9999 BKN025 OVC040 \n  PROB40 \n  TEMPO 1112/1116 5000 <span class=\"hl\">SN</span> OVC020"
    },
    {
      "icao": "LRSM",
      "iata": "SUJ",
      "name": "Satu Mare International Airport",
      "updatedAt": "111130Z",
      "visibility_m": 10000,
      "taf_visibility_m": 3000,
      "worst_visibility_m": 3000,
      "ceiling_ft": 4000,
      "hazards": [
        "SN"
      ],
      "severityScore": 18,
      "metarRaw": "METAR LRSM 111130Z 26008KT 9999 BKN040 M06/M10 Q1013",
      "tafRaw": "TAF LRSM 111100Z 1112/1121 VRB04KT 9999 BKN040 \n  BECMG 1112/1114 24010KT 5000 -SN BKN010 OVC025 \n  TEMPO 1117/1121 3000 SN BKN005 OVC020",
      "metarHtml": "METAR LRSM 111130Z 26008KT 9999 BKN040 M06/M10 Q1013",
      "tafHtml": "TAF LRSM 111100Z 1112/1121 VRB04KT 9999 BKN040 \n  BECMG 1112/1114 24010KT 5000 -<span class=\"hl\">SN</span> BKN010 OVC025 \n  TEMPO 1117/1121 3000 <span class=\"hl\">SN</span> BKN005 OVC020"
    },
    {
      "icao": "LYNI",
      "iata": "INI",
      "name": "Niš Constantine the Great Airport",
      "updatedAt": "111130Z",
      "visibility_m": 10000,
      "taf_visibility_m": 4000,
      "worst_visibility_m": 4000,
      "ceiling_ft": 2700,
      "hazards": [
        "SN"
      ],
      "severityScore": 18,
      "metarRaw": "METAR LYNI 111130Z 31009KT 280V340 9999 -SN FEW017 BKN027 M04/M07 Q1016 NOSIG",
      "tafRaw": "TAF LYNI 111100Z 1112/1212 32010KT 9999 SCT015 BKN025 TXM02/1212Z TNM07/1206Z \n  TEMPO 1112/1206 4000 -SN BKN010 BKN023",
      "metarHtml": "METAR LYNI 111130Z 31009KT 280V340 9999 -<span class=\"hl\">SN</span> FEW017 BKN027 M04/M07 Q1016 NOSIG",
      "tafHtml": "TAF LYNI 111100Z 1112/1212 32010KT 9999 SCT015 BKN025 TXM02/1212Z TNM07/1206Z \n  TEMPO 1112/1206 4000 -<span class=\"hl\">SN</span> BKN010 BKN023"
    },
    {
      "icao": "LZTT",
      "iata": "TAT",
      "name": "Poprad-Tatry Airport",
      "updatedAt": "111130Z",
      "visibility_m": 10000,
      "taf_visibility_m": 3000,
      "worst_visibility_m": 3000,
      "ceiling_ft": 4600,
      "hazards": [
        "SN"
      ],
      "severityScore": 18,
      "metarRaw": "METAR LZTT 111130Z 26014KT 9999 -SN DRSN FEW013 OVC046 M06/M09 Q1007 NOSIG",
      "tafRaw": "TAF LZTT 111115Z 1112/1212 25012KT 9999 -SN DRSN FEW013 OVC040 \n  PROB40 \n  TEMPO 1112/1118 3000 SN BKN012 \n  BECMG 1205/1207 CAVOK",
      "metarHtml": "METAR LZTT 111130Z 26014KT 9999 -<span class=\"hl\">SN</span> DRSN FEW013 OVC046 M06/M09 Q1007 NOSIG",
      "tafHtml": "TAF LZTT 111115Z 1112/1212 25012KT 9999 -<span class=\"hl\">SN</span> DRSN FEW013 OVC040 \n  PROB40 \n  TEMPO 1112/1118 3000 <span class=\"hl\">SN</span> BKN012 \n  BECMG 1205/1207 <span class=\"hl-vis\">CAVOK</span>"
    },
    {
      "icao": "EGBB",
      "iata": "BHX",
      "name": "Birmingham Airport",
      "updatedAt": "111120Z",
      "visibility_m": 10000,
      "taf_visibility_m": null,
      "worst_visibility_m": 10000,
      "ceiling_ft": 1500,
      "hazards": [],
      "severityScore": 17,
      "metarRaw": "METAR EGBB 111120Z 16014KT 9999 BKN015 OVC043 05/03 Q1009",
      "tafRaw": null,
      "metarHtml": "METAR EGBB 111120Z 16014KT 9999 BKN015 OVC043 05/03 Q1009",
      "tafHtml": null
    },
    {
      "icao": "LIBG",
      "iata": "TAR",
      "name": "Taranto-Grottaglie Marcello Arlotta Airport",
      "updatedAt": "111135Z",
      "visibility_m": 9000,
      "taf_visibility_m": 10000,
      "worst_visibility_m": 9000,
      "ceiling_ft": null,
      "hazards": [
        "SHRA"
      ],
      "severityScore": 14,
      "metarRaw": "SPECI LIBG 111135Z 30011KT 260V320 9000 SHRA FEW020CB SCT025 11/05 Q1011",
      "tafRaw": "TAF LIBG 111100Z 1112/1121 32012KT 9999 SCT040 \n  PROB30 \n  TEMPO 1112/1115 32015G25KT",
      "metarHtml": "SPECI LIBG 111135Z 30011KT 260V320 9000 <span class=\"hl\">SHRA</span> FEW020CB SCT025 11/05 Q1011",
      "tafHtml": "TAF LIBG 111100Z 1112/1121 32012KT 9999 SCT040 \n  PROB30 \n  TEMPO 1112/1115 32015G25KT"
    },
    {
      "icao": "LICC",
      "iata": "CTA",
      "name": "Catania-Fontanarossa Airport",
      "updatedAt": "111120Z",
      "visibility_m": 10000,
      "taf_visibility_m": 10000,
      "worst_visibility_m": 10000,
      "ceiling_ft": null,
      "hazards": [
        "SHRA"
      ],
      "severityScore": 14,
      "metarRaw": "METAR LICC 111120Z 26010KT 9999 SCT050 14/09 Q1013",
      "tafRaw": "TAF LICC 111100Z 1112/1212 26016KT 9999 SCT040 \n  TEMPO 1112/1114 SHRA \n  BECMG 1114/1116 26007KT",
      "metarHtml": "METAR LICC 111120Z 26010KT 9999 SCT050 14/09 Q1013",
      "tafHtml": "TAF LICC 111100Z 1112/1212 26016KT 9999 SCT040 \n  TEMPO 1112/1114 <span class=\"hl\">SHRA</span> \n  BECMG 1114/1116 26007KT"
    },
    {
      "icao": "LICJ",
      "iata": "PMO",
      "name": "Falcone–Borsellino Airport",
      "updatedAt": "111120Z",
      "visibility_m": 10000,
      "taf_visibility_m": 10000,
      "worst_visibility_m": 10000,
      "ceiling_ft": null,
      "hazards": [
        "SHRA"
      ],
      "severityScore": 14,
      "metarRaw": "METAR LICJ 111120Z 27004KT 230V360 9999 SCT045 12/07 Q1015",
      "tafRaw": "TAF LICJ 111100Z 1112/1212 35011KT 9999 SCT030 \n  PROB40 \n  TEMPO 1112/1121 35015G25KT SHRA \n  BECMG 1203/1205 05013KT",
      "metarHtml": "METAR LICJ 111120Z 27004KT 230V360 9999 SCT045 12/07 Q1015",
      "tafHtml": "TAF LICJ 111100Z 1112/1212 35011KT 9999 SCT030 \n  PROB40 \n  TEMPO 1112/1121 35015G25KT <span class=\"hl\">SHRA</span> \n  BECMG 1203/1205 05013KT"
    },
    {
      "icao": "LIPY",
      "iata": "AOI",
      "name": "Marche Airport",
      "updatedAt": "111120Z",
      "visibility_m": 10000,
      "taf_visibility_m": 4000,
      "worst_visibility_m": 4000,
      "ceiling_ft": null,
      "hazards": [
        "SHRA"
      ],
      "severityScore": 14,
      "metarRaw": "METAR LIPY 111120Z AUTO 30008KT 270V340 9999 NCD 07/02 Q1018",
      "tafRaw": "TAF LIPY 111100Z 1112/1212 VRB05KT 9999 SCT030 \n  BECMG 1112/1114 04010KT \n  TEMPO 1112/1116 4000 SHRA \n  BECMG 1119/1121 VRB05KT",
      "metarHtml": "METAR LIPY 111120Z AUTO 30008KT 270V340 9999 NCD 07/02 Q1018",
      "tafHtml": "TAF LIPY 111100Z 1112/1212 VRB05KT 9999 SCT030 \n  BECMG 1112/1114 04010KT \n  TEMPO 1112/1116 4000 <span class=\"hl\">SHRA</span> \n  BECMG 1119/1121 VRB05KT"
    },
    {
      "icao": "LMML",
      "iata": "MLA",
      "name": "Malta International Airport",
      "updatedAt": "111145Z",
      "visibility_m": 10000,
      "taf_visibility_m": 8000,
      "worst_visibility_m": 8000,
      "ceiling_ft": null,
      "hazards": [
        "SHRA"
      ],
      "severityScore": 14,
      "metarRaw": "METAR LMML 111145Z 29018G30KT 9999 FEW030TCU 12/07 Q1015 NOSIG",
      "tafRaw": "TAF LMML 111100Z 1112/1212 30021G32KT 9999 FEW020 \n  PROB30 \n  TEMPO 1112/1118 8000 SHRA BKN020TCU \n  BECMG 1118/1121 34020KT \n  BECMG 1209/1212 34010KT",
      "metarHtml": "METAR LMML 111145Z 29018G30KT 9999 FEW030TCU 12/07 Q1015 NOSIG",
      "tafHtml": "TAF LMML 111100Z 1112/1212 30021G32KT 9999 FEW020 \n  PROB30 \n  TEMPO 1112/1118 8000 <span class=\"hl\">SHRA</span> BKN020TCU \n  BECMG 1118/1121 34020KT \n  BECMG 1209/1212 34010KT"
    },
    {
      "icao": "LEXJ",
      "iata": "SDR",
      "name": "Seve Ballesteros-Santander Airport",
      "updatedAt": "111130Z",
      "visibility_m": 10000,
      "taf_visibility_m": 10000,
      "worst_visibility_m": 10000,
      "ceiling_ft": 6500,
      "hazards": [
        "RA"
      ],
      "severityScore": 12,
      "metarRaw": "METAR LEXJ 111130Z 24009KT 170V280 9999 BKN065 BKN073 15/07 Q1021",
      "tafRaw": "TAF LEXJ 110800Z 1109/1209 22009KT 9999 FEW040 SCT070 TX16/1113Z TN12/1208Z \n  PROB30 \n  TEMPO 1109/1110 RA \n  TEMPO 1109/1117 22015G25KT \n  TEMPO 1117/1209 22018G30KT",
      "metarHtml": "METAR LEXJ 111130Z 24009KT 170V280 9999 BKN065 BKN073 15/07 Q1021",
      "tafHtml": "TAF LEXJ 110800Z 1109/1209 22009KT 9999 FEW040 SCT070 TX16/1113Z TN12/1208Z \n  PROB30 \n  TEMPO 1109/1110 <span class=\"hl\">RA</span> \n  TEMPO 1109/1117 22015G25KT \n  TEMPO 1117/1209 22018G30KT"
    },
    {
      "icao": "LFPO",
      "iata": "ORY",
      "name": "Paris-Orly Airport",
      "updatedAt": "111130Z",
      "visibility_m": 10000,
      "taf_visibility_m": 4000,
      "worst_visibility_m": 4000,
      "ceiling_ft": null,
      "hazards": [
        "RA"
      ],
      "severityScore": 12,
      "metarRaw": "METAR LFPO 111130Z AUTO 18008KT 9999 FEW017 04/M01 Q1023",
      "tafRaw": "TAF LFPO 110500Z 1106/1212 19005KT CAVOK \n  BECMG 1121/1122 18012G22KT 4500 -RA \n  BECMG 1122/1124 9999 NSW BKN008 \n  TEMPO 1200/1208 4000 -RA \n  BECMG 1208/1209 SCT030 BKN050",
      "metarHtml": "METAR LFPO 111130Z AUTO 18008KT 9999 FEW017 04/M01 Q1023",
      "tafHtml": "TAF LFPO 110500Z 1106/1212 19005KT <span class=\"hl-vis\">CAVOK</span> \n  BECMG 1121/1122 18012G22KT 4500 -<span class=\"hl\">RA</span> \n  BECMG 1122/1124 9999 NSW BKN008 \n  TEMPO 1200/1208 4000 -<span class=\"hl\">RA</span> \n  BECMG 1208/1209 SCT030 BKN050"
    },
    {
      "icao": "GCFV",
      "iata": "FUE",
      "name": "Fuerteventura Airport",
      "updatedAt": "111130Z",
      "visibility_m": 10000,
      "taf_visibility_m": 3000,
      "worst_visibility_m": 3000,
      "ceiling_ft": null,
      "hazards": [
        "BR"
      ],
      "severityScore": 10,
      "metarRaw": "METAR GCFV 111130Z 06010KT 9999 FEW025 20/13 Q1026",
      "tafRaw": "TAF GCFV 110800Z 1109/1209 05010KT 9999 FEW020 TX20/1114Z TN13/1206Z \n  PROB30 \n  TEMPO 1110/1117 11007KT \n  PROB30 \n  TEMPO 1206/1209 3000 BR BKN005",
      "metarHtml": "METAR GCFV 111130Z 06010KT 9999 FEW025 20/13 Q1026",
      "tafHtml": "TAF GCFV 110800Z 1109/1209 05010KT 9999 FEW020 TX20/1114Z TN13/1206Z \n  PROB30 \n  TEMPO 1110/1117 11007KT \n  PROB30 \n  TEMPO 1206/1209 3000 <span class=\"hl\">BR</span> BKN005"
    },
    {
      "icao": "ESSA",
      "iata": "ARN",
      "name": "Stockholm-Arlanda Airport",
      "updatedAt": "111120Z",
      "visibility_m": 10000,
      "taf_visibility_m": 3500,
      "worst_visibility_m": 3500,
      "ceiling_ft": null,
      "hazards": [
        "SHSN"
      ],
      "severityScore": 10,
      "metarRaw": "METAR ESSA 111120Z 33015KT CAVOK M06/M08 Q1017 NOSIG",
      "tafRaw": "TAF ESSA 111130Z 1112/1212 33014KT CAVOK \n  PROB40 1113/1123 3500 -SHSN SCT020TCU \n  PROB40 1123/1206 BKN012 \n  BECMG 1200/1202 34003KT",
      "metarHtml": "METAR ESSA 111120Z 33015KT <span class=\"hl-vis\">CAVOK</span> M06/M08 Q1017 NOSIG",
      "tafHtml": "TAF ESSA 111130Z 1112/1212 33014KT <span class=\"hl-vis\">CAVOK</span> \n  PROB40 1113/1123 3500 -<span class=\"hl\">SHSN</span> SCT020TCU \n  PROB40 1123/1206 BKN012 \n  BECMG 1200/1202 34003KT"
    },
    {
      "icao": "LEZL",
      "iata": "SVQ",
      "name": "Sevilla Airport",
      "updatedAt": "111130Z",
      "visibility_m": 10000,
      "taf_visibility_m": 3000,
      "worst_visibility_m": 3000,
      "ceiling_ft": null,
      "hazards": [
        "BR"
      ],
      "severityScore": 10,
      "metarRaw": "METAR LEZL 111130Z 04006KT 010V070 CAVOK 12/07 Q1028 NOSIG",
      "tafRaw": "TAF LEZL 110800Z 1109/1209 06004KT CAVOK TX16/1115Z TN05/1207Z \n  PROB30 \n  TEMPO 1202/1209 3000 BR",
      "metarHtml": "METAR LEZL 111130Z 04006KT 010V070 <span class=\"hl-vis\">CAVOK</span> 12/07 Q1028 NOSIG",
      "tafHtml": "TAF LEZL 110800Z 1109/1209 06004KT <span class=\"hl-vis\">CAVOK</span> TX16/1115Z TN05/1207Z \n  PROB30 \n  TEMPO 1202/1209 3000 <span class=\"hl\">BR</span>"
    },
    {
      "icao": "LHDC",
      "iata": "DEB",
      "name": "Debrecen International Airport",
      "updatedAt": null,
      "visibility_m": null,
      "taf_visibility_m": 10000,
      "worst_visibility_m": 10000,
      "ceiling_ft": null,
      "hazards": [
        "SHSN"
      ],
      "severityScore": 10,
      "metarRaw": null,
      "tafRaw": "TAF LHDC 111115Z 1112/1121 21007KT CAVOK \n  PROB30 \n  TEMPO 1112/1118 SHSN",
      "metarHtml": null,
      "tafHtml": "TAF LHDC 111115Z 1112/1121 21007KT <span class=\"hl-vis\">CAVOK</span> \n  PROB30 \n  TEMPO 1112/1118 <span class=\"hl\">SHSN</span>"
    },
    {
      "icao": "LPFR",
      "iata": "FAO",
      "name": "Faro Airport",
      "updatedAt": "111130Z",
      "visibility_m": 10000,
      "taf_visibility_m": 3000,
      "worst_visibility_m": 3000,
      "ceiling_ft": null,
      "hazards": [
        "BR"
      ],
      "severityScore": 10,
      "metarRaw": "METAR LPFR 111130Z VRB02KT 9999 FEW020 15/09 Q1029",
      "tafRaw": "TAF LPFR 111106Z 1112/1212 VRB05KT CAVOK \n  BECMG 1112/1114 21007KT \n  BECMG 1116/1118 VRB02KT \n  BECMG 1120/1122 01005KT \n  BECMG 1202/1204 05007KT 9999 SCT008 \n  PROB30 \n  TEMPO 1205/1210 3000 BR BKN003",
      "metarHtml": "METAR LPFR 111130Z VRB02KT 9999 FEW020 15/09 Q1029",
      "tafHtml": "TAF LPFR 111106Z 1112/1212 VRB05KT <span class=\"hl-vis\">CAVOK</span> \n  BECMG 1112/1114 21007KT \n  BECMG 1116/1118 VRB02KT \n  BECMG 1120/1122 01005KT \n  BECMG 1202/1204 05007KT 9999 SCT008 \n  PROB30 \n  TEMPO 1205/1210 3000 <span class=\"hl\">BR</span> BKN003"
    },
    {
      "icao": "LRBV",
      "iata": "GHV",
      "name": "Brașov-Ghimbav International Airport",
      "updatedAt": "111130Z",
      "visibility_m": 10000,
      "taf_visibility_m": 5000,
      "worst_visibility_m": 5000,
      "ceiling_ft": 3100,
      "hazards": [
        "SHSN"
      ],
      "severityScore": 10,
      "metarRaw": "METAR LRBV 111130Z 30014KT 9999 BKN031 BKN062 M05/M11 Q1010",
      "tafRaw": "TAF LRBV 111100Z 1112/1121 30015KT 9999 BKN025 BKN050 \n  PROB40 \n  TEMPO 1115/1118 5000 SHSN SCT035CB",
      "metarHtml": "METAR LRBV 111130Z 30014KT 9999 BKN031 BKN062 M05/M11 Q1010",
      "tafHtml": "TAF LRBV 111100Z 1112/1121 30015KT 9999 BKN025 BKN050 \n  PROB40 \n  TEMPO 1115/1118 5000 <span class=\"hl\">SHSN</span> SCT035CB"
    },
    {
      "icao": "OEJN",
      "iata": "JED",
      "name": "King Abdulaziz International Airport",
      "updatedAt": "111100Z",
      "visibility_m": 7000,
      "taf_visibility_m": 3000,
      "worst_visibility_m": 3000,
      "ceiling_ft": null,
      "hazards": [
        "BR"
      ],
      "severityScore": 10,
      "metarRaw": "METAR OEJN 111100Z 22007KT 7000 NSC 31/08 Q1013 NOSIG",
      "tafRaw": "TAF OEJN 111100Z 1112/1218 22010KT 7000 FEW040 \n  PROB30 \n  TEMPO 1112/1118 3000 DU \n  BECMG 1118/1120 VRB03KT \n  PROB30 \n  TEMPO 1200/1205 3000 BR \n  BECMG 1208/1210 30010KT",
      "metarHtml": "METAR OEJN 111100Z 22007KT 7000 NSC 31/08 Q1013 NOSIG",
      "tafHtml": "TAF OEJN 111100Z 1112/1218 22010KT 7000 FEW040 \n  PROB30 \n  TEMPO 1112/1118 3000 DU \n  BECMG 1118/1120 VRB03KT \n  PROB30 \n  TEMPO 1200/1205 3000 <span class=\"hl\">BR</span> \n  BECMG 1208/1210 30010KT"
    },
    {
      "icao": "UDSG",
      "iata": "LWN",
      "name": "Shirak International Airport",
      "updatedAt": "111130Z",
      "visibility_m": 10000,
      "taf_visibility_m": 3000,
      "worst_visibility_m": 3000,
      "ceiling_ft": 4300,
      "hazards": [
        "BR"
      ],
      "severityScore": 10,
      "metarRaw": "METAR UDSG 111130Z 02001KT 9999 BKN043 M03/M09 Q1020 NOSIG",
      "tafRaw": "TAF UDSG 111058Z 1112/1212 VRB06KT 9999 SCT040 \n  TEMPO 1113/1124 36016KT 3000 BR BKN030",
      "metarHtml": "METAR UDSG 111130Z 02001KT 9999 BKN043 M03/M09 Q1020 NOSIG",
      "tafHtml": "TAF UDSG 111058Z 1112/1212 VRB06KT 9999 SCT040 \n  TEMPO 1113/1124 36016KT 3000 <span class=\"hl\">BR</span> BKN030"
    },
    {
      "icao": "EHBK",
      "iata": "MST",
      "name": "Maastricht Aachen Airport",
      "updatedAt": "111125Z",
      "visibility_m": 10000,
      "taf_visibility_m": null,
      "worst_visibility_m": 10000,
      "ceiling_ft": null,
      "hazards": [],
      "severityScore": 5,
      "metarRaw": "METAR EHBK 111125Z AUTO 18010KT 150V210 9999 OVC012/// M01/M03 Q1023 NOSIG",
      "tafRaw": null,
      "metarHtml": "METAR EHBK 111125Z AUTO 18010KT 150V210 9999 OVC012/// M01/M03 Q1023 NOSIG",
      "tafHtml": null
    },
    {
      "icao": "ENTO",
      "iata": "TRF",
      "name": "Sandefjord Airport, Torp",
      "updatedAt": "111120Z",
      "visibility_m": 10000,
      "taf_visibility_m": null,
      "worst_visibility_m": 10000,
      "ceiling_ft": null,
      "hazards": [],
      "severityScore": 5,
      "metarRaw": "METAR ENTO 111120Z 02006KT 9999 SCT010 M15/M18 Q1024 NOSIG",
      "tafRaw": null,
      "metarHtml": "METAR ENTO 111120Z 02006KT 9999 SCT010 M15/M18 Q1024 NOSIG",
      "tafHtml": null
    },
    {
      "icao": "ENZV",
      "iata": "SVG",
      "name": "Stavanger Airport, Sola",
      "updatedAt": "111120Z",
      "visibility_m": 10000,
      "taf_visibility_m": null,
      "worst_visibility_m": 10000,
      "ceiling_ft": null,
      "hazards": [],
      "severityScore": 5,
      "metarRaw": "METAR ENZV 111120Z 14020KT 9999 FEW030 SCT045 00/M06 Q1018 NOSIG",
      "tafRaw": null,
      "metarHtml": "METAR ENZV 111120Z 14020KT 9999 FEW030 SCT045 00/M06 Q1018 NOSIG",
      "tafHtml": null
    },
    {
      "icao": "LECH",
      "iata": "CDT",
      "name": "Castellón-Costa Azahar Airport",
      "updatedAt": "111130Z",
      "visibility_m": 10000,
      "taf_visibility_m": null,
      "worst_visibility_m": 10000,
      "ceiling_ft": null,
      "hazards": [],
      "severityScore": 5,
      "metarRaw": "METAR LECH 111130Z AUTO 24004KT 190V290 CAVOK 12/M00 Q1025",
      "tafRaw": null,
      "metarHtml": "METAR LECH 111130Z AUTO 24004KT 190V290 <span class=\"hl-vis\">CAVOK</span> 12/M00 Q1025",
      "tafHtml": null
    },
    {
      "icao": "BIKF",
      "iata": "KEF",
      "name": "Keflavik International Airport",
      "updatedAt": "111130Z",
      "visibility_m": 10000,
      "taf_visibility_m": 10000,
      "worst_visibility_m": 10000,
      "ceiling_ft": null,
      "hazards": [],
      "severityScore": 0,
      "metarRaw": "METAR BIKF 111130Z 01015KT 9999 FEW035 SCT150 M02/M07 Q0996",
      "tafRaw": "TAF BIKF 111055Z 1112/1212 36013KT 9999 FEW030 TX00/1203Z TNM02/1212Z \n  BECMG 1120/1122 02025G35KT",
      "metarHtml": "METAR BIKF 111130Z 01015KT 9999 FEW035 SCT150 M02/M07 Q0996",
      "tafHtml": "TAF BIKF 111055Z 1112/1212 36013KT 9999 FEW030 TX00/1203Z TNM02/1212Z \n  BECMG 1120/1122 02025G35KT"
    },
    {
      "icao": "BKPR",
      "iata": "PRN",
      "name": "Priština Adem Jashari International Airport",
      "updatedAt": "111130Z",
      "visibility_m": 10000,
      "taf_visibility_m": 10000,
      "worst_visibility_m": 10000,
      "ceiling_ft": 3500,
      "hazards": [],
      "severityScore": 0,
      "metarRaw": "METAR BKPR 111130Z 02014KT 9999 BKN035 M03/M07 Q1013 NOSIG",
      "tafRaw": "TAF BKPR 111130Z 1112/1212 35008KT 9999 SCT010 BKN030 \n  TEMPO 1112/1117 36018KT",
      "metarHtml": "METAR BKPR 111130Z 02014KT 9999 BKN035 M03/M07 Q1013 NOSIG",
      "tafHtml": "TAF BKPR 111130Z 1112/1212 35008KT 9999 SCT010 BKN030 \n  TEMPO 1112/1117 36018KT"
    },
    {
      "icao": "GCLP",
      "iata": "LPA",
      "name": "Gran Canaria Airport",
      "updatedAt": "111130Z",
      "visibility_m": 10000,
      "taf_visibility_m": 10000,
      "worst_visibility_m": 10000,
      "ceiling_ft": null,
      "hazards": [],
      "severityScore": 0,
      "metarRaw": "METAR GCLP 111130Z 04011KT 9999 FEW035 20/13 Q1026 NOSIG",
      "tafRaw": "TAF GCLP 110800Z 1109/1209 03014KT 9999 FEW025 TX21/1114Z TN14/1206Z \n  BECMG 1118/1120 33007KT",
      "metarHtml": "METAR GCLP 111130Z 04011KT 9999 FEW035 20/13 Q1026 NOSIG",
      "tafHtml": "TAF GCLP 110800Z 1109/1209 03014KT 9999 FEW025 TX21/1114Z TN14/1206Z \n  BECMG 1118/1120 33007KT"
    },
    {
      "icao": "GCTS",
      "iata": "TFS",
      "name": "Tenerife Sur Airport",
      "updatedAt": "111130Z",
      "visibility_m": 10000,
      "taf_visibility_m": 10000,
      "worst_visibility_m": 10000,
      "ceiling_ft": null,
      "hazards": [],
      "severityScore": 0,
      "metarRaw": "METAR GCTS 111130Z 08017KT 040V110 9999 FEW040 21/10 Q1026 NOSIG",
      "tafRaw": "TAF GCTS 110800Z 1109/1209 09015KT 9999 SCT040 TX23/1114Z TN16/1206Z \n  PROB30 \n  TEMPO 1109/1111 03009KT \n  BECMG 1119/1121 03009KT",
      "metarHtml": "METAR GCTS 111130Z 08017KT 040V110 9999 FEW040 21/10 Q1026 NOSIG",
      "tafHtml": "TAF GCTS 110800Z 1109/1209 09015KT 9999 SCT040 TX23/1114Z TN16/1206Z \n  PROB30 \n  TEMPO 1109/1111 03009KT \n  BECMG 1119/1121 03009KT"
    },
    {
      "icao": "GMAD",
      "iata": "AGA",
      "name": "Al Massira Airport",
      "updatedAt": "111130Z",
      "visibility_m": 10000,
      "taf_visibility_m": 10000,
      "worst_visibility_m": 10000,
      "ceiling_ft": null,
      "hazards": [],
      "severityScore": 0,
      "metarRaw": "METAR GMAD 111130Z 05007KT CAVOK 17/09 Q1025 NOSIG",
      "tafRaw": "TAF GMAD 111100Z 1112/1218 06005KT CAVOK \n  BECMG 1114/1116 27008KT",
      "metarHtml": "METAR GMAD 111130Z 05007KT <span class=\"hl-vis\">CAVOK</span> 17/09 Q1025 NOSIG",
      "tafHtml": "TAF GMAD 111100Z 1112/1218 06005KT <span class=\"hl-vis\">CAVOK</span> \n  BECMG 1114/1116 27008KT"
    },
    {
      "icao": "GMMX",
      "iata": "RAK",
      "name": "Menara Airport",
      "updatedAt": "111130Z",
      "visibility_m": 10000,
      "taf_visibility_m": 10000,
      "worst_visibility_m": 10000,
      "ceiling_ft": null,
      "hazards": [],
      "severityScore": 0,
      "metarRaw": "METAR GMMX 111130Z 26003KT 200V350 CAVOK 14/09 Q1026 NOSIG",
      "tafRaw": "TAF GMMX 111100Z 1112/1218 06006KT CAVOK",
      "metarHtml": "METAR GMMX 111130Z 26003KT 200V350 <span class=\"hl-vis\">CAVOK</span> 14/09 Q1026 NOSIG",
      "tafHtml": "TAF GMMX 111100Z 1112/1218 06006KT <span class=\"hl-vis\">CAVOK</span>"
    },
    {
      "icao": "EDDB",
      "iata": "BER",
      "name": "Berlin Brandenburg Airport",
      "updatedAt": "111120Z",
      "visibility_m": 10000,
      "taf_visibility_m": 10000,
      "worst_visibility_m": 10000,
      "ceiling_ft": null,
      "hazards": [],
      "severityScore": 0,
      "metarRaw": "METAR EDDB 111120Z AUTO 30011KT CAVOK M03/M08 Q1021 NOSIG",
      "tafRaw": "TAF EDDB 111100Z 1112/1212 29011KT CAVOK \n  BECMG 1117/1119 27006KT \n  BECMG 1201/1205 14004KT \n  BECMG 1210/1212 OVC008",
      "metarHtml": "METAR EDDB 111120Z AUTO 30011KT <span class=\"hl-vis\">CAVOK</span> M03/M08 Q1021 NOSIG",
      "tafHtml": "TAF EDDB 111100Z 1112/1212 29011KT <span class=\"hl-vis\">CAVOK</span> \n  BECMG 1117/1119 27006KT \n  BECMG 1201/1205 14004KT \n  BECMG 1210/1212 OVC008"
    },
    {
      "icao": "EDNY",
      "iata": "FDH",
      "name": "Friedrichshafen Airport",
      "updatedAt": "111120Z",
      "visibility_m": 10000,
      "taf_visibility_m": 2000,
      "worst_visibility_m": 2000,
      "ceiling_ft": 2300,
      "hazards": [],
      "severityScore": 0,
      "metarRaw": "METAR EDNY 111120Z COR 03003KT 9999 FEW020 OVC023 M00/M02 Q1025",
      "tafRaw": "TAF EDNY 111100Z 1112/1121 VRB03KT 9999 BKN015 \n  PROB30 \n  TEMPO 1118/1121 2000 BCFG",
      "metarHtml": "METAR EDNY 111120Z COR 03003KT 9999 FEW020 OVC023 M00/M02 Q1025",
      "tafHtml": "TAF EDNY 111100Z 1112/1121 VRB03KT 9999 BKN015 \n  PROB30 \n  TEMPO 1118/1121 2000 BCFG"
    },
    {
      "icao": "EKCH",
      "iata": "CPH",
      "name": "Copenhagen Kastrup Airport",
      "updatedAt": "111120Z",
      "visibility_m": 10000,
      "taf_visibility_m": 10000,
      "worst_visibility_m": 10000,
      "ceiling_ft": null,
      "hazards": [],
      "severityScore": 0,
      "metarRaw": "METAR EKCH 111120Z AUTO 35010KT 9999 NCD M01/M07 Q1022 NOSIG",
      "tafRaw": "TAF EKCH 111127Z 1112/1212 33010KT CAVOK \n  BECMG 1122/1201 08006KT",
      "metarHtml": "METAR EKCH 111120Z AUTO 35010KT 9999 NCD M01/M07 Q1022 NOSIG",
      "tafHtml": "TAF EKCH 111127Z 1112/1212 33010KT <span class=\"hl-vis\">CAVOK</span> \n  BECMG 1122/1201 08006KT"
    },
    {
      "icao": "ENAL",
      "iata": "AES",
      "name": "Ålesund Airport, Vigra",
      "updatedAt": "111120Z",
      "visibility_m": 10000,
      "taf_visibility_m": 10000,
      "worst_visibility_m": 10000,
      "ceiling_ft": null,
      "hazards": [],
      "severityScore": 0,
      "metarRaw": "METAR ENAL 111120Z 14014KT CAVOK 03/M11 Q1014",
      "tafRaw": "TAF ENAL 111100Z 1112/1121 12015KT CAVOK",
      "metarHtml": "METAR ENAL 111120Z 14014KT <span class=\"hl-vis\">CAVOK</span> 03/M11 Q1014",
      "tafHtml": "TAF ENAL 111100Z 1112/1121 12015KT <span class=\"hl-vis\">CAVOK</span>"
    },
    {
      "icao": "ENBR",
      "iata": "BGO",
      "name": "Bergen Airport, Flesland",
      "updatedAt": "111120Z",
      "visibility_m": 10000,
      "taf_visibility_m": 3000,
      "worst_visibility_m": 3000,
      "ceiling_ft": null,
      "hazards": [],
      "severityScore": 0,
      "metarRaw": "METAR ENBR 111120Z 13015KT 9999 FEW046 01/M06 Q1015 NOSIG RMK WIND 1200FT 14032KT",
      "tafRaw": "TAF ENBR 111100Z 1112/1212 13012KT 9999 SCT045 \n  TEMPO 1112/1115 14015G25KT \n  BECMG 1115/1118 13022KT \n  TEMPO 1115/1206 13025G35KT \n  TEMPO 1206/1212 13030G45KT \n  PROB30 \n  TEMPO 1203/1208 3000 SNRA VV014",
      "metarHtml": "METAR ENBR 111120Z 13015KT 9999 FEW046 01/M06 Q1015 NOSIG RMK WIND 1200FT 14032KT",
      "tafHtml": "TAF ENBR 111100Z 1112/1212 13012KT 9999 SCT045 \n  TEMPO 1112/1115 14015G25KT \n  BECMG 1115/1118 13022KT \n  TEMPO 1115/1206 13025G35KT \n  TEMPO 1206/1212 13030G45KT \n  PROB30 \n  TEMPO 1203/1208 3000 SNRA VV014"
    },
    {
      "icao": "ENHD",
      "iata": "HAU",
      "name": "Haugesund Airport, Karmøy",
      "updatedAt": "111120Z",
      "visibility_m": 10000,
      "taf_visibility_m": 10000,
      "worst_visibility_m": 10000,
      "ceiling_ft": 4000,
      "hazards": [],
      "severityScore": 0,
      "metarRaw": "METAR ENHD 111120Z 13023KT 9999 BKN040 01/M05 Q1017",
      "tafRaw": "TAF ENHD 111100Z 1112/1121 13025KT 9999 BKN040 \n  PROB40 \n  TEMPO 1112/1114 14025G35KT \n  BECMG 1114/1116 14030G45KT",
      "metarHtml": "METAR ENHD 111120Z 13023KT 9999 BKN040 01/M05 Q1017",
      "tafHtml": "TAF ENHD 111100Z 1112/1121 13025KT 9999 BKN040 \n  PROB40 \n  TEMPO 1112/1114 14025G35KT \n  BECMG 1114/1116 14030G45KT"
    },
    {
      "icao": "ENTC",
      "iata": "TOS",
      "name": "Tromsø Airport, Langnes",
      "updatedAt": "111120Z",
      "visibility_m": 10000,
      "taf_visibility_m": 10000,
      "worst_visibility_m": 10000,
      "ceiling_ft": null,
      "hazards": [],
      "severityScore": 0,
      "metarRaw": "METAR ENTC 111120Z VRB02KT CAVOK M11/M14 Q1020 NOSIG RMK WIND 2600FT 18020KT",
      "tafRaw": "TAF ENTC 111100Z 1112/1212 20005KT CAVOK",
      "metarHtml": "METAR ENTC 111120Z VRB02KT <span class=\"hl-vis\">CAVOK</span> M11/M14 Q1020 NOSIG RMK WIND 2600FT 18020KT",
      "tafHtml": "TAF ENTC 111100Z 1112/1212 20005KT <span class=\"hl-vis\">CAVOK</span>"
    },
    {
      "icao": "ENVA",
      "iata": "TRD",
      "name": "Trondheim Airport, Værnes",
      "updatedAt": "111120Z",
      "visibility_m": 10000,
      "taf_visibility_m": 10000,
      "worst_visibility_m": 10000,
      "ceiling_ft": null,
      "hazards": [],
      "severityScore": 0,
      "metarRaw": "METAR ENVA 111120Z 12005KT CAVOK M08/M14 Q1019 NOSIG RMK WIND 670FT 12008KT",
      "tafRaw": "TAF ENVA 111100Z 1112/1212 10008KT CAVOK \n  PROB40 \n  TEMPO 1118/1124 15015G25KT \n  BECMG 1204/1206 12018KT \n  TEMPO 1205/1212 15020G30KT",
      "metarHtml": "METAR ENVA 111120Z 12005KT <span class=\"hl-vis\">CAVOK</span> M08/M14 Q1019 NOSIG RMK WIND 670FT 12008KT",
      "tafHtml": "TAF ENVA 111100Z 1112/1212 10008KT <span class=\"hl-vis\">CAVOK</span> \n  PROB40 \n  TEMPO 1118/1124 15015G25KT \n  BECMG 1204/1206 12018KT \n  TEMPO 1205/1212 15020G30KT"
    },
    {
      "icao": "ESGG",
      "iata": "GOT",
      "name": "Göteborg Landvetter Airport",
      "updatedAt": "111120Z",
      "visibility_m": 10000,
      "taf_visibility_m": 10000,
      "worst_visibility_m": 10000,
      "ceiling_ft": null,
      "hazards": [],
      "severityScore": 0,
      "metarRaw": "METAR ESGG 111120Z 02002KT CAVOK M09/M11 Q1022",
      "tafRaw": "TAF ESGG 111130Z 1112/1212 03005KT CAVOK \n  PROB40 1112/1113 BKN003",
      "metarHtml": "METAR ESGG 111120Z 02002KT <span class=\"hl-vis\">CAVOK</span> M09/M11 Q1022",
      "tafHtml": "TAF ESGG 111130Z 1112/1212 03005KT <span class=\"hl-vis\">CAVOK</span> \n  PROB40 1112/1113 BKN003"
    },
    {
      "icao": "ESKN",
      "iata": "NYO",
      "name": "Stockholm Skavsta Airport",
      "updatedAt": "111120Z",
      "visibility_m": 10000,
      "taf_visibility_m": 10000,
      "worst_visibility_m": 10000,
      "ceiling_ft": null,
      "hazards": [],
      "severityScore": 0,
      "metarRaw": "METAR ESKN 111120Z 32012KT CAVOK M07/M09 Q1018",
      "tafRaw": "TAF ESKN 111130Z 1112/1212 33013KT CAVOK \n  PROB40 1200/1205 BKN007",
      "metarHtml": "METAR ESKN 111120Z 32012KT <span class=\"hl-vis\">CAVOK</span> M07/M09 Q1018",
      "tafHtml": "TAF ESKN 111130Z 1112/1212 33013KT <span class=\"hl-vis\">CAVOK</span> \n  PROB40 1200/1205 BKN007"
    },
    {
      "icao": "ESMS",
      "iata": "MMX",
      "name": "Malmö Sturup Airport",
      "updatedAt": "111120Z",
      "visibility_m": 10000,
      "taf_visibility_m": 10000,
      "worst_visibility_m": 10000,
      "ceiling_ft": null,
      "hazards": [],
      "severityScore": 0,
      "metarRaw": "METAR ESMS 111120Z 32010KT CAVOK M06/M10 Q1020",
      "tafRaw": "TAF ESMS 111127Z 1112/1212 32010KT CAVOK \n  BECMG 1202/1205 09004KT",
      "metarHtml": "METAR ESMS 111120Z 32010KT <span class=\"hl-vis\">CAVOK</span> M06/M10 Q1020",
      "tafHtml": "TAF ESMS 111127Z 1112/1212 32010KT <span class=\"hl-vis\">CAVOK</span> \n  BECMG 1202/1205 09004KT"
    },
    {
      "icao": "HEGN",
      "iata": "HRG",
      "name": "Hurghada International Airport",
      "updatedAt": "111100Z",
      "visibility_m": 10000,
      "taf_visibility_m": 10000,
      "worst_visibility_m": 10000,
      "ceiling_ft": null,
      "hazards": [],
      "severityScore": 0,
      "metarRaw": "METAR HEGN 111100Z 01004KT CAVOK 23/06 Q1016 NOSIG",
      "tafRaw": "TAF HEGN 111100Z 1112/1218 36013KT CAVOK",
      "metarHtml": "METAR HEGN 111100Z 01004KT <span class=\"hl-vis\">CAVOK</span> 23/06 Q1016 NOSIG",
      "tafHtml": "TAF HEGN 111100Z 1112/1218 36013KT <span class=\"hl-vis\">CAVOK</span>"
    },
    {
      "icao": "HEMA",
      "iata": "RMF",
      "name": "Marsa Alam International Airport",
      "updatedAt": "111100Z",
      "visibility_m": 10000,
      "taf_visibility_m": 10000,
      "worst_visibility_m": 10000,
      "ceiling_ft": null,
      "hazards": [],
      "severityScore": 0,
      "metarRaw": "METAR HEMA 111100Z 33009KT CAVOK 23/13 Q1017 NOSIG",
      "tafRaw": "TAF HEMA 111100Z 1112/1218 36015KT CAVOK",
      "metarHtml": "METAR HEMA 111100Z 33009KT <span class=\"hl-vis\">CAVOK</span> 23/13 Q1017 NOSIG",
      "tafHtml": "TAF HEMA 111100Z 1112/1218 36015KT <span class=\"hl-vis\">CAVOK</span>"
    },
    {
      "icao": "HESH",
      "iata": "SSH",
      "name": "Sharm El Sheikh International Airport",
      "updatedAt": "111100Z",
      "visibility_m": 10000,
      "taf_visibility_m": 10000,
      "worst_visibility_m": 10000,
      "ceiling_ft": null,
      "hazards": [],
      "severityScore": 0,
      "metarRaw": "METAR HESH 111100Z 35005KT CAVOK 24/06 Q1017 NOSIG",
      "tafRaw": "TAF HESH 111100Z 1112/1218 01012KT CAVOK",
      "metarHtml": "METAR HESH 111100Z 35005KT <span class=\"hl-vis\">CAVOK</span> 24/06 Q1017 NOSIG",
      "tafHtml": "TAF HESH 111100Z 1112/1218 01012KT <span class=\"hl-vis\">CAVOK</span>"
    },
    {
      "icao": "HESX",
      "iata": "SPX",
      "name": "Sphinx International Airport",
      "updatedAt": "111100Z",
      "visibility_m": 10000,
      "taf_visibility_m": 4000,
      "worst_visibility_m": 4000,
      "ceiling_ft": null,
      "hazards": [],
      "severityScore": 0,
      "metarRaw": "METAR HESX 111100Z 26005KT CAVOK 19/06 Q1018 NOSIG",
      "tafRaw": "TAF HESX 111100Z 1112/1218 22010KT 9999 FEW020 \n  TEMPO 1112/1118 24010G20KT 4000 SA NSC",
      "metarHtml": "METAR HESX 111100Z 26005KT <span class=\"hl-vis\">CAVOK</span> 19/06 Q1018 NOSIG",
      "tafHtml": "TAF HESX 111100Z 1112/1218 22010KT 9999 FEW020 \n  TEMPO 1112/1118 24010G20KT 4000 SA NSC"
    },
    {
      "icao": "LATI",
      "iata": "TIA",
      "name": "Tirana International Airport Mother Teresa",
      "updatedAt": "111120Z",
      "visibility_m": 10000,
      "taf_visibility_m": 10000,
      "worst_visibility_m": 10000,
      "ceiling_ft": null,
      "hazards": [],
      "severityScore": 0,
      "metarRaw": "METAR LATI 111120Z 32010KT CAVOK 10/01 Q1009 NOSIG",
      "tafRaw": "TAF LATI 111100Z 1112/1212 34012KT CAVOK TX12/1112Z TNM04/1205Z \n  BECMG 1117/1119 VRB05KT",
      "metarHtml": "METAR LATI 111120Z 32010KT <span class=\"hl-vis\">CAVOK</span> 10/01 Q1009 NOSIG",
      "tafHtml": "TAF LATI 111100Z 1112/1212 34012KT <span class=\"hl-vis\">CAVOK</span> TX12/1112Z TNM04/1205Z \n  BECMG 1117/1119 VRB05KT"
    },
    {
      "icao": "LEAL",
      "iata": "ALC",
      "name": "Alicante-Elche Miguel Hernández Airport",
      "updatedAt": "111130Z",
      "visibility_m": 10000,
      "taf_visibility_m": 10000,
      "worst_visibility_m": 10000,
      "ceiling_ft": null,
      "hazards": [],
      "severityScore": 0,
      "metarRaw": "METAR LEAL 111130Z 30005KT 260V340 CAVOK 17/00 Q1025 NOSIG",
      "tafRaw": "TAF LEAL 111100Z 1112/1212 28008KT CAVOK TX16/1113Z TN07/1206Z \n  TEMPO 1112/1119 10007KT",
      "metarHtml": "METAR LEAL 111130Z 30005KT 260V340 <span class=\"hl-vis\">CAVOK</span> 17/00 Q1025 NOSIG",
      "tafHtml": "TAF LEAL 111100Z 1112/1212 28008KT <span class=\"hl-vis\">CAVOK</span> TX16/1113Z TN07/1206Z \n  TEMPO 1112/1119 10007KT"
    },
    {
      "icao": "LEBB",
      "iata": "BIO",
      "name": "Bilbao Airport",
      "updatedAt": "111130Z",
      "visibility_m": 10000,
      "taf_visibility_m": 10000,
      "worst_visibility_m": 10000,
      "ceiling_ft": null,
      "hazards": [],
      "severityScore": 0,
      "metarRaw": "METAR LEBB 111130Z 16004KT 090V220 9999 SCT042 SCT055 14/06 Q1022 NOSIG",
      "tafRaw": "TAF LEBB 111100Z 1112/1212 18008KT 9999 FEW040 TX14/1114Z TN12/1207Z \n  TEMPO 1112/1212 20015G25KT \n  TEMPO 1118/1212 20020G35KT",
      "metarHtml": "METAR LEBB 111130Z 16004KT 090V220 9999 SCT042 SCT055 14/06 Q1022 NOSIG",
      "tafHtml": "TAF LEBB 111100Z 1112/1212 18008KT 9999 FEW040 TX14/1114Z TN12/1207Z \n  TEMPO 1112/1212 20015G25KT \n  TEMPO 1118/1212 20020G35KT"
    },
    {
      "icao": "LEBL",
      "iata": "BCN",
      "name": "Josep Tarradellas Barcelona-El Prat Airport",
      "updatedAt": "111130Z",
      "visibility_m": 10000,
      "taf_visibility_m": 10000,
      "worst_visibility_m": 10000,
      "ceiling_ft": null,
      "hazards": [],
      "severityScore": 0,
      "metarRaw": "METAR LEBL 111130Z 35009G19KT 320V020 9999 FEW060 11/03 Q1024 NOSIG",
      "tafRaw": "TAF LEBL 111100Z 1112/1212 33010KT 9999 FEW020 TX13/1113Z TN05/1206Z \n  TEMPO 1112/1115 VRB04KT \n  TEMPO 1114/1117 22009KT \n  TEMPO 1116/1120 VRB04KT \n  BECMG 1119/1121 35005KT \n  BECMG 1210/1212 22010KT",
      "metarHtml": "METAR LEBL 111130Z 35009G19KT 320V020 9999 FEW060 11/03 Q1024 NOSIG",
      "tafHtml": "TAF LEBL 111100Z 1112/1212 33010KT 9999 FEW020 TX13/1113Z TN05/1206Z \n  TEMPO 1112/1115 VRB04KT \n  TEMPO 1114/1117 22009KT \n  TEMPO 1116/1120 VRB04KT \n  BECMG 1119/1121 35005KT \n  BECMG 1210/1212 22010KT"
    },
    {
      "icao": "LEMG",
      "iata": "AGP",
      "name": "Málaga-Costa del Sol Airport",
      "updatedAt": "111130Z",
      "visibility_m": 10000,
      "taf_visibility_m": 10000,
      "worst_visibility_m": 10000,
      "ceiling_ft": null,
      "hazards": [],
      "severityScore": 0,
      "metarRaw": "METAR LEMG 111130Z 27007KT 240V300 CAVOK 14/04 Q1027 NOSIG",
      "tafRaw": "TAF LEMG 111100Z 1112/1212 26006KT CAVOK TX17/1114Z TN07/1207Z",
      "metarHtml": "METAR LEMG 111130Z 27007KT 240V300 <span class=\"hl-vis\">CAVOK</span> 14/04 Q1027 NOSIG",
      "tafHtml": "TAF LEMG 111100Z 1112/1212 26006KT <span class=\"hl-vis\">CAVOK</span> TX17/1114Z TN07/1207Z"
    },
    {
      "icao": "LEVC",
      "iata": "VLC",
      "name": "Valencia Airport",
      "updatedAt": "111130Z",
      "visibility_m": 10000,
      "taf_visibility_m": 10000,
      "worst_visibility_m": 10000,
      "ceiling_ft": null,
      "hazards": [],
      "severityScore": 0,
      "metarRaw": "METAR LEVC 111130Z 21004KT 160V270 CAVOK 14/01 Q1025 NOSIG",
      "tafRaw": "TAF LEVC 111100Z 1112/1212 27008KT CAVOK TX16/1114Z TN05/1206Z \n  TEMPO 1112/1119 14007KT",
      "metarHtml": "METAR LEVC 111130Z 21004KT 160V270 <span class=\"hl-vis\">CAVOK</span> 14/01 Q1025 NOSIG",
      "tafHtml": "TAF LEVC 111100Z 1112/1212 27008KT <span class=\"hl-vis\">CAVOK</span> TX16/1114Z TN05/1206Z \n  TEMPO 1112/1119 14007KT"
    },
    {
      "icao": "LEZG",
      "iata": "ZAZ",
      "name": "Zaragoza Airport",
      "updatedAt": "111130Z",
      "visibility_m": 10000,
      "taf_visibility_m": 10000,
      "worst_visibility_m": 10000,
      "ceiling_ft": null,
      "hazards": [],
      "severityScore": 0,
      "metarRaw": "METAR LEZG 111130Z 26008KT 230V300 CAVOK 12/03 Q1025 NOSIG",
      "tafRaw": "TAF LEZG 111100Z 1112/1212 24009KT 9999 FEW050 TX13/1115Z TN04/1206Z \n  PROB40 \n  TEMPO 1112/1115 24015G25KT \n  TEMPO 1114/1118 33006KT \n  TEMPO 1117/1202 24015G25KT \n  TEMPO 1201/1212 VRB04KT",
      "metarHtml": "METAR LEZG 111130Z 26008KT 230V300 <span class=\"hl-vis\">CAVOK</span> 12/03 Q1025 NOSIG",
      "tafHtml": "TAF LEZG 111100Z 1112/1212 24009KT 9999 FEW050 TX13/1115Z TN04/1206Z \n  PROB40 \n  TEMPO 1112/1115 24015G25KT \n  TEMPO 1114/1118 33006KT \n  TEMPO 1117/1202 24015G25KT \n  TEMPO 1201/1212 VRB04KT"
    },
    {
      "icao": "LFLL",
      "iata": "LYS",
      "name": "Lyon Saint-Exupéry Airport",
      "updatedAt": "111130Z",
      "visibility_m": 10000,
      "taf_visibility_m": 10000,
      "worst_visibility_m": 10000,
      "ceiling_ft": null,
      "hazards": [],
      "severityScore": 0,
      "metarRaw": "METAR LFLL 111130Z 34005KT 9999 SCT019 04/M01 Q1024 NOSIG",
      "tafRaw": "TAF LFLL 111100Z 1112/1218 35008KT 9999 SCT020 \n  BECMG 1114/1116 VRB02KT \n  BECMG 1202/1204 18008KT BKN030 \n  BECMG 1210/1212 CAVOK \n  PROB30 \n  TEMPO 1212/1218 18015G25KT",
      "metarHtml": "METAR LFLL 111130Z 34005KT 9999 SCT019 04/M01 Q1024 NOSIG",
      "tafHtml": "TAF LFLL 111100Z 1112/1218 35008KT 9999 SCT020 \n  BECMG 1114/1116 VRB02KT \n  BECMG 1202/1204 18008KT BKN030 \n  BECMG 1210/1212 <span class=\"hl-vis\">CAVOK</span> \n  PROB30 \n  TEMPO 1212/1218 18015G25KT"
    },
    {
      "icao": "LFMN",
      "iata": "NCE",
      "name": "Nice-Côte d'Azur Airport",
      "updatedAt": "111130Z",
      "visibility_m": 10000,
      "taf_visibility_m": 10000,
      "worst_visibility_m": 10000,
      "ceiling_ft": null,
      "hazards": [],
      "severityScore": 0,
      "metarRaw": "METAR LFMN 111130Z 32008KT CAVOK 12/M06 Q1019 NOSIG",
      "tafRaw": "TAF LFMN 110800Z 1109/1215 33010KT CAVOK \n  BECMG 1112/1114 24010KT \n  BECMG 1119/1120 32010KT \n  BECMG 1209/1211 22005KT",
      "metarHtml": "METAR LFMN 111130Z 32008KT <span class=\"hl-vis\">CAVOK</span> 12/M06 Q1019 NOSIG",
      "tafHtml": "TAF LFMN 110800Z 1109/1215 33010KT <span class=\"hl-vis\">CAVOK</span> \n  BECMG 1112/1114 24010KT \n  BECMG 1119/1120 32010KT \n  BECMG 1209/1211 22005KT"
    },
    {
      "icao": "LGAV",
      "iata": "ATH",
      "name": "Athens Eleftherios Venizelos International Airport",
      "updatedAt": "111120Z",
      "visibility_m": 10000,
      "taf_visibility_m": 10000,
      "worst_visibility_m": 10000,
      "ceiling_ft": null,
      "hazards": [],
      "severityScore": 0,
      "metarRaw": "METAR LGAV 111120Z 28015KT 9999 FEW020 13/02 Q1004 NOSIG",
      "tafRaw": "TAF LGAV 111100Z 1112/1212 30013G23KT 9999 SCT025 SCT070 \n  BECMG 1118/1120 34012KT \n  TEMPO 1123/1212 34015G25KT",
      "metarHtml": "METAR LGAV 111120Z 28015KT 9999 FEW020 13/02 Q1004 NOSIG",
      "tafHtml": "TAF LGAV 111100Z 1112/1212 30013G23KT 9999 SCT025 SCT070 \n  BECMG 1118/1120 34012KT \n  TEMPO 1123/1212 34015G25KT"
    },
    {
      "icao": "LGTS",
      "iata": "SKG",
      "name": "Thessaloniki Macedonia International Airport",
      "updatedAt": "111120Z",
      "visibility_m": 10000,
      "taf_visibility_m": 10000,
      "worst_visibility_m": 10000,
      "ceiling_ft": null,
      "hazards": [],
      "severityScore": 0,
      "metarRaw": "METAR LGTS 111120Z 32020G30KT 9999 FEW025 07/01 Q1007 NOSIG",
      "tafRaw": "TAF LGTS 111100Z 1112/1212 34015KT 9999 SCT030 \n  TEMPO 1112/1212 34020G35KT \n  BECMG 1116/1118 FEW025",
      "metarHtml": "METAR LGTS 111120Z 32020G30KT 9999 FEW025 07/01 Q1007 NOSIG",
      "tafHtml": "TAF LGTS 111100Z 1112/1212 34015KT 9999 SCT030 \n  TEMPO 1112/1212 34020G35KT \n  BECMG 1116/1118 FEW025"
    },
    {
      "icao": "LIBD",
      "iata": "BRI",
      "name": "Bari Karol Wojtyła International Airport",
      "updatedAt": "111120Z",
      "visibility_m": 10000,
      "taf_visibility_m": 10000,
      "worst_visibility_m": 10000,
      "ceiling_ft": null,
      "hazards": [],
      "severityScore": 0,
      "metarRaw": "METAR LIBD 111120Z 33013G23KT 300V020 9999 FEW015 10/01 Q1012",
      "tafRaw": "TAF LIBD 111100Z 1112/1212 34018G28KT 9999 FEW040 \n  BECMG 1207/1209 34018KT",
      "metarHtml": "METAR LIBD 111120Z 33013G23KT 300V020 9999 FEW015 10/01 Q1012",
      "tafHtml": "TAF LIBD 111100Z 1112/1212 34018G28KT 9999 FEW040 \n  BECMG 1207/1209 34018KT"
    },
    {
      "icao": "LIBR",
      "iata": "BDS",
      "name": "Brindisi Airport",
      "updatedAt": "111120Z",
      "visibility_m": 10000,
      "taf_visibility_m": 10000,
      "worst_visibility_m": 10000,
      "ceiling_ft": null,
      "hazards": [],
      "severityScore": 0,
      "metarRaw": "METAR LIBR 111120Z 36017KT 9999 FEW045 11/01 Q1010",
      "tafRaw": "TAF LIBR 111100Z 1112/1212 34018G30KT 9999 SCT040 \n  BECMG 1210/1212 34018KT",
      "metarHtml": "METAR LIBR 111120Z 36017KT 9999 FEW045 11/01 Q1010",
      "tafHtml": "TAF LIBR 111100Z 1112/1212 34018G30KT 9999 SCT040 \n  BECMG 1210/1212 34018KT"
    },
    {
      "icao": "LICA",
      "iata": "SUF",
      "name": "Lamezia Terme Sant'Eufemia International Airport",
      "updatedAt": "111120Z",
      "visibility_m": 10000,
      "taf_visibility_m": 10000,
      "worst_visibility_m": 10000,
      "ceiling_ft": null,
      "hazards": [],
      "severityScore": 0,
      "metarRaw": "METAR LICA 111120Z AUTO 27012KT 9999 NCD 12/03 Q1012",
      "tafRaw": "TAF LICA 111100Z 1112/1212 28010KT 9999 FEW030 \n  BECMG 1117/1119 VRB05KT",
      "metarHtml": "METAR LICA 111120Z AUTO 27012KT 9999 NCD 12/03 Q1012",
      "tafHtml": "TAF LICA 111100Z 1112/1212 28010KT 9999 FEW030 \n  BECMG 1117/1119 VRB05KT"
    },
    {
      "icao": "LIMC",
      "iata": "MXP",
      "name": "Milan Malpensa International Airport",
      "updatedAt": "111120Z",
      "visibility_m": 10000,
      "taf_visibility_m": 10000,
      "worst_visibility_m": 10000,
      "ceiling_ft": null,
      "hazards": [],
      "severityScore": 0,
      "metarRaw": "METAR LIMC 111120Z 07010KT CAVOK 11/M10 Q1018 NOSIG",
      "tafRaw": "TAF LIMC 111100Z 1112/1218 01006KT CAVOK",
      "metarHtml": "METAR LIMC 111120Z 07010KT <span class=\"hl-vis\">CAVOK</span> 11/M10 Q1018 NOSIG",
      "tafHtml": "TAF LIMC 111100Z 1112/1218 01006KT <span class=\"hl-vis\">CAVOK</span>"
    },
    {
      "icao": "LIME",
      "iata": "BGY",
      "name": "Milan Bergamo Airport / Antonio Locatelli Air Base",
      "updatedAt": "111120Z",
      "visibility_m": 10000,
      "taf_visibility_m": 10000,
      "worst_visibility_m": 10000,
      "ceiling_ft": null,
      "hazards": [],
      "severityScore": 0,
      "metarRaw": "METAR LIME 111120Z 16006KT CAVOK 08/M04 Q1017 NOSIG",
      "tafRaw": "TAF LIME 111100Z 1112/1212 VRB05KT CAVOK",
      "metarHtml": "METAR LIME 111120Z 16006KT <span class=\"hl-vis\">CAVOK</span> 08/M04 Q1017 NOSIG",
      "tafHtml": "TAF LIME 111100Z 1112/1212 VRB05KT <span class=\"hl-vis\">CAVOK</span>"
    },
    {
      "icao": "LIMF",
      "iata": "TRN",
      "name": "Turin Airport",
      "updatedAt": "111120Z",
      "visibility_m": 10000,
      "taf_visibility_m": 10000,
      "worst_visibility_m": 10000,
      "ceiling_ft": null,
      "hazards": [],
      "severityScore": 0,
      "metarRaw": "METAR LIMF 111120Z VRB02KT CAVOK 08/M07 Q1018",
      "tafRaw": "TAF LIMF 111100Z 1112/1212 VRB05KT CAVOK",
      "metarHtml": "METAR LIMF 111120Z VRB02KT <span class=\"hl-vis\">CAVOK</span> 08/M07 Q1018",
      "tafHtml": "TAF LIMF 111100Z 1112/1212 VRB05KT <span class=\"hl-vis\">CAVOK</span>"
    },
    {
      "icao": "LIMJ",
      "iata": "GOA",
      "name": "Genoa Cristoforo Colombo Airport",
      "updatedAt": "111120Z",
      "visibility_m": 10000,
      "taf_visibility_m": 10000,
      "worst_visibility_m": 10000,
      "ceiling_ft": null,
      "hazards": [],
      "severityScore": 0,
      "metarRaw": "METAR LIMJ 111120Z 36014KT 330V030 CAVOK 12/M12 Q1017",
      "tafRaw": "TAF LIMJ 111100Z 1112/1212 03012KT CAVOK \n  BECMG 1117/1119 VRB05KT",
      "metarHtml": "METAR LIMJ 111120Z 36014KT 330V030 <span class=\"hl-vis\">CAVOK</span> 12/M12 Q1017",
      "tafHtml": "TAF LIMJ 111100Z 1112/1212 03012KT <span class=\"hl-vis\">CAVOK</span> \n  BECMG 1117/1119 VRB05KT"
    },
    {
      "icao": "LIPE",
      "iata": "BLQ",
      "name": "Bologna Guglielmo Marconi Airport",
      "updatedAt": "111120Z",
      "visibility_m": 10000,
      "taf_visibility_m": 10000,
      "worst_visibility_m": 10000,
      "ceiling_ft": null,
      "hazards": [],
      "severityScore": 0,
      "metarRaw": "METAR LIPE 111120Z 28009KT CAVOK 08/M04 Q1018",
      "tafRaw": "TAF LIPE 111100Z 1112/1212 VRB06KT CAVOK",
      "metarHtml": "METAR LIPE 111120Z 28009KT <span class=\"hl-vis\">CAVOK</span> 08/M04 Q1018",
      "tafHtml": "TAF LIPE 111100Z 1112/1212 VRB06KT <span class=\"hl-vis\">CAVOK</span>"
    },
    {
      "icao": "LIPH",
      "iata": "TSF",
      "name": "Treviso Antonio Canova Airport",
      "updatedAt": "111120Z",
      "visibility_m": 10000,
      "taf_visibility_m": 10000,
      "worst_visibility_m": 10000,
      "ceiling_ft": null,
      "hazards": [],
      "severityScore": 0,
      "metarRaw": "METAR LIPH 111120Z VRB02KT CAVOK 06/M00 Q1018",
      "tafRaw": "TAF LIPH 111100Z 1112/1212 VRB05KT CAVOK",
      "metarHtml": "METAR LIPH 111120Z VRB02KT <span class=\"hl-vis\">CAVOK</span> 06/M00 Q1018",
      "tafHtml": "TAF LIPH 111100Z 1112/1212 VRB05KT <span class=\"hl-vis\">CAVOK</span>"
    },
    {
      "icao": "LIPQ",
      "iata": "TRS",
      "name": "Trieste–Friuli Venezia Giulia Airport",
      "updatedAt": "111120Z",
      "visibility_m": 10000,
      "taf_visibility_m": 10000,
      "worst_visibility_m": 10000,
      "ceiling_ft": null,
      "hazards": [],
      "severityScore": 0,
      "metarRaw": "METAR LIPQ 111120Z AUTO 14003KT 9999 BKN230/// 05/M05 Q1018",
      "tafRaw": "TAF LIPQ 111100Z 1112/1212 VRB05KT CAVOK",
      "metarHtml": "METAR LIPQ 111120Z AUTO 14003KT 9999 BKN230/// 05/M05 Q1018",
      "tafHtml": "TAF LIPQ 111100Z 1112/1212 VRB05KT <span class=\"hl-vis\">CAVOK</span>"
    },
    {
      "icao": "LIPR",
      "iata": "RMI",
      "name": "Federico Fellini International Airport",
      "updatedAt": "111120Z",
      "visibility_m": 10000,
      "taf_visibility_m": 10000,
      "worst_visibility_m": 10000,
      "ceiling_ft": 3000,
      "hazards": [],
      "severityScore": 0,
      "metarRaw": "METAR LIPR 111120Z VRB01KT 9999 BKN030 06/M00 Q1018",
      "tafRaw": "TAF LIPR 111100Z 1112/1212 VRB05KT 9999 FEW040",
      "metarHtml": "METAR LIPR 111120Z VRB01KT 9999 BKN030 06/M00 Q1018",
      "tafHtml": "TAF LIPR 111100Z 1112/1212 VRB05KT 9999 FEW040"
    },
    {
      "icao": "LIPX",
      "iata": "VRN",
      "name": "Verona Villafranca Valerio Catullo Airport",
      "updatedAt": "111120Z",
      "visibility_m": 10000,
      "taf_visibility_m": 10000,
      "worst_visibility_m": 10000,
      "ceiling_ft": null,
      "hazards": [],
      "severityScore": 0,
      "metarRaw": "METAR LIPX 111120Z 18003KT 130V290 CAVOK 10/M02 Q1017",
      "tafRaw": "TAF LIPX 111100Z 1112/1212 VRB05KT CAVOK",
      "metarHtml": "METAR LIPX 111120Z 18003KT 130V290 <span class=\"hl-vis\">CAVOK</span> 10/M02 Q1017",
      "tafHtml": "TAF LIPX 111100Z 1112/1212 VRB05KT <span class=\"hl-vis\">CAVOK</span>"
    },
    {
      "icao": "LIPZ",
      "iata": "VCE",
      "name": "Venice Marco Polo Airport",
      "updatedAt": "111120Z",
      "visibility_m": 10000,
      "taf_visibility_m": 10000,
      "worst_visibility_m": 10000,
      "ceiling_ft": null,
      "hazards": [],
      "severityScore": 0,
      "metarRaw": "METAR LIPZ 111120Z 12009KT 9999 FEW025 07/03 Q1018 NOSIG",
      "tafRaw": "TAF LIPZ 111100Z 1112/1218 VRB06KT CAVOK",
      "metarHtml": "METAR LIPZ 111120Z 12009KT 9999 FEW025 07/03 Q1018 NOSIG",
      "tafHtml": "TAF LIPZ 111100Z 1112/1218 VRB06KT <span class=\"hl-vis\">CAVOK</span>"
    },
    {
      "icao": "LIRF",
      "iata": "FCO",
      "name": "Rome–Fiumicino Leonardo da Vinci International Airport",
      "updatedAt": "111120Z",
      "visibility_m": 10000,
      "taf_visibility_m": 10000,
      "worst_visibility_m": 10000,
      "ceiling_ft": null,
      "hazards": [],
      "severityScore": 0,
      "metarRaw": "METAR LIRF 111120Z 05008KT CAVOK 10/00 Q1015 NOSIG",
      "tafRaw": "TAF LIRF 111100Z 1112/1218 02009KT CAVOK \n  BECMG 1112/1114 01016KT \n  BECMG 1121/1123 03008KT \n  BECMG 1210/1212 12010KT",
      "metarHtml": "METAR LIRF 111120Z 05008KT <span class=\"hl-vis\">CAVOK</span> 10/00 Q1015 NOSIG",
      "tafHtml": "TAF LIRF 111100Z 1112/1218 02009KT <span class=\"hl-vis\">CAVOK</span> \n  BECMG 1112/1114 01016KT \n  BECMG 1121/1123 03008KT \n  BECMG 1210/1212 12010KT"
    },
    {
      "icao": "LIRN",
      "iata": "NAP",
      "name": "Naples International Airport",
      "updatedAt": "111120Z",
      "visibility_m": 10000,
      "taf_visibility_m": 10000,
      "worst_visibility_m": 10000,
      "ceiling_ft": null,
      "hazards": [],
      "severityScore": 0,
      "metarRaw": "METAR LIRN 111120Z 04012KT 9999 FEW050 11/00 Q1015 NOSIG",
      "tafRaw": "TAF LIRN 111100Z 1112/1212 03012KT 9999 SCT030 \n  TEMPO 1113/1118 03015G25KT",
      "metarHtml": "METAR LIRN 111120Z 04012KT 9999 FEW050 11/00 Q1015 NOSIG",
      "tafHtml": "TAF LIRN 111100Z 1112/1212 03012KT 9999 SCT030 \n  TEMPO 1113/1118 03015G25KT"
    },
    {
      "icao": "LIRP",
      "iata": "PSA",
      "name": "Pisa International Airport",
      "updatedAt": "111115Z",
      "visibility_m": 10000,
      "taf_visibility_m": 10000,
      "worst_visibility_m": 10000,
      "ceiling_ft": null,
      "hazards": [],
      "severityScore": 0,
      "metarRaw": "METAR LIRP 111115Z 12006KT CAVOK 09/01 Q1018 NOSIG",
      "tafRaw": "TAF LIRP 111100Z 1112/1212 12005KT CAVOK \n  BECMG 1202/1204 9999 SCT020 SCT070",
      "metarHtml": "METAR LIRP 111115Z 12006KT <span class=\"hl-vis\">CAVOK</span> 09/01 Q1018 NOSIG",
      "tafHtml": "TAF LIRP 111100Z 1112/1212 12005KT <span class=\"hl-vis\">CAVOK</span> \n  BECMG 1202/1204 9999 SCT020 SCT070"
    },
    {
      "icao": "LIRZ",
      "iata": "PEG",
      "name": "Perugia San Francesco d'Assisi – Umbria International Airport",
      "updatedAt": "111120Z",
      "visibility_m": 10000,
      "taf_visibility_m": 10000,
      "worst_visibility_m": 10000,
      "ceiling_ft": null,
      "hazards": [],
      "severityScore": 0,
      "metarRaw": "METAR LIRZ 111120Z AUTO 36008KT 340V040 9999 NCD 08/02 Q1016",
      "tafRaw": "TAF LIRZ 111100Z 1112/1212 02013KT 9999 FEW030 \n  BECMG 1118/1120 VRB05KT",
      "metarHtml": "METAR LIRZ 111120Z AUTO 36008KT 340V040 9999 NCD 08/02 Q1016",
      "tafHtml": "TAF LIRZ 111100Z 1112/1212 02013KT 9999 FEW030 \n  BECMG 1118/1120 VRB05KT"
    },
    {
      "icao": "LLBG",
      "iata": "TLV",
      "name": "Ben Gurion International Airport",
      "updatedAt": "111120Z",
      "visibility_m": 10000,
      "taf_visibility_m": 10000,
      "worst_visibility_m": 10000,
      "ceiling_ft": null,
      "hazards": [],
      "severityScore": 0,
      "metarRaw": "METAR LLBG 111120Z 27007KT 230V300 CAVOK 20/08 Q1016 NOSIG",
      "tafRaw": "TAF LLBG 111116Z 1112/1212 25010KT CAVOK \n  BECMG 1115/1117 15006KT \n  BECMG 1202/1204 18012KT \n  BECMG 1206/1208 22016KT 9999 FEW030 \n  PROB40 \n  TEMPO 1210/1212 22016G30KT SCT030 TX21/1112Z TN12/1204Z",
      "metarHtml": "METAR LLBG 111120Z 27007KT 230V300 <span class=\"hl-vis\">CAVOK</span> 20/08 Q1016 NOSIG",
      "tafHtml": "TAF LLBG 111116Z 1112/1212 25010KT <span class=\"hl-vis\">CAVOK</span> \n  BECMG 1115/1117 15006KT \n  BECMG 1202/1204 18012KT \n  BECMG 1206/1208 22016KT 9999 FEW030 \n  PROB40 \n  TEMPO 1210/1212 22016G30KT SCT030 TX21/1112Z TN12/1204Z"
    },
    {
      "icao": "LPMA",
      "iata": "FNC",
      "name": "Madeira International Airport Cristiano Ronaldo",
      "updatedAt": "111130Z",
      "visibility_m": 10000,
      "taf_visibility_m": 10000,
      "worst_visibility_m": 10000,
      "ceiling_ft": null,
      "hazards": [],
      "severityScore": 0,
      "metarRaw": "METAR LPMA 111130Z 04007KT 010V080 9999 FEW015 17/12 Q1028",
      "tafRaw": "TAF LPMA 111106Z 1112/1212 VRB05KT 9999 SCT015 \n  TEMPO 1112/1118 15007KT \n  BECMG 1206/1208 20010KT",
      "metarHtml": "METAR LPMA 111130Z 04007KT 010V080 9999 FEW015 17/12 Q1028",
      "tafHtml": "TAF LPMA 111106Z 1112/1212 VRB05KT 9999 SCT015 \n  TEMPO 1112/1118 15007KT \n  BECMG 1206/1208 20010KT"
    },
    {
      "icao": "LPPS",
      "iata": "PXO",
      "name": "Porto Santo Airport",
      "updatedAt": "111130Z",
      "visibility_m": 10000,
      "taf_visibility_m": 10000,
      "worst_visibility_m": 10000,
      "ceiling_ft": null,
      "hazards": [],
      "severityScore": 0,
      "metarRaw": "METAR LPPS 111130Z 36006KT 9999 SCT013 18/14 Q1028",
      "tafRaw": "TAF LPPS 111106Z 1112/1218 VRB05KT 9999 SCT015 \n  TEMPO 1112/1121 SCT012 BKN030 \n  BECMG 1114/1116 13007KT \n  BECMG 1119/1121 19005KT \n  BECMG 1209/1211 23012KT",
      "metarHtml": "METAR LPPS 111130Z 36006KT 9999 SCT013 18/14 Q1028",
      "tafHtml": "TAF LPPS 111106Z 1112/1218 VRB05KT 9999 SCT015 \n  TEMPO 1112/1121 SCT012 BKN030 \n  BECMG 1114/1116 13007KT \n  BECMG 1119/1121 19005KT \n  BECMG 1209/1211 23012KT"
    },
    {
      "icao": "LQBK",
      "iata": "BNX",
      "name": "Banja Luka International Airport",
      "updatedAt": "111130Z",
      "visibility_m": 10000,
      "taf_visibility_m": 10000,
      "worst_visibility_m": 10000,
      "ceiling_ft": null,
      "hazards": [],
      "severityScore": 0,
      "metarRaw": "METAR LQBK 111130Z VRB03KT CAVOK M02/M08 Q1021 NOSIG",
      "tafRaw": "TAF LQBK 111100Z 1112/1212 30006KT CAVOK TXM01/1112Z TNM12/1206Z",
      "metarHtml": "METAR LQBK 111130Z VRB03KT <span class=\"hl-vis\">CAVOK</span> M02/M08 Q1021 NOSIG",
      "tafHtml": "TAF LQBK 111100Z 1112/1212 30006KT <span class=\"hl-vis\">CAVOK</span> TXM01/1112Z TNM12/1206Z"
    },
    {
      "icao": "LQTZ",
      "iata": "TZL",
      "name": "Tuzla International Airport",
      "updatedAt": "111130Z",
      "visibility_m": 10000,
      "taf_visibility_m": 10000,
      "worst_visibility_m": 10000,
      "ceiling_ft": 5800,
      "hazards": [],
      "severityScore": 0,
      "metarRaw": "METAR LQTZ 111130Z 28009KT 9999 FEW022 BKN058 M03/M07 Q1019",
      "tafRaw": "TAF LQTZ 111100Z 1112/1212 34007KT 9999 BKN030 TXM02/1113Z TNM13/1206Z \n  TEMPO 1112/1124 28012KT",
      "metarHtml": "METAR LQTZ 111130Z 28009KT 9999 FEW022 BKN058 M03/M07 Q1019",
      "tafHtml": "TAF LQTZ 111100Z 1112/1212 34007KT 9999 BKN030 TXM02/1113Z TNM13/1206Z \n  TEMPO 1112/1124 28012KT"
    },
    {
      "icao": "LRIA",
      "iata": "IAS",
      "name": "Iaşi Airport",
      "updatedAt": "111130Z",
      "visibility_m": 10000,
      "taf_visibility_m": 10000,
      "worst_visibility_m": 10000,
      "ceiling_ft": null,
      "hazards": [],
      "severityScore": 0,
      "metarRaw": "METAR LRIA 111130Z 29008KT 270V340 CAVOK M03/M11 Q1009",
      "tafRaw": "TAF LRIA 111100Z 1112/1121 30006KT CAVOK",
      "metarHtml": "METAR LRIA 111130Z 29008KT 270V340 <span class=\"hl-vis\">CAVOK</span> M03/M11 Q1009",
      "tafHtml": "TAF LRIA 111100Z 1112/1121 30006KT <span class=\"hl-vis\">CAVOK</span>"
    },
    {
      "icao": "LRBC",
      "iata": "BCM",
      "name": "Bacău George Enescu International  Airport",
      "updatedAt": "111130Z",
      "visibility_m": 10000,
      "taf_visibility_m": 10000,
      "worst_visibility_m": 10000,
      "ceiling_ft": null,
      "hazards": [],
      "severityScore": 0,
      "metarRaw": "METAR LRBC 111130Z 15006KT 9999 FEW055 M04/M10 Q1009",
      "tafRaw": "TAF LRBC 111100Z 1112/1121 VRB04KT 9999 BKN045 \n  BECMG 1119/1121 26010KT",
      "metarHtml": "METAR LRBC 111130Z 15006KT 9999 FEW055 M04/M10 Q1009",
      "tafHtml": "TAF LRBC 111100Z 1112/1121 VRB04KT 9999 BKN045 \n  BECMG 1119/1121 26010KT"
    },
    {
      "icao": "LRCL",
      "iata": "CLJ",
      "name": "Cluj Avram Iancu International Airport",
      "updatedAt": "111130Z",
      "visibility_m": 10000,
      "taf_visibility_m": 10000,
      "worst_visibility_m": 10000,
      "ceiling_ft": null,
      "hazards": [],
      "severityScore": 0,
      "metarRaw": "METAR LRCL 111130Z 29007KT 9999 SCT046 M02/M11 Q1011",
      "tafRaw": "TAF LRCL 111100Z 1112/1121 30008KT CAVOK",
      "metarHtml": "METAR LRCL 111130Z 29007KT 9999 SCT046 M02/M11 Q1011",
      "tafHtml": "TAF LRCL 111100Z 1112/1121 30008KT <span class=\"hl-vis\">CAVOK</span>"
    },
    {
      "icao": "LRSV",
      "iata": "SCV",
      "name": "Suceava Stefan cel Mare Airport",
      "updatedAt": "111130Z",
      "visibility_m": 10000,
      "taf_visibility_m": 10000,
      "worst_visibility_m": 10000,
      "ceiling_ft": null,
      "hazards": [],
      "severityScore": 0,
      "metarRaw": "METAR LRSV 111130Z 00000KT CAVOK M03/M11 Q1006",
      "tafRaw": "TAF LRSV 111100Z 1112/1121 VRB04KT 9999 SCT040 \n  TEMPO 1114/1118 29012KT",
      "metarHtml": "METAR LRSV 111130Z 00000KT <span class=\"hl-vis\">CAVOK</span> M03/M11 Q1006",
      "tafHtml": "TAF LRSV 111100Z 1112/1121 VRB04KT 9999 SCT040 \n  TEMPO 1114/1118 29012KT"
    },
    {
      "icao": "LRTM",
      "iata": "TGM",
      "name": "Târgu Mureş Transilvania International Airport",
      "updatedAt": "111130Z",
      "visibility_m": 10000,
      "taf_visibility_m": 10000,
      "worst_visibility_m": 10000,
      "ceiling_ft": null,
      "hazards": [],
      "severityScore": 0,
      "metarRaw": "METAR LRTM 111130Z VRB02KT 9999 FEW031 SCT040 M06/M12 Q1012",
      "tafRaw": "TAF LRTM 111100Z 1112/1121 VRB04KT CAVOK",
      "metarHtml": "METAR LRTM 111130Z VRB02KT 9999 FEW031 SCT040 M06/M12 Q1012",
      "tafHtml": "TAF LRTM 111100Z 1112/1121 VRB04KT <span class=\"hl-vis\">CAVOK</span>"
    },
    {
      "icao": "LUKK",
      "iata": "RMO",
      "name": "Chişinău International Airport",
      "updatedAt": "111130Z",
      "visibility_m": 10000,
      "taf_visibility_m": 10000,
      "worst_visibility_m": 10000,
      "ceiling_ft": null,
      "hazards": [],
      "severityScore": 0,
      "metarRaw": "METAR LUKK 111130Z 33007KT 300V360 CAVOK M06/M12 Q1008 NOSIG",
      "tafRaw": "TAF LUKK 111116Z 1112/1212 28009KT CAVOK",
      "metarHtml": "METAR LUKK 111130Z 33007KT 300V360 <span class=\"hl-vis\">CAVOK</span> M06/M12 Q1008 NOSIG",
      "tafHtml": "TAF LUKK 111116Z 1112/1212 28009KT <span class=\"hl-vis\">CAVOK</span>"
    },
    {
      "icao": "LWOH",
      "iata": "OHD",
      "name": "Ohrid St. Paul the Apostle Airport",
      "updatedAt": "111120Z",
      "visibility_m": 9000,
      "taf_visibility_m": 10000,
      "worst_visibility_m": 9000,
      "ceiling_ft": null,
      "hazards": [],
      "severityScore": 0,
      "metarRaw": "METAR LWOH 111120Z 33009KT 9000 FEW011 SCT050 02/M01 Q1007",
      "tafRaw": "TAF LWOH 111140Z 1112/1212 36010KT 9999 SCT050 \n  TEMPO 1112/18 36016KT SCT010 BKN050",
      "metarHtml": "METAR LWOH 111120Z 33009KT 9000 FEW011 SCT050 02/M01 Q1007",
      "tafHtml": "TAF LWOH 111140Z 1112/1212 36010KT 9999 SCT050 \n  TEMPO 1112/18 36016KT SCT010 BKN050"
    },
    {
      "icao": "LWSK",
      "iata": "SKP",
      "name": "Skopje International Airport",
      "updatedAt": "111120Z",
      "visibility_m": 10000,
      "taf_visibility_m": 10000,
      "worst_visibility_m": 10000,
      "ceiling_ft": 4300,
      "hazards": [],
      "severityScore": 0,
      "metarRaw": "METAR LWSK 111120Z 35021KT 9999 SCT025 BKN043 BKN075 00/M06 Q1013 NOSIG",
      "tafRaw": "TAF LWSK 111140Z 1112/1212 35015KT 9999 SCT025 OVC040 \n  TEMPO 1112/1118 01020G30KT SCT030 BKN060",
      "metarHtml": "METAR LWSK 111120Z 35021KT 9999 SCT025 BKN043 BKN075 00/M06 Q1013 NOSIG",
      "tafHtml": "TAF LWSK 111140Z 1112/1212 35015KT 9999 SCT025 OVC040 \n  TEMPO 1112/1118 01020G30KT SCT030 BKN060"
    },
    {
      "icao": "LYBE",
      "iata": "BEG",
      "name": "Belgrade Nikola Tesla Airport",
      "updatedAt": "111130Z",
      "visibility_m": 10000,
      "taf_visibility_m": 10000,
      "worst_visibility_m": 10000,
      "ceiling_ft": null,
      "hazards": [],
      "severityScore": 0,
      "metarRaw": "METAR LYBE 111130Z 28013KT CAVOK M04/M07 Q1018 NOSIG",
      "tafRaw": "TAF LYBE 111100Z 1112/1212 28015KT 9999 BKN020 TXM02/1212Z TNM10/1206Z",
      "metarHtml": "METAR LYBE 111130Z 28013KT <span class=\"hl-vis\">CAVOK</span> M04/M07 Q1018 NOSIG",
      "tafHtml": "TAF LYBE 111100Z 1112/1212 28015KT 9999 BKN020 TXM02/1212Z TNM10/1206Z"
    },
    {
      "icao": "LYPG",
      "iata": "TGD",
      "name": "Podgorica Airport / Podgorica Golubovci Airbase",
      "updatedAt": "111130Z",
      "visibility_m": 10000,
      "taf_visibility_m": 10000,
      "worst_visibility_m": 10000,
      "ceiling_ft": null,
      "hazards": [],
      "severityScore": 0,
      "metarRaw": "METAR LYPG 111130Z 36024G34KT 9999 FEW040 06/M09 Q1011 NOSIG",
      "tafRaw": "TAF LYPG 111100Z 1112/1212 36015G25KT CAVOK TX08/1112Z TNM01/1205Z \n  TEMPO 1112/1120 02025G40KT \n  BECMG 1210/1212 36012KT",
      "metarHtml": "METAR LYPG 111130Z 36024G34KT 9999 FEW040 06/M09 Q1011 NOSIG",
      "tafHtml": "TAF LYPG 111100Z 1112/1212 36015G25KT <span class=\"hl-vis\">CAVOK</span> TX08/1112Z TNM01/1205Z \n  TEMPO 1112/1120 02025G40KT \n  BECMG 1210/1212 36012KT"
    },
    {
      "icao": "LZIB",
      "iata": "BTS",
      "name": "M. R. Štefánik Airport",
      "updatedAt": "111130Z",
      "visibility_m": 10000,
      "taf_visibility_m": 10000,
      "worst_visibility_m": 10000,
      "ceiling_ft": null,
      "hazards": [],
      "severityScore": 0,
      "metarRaw": "METAR LZIB 111130Z 29017KT 9999 FEW027 SCT033 M02/M08 Q1018 NOSIG",
      "tafRaw": "TAF LZIB 111115Z 1112/1212 29015KT 9999 SCT030 \n  TEMPO 1112/1116 31020G30KT BKN040 \n  PROB40 \n  TEMPO 1116/1202 31015G25KT \n  BECMG 1204/1206 22006KT",
      "metarHtml": "METAR LZIB 111130Z 29017KT 9999 FEW027 SCT033 M02/M08 Q1018 NOSIG",
      "tafHtml": "TAF LZIB 111115Z 1112/1212 29015KT 9999 SCT030 \n  TEMPO 1112/1116 31020G30KT BKN040 \n  PROB40 \n  TEMPO 1116/1202 31015G25KT \n  BECMG 1204/1206 22006KT"
    },
    {
      "icao": "LZKZ",
      "iata": "KSC",
      "name": "Košice International Airport",
      "updatedAt": "111130Z",
      "visibility_m": 10000,
      "taf_visibility_m": 10000,
      "worst_visibility_m": 10000,
      "ceiling_ft": null,
      "hazards": [],
      "severityScore": 0,
      "metarRaw": "METAR LZKZ 111130Z VRB02KT 9999 FEW045 M08/M11 Q1011 NOSIG",
      "tafRaw": "TAF LZKZ 111115Z 1112/1212 23005KT 9999 SCT045",
      "metarHtml": "METAR LZKZ 111130Z VRB02KT 9999 FEW045 M08/M11 Q1011 NOSIG",
      "tafHtml": "TAF LZKZ 111115Z 1112/1212 23005KT 9999 SCT045"
    },
    {
      "icao": "OEMA",
      "iata": "MED",
      "name": "Prince Mohammad Bin Abdulaziz Airport",
      "updatedAt": "111100Z",
      "visibility_m": 10000,
      "taf_visibility_m": 7000,
      "worst_visibility_m": 7000,
      "ceiling_ft": null,
      "hazards": [],
      "severityScore": 0,
      "metarRaw": "METAR OEMA 111100Z 12008KT CAVOK 23/01 Q1020 NOSIG",
      "tafRaw": "TAF OEMA 111100Z 1112/1218 12012KT 7000 NSC \n  BECMG 1210/1212 22014KT",
      "metarHtml": "METAR OEMA 111100Z 12008KT <span class=\"hl-vis\">CAVOK</span> 23/01 Q1020 NOSIG",
      "tafHtml": "TAF OEMA 111100Z 1112/1218 12012KT 7000 NSC \n  BECMG 1210/1212 22014KT"
    },
    {
      "icao": "OJAI",
      "iata": "AMM",
      "name": "Queen Alia International Airport",
      "updatedAt": "111100Z",
      "visibility_m": 5000,
      "taf_visibility_m": 2000,
      "worst_visibility_m": 2000,
      "ceiling_ft": null,
      "hazards": [],
      "severityScore": 0,
      "metarRaw": "METAR OJAI 111100Z 17014KT 5000 HZ NSC 16/05 Q1018 NOSIG",
      "tafRaw": "TAF OJAI 111047Z 1112/1218 24012KT 5000HZ \n  PROB30 1112/1117 15016KT 4000 \n  TEMPO 1209/1218 24025G35KT 2000 BLDU SCT030",
      "metarHtml": "METAR OJAI 111100Z 17014KT 5000 HZ NSC 16/05 Q1018 NOSIG",
      "tafHtml": "TAF OJAI 111047Z 1112/1218 24012KT 5000HZ \n  PROB30 1112/1117 15016KT 4000 \n  TEMPO 1209/1218 24025G35KT 2000 BLDU SCT030"
    },
    {
      "icao": "OMAA",
      "iata": "AUH",
      "name": "Zayed International Airport",
      "updatedAt": "111100Z",
      "visibility_m": 10000,
      "taf_visibility_m": 4000,
      "worst_visibility_m": 4000,
      "ceiling_ft": null,
      "hazards": [],
      "severityScore": 0,
      "metarRaw": "METAR OMAA 111100Z 29006KT 250V330 CAVOK 25/07 Q1019 NOSIG",
      "tafRaw": "TAF OMAA 111100Z 1112/1218 33012KT 8000 NSC \n  BECMG 1116/1118 VRB02KT \n  PROB30 1200/1205 4000 HZ \n  BECMG 1210/1212 34012KT",
      "metarHtml": "METAR OMAA 111100Z 29006KT 250V330 <span class=\"hl-vis\">CAVOK</span> 25/07 Q1019 NOSIG",
      "tafHtml": "TAF OMAA 111100Z 1112/1218 33012KT 8000 NSC \n  BECMG 1116/1118 VRB02KT \n  PROB30 1200/1205 4000 HZ \n  BECMG 1210/1212 34012KT"
    },
    {
      "icao": "OMDB",
      "iata": "DXB",
      "name": "Dubai International Airport",
      "updatedAt": "111130Z",
      "visibility_m": 10000,
      "taf_visibility_m": 4000,
      "worst_visibility_m": 4000,
      "ceiling_ft": null,
      "hazards": [],
      "severityScore": 0,
      "metarRaw": "METAR OMDB 111130Z 32009KT CAVOK 25/10 Q1019 NOSIG",
      "tafRaw": "TAF OMDB 111100Z 1112/1218 30010KT 8000 NSC \n  BECMG 1117/1119 14005KT \n  PROB30 1201/1206 4000 HZ \n  BECMG 1208/1210 31010KT \n  BECMG 1217/1218 12005KT",
      "metarHtml": "METAR OMDB 111130Z 32009KT <span class=\"hl-vis\">CAVOK</span> 25/10 Q1019 NOSIG",
      "tafHtml": "TAF OMDB 111100Z 1112/1218 30010KT 8000 NSC \n  BECMG 1117/1119 14005KT \n  PROB30 1201/1206 4000 HZ \n  BECMG 1208/1210 31010KT \n  BECMG 1217/1218 12005KT"
    },
    {
      "icao": "UBBB",
      "iata": "GYD",
      "name": "Heydar Aliyev International Airport",
      "updatedAt": "111130Z",
      "visibility_m": 10000,
      "taf_visibility_m": 10000,
      "worst_visibility_m": 10000,
      "ceiling_ft": null,
      "hazards": [],
      "severityScore": 0,
      "metarRaw": "METAR UBBB 111130Z 19022G34KT CAVOK 11/01 Q1012 NOSIG",
      "tafRaw": "TAF UBBB 111054Z 1112/1212 19024G34KT 9999 SCT030 TX11/1112Z TN05/1202Z \n  TEMPO 1112/1124 22032G42KT SCT010 \n  TEMPO 1200/1207 22030G40KT SCT006 \n  TEMPO 1207/1212 21026G36KT",
      "metarHtml": "METAR UBBB 111130Z 19022G34KT <span class=\"hl-vis\">CAVOK</span> 11/01 Q1012 NOSIG",
      "tafHtml": "TAF UBBB 111054Z 1112/1212 19024G34KT 9999 SCT030 TX11/1112Z TN05/1202Z \n  TEMPO 1112/1124 22032G42KT SCT010 \n  TEMPO 1200/1207 22030G40KT SCT006 \n  TEMPO 1207/1212 21026G36KT"
    },
    {
      "icao": "UGKO",
      "iata": "KUT",
      "name": "David the Builder Kutaisi International Airport",
      "updatedAt": "111130Z",
      "visibility_m": 10000,
      "taf_visibility_m": 10000,
      "worst_visibility_m": 10000,
      "ceiling_ft": null,
      "hazards": [],
      "severityScore": 0,
      "metarRaw": "METAR UGKO 111130Z 08023G33KT CAVOK 14/M02 Q1009 NOSIG",
      "tafRaw": "TAF UGKO 111100Z 1112/1212 08012KT CAVOK TX14/1212Z TN09/1202Z \n  TEMPO 1112/1123 08022G33KT \n  TEMPO 1201/1212 BKN070",
      "metarHtml": "METAR UGKO 111130Z 08023G33KT <span class=\"hl-vis\">CAVOK</span> 14/M02 Q1009 NOSIG",
      "tafHtml": "TAF UGKO 111100Z 1112/1212 08012KT <span class=\"hl-vis\">CAVOK</span> TX14/1212Z TN09/1202Z \n  TEMPO 1112/1123 08022G33KT \n  TEMPO 1201/1212 BKN070"
    }
  ],
  "stats": {
    "icaoCount": 159,
    "metarReturned": 158,
    "tafReturned": 152,
    "stationsWritten": 159,
    "missingMetar": 1,
    "missingTaf": 7
  },
  "errors": []
}