{
  "generatedAt": "2026-01-10T20:46:57.515Z",
  "stations": [
    {
      "icao": "EPGD",
      "iata": "GDN",
      "name": "Gdańsk Lech Wałęsa Airport",
      "updatedAt": "102030Z",
      "visibility_m": 100,
      "taf_visibility_m": null,
      "worst_visibility_m": 100,
      "ceiling_ft": 100,
      "hazards": [
        "SHSN"
      ],
      "severityScore": 100,
      "metarRaw": "METAR EPGD 102030Z 34018G32KT 0100 R29///// +SHSN DRSN BKN001 BKN009CB M02/M03 Q1006",
      "tafRaw": null,
      "metarHtml": "METAR EPGD 102030Z 34018G32KT <span class=\"hl-vis\">0100</span> R29///// +<span class=\"hl\">SHSN</span> DRSN BKN001 BKN009CB M02/M03 Q1006",
      "tafHtml": null
    },
    {
      "icao": "LJLJ",
      "iata": "LJU",
      "name": "Ljubljana Jože Pučnik Airport",
      "updatedAt": "102030Z",
      "visibility_m": 400,
      "taf_visibility_m": 200,
      "worst_visibility_m": 200,
      "ceiling_ft": 100,
      "hazards": [
        "FZFG"
      ],
      "severityScore": 100,
      "metarRaw": "METAR LJLJ 102030Z VRB02KT 0400 R30/0700U FZFG VV001 M01/M01 Q1006 NOSIG",
      "tafRaw": "TAF LJLJ 101700Z 1018/1118 VRB02KT 0200 FZFG VV001 \n  BECMG 1108/1110 7000 NSW SCT010",
      "metarHtml": "METAR LJLJ 102030Z VRB02KT <span class=\"hl-vis\">0400</span> R30/0700U <span class=\"hl\">FZFG</span> VV001 M01/M01 Q1006 NOSIG",
      "tafHtml": "TAF LJLJ 101700Z 1018/1118 VRB02KT <span class=\"hl-vis\">0200</span> <span class=\"hl\">FZFG</span> VV001 \n  BECMG 1108/1110 7000 NSW SCT010"
    },
    {
      "icao": "LWSK",
      "iata": "SKP",
      "name": "Skopje International Airport",
      "updatedAt": "102020Z",
      "visibility_m": 200,
      "taf_visibility_m": 350,
      "worst_visibility_m": 200,
      "ceiling_ft": 200,
      "hazards": [
        "FG",
        "FZFG",
        "BR",
        "SN"
      ],
      "severityScore": 100,
      "metarRaw": "METAR LWSK 102020Z VRB02KT 0200 R34/0550N FG VV002 00/M00 Q0999 NOSIG",
      "tafRaw": "TAF LWSK 101735Z 1018/1118 VRB02KT 1500 BR BKN005 OVC015 \n  TEMPO 1018/1020 0350 FZFG BKN002 OVC005 \n  BECMG 1021/1023 34012KT 9999 SCT015 BKN035 \n  PROB40 \n  TEMPO 1022/1104 3000 -SN BKN015 OVC030 \n  TEMPO 1108/1118 36018G30KT",
      "metarHtml": "METAR LWSK 102020Z VRB02KT <span class=\"hl-vis\">0200</span> R34/0550N <span class=\"hl\">FG</span> VV002 00/M00 Q0999 NOSIG",
      "tafHtml": "TAF LWSK 101735Z 1018/1118 VRB02KT 1500 <span class=\"hl\">BR</span> BKN005 OVC015 \n  TEMPO 1018/1020 <span class=\"hl-vis\">0350</span> <span class=\"hl\">FZFG</span> BKN002 OVC005 \n  BECMG 1021/1023 34012KT 9999 SCT015 BKN035 \n  PROB40 \n  TEMPO 1022/1104 3000 -<span class=\"hl\">SN</span> BKN015 OVC030 \n  TEMPO 1108/1118 36018G30KT"
    },
    {
      "icao": "UAAA",
      "iata": "ALA",
      "name": "Almaty International Airport",
      "updatedAt": "102030Z",
      "visibility_m": 1400,
      "taf_visibility_m": 200,
      "worst_visibility_m": 200,
      "ceiling_ft": null,
      "hazards": [
        "BR",
        "FZFG"
      ],
      "severityScore": 95,
      "metarRaw": "METAR UAAA 102030Z VRB01MPS 1400 R23L/P2000D BR FEW100 M05/M07 Q1017 NOSIG",
      "tafRaw": "TAF UAAA 101700Z 1018/1118 24003MPS 0800 FZFG SCT011 BKN100 TX05/1109Z TNM07/1101Z \n  TEMPO 1018/1105 17002MPS 0200 VV002 \n  FM110600 02003MPS 3100 BR FU SCT020 BKN100 \n  TEMPO 1106/1112 28003G08MPS \n  TEMPO 1112/1118 21003MPS 1200 SCT005 BKN020",
      "metarHtml": "METAR UAAA 102030Z VRB01MPS 1400 R23L/P2000D <span class=\"hl\">BR</span> FEW100 M05/M07 Q1017 NOSIG",
      "tafHtml": "TAF UAAA 101700Z 1018/1118 24003MPS <span class=\"hl-vis\">0800</span> <span class=\"hl\">FZFG</span> SCT011 BKN100 TX05/1109Z TNM07/1101Z \n  TEMPO 1018/1105 17002MPS <span class=\"hl-vis\">0200</span> VV002 \n  FM110600 02003MPS 3100 <span class=\"hl\">BR</span> FU SCT020 BKN100 \n  TEMPO 1106/1112 28003G08MPS \n  TEMPO 1112/1118 21003MPS 1200 SCT005 BKN020"
    },
    {
      "icao": "UDYZ",
      "iata": "EVN",
      "name": "Zvartnots International Airport",
      "updatedAt": "102030Z",
      "visibility_m": 4300,
      "taf_visibility_m": 200,
      "worst_visibility_m": 200,
      "ceiling_ft": null,
      "hazards": [
        "BR",
        "FZFG"
      ],
      "severityScore": 95,
      "metarRaw": "METAR UDYZ 102030Z VRB01KT 4300 BR FEW046 M04/M06 Q1019 NOSIG",
      "tafRaw": "TAF UDYZ 101700Z 1018/1118 VRB04KT 0800 FZFG FEW020 \n  TEMPO 1018/1024 0200 FZFG VV001",
      "metarHtml": "METAR UDYZ 102030Z VRB01KT 4300 <span class=\"hl\">BR</span> FEW046 M04/M06 Q1019 NOSIG",
      "tafHtml": "TAF UDYZ 101700Z 1018/1118 VRB04KT <span class=\"hl-vis\">0800</span> <span class=\"hl\">FZFG</span> FEW020 \n  TEMPO 1018/1024 <span class=\"hl-vis\">0200</span> <span class=\"hl\">FZFG</span> VV001"
    },
    {
      "icao": "EETN",
      "iata": "TLL",
      "name": "Lennart Meri Tallinn Airport",
      "updatedAt": "102020Z",
      "visibility_m": 800,
      "taf_visibility_m": 600,
      "worst_visibility_m": 600,
      "ceiling_ft": 1100,
      "hazards": [
        "SN",
        "BLSN",
        "SHSN"
      ],
      "severityScore": 87,
      "metarRaw": "METAR EETN 102020Z 04015G25KT 360V060 1500 SN BLSN OVC011 M05/M07 Q1006 TEMPO 0800 +SN",
      "tafRaw": "TAF EETN 101730Z 1018/1118 04015G25KT 2500 SN BLSN BKN012 OVC020 \n  TEMPO 1018/1023 04020G30KT 1000 +SN BLSN VV010 \n  TEMPO 1023/1106 0600 +SN BLSN VV005 \n  BECMG 1106/1108 04015KT 4000 SN DRSN \n  TEMPO 1108/1115 04015G25KT 2000 SN BLSN \n  TEMPO 1115/1118 0600 +SHSN VV008",
      "metarHtml": "METAR EETN 102020Z 04015G25KT 360V060 1500 <span class=\"hl\">SN</span> <span class=\"hl\">BLSN</span> OVC011 M05/M07 Q1006 TEMPO <span class=\"hl-vis\">0800</span> +<span class=\"hl\">SN</span>",
      "tafHtml": "TAF EETN 101730Z 1018/1118 04015G25KT 2500 <span class=\"hl\">SN</span> <span class=\"hl\">BLSN</span> BKN012 OVC020 \n  TEMPO 1018/1023 04020G30KT 1000 +<span class=\"hl\">SN</span> <span class=\"hl\">BLSN</span> VV010 \n  TEMPO 1023/1106 <span class=\"hl-vis\">0600</span> +<span class=\"hl\">SN</span> <span class=\"hl\">BLSN</span> VV005 \n  BECMG 1106/1108 04015KT 4000 <span class=\"hl\">SN</span> DRSN \n  TEMPO 1108/1115 04015G25KT 2000 <span class=\"hl\">SN</span> <span class=\"hl\">BLSN</span> \n  TEMPO 1115/1118 <span class=\"hl-vis\">0600</span> +<span class=\"hl\">SHSN</span> VV008"
    },
    {
      "icao": "LFBD",
      "iata": "BOD",
      "name": "Bordeaux–Mérignac Airport",
      "updatedAt": "102030Z",
      "visibility_m": 1400,
      "taf_visibility_m": 300,
      "worst_visibility_m": 300,
      "ceiling_ft": null,
      "hazards": [
        "FG",
        "BR",
        "RA"
      ],
      "severityScore": 87,
      "metarRaw": "METAR LFBD 102030Z AUTO 25004KT 6000 1400 R23/1400U R05/P2300 R29/P2300 FEW045 SCT074 05/04 Q1025",
      "tafRaw": "TAF LFBD 101700Z 1018/1124 30005KT 9999 SCT030 TX07/1115Z TN00/1106Z \n  BECMG 1018/1020 VRB02KT \n  BECMG 1101/1103 4000 BR \n  BECMG 1103/1105 0300 FG VV/// \n  BECMG 1111/1113 4000 BR BKN002 \n  BECMG 1113/1115 CAVOK \n  BECMG 1117/1119 BKN030 \n  TEMPO 1119/1124 4000 -RA",
      "metarHtml": "METAR LFBD 102030Z AUTO 25004KT 6000 1400 R23/1400U R05/P2300 R29/P2300 FEW045 SCT074 05/04 Q1025",
      "tafHtml": "TAF LFBD 101700Z 1018/1124 30005KT 9999 SCT030 TX07/1115Z TN00/1106Z \n  BECMG 1018/1020 VRB02KT \n  BECMG 1101/1103 4000 <span class=\"hl\">BR</span> \n  BECMG 1103/1105 <span class=\"hl-vis\">0300</span> <span class=\"hl\">FG</span> VV/// \n  BECMG 1111/1113 4000 <span class=\"hl\">BR</span> BKN002 \n  BECMG 1113/1115 <span class=\"hl-vis\">CAVOK</span> \n  BECMG 1117/1119 BKN030 \n  TEMPO 1119/1124 4000 -<span class=\"hl\">RA</span>"
    },
    {
      "icao": "EPMO",
      "iata": "WMI",
      "name": "Modlin Airport",
      "updatedAt": "102030Z",
      "visibility_m": 2200,
      "taf_visibility_m": 600,
      "worst_visibility_m": 600,
      "ceiling_ft": 1700,
      "hazards": [
        "BR",
        "SN",
        "SHSN"
      ],
      "severityScore": 75,
      "metarRaw": "METAR EPMO 102030Z 30004KT 2200 -SN BR FEW006 BKN017 M06/M06 Q1004",
      "tafRaw": "TAF EPMO 101730Z 1018/1118 30010KT 6000 -SN BKN020 \n  TEMPO 1018/1104 2000 SN BR BKN006 BKN012 \n  PROB40 \n  TEMPO 1018/1101 0600 +SHSN BKN003 BKN010CB \n  TEMPO 1104/1118 3000 SHSN BKN012 BKN020TCU \n  PROB40 \n  TEMPO 1112/1118 0800 +SHSN BKN004 BKN010CB",
      "metarHtml": "METAR EPMO 102030Z 30004KT 2200 -<span class=\"hl\">SN</span> <span class=\"hl\">BR</span> FEW006 BKN017 M06/M06 Q1004",
      "tafHtml": "TAF EPMO 101730Z 1018/1118 30010KT 6000 -<span class=\"hl\">SN</span> BKN020 \n  TEMPO 1018/1104 2000 <span class=\"hl\">SN</span> <span class=\"hl\">BR</span> BKN006 BKN012 \n  PROB40 \n  TEMPO 1018/1101 <span class=\"hl-vis\">0600</span> +<span class=\"hl\">SHSN</span> BKN003 BKN010CB \n  TEMPO 1104/1118 3000 <span class=\"hl\">SHSN</span> BKN012 BKN020TCU \n  PROB40 \n  TEMPO 1112/1118 <span class=\"hl-vis\">0800</span> +<span class=\"hl\">SHSN</span> BKN004 BKN010CB"
    },
    {
      "icao": "LBSF",
      "iata": "SOF",
      "name": "Sofia Airport",
      "updatedAt": "102030Z",
      "visibility_m": 3000,
      "taf_visibility_m": 1200,
      "worst_visibility_m": 1200,
      "ceiling_ft": 200,
      "hazards": [
        "RA",
        "SN"
      ],
      "severityScore": 75,
      "metarRaw": "METAR LBSF 102030Z AUTO 28005KT 200V320 6000 RA SCT004/// BKN013/// OVC019/// 02/01 Q0997 TEMPO 3000 RA BKN002",
      "tafRaw": "TAF LBSF 101700Z 1018/1118 28015G28KT 5000 RA BKN015 OVC040 \n  BECMG 1019/1021 3000 SN BKN008 OVC020 \n  TEMPO 1022/1106 1200 SN BKN004 OVC015 \n  BECMG 1109/1111 9999 NSW SCT020 BKN040",
      "metarHtml": "METAR LBSF 102030Z AUTO 28005KT 200V320 6000 <span class=\"hl\">RA</span> SCT004/// BKN013/// OVC019/// 02/01 Q0997 TEMPO 3000 <span class=\"hl\">RA</span> BKN002",
      "tafHtml": "TAF LBSF 101700Z 1018/1118 28015G28KT 5000 <span class=\"hl\">RA</span> BKN015 OVC040 \n  BECMG 1019/1021 3000 <span class=\"hl\">SN</span> BKN008 OVC020 \n  TEMPO 1022/1106 1200 <span class=\"hl\">SN</span> BKN004 OVC015 \n  BECMG 1109/1111 9999 NSW SCT020 BKN040"
    },
    {
      "icao": "EGNM",
      "iata": "LBA",
      "name": "Leeds Bradford Airport",
      "updatedAt": "102020Z",
      "visibility_m": 10000,
      "taf_visibility_m": 600,
      "worst_visibility_m": 600,
      "ceiling_ft": null,
      "hazards": [
        "FG",
        "SN",
        "DZ"
      ],
      "severityScore": 73,
      "metarRaw": "METAR EGNM 102020Z 15005KT CAVOK M02/M03 Q1018",
      "tafRaw": "TAF EGNM 101656Z 1018/1118 17003KT 9999 FEW040 \n  TEMPO 1018/1103 6000 BKN006 \n  BECMG 1100/1103 15013KT \n  BECMG 1103/1106 15018G28KT BKN006 \n  TEMPO 1105/1111 1000 SN BKN002 \n  PROB30 \n  TEMPO 1108/1111 0600 +SN FG VV/// \n  TEMPO 1111/1118 4000 RADZ \n  PROB30 \n  TEMPO 1111/1118 0600 +DZ FG BKN000",
      "metarHtml": "METAR EGNM 102020Z 15005KT <span class=\"hl-vis\">CAVOK</span> M02/M03 Q1018",
      "tafHtml": "TAF EGNM 101656Z 1018/1118 17003KT 9999 FEW040 \n  TEMPO 1018/1103 6000 BKN006 \n  BECMG 1100/1103 15013KT \n  BECMG 1103/1106 15018G28KT BKN006 \n  TEMPO 1105/1111 1000 <span class=\"hl\">SN</span> BKN002 \n  PROB30 \n  TEMPO 1108/1111 <span class=\"hl-vis\">0600</span> +<span class=\"hl\">SN</span> <span class=\"hl\">FG</span> VV/// \n  TEMPO 1111/1118 4000 RADZ \n  PROB30 \n  TEMPO 1111/1118 <span class=\"hl-vis\">0600</span> +<span class=\"hl\">DZ</span> <span class=\"hl\">FG</span> BKN000"
    },
    {
      "icao": "EPRZ",
      "iata": "RZE",
      "name": "Rzeszów-Jasionka Airport",
      "updatedAt": "102030Z",
      "visibility_m": 10000,
      "taf_visibility_m": 300,
      "worst_visibility_m": 300,
      "ceiling_ft": 2900,
      "hazards": [
        "SN",
        "BR"
      ],
      "severityScore": 73,
      "metarRaw": "METAR EPRZ 102030Z 25014KT 9999 -SN SCT015 OVC029 M09/M12 Q1006",
      "tafRaw": "TAF EPRZ 101730Z 1018/1118 27008KT 9999 BKN020 \n  BECMG 1018/1021 28015G25KT 2500 -SN BR BKN007 \n  TEMPO 1021/1118 1400 SN DRSN BKN004 \n  PROB30 \n  TEMPO 1108/1118 0300 +SN",
      "metarHtml": "METAR EPRZ 102030Z 25014KT 9999 -<span class=\"hl\">SN</span> SCT015 OVC029 M09/M12 Q1006",
      "tafHtml": "TAF EPRZ 101730Z 1018/1118 27008KT 9999 BKN020 \n  BECMG 1018/1021 28015G25KT 2500 -<span class=\"hl\">SN</span> <span class=\"hl\">BR</span> BKN007 \n  TEMPO 1021/1118 1400 <span class=\"hl\">SN</span> DRSN BKN004 \n  PROB30 \n  TEMPO 1108/1118 <span class=\"hl-vis\">0300</span> +<span class=\"hl\">SN</span>"
    },
    {
      "icao": "BKPR",
      "iata": "PRN",
      "name": "Priština Adem Jashari International Airport",
      "updatedAt": "102030Z",
      "visibility_m": 1000,
      "taf_visibility_m": null,
      "worst_visibility_m": 1000,
      "ceiling_ft": 500,
      "hazards": [
        "BR",
        "SN"
      ],
      "severityScore": 68,
      "metarRaw": "METAR BKPR 102030Z 01013KT 2500 -SN BR BKN005 OVC012 00/00 Q0999 TEMPO 1000 SN",
      "tafRaw": null,
      "metarHtml": "METAR BKPR 102030Z 01013KT 2500 -<span class=\"hl\">SN</span> <span class=\"hl\">BR</span> BKN005 OVC012 00/00 Q0999 TEMPO 1000 <span class=\"hl\">SN</span>",
      "tafHtml": null
    },
    {
      "icao": "EDDH",
      "iata": "HAM",
      "name": "Hamburg Helmut Schmidt Airport",
      "updatedAt": "102020Z",
      "visibility_m": 550,
      "taf_visibility_m": 500,
      "worst_visibility_m": 500,
      "ceiling_ft": null,
      "hazards": [
        "FZFG"
      ],
      "severityScore": 65,
      "metarRaw": "METAR EDDH 102020Z AUTO 33006KT 9999 0550 R05/P2000N R33/P2000N BCFG NSC M06/M07 Q1021 NOSIG",
      "tafRaw": "TAF EDDH 101700Z 1018/1124 VRB03KT CAVOK \n  PROB30 \n  TEMPO 1104/1112 0500 FZFG OVC001 \n  PROB30 \n  TEMPO 1117/1124 0500 FZFG OVC001 \n  BECMG 1119/1122 16006KT",
      "metarHtml": "METAR EDDH 102020Z AUTO 33006KT 9999 <span class=\"hl-vis\">0550</span> R05/P2000N R33/P2000N BCFG NSC M06/M07 Q1021 NOSIG",
      "tafHtml": "TAF EDDH 101700Z 1018/1124 VRB03KT <span class=\"hl-vis\">CAVOK</span> \n  PROB30 \n  TEMPO 1104/1112 <span class=\"hl-vis\">0500</span> <span class=\"hl\">FZFG</span> OVC001 \n  PROB30 \n  TEMPO 1117/1124 <span class=\"hl-vis\">0500</span> <span class=\"hl\">FZFG</span> OVC001 \n  BECMG 1119/1122 16006KT"
    },
    {
      "icao": "EPKK",
      "iata": "KRK",
      "name": "Kraków John Paul II International Airport",
      "updatedAt": "102030Z",
      "visibility_m": 10000,
      "taf_visibility_m": 400,
      "worst_visibility_m": 400,
      "ceiling_ft": 1300,
      "hazards": [
        "SN"
      ],
      "severityScore": 65,
      "metarRaw": "METAR EPKK 102030Z 25008KT 9999 -SN OVC013 M08/M11 Q1008",
      "tafRaw": "TAF EPKK 102030Z 1021/1121 24009KT 9999 -SN BKN013 \n  BECMG 1021/1024 BKN007 \n  TEMPO 1022/1024 1400 SN DRSN BKN004 \n  TEMPO 1100/1121 27015G25KT 1400 SN DRSN BKN004 \n  PROB30 \n  TEMPO 1100/1121 0400 +SN",
      "metarHtml": "METAR EPKK 102030Z 25008KT 9999 -<span class=\"hl\">SN</span> OVC013 M08/M11 Q1008",
      "tafHtml": "TAF EPKK 102030Z 1021/1121 24009KT 9999 -<span class=\"hl\">SN</span> BKN013 \n  BECMG 1021/1024 BKN007 \n  TEMPO 1022/1024 1400 <span class=\"hl\">SN</span> DRSN BKN004 \n  TEMPO 1100/1121 27015G25KT 1400 <span class=\"hl\">SN</span> DRSN BKN004 \n  PROB30 \n  TEMPO 1100/1121 <span class=\"hl-vis\">0400</span> +<span class=\"hl\">SN</span>"
    },
    {
      "icao": "LRCV",
      "iata": "CRA",
      "name": "Craiova International Airport",
      "updatedAt": "102030Z",
      "visibility_m": 1300,
      "taf_visibility_m": 800,
      "worst_visibility_m": 800,
      "ceiling_ft": 1400,
      "hazards": [
        "BR",
        "SN"
      ],
      "severityScore": 65,
      "metarRaw": "METAR LRCV 102030Z 06003KT 1300 R26/P2000 SN BR SCT003 OVC014 00/00 Q1000",
      "tafRaw": "TAF LRCV 102000Z 1021/1106 VRB04KT 1500 SN BR BKN005 OVC010 \n  PROB40 \n  TEMPO 1021/1024 0800 +SN BKN002 OVC005 \n  BECMG 1101/1103 3000",
      "metarHtml": "METAR LRCV 102030Z 06003KT 1300 R26/P2000 <span class=\"hl\">SN</span> <span class=\"hl\">BR</span> SCT003 OVC014 00/00 Q1000",
      "tafHtml": "TAF LRCV 102000Z 1021/1106 VRB04KT 1500 <span class=\"hl\">SN</span> <span class=\"hl\">BR</span> BKN005 OVC010 \n  PROB40 \n  TEMPO 1021/1024 <span class=\"hl-vis\">0800</span> +<span class=\"hl\">SN</span> BKN002 OVC005 \n  BECMG 1101/1103 3000"
    },
    {
      "icao": "EPWA",
      "iata": "WAW",
      "name": "Warsaw Chopin Airport",
      "updatedAt": "102030Z",
      "visibility_m": 1500,
      "taf_visibility_m": 700,
      "worst_visibility_m": 700,
      "ceiling_ft": 3000,
      "hazards": [
        "SN",
        "BR",
        "SHSN"
      ],
      "severityScore": 63,
      "metarRaw": "METAR EPWA 102030Z 29011KT 5000 -SN BKN030 M05/M07 Q1004 TEMPO 1500 SN",
      "tafRaw": "TAF EPWA 102030Z 1021/1121 29008KT 7000 -SN BKN020 \n  TEMPO 1021/1105 2000 SN BR BKN008 BKN014 \n  PROB40 \n  TEMPO 1021/1102 0700 +SHSN BKN004 BKN010CB \n  TEMPO 1105/1121 3000 SHSN BKN010 BKN015TCU \n  PROB40 \n  TEMPO 1113/1118 1000 SHSN BKN004 BKN010CB",
      "metarHtml": "METAR EPWA 102030Z 29011KT 5000 -<span class=\"hl\">SN</span> BKN030 M05/M07 Q1004 TEMPO 1500 <span class=\"hl\">SN</span>",
      "tafHtml": "TAF EPWA 102030Z 1021/1121 29008KT 7000 -<span class=\"hl\">SN</span> BKN020 \n  TEMPO 1021/1105 2000 <span class=\"hl\">SN</span> <span class=\"hl\">BR</span> BKN008 BKN014 \n  PROB40 \n  TEMPO 1021/1102 <span class=\"hl-vis\">0700</span> +<span class=\"hl\">SHSN</span> BKN004 BKN010CB \n  TEMPO 1105/1121 3000 <span class=\"hl\">SHSN</span> BKN010 BKN015TCU \n  PROB40 \n  TEMPO 1113/1118 1000 <span class=\"hl\">SHSN</span> BKN004 BKN010CB"
    },
    {
      "icao": "EBCI",
      "iata": "CRL",
      "name": "Brussels South Charleroi Airport",
      "updatedAt": "102020Z",
      "visibility_m": 6000,
      "taf_visibility_m": 8000,
      "worst_visibility_m": 6000,
      "ceiling_ft": 800,
      "hazards": [
        "FZRA"
      ],
      "severityScore": 60,
      "metarRaw": "METAR EBCI 102020Z 01004KT 340V040 6000 SCT009 BKN014 M03/M04 Q1019 TEMPO BKN008",
      "tafRaw": "TAF EBCI 101700Z 1018/1124 01006KT 8000 BKN010 \n  BECMG 1107/1109 BKN015 \n  PROB40 \n  TEMPO 1122/1124 -FZRA",
      "metarHtml": "METAR EBCI 102020Z 01004KT 340V040 6000 SCT009 BKN014 M03/M04 Q1019 TEMPO BKN008",
      "tafHtml": "TAF EBCI 101700Z 1018/1124 01006KT 8000 BKN010 \n  BECMG 1107/1109 BKN015 \n  PROB40 \n  TEMPO 1122/1124 -<span class=\"hl\">FZRA</span>"
    },
    {
      "icao": "EPSC",
      "iata": "SZZ",
      "name": "Solidarity Szczecin–Goleniów Airport",
      "updatedAt": "102030Z",
      "visibility_m": 10000,
      "taf_visibility_m": 700,
      "worst_visibility_m": 700,
      "ceiling_ft": 3000,
      "hazards": [
        "BLSN",
        "SHSN"
      ],
      "severityScore": 57,
      "metarRaw": "METAR EPSC 102030Z 32011KT 9999 OVC030 M01/M05 Q1014",
      "tafRaw": "TAF EPSC 101730Z 1018/1118 33010KT 9999 BKN025 \n  TEMPO 1018/1020 2000 SHSN BKN014TCU \n  PROB30 \n  TEMPO 1018/1020 34015G25KT 0700 +SHSNGS BLSN DRSN BKN005 BKN014CB \n  TEMPO 1100/1116 34016G26KT 4000 -SHSN DRSN SCT020TCU",
      "metarHtml": "METAR EPSC 102030Z 32011KT 9999 OVC030 M01/M05 Q1014",
      "tafHtml": "TAF EPSC 101730Z 1018/1118 33010KT 9999 BKN025 \n  TEMPO 1018/1020 2000 <span class=\"hl\">SHSN</span> BKN014TCU \n  PROB30 \n  TEMPO 1018/1020 34015G25KT <span class=\"hl-vis\">0700</span> +SHSNGS <span class=\"hl\">BLSN</span> DRSN BKN005 BKN014CB \n  TEMPO 1100/1116 34016G26KT 4000 -<span class=\"hl\">SHSN</span> DRSN SCT020TCU"
    },
    {
      "icao": "OJAI",
      "iata": "AMM",
      "name": "Queen Alia International Airport",
      "updatedAt": "102000Z",
      "visibility_m": 5000,
      "taf_visibility_m": 800,
      "worst_visibility_m": 800,
      "ceiling_ft": null,
      "hazards": [
        "BR",
        "FG"
      ],
      "severityScore": 55,
      "metarRaw": "METAR OJAI 102000Z 12004KT 5000 BR NSC 07/07 Q1022 NOSIG",
      "tafRaw": "TAF OJAI 101700Z 1018/1124 14006KT 5000 BR NSC \n  PROB40 1022/1107 1500 \n  PROB30 1102/1106 0800 FG \n  BECMG 1112/1114 26012KT",
      "metarHtml": "METAR OJAI 102000Z 12004KT 5000 <span class=\"hl\">BR</span> NSC 07/07 Q1022 NOSIG",
      "tafHtml": "TAF OJAI 101700Z 1018/1124 14006KT 5000 <span class=\"hl\">BR</span> NSC \n  PROB40 1022/1107 1500 \n  PROB30 1102/1106 <span class=\"hl-vis\">0800</span> <span class=\"hl\">FG</span> \n  BECMG 1112/1114 26012KT"
    },
    {
      "icao": "LRBS",
      "iata": "BBU",
      "name": "Bucharest Băneasa Aurel Vlaicu International Airport",
      "updatedAt": "102030Z",
      "visibility_m": 800,
      "taf_visibility_m": 800,
      "worst_visibility_m": 800,
      "ceiling_ft": 2000,
      "hazards": [
        "SN",
        "BR"
      ],
      "severityScore": 53,
      "metarRaw": "METAR LRBS 102030Z 05012KT 1200 R07/2000N -SN FEW007 OVC020 M01/M02 Q1000 TEMPO 0800 SN",
      "tafRaw": "TAF LRBS 101700Z 1018/1118 06013KT 7000 OVC010 \n  BECMG 1018/1020 3000 -SN BR \n  BECMG 1020/1022 1500 SN BR BKN005 OVC010 \n  TEMPO 1023/1103 0800 SN BKN002 OVC015 \n  BECMG 1107/1109 VRB04KT 3000 -SN BR \n  BECMG 1109/1111 5000 -SN BKN010 OVC020 \n  BECMG 1113/1115 9999 NSW BKN015 OVC025 \n  BECMG 1115/1117 SCT015",
      "metarHtml": "METAR LRBS 102030Z 05012KT 1200 R07/2000N -<span class=\"hl\">SN</span> FEW007 OVC020 M01/M02 Q1000 TEMPO <span class=\"hl-vis\">0800</span> <span class=\"hl\">SN</span>",
      "tafHtml": "TAF LRBS 101700Z 1018/1118 06013KT 7000 OVC010 \n  BECMG 1018/1020 3000 -<span class=\"hl\">SN</span> <span class=\"hl\">BR</span> \n  BECMG 1020/1022 1500 <span class=\"hl\">SN</span> <span class=\"hl\">BR</span> BKN005 OVC010 \n  TEMPO 1023/1103 <span class=\"hl-vis\">0800</span> <span class=\"hl\">SN</span> BKN002 OVC015 \n  BECMG 1107/1109 VRB04KT 3000 -<span class=\"hl\">SN</span> <span class=\"hl\">BR</span> \n  BECMG 1109/1111 5000 -<span class=\"hl\">SN</span> BKN010 OVC020 \n  BECMG 1113/1115 9999 NSW BKN015 OVC025 \n  BECMG 1115/1117 SCT015"
    },
    {
      "icao": "LROP",
      "iata": "OTP",
      "name": "Bucharest Henri Coandă International Airport",
      "updatedAt": "102030Z",
      "visibility_m": 1500,
      "taf_visibility_m": 800,
      "worst_visibility_m": 800,
      "ceiling_ft": 3200,
      "hazards": [
        "BR",
        "SN"
      ],
      "severityScore": 53,
      "metarRaw": "METAR LROP 102030Z 06015KT 3000 -SN BR OVC032 M00/M02 Q1000 TEMPO 1500 SN BR",
      "tafRaw": "TAF LROP 101700Z 1018/1118 06013KT 7000 OVC010 \n  BECMG 1018/1020 3000 -SN BR \n  BECMG 1020/1022 1500 SN BR BKN005 OVC010 \n  TEMPO 1023/1103 0800 SN BKN002 OVC015 \n  BECMG 1107/1109 VRB04KT 3000 -SN BR \n  BECMG 1109/1111 5000 -SN BKN010 OVC020 \n  BECMG 1113/1115 9999 NSW BKN015 OVC025 \n  BECMG 1115/1117 SCT015",
      "metarHtml": "METAR LROP 102030Z 06015KT 3000 -<span class=\"hl\">SN</span> <span class=\"hl\">BR</span> OVC032 M00/M02 Q1000 TEMPO 1500 <span class=\"hl\">SN</span> <span class=\"hl\">BR</span>",
      "tafHtml": "TAF LROP 101700Z 1018/1118 06013KT 7000 OVC010 \n  BECMG 1018/1020 3000 -<span class=\"hl\">SN</span> <span class=\"hl\">BR</span> \n  BECMG 1020/1022 1500 <span class=\"hl\">SN</span> <span class=\"hl\">BR</span> BKN005 OVC010 \n  TEMPO 1023/1103 <span class=\"hl-vis\">0800</span> <span class=\"hl\">SN</span> BKN002 OVC015 \n  BECMG 1107/1109 VRB04KT 3000 -<span class=\"hl\">SN</span> <span class=\"hl\">BR</span> \n  BECMG 1109/1111 5000 -<span class=\"hl\">SN</span> BKN010 OVC020 \n  BECMG 1113/1115 9999 NSW BKN015 OVC025 \n  BECMG 1115/1117 SCT015"
    },
    {
      "icao": "LYNI",
      "iata": "INI",
      "name": "Niš Constantine the Great Airport",
      "updatedAt": "102030Z",
      "visibility_m": 2500,
      "taf_visibility_m": 2000,
      "worst_visibility_m": 2000,
      "ceiling_ft": 400,
      "hazards": [
        "SN"
      ],
      "severityScore": 53,
      "metarRaw": "METAR LYNI 102030Z 32011KT 290V350 2500 SN SCT004 BKN008 OVC025 00/00 Q1001 TEMPO BKN004",
      "tafRaw": "TAF LYNI 101700Z 1018/1118 35012KT 8000 SCT015 BKN030 TXM00/1018Z TNM07/1118Z \n  TEMPO 1018/1105 2000 SN BKN005 BKN025 \n  TEMPO 1100/1112 34020G35KT \n  BECMG 1116/1118 29006KT",
      "metarHtml": "METAR LYNI 102030Z 32011KT 290V350 2500 <span class=\"hl\">SN</span> SCT004 BKN008 OVC025 00/00 Q1001 TEMPO BKN004",
      "tafHtml": "TAF LYNI 101700Z 1018/1118 35012KT 8000 SCT015 BKN030 TXM00/1018Z TNM07/1118Z \n  TEMPO 1018/1105 2000 <span class=\"hl\">SN</span> BKN005 BKN025 \n  TEMPO 1100/1112 34020G35KT \n  BECMG 1116/1118 29006KT"
    },
    {
      "icao": "LRSB",
      "iata": "SBZ",
      "name": "Sibiu International Airport",
      "updatedAt": "102030Z",
      "visibility_m": 6000,
      "taf_visibility_m": 1500,
      "worst_visibility_m": 1500,
      "ceiling_ft": 1200,
      "hazards": [
        "BR",
        "SN"
      ],
      "severityScore": 50,
      "metarRaw": "METAR LRSB 102030Z 34005KT 6000 OVC012 M03/M04 Q1001",
      "tafRaw": "TAF LRSB 101700Z 1018/1118 VRB04KT 9999 OVC010 \n  TEMPO 1018/1020 34010KT \n  BECMG 1021/1023 5000 -SN BR BKN005 OVC010 \n  BECMG 1023/1101 3000 SN BR \n  TEMPO 1101/1107 1500 SN BR \n  BECMG 1108/1110 9999 NSW SCT010 BKN035 \n  BECMG 1113/1115 30010KT",
      "metarHtml": "METAR LRSB 102030Z 34005KT 6000 OVC012 M03/M04 Q1001",
      "tafHtml": "TAF LRSB 101700Z 1018/1118 VRB04KT 9999 OVC010 \n  TEMPO 1018/1020 34010KT \n  BECMG 1021/1023 5000 -<span class=\"hl\">SN</span> <span class=\"hl\">BR</span> BKN005 OVC010 \n  BECMG 1023/1101 3000 <span class=\"hl\">SN</span> <span class=\"hl\">BR</span> \n  TEMPO 1101/1107 1500 <span class=\"hl\">SN</span> <span class=\"hl\">BR</span> \n  BECMG 1108/1110 9999 NSW SCT010 BKN035 \n  BECMG 1113/1115 30010KT"
    },
    {
      "icao": "LYBE",
      "iata": "BEG",
      "name": "Belgrade Nikola Tesla Airport",
      "updatedAt": "102030Z",
      "visibility_m": 5000,
      "taf_visibility_m": 1500,
      "worst_visibility_m": 1500,
      "ceiling_ft": 1000,
      "hazards": [
        "BR",
        "SN"
      ],
      "severityScore": 50,
      "metarRaw": "METAR LYBE 102030Z 31007KT 5000 BR OVC010 M02/M03 Q1005 NOSIG",
      "tafRaw": "TAF LYBE 101700Z 1018/1118 36008KT 4000 BR BKN002 BKN022 TXM01/1018Z TNM05/1106Z \n  TEMPO 1018/1102 1500 -SN \n  BECMG 1105/1107 29012KT 6000 NSW BKN025",
      "metarHtml": "METAR LYBE 102030Z 31007KT 5000 <span class=\"hl\">BR</span> OVC010 M02/M03 Q1005 NOSIG",
      "tafHtml": "TAF LYBE 101700Z 1018/1118 36008KT 4000 <span class=\"hl\">BR</span> BKN002 BKN022 TXM01/1018Z TNM05/1106Z \n  TEMPO 1018/1102 1500 -<span class=\"hl\">SN</span> \n  BECMG 1105/1107 29012KT 6000 NSW BKN025"
    },
    {
      "icao": "LTFM",
      "iata": "IST",
      "name": "İstanbul Airport",
      "updatedAt": "102020Z",
      "visibility_m": 8000,
      "taf_visibility_m": 4000,
      "worst_visibility_m": 4000,
      "ceiling_ft": 3000,
      "hazards": [
        "SHRA",
        "TSRA",
        "SHSN"
      ],
      "severityScore": 49,
      "metarRaw": "METAR LTFM 102020Z 24020KT 8000 3800N -SHRA FEW020CB BKN030 BKN080 11/09 Q0996 RETSRA NOSIG RMK RWY17L 24023G34KT RWY34L 23018KT RWY16R 24020KT RWY36 24018KT RWY18 25024KT",
      "tafRaw": "TAF LTFM 101640Z 1018/1124 21023G35KT 9999 -SHRA SCT040 BKN090 \n  TEMPO 1018/1021 21028G45KT 4000 TSRA SCT013 SCT018CB BKN022 \n  BECMG 1020/1023 21015G25KT \n  PROB40 \n  TEMPO 1102/1106 30016G26KT -TSRA FEW018CB BKN022 \n  BECMG 1106/1108 36015G25KT BKN008 BKN020 \n  BECMG 1118/1121 -SHSNRA \n  BECMG 1122/1124 -SHSN",
      "metarHtml": "METAR LTFM 102020Z 24020KT 8000 3800N -<span class=\"hl\">SHRA</span> FEW020CB BKN030 BKN080 11/09 Q0996 RETSRA NOSIG RMK RWY17L 24023G34KT RWY34L 23018KT RWY16R 24020KT RWY36 24018KT RWY18 25024KT",
      "tafHtml": "TAF LTFM 101640Z 1018/1124 21023G35KT 9999 -<span class=\"hl\">SHRA</span> SCT040 BKN090 \n  TEMPO 1018/1021 21028G45KT 4000 <span class=\"hl\">TSRA</span> SCT013 SCT018CB BKN022 \n  BECMG 1020/1023 21015G25KT \n  PROB40 \n  TEMPO 1102/1106 30016G26KT -<span class=\"hl\">TSRA</span> FEW018CB BKN022 \n  BECMG 1106/1108 36015G25KT BKN008 BKN020 \n  BECMG 1118/1121 -SHSNRA \n  BECMG 1122/1124 -<span class=\"hl\">SHSN</span>"
    },
    {
      "icao": "EPLB",
      "iata": "LUZ",
      "name": "Lublin Airport",
      "updatedAt": "102030Z",
      "visibility_m": 2400,
      "taf_visibility_m": 1200,
      "worst_visibility_m": 1200,
      "ceiling_ft": 3500,
      "hazards": [
        "BR",
        "SN",
        "SHSN"
      ],
      "severityScore": 48,
      "metarRaw": "METAR EPLB 102030Z 25010KT 2400 SN BR SCT024 OVC035 M09/M10 Q1003",
      "tafRaw": "TAF EPLB 101730Z 1018/1118 26008KT 8000 -SN BKN020 \n  TEMPO 1018/1118 2500 SN BKN006 BKN010 \n  PROB40 \n  TEMPO 1023/1107 1200 SHSN BKN003 BKN010CB \n  BECMG 1100/1103 32010KT",
      "metarHtml": "METAR EPLB 102030Z 25010KT 2400 <span class=\"hl\">SN</span> <span class=\"hl\">BR</span> SCT024 OVC035 M09/M10 Q1003",
      "tafHtml": "TAF EPLB 101730Z 1018/1118 26008KT 8000 -<span class=\"hl\">SN</span> BKN020 \n  TEMPO 1018/1118 2500 <span class=\"hl\">SN</span> BKN006 BKN010 \n  PROB40 \n  TEMPO 1023/1107 1200 <span class=\"hl\">SHSN</span> BKN003 BKN010CB \n  BECMG 1100/1103 32010KT"
    },
    {
      "icao": "EHBK",
      "iata": "MST",
      "name": "Maastricht Aachen Airport",
      "updatedAt": "102025Z",
      "visibility_m": 10000,
      "taf_visibility_m": 4000,
      "worst_visibility_m": 4000,
      "ceiling_ft": 1400,
      "hazards": [
        "FZRA"
      ],
      "severityScore": 47,
      "metarRaw": "METAR EHBK 102025Z AUTO 33004KT 290V010 9999 FEW014/// OVC016/// M03/M05 Q1019 TEMPO BKN014",
      "tafRaw": "TAF EHBK 101706Z 1018/1124 VRB02KT 9999 BKN020 \n  PROB40 \n  TEMPO 1018/1021 BKN012 \n  BECMG 1106/1109 15006KT \n  BECMG 1115/1118 18010KT \n  PROB40 \n  TEMPO 1123/1124 4000 SNRA BKN030 \n  PROB30 \n  TEMPO 1123/1124 -FZRA",
      "metarHtml": "METAR EHBK 102025Z AUTO 33004KT 290V010 9999 FEW014/// OVC016/// M03/M05 Q1019 TEMPO BKN014",
      "tafHtml": "TAF EHBK 101706Z 1018/1124 VRB02KT 9999 BKN020 \n  PROB40 \n  TEMPO 1018/1021 BKN012 \n  BECMG 1106/1109 15006KT \n  BECMG 1115/1118 18010KT \n  PROB40 \n  TEMPO 1123/1124 4000 SNRA BKN030 \n  PROB30 \n  TEMPO 1123/1124 -<span class=\"hl\">FZRA</span>"
    },
    {
      "icao": "LFLS",
      "iata": "GNB",
      "name": "Grenoble Alpes Isère Airport",
      "updatedAt": "102030Z",
      "visibility_m": 4800,
      "taf_visibility_m": null,
      "worst_visibility_m": 4800,
      "ceiling_ft": 1300,
      "hazards": [
        "BR",
        "SN"
      ],
      "severityScore": 45,
      "metarRaw": "METAR LFLS 102030Z AUTO VRB02KT 4800 -SN BR BKN013 BKN023 OVC034 01/00 Q1019",
      "tafRaw": null,
      "metarHtml": "METAR LFLS 102030Z AUTO VRB02KT 4800 -<span class=\"hl\">SN</span> <span class=\"hl\">BR</span> BKN013 BKN023 OVC034 01/00 Q1019",
      "tafHtml": null
    },
    {
      "icao": "EDDS",
      "iata": "STR",
      "name": "Stuttgart Airport",
      "updatedAt": "102020Z",
      "visibility_m": 4000,
      "taf_visibility_m": 2500,
      "worst_visibility_m": 2500,
      "ceiling_ft": 800,
      "hazards": [
        "SN"
      ],
      "severityScore": 43,
      "metarRaw": "METAR EDDS 102020Z AUTO 30010KT 9999 FEW005 BKN020 OVC032 M01/M02 Q1013 TEMPO 4000 -SN BKN008",
      "tafRaw": "TAF EDDS 101700Z 1018/1118 32007KT 9999 SCT010 BKN015 \n  PROB40 \n  TEMPO 1018/1103 2500 -SN BKN005 \n  TEMPO 1103/1112 BKN005 \n  BECMG 1105/1108 09003KT \n  TEMPO 1112/1115 BKN012",
      "metarHtml": "METAR EDDS 102020Z AUTO 30010KT 9999 FEW005 BKN020 OVC032 M01/M02 Q1013 TEMPO 4000 -<span class=\"hl\">SN</span> BKN008",
      "tafHtml": "TAF EDDS 101700Z 1018/1118 32007KT 9999 SCT010 BKN015 \n  PROB40 \n  TEMPO 1018/1103 2500 -<span class=\"hl\">SN</span> BKN005 \n  TEMPO 1103/1112 BKN005 \n  BECMG 1105/1108 09003KT \n  TEMPO 1112/1115 BKN012"
    },
    {
      "icao": "LFSB",
      "iata": "BSL",
      "name": "EuroAirport Basel–Mulhouse–Freiburg",
      "updatedAt": "102030Z",
      "visibility_m": 4000,
      "taf_visibility_m": 4000,
      "worst_visibility_m": 4000,
      "ceiling_ft": 500,
      "hazards": [
        "SN"
      ],
      "severityScore": 43,
      "metarRaw": "METAR LFSB 102030Z AUTO 26011KT 9999 BKN029 OVC035 01/M01 Q1016 TEMPO 4000 -SN BKN005",
      "tafRaw": "TAF LFSB 101700Z 1018/1118 25012KT 9999 BKN025 \n  TEMPO 1018/1103 4000 -SN BKN013 \n  PROB40 \n  TEMPO 1021/1105 BKN005 \n  BECMG 1105/1108 VRB03KT",
      "metarHtml": "METAR LFSB 102030Z AUTO 26011KT 9999 BKN029 OVC035 01/M01 Q1016 TEMPO 4000 -<span class=\"hl\">SN</span> BKN005",
      "tafHtml": "TAF LFSB 101700Z 1018/1118 25012KT 9999 BKN025 \n  TEMPO 1018/1103 4000 -<span class=\"hl\">SN</span> BKN013 \n  PROB40 \n  TEMPO 1021/1105 BKN005 \n  BECMG 1105/1108 VRB03KT"
    },
    {
      "icao": "EGPD",
      "iata": "ABZ",
      "name": "Aberdeen International Airport",
      "updatedAt": "102020Z",
      "visibility_m": 10000,
      "taf_visibility_m": 1800,
      "worst_visibility_m": 1800,
      "ceiling_ft": 1200,
      "hazards": [
        "SN",
        "RA"
      ],
      "severityScore": 42,
      "metarRaw": "METAR EGPD 102020Z AUTO 18009KT 9999 BKN012 02/00 Q1013 TEMPO SCT015",
      "tafRaw": "TAF EGPD 101654Z 1018/1118 17010KT 9999 FEW015 SCT025 \n  PROB30 \n  TEMPO 1018/1021 BKN014 \n  TEMPO 1022/1103 18015G25KT \n  BECMG 1103/1106 16020G35KT BKN010 \n  TEMPO 1104/1118 17030G45KT 6000 RA BKN006 \n  PROB30 \n  TEMPO 1105/1111 18040G55KT 1800 SN +RASN BKN004",
      "metarHtml": "METAR EGPD 102020Z AUTO 18009KT 9999 BKN012 02/00 Q1013 TEMPO SCT015",
      "tafHtml": "TAF EGPD 101654Z 1018/1118 17010KT 9999 FEW015 SCT025 \n  PROB30 \n  TEMPO 1018/1021 BKN014 \n  TEMPO 1022/1103 18015G25KT \n  BECMG 1103/1106 16020G35KT BKN010 \n  TEMPO 1104/1118 17030G45KT 6000 <span class=\"hl\">RA</span> BKN006 \n  PROB30 \n  TEMPO 1105/1111 18040G55KT 1800 <span class=\"hl\">SN</span> +RASN BKN004"
    },
    {
      "icao": "LHBP",
      "iata": "BUD",
      "name": "Budapest Liszt Ferenc International Airport",
      "updatedAt": "102030Z",
      "visibility_m": 3500,
      "taf_visibility_m": 1000,
      "worst_visibility_m": 1000,
      "ceiling_ft": 1400,
      "hazards": [
        "BR",
        "SHSN"
      ],
      "severityScore": 42,
      "metarRaw": "METAR LHBP 102030Z 27004KT 3500 BR OVC014 M04/M05 Q1007 NOSIG",
      "tafRaw": "TAF LHBP 101715Z 1018/1118 VRB02KT 5000 BR BKN015 \n  PROB40 \n  TEMPO 1018/1101 10007KT 1000 SHSN BKN004 BKN010TCU \n  BECMG 1101/1104 31012KT CAVOK \n  BECMG 1106/1109 31017G27KT DRSN SCT020 BKN080 \n  BECMG 1115/1118 31012KT CAVOK",
      "metarHtml": "METAR LHBP 102030Z 27004KT 3500 <span class=\"hl\">BR</span> OVC014 M04/M05 Q1007 NOSIG",
      "tafHtml": "TAF LHBP 101715Z 1018/1118 VRB02KT 5000 <span class=\"hl\">BR</span> BKN015 \n  PROB40 \n  TEMPO 1018/1101 10007KT 1000 <span class=\"hl\">SHSN</span> BKN004 BKN010TCU \n  BECMG 1101/1104 31012KT <span class=\"hl-vis\">CAVOK</span> \n  BECMG 1106/1109 31017G27KT DRSN SCT020 BKN080 \n  BECMG 1115/1118 31012KT <span class=\"hl-vis\">CAVOK</span>"
    },
    {
      "icao": "EDFH",
      "iata": "HHN",
      "name": "Frankfurt-Hahn Airport",
      "updatedAt": "102020Z",
      "visibility_m": 9000,
      "taf_visibility_m": null,
      "worst_visibility_m": 9000,
      "ceiling_ft": 400,
      "hazards": [],
      "severityScore": 40,
      "metarRaw": "METAR EDFH 102020Z 01007KT 9000 BKN004 M05/M06 Q1015",
      "tafRaw": null,
      "metarHtml": "METAR EDFH 102020Z 01007KT 9000 BKN004 M05/M06 Q1015",
      "tafHtml": null
    },
    {
      "icao": "EGBB",
      "iata": "BHX",
      "name": "Birmingham Airport",
      "updatedAt": "102020Z",
      "visibility_m": 10000,
      "taf_visibility_m": 2000,
      "worst_visibility_m": 2000,
      "ceiling_ft": null,
      "hazards": [
        "BR",
        "SN",
        "RA"
      ],
      "severityScore": 40,
      "metarRaw": "METAR EGBB 102020Z 14004KT CAVOK M03/M03 Q1020",
      "tafRaw": "TAF EGBB 101657Z 1018/1118 21003KT 9999 FEW025 \n  PROB40 1018/1024 2000 BR MIFG \n  BECMG 1101/1104 15010KT \n  PROB30 \n  TEMPO 1103/1105 6000 RA -RADZ BKN012 \n  PROB30 \n  TEMPO 1104/1108 2500 RASN -SN BKN008 \n  TEMPO 1105/1112 6000 RA -RADZ BKN012 \n  BECMG 1106/1108 18019G32KT \n  PROB30 \n  TEMPO 1108/1115 4000 RADZ BKN008 \n  PROB30 \n  TEMPO 1115/1118 4000 +RA BKN004",
      "metarHtml": "METAR EGBB 102020Z 14004KT <span class=\"hl-vis\">CAVOK</span> M03/M03 Q1020",
      "tafHtml": "TAF EGBB 101657Z 1018/1118 21003KT 9999 FEW025 \n  PROB40 1018/1024 2000 <span class=\"hl\">BR</span> MIFG \n  BECMG 1101/1104 15010KT \n  PROB30 \n  TEMPO 1103/1105 6000 <span class=\"hl\">RA</span> -RADZ BKN012 \n  PROB30 \n  TEMPO 1104/1108 2500 RASN -<span class=\"hl\">SN</span> BKN008 \n  TEMPO 1105/1112 6000 <span class=\"hl\">RA</span> -RADZ BKN012 \n  BECMG 1106/1108 18019G32KT \n  PROB30 \n  TEMPO 1108/1115 4000 RADZ BKN008 \n  PROB30 \n  TEMPO 1115/1118 4000 +<span class=\"hl\">RA</span> BKN004"
    },
    {
      "icao": "LQBK",
      "iata": "BNX",
      "name": "Banja Luka International Airport",
      "updatedAt": "102030Z",
      "visibility_m": 5000,
      "taf_visibility_m": null,
      "worst_visibility_m": 5000,
      "ceiling_ft": 500,
      "hazards": [
        "BR"
      ],
      "severityScore": 40,
      "metarRaw": "METAR LQBK 102030Z VRB01KT 5000 BR BKN005 OVC010 00/M00 Q1007 NOSIG",
      "tafRaw": null,
      "metarHtml": "METAR LQBK 102030Z VRB01KT 5000 <span class=\"hl\">BR</span> BKN005 OVC010 00/M00 Q1007 NOSIG",
      "tafHtml": null
    },
    {
      "icao": "LZTT",
      "iata": "TAT",
      "name": "Poprad-Tatry Airport",
      "updatedAt": "102030Z",
      "visibility_m": 10000,
      "taf_visibility_m": 3000,
      "worst_visibility_m": 3000,
      "ceiling_ft": null,
      "hazards": [
        "SN",
        "BLSN"
      ],
      "severityScore": 40,
      "metarRaw": "METAR LZTT 102030Z 26004KT 9999 SCT030 M13/M16 Q1003",
      "tafRaw": "TAF LZTT 101715Z 1018/1118 10006KT 9999 SCT010 BKN025 \n  BECMG 1019/1021 25009KT \n  TEMPO 1100/1116 27018KT 3000 SN BLSN BKN008",
      "metarHtml": "METAR LZTT 102030Z 26004KT 9999 SCT030 M13/M16 Q1003",
      "tafHtml": "TAF LZTT 101715Z 1018/1118 10006KT 9999 SCT010 BKN025 \n  BECMG 1019/1021 25009KT \n  TEMPO 1100/1116 27018KT 3000 <span class=\"hl\">SN</span> <span class=\"hl\">BLSN</span> BKN008"
    },
    {
      "icao": "LICJ",
      "iata": "PMO",
      "name": "Falcone–Borsellino Airport",
      "updatedAt": "102020Z",
      "visibility_m": 10000,
      "taf_visibility_m": 4000,
      "worst_visibility_m": 4000,
      "ceiling_ft": 5000,
      "hazards": [
        "TSRA",
        "SHRA"
      ],
      "severityScore": 39,
      "metarRaw": "METAR LICJ 102020Z 28032KT 9999 BKN050 13/05 Q1010",
      "tafRaw": "TAF LICJ 101700Z 1018/1118 29030G40KT 9999 SCT030 \n  TEMPO 1018/1024 4000 TSRA \n  TEMPO 1100/1109 SHRA \n  BECMG 1100/1102 30020G30KT \n  BECMG 1107/1109 35018KT",
      "metarHtml": "METAR LICJ 102020Z 28032KT 9999 BKN050 13/05 Q1010",
      "tafHtml": "TAF LICJ 101700Z 1018/1118 29030G40KT 9999 SCT030 \n  TEMPO 1018/1024 4000 <span class=\"hl\">TSRA</span> \n  TEMPO 1100/1109 <span class=\"hl\">SHRA</span> \n  BECMG 1100/1102 30020G30KT \n  BECMG 1107/1109 35018KT"
    },
    {
      "icao": "EPPO",
      "iata": "POZ",
      "name": "Poznań-Ławica Airport",
      "updatedAt": "102030Z",
      "visibility_m": 10000,
      "taf_visibility_m": 1400,
      "worst_visibility_m": 1400,
      "ceiling_ft": null,
      "hazards": [
        "SN",
        "SHSN"
      ],
      "severityScore": 38,
      "metarRaw": "METAR EPPO 102030Z 30009KT 9999 FEW032 M04/M06 Q1010",
      "tafRaw": "TAF EPPO 101730Z 1018/1118 32008KT 9999 SCT030 \n  TEMPO 1018/1021 -SN BKN013 \n  PROB40 \n  TEMPO 1018/1021 2200 SHSN BKN009TCU \n  TEMPO 1021/1024 33015G25KT 2500 -SHSN BKN013CB \n  TEMPO 1100/1118 33020G35KT 1400 SHSN DRSN BKN006 BKN013CB",
      "metarHtml": "METAR EPPO 102030Z 30009KT 9999 FEW032 M04/M06 Q1010",
      "tafHtml": "TAF EPPO 101730Z 1018/1118 32008KT 9999 SCT030 \n  TEMPO 1018/1021 -<span class=\"hl\">SN</span> BKN013 \n  PROB40 \n  TEMPO 1018/1021 2200 <span class=\"hl\">SHSN</span> BKN009TCU \n  TEMPO 1021/1024 33015G25KT 2500 -<span class=\"hl\">SHSN</span> BKN013CB \n  TEMPO 1100/1118 33020G35KT 1400 <span class=\"hl\">SHSN</span> DRSN BKN006 BKN013CB"
    },
    {
      "icao": "LKMT",
      "iata": "OSR",
      "name": "Ostrava Leos Janáček Airport",
      "updatedAt": "102030Z",
      "visibility_m": 10000,
      "taf_visibility_m": 1400,
      "worst_visibility_m": 1400,
      "ceiling_ft": null,
      "hazards": [
        "SN",
        "BR"
      ],
      "severityScore": 38,
      "metarRaw": "METAR LKMT 102030Z 19002KT 9999 -SN FEW049 M08/M11 Q1010 NOSIG",
      "tafRaw": "TAF LKMT 101700Z 1018/1118 36012KT 8000 BKN030 \n  TEMPO 1021/1118 4000 -SN BR BKN018 \n  PROB30 \n  TEMPO 1102/1109 1400 SN BKN006 OVC014",
      "metarHtml": "METAR LKMT 102030Z 19002KT 9999 -<span class=\"hl\">SN</span> FEW049 M08/M11 Q1010 NOSIG",
      "tafHtml": "TAF LKMT 101700Z 1018/1118 36012KT 8000 BKN030 \n  TEMPO 1021/1118 4000 -<span class=\"hl\">SN</span> <span class=\"hl\">BR</span> BKN018 \n  PROB30 \n  TEMPO 1102/1109 1400 <span class=\"hl\">SN</span> BKN006 OVC014"
    },
    {
      "icao": "LRTM",
      "iata": "TGM",
      "name": "Târgu Mureş Transilvania International Airport",
      "updatedAt": "102030Z",
      "visibility_m": 10000,
      "taf_visibility_m": 1500,
      "worst_visibility_m": 1500,
      "ceiling_ft": null,
      "hazards": [
        "BR",
        "SN"
      ],
      "severityScore": 38,
      "metarRaw": "METAR LRTM 102030Z AUTO 23006KT 9999 BKN019/// OVC025/// M03/M04 Q1002",
      "tafRaw": "TAF LRTM 101400Z 1015/1024 VRB04KT 9999 SCT020 BKN030 \n  BECMG 1015/1017 5000 BR \n  TEMPO 1018/1021 1500 BR BKN005 \n  TEMPO 1021/1024 3000 -SN BKN010 OVC020",
      "metarHtml": "METAR LRTM 102030Z AUTO 23006KT 9999 BKN019/// OVC025/// M03/M04 Q1002",
      "tafHtml": "TAF LRTM 101400Z 1015/1024 VRB04KT 9999 SCT020 BKN030 \n  BECMG 1015/1017 5000 <span class=\"hl\">BR</span> \n  TEMPO 1018/1021 1500 <span class=\"hl\">BR</span> BKN005 \n  TEMPO 1021/1024 3000 -<span class=\"hl\">SN</span> BKN010 OVC020"
    },
    {
      "icao": "LATI",
      "iata": "TIA",
      "name": "Tirana International Airport Mother Teresa",
      "updatedAt": "102020Z",
      "visibility_m": 3000,
      "taf_visibility_m": 4000,
      "worst_visibility_m": 3000,
      "ceiling_ft": 3200,
      "hazards": [
        "TSRA",
        "RA"
      ],
      "severityScore": 37,
      "metarRaw": "METAR LATI 102020Z 13012KT 6000 RA FEW013 SCT021CB OVC032 07/05 Q0998 TEMPO 3000 TSRA",
      "tafRaw": "TAF LATI 101700Z 1018/1118 14014KT 9999 SCT030 BKN060 TX12/1112Z TN03/1105Z \n  TEMPO 1018/1101 VRB10G20KT 4000 TSRA FEW010 SCT015CB OVC040 \n  BECMG 1100/1102 34014KT",
      "metarHtml": "METAR LATI 102020Z 13012KT 6000 <span class=\"hl\">RA</span> FEW013 SCT021CB OVC032 07/05 Q0998 TEMPO 3000 <span class=\"hl\">TSRA</span>",
      "tafHtml": "TAF LATI 101700Z 1018/1118 14014KT 9999 SCT030 BKN060 TX12/1112Z TN03/1105Z \n  TEMPO 1018/1101 VRB10G20KT 4000 <span class=\"hl\">TSRA</span> FEW010 SCT015CB OVC040 \n  BECMG 1100/1102 34014KT"
    },
    {
      "icao": "LICA",
      "iata": "SUF",
      "name": "Lamezia Terme Sant'Eufemia International Airport",
      "updatedAt": "102020Z",
      "visibility_m": 10000,
      "taf_visibility_m": 4000,
      "worst_visibility_m": 4000,
      "ceiling_ft": null,
      "hazards": [
        "RA",
        "TSRA"
      ],
      "severityScore": 37,
      "metarRaw": "METAR LICA 102020Z AUTO 29008KT 240V320 9999 -RA BKN039/// 09/06 Q1004",
      "tafRaw": "TAF LICA 101700Z 1018/1118 25025G37KT 9999 SCT020 \n  TEMPO 1018/1022 4000 TSRA \n  BECMG 1020/1022 26018KT \n  BECMG 1103/1105 VRB05KT",
      "metarHtml": "METAR LICA 102020Z AUTO 29008KT 240V320 9999 -<span class=\"hl\">RA</span> BKN039/// 09/06 Q1004",
      "tafHtml": "TAF LICA 101700Z 1018/1118 25025G37KT 9999 SCT020 \n  TEMPO 1018/1022 4000 <span class=\"hl\">TSRA</span> \n  BECMG 1020/1022 26018KT \n  BECMG 1103/1105 VRB05KT"
    },
    {
      "icao": "EDDK",
      "iata": "CGN",
      "name": "Cologne Bonn Airport",
      "updatedAt": "102020Z",
      "visibility_m": 10000,
      "taf_visibility_m": 10000,
      "worst_visibility_m": 10000,
      "ceiling_ft": 4700,
      "hazards": [
        "FZRA"
      ],
      "severityScore": 35,
      "metarRaw": "METAR EDDK 102020Z AUTO 05003KT 9999 OVC047 M02/M04 Q1019 NOSIG",
      "tafRaw": "TAF EDDK 101700Z 1018/1124 VRB03KT 9999 SCT025 \n  BECMG 1103/1106 12006KT \n  BECMG 1117/1120 13011KT \n  BECMG 1122/1124 -FZRA",
      "metarHtml": "METAR EDDK 102020Z AUTO 05003KT 9999 OVC047 M02/M04 Q1019 NOSIG",
      "tafHtml": "TAF EDDK 101700Z 1018/1124 VRB03KT 9999 SCT025 \n  BECMG 1103/1106 12006KT \n  BECMG 1117/1120 13011KT \n  BECMG 1122/1124 -<span class=\"hl\">FZRA</span>"
    },
    {
      "icao": "EDNY",
      "iata": "FDH",
      "name": "Friedrichshafen Airport",
      "updatedAt": "102020Z",
      "visibility_m": 10000,
      "taf_visibility_m": null,
      "worst_visibility_m": 10000,
      "ceiling_ft": 1100,
      "hazards": [
        "SN"
      ],
      "severityScore": 35,
      "metarRaw": "METAR EDNY 102020Z 25008KT 9999 -SN OVC011 00/M01 Q1014",
      "tafRaw": null,
      "metarHtml": "METAR EDNY 102020Z 25008KT 9999 -<span class=\"hl\">SN</span> OVC011 00/M01 Q1014",
      "tafHtml": null
    },
    {
      "icao": "ENGM",
      "iata": "OSL",
      "name": "Oslo-Gardermoen International Airport",
      "updatedAt": "102020Z",
      "visibility_m": 10000,
      "taf_visibility_m": 2000,
      "worst_visibility_m": 2000,
      "ceiling_ft": 400,
      "hazards": [],
      "severityScore": 35,
      "metarRaw": "METAR ENGM 102020Z 01004KT 330V050 9999 BKN007 M16/M18 Q1023 TEMPO BKN004",
      "tafRaw": "TAF ENGM 101700Z 1018/1118 34005KT CAVOK \n  PROB30 1018/1118 2000 BCFG BKN002",
      "metarHtml": "METAR ENGM 102020Z 01004KT 330V050 9999 BKN007 M16/M18 Q1023 TEMPO BKN004",
      "tafHtml": "TAF ENGM 101700Z 1018/1118 34005KT <span class=\"hl-vis\">CAVOK</span> \n  PROB30 1018/1118 2000 BCFG BKN002"
    },
    {
      "icao": "EPKT",
      "iata": "KTW",
      "name": "Katowice Wojciech Korfanty International Airport",
      "updatedAt": "102030Z",
      "visibility_m": 7000,
      "taf_visibility_m": null,
      "worst_visibility_m": 7000,
      "ceiling_ft": 1100,
      "hazards": [
        "SN"
      ],
      "severityScore": 35,
      "metarRaw": "METAR EPKT 102030Z 26013KT 7000 3300N SN OVC011 M07/M10 Q1008",
      "tafRaw": null,
      "metarHtml": "METAR EPKT 102030Z 26013KT 7000 3300N <span class=\"hl\">SN</span> OVC011 M07/M10 Q1008",
      "tafHtml": null
    },
    {
      "icao": "LQTZ",
      "iata": "TZL",
      "name": "Tuzla International Airport",
      "updatedAt": "102030Z",
      "visibility_m": 7000,
      "taf_visibility_m": null,
      "worst_visibility_m": 7000,
      "ceiling_ft": 1500,
      "hazards": [
        "SN"
      ],
      "severityScore": 35,
      "metarRaw": "METAR LQTZ 102030Z COR 31006KT 7000 -SN FEW005 OVC015 00/00 Q1006",
      "tafRaw": null,
      "metarHtml": "METAR LQTZ 102030Z COR 31006KT 7000 -<span class=\"hl\">SN</span> FEW005 OVC015 00/00 Q1006",
      "tafHtml": null
    },
    {
      "icao": "EGKK",
      "iata": "LGW",
      "name": "London Gatwick Airport",
      "updatedAt": "102020Z",
      "visibility_m": 10000,
      "taf_visibility_m": 2500,
      "worst_visibility_m": 2500,
      "ceiling_ft": null,
      "hazards": [
        "BR",
        "RA",
        "DZ"
      ],
      "severityScore": 32,
      "metarRaw": "METAR EGKK 102020Z 11002KT CAVOK M02/M02 Q1021",
      "tafRaw": "TAF EGKK 101652Z 1018/1124 VRB03KT 9999 SCT020 \n  TEMPO 1018/1105 7000 \n  PROB40 1021/1103 4000 BR \n  BECMG 1104/1107 16010KT \n  PROB30 \n  TEMPO 1108/1112 9000 -RA \n  PROB30 \n  TEMPO 1110/1114 16015G25KT \n  BECMG 1111/1114 BKN012 \n  TEMPO 1112/1124 6000 -RADZ BKN006 \n  TEMPO 1114/1124 18017G30KT \n  PROB40 \n  TEMPO 1114/1118 3000 RADZ \n  PROB40 \n  TEMPO 1118/1123 2500 +RADZ \n  BECMG 1121/1124 22010KT \n  PROB30 \n  TEMPO 1123/1124 4000 -DZ BR",
      "metarHtml": "METAR EGKK 102020Z 11002KT <span class=\"hl-vis\">CAVOK</span> M02/M02 Q1021",
      "tafHtml": "TAF EGKK 101652Z 1018/1124 VRB03KT 9999 SCT020 \n  TEMPO 1018/1105 7000 \n  PROB40 1021/1103 4000 <span class=\"hl\">BR</span> \n  BECMG 1104/1107 16010KT \n  PROB30 \n  TEMPO 1108/1112 9000 -<span class=\"hl\">RA</span> \n  PROB30 \n  TEMPO 1110/1114 16015G25KT \n  BECMG 1111/1114 BKN012 \n  TEMPO 1112/1124 6000 -RADZ BKN006 \n  TEMPO 1114/1124 18017G30KT \n  PROB40 \n  TEMPO 1114/1118 3000 RADZ \n  PROB40 \n  TEMPO 1118/1123 2500 +RADZ \n  BECMG 1121/1124 22010KT \n  PROB30 \n  TEMPO 1123/1124 4000 -<span class=\"hl\">DZ</span> <span class=\"hl\">BR</span>"
    },
    {
      "icao": "EDSB",
      "iata": "FKB",
      "name": "Karlsruhe Baden-Baden Airport",
      "updatedAt": "102020Z",
      "visibility_m": 8000,
      "taf_visibility_m": 2500,
      "worst_visibility_m": 2500,
      "ceiling_ft": 1100,
      "hazards": [
        "SN"
      ],
      "severityScore": 30,
      "metarRaw": "METAR EDSB 102020Z 04008KT 8000 OVC011 M00/M02 Q1017",
      "tafRaw": "TAF EDSB 101700Z 1018/1118 34004KT 9999 SCT005 BKN020 \n  PROB40 \n  TEMPO 1018/1024 2500 -SN BKN004 \n  TEMPO 1100/1114 BKN004 \n  PROB30 \n  TEMPO 1114/1118 BKN012",
      "metarHtml": "METAR EDSB 102020Z 04008KT 8000 OVC011 M00/M02 Q1017",
      "tafHtml": "TAF EDSB 101700Z 1018/1118 34004KT 9999 SCT005 BKN020 \n  PROB40 \n  TEMPO 1018/1024 2500 -<span class=\"hl\">SN</span> BKN004 \n  TEMPO 1100/1114 BKN004 \n  PROB30 \n  TEMPO 1114/1118 BKN012"
    },
    {
      "icao": "EGGP",
      "iata": "LPL",
      "name": "Liverpool John Lennon Airport",
      "updatedAt": "102020Z",
      "visibility_m": 10000,
      "taf_visibility_m": 2000,
      "worst_visibility_m": 2000,
      "ceiling_ft": null,
      "hazards": [
        "SN",
        "RA"
      ],
      "severityScore": 30,
      "metarRaw": "METAR EGGP 102020Z 15006KT CAVOK 01/M01 Q1019",
      "tafRaw": "TAF EGGP 101657Z 1018/1118 17004KT 9999 SCT040 \n  PROB40 1018/1102 6000 \n  BECMG 1023/1102 14015G25KT \n  PROB40 \n  TEMPO 1102/1104 2000 -SN BKN004 \n  TEMPO 1104/1107 15025G35KT 6000 RA BKN008 \n  PROB30 \n  TEMPO 1104/1107 4000 +RA RASN BKN004 \n  TEMPO 1107/1118 15025G35KT 6000 RA -RADZ BKN012 \n  PROB30 \n  TEMPO 1107/1118 4000 RADZ BKN006",
      "metarHtml": "METAR EGGP 102020Z 15006KT <span class=\"hl-vis\">CAVOK</span> 01/M01 Q1019",
      "tafHtml": "TAF EGGP 101657Z 1018/1118 17004KT 9999 SCT040 \n  PROB40 1018/1102 6000 \n  BECMG 1023/1102 14015G25KT \n  PROB40 \n  TEMPO 1102/1104 2000 -<span class=\"hl\">SN</span> BKN004 \n  TEMPO 1104/1107 15025G35KT 6000 <span class=\"hl\">RA</span> BKN008 \n  PROB30 \n  TEMPO 1104/1107 4000 +<span class=\"hl\">RA</span> RASN BKN004 \n  TEMPO 1107/1118 15025G35KT 6000 <span class=\"hl\">RA</span> -RADZ BKN012 \n  PROB30 \n  TEMPO 1107/1118 4000 RADZ BKN006"
    },
    {
      "icao": "EPRA",
      "iata": "RDO",
      "name": "Warsaw Radom Airport",
      "updatedAt": "102030Z",
      "visibility_m": 9000,
      "taf_visibility_m": 3000,
      "worst_visibility_m": 3000,
      "ceiling_ft": 1000,
      "hazards": [
        "SN"
      ],
      "severityScore": 30,
      "metarRaw": "METAR EPRA 102030Z 29008KT 9000 -SN BKN010 M06/M09 Q1004",
      "tafRaw": "TAF EPRA 102030Z 1021/1106 29010KT 7000 -SN BKN010 \n  TEMPO 1022/1106 3000 SN OVC007",
      "metarHtml": "METAR EPRA 102030Z 29008KT 9000 -<span class=\"hl\">SN</span> BKN010 M06/M09 Q1004",
      "tafHtml": "TAF EPRA 102030Z 1021/1106 29010KT 7000 -<span class=\"hl\">SN</span> BKN010 \n  TEMPO 1022/1106 3000 <span class=\"hl\">SN</span> OVC007"
    },
    {
      "icao": "LBPD",
      "iata": "PDV",
      "name": "Plovdiv International Airport",
      "updatedAt": "102030Z",
      "visibility_m": 10000,
      "taf_visibility_m": 3000,
      "worst_visibility_m": 3000,
      "ceiling_ft": null,
      "hazards": [
        "SN",
        "RA"
      ],
      "severityScore": 30,
      "metarRaw": "METAR LBPD 102030Z AUTO 30003KT 230V330 9999 SCT190/// 02/02 Q0997",
      "tafRaw": "TAF LBPD 101700Z 1018/1118 28010KT 9999 SCT020 BKN050 \n  TEMPO 1018/1020 5000 RA BKN015 OVC030 \n  BECMG 1021/1023 28017G27KT \n  TEMPO 1104/1110 5000 RA BKN015 OVC020 \n  TEMPO 1114/1118 3000 SN BKN008 OVC020",
      "metarHtml": "METAR LBPD 102030Z AUTO 30003KT 230V330 9999 SCT190/// 02/02 Q0997",
      "tafHtml": "TAF LBPD 101700Z 1018/1118 28010KT 9999 SCT020 BKN050 \n  TEMPO 1018/1020 5000 <span class=\"hl\">RA</span> BKN015 OVC030 \n  BECMG 1021/1023 28017G27KT \n  TEMPO 1104/1110 5000 <span class=\"hl\">RA</span> BKN015 OVC020 \n  TEMPO 1114/1118 3000 <span class=\"hl\">SN</span> BKN008 OVC020"
    },
    {
      "icao": "LQSA",
      "iata": "SJJ",
      "name": "Sarajevo International Airport",
      "updatedAt": "102030Z",
      "visibility_m": 10000,
      "taf_visibility_m": 3000,
      "worst_visibility_m": 3000,
      "ceiling_ft": 1500,
      "hazards": [
        "SN"
      ],
      "severityScore": 30,
      "metarRaw": "METAR LQSA 102030Z 30006KT 9999 BKN015 01/00 Q1003 NOSIG",
      "tafRaw": "TAF LQSA 101700Z 1018/1118 29006KT 6000 SCT010 BKN025 TX00/1018Z TNM07/1118Z \n  TEMPO 1018/1100 30010KT 3000 SN BKN010 OVC020 \n  TEMPO 1106/1111 35015KT",
      "metarHtml": "METAR LQSA 102030Z 30006KT 9999 BKN015 01/00 Q1003 NOSIG",
      "tafHtml": "TAF LQSA 101700Z 1018/1118 29006KT 6000 SCT010 BKN025 TX00/1018Z TNM07/1118Z \n  TEMPO 1018/1100 30010KT 3000 <span class=\"hl\">SN</span> BKN010 OVC020 \n  TEMPO 1106/1111 35015KT"
    },
    {
      "icao": "LRCL",
      "iata": "CLJ",
      "name": "Cluj Avram Iancu International Airport",
      "updatedAt": "102030Z",
      "visibility_m": 6000,
      "taf_visibility_m": 5000,
      "worst_visibility_m": 5000,
      "ceiling_ft": 1100,
      "hazards": [
        "SN"
      ],
      "severityScore": 30,
      "metarRaw": "METAR LRCL 102030Z 26004KT 6000 -SN OVC011 M03/M04 Q1002",
      "tafRaw": "TAF LRCL 102000Z 1021/1106 VRB03KT 9999 OVC010 \n  PROB30 \n  TEMPO 1021/1024 5000 -SN BKN005 OVC010 \n  BECMG 1022/1024 30010KT \n  BECMG 1101/1103 SCT010 BKN065",
      "metarHtml": "METAR LRCL 102030Z 26004KT 6000 -<span class=\"hl\">SN</span> OVC011 M03/M04 Q1002",
      "tafHtml": "TAF LRCL 102000Z 1021/1106 VRB03KT 9999 OVC010 \n  PROB30 \n  TEMPO 1021/1024 5000 -<span class=\"hl\">SN</span> BKN005 OVC010 \n  BECMG 1022/1024 30010KT \n  BECMG 1101/1103 SCT010 BKN065"
    },
    {
      "icao": "EDJA",
      "iata": "FMM",
      "name": "Memmingen Allgau Airport",
      "updatedAt": "102020Z",
      "visibility_m": 10000,
      "taf_visibility_m": 1500,
      "worst_visibility_m": 1500,
      "ceiling_ft": 2400,
      "hazards": [
        "SN"
      ],
      "severityScore": 28,
      "metarRaw": "METAR EDJA 102020Z 24010KT 9999 -SN FEW010 BKN024 OVC035 M01/M03 Q1012",
      "tafRaw": "TAF EDJA 101700Z 1018/1103 25010KT 6000 SCT008 OVC015 \n  TEMPO 1018/1022 1500 SN BKN006 \n  BECMG 1020/1022 29005KT \n  TEMPO 1022/1103 2500 -SN BKN004",
      "metarHtml": "METAR EDJA 102020Z 24010KT 9999 -<span class=\"hl\">SN</span> FEW010 BKN024 OVC035 M01/M03 Q1012",
      "tafHtml": "TAF EDJA 101700Z 1018/1103 25010KT 6000 SCT008 OVC015 \n  TEMPO 1018/1022 1500 <span class=\"hl\">SN</span> BKN006 \n  BECMG 1020/1022 29005KT \n  TEMPO 1022/1103 2500 -<span class=\"hl\">SN</span> BKN004"
    },
    {
      "icao": "EPSY",
      "iata": "SZY",
      "name": "Olsztyn-Mazury Airport",
      "updatedAt": "102030Z",
      "visibility_m": 5000,
      "taf_visibility_m": 2000,
      "worst_visibility_m": 2000,
      "ceiling_ft": 2500,
      "hazards": [
        "BR",
        "SN"
      ],
      "severityScore": 28,
      "metarRaw": "METAR EPSY 102030Z 31005KT 5000 -SN BR BKN025 M06/M08 Q1003",
      "tafRaw": "TAF EPSY 102030Z 1021/1106 32007KT 9999 BKN025 \n  TEMPO 1021/1106 4000 -SN BR BKN012 \n  PROB30 \n  TEMPO 1021/1103 2000 SN BR BKN007",
      "metarHtml": "METAR EPSY 102030Z 31005KT 5000 -<span class=\"hl\">SN</span> <span class=\"hl\">BR</span> BKN025 M06/M08 Q1003",
      "tafHtml": "TAF EPSY 102030Z 1021/1106 32007KT 9999 BKN025 \n  TEMPO 1021/1106 4000 -<span class=\"hl\">SN</span> <span class=\"hl\">BR</span> BKN012 \n  PROB30 \n  TEMPO 1021/1103 2000 <span class=\"hl\">SN</span> <span class=\"hl\">BR</span> BKN007"
    },
    {
      "icao": "EYKA",
      "iata": "KUN",
      "name": "Kaunas International Airport",
      "updatedAt": "102020Z",
      "visibility_m": 7000,
      "taf_visibility_m": 5000,
      "worst_visibility_m": 5000,
      "ceiling_ft": 4100,
      "hazards": [
        "SN",
        "BR"
      ],
      "severityScore": 28,
      "metarRaw": "METAR EYKA 102020Z 31002KT 7000 -SN FEW021 SCT026 BKN041 M12/M13 Q1002",
      "tafRaw": "TAF EYKA 101706Z 1018/1118 VRB04KT 8000 SCT010 BKN020 \n  TEMPO 1018/1024 5000 SN BR SCT005 BKN010 \n  BECMG 1100/1101 BKN010 \n  TEMPO 1101/1108 5000 SN BR BKN005 \n  BECMG 1108/1110 BKN015 \n  TEMPO 1112/1118 5000 SN BKN010",
      "metarHtml": "METAR EYKA 102020Z 31002KT 7000 -<span class=\"hl\">SN</span> FEW021 SCT026 BKN041 M12/M13 Q1002",
      "tafHtml": "TAF EYKA 101706Z 1018/1118 VRB04KT 8000 SCT010 BKN020 \n  TEMPO 1018/1024 5000 <span class=\"hl\">SN</span> <span class=\"hl\">BR</span> SCT005 BKN010 \n  BECMG 1100/1101 BKN010 \n  TEMPO 1101/1108 5000 <span class=\"hl\">SN</span> <span class=\"hl\">BR</span> BKN005 \n  BECMG 1108/1110 BKN015 \n  TEMPO 1112/1118 5000 <span class=\"hl\">SN</span> BKN010"
    },
    {
      "icao": "EYPA",
      "iata": "PLQ",
      "name": "Palanga International Airport",
      "updatedAt": "102020Z",
      "visibility_m": 10000,
      "taf_visibility_m": 1500,
      "worst_visibility_m": 1500,
      "ceiling_ft": null,
      "hazards": [
        "SN"
      ],
      "severityScore": 28,
      "metarRaw": "METAR EYPA 102020Z 02013KT CAVOK M05/M09 Q1004",
      "tafRaw": "TAF EYPA 101707Z 1018/1118 01010KT 9000 SCT030 \n  TEMPO 1020/1024 1500 SN BKN010 \n  BECMG 1100/1101 VRB04KT \n  TEMPO 1101/1109 5000 SN SCT010 BKN015 \n  TEMPO 1109/1115 3000 SN BKN010",
      "metarHtml": "METAR EYPA 102020Z 02013KT <span class=\"hl-vis\">CAVOK</span> M05/M09 Q1004",
      "tafHtml": "TAF EYPA 101707Z 1018/1118 01010KT 9000 SCT030 \n  TEMPO 1020/1024 1500 <span class=\"hl\">SN</span> BKN010 \n  BECMG 1100/1101 VRB04KT \n  TEMPO 1101/1109 5000 <span class=\"hl\">SN</span> SCT010 BKN015 \n  TEMPO 1109/1115 3000 <span class=\"hl\">SN</span> BKN010"
    },
    {
      "icao": "EYVI",
      "iata": "VNO",
      "name": "Vilnius International Airport",
      "updatedAt": "102020Z",
      "visibility_m": 9000,
      "taf_visibility_m": 3000,
      "worst_visibility_m": 3000,
      "ceiling_ft": null,
      "hazards": [
        "SN",
        "BR"
      ],
      "severityScore": 28,
      "metarRaw": "METAR EYVI 102020Z 31004KT 9000 -SN SCT031 M12/M14 Q0999 NOSIG",
      "tafRaw": "TAF EYVI 101711Z 1018/1118 VRB04KT 8000 SCT010 BKN020 \n  TEMPO 1018/1024 5000 SN BR SCT005 BKN010 \n  BECMG 1100/1102 BKN005 \n  TEMPO 1102/1108 3000 BR BKN002 \n  BECMG 1108/1109 BKN010 \n  TEMPO 1109/1115 32010KT \n  TEMPO 1115/1118 5000 SN BR BKN005",
      "metarHtml": "METAR EYVI 102020Z 31004KT 9000 -<span class=\"hl\">SN</span> SCT031 M12/M14 Q0999 NOSIG",
      "tafHtml": "TAF EYVI 101711Z 1018/1118 VRB04KT 8000 SCT010 BKN020 \n  TEMPO 1018/1024 5000 <span class=\"hl\">SN</span> <span class=\"hl\">BR</span> SCT005 BKN010 \n  BECMG 1100/1102 BKN005 \n  TEMPO 1102/1108 3000 <span class=\"hl\">BR</span> BKN002 \n  BECMG 1108/1109 BKN010 \n  TEMPO 1109/1115 32010KT \n  TEMPO 1115/1118 5000 <span class=\"hl\">SN</span> <span class=\"hl\">BR</span> BKN005"
    },
    {
      "icao": "LFLL",
      "iata": "LYS",
      "name": "Lyon Saint-Exupéry Airport",
      "updatedAt": "102030Z",
      "visibility_m": 10000,
      "taf_visibility_m": 4000,
      "worst_visibility_m": 4000,
      "ceiling_ft": 2600,
      "hazards": [
        "SN",
        "SHSN"
      ],
      "severityScore": 28,
      "metarRaw": "METAR LFLL 102030Z 36003KT 9999 -RASN BKN026 BKN033 01/00 Q1020 NOSIG",
      "tafRaw": "TAF LFLL 101700Z 1018/1124 31008KT 9999 BKN035 \n  TEMPO 1018/1020 -SHSNRA BKN014 SCT018TCU BKN020 \n  TEMPO 1018/1024 4000 -SHSN BKN012 \n  PROB30 \n  TEMPO 1100/1105 4000 -SN BKN012 \n  BECMG 1104/1106 BKN012 \n  PROB30 \n  TEMPO 1107/1110 BKN008 \n  BECMG 1111/1114 SCT015 \n  BECMG 1117/1119 VRB02KT",
      "metarHtml": "METAR LFLL 102030Z 36003KT 9999 -RASN BKN026 BKN033 01/00 Q1020 NOSIG",
      "tafHtml": "TAF LFLL 101700Z 1018/1124 31008KT 9999 BKN035 \n  TEMPO 1018/1020 -SHSNRA BKN014 SCT018TCU BKN020 \n  TEMPO 1018/1024 4000 -<span class=\"hl\">SHSN</span> BKN012 \n  PROB30 \n  TEMPO 1100/1105 4000 -<span class=\"hl\">SN</span> BKN012 \n  BECMG 1104/1106 BKN012 \n  PROB30 \n  TEMPO 1107/1110 BKN008 \n  BECMG 1111/1114 SCT015 \n  BECMG 1117/1119 VRB02KT"
    },
    {
      "icao": "LRBV",
      "iata": "GHV",
      "name": "Brașov-Ghimbav International Airport",
      "updatedAt": "102030Z",
      "visibility_m": 7000,
      "taf_visibility_m": 3000,
      "worst_visibility_m": 3000,
      "ceiling_ft": 2000,
      "hazards": [
        "BR",
        "SN"
      ],
      "severityScore": 28,
      "metarRaw": "METAR LRBV 102030Z VRB02KT 7000 OVC020 M02/M04 Q0999",
      "tafRaw": "TAF LRBV 102000Z 1021/1106 29007KT 7000 SCT010 OVC020 \n  BECMG 1022/1024 5000 -SN BR BKN010 OVC020 \n  TEMPO 1100/1104 3000 SN BR",
      "metarHtml": "METAR LRBV 102030Z VRB02KT 7000 OVC020 M02/M04 Q0999",
      "tafHtml": "TAF LRBV 102000Z 1021/1106 29007KT 7000 SCT010 OVC020 \n  BECMG 1022/1024 5000 -<span class=\"hl\">SN</span> <span class=\"hl\">BR</span> BKN010 OVC020 \n  TEMPO 1100/1104 3000 <span class=\"hl\">SN</span> <span class=\"hl\">BR</span>"
    },
    {
      "icao": "LEBB",
      "iata": "BIO",
      "name": "Bilbao Airport",
      "updatedAt": "102030Z",
      "visibility_m": 10000,
      "taf_visibility_m": 3000,
      "worst_visibility_m": 3000,
      "ceiling_ft": null,
      "hazards": [
        "SHRA",
        "RA"
      ],
      "severityScore": 26,
      "metarRaw": "METAR LEBB 102030Z 13005KT 9999 -SHRA FEW020 FEW025TCU SCT034 08/08 Q1027 TEMPO SHRA",
      "tafRaw": "TAF LEBB 101700Z 1018/1118 24008KT 9999 FEW020 BKN040 TX14/1114Z TN04/1105Z \n  TEMPO 1018/1020 3000 SHRA FEW025TCU \n  PROB30 \n  TEMPO 1020/1101 SHRA FEW025TCU \n  TEMPO 1101/1107 14010KT \n  PROB30 \n  TEMPO 1108/1110 RA \n  PROB30 \n  TEMPO 1110/1118 22015G25KT",
      "metarHtml": "METAR LEBB 102030Z 13005KT 9999 -<span class=\"hl\">SHRA</span> FEW020 FEW025TCU SCT034 08/08 Q1027 TEMPO <span class=\"hl\">SHRA</span>",
      "tafHtml": "TAF LEBB 101700Z 1018/1118 24008KT 9999 FEW020 BKN040 TX14/1114Z TN04/1105Z \n  TEMPO 1018/1020 3000 <span class=\"hl\">SHRA</span> FEW025TCU \n  PROB30 \n  TEMPO 1020/1101 <span class=\"hl\">SHRA</span> FEW025TCU \n  TEMPO 1101/1107 14010KT \n  PROB30 \n  TEMPO 1108/1110 <span class=\"hl\">RA</span> \n  PROB30 \n  TEMPO 1110/1118 22015G25KT"
    },
    {
      "icao": "LIBR",
      "iata": "BDS",
      "name": "Brindisi Airport",
      "updatedAt": "102020Z",
      "visibility_m": 10000,
      "taf_visibility_m": 10000,
      "worst_visibility_m": 10000,
      "ceiling_ft": 2000,
      "hazards": [
        "RA",
        "SHRA"
      ],
      "severityScore": 26,
      "metarRaw": "METAR LIBR 102020Z 28013KT 9999 -RA BKN020 08/05 Q1000",
      "tafRaw": "TAF LIBR 101700Z 1018/1118 28015KT 9999 SCT040 \n  TEMPO 1018/1020 SHRA \n  TEMPO 1100/1106 SHRA \n  BECMG 1101/1103 33016G28KT",
      "metarHtml": "METAR LIBR 102020Z 28013KT 9999 -<span class=\"hl\">RA</span> BKN020 08/05 Q1000",
      "tafHtml": "TAF LIBR 101700Z 1018/1118 28015KT 9999 SCT040 \n  TEMPO 1018/1020 <span class=\"hl\">SHRA</span> \n  TEMPO 1100/1106 <span class=\"hl\">SHRA</span> \n  BECMG 1101/1103 33016G28KT"
    },
    {
      "icao": "LYPG",
      "iata": "TGD",
      "name": "Podgorica Airport / Podgorica Golubovci Airbase",
      "updatedAt": "102030Z",
      "visibility_m": 10000,
      "taf_visibility_m": 3000,
      "worst_visibility_m": 3000,
      "ceiling_ft": 7000,
      "hazards": [
        "RA",
        "SHRA"
      ],
      "severityScore": 26,
      "metarRaw": "METAR LYPG 102030Z 05004KT 9999 -RA FEW026 SCT040 OVC070 06/03 Q0998 NOSIG",
      "tafRaw": "TAF LYPG 101700Z 1018/1118 36012KT 9999 SCT040 SCT070 TX08/1021Z TN04/1105Z \n  TEMPO 1018/1021 3000 SHRA FEW010 SCT030TCU BKN040 \n  BECMG 1019/1021 36015G25KT \n  TEMPO 1021/1118 02020G35KT",
      "metarHtml": "METAR LYPG 102030Z 05004KT 9999 -<span class=\"hl\">RA</span> FEW026 SCT040 OVC070 06/03 Q0998 NOSIG",
      "tafHtml": "TAF LYPG 101700Z 1018/1118 36012KT 9999 SCT040 SCT070 TX08/1021Z TN04/1105Z \n  TEMPO 1018/1021 3000 <span class=\"hl\">SHRA</span> FEW010 SCT030TCU BKN040 \n  BECMG 1019/1021 36015G25KT \n  TEMPO 1021/1118 02020G35KT"
    },
    {
      "icao": "LPPR",
      "iata": "OPO",
      "name": "Francisco de Sá Carneiro Airport",
      "updatedAt": "102030Z",
      "visibility_m": 10000,
      "taf_visibility_m": 5000,
      "worst_visibility_m": 5000,
      "ceiling_ft": 4800,
      "hazards": [
        "BR",
        "RA"
      ],
      "severityScore": 22,
      "metarRaw": "METAR LPPR 102030Z 17008KT 9999 FEW015 BKN048 12/08 Q1028",
      "tafRaw": "TAF LPPR 101700Z 1018/1118 20007KT 9999 FEW015 BKN035 \n  BECMG 1100/1102 16010KT SCT008 BKN015 \n  TEMPO 1102/1118 5000 RA BR SCT004 BKN008",
      "metarHtml": "METAR LPPR 102030Z 17008KT 9999 FEW015 BKN048 12/08 Q1028",
      "tafHtml": "TAF LPPR 101700Z 1018/1118 20007KT 9999 FEW015 BKN035 \n  BECMG 1100/1102 16010KT SCT008 BKN015 \n  TEMPO 1102/1118 5000 <span class=\"hl\">RA</span> <span class=\"hl\">BR</span> SCT004 BKN008"
    },
    {
      "icao": "UBBB",
      "iata": "GYD",
      "name": "Heydar Aliyev International Airport",
      "updatedAt": "102030Z",
      "visibility_m": 10000,
      "taf_visibility_m": 4000,
      "worst_visibility_m": 4000,
      "ceiling_ft": 2900,
      "hazards": [
        "BR",
        "RA"
      ],
      "severityScore": 22,
      "metarRaw": "METAR UBBB 102030Z 31006KT 9999 OVC029 06/05 Q1017 NOSIG",
      "tafRaw": "TAF UBBB 101659Z 1018/1118 33010KT 8000 BKN007 BKN025 TX12/1110Z TN04/1102Z \n  TEMPO 1018/1021 30005KT 5000 -RA BKN004 OVC020 \n  BECMG 1021/1023 VRB04KT \n  TEMPO 1023/1102 16005KT 4000 BR SCT005 \n  BECMG 1102/1104 18014KT SCT006 \n  TEMPO 1106/1118 21018G28KT SCT025",
      "metarHtml": "METAR UBBB 102030Z 31006KT 9999 OVC029 06/05 Q1017 NOSIG",
      "tafHtml": "TAF UBBB 101659Z 1018/1118 33010KT 8000 BKN007 BKN025 TX12/1110Z TN04/1102Z \n  TEMPO 1018/1021 30005KT 5000 -<span class=\"hl\">RA</span> BKN004 OVC020 \n  BECMG 1021/1023 VRB04KT \n  TEMPO 1023/1102 16005KT 4000 <span class=\"hl\">BR</span> SCT005 \n  BECMG 1102/1104 18014KT SCT006 \n  TEMPO 1106/1118 21018G28KT SCT025"
    },
    {
      "icao": "LHDC",
      "iata": "DEB",
      "name": "Debrecen International Airport",
      "updatedAt": "102015Z",
      "visibility_m": 10000,
      "taf_visibility_m": 4000,
      "worst_visibility_m": 4000,
      "ceiling_ft": 3800,
      "hazards": [
        "BR",
        "SHSN"
      ],
      "severityScore": 20,
      "metarRaw": "METAR LHDC 102015Z AUTO 02017KT 9999 OVC038 M07/M13 Q1006",
      "tafRaw": "TAF LHDC 101415Z 1015/1024 VRB03KT 7000 BKN025 BKN060 \n  PROB40 1015/1017 4000 BR \n  BECMG 1016/1019 03012G22KT \n  TEMPO 1018/1022 5000 -SHSN",
      "metarHtml": "METAR LHDC 102015Z AUTO 02017KT 9999 OVC038 M07/M13 Q1006",
      "tafHtml": "TAF LHDC 101415Z 1015/1024 VRB03KT 7000 BKN025 BKN060 \n  PROB40 1015/1017 4000 <span class=\"hl\">BR</span> \n  BECMG 1016/1019 03012G22KT \n  TEMPO 1018/1022 5000 -<span class=\"hl\">SHSN</span>"
    },
    {
      "icao": "EDDN",
      "iata": "NUE",
      "name": "Nuremberg Airport",
      "updatedAt": "102020Z",
      "visibility_m": 10000,
      "taf_visibility_m": 3500,
      "worst_visibility_m": 3500,
      "ceiling_ft": 3700,
      "hazards": [
        "SN"
      ],
      "severityScore": 18,
      "metarRaw": "METAR EDDN 102020Z AUTO 35006KT 9999 BKN037 M04/M06 Q1015 NOSIG",
      "tafRaw": "TAF EDDN 101700Z 1018/1118 35006KT 7000 SCT009 OVC020 \n  TEMPO 1018/1021 3500 -SN BKN009 \n  BECMG 1103/1105 25003KT \n  PROB30 \n  TEMPO 1103/1105 BKN010 \n  PROB40 \n  TEMPO 1112/1118 BKN014",
      "metarHtml": "METAR EDDN 102020Z AUTO 35006KT 9999 BKN037 M04/M06 Q1015 NOSIG",
      "tafHtml": "TAF EDDN 101700Z 1018/1118 35006KT 7000 SCT009 OVC020 \n  TEMPO 1018/1021 3500 -<span class=\"hl\">SN</span> BKN009 \n  BECMG 1103/1105 25003KT \n  PROB30 \n  TEMPO 1103/1105 BKN010 \n  PROB40 \n  TEMPO 1112/1118 BKN014"
    },
    {
      "icao": "EFTU",
      "iata": "TKU",
      "name": "Turku Airport",
      "updatedAt": "102020Z",
      "visibility_m": 10000,
      "taf_visibility_m": 4000,
      "worst_visibility_m": 4000,
      "ceiling_ft": null,
      "hazards": [
        "SN"
      ],
      "severityScore": 18,
      "metarRaw": "METAR EFTU 102020Z AUTO 03008KT 360V070 CAVOK M08/M11 Q1012",
      "tafRaw": "TAF EFTU 102024Z 1021/1121 02010KT CAVOK \n  TEMPO 1021/1104 02015G25KT DRSN \n  BECMG 1104/1106 4000 -SN \n  BECMG 1112/1114 8000 BKN013 \n  TEMPO 1114/1121 6000 BKN015",
      "metarHtml": "METAR EFTU 102020Z AUTO 03008KT 360V070 <span class=\"hl-vis\">CAVOK</span> M08/M11 Q1012",
      "tafHtml": "TAF EFTU 102024Z 1021/1121 02010KT <span class=\"hl-vis\">CAVOK</span> \n  TEMPO 1021/1104 02015G25KT DRSN \n  BECMG 1104/1106 4000 -<span class=\"hl\">SN</span> \n  BECMG 1112/1114 8000 BKN013 \n  TEMPO 1114/1121 6000 BKN015"
    },
    {
      "icao": "EPWR",
      "iata": "WRO",
      "name": "Copernicus Wrocław Airport",
      "updatedAt": "102030Z",
      "visibility_m": 10000,
      "taf_visibility_m": 2000,
      "worst_visibility_m": 2000,
      "ceiling_ft": null,
      "hazards": [
        "SN"
      ],
      "severityScore": 18,
      "metarRaw": "METAR EPWR 102030Z 29017KT 9999 FEW035 M06/M09 Q1011",
      "tafRaw": "TAF EPWR 102030Z 1021/1121 29010KT 7000 -SN BKN030 \n  PROB40 \n  TEMPO 1102/1116 31020G35KT 2000 SN DRSN BKN007 BKN012CB",
      "metarHtml": "METAR EPWR 102030Z 29017KT 9999 FEW035 M06/M09 Q1011",
      "tafHtml": "TAF EPWR 102030Z 1021/1121 29010KT 7000 -<span class=\"hl\">SN</span> BKN030 \n  PROB40 \n  TEMPO 1102/1116 31020G35KT 2000 <span class=\"hl\">SN</span> DRSN BKN007 BKN012CB"
    },
    {
      "icao": "LKPR",
      "iata": "PRG",
      "name": "Václav Havel Airport Prague",
      "updatedAt": "102030Z",
      "visibility_m": 10000,
      "taf_visibility_m": 7000,
      "worst_visibility_m": 7000,
      "ceiling_ft": 4200,
      "hazards": [
        "SN"
      ],
      "severityScore": 18,
      "metarRaw": "METAR LKPR 102030Z 23005KT 9999 BKN042 M08/M10 Q1014 NOSIG",
      "tafRaw": "TAF LKPR 102000Z 1021/1203 26008KT CAVOK \n  TEMPO 1021/1103 7000 -SN BKN025 \n  BECMG 1102/1104 31014KT",
      "metarHtml": "METAR LKPR 102030Z 23005KT 9999 BKN042 M08/M10 Q1014 NOSIG",
      "tafHtml": "TAF LKPR 102000Z 1021/1203 26008KT <span class=\"hl-vis\">CAVOK</span> \n  TEMPO 1021/1103 7000 -<span class=\"hl\">SN</span> BKN025 \n  BECMG 1102/1104 31014KT"
    },
    {
      "icao": "LRBC",
      "iata": "BCM",
      "name": "Bacău George Enescu International  Airport",
      "updatedAt": "102030Z",
      "visibility_m": 10000,
      "taf_visibility_m": 5000,
      "worst_visibility_m": 5000,
      "ceiling_ft": 3500,
      "hazards": [
        "SN"
      ],
      "severityScore": 18,
      "metarRaw": "METAR LRBC 102030Z 34017KT 9999 OVC035 M06/M10 Q1003",
      "tafRaw": "TAF LRBC 102000Z 1021/1106 35014KT CAVOK \n  PROB40 \n  TEMPO 1023/1105 5000 -SN BKN010 BKN030",
      "metarHtml": "METAR LRBC 102030Z 34017KT 9999 OVC035 M06/M10 Q1003",
      "tafHtml": "TAF LRBC 102000Z 1021/1106 35014KT <span class=\"hl-vis\">CAVOK</span> \n  PROB40 \n  TEMPO 1023/1105 5000 -<span class=\"hl\">SN</span> BKN010 BKN030"
    },
    {
      "icao": "LCLK",
      "iata": "LCA",
      "name": "Larnaca International Airport",
      "updatedAt": "102030Z",
      "visibility_m": 10000,
      "taf_visibility_m": 5000,
      "worst_visibility_m": 5000,
      "ceiling_ft": 6000,
      "hazards": [
        "SHRA"
      ],
      "severityScore": 14,
      "metarRaw": "METAR LCLK 102030Z 27006KT 9999 -SHRA FEW033 BKN060 15/13 Q1016 NOSIG RMK RAIN",
      "tafRaw": "TAF LCLK 101730Z 1018/1118 23007KT 9999 FEW030 \n  BECMG 1107/1109 21021KT \n  PROB30 \n  TEMPO 1107/1118 5000 SHRA SCT020TCU",
      "metarHtml": "METAR LCLK 102030Z 27006KT 9999 -<span class=\"hl\">SHRA</span> FEW033 BKN060 15/13 Q1016 NOSIG RMK RAIN",
      "tafHtml": "TAF LCLK 101730Z 1018/1118 23007KT 9999 FEW030 \n  BECMG 1107/1109 21021KT \n  PROB30 \n  TEMPO 1107/1118 5000 <span class=\"hl\">SHRA</span> SCT020TCU"
    },
    {
      "icao": "LCPH",
      "iata": "PFO",
      "name": "Paphos International Airport",
      "updatedAt": "102030Z",
      "visibility_m": 10000,
      "taf_visibility_m": 4000,
      "worst_visibility_m": 4000,
      "ceiling_ft": 4000,
      "hazards": [
        "SHRA"
      ],
      "severityScore": 14,
      "metarRaw": "METAR LCPH 102030Z 07005KT 9999 FEW025 FEW030TCU BKN040 16/13 Q1016 NOSIG",
      "tafRaw": "TAF LCPH 101730Z 1018/1118 24016KT 9999 SCT030 SCT050 \n  PROB40 \n  TEMPO 1018/1118 VRB15G25KT 4000 SHRA SCT020TCU",
      "metarHtml": "METAR LCPH 102030Z 07005KT 9999 FEW025 FEW030TCU BKN040 16/13 Q1016 NOSIG",
      "tafHtml": "TAF LCPH 101730Z 1018/1118 24016KT 9999 SCT030 SCT050 \n  PROB40 \n  TEMPO 1018/1118 VRB15G25KT 4000 <span class=\"hl\">SHRA</span> SCT020TCU"
    },
    {
      "icao": "LIBD",
      "iata": "BRI",
      "name": "Bari Karol Wojtyła International Airport",
      "updatedAt": "102020Z",
      "visibility_m": 10000,
      "taf_visibility_m": 10000,
      "worst_visibility_m": 10000,
      "ceiling_ft": 4500,
      "hazards": [
        "SHRA"
      ],
      "severityScore": 14,
      "metarRaw": "METAR LIBD 102020Z 27014KT 9999 BKN045 07/03 Q1001",
      "tafRaw": "TAF LIBD 101700Z 1018/1118 28015G25KT 9999 FEW040 \n  TEMPO 1020/1112 SHRA BKN014 \n  BECMG 1101/1103 30015KT \n  BECMG 1112/1114 34015G25KT",
      "metarHtml": "METAR LIBD 102020Z 27014KT 9999 BKN045 07/03 Q1001",
      "tafHtml": "TAF LIBD 101700Z 1018/1118 28015G25KT 9999 FEW040 \n  TEMPO 1020/1112 <span class=\"hl\">SHRA</span> BKN014 \n  BECMG 1101/1103 30015KT \n  BECMG 1112/1114 34015G25KT"
    },
    {
      "icao": "LIBP",
      "iata": "PSR",
      "name": "Abruzzo Airport",
      "updatedAt": "102020Z",
      "visibility_m": 10000,
      "taf_visibility_m": 10000,
      "worst_visibility_m": 10000,
      "ceiling_ft": null,
      "hazards": [
        "SHRA"
      ],
      "severityScore": 14,
      "metarRaw": "METAR LIBP 102020Z AUTO 23004KT 9999 FEW042/// 05/02 Q1006",
      "tafRaw": "TAF LIBP 101700Z 1018/1118 30010KT 9999 SCT040 \n  BECMG 1018/1020 24005KT \n  TEMPO 1108/1116 SHRA \n  BECMG 1110/1112 33010KT",
      "metarHtml": "METAR LIBP 102020Z AUTO 23004KT 9999 FEW042/// 05/02 Q1006",
      "tafHtml": "TAF LIBP 101700Z 1018/1118 30010KT 9999 SCT040 \n  BECMG 1018/1020 24005KT \n  TEMPO 1108/1116 <span class=\"hl\">SHRA</span> \n  BECMG 1110/1112 33010KT"
    },
    {
      "icao": "LMML",
      "iata": "MLA",
      "name": "Malta International Airport",
      "updatedAt": "102045Z",
      "visibility_m": 10000,
      "taf_visibility_m": 4000,
      "worst_visibility_m": 4000,
      "ceiling_ft": null,
      "hazards": [
        "SHRA"
      ],
      "severityScore": 14,
      "metarRaw": "METAR LMML 102045Z 29021G31KT 9999 FEW028 12/04 Q1013 NOSIG",
      "tafRaw": "TAF LMML 101700Z 1018/1118 29028G38KT 9999 FEW020TCU \n  TEMPO 1018/1118 7000 SHRA SHGS SCT018CB \n  PROB40 \n  TEMPO 1018/1115 4000 +SHRAGS",
      "metarHtml": "METAR LMML 102045Z 29021G31KT 9999 FEW028 12/04 Q1013 NOSIG",
      "tafHtml": "TAF LMML 101700Z 1018/1118 29028G38KT 9999 FEW020TCU \n  TEMPO 1018/1118 7000 <span class=\"hl\">SHRA</span> SHGS SCT018CB \n  PROB40 \n  TEMPO 1018/1115 4000 +SHRAGS"
    },
    {
      "icao": "EGPF",
      "iata": "GLA",
      "name": "Glasgow Airport",
      "updatedAt": "102020Z",
      "visibility_m": 10000,
      "taf_visibility_m": 3000,
      "worst_visibility_m": 3000,
      "ceiling_ft": null,
      "hazards": [
        "RA"
      ],
      "severityScore": 12,
      "metarRaw": "METAR EGPF 102020Z AUTO 07005KT 040V110 9999 NCD 03/02 Q1014",
      "tafRaw": "TAF EGPF 101704Z 1018/1118 12003KT 9999 FEW015 SCT030 \n  PROB30 \n  TEMPO 1018/1021 BKN014 \n  PROB40 \n  TEMPO 1021/1024 6000 RA -RADZ BKN012 \n  BECMG 1022/1101 14013KT \n  TEMPO 1100/1118 6000 RA -RADZ BKN011 \n  TEMPO 1103/1118 16020G30KT \n  PROB30 \n  TEMPO 1103/1118 3000 +RA RADZ BKN006",
      "metarHtml": "METAR EGPF 102020Z AUTO 07005KT 040V110 9999 NCD 03/02 Q1014",
      "tafHtml": "TAF EGPF 101704Z 1018/1118 12003KT 9999 FEW015 SCT030 \n  PROB30 \n  TEMPO 1018/1021 BKN014 \n  PROB40 \n  TEMPO 1021/1024 6000 <span class=\"hl\">RA</span> -RADZ BKN012 \n  BECMG 1022/1101 14013KT \n  TEMPO 1100/1118 6000 <span class=\"hl\">RA</span> -RADZ BKN011 \n  TEMPO 1103/1118 16020G30KT \n  PROB30 \n  TEMPO 1103/1118 3000 +<span class=\"hl\">RA</span> RADZ BKN006"
    },
    {
      "icao": "EHEH",
      "iata": "EIN",
      "name": "Eindhoven Airport",
      "updatedAt": "102025Z",
      "visibility_m": 10000,
      "taf_visibility_m": 10000,
      "worst_visibility_m": 10000,
      "ceiling_ft": 1800,
      "hazards": [],
      "severityScore": 12,
      "metarRaw": "METAR EHEH 102025Z AUTO 05006KT 9999 OVC018 M02/M07 Q1021 WHT BECMG SCT014 BKN018",
      "tafRaw": "TAF EHEH 101723Z 1018/1124 03006KT 9999 OVC020 \n  BECMG 1105/1107 13003KT \n  BECMG 1119/1121 16011KT",
      "metarHtml": "METAR EHEH 102025Z AUTO 05006KT 9999 OVC018 M02/M07 Q1021 WHT BECMG SCT014 BKN018",
      "tafHtml": "TAF EHEH 101723Z 1018/1124 03006KT 9999 OVC020 \n  BECMG 1105/1107 13003KT \n  BECMG 1119/1121 16011KT"
    },
    {
      "icao": "LBWN",
      "iata": "VAR",
      "name": "Varna Airport",
      "updatedAt": "102030Z",
      "visibility_m": 7000,
      "taf_visibility_m": 2000,
      "worst_visibility_m": 2000,
      "ceiling_ft": null,
      "hazards": [
        "RA"
      ],
      "severityScore": 12,
      "metarRaw": "METAR LBWN 102030Z AUTO VRB06KT 7000 -RASN SCT014/// BKN016/// OVC029/// 04/04 Q0997 RERA NOSIG",
      "tafRaw": "TAF LBWN 101700Z 1018/1118 06008KT 9999 SCT020 BKN040 \n  TEMPO 1018/1022 5000 RA BKN012 OVC030 \n  BECMG 1022/1024 35018KT \n  TEMPO 1102/1107 35018G30KT 2000 SNRA BKN005 OVC020 \n  BECMG 1107/1109 35008KT",
      "metarHtml": "METAR LBWN 102030Z AUTO VRB06KT 7000 -RASN SCT014/// BKN016/// OVC029/// 04/04 Q0997 RERA NOSIG",
      "tafHtml": "TAF LBWN 101700Z 1018/1118 06008KT 9999 SCT020 BKN040 \n  TEMPO 1018/1022 5000 <span class=\"hl\">RA</span> BKN012 OVC030 \n  BECMG 1022/1024 35018KT \n  TEMPO 1102/1107 35018G30KT 2000 SNRA BKN005 OVC020 \n  BECMG 1107/1109 35008KT"
    },
    {
      "icao": "LEXJ",
      "iata": "SDR",
      "name": "Seve Ballesteros-Santander Airport",
      "updatedAt": "102030Z",
      "visibility_m": 10000,
      "taf_visibility_m": 10000,
      "worst_visibility_m": 10000,
      "ceiling_ft": 5000,
      "hazards": [
        "RA"
      ],
      "severityScore": 12,
      "metarRaw": "METAR LEXJ 102030Z 24005KT 9999 SCT030 BKN050 10/05 Q1027",
      "tafRaw": "TAF LEXJ 102000Z 1021/1121 22009KT 9999 BKN050 TX15/1113Z TN07/1101Z \n  PROB30 \n  TEMPO 1107/1109 RA \n  TEMPO 1109/1121 20016G28KT",
      "metarHtml": "METAR LEXJ 102030Z 24005KT 9999 SCT030 BKN050 10/05 Q1027",
      "tafHtml": "TAF LEXJ 102000Z 1021/1121 22009KT 9999 BKN050 TX15/1113Z TN07/1101Z \n  PROB30 \n  TEMPO 1107/1109 <span class=\"hl\">RA</span> \n  TEMPO 1109/1121 20016G28KT"
    },
    {
      "icao": "LFPO",
      "iata": "ORY",
      "name": "Paris-Orly Airport",
      "updatedAt": "102030Z",
      "visibility_m": 10000,
      "taf_visibility_m": 10000,
      "worst_visibility_m": 10000,
      "ceiling_ft": 4700,
      "hazards": [
        "RA"
      ],
      "severityScore": 12,
      "metarRaw": "METAR LFPO 102030Z AUTO 30008KT 9999 FEW024 OVC047 03/M01 Q1021 NOSIG",
      "tafRaw": "TAF LFPO 101700Z 1018/1124 30010G20KT 9999 BKN025 \n  BECMG 1022/1101 VRB03KT \n  BECMG 1106/1108 17005KT \n  BECMG 1112/1114 16010G20KT CAVOK \n  TEMPO 1121/1124 -RA BKN014",
      "metarHtml": "METAR LFPO 102030Z AUTO 30008KT 9999 FEW024 OVC047 03/M01 Q1021 NOSIG",
      "tafHtml": "TAF LFPO 101700Z 1018/1124 30010G20KT 9999 BKN025 \n  BECMG 1022/1101 VRB03KT \n  BECMG 1106/1108 17005KT \n  BECMG 1112/1114 16010G20KT <span class=\"hl-vis\">CAVOK</span> \n  TEMPO 1121/1124 -<span class=\"hl\">RA</span> BKN014"
    },
    {
      "icao": "LGAV",
      "iata": "ATH",
      "name": "Athens Eleftherios Venizelos International Airport",
      "updatedAt": "102020Z",
      "visibility_m": 10000,
      "taf_visibility_m": 10000,
      "worst_visibility_m": 10000,
      "ceiling_ft": null,
      "hazards": [
        "RA"
      ],
      "severityScore": 12,
      "metarRaw": "METAR LGAV 102020Z 24010KT 9999 SCT025 13/05 Q1003 WS R21R NOSIG",
      "tafRaw": "TAF LGAV 101700Z 1018/1118 25015KT 9999 SCT025 BKN070 \n  TEMPO 1018/1109 25015G25KT \n  BECMG 1113/1115 35012KT \n  BECMG 1101/1103 SCT025 SCT070 \n  PROB30 \n  TEMPO 1112/1115 RA SCT025 BKN070",
      "metarHtml": "METAR LGAV 102020Z 24010KT 9999 SCT025 13/05 Q1003 WS R21R NOSIG",
      "tafHtml": "TAF LGAV 101700Z 1018/1118 25015KT 9999 SCT025 BKN070 \n  TEMPO 1018/1109 25015G25KT \n  BECMG 1113/1115 35012KT \n  BECMG 1101/1103 SCT025 SCT070 \n  PROB30 \n  TEMPO 1112/1115 <span class=\"hl\">RA</span> SCT025 BKN070"
    },
    {
      "icao": "LGTS",
      "iata": "SKG",
      "name": "Thessaloniki Macedonia International Airport",
      "updatedAt": "102020Z",
      "visibility_m": 10000,
      "taf_visibility_m": 5000,
      "worst_visibility_m": 5000,
      "ceiling_ft": null,
      "hazards": [
        "RA"
      ],
      "severityScore": 12,
      "metarRaw": "METAR LGTS 102020Z 11004KT 9999 FEW015 06/06 Q0998 NOSIG",
      "tafRaw": "TAF LGTS 101700Z 1018/1118 22010KT 9999 SCT030 \n  PROB30 \n  TEMPO 1100/1112 5000 RA FEW010 BKN025 \n  BECMG 1101/1103 34015KT \n  TEMPO 1106/1118 34020G35KT",
      "metarHtml": "METAR LGTS 102020Z 11004KT 9999 FEW015 06/06 Q0998 NOSIG",
      "tafHtml": "TAF LGTS 101700Z 1018/1118 22010KT 9999 SCT030 \n  PROB30 \n  TEMPO 1100/1112 5000 <span class=\"hl\">RA</span> FEW010 BKN025 \n  BECMG 1101/1103 34015KT \n  TEMPO 1106/1118 34020G35KT"
    },
    {
      "icao": "LICC",
      "iata": "CTA",
      "name": "Catania-Fontanarossa Airport",
      "updatedAt": "102020Z",
      "visibility_m": 10000,
      "taf_visibility_m": 10000,
      "worst_visibility_m": 10000,
      "ceiling_ft": 8000,
      "hazards": [
        "RA"
      ],
      "severityScore": 12,
      "metarRaw": "METAR LICC 102020Z 27017KT 9999 -RA SCT040 BKN080 08/04 Q1008",
      "tafRaw": "TAF LICC 101700Z 1018/1118 26018G30KT 9999 FEW050 \n  BECMG 1114/1116 26007KT",
      "metarHtml": "METAR LICC 102020Z 27017KT 9999 -<span class=\"hl\">RA</span> SCT040 BKN080 08/04 Q1008",
      "tafHtml": "TAF LICC 101700Z 1018/1118 26018G30KT 9999 FEW050 \n  BECMG 1114/1116 26007KT"
    },
    {
      "icao": "LIPR",
      "iata": "RMI",
      "name": "Federico Fellini International Airport",
      "updatedAt": "102020Z",
      "visibility_m": 10000,
      "taf_visibility_m": 7000,
      "worst_visibility_m": 7000,
      "ceiling_ft": null,
      "hazards": [
        "RA"
      ],
      "severityScore": 12,
      "metarRaw": "METAR LIPR 102020Z 19003KT CAVOK M00/M01 Q1006",
      "tafRaw": "TAF LIPR 101700Z 1018/1118 28010KT 7000 FEW040 \n  TEMPO 1108/1112 RA",
      "metarHtml": "METAR LIPR 102020Z 19003KT <span class=\"hl-vis\">CAVOK</span> M00/M01 Q1006",
      "tafHtml": "TAF LIPR 101700Z 1018/1118 28010KT 7000 FEW040 \n  TEMPO 1108/1112 <span class=\"hl\">RA</span>"
    },
    {
      "icao": "LIPY",
      "iata": "AOI",
      "name": "Marche Airport",
      "updatedAt": "102020Z",
      "visibility_m": 10000,
      "taf_visibility_m": 10000,
      "worst_visibility_m": 10000,
      "ceiling_ft": null,
      "hazards": [
        "RA"
      ],
      "severityScore": 12,
      "metarRaw": "METAR LIPY 102020Z AUTO 16004KT 9999 NCD 03/M01 Q1007",
      "tafRaw": "TAF LIPY 101700Z 1018/1118 28007KT 9999 FEW040 \n  TEMPO 1109/1112 RA",
      "metarHtml": "METAR LIPY 102020Z AUTO 16004KT 9999 NCD 03/M01 Q1007",
      "tafHtml": "TAF LIPY 101700Z 1018/1118 28007KT 9999 FEW040 \n  TEMPO 1109/1112 <span class=\"hl\">RA</span>"
    },
    {
      "icao": "LPMA",
      "iata": "FNC",
      "name": "Madeira International Airport Cristiano Ronaldo",
      "updatedAt": "102030Z",
      "visibility_m": 10000,
      "taf_visibility_m": 6000,
      "worst_visibility_m": 6000,
      "ceiling_ft": null,
      "hazards": [
        "RA"
      ],
      "severityScore": 12,
      "metarRaw": "METAR LPMA 102030Z 32006KT 9999 FEW015 15/10 Q1029",
      "tafRaw": "TAF LPMA 101700Z 1018/1118 04008KT 9999 SCT015 \n  PROB30 \n  TEMPO 1100/1112 6000 -RA BKN013 \n  BECMG 1101/1103 VRB05KT \n  BECMG 1112/1114 13007KT",
      "metarHtml": "METAR LPMA 102030Z 32006KT 9999 FEW015 15/10 Q1029",
      "tafHtml": "TAF LPMA 101700Z 1018/1118 04008KT 9999 SCT015 \n  PROB30 \n  TEMPO 1100/1112 6000 -<span class=\"hl\">RA</span> BKN013 \n  BECMG 1101/1103 VRB05KT \n  BECMG 1112/1114 13007KT"
    },
    {
      "icao": "LPPS",
      "iata": "PXO",
      "name": "Porto Santo Airport",
      "updatedAt": "102030Z",
      "visibility_m": 10000,
      "taf_visibility_m": 6000,
      "worst_visibility_m": 6000,
      "ceiling_ft": null,
      "hazards": [
        "RA"
      ],
      "severityScore": 12,
      "metarRaw": "METAR LPPS 102030Z VRB02KT 9999 FEW015 15/12 Q1029",
      "tafRaw": "TAF LPPS 101700Z 1018/1124 09007KT 9999 SCT015 SCT030 \n  PROB30 1100/1118 6000 -RA BKN012 \n  BECMG 1112/1114 13010KT",
      "metarHtml": "METAR LPPS 102030Z VRB02KT 9999 FEW015 15/12 Q1029",
      "tafHtml": "TAF LPPS 101700Z 1018/1124 09007KT 9999 SCT015 SCT030 \n  PROB30 1100/1118 6000 -<span class=\"hl\">RA</span> BKN012 \n  BECMG 1112/1114 13010KT"
    },
    {
      "icao": "LPPT",
      "iata": "LIS",
      "name": "Lisbon Humberto Delgado Airport",
      "updatedAt": "102030Z",
      "visibility_m": 10000,
      "taf_visibility_m": 6000,
      "worst_visibility_m": 6000,
      "ceiling_ft": null,
      "hazards": [
        "RA"
      ],
      "severityScore": 12,
      "metarRaw": "METAR LPPT 102030Z 26003KT 230V310 9999 FEW035 10/08 Q1029",
      "tafRaw": "TAF LPPT 101700Z 1018/1124 29005KT 9999 FEW020 SCT035 \n  BECMG 1100/1103 VRB02KT SCT012 BKN025 \n  TEMPO 1103/1124 6000 -RA SCT006 BKN012 \n  BECMG 1112/1114 21010KT",
      "metarHtml": "METAR LPPT 102030Z 26003KT 230V310 9999 FEW035 10/08 Q1029",
      "tafHtml": "TAF LPPT 101700Z 1018/1124 29005KT 9999 FEW020 SCT035 \n  BECMG 1100/1103 VRB02KT SCT012 BKN025 \n  TEMPO 1103/1124 6000 -<span class=\"hl\">RA</span> SCT006 BKN012 \n  BECMG 1112/1114 21010KT"
    },
    {
      "icao": "LWOH",
      "iata": "OHD",
      "name": "Ohrid St. Paul the Apostle Airport",
      "updatedAt": "101950Z",
      "visibility_m": 6000,
      "taf_visibility_m": 3000,
      "worst_visibility_m": 3000,
      "ceiling_ft": 2500,
      "hazards": [
        "RA"
      ],
      "severityScore": 12,
      "metarRaw": "METAR LWOH 101950Z 16011KT 6000 RA SCT015 OVC025 03/02 Q0998",
      "tafRaw": "TAF LWOH 101735Z 1018/1118 17010KT 9999 -RA SCT020 OVC035 \n  TEMPO 1021/1104 3000 -SNRA BKN015 OVC030 \n  BECMG 1103/1105 36010KT",
      "metarHtml": "METAR LWOH 101950Z 16011KT 6000 <span class=\"hl\">RA</span> SCT015 OVC025 03/02 Q0998",
      "tafHtml": "TAF LWOH 101735Z 1018/1118 17010KT 9999 -<span class=\"hl\">RA</span> SCT020 OVC035 \n  TEMPO 1021/1104 3000 -SNRA BKN015 OVC030 \n  BECMG 1103/1105 36010KT"
    },
    {
      "icao": "GMMN",
      "iata": "CMN",
      "name": "Mohammed V International Airport",
      "updatedAt": "102030Z",
      "visibility_m": 10000,
      "taf_visibility_m": 3000,
      "worst_visibility_m": 3000,
      "ceiling_ft": null,
      "hazards": [
        "BR"
      ],
      "severityScore": 10,
      "metarRaw": "METAR GMMN 102030Z 04006KT 9999 SCT013 11/10 Q1028 NOSIG",
      "tafRaw": "TAF GMMN 101700Z 1018/1124 02006KT 9999 SCT030 \n  PROB30 \n  TEMPO 1103/1109 3000 BR BKN003 \n  BECMG 1109/1112 CAVOK \n  TEMPO 1112/1118 36010KT",
      "metarHtml": "METAR GMMN 102030Z 04006KT 9999 SCT013 11/10 Q1028 NOSIG",
      "tafHtml": "TAF GMMN 101700Z 1018/1124 02006KT 9999 SCT030 \n  PROB30 \n  TEMPO 1103/1109 3000 <span class=\"hl\">BR</span> BKN003 \n  BECMG 1109/1112 <span class=\"hl-vis\">CAVOK</span> \n  TEMPO 1112/1118 36010KT"
    },
    {
      "icao": "ESSA",
      "iata": "ARN",
      "name": "Stockholm-Arlanda Airport",
      "updatedAt": "102020Z",
      "visibility_m": 10000,
      "taf_visibility_m": 3500,
      "worst_visibility_m": 3500,
      "ceiling_ft": null,
      "hazards": [
        "SHSN"
      ],
      "severityScore": 10,
      "metarRaw": "METAR ESSA 102020Z 32014KT 9999 FEW015 SCT030 M06/M08 Q1016 NOSIG",
      "tafRaw": "TAF ESSA 102030Z 1021/1121 35012G22KT 9999 FEW015 SCT030 \n  PROB40 1021/1103 BKN014 \n  PROB40 1113/1121 3500 -SHSN SCT020TCU",
      "metarHtml": "METAR ESSA 102020Z 32014KT 9999 FEW015 SCT030 M06/M08 Q1016 NOSIG",
      "tafHtml": "TAF ESSA 102030Z 1021/1121 35012G22KT 9999 FEW015 SCT030 \n  PROB40 1021/1103 BKN014 \n  PROB40 1113/1121 3500 -<span class=\"hl\">SHSN</span> SCT020TCU"
    },
    {
      "icao": "HESX",
      "iata": "SPX",
      "name": "Sphinx International Airport",
      "updatedAt": "102000Z",
      "visibility_m": 10000,
      "taf_visibility_m": 3000,
      "worst_visibility_m": 3000,
      "ceiling_ft": null,
      "hazards": [
        "BR"
      ],
      "severityScore": 10,
      "metarRaw": "METAR HESX 102000Z 20004KT CAVOK 14/07 Q1020 NOSIG",
      "tafRaw": "TAF HESX 101700Z 1018/1124 22008KT 9999 SCT025 \n  TEMPO 1100/1107 VRB03KT 3000 BR NSC",
      "metarHtml": "METAR HESX 102000Z 20004KT <span class=\"hl-vis\">CAVOK</span> 14/07 Q1020 NOSIG",
      "tafHtml": "TAF HESX 101700Z 1018/1124 22008KT 9999 SCT025 \n  TEMPO 1100/1107 VRB03KT 3000 <span class=\"hl\">BR</span> NSC"
    },
    {
      "icao": "LEZL",
      "iata": "SVQ",
      "name": "Sevilla Airport",
      "updatedAt": "102030Z",
      "visibility_m": 10000,
      "taf_visibility_m": 2000,
      "worst_visibility_m": 2000,
      "ceiling_ft": null,
      "hazards": [
        "BR"
      ],
      "severityScore": 10,
      "metarRaw": "METAR LEZL 102030Z 10003KT CAVOK 10/08 Q1028 NOSIG",
      "tafRaw": "TAF LEZL 102000Z 1021/1121 03004KT CAVOK TX15/1115Z TN04/1107Z \n  PROB40 \n  TEMPO 1105/1110 2000 BR BKN006",
      "metarHtml": "METAR LEZL 102030Z 10003KT <span class=\"hl-vis\">CAVOK</span> 10/08 Q1028 NOSIG",
      "tafHtml": "TAF LEZL 102000Z 1021/1121 03004KT <span class=\"hl-vis\">CAVOK</span> TX15/1115Z TN04/1107Z \n  PROB40 \n  TEMPO 1105/1110 2000 <span class=\"hl\">BR</span> BKN006"
    },
    {
      "icao": "LRSV",
      "iata": "SCV",
      "name": "Suceava Stefan cel Mare Airport",
      "updatedAt": "102030Z",
      "visibility_m": 8000,
      "taf_visibility_m": 5000,
      "worst_visibility_m": 5000,
      "ceiling_ft": 2400,
      "hazards": [
        "BR"
      ],
      "severityScore": 10,
      "metarRaw": "METAR LRSV 102030Z 34011KT 8000 SCT010 BKN024 M09/M12 Q1003",
      "tafRaw": "TAF LRSV 102000Z 1021/1106 34010KT CAVOK \n  TEMPO 1021/1024 5000 BR BKN010 BKN020 \n  BECMG 1104/1106 VRB04KT",
      "metarHtml": "METAR LRSV 102030Z 34011KT 8000 SCT010 BKN024 M09/M12 Q1003",
      "tafHtml": "TAF LRSV 102000Z 1021/1106 34010KT <span class=\"hl-vis\">CAVOK</span> \n  TEMPO 1021/1024 5000 <span class=\"hl\">BR</span> BKN010 BKN020 \n  BECMG 1104/1106 VRB04KT"
    },
    {
      "icao": "LRTR",
      "iata": "TSR",
      "name": "Timişoara Traian Vuia Airport",
      "updatedAt": "102030Z",
      "visibility_m": 3000,
      "taf_visibility_m": 3000,
      "worst_visibility_m": 3000,
      "ceiling_ft": 2000,
      "hazards": [
        "BR"
      ],
      "severityScore": 10,
      "metarRaw": "METAR LRTR 102030Z 34005KT 3000 BR FEW008 OVC020 M03/M03 Q1004",
      "tafRaw": "TAF LRTR 101700Z 1018/1118 35010KT 7000 OVC015 \n  TEMPO 1018/1022 3000 BR OVC010 \n  BECMG 1022/1024 BKN025 \n  PROB30 \n  TEMPO 1102/1106 BKN010 \n  BECMG 1109/1111 27008KT",
      "metarHtml": "METAR LRTR 102030Z 34005KT 3000 <span class=\"hl\">BR</span> FEW008 OVC020 M03/M03 Q1004",
      "tafHtml": "TAF LRTR 101700Z 1018/1118 35010KT 7000 OVC015 \n  TEMPO 1018/1022 3000 <span class=\"hl\">BR</span> OVC010 \n  BECMG 1022/1024 BKN025 \n  PROB30 \n  TEMPO 1102/1106 BKN010 \n  BECMG 1109/1111 27008KT"
    },
    {
      "icao": "LTAC",
      "iata": "ESB",
      "name": "Esenboğa International Airport",
      "updatedAt": "102020Z",
      "visibility_m": 6000,
      "taf_visibility_m": 4000,
      "worst_visibility_m": 4000,
      "ceiling_ft": 4000,
      "hazards": [
        "BR"
      ],
      "severityScore": 10,
      "metarRaw": "METAR LTAC 102020Z 04006KT 010V080 6000 FEW010 BKN040 BKN090 03/01 Q1006 NOSIG RMK RWY21C VRB02KT RWY03L VRB04KT RWY21R VRB01KT RWY03R 05004KT 360V100 RWY21L VRB04KT",
      "tafRaw": "TAF LTAC 101640Z 1018/1118 20009KT 7000 SCT040 BKN100 \n  TEMPO 1018/1022 4000 -RASN FEW010 BKN030 BKN080 \n  TEMPO 1022/1102 20020G30KT \n  TEMPO 1102/1106 20020G30KT 4000 -RASN BR FEW010 BKN030 BKN080 \n  TEMPO 1106/1110 20020G30KT 4000 -RASN BR FEW010 BKN030 BKN080 \n  TEMPO 1110/1114 20020G30KT 4000 -RASN BR FEW010 BKN030 BKN080 \n  TEMPO 1114/1118 4000 -RASN BR FEW010 BKN030 BKN080",
      "metarHtml": "METAR LTAC 102020Z 04006KT 010V080 6000 FEW010 BKN040 BKN090 03/01 Q1006 NOSIG RMK RWY21C VRB02KT RWY03L VRB04KT RWY21R VRB01KT RWY03R 05004KT 360V100 RWY21L VRB04KT",
      "tafHtml": "TAF LTAC 101640Z 1018/1118 20009KT 7000 SCT040 BKN100 \n  TEMPO 1018/1022 4000 -RASN FEW010 BKN030 BKN080 \n  TEMPO 1022/1102 20020G30KT \n  TEMPO 1102/1106 20020G30KT 4000 -RASN <span class=\"hl\">BR</span> FEW010 BKN030 BKN080 \n  TEMPO 1106/1110 20020G30KT 4000 -RASN <span class=\"hl\">BR</span> FEW010 BKN030 BKN080 \n  TEMPO 1110/1114 20020G30KT 4000 -RASN <span class=\"hl\">BR</span> FEW010 BKN030 BKN080 \n  TEMPO 1114/1118 4000 -RASN <span class=\"hl\">BR</span> FEW010 BKN030 BKN080"
    },
    {
      "icao": "LUKK",
      "iata": "RMO",
      "name": "Chişinău International Airport",
      "updatedAt": "102030Z",
      "visibility_m": 10000,
      "taf_visibility_m": 3000,
      "worst_visibility_m": 3000,
      "ceiling_ft": null,
      "hazards": [
        "BR"
      ],
      "severityScore": 10,
      "metarRaw": "METAR LUKK 102030Z 01013KT CAVOK M07/M09 Q1002 NOSIG",
      "tafRaw": "TAF LUKK 101727Z 1018/1118 VRB05KT 9999 SCT030 \n  TEMPO 1018/1022 3000 BR \n  BECMG 1022/1024 33012KT \n  TEMPO 1101/1114 34016G28KT \n  BECMG 1114/1116 27008KT",
      "metarHtml": "METAR LUKK 102030Z 01013KT <span class=\"hl-vis\">CAVOK</span> M07/M09 Q1002 NOSIG",
      "tafHtml": "TAF LUKK 101727Z 1018/1118 VRB05KT 9999 SCT030 \n  TEMPO 1018/1022 3000 <span class=\"hl\">BR</span> \n  BECMG 1022/1024 33012KT \n  TEMPO 1101/1114 34016G28KT \n  BECMG 1114/1116 27008KT"
    },
    {
      "icao": "UDSG",
      "iata": "LWN",
      "name": "Shirak International Airport",
      "updatedAt": "102030Z",
      "visibility_m": 10000,
      "taf_visibility_m": 5000,
      "worst_visibility_m": 5000,
      "ceiling_ft": null,
      "hazards": [
        "BR"
      ],
      "severityScore": 10,
      "metarRaw": "METAR UDSG 102030Z 04004KT 9999 FEW049 M16/M18 Q1018 NOSIG",
      "tafRaw": "TAF UDSG 101658Z 1018/1118 VRB06KT 9999 FEW040 \n  TEMPO 1018/1024 5000 BR",
      "metarHtml": "METAR UDSG 102030Z 04004KT 9999 FEW049 M16/M18 Q1018 NOSIG",
      "tafHtml": "TAF UDSG 101658Z 1018/1118 VRB06KT 9999 FEW040 \n  TEMPO 1018/1024 5000 <span class=\"hl\">BR</span>"
    },
    {
      "icao": "EGGW",
      "iata": "LTN",
      "name": "London Luton Airport",
      "updatedAt": "102020Z",
      "visibility_m": 10000,
      "taf_visibility_m": null,
      "worst_visibility_m": 10000,
      "ceiling_ft": null,
      "hazards": [],
      "severityScore": 5,
      "metarRaw": "METAR EGGW 102020Z AUTO 00000KT 9999 NCD M01/M02 Q1021",
      "tafRaw": null,
      "metarHtml": "METAR EGGW 102020Z AUTO 00000KT 9999 NCD M01/M02 Q1021",
      "tafHtml": null
    },
    {
      "icao": "LECH",
      "iata": "CDT",
      "name": "Castellón-Costa Azahar Airport",
      "updatedAt": "102030Z",
      "visibility_m": 9000,
      "taf_visibility_m": null,
      "worst_visibility_m": 9000,
      "ceiling_ft": null,
      "hazards": [],
      "severityScore": 5,
      "metarRaw": "METAR LECH 102030Z AUTO 31013KT 280V340 9000 NCD 10/M01 Q1023",
      "tafRaw": null,
      "metarHtml": "METAR LECH 102030Z AUTO 31013KT 280V340 9000 NCD 10/M01 Q1023",
      "tafHtml": null
    },
    {
      "icao": "LFOB",
      "iata": "BVA",
      "name": "Beauvais Tillé airport",
      "updatedAt": "102030Z",
      "visibility_m": 10000,
      "taf_visibility_m": null,
      "worst_visibility_m": 10000,
      "ceiling_ft": 3800,
      "hazards": [],
      "severityScore": 5,
      "metarRaw": "METAR LFOB 102030Z AUTO 31006KT 9999 BKN038 01/M00 Q1021 NOSIG",
      "tafRaw": null,
      "metarHtml": "METAR LFOB 102030Z AUTO 31006KT 9999 BKN038 01/M00 Q1021 NOSIG",
      "tafHtml": null
    },
    {
      "icao": "LRSM",
      "iata": "SUJ",
      "name": "Satu Mare International Airport",
      "updatedAt": "102030Z",
      "visibility_m": 10000,
      "taf_visibility_m": null,
      "worst_visibility_m": 10000,
      "ceiling_ft": null,
      "hazards": [],
      "severityScore": 5,
      "metarRaw": "METAR LRSM 102030Z AUTO 33009KT 290V010 9999 BKN045/// OVC055/// M07/M11 Q1005",
      "tafRaw": null,
      "metarHtml": "METAR LRSM 102030Z AUTO 33009KT 290V010 9999 BKN045/// OVC055/// M07/M11 Q1005",
      "tafHtml": null
    },
    {
      "icao": "BIKF",
      "iata": "KEF",
      "name": "Keflavik International Airport",
      "updatedAt": "102030Z",
      "visibility_m": 10000,
      "taf_visibility_m": 10000,
      "worst_visibility_m": 10000,
      "ceiling_ft": null,
      "hazards": [],
      "severityScore": 0,
      "metarRaw": "METAR BIKF 102030Z 05005KT CAVOK M05/M06 Q1006",
      "tafRaw": "TAF BIKF 101957Z 1021/1121 01010KT 9999 FEW030 TXM02/1113Z TNM06/1103Z",
      "metarHtml": "METAR BIKF 102030Z 05005KT <span class=\"hl-vis\">CAVOK</span> M05/M06 Q1006",
      "tafHtml": "TAF BIKF 101957Z 1021/1121 01010KT 9999 FEW030 TXM02/1113Z TNM06/1103Z"
    },
    {
      "icao": "GCFV",
      "iata": "FUE",
      "name": "Fuerteventura Airport",
      "updatedAt": "102030Z",
      "visibility_m": 10000,
      "taf_visibility_m": 10000,
      "worst_visibility_m": 10000,
      "ceiling_ft": null,
      "hazards": [],
      "severityScore": 0,
      "metarRaw": "METAR GCFV 102030Z 01015KT 9999 FEW025 SCT030 18/12 Q1026",
      "tafRaw": "TAF GCFV 102000Z 1021/1121 04014KT 9999 BKN025 TX20/1114Z TN14/1106Z \n  PROB30 \n  TEMPO 1110/1117 10007KT",
      "metarHtml": "METAR GCFV 102030Z 01015KT 9999 FEW025 SCT030 18/12 Q1026",
      "tafHtml": "TAF GCFV 102000Z 1021/1121 04014KT 9999 BKN025 TX20/1114Z TN14/1106Z \n  PROB30 \n  TEMPO 1110/1117 10007KT"
    },
    {
      "icao": "GCLP",
      "iata": "LPA",
      "name": "Gran Canaria Airport",
      "updatedAt": "102030Z",
      "visibility_m": 10000,
      "taf_visibility_m": 10000,
      "worst_visibility_m": 10000,
      "ceiling_ft": 4000,
      "hazards": [],
      "severityScore": 0,
      "metarRaw": "METAR GCLP 102030Z 01013KT 9999 BKN040 18/10 Q1026 NOSIG",
      "tafRaw": "TAF GCLP 102000Z 1021/1121 02013KT 9999 SCT030 TX21/1114Z TN15/1106Z",
      "metarHtml": "METAR GCLP 102030Z 01013KT 9999 BKN040 18/10 Q1026 NOSIG",
      "tafHtml": "TAF GCLP 102000Z 1021/1121 02013KT 9999 SCT030 TX21/1114Z TN15/1106Z"
    },
    {
      "icao": "GCTS",
      "iata": "TFS",
      "name": "Tenerife Sur Airport",
      "updatedAt": "102030Z",
      "visibility_m": 10000,
      "taf_visibility_m": 10000,
      "worst_visibility_m": 10000,
      "ceiling_ft": 4500,
      "hazards": [],
      "severityScore": 0,
      "metarRaw": "METAR GCTS 102030Z 05008KT 020V080 9999 BKN045 17/10 Q1026 NOSIG",
      "tafRaw": "TAF GCTS 102000Z 1021/1121 03008KT 9999 SCT035 TX23/1114Z TN16/1106Z \n  BECMG 1110/1112 09015KT \n  BECMG 1119/1121 03009KT",
      "metarHtml": "METAR GCTS 102030Z 05008KT 020V080 9999 BKN045 17/10 Q1026 NOSIG",
      "tafHtml": "TAF GCTS 102000Z 1021/1121 03008KT 9999 SCT035 TX23/1114Z TN16/1106Z \n  BECMG 1110/1112 09015KT \n  BECMG 1119/1121 03009KT"
    },
    {
      "icao": "GMAD",
      "iata": "AGA",
      "name": "Al Massira Airport",
      "updatedAt": "102030Z",
      "visibility_m": 10000,
      "taf_visibility_m": 10000,
      "worst_visibility_m": 10000,
      "ceiling_ft": null,
      "hazards": [],
      "severityScore": 0,
      "metarRaw": "METAR GMAD 102030Z 00000KT CAVOK 11/09 Q1025 NOSIG",
      "tafRaw": "TAF GMAD 101700Z 1018/1124 25008KT CAVOK \n  BECMG 1101/1103 12004KT",
      "metarHtml": "METAR GMAD 102030Z 00000KT <span class=\"hl-vis\">CAVOK</span> 11/09 Q1025 NOSIG",
      "tafHtml": "TAF GMAD 101700Z 1018/1124 25008KT <span class=\"hl-vis\">CAVOK</span> \n  BECMG 1101/1103 12004KT"
    },
    {
      "icao": "GMMX",
      "iata": "RAK",
      "name": "Menara Airport",
      "updatedAt": "102030Z",
      "visibility_m": 10000,
      "taf_visibility_m": 8000,
      "worst_visibility_m": 8000,
      "ceiling_ft": null,
      "hazards": [],
      "severityScore": 0,
      "metarRaw": "METAR GMMX 102030Z 09006KT CAVOK 12/09 Q1026 NOSIG",
      "tafRaw": "TAF GMMX 101700Z 1018/1124 08006KT 8000 NSC",
      "metarHtml": "METAR GMMX 102030Z 09006KT <span class=\"hl-vis\">CAVOK</span> 12/09 Q1026 NOSIG",
      "tafHtml": "TAF GMMX 101700Z 1018/1124 08006KT 8000 NSC"
    },
    {
      "icao": "EDDB",
      "iata": "BER",
      "name": "Berlin Brandenburg Airport",
      "updatedAt": "102020Z",
      "visibility_m": 10000,
      "taf_visibility_m": 10000,
      "worst_visibility_m": 10000,
      "ceiling_ft": null,
      "hazards": [],
      "severityScore": 0,
      "metarRaw": "METAR EDDB 102020Z AUTO 31007KT CAVOK M03/M05 Q1017 NOSIG",
      "tafRaw": "TAF EDDB 101700Z 1018/1118 30010KT 9999 SCT020",
      "metarHtml": "METAR EDDB 102020Z AUTO 31007KT <span class=\"hl-vis\">CAVOK</span> M03/M05 Q1017 NOSIG",
      "tafHtml": "TAF EDDB 101700Z 1018/1118 30010KT 9999 SCT020"
    },
    {
      "icao": "EDLW",
      "iata": "DTM",
      "name": "Dortmund Airport",
      "updatedAt": "102020Z",
      "visibility_m": 10000,
      "taf_visibility_m": 10000,
      "worst_visibility_m": 10000,
      "ceiling_ft": null,
      "hazards": [],
      "severityScore": 0,
      "metarRaw": "METAR EDLW 102020Z 05004KT CAVOK M06/M09 Q1020",
      "tafRaw": "TAF EDLW 101700Z 1018/1118 05008KT CAVOK \n  BECMG 1019/1022 VRB03KT \n  BECMG 1102/1105 15005KT",
      "metarHtml": "METAR EDLW 102020Z 05004KT <span class=\"hl-vis\">CAVOK</span> M06/M09 Q1020",
      "tafHtml": "TAF EDLW 101700Z 1018/1118 05008KT <span class=\"hl-vis\">CAVOK</span> \n  BECMG 1019/1022 VRB03KT \n  BECMG 1102/1105 15005KT"
    },
    {
      "icao": "EKBI",
      "iata": "BLL",
      "name": "Billund Airport",
      "updatedAt": "102020Z",
      "visibility_m": 10000,
      "taf_visibility_m": 10000,
      "worst_visibility_m": 10000,
      "ceiling_ft": null,
      "hazards": [],
      "severityScore": 0,
      "metarRaw": "METAR EKBI 102020Z AUTO 35001KT 9999 NCD M09/M10 Q1023",
      "tafRaw": "TAF EKBI 102027Z 1021/1121 36006KT CAVOK",
      "metarHtml": "METAR EKBI 102020Z AUTO 35001KT 9999 NCD M09/M10 Q1023",
      "tafHtml": "TAF EKBI 102027Z 1021/1121 36006KT <span class=\"hl-vis\">CAVOK</span>"
    },
    {
      "icao": "EKCH",
      "iata": "CPH",
      "name": "Copenhagen Kastrup Airport",
      "updatedAt": "102020Z",
      "visibility_m": 10000,
      "taf_visibility_m": 10000,
      "worst_visibility_m": 10000,
      "ceiling_ft": null,
      "hazards": [],
      "severityScore": 0,
      "metarRaw": "METAR EKCH 102020Z AUTO 35017KT 9999 NCD M03/M08 Q1020 TEMPO 35017G27KT",
      "tafRaw": "TAF EKCH 102027Z 1021/1121 36015KT CAVOK \n  TEMPO 1021/1106 35017G27KT \n  BECMG 1116/1119 30005KT",
      "metarHtml": "METAR EKCH 102020Z AUTO 35017KT 9999 NCD M03/M08 Q1020 TEMPO 35017G27KT",
      "tafHtml": "TAF EKCH 102027Z 1021/1121 36015KT <span class=\"hl-vis\">CAVOK</span> \n  TEMPO 1021/1106 35017G27KT \n  BECMG 1116/1119 30005KT"
    },
    {
      "icao": "ENAL",
      "iata": "AES",
      "name": "Ålesund Airport, Vigra",
      "updatedAt": "102020Z",
      "visibility_m": 10000,
      "taf_visibility_m": 10000,
      "worst_visibility_m": 10000,
      "ceiling_ft": null,
      "hazards": [],
      "severityScore": 0,
      "metarRaw": "METAR ENAL 102020Z 15009KT CAVOK M02/M10 Q1021",
      "tafRaw": "TAF ENAL 102000Z 1021/1106 16008KT CAVOK",
      "metarHtml": "METAR ENAL 102020Z 15009KT <span class=\"hl-vis\">CAVOK</span> M02/M10 Q1021",
      "tafHtml": "TAF ENAL 102000Z 1021/1106 16008KT <span class=\"hl-vis\">CAVOK</span>"
    },
    {
      "icao": "ENBR",
      "iata": "BGO",
      "name": "Bergen Airport, Flesland",
      "updatedAt": "102020Z",
      "visibility_m": 10000,
      "taf_visibility_m": 10000,
      "worst_visibility_m": 10000,
      "ceiling_ft": null,
      "hazards": [],
      "severityScore": 0,
      "metarRaw": "METAR ENBR 102020Z 12010KT CAVOK M02/M10 Q1022 RMK WIND 1200FT 13016KT",
      "tafRaw": "TAF ENBR 101700Z 1018/1118 11005KT CAVOK \n  TEMPO 1103/1112 14015G25KT \n  BECMG 1112/1114 14025G35KT",
      "metarHtml": "METAR ENBR 102020Z 12010KT <span class=\"hl-vis\">CAVOK</span> M02/M10 Q1022 RMK WIND 1200FT 13016KT",
      "tafHtml": "TAF ENBR 101700Z 1018/1118 11005KT <span class=\"hl-vis\">CAVOK</span> \n  TEMPO 1103/1112 14015G25KT \n  BECMG 1112/1114 14025G35KT"
    },
    {
      "icao": "ENHD",
      "iata": "HAU",
      "name": "Haugesund Airport, Karmøy",
      "updatedAt": "102020Z",
      "visibility_m": 10000,
      "taf_visibility_m": 10000,
      "worst_visibility_m": 10000,
      "ceiling_ft": 4200,
      "hazards": [],
      "severityScore": 0,
      "metarRaw": "METAR ENHD 102020Z 11015KT 9999 BKN042 M01/M07 Q1023",
      "tafRaw": "TAF ENHD 101400Z 1015/1023 12012KT 9999 SCT040",
      "metarHtml": "METAR ENHD 102020Z 11015KT 9999 BKN042 M01/M07 Q1023",
      "tafHtml": "TAF ENHD 101400Z 1015/1023 12012KT 9999 SCT040"
    },
    {
      "icao": "ENTC",
      "iata": "TOS",
      "name": "Tromsø Airport, Langnes",
      "updatedAt": "102020Z",
      "visibility_m": 10000,
      "taf_visibility_m": 10000,
      "worst_visibility_m": 10000,
      "ceiling_ft": null,
      "hazards": [],
      "severityScore": 0,
      "metarRaw": "METAR ENTC 102020Z VRB02KT CAVOK M12/M13 Q1018 RMK WIND 2600FT 19020KT",
      "tafRaw": "TAF ENTC 101700Z 1018/1118 20005KT CAVOK",
      "metarHtml": "METAR ENTC 102020Z VRB02KT <span class=\"hl-vis\">CAVOK</span> M12/M13 Q1018 RMK WIND 2600FT 19020KT",
      "tafHtml": "TAF ENTC 101700Z 1018/1118 20005KT <span class=\"hl-vis\">CAVOK</span>"
    },
    {
      "icao": "ENTO",
      "iata": "TRF",
      "name": "Sandefjord Airport, Torp",
      "updatedAt": "102020Z",
      "visibility_m": 10000,
      "taf_visibility_m": 10000,
      "worst_visibility_m": 10000,
      "ceiling_ft": null,
      "hazards": [],
      "severityScore": 0,
      "metarRaw": "METAR ENTO 102020Z 34004KT 9999 R18/P2000N R36///// NCD M12/M14 Q1024 NOSIG",
      "tafRaw": "TAF ENTO 101700Z 1018/1118 36003KT CAVOK",
      "metarHtml": "METAR ENTO 102020Z 34004KT 9999 R18/P2000N R36///// NCD M12/M14 Q1024 NOSIG",
      "tafHtml": "TAF ENTO 101700Z 1018/1118 36003KT <span class=\"hl-vis\">CAVOK</span>"
    },
    {
      "icao": "ENVA",
      "iata": "TRD",
      "name": "Trondheim Airport, Værnes",
      "updatedAt": "102020Z",
      "visibility_m": 10000,
      "taf_visibility_m": 10000,
      "worst_visibility_m": 10000,
      "ceiling_ft": null,
      "hazards": [],
      "severityScore": 0,
      "metarRaw": "METAR ENVA 102020Z 12006KT CAVOK M11/M14 Q1023 RMK WIND 670FT 15010KT",
      "tafRaw": "TAF ENVA 101700Z 1018/1118 10006KT CAVOK",
      "metarHtml": "METAR ENVA 102020Z 12006KT <span class=\"hl-vis\">CAVOK</span> M11/M14 Q1023 RMK WIND 670FT 15010KT",
      "tafHtml": "TAF ENVA 101700Z 1018/1118 10006KT <span class=\"hl-vis\">CAVOK</span>"
    },
    {
      "icao": "ENZV",
      "iata": "SVG",
      "name": "Stavanger Airport, Sola",
      "updatedAt": "102020Z",
      "visibility_m": 10000,
      "taf_visibility_m": 10000,
      "worst_visibility_m": 10000,
      "ceiling_ft": 4200,
      "hazards": [],
      "severityScore": 0,
      "metarRaw": "METAR ENZV 102020Z 10010KT 9999 BKN042 M02/M09 Q1023 NOSIG",
      "tafRaw": "TAF ENZV 101700Z 1018/1118 10012KT 9999 BKN040 \n  BECMG 1107/1109 14018G30KT",
      "metarHtml": "METAR ENZV 102020Z 10010KT 9999 BKN042 M02/M09 Q1023 NOSIG",
      "tafHtml": "TAF ENZV 101700Z 1018/1118 10012KT 9999 BKN040 \n  BECMG 1107/1109 14018G30KT"
    },
    {
      "icao": "ESGG",
      "iata": "GOT",
      "name": "Göteborg Landvetter Airport",
      "updatedAt": "102020Z",
      "visibility_m": 10000,
      "taf_visibility_m": 10000,
      "worst_visibility_m": 10000,
      "ceiling_ft": null,
      "hazards": [],
      "severityScore": 0,
      "metarRaw": "METAR ESGG 102020Z 35005KT CAVOK M10/M12 Q1021",
      "tafRaw": "TAF ESGG 102030Z 1021/1121 01005KT CAVOK",
      "metarHtml": "METAR ESGG 102020Z 35005KT <span class=\"hl-vis\">CAVOK</span> M10/M12 Q1021",
      "tafHtml": "TAF ESGG 102030Z 1021/1121 01005KT <span class=\"hl-vis\">CAVOK</span>"
    },
    {
      "icao": "ESKN",
      "iata": "NYO",
      "name": "Stockholm Skavsta Airport",
      "updatedAt": "102020Z",
      "visibility_m": 10000,
      "taf_visibility_m": 10000,
      "worst_visibility_m": 10000,
      "ceiling_ft": null,
      "hazards": [],
      "severityScore": 0,
      "metarRaw": "METAR ESKN 102020Z 33015KT 9999 SCT013 M07/M09 Q1017",
      "tafRaw": "TAF ESKN 102030Z 1021/1121 35013G23KT 9999 SCT013",
      "metarHtml": "METAR ESKN 102020Z 33015KT 9999 SCT013 M07/M09 Q1017",
      "tafHtml": "TAF ESKN 102030Z 1021/1121 35013G23KT 9999 SCT013"
    },
    {
      "icao": "ESMS",
      "iata": "MMX",
      "name": "Malmö Sturup Airport",
      "updatedAt": "102020Z",
      "visibility_m": 10000,
      "taf_visibility_m": 10000,
      "worst_visibility_m": 10000,
      "ceiling_ft": null,
      "hazards": [],
      "severityScore": 0,
      "metarRaw": "METAR ESMS 102020Z 33009KT CAVOK M08/M12 Q1018",
      "tafRaw": "TAF ESMS 102027Z 1021/1121 34012KT CAVOK",
      "metarHtml": "METAR ESMS 102020Z 33009KT <span class=\"hl-vis\">CAVOK</span> M08/M12 Q1018",
      "tafHtml": "TAF ESMS 102027Z 1021/1121 34012KT <span class=\"hl-vis\">CAVOK</span>"
    },
    {
      "icao": "HEGN",
      "iata": "HRG",
      "name": "Hurghada International Airport",
      "updatedAt": null,
      "visibility_m": null,
      "taf_visibility_m": 10000,
      "worst_visibility_m": 10000,
      "ceiling_ft": null,
      "hazards": [],
      "severityScore": 0,
      "metarRaw": null,
      "tafRaw": "TAF HEGN 101700Z 1018/1124 33013KT CAVOK",
      "metarHtml": null,
      "tafHtml": "TAF HEGN 101700Z 1018/1124 33013KT <span class=\"hl-vis\">CAVOK</span>"
    },
    {
      "icao": "HEMA",
      "iata": "RMF",
      "name": "Marsa Alam International Airport",
      "updatedAt": "102000Z",
      "visibility_m": 10000,
      "taf_visibility_m": 10000,
      "worst_visibility_m": 10000,
      "ceiling_ft": null,
      "hazards": [],
      "severityScore": 0,
      "metarRaw": "METAR HEMA 102000Z 29009KT CAVOK 16/08 Q1019 NOSIG",
      "tafRaw": "TAF HEMA 101700Z 1018/1124 32015KT CAVOK",
      "metarHtml": "METAR HEMA 102000Z 29009KT <span class=\"hl-vis\">CAVOK</span> 16/08 Q1019 NOSIG",
      "tafHtml": "TAF HEMA 101700Z 1018/1124 32015KT <span class=\"hl-vis\">CAVOK</span>"
    },
    {
      "icao": "HESH",
      "iata": "SSH",
      "name": "Sharm El Sheikh International Airport",
      "updatedAt": "102000Z",
      "visibility_m": 10000,
      "taf_visibility_m": 10000,
      "worst_visibility_m": 10000,
      "ceiling_ft": null,
      "hazards": [],
      "severityScore": 0,
      "metarRaw": "METAR HESH 102000Z 34010KT CAVOK 18/08 Q1019 NOSIG",
      "tafRaw": "TAF HESH 101700Z 1018/1124 36012KT CAVOK",
      "metarHtml": "METAR HESH 102000Z 34010KT <span class=\"hl-vis\">CAVOK</span> 18/08 Q1019 NOSIG",
      "tafHtml": "TAF HESH 101700Z 1018/1124 36012KT <span class=\"hl-vis\">CAVOK</span>"
    },
    {
      "icao": "LEAL",
      "iata": "ALC",
      "name": "Alicante-Elche Miguel Hernández Airport",
      "updatedAt": "102030Z",
      "visibility_m": 10000,
      "taf_visibility_m": 10000,
      "worst_visibility_m": 10000,
      "ceiling_ft": null,
      "hazards": [],
      "severityScore": 0,
      "metarRaw": "METAR LEAL 102030Z 26006KT 220V290 CAVOK 13/02 Q1024 NOSIG",
      "tafRaw": "TAF LEAL 101700Z 1018/1118 28008KT CAVOK TX16/1114Z TN07/1106Z \n  TEMPO 1112/1118 09006KT",
      "metarHtml": "METAR LEAL 102030Z 26006KT 220V290 <span class=\"hl-vis\">CAVOK</span> 13/02 Q1024 NOSIG",
      "tafHtml": "TAF LEAL 101700Z 1018/1118 28008KT <span class=\"hl-vis\">CAVOK</span> TX16/1114Z TN07/1106Z \n  TEMPO 1112/1118 09006KT"
    },
    {
      "icao": "LEBL",
      "iata": "BCN",
      "name": "Josep Tarradellas Barcelona-El Prat Airport",
      "updatedAt": "102030Z",
      "visibility_m": 10000,
      "taf_visibility_m": 10000,
      "worst_visibility_m": 10000,
      "ceiling_ft": null,
      "hazards": [],
      "severityScore": 0,
      "metarRaw": "METAR LEBL 102030Z 32008KT 290V010 9999 FEW036 10/03 Q1019 NOSIG",
      "tafRaw": "TAF LEBL 101700Z 1018/1118 30010KT 9999 FEW020 TX13/1113Z TN05/1106Z \n  BECMG 1022/1024 35009KT \n  BECMG 1112/1114 22005KT",
      "metarHtml": "METAR LEBL 102030Z 32008KT 290V010 9999 FEW036 10/03 Q1019 NOSIG",
      "tafHtml": "TAF LEBL 101700Z 1018/1118 30010KT 9999 FEW020 TX13/1113Z TN05/1106Z \n  BECMG 1022/1024 35009KT \n  BECMG 1112/1114 22005KT"
    },
    {
      "icao": "LEMD",
      "iata": "MAD",
      "name": "Adolfo Suárez Madrid–Barajas Airport",
      "updatedAt": "102030Z",
      "visibility_m": 10000,
      "taf_visibility_m": 10000,
      "worst_visibility_m": 10000,
      "ceiling_ft": null,
      "hazards": [],
      "severityScore": 0,
      "metarRaw": "METAR LEMD 102030Z VRB01KT CAVOK 04/M01 Q1026 NOSIG",
      "tafRaw": "TAF LEMD 101700Z 1018/1124 VRB03KT CAVOK TX10/1114Z TNM03/1106Z",
      "metarHtml": "METAR LEMD 102030Z VRB01KT <span class=\"hl-vis\">CAVOK</span> 04/M01 Q1026 NOSIG",
      "tafHtml": "TAF LEMD 101700Z 1018/1124 VRB03KT <span class=\"hl-vis\">CAVOK</span> TX10/1114Z TNM03/1106Z"
    },
    {
      "icao": "LEMG",
      "iata": "AGP",
      "name": "Málaga-Costa del Sol Airport",
      "updatedAt": "102030Z",
      "visibility_m": 10000,
      "taf_visibility_m": 10000,
      "worst_visibility_m": 10000,
      "ceiling_ft": null,
      "hazards": [],
      "severityScore": 0,
      "metarRaw": "METAR LEMG 102030Z 30015KT CAVOK 11/04 Q1027 NOSIG",
      "tafRaw": "TAF LEMG 101700Z 1018/1118 29014KT CAVOK TX17/1114Z TN06/1107Z \n  BECMG 1110/1112 29004KT",
      "metarHtml": "METAR LEMG 102030Z 30015KT <span class=\"hl-vis\">CAVOK</span> 11/04 Q1027 NOSIG",
      "tafHtml": "TAF LEMG 101700Z 1018/1118 29014KT <span class=\"hl-vis\">CAVOK</span> TX17/1114Z TN06/1107Z \n  BECMG 1110/1112 29004KT"
    },
    {
      "icao": "LEVC",
      "iata": "VLC",
      "name": "Valencia Airport",
      "updatedAt": "102030Z",
      "visibility_m": 10000,
      "taf_visibility_m": 10000,
      "worst_visibility_m": 10000,
      "ceiling_ft": null,
      "hazards": [],
      "severityScore": 0,
      "metarRaw": "METAR LEVC 102030Z 24007KT CAVOK 09/00 Q1024 NOSIG",
      "tafRaw": "TAF LEVC 101700Z 1018/1118 29008KT CAVOK TX16/1114Z TN04/1106Z \n  TEMPO 1112/1118 VRB04KT",
      "metarHtml": "METAR LEVC 102030Z 24007KT <span class=\"hl-vis\">CAVOK</span> 09/00 Q1024 NOSIG",
      "tafHtml": "TAF LEVC 101700Z 1018/1118 29008KT <span class=\"hl-vis\">CAVOK</span> TX16/1114Z TN04/1106Z \n  TEMPO 1112/1118 VRB04KT"
    },
    {
      "icao": "LEZG",
      "iata": "ZAZ",
      "name": "Zaragoza Airport",
      "updatedAt": "102030Z",
      "visibility_m": 10000,
      "taf_visibility_m": 10000,
      "worst_visibility_m": 10000,
      "ceiling_ft": 5000,
      "hazards": [],
      "severityScore": 0,
      "metarRaw": "METAR LEZG 102030Z 29018KT 9999 BKN050 09/03 Q1025 NOSIG",
      "tafRaw": "TAF LEZG 101700Z 1018/1118 28009KT 9999 SCT040 TX12/1115Z TN03/1106Z",
      "metarHtml": "METAR LEZG 102030Z 29018KT 9999 BKN050 09/03 Q1025 NOSIG",
      "tafHtml": "TAF LEZG 101700Z 1018/1118 28009KT 9999 SCT040 TX12/1115Z TN03/1106Z"
    },
    {
      "icao": "LFMN",
      "iata": "NCE",
      "name": "Nice-Côte d'Azur Airport",
      "updatedAt": "102030Z",
      "visibility_m": 10000,
      "taf_visibility_m": 10000,
      "worst_visibility_m": 10000,
      "ceiling_ft": null,
      "hazards": [],
      "severityScore": 0,
      "metarRaw": "METAR LFMN 102030Z 34011KT CAVOK 10/M11 Q1008 NOSIG",
      "tafRaw": "TAF LFMN 102000Z 1021/1203 33013KT CAVOK \n  BECMG 1111/1114 24010KT \n  BECMG 1117/1120 32010KT",
      "metarHtml": "METAR LFMN 102030Z 34011KT <span class=\"hl-vis\">CAVOK</span> 10/M11 Q1008 NOSIG",
      "tafHtml": "TAF LFMN 102000Z 1021/1203 33013KT <span class=\"hl-vis\">CAVOK</span> \n  BECMG 1111/1114 24010KT \n  BECMG 1117/1120 32010KT"
    },
    {
      "icao": "LIBG",
      "iata": "TAR",
      "name": "Taranto-Grottaglie Marcello Arlotta Airport",
      "updatedAt": null,
      "visibility_m": null,
      "taf_visibility_m": 10000,
      "worst_visibility_m": 10000,
      "ceiling_ft": null,
      "hazards": [],
      "severityScore": 0,
      "metarRaw": null,
      "tafRaw": "TAF LIBG 101700Z 1018/1103 29012KT 9999 SCT040",
      "metarHtml": null,
      "tafHtml": "TAF LIBG 101700Z 1018/1103 29012KT 9999 SCT040"
    },
    {
      "icao": "LIMC",
      "iata": "MXP",
      "name": "Milan Malpensa International Airport",
      "updatedAt": "102020Z",
      "visibility_m": 10000,
      "taf_visibility_m": 10000,
      "worst_visibility_m": 10000,
      "ceiling_ft": null,
      "hazards": [],
      "severityScore": 0,
      "metarRaw": "METAR LIMC 102020Z 04008KT CAVOK 03/M06 Q1008 NOSIG",
      "tafRaw": "TAF LIMC 101700Z 1018/1124 01012KT CAVOK \n  BECMG 1110/1112 VRB05KT",
      "metarHtml": "METAR LIMC 102020Z 04008KT <span class=\"hl-vis\">CAVOK</span> 03/M06 Q1008 NOSIG",
      "tafHtml": "TAF LIMC 101700Z 1018/1124 01012KT <span class=\"hl-vis\">CAVOK</span> \n  BECMG 1110/1112 VRB05KT"
    },
    {
      "icao": "LIME",
      "iata": "BGY",
      "name": "Milan Bergamo Airport / Antonio Locatelli Air Base",
      "updatedAt": "102020Z",
      "visibility_m": 10000,
      "taf_visibility_m": 10000,
      "worst_visibility_m": 10000,
      "ceiling_ft": null,
      "hazards": [],
      "severityScore": 0,
      "metarRaw": "METAR LIME 102020Z VRB01KT CAVOK 03/M07 Q1006 NOSIG",
      "tafRaw": "TAF LIME 101700Z 1018/1118 VRB04KT 9999 SCT050 \n  BECMG 1020/1022 02010KT \n  BECMG 1108/1110 VRB05KT",
      "metarHtml": "METAR LIME 102020Z VRB01KT <span class=\"hl-vis\">CAVOK</span> 03/M07 Q1006 NOSIG",
      "tafHtml": "TAF LIME 101700Z 1018/1118 VRB04KT 9999 SCT050 \n  BECMG 1020/1022 02010KT \n  BECMG 1108/1110 VRB05KT"
    },
    {
      "icao": "LIMF",
      "iata": "TRN",
      "name": "Turin Airport",
      "updatedAt": "102020Z",
      "visibility_m": 10000,
      "taf_visibility_m": 8000,
      "worst_visibility_m": 8000,
      "ceiling_ft": null,
      "hazards": [],
      "severityScore": 0,
      "metarRaw": "METAR LIMF 102020Z VRB01KT CAVOK 05/M12 Q1008",
      "tafRaw": "TAF LIMF 101700Z 1018/1118 30012KT 8000 NSC \n  PROB40 \n  TEMPO 1018/1021 30016G26KT \n  BECMG 1020/1022 VRB05KT",
      "metarHtml": "METAR LIMF 102020Z VRB01KT <span class=\"hl-vis\">CAVOK</span> 05/M12 Q1008",
      "tafHtml": "TAF LIMF 101700Z 1018/1118 30012KT 8000 NSC \n  PROB40 \n  TEMPO 1018/1021 30016G26KT \n  BECMG 1020/1022 VRB05KT"
    },
    {
      "icao": "LIMJ",
      "iata": "GOA",
      "name": "Genoa Cristoforo Colombo Airport",
      "updatedAt": "102020Z",
      "visibility_m": 10000,
      "taf_visibility_m": 10000,
      "worst_visibility_m": 10000,
      "ceiling_ft": null,
      "hazards": [],
      "severityScore": 0,
      "metarRaw": "METAR LIMJ 102020Z 35007G18KT 300V050 CAVOK 10/M11 Q1007",
      "tafRaw": "TAF LIMJ 101700Z 1018/1118 35013KT CAVOK \n  TEMPO 1018/1110 34015G25KT",
      "metarHtml": "METAR LIMJ 102020Z 35007G18KT 300V050 <span class=\"hl-vis\">CAVOK</span> 10/M11 Q1007",
      "tafHtml": "TAF LIMJ 101700Z 1018/1118 35013KT <span class=\"hl-vis\">CAVOK</span> \n  TEMPO 1018/1110 34015G25KT"
    },
    {
      "icao": "LIPE",
      "iata": "BLQ",
      "name": "Bologna Guglielmo Marconi Airport",
      "updatedAt": "102020Z",
      "visibility_m": 10000,
      "taf_visibility_m": 7000,
      "worst_visibility_m": 7000,
      "ceiling_ft": null,
      "hazards": [],
      "severityScore": 0,
      "metarRaw": "METAR LIPE 102020Z VRB02KT CAVOK 01/M03 Q1006",
      "tafRaw": "TAF LIPE 101700Z 1018/1118 28007KT 7000 NSC",
      "metarHtml": "METAR LIPE 102020Z VRB02KT <span class=\"hl-vis\">CAVOK</span> 01/M03 Q1006",
      "tafHtml": "TAF LIPE 101700Z 1018/1118 28007KT 7000 NSC"
    },
    {
      "icao": "LIPH",
      "iata": "TSF",
      "name": "Treviso Antonio Canova Airport",
      "updatedAt": "102020Z",
      "visibility_m": 10000,
      "taf_visibility_m": 10000,
      "worst_visibility_m": 10000,
      "ceiling_ft": null,
      "hazards": [],
      "severityScore": 0,
      "metarRaw": "METAR LIPH 102020Z VRB01KT CAVOK 02/00 Q1006",
      "tafRaw": "TAF LIPH 101700Z 1018/1118 VRB05KT CAVOK",
      "metarHtml": "METAR LIPH 102020Z VRB01KT <span class=\"hl-vis\">CAVOK</span> 02/00 Q1006",
      "tafHtml": "TAF LIPH 101700Z 1018/1118 VRB05KT <span class=\"hl-vis\">CAVOK</span>"
    },
    {
      "icao": "LIPQ",
      "iata": "TRS",
      "name": "Trieste–Friuli Venezia Giulia Airport",
      "updatedAt": "102020Z",
      "visibility_m": 10000,
      "taf_visibility_m": 10000,
      "worst_visibility_m": 10000,
      "ceiling_ft": null,
      "hazards": [],
      "severityScore": 0,
      "metarRaw": "METAR LIPQ 102020Z AUTO 08002KT 9999 FEW100/// BKN150/// 01/00 Q1006",
      "tafRaw": "TAF LIPQ 101700Z 1018/1118 VRB05KT CAVOK",
      "metarHtml": "METAR LIPQ 102020Z AUTO 08002KT 9999 FEW100/// BKN150/// 01/00 Q1006",
      "tafHtml": "TAF LIPQ 101700Z 1018/1118 VRB05KT <span class=\"hl-vis\">CAVOK</span>"
    },
    {
      "icao": "LIPX",
      "iata": "VRN",
      "name": "Verona Villafranca Valerio Catullo Airport",
      "updatedAt": "102020Z",
      "visibility_m": 10000,
      "taf_visibility_m": 8000,
      "worst_visibility_m": 8000,
      "ceiling_ft": null,
      "hazards": [],
      "severityScore": 0,
      "metarRaw": "METAR LIPX 102020Z VRB02KT CAVOK 00/M01 Q1005",
      "tafRaw": "TAF LIPX 101700Z 1018/1118 VRB05KT 8000 NSC",
      "metarHtml": "METAR LIPX 102020Z VRB02KT <span class=\"hl-vis\">CAVOK</span> 00/M01 Q1005",
      "tafHtml": "TAF LIPX 101700Z 1018/1118 VRB05KT 8000 NSC"
    },
    {
      "icao": "LIPZ",
      "iata": "VCE",
      "name": "Venice Marco Polo Airport",
      "updatedAt": "102020Z",
      "visibility_m": 10000,
      "taf_visibility_m": 10000,
      "worst_visibility_m": 10000,
      "ceiling_ft": null,
      "hazards": [],
      "severityScore": 0,
      "metarRaw": "METAR LIPZ 102020Z 04004KT 9999 SCT060 02/01 Q1006 NOSIG",
      "tafRaw": "TAF LIPZ 101700Z 1018/1124 VRB05KT CAVOK \n  BECMG 1106/1108 03010KT \n  BECMG 1110/1112 17010KT \n  BECMG 1116/1118 VRB05KT",
      "metarHtml": "METAR LIPZ 102020Z 04004KT 9999 SCT060 02/01 Q1006 NOSIG",
      "tafHtml": "TAF LIPZ 101700Z 1018/1124 VRB05KT <span class=\"hl-vis\">CAVOK</span> \n  BECMG 1106/1108 03010KT \n  BECMG 1110/1112 17010KT \n  BECMG 1116/1118 VRB05KT"
    },
    {
      "icao": "LIRF",
      "iata": "FCO",
      "name": "Rome–Fiumicino Leonardo da Vinci International Airport",
      "updatedAt": "102020Z",
      "visibility_m": 10000,
      "taf_visibility_m": 10000,
      "worst_visibility_m": 10000,
      "ceiling_ft": null,
      "hazards": [],
      "severityScore": 0,
      "metarRaw": "METAR LIRF 102020Z VRB01KT CAVOK 06/03 Q1006 NOSIG",
      "tafRaw": "TAF LIRF 101700Z 1018/1124 02007KT 9999 SCT030 \n  BECMG 1115/1117 02016KT",
      "metarHtml": "METAR LIRF 102020Z VRB01KT <span class=\"hl-vis\">CAVOK</span> 06/03 Q1006 NOSIG",
      "tafHtml": "TAF LIRF 101700Z 1018/1124 02007KT 9999 SCT030 \n  BECMG 1115/1117 02016KT"
    },
    {
      "icao": "LIRN",
      "iata": "NAP",
      "name": "Naples International Airport",
      "updatedAt": "102020Z",
      "visibility_m": 10000,
      "taf_visibility_m": 10000,
      "worst_visibility_m": 10000,
      "ceiling_ft": null,
      "hazards": [],
      "severityScore": 0,
      "metarRaw": "METAR LIRN 102020Z 33004KT CAVOK 05/03 Q1004 NOSIG",
      "tafRaw": "TAF LIRN 101700Z 1018/1118 VRB05KT 9999 SCT030 \n  BECMG 1104/1106 05010KT",
      "metarHtml": "METAR LIRN 102020Z 33004KT <span class=\"hl-vis\">CAVOK</span> 05/03 Q1004 NOSIG",
      "tafHtml": "TAF LIRN 101700Z 1018/1118 VRB05KT 9999 SCT030 \n  BECMG 1104/1106 05010KT"
    },
    {
      "icao": "LIRP",
      "iata": "PSA",
      "name": "Pisa International Airport",
      "updatedAt": "102015Z",
      "visibility_m": 10000,
      "taf_visibility_m": 10000,
      "worst_visibility_m": 10000,
      "ceiling_ft": null,
      "hazards": [],
      "severityScore": 0,
      "metarRaw": "METAR LIRP 102015Z 10003KT CAVOK 04/01 Q1006 NOSIG",
      "tafRaw": "TAF LIRP 101700Z 1018/1118 27007KT CAVOK \n  BECMG 1116/1118 10010KT",
      "metarHtml": "METAR LIRP 102015Z 10003KT <span class=\"hl-vis\">CAVOK</span> 04/01 Q1006 NOSIG",
      "tafHtml": "TAF LIRP 101700Z 1018/1118 27007KT <span class=\"hl-vis\">CAVOK</span> \n  BECMG 1116/1118 10010KT"
    },
    {
      "icao": "LIRZ",
      "iata": "PEG",
      "name": "Perugia San Francesco d'Assisi – Umbria International Airport",
      "updatedAt": "102020Z",
      "visibility_m": 10000,
      "taf_visibility_m": 10000,
      "worst_visibility_m": 10000,
      "ceiling_ft": null,
      "hazards": [],
      "severityScore": 0,
      "metarRaw": "METAR LIRZ 102020Z AUTO 01003KT 9999 NCD 00/M01 Q1007",
      "tafRaw": "TAF LIRZ 101700Z 1018/1118 VRB05KT 9999 FEW030 \n  BECMG 1109/1111 02013KT",
      "metarHtml": "METAR LIRZ 102020Z AUTO 01003KT 9999 NCD 00/M01 Q1007",
      "tafHtml": "TAF LIRZ 101700Z 1018/1118 VRB05KT 9999 FEW030 \n  BECMG 1109/1111 02013KT"
    },
    {
      "icao": "LLBG",
      "iata": "TLV",
      "name": "Ben Gurion International Airport",
      "updatedAt": "102020Z",
      "visibility_m": 10000,
      "taf_visibility_m": 10000,
      "worst_visibility_m": 10000,
      "ceiling_ft": null,
      "hazards": [],
      "severityScore": 0,
      "metarRaw": "METAR LLBG 102020Z 12006KT CAVOK 13/10 Q1020 NOSIG RMK FEW075",
      "tafRaw": "TAF LLBG 101706Z 1018/1118 15005KT CAVOK \n  BECMG 1107/1109 26010KT \n  BECMG 1115/1117 VRB03KT TX20/1112Z TN10/1104Z",
      "metarHtml": "METAR LLBG 102020Z 12006KT <span class=\"hl-vis\">CAVOK</span> 13/10 Q1020 NOSIG RMK FEW075",
      "tafHtml": "TAF LLBG 101706Z 1018/1118 15005KT <span class=\"hl-vis\">CAVOK</span> \n  BECMG 1107/1109 26010KT \n  BECMG 1115/1117 VRB03KT TX20/1112Z TN10/1104Z"
    },
    {
      "icao": "LOWW",
      "iata": "VIE",
      "name": "Vienna International Airport",
      "updatedAt": "102020Z",
      "visibility_m": 10000,
      "taf_visibility_m": 10000,
      "worst_visibility_m": 10000,
      "ceiling_ft": null,
      "hazards": [],
      "severityScore": 0,
      "metarRaw": "METAR LOWW 102020Z 35006KT CAVOK M08/M12 Q1012 NOSIG",
      "tafRaw": "TAF LOWW 102015Z 1021/1203 36010KT CAVOK TXM03/1113Z TNM08/1203Z \n  BECMG 1100/1102 32015G25KT \n  TEMPO 1106/1118 31020G35KT \n  BECMG 1121/1123 30008KT",
      "metarHtml": "METAR LOWW 102020Z 35006KT <span class=\"hl-vis\">CAVOK</span> M08/M12 Q1012 NOSIG",
      "tafHtml": "TAF LOWW 102015Z 1021/1203 36010KT <span class=\"hl-vis\">CAVOK</span> TXM03/1113Z TNM08/1203Z \n  BECMG 1100/1102 32015G25KT \n  TEMPO 1106/1118 31020G35KT \n  BECMG 1121/1123 30008KT"
    },
    {
      "icao": "LPFR",
      "iata": "FAO",
      "name": "Faro Airport",
      "updatedAt": "102030Z",
      "visibility_m": 10000,
      "taf_visibility_m": 10000,
      "worst_visibility_m": 10000,
      "ceiling_ft": null,
      "hazards": [],
      "severityScore": 0,
      "metarRaw": "METAR LPFR 102030Z 01004KT 310V040 CAVOK 11/07 Q1029",
      "tafRaw": "TAF LPFR 101700Z 1018/1118 33008KT 9999 SCT030 \n  BECMG 1023/1101 VRB02KT \n  BECMG 1108/1110 03005KT \n  BECMG 1112/1114 20007KT",
      "metarHtml": "METAR LPFR 102030Z 01004KT 310V040 <span class=\"hl-vis\">CAVOK</span> 11/07 Q1029",
      "tafHtml": "TAF LPFR 101700Z 1018/1118 33008KT 9999 SCT030 \n  BECMG 1023/1101 VRB02KT \n  BECMG 1108/1110 03005KT \n  BECMG 1112/1114 20007KT"
    },
    {
      "icao": "LRIA",
      "iata": "IAS",
      "name": "Iaşi Airport",
      "updatedAt": "102030Z",
      "visibility_m": 10000,
      "taf_visibility_m": 10000,
      "worst_visibility_m": 10000,
      "ceiling_ft": 4200,
      "hazards": [],
      "severityScore": 0,
      "metarRaw": "METAR LRIA 102030Z 33011KT 9999 BKN042 M08/M10 Q1005",
      "tafRaw": "TAF LRIA 102000Z 1021/1106 33012KT 9999 BKN040 \n  TEMPO 1023/1104 BKN010 BKN035",
      "metarHtml": "METAR LRIA 102030Z 33011KT 9999 BKN042 M08/M10 Q1005",
      "tafHtml": "TAF LRIA 102000Z 1021/1106 33012KT 9999 BKN040 \n  TEMPO 1023/1104 BKN010 BKN035"
    },
    {
      "icao": "LZIB",
      "iata": "BTS",
      "name": "M. R. Štefánik Airport",
      "updatedAt": "102030Z",
      "visibility_m": 10000,
      "taf_visibility_m": 10000,
      "worst_visibility_m": 10000,
      "ceiling_ft": null,
      "hazards": [],
      "severityScore": 0,
      "metarRaw": "METAR LZIB 102030Z 36012KT CAVOK M06/M12 Q1011 NOSIG",
      "tafRaw": "TAF LZIB 101715Z 1018/1118 32013KT 9999 BKN040 \n  BECMG 1020/1022 SCT025 \n  TEMPO 1103/1116 31020G30KT",
      "metarHtml": "METAR LZIB 102030Z 36012KT <span class=\"hl-vis\">CAVOK</span> M06/M12 Q1011 NOSIG",
      "tafHtml": "TAF LZIB 101715Z 1018/1118 32013KT 9999 BKN040 \n  BECMG 1020/1022 SCT025 \n  TEMPO 1103/1116 31020G30KT"
    },
    {
      "icao": "LZKZ",
      "iata": "KSC",
      "name": "Košice International Airport",
      "updatedAt": "102030Z",
      "visibility_m": 10000,
      "taf_visibility_m": 10000,
      "worst_visibility_m": 10000,
      "ceiling_ft": null,
      "hazards": [],
      "severityScore": 0,
      "metarRaw": "METAR LZKZ 102030Z 03010KT CAVOK M10/M14 Q1006 NOSIG",
      "tafRaw": "TAF LZKZ 101715Z 1018/1118 02013KT 9999 BKN035 \n  TEMPO 1018/1022 02018G28KT \n  BECMG 1100/1102 21006KT BKN010 \n  PROB40 \n  TEMPO 1101/1108 OVC005 \n  BECMG 1111/1113 30010KT SCT030",
      "metarHtml": "METAR LZKZ 102030Z 03010KT <span class=\"hl-vis\">CAVOK</span> M10/M14 Q1006 NOSIG",
      "tafHtml": "TAF LZKZ 101715Z 1018/1118 02013KT 9999 BKN035 \n  TEMPO 1018/1022 02018G28KT \n  BECMG 1100/1102 21006KT BKN010 \n  PROB40 \n  TEMPO 1101/1108 OVC005 \n  BECMG 1111/1113 30010KT SCT030"
    },
    {
      "icao": "OEJN",
      "iata": "JED",
      "name": "King Abdulaziz International Airport",
      "updatedAt": "102000Z",
      "visibility_m": 10000,
      "taf_visibility_m": 3000,
      "worst_visibility_m": 3000,
      "ceiling_ft": null,
      "hazards": [],
      "severityScore": 0,
      "metarRaw": "METAR OEJN 102000Z 35004KT CAVOK 24/17 Q1015 NOSIG",
      "tafRaw": "TAF OEJN 101700Z 1018/1124 36005KT 7000 NSC \n  TEMPO 1022/1104 3000 HZ \n  BECMG 1106/1108 24008KT 9999 FEW040 \n  BECMG 1118/1120 VRB03KT",
      "metarHtml": "METAR OEJN 102000Z 35004KT <span class=\"hl-vis\">CAVOK</span> 24/17 Q1015 NOSIG",
      "tafHtml": "TAF OEJN 101700Z 1018/1124 36005KT 7000 NSC \n  TEMPO 1022/1104 3000 HZ \n  BECMG 1106/1108 24008KT 9999 FEW040 \n  BECMG 1118/1120 VRB03KT"
    },
    {
      "icao": "OEMA",
      "iata": "MED",
      "name": "Prince Mohammad Bin Abdulaziz Airport",
      "updatedAt": "102000Z",
      "visibility_m": 10000,
      "taf_visibility_m": 4000,
      "worst_visibility_m": 4000,
      "ceiling_ft": null,
      "hazards": [],
      "severityScore": 0,
      "metarRaw": "METAR OEMA 102000Z 07009KT CAVOK 20/00 Q1021 NOSIG",
      "tafRaw": "TAF OEMA 101700Z 1018/1124 08008KT CAVOK \n  BECMG 1107/1109 14012KT 7000 FEW040 \n  PROB30 \n  TEMPO 1109/1116 4000 DU",
      "metarHtml": "METAR OEMA 102000Z 07009KT <span class=\"hl-vis\">CAVOK</span> 20/00 Q1021 NOSIG",
      "tafHtml": "TAF OEMA 101700Z 1018/1124 08008KT <span class=\"hl-vis\">CAVOK</span> \n  BECMG 1107/1109 14012KT 7000 FEW040 \n  PROB30 \n  TEMPO 1109/1116 4000 DU"
    },
    {
      "icao": "OMAA",
      "iata": "AUH",
      "name": "Zayed International Airport",
      "updatedAt": "102000Z",
      "visibility_m": 10000,
      "taf_visibility_m": 4000,
      "worst_visibility_m": 4000,
      "ceiling_ft": null,
      "hazards": [],
      "severityScore": 0,
      "metarRaw": "METAR OMAA 102000Z 09006KT 070V130 CAVOK 19/10 Q1019 NOSIG",
      "tafRaw": "TAF OMAA 101700Z 1018/1200 06005KT 8000 NSC \n  PROB30 1101/1105 4000 HZ \n  BECMG 1110/1112 34012KT \n  BECMG 1116/1118 VRB02KT",
      "metarHtml": "METAR OMAA 102000Z 09006KT 070V130 <span class=\"hl-vis\">CAVOK</span> 19/10 Q1019 NOSIG",
      "tafHtml": "TAF OMAA 101700Z 1018/1200 06005KT 8000 NSC \n  PROB30 1101/1105 4000 HZ \n  BECMG 1110/1112 34012KT \n  BECMG 1116/1118 VRB02KT"
    },
    {
      "icao": "OMDB",
      "iata": "DXB",
      "name": "Dubai International Airport",
      "updatedAt": "102030Z",
      "visibility_m": 10000,
      "taf_visibility_m": 4000,
      "worst_visibility_m": 4000,
      "ceiling_ft": null,
      "hazards": [],
      "severityScore": 0,
      "metarRaw": "METAR OMDB 102030Z 12004KT 090V160 CAVOK 21/12 Q1020 NOSIG",
      "tafRaw": "TAF OMDB 101700Z 1018/1200 33010KT 8000 NSC \n  BECMG 1018/1020 03005KT \n  PROB30 1101/1106 4000 HZ \n  BECMG 1108/1110 30010KT \n  BECMG 1116/1118 VRB02KT",
      "metarHtml": "METAR OMDB 102030Z 12004KT 090V160 <span class=\"hl-vis\">CAVOK</span> 21/12 Q1020 NOSIG",
      "tafHtml": "TAF OMDB 101700Z 1018/1200 33010KT 8000 NSC \n  BECMG 1018/1020 03005KT \n  PROB30 1101/1106 4000 HZ \n  BECMG 1108/1110 30010KT \n  BECMG 1116/1118 VRB02KT"
    },
    {
      "icao": "UGKO",
      "iata": "KUT",
      "name": "David the Builder Kutaisi International Airport",
      "updatedAt": "102030Z",
      "visibility_m": 10000,
      "taf_visibility_m": 10000,
      "worst_visibility_m": 10000,
      "ceiling_ft": null,
      "hazards": [],
      "severityScore": 0,
      "metarRaw": "METAR UGKO 102030Z 08012KT CAVOK 03/M00 Q1013 NOSIG",
      "tafRaw": "TAF UGKO 101700Z 1018/1118 08017G27KT CAVOK TX15/1111Z TN03/1022Z \n  TEMPO 1102/1109 08024G37KT BKN050",
      "metarHtml": "METAR UGKO 102030Z 08012KT <span class=\"hl-vis\">CAVOK</span> 03/M00 Q1013 NOSIG",
      "tafHtml": "TAF UGKO 101700Z 1018/1118 08017G27KT <span class=\"hl-vis\">CAVOK</span> TX15/1111Z TN03/1022Z \n  TEMPO 1102/1109 08024G37KT BKN050"
    }
  ],
  "stats": {
    "icaoCount": 159,
    "metarReturned": 157,
    "tafReturned": 147,
    "stationsWritten": 159,
    "missingMetar": 2,
    "missingTaf": 12
  },
  "errors": []
}