{
  "generatedAt": "2026-01-08T17:36:54.730Z",
  "stations": [
    {
      "icao": "EDFH",
      "iata": "HHN",
      "name": "Frankfurt-Hahn Airport",
      "updatedAt": "081720Z",
      "visibility_m": 2000,
      "taf_visibility_m": 1000,
      "worst_visibility_m": 1000,
      "ceiling_ft": 100,
      "hazards": [
        "BR",
        "FZRA",
        "SN",
        "RA",
        "SHRA"
      ],
      "severityScore": 100,
      "metarRaw": "METAR EDFH 081720Z 14008KT 2000 -FZRA BR BKN001 OVC010 M00/M00 Q1003",
      "tafRaw": "TAF EDFH 081700Z 0818/0918 17010KT 3000 BR BKN002 \n  TEMPO 0818/0821 2000 -SN OVC001 \n  PROB40 \n  TEMPO 0818/0821 1000 SN \n  BECMG 0821/0823 17015G25KT \n  TEMPO 0821/0903 2000 RA OVC001 \n  BECMG 0901/0903 21020G35KT 6000 BKN010 \n  TEMPO 0903/0915 21030G45KT SHRA BKN009CB \n  PROB30 \n  TEMPO 0909/0913 21035G50KT \n  TEMPO 0915/0918 2000 -SN BKN004 \n  PROB40 \n  TEMPO 0916/0918 1000 SN OVC001",
      "metarHtml": "METAR EDFH 081720Z 14008KT 2000 -<span class=\"hl\">FZRA</span> <span class=\"hl\">BR</span> BKN001 OVC010 M00/M00 Q1003",
      "tafHtml": "TAF EDFH 081700Z 0818/0918 17010KT 3000 <span class=\"hl\">BR</span> BKN002 \n  TEMPO 0818/0821 2000 -<span class=\"hl\">SN</span> OVC001 \n  PROB40 \n  TEMPO 0818/0821 1000 <span class=\"hl\">SN</span> \n  BECMG 0821/0823 17015G25KT \n  TEMPO 0821/0903 2000 <span class=\"hl\">RA</span> OVC001 \n  BECMG 0901/0903 21020G35KT 6000 BKN010 \n  TEMPO 0903/0915 21030G45KT <span class=\"hl\">SHRA</span> BKN009CB \n  PROB30 \n  TEMPO 0909/0913 21035G50KT \n  TEMPO 0915/0918 2000 -<span class=\"hl\">SN</span> BKN004 \n  PROB40 \n  TEMPO 0916/0918 1000 <span class=\"hl\">SN</span> OVC001"
    },
    {
      "icao": "EGBB",
      "iata": "BHX",
      "name": "Birmingham Airport",
      "updatedAt": "081720Z",
      "visibility_m": 5000,
      "taf_visibility_m": 300,
      "worst_visibility_m": 300,
      "ceiling_ft": 400,
      "hazards": [
        "RA",
        "FG",
        "BR",
        "SN"
      ],
      "severityScore": 100,
      "metarRaw": "METAR EGBB 081720Z 10012KT 5000 RA OVC004 02/02 Q0990",
      "tafRaw": "TAF EGBB 081702Z 0818/0918 07015KT 5000 BR BKN003 \n  TEMPO 0818/0821 07019G30KT \n  TEMPO 0818/0906 0700 RASN FG BKN000 \n  PROB30 \n  TEMPO 0818/0904 0300 +SN \n  BECMG 0821/0824 03018G30KT \n  BECMG 0900/0903 33018G30KT \n  BECMG 0906/0909 9999 NSW SCT006 \n  TEMPO 0906/0913 3000 RADZ BR BKN003 \n  BECMG 0912/0915 33009KT \n  TEMPO 0913/0918 4000 RADZ BKN014",
      "metarHtml": "METAR EGBB 081720Z 10012KT 5000 <span class=\"hl\">RA</span> OVC004 02/02 Q0990",
      "tafHtml": "TAF EGBB 081702Z 0818/0918 07015KT 5000 <span class=\"hl\">BR</span> BKN003 \n  TEMPO 0818/0821 07019G30KT \n  TEMPO 0818/0906 <span class=\"hl-vis\">0700</span> RASN <span class=\"hl\">FG</span> BKN000 \n  PROB30 \n  TEMPO 0818/0904 <span class=\"hl-vis\">0300</span> +<span class=\"hl\">SN</span> \n  BECMG 0821/0824 03018G30KT \n  BECMG 0900/0903 33018G30KT \n  BECMG 0906/0909 9999 NSW SCT006 \n  TEMPO 0906/0913 3000 RADZ <span class=\"hl\">BR</span> BKN003 \n  BECMG 0912/0915 33009KT \n  TEMPO 0913/0918 4000 RADZ BKN014"
    },
    {
      "icao": "LEMD",
      "iata": "MAD",
      "name": "Adolfo Suárez Madrid–Barajas Airport",
      "updatedAt": "081730Z",
      "visibility_m": 10000,
      "taf_visibility_m": 200,
      "worst_visibility_m": 200,
      "ceiling_ft": 1200,
      "hazards": [
        "FG",
        "BR",
        "DZ"
      ],
      "severityScore": 100,
      "metarRaw": "METAR LEMD 081730Z 21003KT 160V250 9999 OVC012 05/03 Q1028 NOSIG",
      "tafRaw": "TAF LEMD 081700Z 0818/0924 23010KT 6000 BKN005 TX11/0915Z TN05/0906Z \n  TEMPO 0820/0909 3000 DZ BR BCFG \n  PROB40 \n  TEMPO 0823/0908 0200 FG VV001 \n  TEMPO 0900/0907 23015G25KT \n  TEMPO 0907/0912 VRB05KT \n  TEMPO 0911/0917 27020G30KT \n  BECMG 0910/0912 CAVOK",
      "metarHtml": "METAR LEMD 081730Z 21003KT 160V250 9999 OVC012 05/03 Q1028 NOSIG",
      "tafHtml": "TAF LEMD 081700Z 0818/0924 23010KT 6000 BKN005 TX11/0915Z TN05/0906Z \n  TEMPO 0820/0909 3000 <span class=\"hl\">DZ</span> <span class=\"hl\">BR</span> BCFG \n  PROB40 \n  TEMPO 0823/0908 <span class=\"hl-vis\">0200</span> <span class=\"hl\">FG</span> VV001 \n  TEMPO 0900/0907 23015G25KT \n  TEMPO 0907/0912 VRB05KT \n  TEMPO 0911/0917 27020G30KT \n  BECMG 0910/0912 <span class=\"hl-vis\">CAVOK</span>"
    },
    {
      "icao": "LJLJ",
      "iata": "LJU",
      "name": "Ljubljana Jože Pučnik Airport",
      "updatedAt": "081730Z",
      "visibility_m": 10000,
      "taf_visibility_m": 300,
      "worst_visibility_m": 300,
      "ceiling_ft": null,
      "hazards": [
        "FZFG",
        "BR",
        "FZRA",
        "SN"
      ],
      "severityScore": 100,
      "metarRaw": "METAR LJLJ 081730Z 29005KT 9999 MIFG NSC M12/M13 Q1011 NOSIG",
      "tafRaw": "TAF LJLJ 081700Z 0818/0918 VRB02KT CAVOK \n  TEMPO 0818/0908 3000 BCFG BR \n  PROB40 \n  TEMPO 0820/0908 0300 FZFG VV001 \n  TEMPO 0909/0918 4000 -FZRA BR \n  PROB40 \n  TEMPO 0909/0911 3000 -SN BR",
      "metarHtml": "METAR LJLJ 081730Z 29005KT 9999 MIFG NSC M12/M13 Q1011 NOSIG",
      "tafHtml": "TAF LJLJ 081700Z 0818/0918 VRB02KT <span class=\"hl-vis\">CAVOK</span> \n  TEMPO 0818/0908 3000 BCFG <span class=\"hl\">BR</span> \n  PROB40 \n  TEMPO 0820/0908 <span class=\"hl-vis\">0300</span> <span class=\"hl\">FZFG</span> VV001 \n  TEMPO 0909/0918 4000 -<span class=\"hl\">FZRA</span> <span class=\"hl\">BR</span> \n  PROB40 \n  TEMPO 0909/0911 3000 -<span class=\"hl\">SN</span> <span class=\"hl\">BR</span>"
    },
    {
      "icao": "LQSA",
      "iata": "SJJ",
      "name": "Sarajevo International Airport",
      "updatedAt": "081730Z",
      "visibility_m": 10000,
      "taf_visibility_m": 500,
      "worst_visibility_m": 500,
      "ceiling_ft": null,
      "hazards": [
        "FZFG",
        "FZRA",
        "RA"
      ],
      "severityScore": 100,
      "metarRaw": "METAR LQSA 081730Z 14004KT 110V180 CAVOK M08/M10 Q1013 NOSIG",
      "tafRaw": "TAF LQSA 081700Z 0818/0918 VRB02KT 9999 SCT050 TX01/0913Z TNM11/0902Z \n  PROB30 0903/0907 0500 FZFG BKN004 \n  PROB30 \n  TEMPO 0908/0911 FZRA \n  PROB40 \n  TEMPO 0912/0918 15012KT RA",
      "metarHtml": "METAR LQSA 081730Z 14004KT 110V180 <span class=\"hl-vis\">CAVOK</span> M08/M10 Q1013 NOSIG",
      "tafHtml": "TAF LQSA 081700Z 0818/0918 VRB02KT 9999 SCT050 TX01/0913Z TNM11/0902Z \n  PROB30 0903/0907 <span class=\"hl-vis\">0500</span> <span class=\"hl\">FZFG</span> BKN004 \n  PROB30 \n  TEMPO 0908/0911 <span class=\"hl\">FZRA</span> \n  PROB40 \n  TEMPO 0912/0918 15012KT <span class=\"hl\">RA</span>"
    },
    {
      "icao": "UAAA",
      "iata": "ALA",
      "name": "Almaty International Airport",
      "updatedAt": "081730Z",
      "visibility_m": 2600,
      "taf_visibility_m": 200,
      "worst_visibility_m": 200,
      "ceiling_ft": 1100,
      "hazards": [
        "BR",
        "FZFG"
      ],
      "severityScore": 100,
      "metarRaw": "METAR UAAA 081730Z 35003MPS 330V030 2600 BR OVC011 M05/M06 Q1029 NOSIG",
      "tafRaw": "TAF UAAA 081714Z 0818/0918 33003MPS 1500 BR BKN011 OVC100 TXM01/0909Z TNM07/0901Z \n  TEMPO 0818/0905 VRB01MPS 0200 FZFG VV001 \n  TEMPO 0905/0907 03003MPS 3100 BKN004 OVC011 \n  FM090700 03002G07MPS 3100 BR FU SCT011 BKN100 \n  TEMPO 0912/0915 1500 \n  TEMPO 0915/0918 VRB01MPS 0500 FZFG VV003",
      "metarHtml": "METAR UAAA 081730Z 35003MPS 330V030 2600 <span class=\"hl\">BR</span> OVC011 M05/M06 Q1029 NOSIG",
      "tafHtml": "TAF UAAA 081714Z 0818/0918 33003MPS 1500 <span class=\"hl\">BR</span> BKN011 OVC100 TXM01/0909Z TNM07/0901Z \n  TEMPO 0818/0905 VRB01MPS <span class=\"hl-vis\">0200</span> <span class=\"hl\">FZFG</span> VV001 \n  TEMPO 0905/0907 03003MPS 3100 BKN004 OVC011 \n  FM090700 03002G07MPS 3100 <span class=\"hl\">BR</span> FU SCT011 BKN100 \n  TEMPO 0912/0915 1500 \n  TEMPO 0915/0918 VRB01MPS <span class=\"hl-vis\">0500</span> <span class=\"hl\">FZFG</span> VV003"
    },
    {
      "icao": "UBBB",
      "iata": "GYD",
      "name": "Heydar Aliyev International Airport",
      "updatedAt": "081730Z",
      "visibility_m": 100,
      "taf_visibility_m": 200,
      "worst_visibility_m": 100,
      "ceiling_ft": 400,
      "hazards": [
        "FG",
        "BR"
      ],
      "severityScore": 100,
      "metarRaw": "METAR UBBB 081730Z 00000KT 0100 R16/0800 R17/0300 FG VV004 05/05 Q1015 NOSIG",
      "tafRaw": "TAF UBBB 081707Z 0818/0918 VRB04KT 0200 FG VV001 TX05/0910Z TN04/0903Z \n  TEMPO 0818/0822 19005KT 0800 VV003 \n  BECMG 0822/0824 18016KT 0400 VV002 \n  TEMPO 0900/0906 20020G30KT 1500 BR BKN004 \n  BECMG 0906/0908 17022G32KT 6000 NSW BKN010 \n  TEMPO 0912/0918 21010KT 3000 BR BCFG BKN004",
      "metarHtml": "METAR UBBB 081730Z 00000KT <span class=\"hl-vis\">0100</span> R16/0800 R17/0300 <span class=\"hl\">FG</span> VV004 05/05 Q1015 NOSIG",
      "tafHtml": "TAF UBBB 081707Z 0818/0918 VRB04KT <span class=\"hl-vis\">0200</span> <span class=\"hl\">FG</span> VV001 TX05/0910Z TN04/0903Z \n  TEMPO 0818/0822 19005KT <span class=\"hl-vis\">0800</span> VV003 \n  BECMG 0822/0824 18016KT <span class=\"hl-vis\">0400</span> VV002 \n  TEMPO 0900/0906 20020G30KT 1500 <span class=\"hl\">BR</span> BKN004 \n  BECMG 0906/0908 17022G32KT 6000 NSW BKN010 \n  TEMPO 0912/0918 21010KT 3000 <span class=\"hl\">BR</span> BCFG BKN004"
    },
    {
      "icao": "UDYZ",
      "iata": "EVN",
      "name": "Zvartnots International Airport",
      "updatedAt": "081730Z",
      "visibility_m": 1700,
      "taf_visibility_m": 200,
      "worst_visibility_m": 200,
      "ceiling_ft": null,
      "hazards": [
        "BR",
        "FZFG"
      ],
      "severityScore": 95,
      "metarRaw": "METAR UDYZ 081730Z 01002KT 1700 R08/P2000N BR FEW046 M05/M07 Q1022 NOSIG",
      "tafRaw": "TAF UDYZ 081700Z 0818/0918 28006KT 1500 BR FEW040 \n  TEMPO 0818/0824 0600 FZFG OVC003 \n  TEMPO 0900/0906 0200 FZFG VV001",
      "metarHtml": "METAR UDYZ 081730Z 01002KT 1700 R08/P2000N <span class=\"hl\">BR</span> FEW046 M05/M07 Q1022 NOSIG",
      "tafHtml": "TAF UDYZ 081700Z 0818/0918 28006KT 1500 <span class=\"hl\">BR</span> FEW040 \n  TEMPO 0818/0824 <span class=\"hl-vis\">0600</span> <span class=\"hl\">FZFG</span> OVC003 \n  TEMPO 0900/0906 <span class=\"hl-vis\">0200</span> <span class=\"hl\">FZFG</span> VV001"
    },
    {
      "icao": "EPPO",
      "iata": "POZ",
      "name": "Poznań-Ławica Airport",
      "updatedAt": "081730Z",
      "visibility_m": 3200,
      "taf_visibility_m": 400,
      "worst_visibility_m": 400,
      "ceiling_ft": null,
      "hazards": [
        "BR",
        "FZFG",
        "SN"
      ],
      "severityScore": 93,
      "metarRaw": "METAR EPPO 081730Z 08004KT 3200 BR SCT003 M10/M11 Q1012",
      "tafRaw": "TAF EPPO 081730Z 0818/0918 07003KT 3300 BR OVC005 \n  TEMPO 0818/0908 1200 -SN -SG BR OVC002 \n  PROB40 \n  TEMPO 0818/0908 0400 FZFG OVC001 \n  BECMG 0908/0911 10013KT 7000 BKN012 \n  PROB40 \n  TEMPO 0911/0918 SCT020",
      "metarHtml": "METAR EPPO 081730Z 08004KT 3200 <span class=\"hl\">BR</span> SCT003 M10/M11 Q1012",
      "tafHtml": "TAF EPPO 081730Z 0818/0918 07003KT 3300 <span class=\"hl\">BR</span> OVC005 \n  TEMPO 0818/0908 1200 -<span class=\"hl\">SN</span> -SG <span class=\"hl\">BR</span> OVC002 \n  PROB40 \n  TEMPO 0818/0908 <span class=\"hl-vis\">0400</span> <span class=\"hl\">FZFG</span> OVC001 \n  BECMG 0908/0911 10013KT 7000 BKN012 \n  PROB40 \n  TEMPO 0911/0918 SCT020"
    },
    {
      "icao": "EGNM",
      "iata": "LBA",
      "name": "Leeds Bradford Airport",
      "updatedAt": "081720Z",
      "visibility_m": 4500,
      "taf_visibility_m": 800,
      "worst_visibility_m": 800,
      "ceiling_ft": 1200,
      "hazards": [
        "BR",
        "SN",
        "RA",
        "SHRA"
      ],
      "severityScore": 91,
      "metarRaw": "METAR EGNM 081720Z 04004KT 020V090 4500 BR SCT004 BKN012 M01/M02 Q0994",
      "tafRaw": "TAF EGNM 081659Z 0818/0918 VRB04KT 9999 FEW010 \n  BECMG 0818/0821 03012KT BKN009 \n  TEMPO 0818/0903 3000 RASN -SN BKN004 \n  PROB30 \n  TEMPO 0820/0903 04015G25KT 0800 SN BKN001 \n  TEMPO 0903/0909 02015G25KT 6000 RA -RADZ \n  PROB30 \n  TEMPO 0903/0909 4000 RADZ RASN BKN004 \n  BECMG 0907/0910 SCT020 \n  PROB30 \n  TEMPO 0910/0916 6000 SHRA BKN012",
      "metarHtml": "METAR EGNM 081720Z 04004KT 020V090 4500 <span class=\"hl\">BR</span> SCT004 BKN012 M01/M02 Q0994",
      "tafHtml": "TAF EGNM 081659Z 0818/0918 VRB04KT 9999 FEW010 \n  BECMG 0818/0821 03012KT BKN009 \n  TEMPO 0818/0903 3000 RASN -<span class=\"hl\">SN</span> BKN004 \n  PROB30 \n  TEMPO 0820/0903 04015G25KT <span class=\"hl-vis\">0800</span> <span class=\"hl\">SN</span> BKN001 \n  TEMPO 0903/0909 02015G25KT 6000 <span class=\"hl\">RA</span> -RADZ \n  PROB30 \n  TEMPO 0903/0909 4000 RADZ RASN BKN004 \n  BECMG 0907/0910 SCT020 \n  PROB30 \n  TEMPO 0910/0916 6000 <span class=\"hl\">SHRA</span> BKN012"
    },
    {
      "icao": "EDDN",
      "iata": "NUE",
      "name": "Nuremberg Airport",
      "updatedAt": "081720Z",
      "visibility_m": 10000,
      "taf_visibility_m": 800,
      "worst_visibility_m": 800,
      "ceiling_ft": 2000,
      "hazards": [
        "SN",
        "FZRA",
        "RA"
      ],
      "severityScore": 90,
      "metarRaw": "METAR EDDN 081720Z AUTO 14006KT 9999 -SN BKN020 OVC026 00/M02 Q1007 NOSIG",
      "tafRaw": "TAF EDDN 081700Z 0818/0918 14006KT 9999 BKN015 \n  BECMG 0818/0820 3500 -SN BKN007 OVC010 \n  TEMPO 0820/0901 0800 SN BKN004 OVC007 \n  PROB40 \n  TEMPO 0900/0903 FZRA \n  BECMG 0903/0905 8000 SCT008 BKN020 \n  BECMG 0908/0911 20012KT \n  TEMPO 0916/0918 RA",
      "metarHtml": "METAR EDDN 081720Z AUTO 14006KT 9999 -<span class=\"hl\">SN</span> BKN020 OVC026 00/M02 Q1007 NOSIG",
      "tafHtml": "TAF EDDN 081700Z 0818/0918 14006KT 9999 BKN015 \n  BECMG 0818/0820 3500 -<span class=\"hl\">SN</span> BKN007 OVC010 \n  TEMPO 0820/0901 <span class=\"hl-vis\">0800</span> <span class=\"hl\">SN</span> BKN004 OVC007 \n  PROB40 \n  TEMPO 0900/0903 <span class=\"hl\">FZRA</span> \n  BECMG 0903/0905 8000 SCT008 BKN020 \n  BECMG 0908/0911 20012KT \n  TEMPO 0916/0918 <span class=\"hl\">RA</span>"
    },
    {
      "icao": "EYVI",
      "iata": "VNO",
      "name": "Vilnius International Airport",
      "updatedAt": "081720Z",
      "visibility_m": 10000,
      "taf_visibility_m": 600,
      "worst_visibility_m": 600,
      "ceiling_ft": 700,
      "hazards": [
        "SN",
        "BLSN"
      ],
      "severityScore": 90,
      "metarRaw": "METAR EYVI 081720Z 02015KT 9999 BKN007 M09/M11 Q1008 NOSIG",
      "tafRaw": "TAF EYVI 081725Z 0818/0918 02015KT 9000 BKN010 \n  TEMPO 0818/0822 BKN005 \n  BECMG 0822/0824 02015G25KT 3000 SN BLSN \n  TEMPO 0900/0918 0600 +SN BKN005",
      "metarHtml": "METAR EYVI 081720Z 02015KT 9999 BKN007 M09/M11 Q1008 NOSIG",
      "tafHtml": "TAF EYVI 081725Z 0818/0918 02015KT 9000 BKN010 \n  TEMPO 0818/0822 BKN005 \n  BECMG 0822/0824 02015G25KT 3000 <span class=\"hl\">SN</span> <span class=\"hl\">BLSN</span> \n  TEMPO 0900/0918 <span class=\"hl-vis\">0600</span> +<span class=\"hl\">SN</span> BKN005"
    },
    {
      "icao": "UDSG",
      "iata": "LWN",
      "name": "Shirak International Airport",
      "updatedAt": "081730Z",
      "visibility_m": 6000,
      "taf_visibility_m": 800,
      "worst_visibility_m": 800,
      "ceiling_ft": null,
      "hazards": [
        "FZFG",
        "BR",
        "SN"
      ],
      "severityScore": 83,
      "metarRaw": "METAR UDSG 081730Z 36002KT 6000 SCT049 M07/M09 Q1020 NOSIG",
      "tafRaw": "TAF UDSG 081658Z 0818/0918 VRB06KT 3000 BR BKN030 \n  TEMPO 0818/0820 1000 BR OVC020 \n  TEMPO 0820/0906 35016KT 0800 SN FZFG OVC008",
      "metarHtml": "METAR UDSG 081730Z 36002KT 6000 SCT049 M07/M09 Q1020 NOSIG",
      "tafHtml": "TAF UDSG 081658Z 0818/0918 VRB06KT 3000 <span class=\"hl\">BR</span> BKN030 \n  TEMPO 0818/0820 1000 <span class=\"hl\">BR</span> OVC020 \n  TEMPO 0820/0906 35016KT <span class=\"hl-vis\">0800</span> <span class=\"hl\">SN</span> <span class=\"hl\">FZFG</span> OVC008"
    },
    {
      "icao": "EBCI",
      "iata": "CRL",
      "name": "Brussels South Charleroi Airport",
      "updatedAt": "081720Z",
      "visibility_m": 3500,
      "taf_visibility_m": 1200,
      "worst_visibility_m": 1200,
      "ceiling_ft": 400,
      "hazards": [
        "BR",
        "RA",
        "SHRA"
      ],
      "severityScore": 81,
      "metarRaw": "METAR EBCI 081720Z 17007KT 3500 -RA BR FEW002 BKN004 03/03 Q1000 TEMPO 5000 BKN005",
      "tafRaw": "TAF EBCI 081715Z 0818/0924 15010KT 7000 SCT006 BKN016 \n  TEMPO 0818/0824 2500 RA RADZ BKN004 \n  BECMG 0900/0903 20022G35KT \n  PROB30 \n  TEMPO 0900/0903 3500 SHRA SCT005 BKN014TCU \n  TEMPO 0903/0913 22028G45KT \n  BECMG 0903/0906 SCT004 BKN007 \n  PROB30 \n  TEMPO 0903/0906 4500 -RA \n  TEMPO 0906/0924 2500 RA RADZ BKN004 \n  PROB40 \n  TEMPO 0909/0924 2000 RASN BKN003 \n  BECMG 0916/0919 26014KT \n  PROB30 \n  TEMPO 0918/0924 1200 SNRA BKN002",
      "metarHtml": "METAR EBCI 081720Z 17007KT 3500 -<span class=\"hl\">RA</span> <span class=\"hl\">BR</span> FEW002 BKN004 03/03 Q1000 TEMPO 5000 BKN005",
      "tafHtml": "TAF EBCI 081715Z 0818/0924 15010KT 7000 SCT006 BKN016 \n  TEMPO 0818/0824 2500 <span class=\"hl\">RA</span> RADZ BKN004 \n  BECMG 0900/0903 20022G35KT \n  PROB30 \n  TEMPO 0900/0903 3500 <span class=\"hl\">SHRA</span> SCT005 BKN014TCU \n  TEMPO 0903/0913 22028G45KT \n  BECMG 0903/0906 SCT004 BKN007 \n  PROB30 \n  TEMPO 0903/0906 4500 -<span class=\"hl\">RA</span> \n  TEMPO 0906/0924 2500 <span class=\"hl\">RA</span> RADZ BKN004 \n  PROB40 \n  TEMPO 0909/0924 2000 RASN BKN003 \n  BECMG 0916/0919 26014KT \n  PROB30 \n  TEMPO 0918/0924 1200 SNRA BKN002"
    },
    {
      "icao": "EHBK",
      "iata": "MST",
      "name": "Maastricht Aachen Airport",
      "updatedAt": "081725Z",
      "visibility_m": 10000,
      "taf_visibility_m": 800,
      "worst_visibility_m": 800,
      "ceiling_ft": null,
      "hazards": [
        "DZ",
        "SN",
        "RA",
        "SHRA"
      ],
      "severityScore": 79,
      "metarRaw": "METAR EHBK 081725Z AUTO 15006KT 9999 -DZ FEW009/// OVC010/// 03/02 Q1001 NOSIG",
      "tafRaw": "TAF EHBK 081721Z 0818/0924 15008KT 9999 -RA OVC014 \n  TEMPO 0818/0824 4000 RA BKN008 \n  BECMG 0821/0824 18015KT SCT025 \n  TEMPO 0900/0908 7000 RA SHRA FEW020TCU \n  BECMG 0906/0909 20018G28KT 7000 RA BKN012 \n  TEMPO 0912/0918 22020G30KT 4000 -DZ BKN006 \n  BECMG 0916/0919 23015KT 4000 SNRA BKN003 \n  BECMG 0921/0924 29008KT 0800 SN \n  TEMPO 0921/0924 BKN001",
      "metarHtml": "METAR EHBK 081725Z AUTO 15006KT 9999 -<span class=\"hl\">DZ</span> FEW009/// OVC010/// 03/02 Q1001 NOSIG",
      "tafHtml": "TAF EHBK 081721Z 0818/0924 15008KT 9999 -<span class=\"hl\">RA</span> OVC014 \n  TEMPO 0818/0824 4000 <span class=\"hl\">RA</span> BKN008 \n  BECMG 0821/0824 18015KT SCT025 \n  TEMPO 0900/0908 7000 <span class=\"hl\">RA</span> <span class=\"hl\">SHRA</span> FEW020TCU \n  BECMG 0906/0909 20018G28KT 7000 <span class=\"hl\">RA</span> BKN012 \n  TEMPO 0912/0918 22020G30KT 4000 -<span class=\"hl\">DZ</span> BKN006 \n  BECMG 0916/0919 23015KT 4000 SNRA BKN003 \n  BECMG 0921/0924 29008KT <span class=\"hl-vis\">0800</span> <span class=\"hl\">SN</span> \n  TEMPO 0921/0924 BKN001"
    },
    {
      "icao": "EDDB",
      "iata": "BER",
      "name": "Berlin Brandenburg Airport",
      "updatedAt": "081720Z",
      "visibility_m": 10000,
      "taf_visibility_m": 700,
      "worst_visibility_m": 700,
      "ceiling_ft": 1600,
      "hazards": [
        "SN",
        "BLSN"
      ],
      "severityScore": 77,
      "metarRaw": "METAR EDDB 081720Z AUTO 12009KT 9999 OVC016 M04/M07 Q1009 NOSIG",
      "tafRaw": "TAF EDDB 081700Z 0818/0918 11009KT 9999 SCT015 BKN025 \n  BECMG 0901/0903 10014KT BKN014 \n  PROB30 \n  TEMPO 0903/0906 09015G25KT \n  BECMG 0906/0909 10015G25KT 4000 -SN BKN008 \n  TEMPO 0909/0918 0700 BLSN BKN004 \n  PROB30 \n  TEMPO 0912/0918 10020G30KT +SN",
      "metarHtml": "METAR EDDB 081720Z AUTO 12009KT 9999 OVC016 M04/M07 Q1009 NOSIG",
      "tafHtml": "TAF EDDB 081700Z 0818/0918 11009KT 9999 SCT015 BKN025 \n  BECMG 0901/0903 10014KT BKN014 \n  PROB30 \n  TEMPO 0903/0906 09015G25KT \n  BECMG 0906/0909 10015G25KT 4000 -<span class=\"hl\">SN</span> BKN008 \n  TEMPO 0909/0918 <span class=\"hl-vis\">0700</span> <span class=\"hl\">BLSN</span> BKN004 \n  PROB30 \n  TEMPO 0912/0918 10020G30KT +<span class=\"hl\">SN</span>"
    },
    {
      "icao": "EDJA",
      "iata": "FMM",
      "name": "Memmingen Allgau Airport",
      "updatedAt": "081720Z",
      "visibility_m": 10000,
      "taf_visibility_m": 1200,
      "worst_visibility_m": 1200,
      "ceiling_ft": 4400,
      "hazards": [
        "FZRA",
        "SN",
        "RA"
      ],
      "severityScore": 75,
      "metarRaw": "METAR EDJA 081720Z 24017G27KT 9999 FEW025 BKN044 OVC050 01/M00 Q1006",
      "tafRaw": "TAF EDJA 081700Z 0818/0903 23015G25KT 9999 SCT007 BKN015 \n  TEMPO 0818/0822 1200 SN BKN002 \n  PROB30 \n  TEMPO 0818/0822 FZRA BKN005 \n  TEMPO 0822/0903 3500 RA",
      "metarHtml": "METAR EDJA 081720Z 24017G27KT 9999 FEW025 BKN044 OVC050 01/M00 Q1006",
      "tafHtml": "TAF EDJA 081700Z 0818/0903 23015G25KT 9999 SCT007 BKN015 \n  TEMPO 0818/0822 1200 <span class=\"hl\">SN</span> BKN002 \n  PROB30 \n  TEMPO 0818/0822 <span class=\"hl\">FZRA</span> BKN005 \n  TEMPO 0822/0903 3500 <span class=\"hl\">RA</span>"
    },
    {
      "icao": "EPLB",
      "iata": "LUZ",
      "name": "Lublin Airport",
      "updatedAt": "081730Z",
      "visibility_m": 5000,
      "taf_visibility_m": 700,
      "worst_visibility_m": 700,
      "ceiling_ft": null,
      "hazards": [
        "BR",
        "SN",
        "BLSN"
      ],
      "severityScore": 75,
      "metarRaw": "METAR EPLB 081730Z 34011KT 5000 -SN DRSN BR FEW016 SCT043 M07/M08 Q1005",
      "tafRaw": "TAF EPLB 081730Z 0818/0918 33011KT 6000 -SN OVC040 \n  BECMG 0818/0820 3500 -SN BR \n  PROB40 \n  TEMPO 0818/0918 2000 SN BR BKN005 OVC010 \n  PROB30 \n  TEMPO 0818/0913 35015G25KT 0700 BLSN BKN003",
      "metarHtml": "METAR EPLB 081730Z 34011KT 5000 -<span class=\"hl\">SN</span> DRSN <span class=\"hl\">BR</span> FEW016 SCT043 M07/M08 Q1005",
      "tafHtml": "TAF EPLB 081730Z 0818/0918 33011KT 6000 -<span class=\"hl\">SN</span> OVC040 \n  BECMG 0818/0820 3500 -<span class=\"hl\">SN</span> <span class=\"hl\">BR</span> \n  PROB40 \n  TEMPO 0818/0918 2000 <span class=\"hl\">SN</span> <span class=\"hl\">BR</span> BKN005 OVC010 \n  PROB30 \n  TEMPO 0818/0913 35015G25KT <span class=\"hl-vis\">0700</span> <span class=\"hl\">BLSN</span> BKN003"
    },
    {
      "icao": "LOWW",
      "iata": "VIE",
      "name": "Vienna International Airport",
      "updatedAt": "081720Z",
      "visibility_m": 10000,
      "taf_visibility_m": 800,
      "worst_visibility_m": 800,
      "ceiling_ft": 3400,
      "hazards": [
        "FG",
        "BR",
        "SN"
      ],
      "severityScore": 73,
      "metarRaw": "METAR LOWW 081720Z 03003KT 9999 FEW030 BKN034 M03/M07 Q1011 NOSIG",
      "tafRaw": "TAF LOWW 081715Z 0818/0924 VRB03KT 9999 SCT030 TXM04/0818Z TNM06/0908Z \n  BECMG 0901/0903 12008KT \n  FM090600 12008KT 6000 -SN VV015 \n  TEMPO 0907/0911 0800 SN VV003 \n  FM091100 13008KT 6000 BKN007 \n  TEMPO 0911/0918 SCT012 \n  TEMPO 0918/0924 2000 BR BKN003 \n  PROB30 \n  TEMPO 0922/0924 0800 FG",
      "metarHtml": "METAR LOWW 081720Z 03003KT 9999 FEW030 BKN034 M03/M07 Q1011 NOSIG",
      "tafHtml": "TAF LOWW 081715Z 0818/0924 VRB03KT 9999 SCT030 TXM04/0818Z TNM06/0908Z \n  BECMG 0901/0903 12008KT \n  FM090600 12008KT 6000 -<span class=\"hl\">SN</span> VV015 \n  TEMPO 0907/0911 <span class=\"hl-vis\">0800</span> <span class=\"hl\">SN</span> VV003 \n  FM091100 13008KT 6000 BKN007 \n  TEMPO 0911/0918 SCT012 \n  TEMPO 0918/0924 2000 <span class=\"hl\">BR</span> BKN003 \n  PROB30 \n  TEMPO 0922/0924 <span class=\"hl-vis\">0800</span> <span class=\"hl\">FG</span>"
    },
    {
      "icao": "LKMT",
      "iata": "OSR",
      "name": "Ostrava Leos Janáček Airport",
      "updatedAt": "081730Z",
      "visibility_m": 10000,
      "taf_visibility_m": 900,
      "worst_visibility_m": 900,
      "ceiling_ft": 2800,
      "hazards": [
        "FZFG",
        "BR",
        "SN"
      ],
      "severityScore": 68,
      "metarRaw": "METAR LKMT 081730Z VRB02KT 9999 OVC028 M05/M07 Q1010 NOSIG",
      "tafRaw": "TAF LKMT 081700Z 0818/0918 VRB02KT 9999 BKN025 \n  BECMG 0823/0901 4500 BR SCT003 BKN015 \n  TEMPO 0903/0908 0900 FZFG BKN002 \n  BECMG 0909/0911 9999 NSW SCT030 \n  PROB40 \n  TEMPO 0912/0917 -SN BKN020",
      "metarHtml": "METAR LKMT 081730Z VRB02KT 9999 OVC028 M05/M07 Q1010 NOSIG",
      "tafHtml": "TAF LKMT 081700Z 0818/0918 VRB02KT 9999 BKN025 \n  BECMG 0823/0901 4500 <span class=\"hl\">BR</span> SCT003 BKN015 \n  TEMPO 0903/0908 0900 <span class=\"hl\">FZFG</span> BKN002 \n  BECMG 0909/0911 9999 NSW SCT030 \n  PROB40 \n  TEMPO 0912/0917 -<span class=\"hl\">SN</span> BKN020"
    },
    {
      "icao": "EYKA",
      "iata": "KUN",
      "name": "Kaunas International Airport",
      "updatedAt": "081720Z",
      "visibility_m": 10000,
      "taf_visibility_m": 600,
      "worst_visibility_m": 600,
      "ceiling_ft": null,
      "hazards": [
        "SN",
        "BLSN"
      ],
      "severityScore": 65,
      "metarRaw": "METAR EYKA 081720Z 01009KT 330V040 9999 SCT013 M09/M11 Q1011",
      "tafRaw": "TAF EYKA 081725Z 0818/0918 02010KT 9000 SCT010 \n  TEMPO 0818/0905 BKN015 \n  BECMG 0905/0907 3000 SN BKN015 \n  TEMPO 0907/0918 02015G25KT 0600 +SN BLSN BKN005",
      "metarHtml": "METAR EYKA 081720Z 01009KT 330V040 9999 SCT013 M09/M11 Q1011",
      "tafHtml": "TAF EYKA 081725Z 0818/0918 02010KT 9000 SCT010 \n  TEMPO 0818/0905 BKN015 \n  BECMG 0905/0907 3000 <span class=\"hl\">SN</span> BKN015 \n  TEMPO 0907/0918 02015G25KT <span class=\"hl-vis\">0600</span> +<span class=\"hl\">SN</span> <span class=\"hl\">BLSN</span> BKN005"
    },
    {
      "icao": "LZTT",
      "iata": "TAT",
      "name": "Poprad-Tatry Airport",
      "updatedAt": "081730Z",
      "visibility_m": 10000,
      "taf_visibility_m": 500,
      "worst_visibility_m": 500,
      "ceiling_ft": null,
      "hazards": [
        "FZFG"
      ],
      "severityScore": 65,
      "metarRaw": "METAR LZTT 081730Z 28010KT 9999 FEW020 M10/M13 Q1003 NOSIG",
      "tafRaw": "TAF LZTT 081715Z 0818/0918 27009KT CAVOK \n  BECMG 0903/0905 VRB02KT \n  PROB30 \n  TEMPO 0904/0908 0500 FZFG BKN002 \n  BECMG 0913/0915 BKN030",
      "metarHtml": "METAR LZTT 081730Z 28010KT 9999 FEW020 M10/M13 Q1003 NOSIG",
      "tafHtml": "TAF LZTT 081715Z 0818/0918 27009KT <span class=\"hl-vis\">CAVOK</span> \n  BECMG 0903/0905 VRB02KT \n  PROB30 \n  TEMPO 0904/0908 <span class=\"hl-vis\">0500</span> <span class=\"hl\">FZFG</span> BKN002 \n  BECMG 0913/0915 BKN030"
    },
    {
      "icao": "EPKT",
      "iata": "KTW",
      "name": "Katowice Wojciech Korfanty International Airport",
      "updatedAt": "081730Z",
      "visibility_m": 8000,
      "taf_visibility_m": 1200,
      "worst_visibility_m": 1200,
      "ceiling_ft": 500,
      "hazards": [
        "BR",
        "SN"
      ],
      "severityScore": 63,
      "metarRaw": "METAR EPKT 081730Z 31005KT 8000 OVC005 M06/M07 Q1009",
      "tafRaw": "TAF EPKT 081730Z 0818/0918 32004KT 7000 OVC005 \n  TEMPO 0818/0908 3000 -SN BR OVC004 \n  PROB40 0900/0908 1200 BR \n  BECMG 0908/0910 CAVOK",
      "metarHtml": "METAR EPKT 081730Z 31005KT 8000 OVC005 M06/M07 Q1009",
      "tafHtml": "TAF EPKT 081730Z 0818/0918 32004KT 7000 OVC005 \n  TEMPO 0818/0908 3000 -<span class=\"hl\">SN</span> <span class=\"hl\">BR</span> OVC004 \n  PROB40 0900/0908 1200 <span class=\"hl\">BR</span> \n  BECMG 0908/0910 <span class=\"hl-vis\">CAVOK</span>"
    },
    {
      "icao": "LRBS",
      "iata": "BBU",
      "name": "Bucharest Băneasa Aurel Vlaicu International Airport",
      "updatedAt": "081730Z",
      "visibility_m": 2500,
      "taf_visibility_m": 1500,
      "worst_visibility_m": 1500,
      "ceiling_ft": 700,
      "hazards": [
        "BR",
        "SN"
      ],
      "severityScore": 63,
      "metarRaw": "METAR LRBS 081730Z 27008KT 240V300 2500 -SN BR BKN007 OVC025 M02/M02 Q1001 BECMG 3000",
      "tafRaw": "TAF LRBS 081700Z 0818/0918 24012KT 3000 -SN BR BKN010 OVC020 \n  TEMPO 0818/0820 1500 -SN BR BKN005 OVC015 \n  BECMG 0820/0822 9999 NSW BKN020",
      "metarHtml": "METAR LRBS 081730Z 27008KT 240V300 2500 -<span class=\"hl\">SN</span> <span class=\"hl\">BR</span> BKN007 OVC025 M02/M02 Q1001 BECMG 3000",
      "tafHtml": "TAF LRBS 081700Z 0818/0918 24012KT 3000 -<span class=\"hl\">SN</span> <span class=\"hl\">BR</span> BKN010 OVC020 \n  TEMPO 0818/0820 1500 -<span class=\"hl\">SN</span> <span class=\"hl\">BR</span> BKN005 OVC015 \n  BECMG 0820/0822 9999 NSW BKN020"
    },
    {
      "icao": "LROP",
      "iata": "OTP",
      "name": "Bucharest Henri Coandă International Airport",
      "updatedAt": "081730Z",
      "visibility_m": 1600,
      "taf_visibility_m": 1500,
      "worst_visibility_m": 1500,
      "ceiling_ft": 600,
      "hazards": [
        "BR",
        "SN"
      ],
      "severityScore": 63,
      "metarRaw": "METAR LROP 081730Z 25010KT 1600 SN BR BKN006 OVC010 M01/M01 Q1001 NOSIG",
      "tafRaw": "TAF LROP 081700Z 0818/0918 24012KT 3000 -SN BR BKN010 OVC020 \n  TEMPO 0818/0820 1500 -SN BR BKN005 OVC015 \n  BECMG 0820/0822 9999 NSW BKN020",
      "metarHtml": "METAR LROP 081730Z 25010KT 1600 <span class=\"hl\">SN</span> <span class=\"hl\">BR</span> BKN006 OVC010 M01/M01 Q1001 NOSIG",
      "tafHtml": "TAF LROP 081700Z 0818/0918 24012KT 3000 -<span class=\"hl\">SN</span> <span class=\"hl\">BR</span> BKN010 OVC020 \n  TEMPO 0818/0820 1500 -<span class=\"hl\">SN</span> <span class=\"hl\">BR</span> BKN005 OVC015 \n  BECMG 0820/0822 9999 NSW BKN020"
    },
    {
      "icao": "EGKK",
      "iata": "LGW",
      "name": "London Gatwick Airport",
      "updatedAt": "081720Z",
      "visibility_m": 6000,
      "taf_visibility_m": 2000,
      "worst_visibility_m": 2000,
      "ceiling_ft": 400,
      "hazards": [
        "RA",
        "SHRA"
      ],
      "severityScore": 61,
      "metarRaw": "METAR EGKK 081720Z 10012KT 6000 -RA BKN004 05/05 Q0990",
      "tafRaw": "TAF EGKK 081704Z 0818/0924 10011KT 9999 SCT010 BKN020 \n  BECMG 0818/0820 19012KT \n  TEMPO 0818/0904 6000 RA BKN010 \n  PROB40 \n  TEMPO 0818/0904 4000 +RA RADZ BKN006 \n  PROB30 \n  TEMPO 0818/0819 12015G25KT \n  TEMPO 0819/0823 20016G27KT \n  BECMG 0823/0902 32016G26KT \n  TEMPO 0904/0912 6000 -RASN BKN008 \n  PROB30 \n  TEMPO 0904/0911 32019G36KT 2000 RASN BKN004 \n  TEMPO 0912/0921 6000 RA SHRA BKN008",
      "metarHtml": "METAR EGKK 081720Z 10012KT 6000 -<span class=\"hl\">RA</span> BKN004 05/05 Q0990",
      "tafHtml": "TAF EGKK 081704Z 0818/0924 10011KT 9999 SCT010 BKN020 \n  BECMG 0818/0820 19012KT \n  TEMPO 0818/0904 6000 <span class=\"hl\">RA</span> BKN010 \n  PROB40 \n  TEMPO 0818/0904 4000 +<span class=\"hl\">RA</span> RADZ BKN006 \n  PROB30 \n  TEMPO 0818/0819 12015G25KT \n  TEMPO 0819/0823 20016G27KT \n  BECMG 0823/0902 32016G26KT \n  TEMPO 0904/0912 6000 -RASN BKN008 \n  PROB30 \n  TEMPO 0904/0911 32019G36KT 2000 RASN BKN004 \n  TEMPO 0912/0921 6000 <span class=\"hl\">RA</span> <span class=\"hl\">SHRA</span> BKN008"
    },
    {
      "icao": "EGPF",
      "iata": "GLA",
      "name": "Glasgow Airport",
      "updatedAt": "081720Z",
      "visibility_m": 6000,
      "taf_visibility_m": 4000,
      "worst_visibility_m": 4000,
      "ceiling_ft": 800,
      "hazards": [
        "BR",
        "RA",
        "SHRA"
      ],
      "severityScore": 61,
      "metarRaw": "METAR EGPF 081720Z VRB02KT 6000 OVC008 01/00 Q0997",
      "tafRaw": "TAF EGPF 081659Z 0818/0918 VRB03KT 9999 SCT025 \n  TEMPO 0818/0821 4000 RADZ BR BKN009 \n  PROB30 0821/0911 4000 BR MIFG \n  TEMPO 0911/0918 6000 RA SHRA BKN009 \n  PROB30 \n  TEMPO 0911/0918 4000 -SHRASN BR BKN004",
      "metarHtml": "METAR EGPF 081720Z VRB02KT 6000 OVC008 01/00 Q0997",
      "tafHtml": "TAF EGPF 081659Z 0818/0918 VRB03KT 9999 SCT025 \n  TEMPO 0818/0821 4000 RADZ <span class=\"hl\">BR</span> BKN009 \n  PROB30 0821/0911 4000 <span class=\"hl\">BR</span> MIFG \n  TEMPO 0911/0918 6000 <span class=\"hl\">RA</span> <span class=\"hl\">SHRA</span> BKN009 \n  PROB30 \n  TEMPO 0911/0918 4000 -SHRASN <span class=\"hl\">BR</span> BKN004"
    },
    {
      "icao": "EDDH",
      "iata": "HAM",
      "name": "Hamburg Helmut Schmidt Airport",
      "updatedAt": "081720Z",
      "visibility_m": 6000,
      "taf_visibility_m": null,
      "worst_visibility_m": 6000,
      "ceiling_ft": 400,
      "hazards": [
        "SN"
      ],
      "severityScore": 58,
      "metarRaw": "METAR EDDH 081720Z AUTO 13007KT 6000 -SN BKN004 M00/M01 Q1005 BECMG BKN008",
      "tafRaw": null,
      "metarHtml": "METAR EDDH 081720Z AUTO 13007KT 6000 -<span class=\"hl\">SN</span> BKN004 M00/M01 Q1005 BECMG BKN008",
      "tafHtml": null
    },
    {
      "icao": "EHEH",
      "iata": "EIN",
      "name": "Eindhoven Airport",
      "updatedAt": "081725Z",
      "visibility_m": 2000,
      "taf_visibility_m": 2000,
      "worst_visibility_m": 2000,
      "ceiling_ft": 300,
      "hazards": [
        "BR",
        "RA"
      ],
      "severityScore": 57,
      "metarRaw": "METAR EHEH 081725Z AUTO 12005KT 2000 R21/P3000N -RADZ SCT002 BKN003 BKN007 02/02 Q1001 YLO TEMPO 2000 DZRA SCT002 BKN003 OVC005",
      "tafRaw": "TAF EHEH 081158Z 0812/0918 20007KT 6000 BKN006 \n  TEMPO 0817/0901 3000 BR -RADZ SCT003 BKN005 OVC010 \n  PROB40 \n  TEMPO 0821/0901 2000 RADZ \n  TEMPO 0901/0908 18012G22KT SCT025 \n  TEMPO 0905/0910 18015G27KT 3500 RA SCT005 BKN008 OVC015 \n  TEMPO 0910/0918 2500 SNRA SCT002 BKN004 OVC010",
      "metarHtml": "METAR EHEH 081725Z AUTO 12005KT 2000 R21/P3000N -RADZ SCT002 BKN003 BKN007 02/02 Q1001 YLO TEMPO 2000 DZRA SCT002 BKN003 OVC005",
      "tafHtml": "TAF EHEH 081158Z 0812/0918 20007KT 6000 BKN006 \n  TEMPO 0817/0901 3000 <span class=\"hl\">BR</span> -RADZ SCT003 BKN005 OVC010 \n  PROB40 \n  TEMPO 0821/0901 2000 RADZ \n  TEMPO 0901/0908 18012G22KT SCT025 \n  TEMPO 0905/0910 18015G27KT 3500 <span class=\"hl\">RA</span> SCT005 BKN008 OVC015 \n  TEMPO 0910/0918 2500 SNRA SCT002 BKN004 OVC010"
    },
    {
      "icao": "EGGP",
      "iata": "LPL",
      "name": "Liverpool John Lennon Airport",
      "updatedAt": "081720Z",
      "visibility_m": 10000,
      "taf_visibility_m": 1200,
      "worst_visibility_m": 1200,
      "ceiling_ft": 3700,
      "hazards": [
        "SN",
        "RA",
        "SHRA"
      ],
      "severityScore": 54,
      "metarRaw": "METAR EGGP 081720Z 08012G22KT 9999 VCSH SCT012 BKN037 03/01 Q0991",
      "tafRaw": "TAF EGGP 081700Z 0818/0918 06012KT 9999 FEW010 \n  TEMPO 0818/0819 6000 RA -RADZ BKN009 \n  PROB30 \n  TEMPO 0818/0819 4000 RADZ BKN004 \n  BECMG 0819/0822 36012KT \n  TEMPO 0819/0823 35016G28KT 4000 RADZ RASN BKN008 \n  PROB30 \n  TEMPO 0819/0823 1200 +RASN SN BKN002 \n  TEMPO 0823/0909 35016G28KT 6000 RA BKN012 \n  PROB30 \n  TEMPO 0823/0904 4000 RADZ BKN008 \n  PROB30 \n  TEMPO 0909/0918 7000 SHRA BKN012",
      "metarHtml": "METAR EGGP 081720Z 08012G22KT 9999 VCSH SCT012 BKN037 03/01 Q0991",
      "tafHtml": "TAF EGGP 081700Z 0818/0918 06012KT 9999 FEW010 \n  TEMPO 0818/0819 6000 <span class=\"hl\">RA</span> -RADZ BKN009 \n  PROB30 \n  TEMPO 0818/0819 4000 RADZ BKN004 \n  BECMG 0819/0822 36012KT \n  TEMPO 0819/0823 35016G28KT 4000 RADZ RASN BKN008 \n  PROB30 \n  TEMPO 0819/0823 1200 +RASN <span class=\"hl\">SN</span> BKN002 \n  TEMPO 0823/0909 35016G28KT 6000 <span class=\"hl\">RA</span> BKN012 \n  PROB30 \n  TEMPO 0823/0904 4000 RADZ BKN008 \n  PROB30 \n  TEMPO 0909/0918 7000 <span class=\"hl\">SHRA</span> BKN012"
    },
    {
      "icao": "EPMO",
      "iata": "WMI",
      "name": "Modlin Airport",
      "updatedAt": "081730Z",
      "visibility_m": 5000,
      "taf_visibility_m": 2000,
      "worst_visibility_m": 2000,
      "ceiling_ft": 900,
      "hazards": [
        "BR",
        "SN"
      ],
      "severityScore": 53,
      "metarRaw": "METAR EPMO 081730Z 34005KT 5000 BR OVC009 M08/M09 Q1010",
      "tafRaw": "TAF EPMO 081730Z 0818/0918 33006KT 5000 BR BKN008 \n  BECMG 0818/0820 3500 BR \n  TEMPO 0820/0910 2000 -SN BR BKN003 \n  BECMG 0909/0912 BKN010 \n  PROB40 \n  TEMPO 0910/0916 6000 SCT012 \n  TEMPO 0916/0918 2500 -SN BR BKN006",
      "metarHtml": "METAR EPMO 081730Z 34005KT 5000 <span class=\"hl\">BR</span> OVC009 M08/M09 Q1010",
      "tafHtml": "TAF EPMO 081730Z 0818/0918 33006KT 5000 <span class=\"hl\">BR</span> BKN008 \n  BECMG 0818/0820 3500 <span class=\"hl\">BR</span> \n  TEMPO 0820/0910 2000 -<span class=\"hl\">SN</span> <span class=\"hl\">BR</span> BKN003 \n  BECMG 0909/0912 BKN010 \n  PROB40 \n  TEMPO 0910/0916 6000 SCT012 \n  TEMPO 0916/0918 2500 -<span class=\"hl\">SN</span> <span class=\"hl\">BR</span> BKN006"
    },
    {
      "icao": "EPRA",
      "iata": "RDO",
      "name": "Warsaw Radom Airport",
      "updatedAt": "081730Z",
      "visibility_m": 6000,
      "taf_visibility_m": 3000,
      "worst_visibility_m": 3000,
      "ceiling_ft": 700,
      "hazards": [
        "BR",
        "SN"
      ],
      "severityScore": 53,
      "metarRaw": "METAR EPRA 081730Z 34012KT 6000 OVC007 M08/M10 Q1007",
      "tafRaw": "TAF EPRA 081730Z 0818/0903 33010KT 6000 OVC008 \n  PROB40 \n  TEMPO 0818/0822 3000 -SN BR BKN005 OVC010 \n  BECMG 0901/0903 OVC014",
      "metarHtml": "METAR EPRA 081730Z 34012KT 6000 OVC007 M08/M10 Q1007",
      "tafHtml": "TAF EPRA 081730Z 0818/0903 33010KT 6000 OVC008 \n  PROB40 \n  TEMPO 0818/0822 3000 -<span class=\"hl\">SN</span> <span class=\"hl\">BR</span> BKN005 OVC010 \n  BECMG 0901/0903 OVC014"
    },
    {
      "icao": "EPWA",
      "iata": "WAW",
      "name": "Warsaw Chopin Airport",
      "updatedAt": "081730Z",
      "visibility_m": 4500,
      "taf_visibility_m": 2500,
      "worst_visibility_m": 2500,
      "ceiling_ft": 800,
      "hazards": [
        "BR",
        "SN"
      ],
      "severityScore": 53,
      "metarRaw": "METAR EPWA 081730Z 32009KT 7000 OVC008 M08/M09 Q1009 BECMG 4500 BR",
      "tafRaw": "TAF EPWA 081730Z 0818/0918 33007KT 6000 BKN008 \n  BECMG 0818/0820 4000 BR \n  TEMPO 0818/0912 2500 -SN BR \n  PROB40 \n  TEMPO 0822/0909 BKN003 \n  BECMG 0909/0912 BKN010 \n  PROB40 \n  TEMPO 0910/0916 7000 SCT012 \n  TEMPO 0916/0918 3000 -SN BR BKN006",
      "metarHtml": "METAR EPWA 081730Z 32009KT 7000 OVC008 M08/M09 Q1009 BECMG 4500 <span class=\"hl\">BR</span>",
      "tafHtml": "TAF EPWA 081730Z 0818/0918 33007KT 6000 BKN008 \n  BECMG 0818/0820 4000 <span class=\"hl\">BR</span> \n  TEMPO 0818/0912 2500 -<span class=\"hl\">SN</span> <span class=\"hl\">BR</span> \n  PROB40 \n  TEMPO 0822/0909 BKN003 \n  BECMG 0909/0912 BKN010 \n  PROB40 \n  TEMPO 0910/0916 7000 SCT012 \n  TEMPO 0916/0918 3000 -<span class=\"hl\">SN</span> <span class=\"hl\">BR</span> BKN006"
    },
    {
      "icao": "LFOB",
      "iata": "BVA",
      "name": "Beauvais Tillé airport",
      "updatedAt": "081730Z",
      "visibility_m": 2000,
      "taf_visibility_m": null,
      "worst_visibility_m": 2000,
      "ceiling_ft": 300,
      "hazards": [
        "RA"
      ],
      "severityScore": 52,
      "metarRaw": "METAR LFOB 081730Z AUTO 18010KT 9999 -RA OVC006 07/07 Q0997 TEMPO 2000 RA BKN003",
      "tafRaw": null,
      "metarHtml": "METAR LFOB 081730Z AUTO 18010KT 9999 -<span class=\"hl\">RA</span> OVC006 07/07 Q0997 TEMPO 2000 <span class=\"hl\">RA</span> BKN003",
      "tafHtml": null
    },
    {
      "icao": "LTAC",
      "iata": "ESB",
      "name": "Esenboğa International Airport",
      "updatedAt": "081720Z",
      "visibility_m": 6000,
      "taf_visibility_m": 2500,
      "worst_visibility_m": 2500,
      "ceiling_ft": 3000,
      "hazards": [
        "SHRA",
        "BR",
        "SN",
        "SHSN"
      ],
      "severityScore": 52,
      "metarRaw": "METAR LTAC 081720Z 27012KT 6000 -SHRA FEW015 BKN030 BKN080 05/03 Q1004 NOSIG RMK RWY21C 26013KT RWY03L 26010KT RWY21R 25013KT RWY03R 25013KT 210V270 RWY21L 26011KT",
      "tafRaw": "TAF LTAC 081640Z 0818/0918 25015KT 6000 BKN030 BKN080 \n  TEMPO 0818/0822 4000 -SHRA BR \n  TEMPO 0822/0902 4000 -RASN BR \n  TEMPO 0903/0907 2500 -SN BR \n  TEMPO 0913/0917 25015G25KT 2500 -SHSN BR",
      "metarHtml": "METAR LTAC 081720Z 27012KT 6000 -<span class=\"hl\">SHRA</span> FEW015 BKN030 BKN080 05/03 Q1004 NOSIG RMK RWY21C 26013KT RWY03L 26010KT RWY21R 25013KT RWY03R 25013KT 210V270 RWY21L 26011KT",
      "tafHtml": "TAF LTAC 081640Z 0818/0918 25015KT 6000 BKN030 BKN080 \n  TEMPO 0818/0822 4000 -<span class=\"hl\">SHRA</span> <span class=\"hl\">BR</span> \n  TEMPO 0822/0902 4000 -RASN <span class=\"hl\">BR</span> \n  TEMPO 0903/0907 2500 -<span class=\"hl\">SN</span> <span class=\"hl\">BR</span> \n  TEMPO 0913/0917 25015G25KT 2500 -<span class=\"hl\">SHSN</span> <span class=\"hl\">BR</span>"
    },
    {
      "icao": "LFBD",
      "iata": "BOD",
      "name": "Bordeaux–Mérignac Airport",
      "updatedAt": "081730Z",
      "visibility_m": 4000,
      "taf_visibility_m": 2000,
      "worst_visibility_m": 2000,
      "ceiling_ft": 1000,
      "hazards": [
        "SHRA",
        "TSRA"
      ],
      "severityScore": 51,
      "metarRaw": "METAR LFBD 081730Z AUTO 22012KT 9999 FEW031 BKN041 OVC056 12/09 Q1013 TEMPO 27020G35KT 4000 SHRA BKN010 BKN015TCU",
      "tafRaw": "TAF LFBD 081700Z 0818/0924 23010KT 9999 BKN025 TX11/0914Z TN09/0906Z \n  BECMG 0818/0820 24015G25KT BKN040 \n  TEMPO 0818/0824 27020G35KT 4000 SHRA BKN010 BKN015TCU \n  TEMPO 0903/0908 28030G55KT \n  PROB30 \n  TEMPO 0900/0912 2000 TSRA BKN015CB \n  TEMPO 0912/0924 29020G30KT 4000 SHRA BKN010 BKN015TCU",
      "metarHtml": "METAR LFBD 081730Z AUTO 22012KT 9999 FEW031 BKN041 OVC056 12/09 Q1013 TEMPO 27020G35KT 4000 <span class=\"hl\">SHRA</span> BKN010 BKN015TCU",
      "tafHtml": "TAF LFBD 081700Z 0818/0924 23010KT 9999 BKN025 TX11/0914Z TN09/0906Z \n  BECMG 0818/0820 24015G25KT BKN040 \n  TEMPO 0818/0824 27020G35KT 4000 <span class=\"hl\">SHRA</span> BKN010 BKN015TCU \n  TEMPO 0903/0908 28030G55KT \n  PROB30 \n  TEMPO 0900/0912 2000 <span class=\"hl\">TSRA</span> BKN015CB \n  TEMPO 0912/0924 29020G30KT 4000 <span class=\"hl\">SHRA</span> BKN010 BKN015TCU"
    },
    {
      "icao": "LIRP",
      "iata": "PSA",
      "name": "Pisa International Airport",
      "updatedAt": "081715Z",
      "visibility_m": 10000,
      "taf_visibility_m": 800,
      "worst_visibility_m": 800,
      "ceiling_ft": 3000,
      "hazards": [
        "BR",
        "RA"
      ],
      "severityScore": 47,
      "metarRaw": "METAR LIRP 081715Z 09007KT 9999 SCT015 BKN030 06/03 Q1013 NOSIG",
      "tafRaw": "TAF LIRP 081700Z 0818/0918 11010KT 9999 SCT030 BKN040 \n  PROB40 \n  TEMPO 0821/0905 3000 BR SCT015 BKN030 \n  PROB30 \n  TEMPO 0900/0904 0800 \n  BECMG 0906/0908 27015KT RA \n  BECMG 0911/0913 27015G25KT NSW",
      "metarHtml": "METAR LIRP 081715Z 09007KT 9999 SCT015 BKN030 06/03 Q1013 NOSIG",
      "tafHtml": "TAF LIRP 081700Z 0818/0918 11010KT 9999 SCT030 BKN040 \n  PROB40 \n  TEMPO 0821/0905 3000 <span class=\"hl\">BR</span> SCT015 BKN030 \n  PROB30 \n  TEMPO 0900/0904 <span class=\"hl-vis\">0800</span> \n  BECMG 0906/0908 27015KT <span class=\"hl\">RA</span> \n  BECMG 0911/0913 27015G25KT NSW"
    },
    {
      "icao": "EDDK",
      "iata": "CGN",
      "name": "Cologne Bonn Airport",
      "updatedAt": "081720Z",
      "visibility_m": 10000,
      "taf_visibility_m": 2500,
      "worst_visibility_m": 2500,
      "ceiling_ft": 1700,
      "hazards": [
        "SN",
        "RA"
      ],
      "severityScore": 42,
      "metarRaw": "METAR EDDK 081720Z AUTO 14011KT 9999 VCSH BKN017 FEW///TCU 02/00 Q1003 NOSIG",
      "tafRaw": "TAF EDDK 081700Z 0818/0924 13011KT 9999 BKN020 \n  TEMPO 0819/0902 RA BKN012 \n  PROB30 \n  TEMPO 0819/0821 4000 RASN \n  TEMPO 0900/0904 13015G25KT \n  BECMG 0904/0906 19015G25KT \n  TEMPO 0907/0915 19020G30KT RA \n  BECMG 0915/0918 26010KT \n  TEMPO 0915/0924 4000 RASN BKN008 \n  PROB30 \n  TEMPO 0921/0924 2500 SN",
      "metarHtml": "METAR EDDK 081720Z AUTO 14011KT 9999 VCSH BKN017 FEW///TCU 02/00 Q1003 NOSIG",
      "tafHtml": "TAF EDDK 081700Z 0818/0924 13011KT 9999 BKN020 \n  TEMPO 0819/0902 <span class=\"hl\">RA</span> BKN012 \n  PROB30 \n  TEMPO 0819/0821 4000 RASN \n  TEMPO 0900/0904 13015G25KT \n  BECMG 0904/0906 19015G25KT \n  TEMPO 0907/0915 19020G30KT <span class=\"hl\">RA</span> \n  BECMG 0915/0918 26010KT \n  TEMPO 0915/0924 4000 RASN BKN008 \n  PROB30 \n  TEMPO 0921/0924 2500 <span class=\"hl\">SN</span>"
    },
    {
      "icao": "ENTO",
      "iata": "TRF",
      "name": "Sandefjord Airport, Torp",
      "updatedAt": "081720Z",
      "visibility_m": 10000,
      "taf_visibility_m": 1200,
      "worst_visibility_m": 1200,
      "ceiling_ft": 1400,
      "hazards": [
        "SN"
      ],
      "severityScore": 40,
      "metarRaw": "METAR ENTO 081720Z 01005KT 9999 BKN030 M11/M14 Q1009 BECMG BKN014",
      "tafRaw": "TAF ENTO 081700Z 0818/0918 35010KT 9999 BKN015 \n  BECMG 0818/0820 BKN010 \n  TEMPO 0820/0901 1200 SN VV006 \n  BECMG 0902/0904 10008KT BKN020 \n  BECMG 0913/0915 03012KT",
      "metarHtml": "METAR ENTO 081720Z 01005KT 9999 BKN030 M11/M14 Q1009 BECMG BKN014",
      "tafHtml": "TAF ENTO 081700Z 0818/0918 35010KT 9999 BKN015 \n  BECMG 0818/0820 BKN010 \n  TEMPO 0820/0901 1200 <span class=\"hl\">SN</span> VV006 \n  BECMG 0902/0904 10008KT BKN020 \n  BECMG 0913/0915 03012KT"
    },
    {
      "icao": "EPRZ",
      "iata": "RZE",
      "name": "Rzeszów-Jasionka Airport",
      "updatedAt": "081730Z",
      "visibility_m": 3000,
      "taf_visibility_m": 2000,
      "worst_visibility_m": 2000,
      "ceiling_ft": 1300,
      "hazards": [
        "BR",
        "SN"
      ],
      "severityScore": 40,
      "metarRaw": "METAR EPRZ 081730Z 31007KT 3000 -SN BR OVC013 M05/M07 Q1006",
      "tafRaw": "TAF EPRZ 081730Z 0818/0918 31012KT 3000 -SN BR FEW010 BKN015 \n  TEMPO 0818/0906 30015G25KT 2000 SN DRSN BKN007 BKN012 \n  BECMG 0821/0824 7000",
      "metarHtml": "METAR EPRZ 081730Z 31007KT 3000 -<span class=\"hl\">SN</span> <span class=\"hl\">BR</span> OVC013 M05/M07 Q1006",
      "tafHtml": "TAF EPRZ 081730Z 0818/0918 31012KT 3000 -<span class=\"hl\">SN</span> <span class=\"hl\">BR</span> FEW010 BKN015 \n  TEMPO 0818/0906 30015G25KT 2000 <span class=\"hl\">SN</span> DRSN BKN007 BKN012 \n  BECMG 0821/0824 7000"
    },
    {
      "icao": "LRIA",
      "iata": "IAS",
      "name": "Iaşi Airport",
      "updatedAt": "081730Z",
      "visibility_m": 5000,
      "taf_visibility_m": 3000,
      "worst_visibility_m": 3000,
      "ceiling_ft": 1200,
      "hazards": [
        "SN",
        "BR"
      ],
      "severityScore": 40,
      "metarRaw": "METAR LRIA 081730Z 30015KT 5000 -SN BKN012 OVC038 M03/M05 Q0997",
      "tafRaw": "TAF LRIA 081700Z 0818/0903 30017KT 9999 OVC040 \n  TEMPO 0818/0822 30018G28KT 3000 -SN BR BKN015 OVC040",
      "metarHtml": "METAR LRIA 081730Z 30015KT 5000 -<span class=\"hl\">SN</span> BKN012 OVC038 M03/M05 Q0997",
      "tafHtml": "TAF LRIA 081700Z 0818/0903 30017KT 9999 OVC040 \n  TEMPO 0818/0822 30018G28KT 3000 -<span class=\"hl\">SN</span> <span class=\"hl\">BR</span> BKN015 OVC040"
    },
    {
      "icao": "LRBV",
      "iata": "GHV",
      "name": "Brașov-Ghimbav International Airport",
      "updatedAt": "081730Z",
      "visibility_m": 8000,
      "taf_visibility_m": 5000,
      "worst_visibility_m": 5000,
      "ceiling_ft": 1100,
      "hazards": [
        "SN",
        "BR"
      ],
      "severityScore": 40,
      "metarRaw": "METAR LRBV 081730Z 29016G27KT 260V320 8000 -SN FEW007 BKN011 OVC014 M05/M08 Q1001",
      "tafRaw": "TAF LRBV 081700Z 0818/0903 30012KT 9999 BKN015 BKN025 \n  TEMPO 0818/0820 5000 -SN BR BKN010 BKN020",
      "metarHtml": "METAR LRBV 081730Z 29016G27KT 260V320 8000 -<span class=\"hl\">SN</span> FEW007 BKN011 OVC014 M05/M08 Q1001",
      "tafHtml": "TAF LRBV 081700Z 0818/0903 30012KT 9999 BKN015 BKN025 \n  TEMPO 0818/0820 5000 -<span class=\"hl\">SN</span> <span class=\"hl\">BR</span> BKN010 BKN020"
    },
    {
      "icao": "LUKK",
      "iata": "RMO",
      "name": "Chişinău International Airport",
      "updatedAt": "081730Z",
      "visibility_m": 5000,
      "taf_visibility_m": 4000,
      "worst_visibility_m": 4000,
      "ceiling_ft": 2200,
      "hazards": [
        "SN",
        "BLSN"
      ],
      "severityScore": 40,
      "metarRaw": "METAR LUKK 081730Z 32016KT 300V360 9999 -SN DRSN BKN022 M03/M05 Q0995 TEMPO 31018G28KT 5000 -SN BLSN",
      "tafRaw": "TAF LUKK 081719Z 0818/0918 30016KT 9999 SCT010 BKN015 \n  TEMPO 0818/0820 31018G30KT 4000 -SN BLSN BKN010 \n  TEMPO 0820/0906 31018G28KT 5000 BLSN \n  BECMG 0910/0912 27009KT BKN030",
      "metarHtml": "METAR LUKK 081730Z 32016KT 300V360 9999 -<span class=\"hl\">SN</span> DRSN BKN022 M03/M05 Q0995 TEMPO 31018G28KT 5000 -<span class=\"hl\">SN</span> <span class=\"hl\">BLSN</span>",
      "tafHtml": "TAF LUKK 081719Z 0818/0918 30016KT 9999 SCT010 BKN015 \n  TEMPO 0818/0820 31018G30KT 4000 -<span class=\"hl\">SN</span> <span class=\"hl\">BLSN</span> BKN010 \n  TEMPO 0820/0906 31018G28KT 5000 <span class=\"hl\">BLSN</span> \n  BECMG 0910/0912 27009KT BKN030"
    },
    {
      "icao": "LCLK",
      "iata": "LCA",
      "name": "Larnaca International Airport",
      "updatedAt": "081730Z",
      "visibility_m": 10000,
      "taf_visibility_m": 2000,
      "worst_visibility_m": 2000,
      "ceiling_ft": null,
      "hazards": [
        "TSRA",
        "SHRA"
      ],
      "severityScore": 39,
      "metarRaw": "METAR LCLK 081730Z 24005KT CAVOK 19/17 Q1012 NOSIG",
      "tafRaw": "TAF LCLK 081730Z 0818/0918 22009KT 9999 FEW025 \n  TEMPO 0820/0906 23019KT \n  PROB30 \n  TEMPO 0820/0902 VRB20G30KT 4000 SHRA SCT020TCU \n  PROB30 \n  TEMPO 0909/0913 4000 SHRA SCT020TCU \n  PROB30 \n  TEMPO 0909/0913 29030G40KT 2000 TSRA SCT020CB \n  BECMG 0909/0912 29025G35KT",
      "metarHtml": "METAR LCLK 081730Z 24005KT <span class=\"hl-vis\">CAVOK</span> 19/17 Q1012 NOSIG",
      "tafHtml": "TAF LCLK 081730Z 0818/0918 22009KT 9999 FEW025 \n  TEMPO 0820/0906 23019KT \n  PROB30 \n  TEMPO 0820/0902 VRB20G30KT 4000 <span class=\"hl\">SHRA</span> SCT020TCU \n  PROB30 \n  TEMPO 0909/0913 4000 <span class=\"hl\">SHRA</span> SCT020TCU \n  PROB30 \n  TEMPO 0909/0913 29030G40KT 2000 <span class=\"hl\">TSRA</span> SCT020CB \n  BECMG 0909/0912 29025G35KT"
    },
    {
      "icao": "LCPH",
      "iata": "PFO",
      "name": "Paphos International Airport",
      "updatedAt": "081730Z",
      "visibility_m": 10000,
      "taf_visibility_m": 2000,
      "worst_visibility_m": 2000,
      "ceiling_ft": 3500,
      "hazards": [
        "TSRA",
        "SHRA"
      ],
      "severityScore": 39,
      "metarRaw": "METAR LCPH 081730Z 00000KT 9999 SCT020 BKN035 17/14 Q1012 NOSIG",
      "tafRaw": "TAF LCPH 081730Z 0818/0918 09007KT 9999 SCT020 BKN035 \n  PROB40 \n  TEMPO 0818/0914 30025G35KT 4000 SHRA SCT020TCU \n  BECMG 0818/0821 29025KT \n  PROB30 \n  TEMPO 0905/0914 2000 TSRA SCT020CB \n  BECMG 0907/0910 30032G42KT",
      "metarHtml": "METAR LCPH 081730Z 00000KT 9999 SCT020 BKN035 17/14 Q1012 NOSIG",
      "tafHtml": "TAF LCPH 081730Z 0818/0918 09007KT 9999 SCT020 BKN035 \n  PROB40 \n  TEMPO 0818/0914 30025G35KT 4000 <span class=\"hl\">SHRA</span> SCT020TCU \n  BECMG 0818/0821 29025KT \n  PROB30 \n  TEMPO 0905/0914 2000 <span class=\"hl\">TSRA</span> SCT020CB \n  BECMG 0907/0910 30032G42KT"
    },
    {
      "icao": "LFSB",
      "iata": "BSL",
      "name": "EuroAirport Basel–Mulhouse–Freiburg",
      "updatedAt": "081730Z",
      "visibility_m": 5000,
      "taf_visibility_m": null,
      "worst_visibility_m": 5000,
      "ceiling_ft": 1400,
      "hazards": [
        "BR",
        "RA"
      ],
      "severityScore": 39,
      "metarRaw": "METAR LFSB 081730Z AUTO 17004KT 150V210 5000 RA BR BKN024/// OVC032/// ///CB 02/02 Q1007 TEMPO BKN014",
      "tafRaw": null,
      "metarHtml": "METAR LFSB 081730Z AUTO 17004KT 150V210 5000 <span class=\"hl\">RA</span> <span class=\"hl\">BR</span> BKN024/// OVC032/// ///CB 02/02 Q1007 TEMPO BKN014",
      "tafHtml": null
    },
    {
      "icao": "ENAL",
      "iata": "AES",
      "name": "Ålesund Airport, Vigra",
      "updatedAt": "081720Z",
      "visibility_m": 10000,
      "taf_visibility_m": 1200,
      "worst_visibility_m": 1200,
      "ceiling_ft": 2100,
      "hazards": [
        "SN",
        "SHSN"
      ],
      "severityScore": 38,
      "metarRaw": "METAR ENAL 081720Z 20008KT 9999 -SN FEW006 SCT015 BKN021 M02/M04 Q1004",
      "tafRaw": "TAF ENAL 081700Z 0818/0903 20010KT 9999 -SN SCT010 BKN020 \n  TEMPO 0818/0821 21018G28KT 1200 SHSN BKN007 SCT015CB",
      "metarHtml": "METAR ENAL 081720Z 20008KT 9999 -<span class=\"hl\">SN</span> FEW006 SCT015 BKN021 M02/M04 Q1004",
      "tafHtml": "TAF ENAL 081700Z 0818/0903 20010KT 9999 -<span class=\"hl\">SN</span> SCT010 BKN020 \n  TEMPO 0818/0821 21018G28KT 1200 <span class=\"hl\">SHSN</span> BKN007 SCT015CB"
    },
    {
      "icao": "ENGM",
      "iata": "OSL",
      "name": "Oslo-Gardermoen International Airport",
      "updatedAt": "081720Z",
      "visibility_m": 10000,
      "taf_visibility_m": 1200,
      "worst_visibility_m": 1200,
      "ceiling_ft": null,
      "hazards": [
        "SHSN",
        "SN"
      ],
      "severityScore": 38,
      "metarRaw": "METAR ENGM 081720Z 36004KT 9999 -SHSN FEW003 M16/M17 Q1009 NOSIG",
      "tafRaw": "TAF ENGM 081700Z 0818/0918 36003KT 9999 FEW003 \n  BECMG 0821/0823 BKN012 \n  TEMPO 0822/0902 1200 SN VV008 \n  TEMPO 0903/0910 BKN020 \n  BECMG 0910/0912 BKN020",
      "metarHtml": "METAR ENGM 081720Z 36004KT 9999 -<span class=\"hl\">SHSN</span> FEW003 M16/M17 Q1009 NOSIG",
      "tafHtml": "TAF ENGM 081700Z 0818/0918 36003KT 9999 FEW003 \n  BECMG 0821/0823 BKN012 \n  TEMPO 0822/0902 1200 <span class=\"hl\">SN</span> VV008 \n  TEMPO 0903/0910 BKN020 \n  BECMG 0910/0912 BKN020"
    },
    {
      "icao": "EPKK",
      "iata": "KRK",
      "name": "Kraków John Paul II International Airport",
      "updatedAt": "081730Z",
      "visibility_m": 10000,
      "taf_visibility_m": 1200,
      "worst_visibility_m": 1200,
      "ceiling_ft": 4600,
      "hazards": [
        "BR",
        "SN"
      ],
      "severityScore": 38,
      "metarRaw": "METAR EPKK 081730Z 27007KT 9999 SCT013 BKN046 M05/M08 Q1009",
      "tafRaw": "TAF EPKK 081730Z 0818/0918 27010KT 9999 BKN020 \n  TEMPO 0818/0906 4000 -SN BR BKN012 \n  BECMG 0902/0904 VRB02KT \n  PROB30 0904/0908 1200 BR \n  BECMG 0912/0915 07010KT",
      "metarHtml": "METAR EPKK 081730Z 27007KT 9999 SCT013 BKN046 M05/M08 Q1009",
      "tafHtml": "TAF EPKK 081730Z 0818/0918 27010KT 9999 BKN020 \n  TEMPO 0818/0906 4000 -<span class=\"hl\">SN</span> <span class=\"hl\">BR</span> BKN012 \n  BECMG 0902/0904 VRB02KT \n  PROB30 0904/0908 1200 <span class=\"hl\">BR</span> \n  BECMG 0912/0915 07010KT"
    },
    {
      "icao": "LRCL",
      "iata": "CLJ",
      "name": "Cluj Avram Iancu International Airport",
      "updatedAt": "081730Z",
      "visibility_m": 5000,
      "taf_visibility_m": 1500,
      "worst_visibility_m": 1500,
      "ceiling_ft": 3700,
      "hazards": [
        "BR",
        "SN"
      ],
      "severityScore": 38,
      "metarRaw": "METAR LRCL 081730Z 28014KT 5000 -SN BR BKN037 OVC060 M05/M08 Q1005",
      "tafRaw": "TAF LRCL 081700Z 0818/0903 30012KT 5000 -SN BR BKN015 BKN035 \n  TEMPO 0818/0823 1500 SN BKN005 OVC030",
      "metarHtml": "METAR LRCL 081730Z 28014KT 5000 -<span class=\"hl\">SN</span> <span class=\"hl\">BR</span> BKN037 OVC060 M05/M08 Q1005",
      "tafHtml": "TAF LRCL 081700Z 0818/0903 30012KT 5000 -<span class=\"hl\">SN</span> <span class=\"hl\">BR</span> BKN015 BKN035 \n  TEMPO 0818/0823 1500 <span class=\"hl\">SN</span> BKN005 OVC030"
    },
    {
      "icao": "LRSM",
      "iata": "SUJ",
      "name": "Satu Mare International Airport",
      "updatedAt": "081730Z",
      "visibility_m": 5000,
      "taf_visibility_m": 1500,
      "worst_visibility_m": 1500,
      "ceiling_ft": null,
      "hazards": [
        "SN",
        "BR"
      ],
      "severityScore": 38,
      "metarRaw": "METAR LRSM 081730Z AUTO 27017KT 5000 -SN FEW023/// OVC030/// M06/M08 Q1006",
      "tafRaw": "TAF LRSM 081400Z 0815/0824 26012KT 1500 -SN BR BKN010 OVC025 \n  BECMG 0815/0817 5000 BKN015 BKN035 \n  BECMG 0818/0820 9999 NSW BKN025",
      "metarHtml": "METAR LRSM 081730Z AUTO 27017KT 5000 -<span class=\"hl\">SN</span> FEW023/// OVC030/// M06/M08 Q1006",
      "tafHtml": "TAF LRSM 081400Z 0815/0824 26012KT 1500 -<span class=\"hl\">SN</span> <span class=\"hl\">BR</span> BKN010 OVC025 \n  BECMG 0815/0817 5000 BKN015 BKN035 \n  BECMG 0818/0820 9999 NSW BKN025"
    },
    {
      "icao": "LRTR",
      "iata": "TSR",
      "name": "Timişoara Traian Vuia Airport",
      "updatedAt": "081730Z",
      "visibility_m": 10000,
      "taf_visibility_m": 1500,
      "worst_visibility_m": 1500,
      "ceiling_ft": 3400,
      "hazards": [
        "BR",
        "SN"
      ],
      "severityScore": 38,
      "metarRaw": "METAR LRTR 081730Z 26008KT 9999 OVC034 M06/M09 Q1011",
      "tafRaw": "TAF LRTR 081700Z 0818/0918 27010KT 9999 BKN030 \n  BECMG 0820/0822 VRB04KT \n  TEMPO 0823/0905 3000 BR BKN005 \n  BECMG 0910/0912 11010KT \n  BECMG 0913/0915 5000 -SN BR \n  TEMPO 0916/0918 1500 SN BR BKN010 OVC020",
      "metarHtml": "METAR LRTR 081730Z 26008KT 9999 OVC034 M06/M09 Q1011",
      "tafHtml": "TAF LRTR 081700Z 0818/0918 27010KT 9999 BKN030 \n  BECMG 0820/0822 VRB04KT \n  TEMPO 0823/0905 3000 <span class=\"hl\">BR</span> BKN005 \n  BECMG 0910/0912 11010KT \n  BECMG 0913/0915 5000 -<span class=\"hl\">SN</span> <span class=\"hl\">BR</span> \n  TEMPO 0916/0918 1500 <span class=\"hl\">SN</span> <span class=\"hl\">BR</span> BKN010 OVC020"
    },
    {
      "icao": "LLBG",
      "iata": "TLV",
      "name": "Ben Gurion International Airport",
      "updatedAt": "081720Z",
      "visibility_m": 10000,
      "taf_visibility_m": 5000,
      "worst_visibility_m": 5000,
      "ceiling_ft": null,
      "hazards": [
        "TSRA",
        "RA"
      ],
      "severityScore": 37,
      "metarRaw": "METAR LLBG 081720Z 12004KT CAVOK 19/10 Q1015 NOSIG",
      "tafRaw": "TAF LLBG 081720Z 0818/0918 16006KT CAVOK \n  BECMG 0900/0902 22010KT 9999 SCT030 \n  TEMPO 0902/0907 27018G28KT 5000 TSRA FEW020CB BKN025 \n  FM090700 27020G30KT 9999 SCT030 \n  TEMPO 0907/0915 27025G40KT 5000 TSRA FEW020CB BKN025 \n  PROB40 \n  TEMPO 0915/0918 29022G35KT 7000 RA FEW020TCU BKN025 TX18/0911Z TN14/0903Z",
      "metarHtml": "METAR LLBG 081720Z 12004KT <span class=\"hl-vis\">CAVOK</span> 19/10 Q1015 NOSIG",
      "tafHtml": "TAF LLBG 081720Z 0818/0918 16006KT <span class=\"hl-vis\">CAVOK</span> \n  BECMG 0900/0902 22010KT 9999 SCT030 \n  TEMPO 0902/0907 27018G28KT 5000 <span class=\"hl\">TSRA</span> FEW020CB BKN025 \n  FM090700 27020G30KT 9999 SCT030 \n  TEMPO 0907/0915 27025G40KT 5000 <span class=\"hl\">TSRA</span> FEW020CB BKN025 \n  PROB40 \n  TEMPO 0915/0918 29022G35KT 7000 <span class=\"hl\">RA</span> FEW020TCU BKN025 TX18/0911Z TN14/0903Z"
    },
    {
      "icao": "EDDS",
      "iata": "STR",
      "name": "Stuttgart Airport",
      "updatedAt": "081720Z",
      "visibility_m": 8000,
      "taf_visibility_m": 3000,
      "worst_visibility_m": 3000,
      "ceiling_ft": 2200,
      "hazards": [
        "BR",
        "RA",
        "SHRA"
      ],
      "severityScore": 36,
      "metarRaw": "METAR EDDS 081720Z AUTO 09002KT 8000 FEW017 BKN022 OVC027 00/M00 Q1005 NOSIG",
      "tafRaw": "TAF EDDS 081700Z 0818/0918 15004KT 9999 BKN015 \n  TEMPO 0818/0902 3000 RA BR BKN010 \n  BECMG 0900/0902 20010KT \n  BECMG 0902/0904 20015G25KT \n  TEMPO 0902/0918 20020G35KT \n  PROB40 \n  TEMPO 0902/0907 SHRA BKN015CB \n  PROB40 \n  TEMPO 0913/0918 20025G40KT SHRA BKN015CB",
      "metarHtml": "METAR EDDS 081720Z AUTO 09002KT 8000 FEW017 BKN022 OVC027 00/M00 Q1005 NOSIG",
      "tafHtml": "TAF EDDS 081700Z 0818/0918 15004KT 9999 BKN015 \n  TEMPO 0818/0902 3000 <span class=\"hl\">RA</span> <span class=\"hl\">BR</span> BKN010 \n  BECMG 0900/0902 20010KT \n  BECMG 0902/0904 20015G25KT \n  TEMPO 0902/0918 20020G35KT \n  PROB40 \n  TEMPO 0902/0907 <span class=\"hl\">SHRA</span> BKN015CB \n  PROB40 \n  TEMPO 0913/0918 20025G40KT <span class=\"hl\">SHRA</span> BKN015CB"
    },
    {
      "icao": "LEBB",
      "iata": "BIO",
      "name": "Bilbao Airport",
      "updatedAt": "081730Z",
      "visibility_m": 10000,
      "taf_visibility_m": 1500,
      "worst_visibility_m": 1500,
      "ceiling_ft": null,
      "hazards": [
        "RA",
        "SHRA"
      ],
      "severityScore": 36,
      "metarRaw": "METAR LEBB 081730Z 21015G27KT 150V260 CAVOK 15/06 Q1016 NOSIG",
      "tafRaw": "TAF LEBB 081700Z 0818/0918 22009KT 9999 FEW020 SCT035 TX13/0821Z TN06/0905Z \n  TEMPO 0818/0823 21024G38KT \n  TEMPO 0821/0902 3000 RA BKN010 \n  BECMG 0909/0911 29012KT \n  TEMPO 0910/0918 30018G32KT 3000 RA BKN010 \n  PROB30 \n  TEMPO 0915/0918 1500 SHRA SCT020TCU",
      "metarHtml": "METAR LEBB 081730Z 21015G27KT 150V260 <span class=\"hl-vis\">CAVOK</span> 15/06 Q1016 NOSIG",
      "tafHtml": "TAF LEBB 081700Z 0818/0918 22009KT 9999 FEW020 SCT035 TX13/0821Z TN06/0905Z \n  TEMPO 0818/0823 21024G38KT \n  TEMPO 0821/0902 3000 <span class=\"hl\">RA</span> BKN010 \n  BECMG 0909/0911 29012KT \n  TEMPO 0910/0918 30018G32KT 3000 <span class=\"hl\">RA</span> BKN010 \n  PROB30 \n  TEMPO 0915/0918 1500 <span class=\"hl\">SHRA</span> SCT020TCU"
    },
    {
      "icao": "EPSC",
      "iata": "SZZ",
      "name": "Solidarity Szczecin–Goleniów Airport",
      "updatedAt": "081730Z",
      "visibility_m": 6000,
      "taf_visibility_m": 4000,
      "worst_visibility_m": 4000,
      "ceiling_ft": 500,
      "hazards": [
        "BR"
      ],
      "severityScore": 35,
      "metarRaw": "METAR EPSC 081730Z 10008KT 6000 BKN005 M09/M10 Q1011",
      "tafRaw": "TAF EPSC 081730Z 0818/0918 11010KT 7000 NSC \n  PROB40 0818/0908 4000 BR BKN005",
      "metarHtml": "METAR EPSC 081730Z 10008KT 6000 BKN005 M09/M10 Q1011",
      "tafHtml": "TAF EPSC 081730Z 0818/0918 11010KT 7000 NSC \n  PROB40 0818/0908 4000 <span class=\"hl\">BR</span> BKN005"
    },
    {
      "icao": "EPSY",
      "iata": "SZY",
      "name": "Olsztyn-Mazury Airport",
      "updatedAt": "081730Z",
      "visibility_m": 6000,
      "taf_visibility_m": 4000,
      "worst_visibility_m": 4000,
      "ceiling_ft": 700,
      "hazards": [
        "BR"
      ],
      "severityScore": 35,
      "metarRaw": "METAR EPSY 081730Z 01006KT 6000 OVC007 M09/M09 Q1010",
      "tafRaw": "TAF EPSY 081730Z 0818/0903 02008KT 8000 OVC006 \n  TEMPO 0818/0822 4000 BR BKN011",
      "metarHtml": "METAR EPSY 081730Z 01006KT 6000 OVC007 M09/M09 Q1010",
      "tafHtml": "TAF EPSY 081730Z 0818/0903 02008KT 8000 OVC006 \n  TEMPO 0818/0822 4000 <span class=\"hl\">BR</span> BKN011"
    },
    {
      "icao": "EYPA",
      "iata": "PLQ",
      "name": "Palanga International Airport",
      "updatedAt": "081720Z",
      "visibility_m": 10000,
      "taf_visibility_m": 5000,
      "worst_visibility_m": 5000,
      "ceiling_ft": 600,
      "hazards": [
        "BR"
      ],
      "severityScore": 35,
      "metarRaw": "METAR EYPA 081720Z 08009KT 9999 OVC006 M11/M12 Q1015",
      "tafRaw": "TAF EYPA 081725Z 0818/0918 07010KT 9000 BKN005 \n  TEMPO 0818/0908 5000 BR BKN002 \n  BECMG 0908/0909 SCT015 \n  TEMPO 0909/0914 06015G25KT BKN015",
      "metarHtml": "METAR EYPA 081720Z 08009KT 9999 OVC006 M11/M12 Q1015",
      "tafHtml": "TAF EYPA 081725Z 0818/0918 07010KT 9000 BKN005 \n  TEMPO 0818/0908 5000 <span class=\"hl\">BR</span> BKN002 \n  BECMG 0908/0909 SCT015 \n  TEMPO 0909/0914 06015G25KT BKN015"
    },
    {
      "icao": "LYBE",
      "iata": "BEG",
      "name": "Belgrade Nikola Tesla Airport",
      "updatedAt": "081730Z",
      "visibility_m": 10000,
      "taf_visibility_m": 5000,
      "worst_visibility_m": 5000,
      "ceiling_ft": null,
      "hazards": [
        "FZRA"
      ],
      "severityScore": 35,
      "metarRaw": "METAR LYBE 081730Z 28009KT CAVOK M07/M09 Q1012 NOSIG",
      "tafRaw": "TAF LYBE 081700Z 0818/0918 24006KT CAVOK TX01/0914Z TNM12/0904Z \n  TEMPO 0915/0918 5000 -FZRA",
      "metarHtml": "METAR LYBE 081730Z 28009KT <span class=\"hl-vis\">CAVOK</span> M07/M09 Q1012 NOSIG",
      "tafHtml": "TAF LYBE 081700Z 0818/0918 24006KT <span class=\"hl-vis\">CAVOK</span> TX01/0914Z TNM12/0904Z \n  TEMPO 0915/0918 5000 -<span class=\"hl\">FZRA</span>"
    },
    {
      "icao": "LYNI",
      "iata": "INI",
      "name": "Niš Constantine the Great Airport",
      "updatedAt": "081730Z",
      "visibility_m": 10000,
      "taf_visibility_m": 5000,
      "worst_visibility_m": 5000,
      "ceiling_ft": null,
      "hazards": [
        "FZRA"
      ],
      "severityScore": 35,
      "metarRaw": "METAR LYNI 081730Z VRB02KT 9999 FEW047 M05/M08 Q1012 NOSIG",
      "tafRaw": "TAF LYNI 081700Z 0818/0918 19004KT 9999 SCT040 TX02/0914Z TNM10/0905Z \n  TEMPO 0916/0918 5000 -FZRA",
      "metarHtml": "METAR LYNI 081730Z VRB02KT 9999 FEW047 M05/M08 Q1012 NOSIG",
      "tafHtml": "TAF LYNI 081700Z 0818/0918 19004KT 9999 SCT040 TX02/0914Z TNM10/0905Z \n  TEMPO 0916/0918 5000 -<span class=\"hl\">FZRA</span>"
    },
    {
      "icao": "LFPO",
      "iata": "ORY",
      "name": "Paris-Orly Airport",
      "updatedAt": "081730Z",
      "visibility_m": 10000,
      "taf_visibility_m": null,
      "worst_visibility_m": 10000,
      "ceiling_ft": 900,
      "hazards": [],
      "severityScore": 30,
      "metarRaw": "METAR LFPO 081730Z 22014KT 190V250 9999 BKN009 09/08 Q1000 NOSIG",
      "tafRaw": null,
      "metarHtml": "METAR LFPO 081730Z 22014KT 190V250 9999 BKN009 09/08 Q1000 NOSIG",
      "tafHtml": null
    },
    {
      "icao": "EKBI",
      "iata": "BLL",
      "name": "Billund Airport",
      "updatedAt": "081720Z",
      "visibility_m": 6000,
      "taf_visibility_m": 3000,
      "worst_visibility_m": 3000,
      "ceiling_ft": null,
      "hazards": [
        "BR",
        "SN"
      ],
      "severityScore": 28,
      "metarRaw": "METAR EKBI 081720Z AUTO 10007KT 6000 OVC006/// M01/M02 Q1006",
      "tafRaw": "TAF EKBI 081727Z 0818/0918 11008KT 6000 BKN008 \n  TEMPO 0818/0823 4000 BR BKN015 \n  TEMPO 0823/0905 3000 -SN DRSN BKN015 \n  BECMG 0901/0904 11018KT \n  FM090500 09022G36KT 9999 FEW020 \n  TEMPO 0905/0918 DRSN",
      "metarHtml": "METAR EKBI 081720Z AUTO 10007KT 6000 OVC006/// M01/M02 Q1006",
      "tafHtml": "TAF EKBI 081727Z 0818/0918 11008KT 6000 BKN008 \n  TEMPO 0818/0823 4000 <span class=\"hl\">BR</span> BKN015 \n  TEMPO 0823/0905 3000 -<span class=\"hl\">SN</span> DRSN BKN015 \n  BECMG 0901/0904 11018KT \n  FM090500 09022G36KT 9999 FEW020 \n  TEMPO 0905/0918 DRSN"
    },
    {
      "icao": "EPWR",
      "iata": "WRO",
      "name": "Copernicus Wrocław Airport",
      "updatedAt": "081730Z",
      "visibility_m": 5000,
      "taf_visibility_m": 2000,
      "worst_visibility_m": 2000,
      "ceiling_ft": null,
      "hazards": [
        "BR",
        "SN"
      ],
      "severityScore": 28,
      "metarRaw": "METAR EPWR 081730Z 12003KT 5000 BR NSC M09/M10 Q1011",
      "tafRaw": "TAF EPWR 081730Z 0818/0918 12003KT 6000 NSC \n  BECMG 0818/0820 4000 BR \n  TEMPO 0820/0907 2000 BR \n  BECMG 0904/0907 10013KT \n  PROB40 0904/0907 BKN008 \n  BECMG 0908/0911 CAVOK \n  BECMG 0915/0918 BKN013 \n  TEMPO 0915/0918 4000 -SN BR",
      "metarHtml": "METAR EPWR 081730Z 12003KT 5000 <span class=\"hl\">BR</span> NSC M09/M10 Q1011",
      "tafHtml": "TAF EPWR 081730Z 0818/0918 12003KT 6000 NSC \n  BECMG 0818/0820 4000 <span class=\"hl\">BR</span> \n  TEMPO 0820/0907 2000 <span class=\"hl\">BR</span> \n  BECMG 0904/0907 10013KT \n  PROB40 0904/0907 BKN008 \n  BECMG 0908/0911 <span class=\"hl-vis\">CAVOK</span> \n  BECMG 0915/0918 BKN013 \n  TEMPO 0915/0918 4000 -<span class=\"hl\">SN</span> <span class=\"hl\">BR</span>"
    },
    {
      "icao": "ESKN",
      "iata": "NYO",
      "name": "Stockholm Skavsta Airport",
      "updatedAt": "081720Z",
      "visibility_m": 10000,
      "taf_visibility_m": 2000,
      "worst_visibility_m": 2000,
      "ceiling_ft": 4300,
      "hazards": [
        "SN",
        "SHSN"
      ],
      "severityScore": 28,
      "metarRaw": "METAR ESKN 081720Z 33002KT 9999 -SN FEW031 BKN043 M05/M05 Q1015",
      "tafRaw": "TAF ESKN 081730Z 0818/0918 VRB03KT 9999 BKN030 \n  PROB40 0818/0904 2000 SHSN BKN012 BKN020TCU \n  BECMG 0905/0907 09012KT",
      "metarHtml": "METAR ESKN 081720Z 33002KT 9999 -<span class=\"hl\">SN</span> FEW031 BKN043 M05/M05 Q1015",
      "tafHtml": "TAF ESKN 081730Z 0818/0918 VRB03KT 9999 BKN030 \n  PROB40 0818/0904 2000 <span class=\"hl\">SHSN</span> BKN012 BKN020TCU \n  BECMG 0905/0907 09012KT"
    },
    {
      "icao": "LRBC",
      "iata": "BCM",
      "name": "Bacău George Enescu International  Airport",
      "updatedAt": "081730Z",
      "visibility_m": 10000,
      "taf_visibility_m": 3000,
      "worst_visibility_m": 3000,
      "ceiling_ft": null,
      "hazards": [
        "SN",
        "BR"
      ],
      "severityScore": 28,
      "metarRaw": "METAR LRBC 081730Z 36006KT 9999 -SN FEW010 SCT031 SCT040 M03/M05 Q0998",
      "tafRaw": "TAF LRBC 081700Z 0818/0903 36007KT 3000 -SN BR OVC020 \n  BECMG 0818/0820 9999 NSW",
      "metarHtml": "METAR LRBC 081730Z 36006KT 9999 -<span class=\"hl\">SN</span> FEW010 SCT031 SCT040 M03/M05 Q0998",
      "tafHtml": "TAF LRBC 081700Z 0818/0903 36007KT 3000 -<span class=\"hl\">SN</span> <span class=\"hl\">BR</span> OVC020 \n  BECMG 0818/0820 9999 NSW"
    },
    {
      "icao": "LZIB",
      "iata": "BTS",
      "name": "M. R. Štefánik Airport",
      "updatedAt": "081730Z",
      "visibility_m": 10000,
      "taf_visibility_m": 1400,
      "worst_visibility_m": 1400,
      "ceiling_ft": 2800,
      "hazards": [
        "SN"
      ],
      "severityScore": 28,
      "metarRaw": "METAR LZIB 081730Z 14004KT 9999 BKN028 M03/M08 Q1011 NOSIG",
      "tafRaw": "TAF LZIB 081715Z 0818/0918 VRB02KT CAVOK \n  BECMG 0907/0909 SCT008 OVC014 \n  TEMPO 0907/0913 2500 -SN \n  PROB30 \n  TEMPO 0908/0911 1400 SN BKN005",
      "metarHtml": "METAR LZIB 081730Z 14004KT 9999 BKN028 M03/M08 Q1011 NOSIG",
      "tafHtml": "TAF LZIB 081715Z 0818/0918 VRB02KT <span class=\"hl-vis\">CAVOK</span> \n  BECMG 0907/0909 SCT008 OVC014 \n  TEMPO 0907/0913 2500 -<span class=\"hl\">SN</span> \n  PROB30 \n  TEMPO 0908/0911 1400 <span class=\"hl\">SN</span> BKN005"
    },
    {
      "icao": "EDSB",
      "iata": "FKB",
      "name": "Karlsruhe Baden-Baden Airport",
      "updatedAt": "081720Z",
      "visibility_m": 10000,
      "taf_visibility_m": 4000,
      "worst_visibility_m": 4000,
      "ceiling_ft": 2500,
      "hazards": [
        "RA",
        "SHRA"
      ],
      "severityScore": 26,
      "metarRaw": "METAR EDSB 081720Z 21008KT 9999 FEW020 OVC025 04/03 Q1006",
      "tafRaw": "TAF EDSB 081700Z 0818/0918 20010KT 9999 BKN020 \n  TEMPO 0818/0901 4000 RA BKN010 \n  BECMG 0820/0822 20015G25KT \n  BECMG 0900/0902 21020G35KT \n  TEMPO 0901/0918 SHRA BKN020CB \n  PROB40 \n  TEMPO 0908/0915 21030G45KT",
      "metarHtml": "METAR EDSB 081720Z 21008KT 9999 FEW020 OVC025 04/03 Q1006",
      "tafHtml": "TAF EDSB 081700Z 0818/0918 20010KT 9999 BKN020 \n  TEMPO 0818/0901 4000 <span class=\"hl\">RA</span> BKN010 \n  BECMG 0820/0822 20015G25KT \n  BECMG 0900/0902 21020G35KT \n  TEMPO 0901/0918 <span class=\"hl\">SHRA</span> BKN020CB \n  PROB40 \n  TEMPO 0908/0915 21030G45KT"
    },
    {
      "icao": "LFLL",
      "iata": "LYS",
      "name": "Lyon Saint-Exupéry Airport",
      "updatedAt": "081730Z",
      "visibility_m": 10000,
      "taf_visibility_m": 3000,
      "worst_visibility_m": 3000,
      "ceiling_ft": 4600,
      "hazards": [
        "RA",
        "SHRA"
      ],
      "severityScore": 26,
      "metarRaw": "METAR LFLL 081730Z 16009KT 9999 BKN046 06/03 Q1012 NOSIG",
      "tafRaw": "TAF LFLL 081700Z 0818/0924 18015G25KT 9999 BKN045 \n  PROB30 \n  TEMPO 0818/0820 RA \n  TEMPO 0822/0904 18020G35KT \n  PROB30 \n  TEMPO 0900/0909 4000 RA SCT030TCU \n  BECMG 0907/0909 21010KT \n  PROB40 \n  TEMPO 0914/0924 34010KT 3000 SHRA BKN025TCU",
      "metarHtml": "METAR LFLL 081730Z 16009KT 9999 BKN046 06/03 Q1012 NOSIG",
      "tafHtml": "TAF LFLL 081700Z 0818/0924 18015G25KT 9999 BKN045 \n  PROB30 \n  TEMPO 0818/0820 <span class=\"hl\">RA</span> \n  TEMPO 0822/0904 18020G35KT \n  PROB30 \n  TEMPO 0900/0909 4000 <span class=\"hl\">RA</span> SCT030TCU \n  BECMG 0907/0909 21010KT \n  PROB40 \n  TEMPO 0914/0924 34010KT 3000 <span class=\"hl\">SHRA</span> BKN025TCU"
    },
    {
      "icao": "LIRN",
      "iata": "NAP",
      "name": "Naples International Airport",
      "updatedAt": "081720Z",
      "visibility_m": 10000,
      "taf_visibility_m": 4000,
      "worst_visibility_m": 4000,
      "ceiling_ft": null,
      "hazards": [
        "RA",
        "SHRA"
      ],
      "severityScore": 26,
      "metarRaw": "METAR LIRN 081720Z 18002KT CAVOK 08/M00 Q1016 NOSIG",
      "tafRaw": "TAF LIRN 081700Z 0818/0918 VRB05KT 9999 SCT040 \n  TEMPO 0900/0906 RA \n  TEMPO 0906/0911 4000 SHRA \n  BECMG 0908/0910 24012KT",
      "metarHtml": "METAR LIRN 081720Z 18002KT <span class=\"hl-vis\">CAVOK</span> 08/M00 Q1016 NOSIG",
      "tafHtml": "TAF LIRN 081700Z 0818/0918 VRB05KT 9999 SCT040 \n  TEMPO 0900/0906 <span class=\"hl\">RA</span> \n  TEMPO 0906/0911 4000 <span class=\"hl\">SHRA</span> \n  BECMG 0908/0910 24012KT"
    },
    {
      "icao": "LIPX",
      "iata": "VRN",
      "name": "Verona Villafranca Valerio Catullo Airport",
      "updatedAt": "081720Z",
      "visibility_m": 8000,
      "taf_visibility_m": 8000,
      "worst_visibility_m": 8000,
      "ceiling_ft": 700,
      "hazards": [],
      "severityScore": 25,
      "metarRaw": "METAR LIPX 081720Z 10005KT 8000 BKN007 M01/M03 Q1012",
      "tafRaw": "TAF LIPX 081700Z 0818/0918 VRB05KT 8000 FEW020",
      "metarHtml": "METAR LIPX 081720Z 10005KT 8000 BKN007 M01/M03 Q1012",
      "tafHtml": "TAF LIPX 081700Z 0818/0918 VRB05KT 8000 FEW020"
    },
    {
      "icao": "EDNY",
      "iata": "FDH",
      "name": "Friedrichshafen Airport",
      "updatedAt": "081720Z",
      "visibility_m": 10000,
      "taf_visibility_m": 3500,
      "worst_visibility_m": 3500,
      "ceiling_ft": 1000,
      "hazards": [
        "RA"
      ],
      "severityScore": 24,
      "metarRaw": "METAR EDNY 081720Z VRB02KT 9999 OVC010 00/M00 Q1008",
      "tafRaw": "TAF EDNY 081700Z 0818/0903 VRB03KT 9999 OVC015 \n  TEMPO 0818/0820 22006KT 4000 RA BKN010 \n  TEMPO 0820/0903 3500 RA",
      "metarHtml": "METAR EDNY 081720Z VRB02KT 9999 OVC010 00/M00 Q1008",
      "tafHtml": "TAF EDNY 081700Z 0818/0903 VRB03KT 9999 OVC015 \n  TEMPO 0818/0820 22006KT 4000 <span class=\"hl\">RA</span> BKN010 \n  TEMPO 0820/0903 3500 <span class=\"hl\">RA</span>"
    },
    {
      "icao": "EETN",
      "iata": "TLL",
      "name": "Lennart Meri Tallinn Airport",
      "updatedAt": "081720Z",
      "visibility_m": 10000,
      "taf_visibility_m": 5000,
      "worst_visibility_m": 5000,
      "ceiling_ft": 1200,
      "hazards": [
        "BR"
      ],
      "severityScore": 22,
      "metarRaw": "METAR EETN 081720Z 09011KT 9999 OVC015 M07/M08 Q1020 TEMPO OVC012",
      "tafRaw": "TAF EETN 081730Z 0818/0918 09012KT 9999 BKN015 \n  PROB40 \n  TEMPO 0818/0901 5000 BR BKN008 \n  BECMG 0901/0903 SCT020 \n  TEMPO 0909/0918 06016G30KT BKN015",
      "metarHtml": "METAR EETN 081720Z 09011KT 9999 OVC015 M07/M08 Q1020 TEMPO OVC012",
      "tafHtml": "TAF EETN 081730Z 0818/0918 09012KT 9999 BKN015 \n  PROB40 \n  TEMPO 0818/0901 5000 <span class=\"hl\">BR</span> BKN008 \n  BECMG 0901/0903 SCT020 \n  TEMPO 0909/0918 06016G30KT BKN015"
    },
    {
      "icao": "EPGD",
      "iata": "GDN",
      "name": "Gdańsk Lech Wałęsa Airport",
      "updatedAt": "081730Z",
      "visibility_m": 10000,
      "taf_visibility_m": 2500,
      "worst_visibility_m": 2500,
      "ceiling_ft": 1800,
      "hazards": [
        "BR"
      ],
      "severityScore": 22,
      "metarRaw": "METAR EPGD 081730Z 29002KT 9999 BKN018 M07/M08 Q1012",
      "tafRaw": "TAF EPGD 081730Z 0818/0918 VRB02KT CAVOK \n  TEMPO 0818/0909 BKN012 \n  PROB40 0818/0905 2500 BR BKN002 \n  BECMG 0905/0908 05012KT \n  TEMPO 0907/0918 04022G33KT",
      "metarHtml": "METAR EPGD 081730Z 29002KT 9999 BKN018 M07/M08 Q1012",
      "tafHtml": "TAF EPGD 081730Z 0818/0918 VRB02KT <span class=\"hl-vis\">CAVOK</span> \n  TEMPO 0818/0909 BKN012 \n  PROB40 0818/0905 2500 <span class=\"hl\">BR</span> BKN002 \n  BECMG 0905/0908 05012KT \n  TEMPO 0907/0918 04022G33KT"
    },
    {
      "icao": "LPPT",
      "iata": "LIS",
      "name": "Lisbon Humberto Delgado Airport",
      "updatedAt": "081730Z",
      "visibility_m": 10000,
      "taf_visibility_m": 3000,
      "worst_visibility_m": 3000,
      "ceiling_ft": 1500,
      "hazards": [
        "BR"
      ],
      "severityScore": 22,
      "metarRaw": "METAR LPPT 081730Z 23009KT 9999 FEW010 BKN015 13/11 Q1030",
      "tafRaw": "TAF LPPT 081700Z 0818/0924 25008KT 9999 SCT012 BKN018 \n  TEMPO 0818/0906 3000 RADZ BR SCT003 BKN005 \n  BECMG 0906/0909 32010KT SCT020 \n  BECMG 0919/0921 29005KT",
      "metarHtml": "METAR LPPT 081730Z 23009KT 9999 FEW010 BKN015 13/11 Q1030",
      "tafHtml": "TAF LPPT 081700Z 0818/0924 25008KT 9999 SCT012 BKN018 \n  TEMPO 0818/0906 3000 RADZ <span class=\"hl\">BR</span> SCT003 BKN005 \n  BECMG 0906/0909 32010KT SCT020 \n  BECMG 0919/0921 29005KT"
    },
    {
      "icao": "ENVA",
      "iata": "TRD",
      "name": "Trondheim Airport, Værnes",
      "updatedAt": "081720Z",
      "visibility_m": 10000,
      "taf_visibility_m": 3000,
      "worst_visibility_m": 3000,
      "ceiling_ft": null,
      "hazards": [
        "SN"
      ],
      "severityScore": 18,
      "metarRaw": "METAR ENVA 081720Z 13006KT 9999 FEW045 M07/M10 Q1005 NOSIG RMK WIND 670FT 16002KT",
      "tafRaw": "TAF ENVA 081700Z 0818/0918 14010KT 9999 SCT050 \n  PROB30 \n  TEMPO 0819/0824 3000 -SN VV014 \n  BECMG 0909/0911 16018G28KT",
      "metarHtml": "METAR ENVA 081720Z 13006KT 9999 FEW045 M07/M10 Q1005 NOSIG RMK WIND 670FT 16002KT",
      "tafHtml": "TAF ENVA 081700Z 0818/0918 14010KT 9999 SCT050 \n  PROB30 \n  TEMPO 0819/0824 3000 -<span class=\"hl\">SN</span> VV014 \n  BECMG 0909/0911 16018G28KT"
    },
    {
      "icao": "LBSF",
      "iata": "SOF",
      "name": "Sofia Airport",
      "updatedAt": "081730Z",
      "visibility_m": 10000,
      "taf_visibility_m": 3000,
      "worst_visibility_m": 3000,
      "ceiling_ft": null,
      "hazards": [
        "SN"
      ],
      "severityScore": 18,
      "metarRaw": "METAR LBSF 081730Z AUTO 30018KT 9999 FEW027/// M05/M08 Q1007 NOSIG",
      "tafRaw": "TAF LBSF 081700Z 0818/0918 29016KT 9999 SCT030 BKN060 \n  BECMG 0904/0906 VRB04KT \n  TEMPO 0916/0918 3000 SN BKN015 OVC030",
      "metarHtml": "METAR LBSF 081730Z AUTO 30018KT 9999 FEW027/// M05/M08 Q1007 NOSIG",
      "tafHtml": "TAF LBSF 081700Z 0818/0918 29016KT 9999 SCT030 BKN060 \n  BECMG 0904/0906 VRB04KT \n  TEMPO 0916/0918 3000 <span class=\"hl\">SN</span> BKN015 OVC030"
    },
    {
      "icao": "LBWN",
      "iata": "VAR",
      "name": "Varna Airport",
      "updatedAt": "081730Z",
      "visibility_m": 10000,
      "taf_visibility_m": 2000,
      "worst_visibility_m": 2000,
      "ceiling_ft": null,
      "hazards": [
        "SN"
      ],
      "severityScore": 18,
      "metarRaw": "METAR LBWN 081730Z AUTO 28026KT 9999 SCT024/// M01/M04 Q1002 NOSIG",
      "tafRaw": "TAF LBWN 081700Z 0818/0918 28030G40KT 9999 BKN020 OVC040 \n  PROB40 \n  TEMPO 0818/0820 2000 SN SCT010 BKN015 OVC030 \n  BECMG 0906/0908 28018KT",
      "metarHtml": "METAR LBWN 081730Z AUTO 28026KT 9999 SCT024/// M01/M04 Q1002 NOSIG",
      "tafHtml": "TAF LBWN 081700Z 0818/0918 28030G40KT 9999 BKN020 OVC040 \n  PROB40 \n  TEMPO 0818/0820 2000 <span class=\"hl\">SN</span> SCT010 BKN015 OVC030 \n  BECMG 0906/0908 28018KT"
    },
    {
      "icao": "LHBP",
      "iata": "BUD",
      "name": "Budapest Liszt Ferenc International Airport",
      "updatedAt": "081730Z",
      "visibility_m": 10000,
      "taf_visibility_m": 5000,
      "worst_visibility_m": 5000,
      "ceiling_ft": null,
      "hazards": [
        "SN"
      ],
      "severityScore": 18,
      "metarRaw": "METAR LHBP 081730Z 30012KT CAVOK M05/M09 Q1009 NOSIG",
      "tafRaw": "TAF LHBP 081715Z 0818/0918 30012KT CAVOK \n  BECMG 0819/0822 30007KT \n  BECMG 0822/0901 VRB02KT \n  BECMG 0906/0909 11007KT \n  TEMPO 0907/0911 -SN \n  BECMG 0908/0911 SCT030 BKN045 \n  TEMPO 0911/0918 5000 SN BKN012 BKN040",
      "metarHtml": "METAR LHBP 081730Z 30012KT <span class=\"hl-vis\">CAVOK</span> M05/M09 Q1009 NOSIG",
      "tafHtml": "TAF LHBP 081715Z 0818/0918 30012KT <span class=\"hl-vis\">CAVOK</span> \n  BECMG 0819/0822 30007KT \n  BECMG 0822/0901 VRB02KT \n  BECMG 0906/0909 11007KT \n  TEMPO 0907/0911 -<span class=\"hl\">SN</span> \n  BECMG 0908/0911 SCT030 BKN045 \n  TEMPO 0911/0918 5000 <span class=\"hl\">SN</span> BKN012 BKN040"
    },
    {
      "icao": "LIMC",
      "iata": "MXP",
      "name": "Milan Malpensa International Airport",
      "updatedAt": "081720Z",
      "visibility_m": 10000,
      "taf_visibility_m": 4000,
      "worst_visibility_m": 4000,
      "ceiling_ft": null,
      "hazards": [
        "SN"
      ],
      "severityScore": 18,
      "metarRaw": "METAR LIMC 081720Z VRB01KT CAVOK M00/M06 Q1011 NOSIG",
      "tafRaw": "TAF LIMC 081700Z 0818/0924 VRB04KT 9999 SCT050 \n  PROB40 \n  TEMPO 0905/0909 4000 -SN BKN010",
      "metarHtml": "METAR LIMC 081720Z VRB01KT <span class=\"hl-vis\">CAVOK</span> M00/M06 Q1011 NOSIG",
      "tafHtml": "TAF LIMC 081700Z 0818/0924 VRB04KT 9999 SCT050 \n  PROB40 \n  TEMPO 0905/0909 4000 -<span class=\"hl\">SN</span> BKN010"
    },
    {
      "icao": "LIME",
      "iata": "BGY",
      "name": "Milan Bergamo Airport / Antonio Locatelli Air Base",
      "updatedAt": "081720Z",
      "visibility_m": 10000,
      "taf_visibility_m": 4000,
      "worst_visibility_m": 4000,
      "ceiling_ft": null,
      "hazards": [
        "SN"
      ],
      "severityScore": 18,
      "metarRaw": "METAR LIME 081720Z 19003KT 170V230 9999 FEW090 01/M04 Q1011 NOSIG",
      "tafRaw": "TAF LIME 081700Z 0818/0918 VRB04KT 9999 SCT050 \n  PROB40 \n  TEMPO 0905/0909 4000 -SN BKN010",
      "metarHtml": "METAR LIME 081720Z 19003KT 170V230 9999 FEW090 01/M04 Q1011 NOSIG",
      "tafHtml": "TAF LIME 081700Z 0818/0918 VRB04KT 9999 SCT050 \n  PROB40 \n  TEMPO 0905/0909 4000 -<span class=\"hl\">SN</span> BKN010"
    },
    {
      "icao": "LKPR",
      "iata": "PRG",
      "name": "Václav Havel Airport Prague",
      "updatedAt": "081730Z",
      "visibility_m": 10000,
      "taf_visibility_m": 2000,
      "worst_visibility_m": 2000,
      "ceiling_ft": 2400,
      "hazards": [
        "SN"
      ],
      "severityScore": 18,
      "metarRaw": "METAR LKPR 081730Z 07004KT 9999 FEW017 BKN024 M04/M05 Q1009 NOSIG",
      "tafRaw": "TAF LKPR 081700Z 0818/0924 20006KT 9999 BKN017 \n  TEMPO 0818/0820 BKN012 \n  BECMG 0821/0823 12007KT \n  BECMG 0904/0906 BKN012 \n  TEMPO 0906/0911 4000 SN OVC006 \n  PROB30 \n  TEMPO 0906/0909 2000 SN OVC003",
      "metarHtml": "METAR LKPR 081730Z 07004KT 9999 FEW017 BKN024 M04/M05 Q1009 NOSIG",
      "tafHtml": "TAF LKPR 081700Z 0818/0924 20006KT 9999 BKN017 \n  TEMPO 0818/0820 BKN012 \n  BECMG 0821/0823 12007KT \n  BECMG 0904/0906 BKN012 \n  TEMPO 0906/0911 4000 <span class=\"hl\">SN</span> OVC006 \n  PROB30 \n  TEMPO 0906/0909 2000 <span class=\"hl\">SN</span> OVC003"
    },
    {
      "icao": "LRSB",
      "iata": "SBZ",
      "name": "Sibiu International Airport",
      "updatedAt": "081730Z",
      "visibility_m": 10000,
      "taf_visibility_m": 5000,
      "worst_visibility_m": 5000,
      "ceiling_ft": 4200,
      "hazards": [
        "SN"
      ],
      "severityScore": 18,
      "metarRaw": "METAR LRSB 081730Z 29021KT 9999 -SN FEW023 OVC042 M06/M09 Q1003",
      "tafRaw": "TAF LRSB 081700Z 0818/0918 33017KT 9999 BKN020 OVC035 \n  TEMPO 0818/0820 5000 -SN BKN005 OVC020 \n  BECMG 0903/0905 VRB04KT",
      "metarHtml": "METAR LRSB 081730Z 29021KT 9999 -<span class=\"hl\">SN</span> FEW023 OVC042 M06/M09 Q1003",
      "tafHtml": "TAF LRSB 081700Z 0818/0918 33017KT 9999 BKN020 OVC035 \n  TEMPO 0818/0820 5000 -<span class=\"hl\">SN</span> BKN005 OVC020 \n  BECMG 0903/0905 VRB04KT"
    },
    {
      "icao": "LRTM",
      "iata": "TGM",
      "name": "Târgu Mureş Transilvania International Airport",
      "updatedAt": "081730Z",
      "visibility_m": 10000,
      "taf_visibility_m": 5000,
      "worst_visibility_m": 5000,
      "ceiling_ft": null,
      "hazards": [
        "SN"
      ],
      "severityScore": 18,
      "metarRaw": "METAR LRTM 081730Z AUTO 28010KT 9999 FEW022/// SCT039/// BKN048/// M04/M07 Q1005 RESN",
      "tafRaw": "TAF LRTM 081400Z 0815/0824 30008KT 9999 BKN015 BKN030 \n  TEMPO 0815/0816 5000 -SN",
      "metarHtml": "METAR LRTM 081730Z AUTO 28010KT 9999 FEW022/// SCT039/// BKN048/// M04/M07 Q1005 RESN",
      "tafHtml": "TAF LRTM 081400Z 0815/0824 30008KT 9999 BKN015 BKN030 \n  TEMPO 0815/0816 5000 -<span class=\"hl\">SN</span>"
    },
    {
      "icao": "LWOH",
      "iata": "OHD",
      "name": "Ohrid St. Paul the Apostle Airport",
      "updatedAt": "081720Z",
      "visibility_m": 10000,
      "taf_visibility_m": 10000,
      "worst_visibility_m": 10000,
      "ceiling_ft": 3500,
      "hazards": [
        "SN"
      ],
      "severityScore": 18,
      "metarRaw": "METAR LWOH 081720Z 19008KT 120V250 9999 FEW010 BKN035 02/M05 Q1008",
      "tafRaw": "TAF LWOH 081420Z 0815/0915 21012KT 9999 SCT015 BKN035 \n  TEMPO 0815/0818 -SN SCT010 OVC025 \n  TEMPO 0815/0821 26017G27KT",
      "metarHtml": "METAR LWOH 081720Z 19008KT 120V250 9999 FEW010 BKN035 02/M05 Q1008",
      "tafHtml": "TAF LWOH 081420Z 0815/0915 21012KT 9999 SCT015 BKN035 \n  TEMPO 0815/0818 -<span class=\"hl\">SN</span> SCT010 OVC025 \n  TEMPO 0815/0821 26017G27KT"
    },
    {
      "icao": "EGGW",
      "iata": "LTN",
      "name": "London Luton Airport",
      "updatedAt": "081720Z",
      "visibility_m": 7000,
      "taf_visibility_m": null,
      "worst_visibility_m": 7000,
      "ceiling_ft": null,
      "hazards": [
        "RA"
      ],
      "severityScore": 17,
      "metarRaw": "METAR EGGW 081720Z AUTO 11013KT 7000 -RA BKN002/// OVC006/// //////CB 03/02 Q0991",
      "tafRaw": null,
      "metarHtml": "METAR EGGW 081720Z AUTO 11013KT 7000 -<span class=\"hl\">RA</span> BKN002/// OVC006/// //////CB 03/02 Q0991",
      "tafHtml": null
    },
    {
      "icao": "LQTZ",
      "iata": "TZL",
      "name": "Tuzla International Airport",
      "updatedAt": "081730Z",
      "visibility_m": 5000,
      "taf_visibility_m": null,
      "worst_visibility_m": 5000,
      "ceiling_ft": null,
      "hazards": [
        "BR"
      ],
      "severityScore": 15,
      "metarRaw": "METAR LQTZ 081730Z 11001KT 5000 BR NSC M08/M08 Q1013",
      "tafRaw": null,
      "metarHtml": "METAR LQTZ 081730Z 11001KT 5000 <span class=\"hl\">BR</span> NSC M08/M08 Q1013",
      "tafHtml": null
    },
    {
      "icao": "LICA",
      "iata": "SUF",
      "name": "Lamezia Terme Sant'Eufemia International Airport",
      "updatedAt": "081720Z",
      "visibility_m": 10000,
      "taf_visibility_m": 4000,
      "worst_visibility_m": 4000,
      "ceiling_ft": null,
      "hazards": [
        "SHRA"
      ],
      "severityScore": 14,
      "metarRaw": "METAR LICA 081720Z AUTO 29013KT 9999 BKN048/// 11/03 Q1018",
      "tafRaw": "TAF LICA 081700Z 0818/0918 28018G28KT 9999 BKN030 \n  TEMPO 0821/0918 4000 SHRA",
      "metarHtml": "METAR LICA 081720Z AUTO 29013KT 9999 BKN048/// 11/03 Q1018",
      "tafHtml": "TAF LICA 081700Z 0818/0918 28018G28KT 9999 BKN030 \n  TEMPO 0821/0918 4000 <span class=\"hl\">SHRA</span>"
    },
    {
      "icao": "LICJ",
      "iata": "PMO",
      "name": "Falcone–Borsellino Airport",
      "updatedAt": "081720Z",
      "visibility_m": 10000,
      "taf_visibility_m": 4000,
      "worst_visibility_m": 4000,
      "ceiling_ft": 5000,
      "hazards": [
        "SHRA"
      ],
      "severityScore": 14,
      "metarRaw": "METAR LICJ 081720Z 27018KT 9999 BKN050 15/09 Q1020",
      "tafRaw": "TAF LICJ 081700Z 0818/0918 29025G35KT 9999 BKN030 \n  BECMG 0907/0909 23018G33KT \n  TEMPO 0912/0918 4000 SHRA",
      "metarHtml": "METAR LICJ 081720Z 27018KT 9999 BKN050 15/09 Q1020",
      "tafHtml": "TAF LICJ 081700Z 0818/0918 29025G35KT 9999 BKN030 \n  BECMG 0907/0909 23018G33KT \n  TEMPO 0912/0918 4000 <span class=\"hl\">SHRA</span>"
    },
    {
      "icao": "LIRF",
      "iata": "FCO",
      "name": "Rome–Fiumicino Leonardo da Vinci International Airport",
      "updatedAt": "081720Z",
      "visibility_m": 10000,
      "taf_visibility_m": 4000,
      "worst_visibility_m": 4000,
      "ceiling_ft": null,
      "hazards": [
        "SHRA"
      ],
      "severityScore": 14,
      "metarRaw": "METAR LIRF 081720Z 10004KT CAVOK 07/01 Q1015 NOSIG",
      "tafRaw": "TAF LIRF 081700Z 0818/0924 08006KT 9999 SCT045 \n  BECMG 0821/0823 15010KT \n  TEMPO 0903/0918 4000 SHRA \n  BECMG 0904/0906 26016KT \n  BECMG 0910/0912 26020G32KT",
      "metarHtml": "METAR LIRF 081720Z 10004KT <span class=\"hl-vis\">CAVOK</span> 07/01 Q1015 NOSIG",
      "tafHtml": "TAF LIRF 081700Z 0818/0924 08006KT 9999 SCT045 \n  BECMG 0821/0823 15010KT \n  TEMPO 0903/0918 4000 <span class=\"hl\">SHRA</span> \n  BECMG 0904/0906 26016KT \n  BECMG 0910/0912 26020G32KT"
    },
    {
      "icao": "LIRZ",
      "iata": "PEG",
      "name": "Perugia San Francesco d'Assisi – Umbria International Airport",
      "updatedAt": "081720Z",
      "visibility_m": 10000,
      "taf_visibility_m": 4000,
      "worst_visibility_m": 4000,
      "ceiling_ft": null,
      "hazards": [
        "SHRA"
      ],
      "severityScore": 14,
      "metarRaw": "METAR LIRZ 081720Z AUTO VRB01KT 9999 OVC028/// 02/M01 Q1015",
      "tafRaw": "TAF LIRZ 081700Z 0818/0918 VRB05KT 9999 BKN025 \n  TEMPO 0900/0912 4000 SHRA \n  BECMG 0906/0908 19012KT",
      "metarHtml": "METAR LIRZ 081720Z AUTO VRB01KT 9999 OVC028/// 02/M01 Q1015",
      "tafHtml": "TAF LIRZ 081700Z 0818/0918 VRB05KT 9999 BKN025 \n  TEMPO 0900/0912 4000 <span class=\"hl\">SHRA</span> \n  BECMG 0906/0908 19012KT"
    },
    {
      "icao": "LMML",
      "iata": "MLA",
      "name": "Malta International Airport",
      "updatedAt": "081715Z",
      "visibility_m": 8000,
      "taf_visibility_m": 7000,
      "worst_visibility_m": 7000,
      "ceiling_ft": null,
      "hazards": [
        "SHRA"
      ],
      "severityScore": 14,
      "metarRaw": "METAR LMML 081715Z 30020G30KT 9999 -SHRA FEW020TCU 13/10 Q1021 TEMPO 8000 SHRA",
      "tafRaw": "TAF LMML 081700Z 0818/0918 28020KT 9999 SCT020 \n  TEMPO 0818/0917 27022G32KT \n  PROB40 \n  TEMPO 0818/0903 7000 SHRA BKN017TCU",
      "metarHtml": "METAR LMML 081715Z 30020G30KT 9999 -<span class=\"hl\">SHRA</span> FEW020TCU 13/10 Q1021 TEMPO 8000 <span class=\"hl\">SHRA</span>",
      "tafHtml": "TAF LMML 081700Z 0818/0918 28020KT 9999 SCT020 \n  TEMPO 0818/0917 27022G32KT \n  PROB40 \n  TEMPO 0818/0903 7000 <span class=\"hl\">SHRA</span> BKN017TCU"
    },
    {
      "icao": "LTFM",
      "iata": "IST",
      "name": "İstanbul Airport",
      "updatedAt": "081720Z",
      "visibility_m": 8000,
      "taf_visibility_m": 10000,
      "worst_visibility_m": 8000,
      "ceiling_ft": 2500,
      "hazards": [
        "SHRA"
      ],
      "severityScore": 14,
      "metarRaw": "METAR LTFM 081720Z 28004G16KT 250V050 8000 -SHRA SCT010 FEW018CB BKN025 07/06 Q1003 NOSIG RMK RWY17L 24003KT 190V290 RWY34L 23004KT 200V260 RWY16R 21004KT RWY36 34004KT 280V010 RWY18 VRB04KT",
      "tafRaw": "TAF LTFM 081640Z 0818/0924 VRB02KT 9999 -SHRA SCT032 BKN080 \n  BECMG 0818/0820 -SHRASN SCT010 BKN022 \n  BECMG 0901/0904 25012KT FEW035 \n  BECMG 0912/0915 19012KT \n  BECMG 0919/0922 18015G25KT",
      "metarHtml": "METAR LTFM 081720Z 28004G16KT 250V050 8000 -<span class=\"hl\">SHRA</span> SCT010 FEW018CB BKN025 07/06 Q1003 NOSIG RMK RWY17L 24003KT 190V290 RWY34L 23004KT 200V260 RWY16R 21004KT RWY36 34004KT 280V010 RWY18 VRB04KT",
      "tafHtml": "TAF LTFM 081640Z 0818/0924 VRB02KT 9999 -<span class=\"hl\">SHRA</span> SCT032 BKN080 \n  BECMG 0818/0820 -SHRASN SCT010 BKN022 \n  BECMG 0901/0904 25012KT FEW035 \n  BECMG 0912/0915 19012KT \n  BECMG 0919/0922 18015G25KT"
    },
    {
      "icao": "UGKO",
      "iata": "KUT",
      "name": "David the Builder Kutaisi International Airport",
      "updatedAt": "081730Z",
      "visibility_m": 10000,
      "taf_visibility_m": 3000,
      "worst_visibility_m": 3000,
      "ceiling_ft": 8500,
      "hazards": [
        "SHRA"
      ],
      "severityScore": 14,
      "metarRaw": "METAR UGKO 081730Z 11009KT 070V150 9999 BKN085 13/02 Q1010 NOSIG",
      "tafRaw": "TAF UGKO 081700Z 0818/0918 09012KT 9999 BKN080 TX13/0911Z TN09/0903Z \n  TEMPO 0818/0903 08023G37KT 4000 SHRA BKN020CB OVC040 \n  TEMPO 0908/0916 26010KT 3000 SHRA BKN017CB OVC035",
      "metarHtml": "METAR UGKO 081730Z 11009KT 070V150 9999 BKN085 13/02 Q1010 NOSIG",
      "tafHtml": "TAF UGKO 081700Z 0818/0918 09012KT 9999 BKN080 TX13/0911Z TN09/0903Z \n  TEMPO 0818/0903 08023G37KT 4000 <span class=\"hl\">SHRA</span> BKN020CB OVC040 \n  TEMPO 0908/0916 26010KT 3000 <span class=\"hl\">SHRA</span> BKN017CB OVC035"
    },
    {
      "icao": "EDLW",
      "iata": "DTM",
      "name": "Dortmund Airport",
      "updatedAt": "081720Z",
      "visibility_m": 10000,
      "taf_visibility_m": 4000,
      "worst_visibility_m": 4000,
      "ceiling_ft": null,
      "hazards": [
        "RA"
      ],
      "severityScore": 12,
      "metarRaw": "METAR EDLW 081720Z 13007KT CAVOK 02/M01 Q1003",
      "tafRaw": "TAF EDLW 081700Z 0818/0918 14007KT 9999 BKN025 \n  TEMPO 0820/0904 4000 RA BKN012 \n  BECMG 0822/0901 16012KT \n  PROB30 \n  TEMPO 0909/0915 16015G25KT RA \n  TEMPO 0915/0918 RA BKN012",
      "metarHtml": "METAR EDLW 081720Z 13007KT <span class=\"hl-vis\">CAVOK</span> 02/M01 Q1003",
      "tafHtml": "TAF EDLW 081700Z 0818/0918 14007KT 9999 BKN025 \n  TEMPO 0820/0904 4000 <span class=\"hl\">RA</span> BKN012 \n  BECMG 0822/0901 16012KT \n  PROB30 \n  TEMPO 0909/0915 16015G25KT <span class=\"hl\">RA</span> \n  TEMPO 0915/0918 <span class=\"hl\">RA</span> BKN012"
    },
    {
      "icao": "HESX",
      "iata": "SPX",
      "name": "Sphinx International Airport",
      "updatedAt": "081700Z",
      "visibility_m": 10000,
      "taf_visibility_m": 4000,
      "worst_visibility_m": 4000,
      "ceiling_ft": null,
      "hazards": [
        "RA"
      ],
      "severityScore": 12,
      "metarRaw": "METAR HESX 081700Z 26009KT CAVOK 22/03 Q1016 NOSIG",
      "tafRaw": "TAF HESX 081700Z 0818/0924 27008KT 6000 SCT025 \n  TEMPO 0818/0908 29008G20KT 4000 RA SA SCT020 BKN022 \n  PROB40 \n  TEMPO 0910/0918 27018G30KT 4000 SA",
      "metarHtml": "METAR HESX 081700Z 26009KT <span class=\"hl-vis\">CAVOK</span> 22/03 Q1016 NOSIG",
      "tafHtml": "TAF HESX 081700Z 0818/0924 27008KT 6000 SCT025 \n  TEMPO 0818/0908 29008G20KT 4000 <span class=\"hl\">RA</span> SA SCT020 BKN022 \n  PROB40 \n  TEMPO 0910/0918 27018G30KT 4000 SA"
    },
    {
      "icao": "LEZG",
      "iata": "ZAZ",
      "name": "Zaragoza Airport",
      "updatedAt": "081730Z",
      "visibility_m": 10000,
      "taf_visibility_m": 10000,
      "worst_visibility_m": 10000,
      "ceiling_ft": null,
      "hazards": [
        "RA"
      ],
      "severityScore": 12,
      "metarRaw": "METAR LEZG 081730Z 24023KT CAVOK 11/03 Q1021 NOSIG",
      "tafRaw": "TAF LEZG 081700Z 0818/0918 24020KT CAVOK TX14/0915Z TN05/0906Z \n  TEMPO 0818/0914 24018G28KT \n  TEMPO 0818/0913 24025G38KT \n  PROB30 \n  TEMPO 0821/0824 RA \n  BECMG 0913/0915 31015KT \n  TEMPO 0913/0917 31018G28KT \n  TEMPO 0914/0916 31025G38KT \n  TEMPO 0914/0918 RA",
      "metarHtml": "METAR LEZG 081730Z 24023KT <span class=\"hl-vis\">CAVOK</span> 11/03 Q1021 NOSIG",
      "tafHtml": "TAF LEZG 081700Z 0818/0918 24020KT <span class=\"hl-vis\">CAVOK</span> TX14/0915Z TN05/0906Z \n  TEMPO 0818/0914 24018G28KT \n  TEMPO 0818/0913 24025G38KT \n  PROB30 \n  TEMPO 0821/0824 <span class=\"hl\">RA</span> \n  BECMG 0913/0915 31015KT \n  TEMPO 0913/0917 31018G28KT \n  TEMPO 0914/0916 31025G38KT \n  TEMPO 0914/0918 <span class=\"hl\">RA</span>"
    },
    {
      "icao": "LIPQ",
      "iata": "TRS",
      "name": "Trieste–Friuli Venezia Giulia Airport",
      "updatedAt": "081720Z",
      "visibility_m": 10000,
      "taf_visibility_m": 10000,
      "worst_visibility_m": 10000,
      "ceiling_ft": null,
      "hazards": [
        "RA"
      ],
      "severityScore": 12,
      "metarRaw": "METAR LIPQ 081720Z AUTO 02003KT 9999 NCD M01/M04 Q1013",
      "tafRaw": "TAF LIPQ 081700Z 0818/0918 VRB05KT CAVOK \n  PROB30 \n  TEMPO 0908/0912 RA",
      "metarHtml": "METAR LIPQ 081720Z AUTO 02003KT 9999 NCD M01/M04 Q1013",
      "tafHtml": "TAF LIPQ 081700Z 0818/0918 VRB05KT <span class=\"hl-vis\">CAVOK</span> \n  PROB30 \n  TEMPO 0908/0912 <span class=\"hl\">RA</span>"
    },
    {
      "icao": "LPFR",
      "iata": "FAO",
      "name": "Faro Airport",
      "updatedAt": "081730Z",
      "visibility_m": 10000,
      "taf_visibility_m": 5000,
      "worst_visibility_m": 5000,
      "ceiling_ft": null,
      "hazards": [
        "RA"
      ],
      "severityScore": 12,
      "metarRaw": "METAR LPFR 081730Z VRB02KT 9999 FEW020 12/08 Q1032",
      "tafRaw": "TAF LPFR 081700Z 0818/0918 VRB05KT 9999 FEW018 \n  BECMG 0905/0907 SCT015 BKN035 \n  PROB30 \n  TEMPO 0910/0913 27007KT 5000 -RA BKN015",
      "metarHtml": "METAR LPFR 081730Z VRB02KT 9999 FEW020 12/08 Q1032",
      "tafHtml": "TAF LPFR 081700Z 0818/0918 VRB05KT 9999 FEW018 \n  BECMG 0905/0907 SCT015 BKN035 \n  PROB30 \n  TEMPO 0910/0913 27007KT 5000 -<span class=\"hl\">RA</span> BKN015"
    },
    {
      "icao": "LPMA",
      "iata": "FNC",
      "name": "Madeira International Airport Cristiano Ronaldo",
      "updatedAt": "081730Z",
      "visibility_m": 10000,
      "taf_visibility_m": 10000,
      "worst_visibility_m": 10000,
      "ceiling_ft": 1300,
      "hazards": [],
      "severityScore": 12,
      "metarRaw": "METAR LPMA 081730Z 04008KT 9999 BKN013 16/13 Q1033",
      "tafRaw": "TAF LPMA 081700Z 0818/0918 02010KT 9999 SCT015 \n  TEMPO 0818/0912 BKN013",
      "metarHtml": "METAR LPMA 081730Z 04008KT 9999 BKN013 16/13 Q1033",
      "tafHtml": "TAF LPMA 081700Z 0818/0918 02010KT 9999 SCT015 \n  TEMPO 0818/0912 BKN013"
    },
    {
      "icao": "LPPS",
      "iata": "PXO",
      "name": "Porto Santo Airport",
      "updatedAt": "081730Z",
      "visibility_m": 10000,
      "taf_visibility_m": 5000,
      "worst_visibility_m": 5000,
      "ceiling_ft": null,
      "hazards": [
        "RA"
      ],
      "severityScore": 12,
      "metarRaw": "METAR LPPS 081730Z 06007KT 9999 SCT014 SCT030 17/12 Q1033",
      "tafRaw": "TAF LPPS 081700Z 0818/0924 03010KT 9999 SCT015 \n  TEMPO 0818/0924 FEW015 BKN030 \n  PROB30 \n  TEMPO 0818/0910 5000 -RA SCT006 BKN012",
      "metarHtml": "METAR LPPS 081730Z 06007KT 9999 SCT014 SCT030 17/12 Q1033",
      "tafHtml": "TAF LPPS 081700Z 0818/0924 03010KT 9999 SCT015 \n  TEMPO 0818/0924 FEW015 BKN030 \n  PROB30 \n  TEMPO 0818/0910 5000 -<span class=\"hl\">RA</span> SCT006 BKN012"
    },
    {
      "icao": "LYPG",
      "iata": "TGD",
      "name": "Podgorica Airport / Podgorica Golubovci Airbase",
      "updatedAt": "081730Z",
      "visibility_m": 10000,
      "taf_visibility_m": 2000,
      "worst_visibility_m": 2000,
      "ceiling_ft": null,
      "hazards": [
        "RA"
      ],
      "severityScore": 12,
      "metarRaw": "METAR LYPG 081730Z 34015KT 9999 FEW050 03/M10 Q1013 NOSIG",
      "tafRaw": "TAF LYPG 081700Z 0818/0918 36006KT CAVOK TX05/0912Z TNM02/0905Z \n  TEMPO 0818/0820 02016KT \n  PROB30 \n  TEMPO 0909/0912 2000 SNRA \n  BECMG 0911/0913 5000 RA",
      "metarHtml": "METAR LYPG 081730Z 34015KT 9999 FEW050 03/M10 Q1013 NOSIG",
      "tafHtml": "TAF LYPG 081700Z 0818/0918 36006KT <span class=\"hl-vis\">CAVOK</span> TX05/0912Z TNM02/0905Z \n  TEMPO 0818/0820 02016KT \n  PROB30 \n  TEMPO 0909/0912 2000 SNRA \n  BECMG 0911/0913 5000 <span class=\"hl\">RA</span>"
    },
    {
      "icao": "BKPR",
      "iata": "PRN",
      "name": "Priština Adem Jashari International Airport",
      "updatedAt": "081730Z",
      "visibility_m": 10000,
      "taf_visibility_m": 3000,
      "worst_visibility_m": 3000,
      "ceiling_ft": null,
      "hazards": [
        "BR"
      ],
      "severityScore": 10,
      "metarRaw": "METAR BKPR 081730Z 32005KT 9999 FEW090 M06/M08 Q1010 NOSIG",
      "tafRaw": "TAF BKPR 081730Z 0818/0918 VRB05KT 9999 SCT080 \n  TEMPO 0902/0909 3000 BR \n  BECMG 0909/0911 22012KT \n  TEMPO 0911/0917 22015G25KT",
      "metarHtml": "METAR BKPR 081730Z 32005KT 9999 FEW090 M06/M08 Q1010 NOSIG",
      "tafHtml": "TAF BKPR 081730Z 0818/0918 VRB05KT 9999 SCT080 \n  TEMPO 0902/0909 3000 <span class=\"hl\">BR</span> \n  BECMG 0909/0911 22012KT \n  TEMPO 0911/0917 22015G25KT"
    },
    {
      "icao": "GMMX",
      "iata": "RAK",
      "name": "Menara Airport",
      "updatedAt": "081730Z",
      "visibility_m": 10000,
      "taf_visibility_m": 3000,
      "worst_visibility_m": 3000,
      "ceiling_ft": null,
      "hazards": [
        "BR"
      ],
      "severityScore": 10,
      "metarRaw": "METAR GMMX 081730Z 04004KT 360V070 CAVOK 16/05 Q1030 NOSIG",
      "tafRaw": "TAF GMMX 081700Z 0818/0924 06006KT 8000 NSC \n  PROB30 \n  TEMPO 0905/0910 3000 BR BKN006",
      "metarHtml": "METAR GMMX 081730Z 04004KT 360V070 <span class=\"hl-vis\">CAVOK</span> 16/05 Q1030 NOSIG",
      "tafHtml": "TAF GMMX 081700Z 0818/0924 06006KT 8000 NSC \n  PROB30 \n  TEMPO 0905/0910 3000 <span class=\"hl\">BR</span> BKN006"
    },
    {
      "icao": "EGPD",
      "iata": "ABZ",
      "name": "Aberdeen International Airport",
      "updatedAt": "081720Z",
      "visibility_m": 10000,
      "taf_visibility_m": 4000,
      "worst_visibility_m": 4000,
      "ceiling_ft": null,
      "hazards": [
        "BR"
      ],
      "severityScore": 10,
      "metarRaw": "METAR EGPD 081720Z COR VRB01KT CAVOK M03/M04 Q0998 NOSIG",
      "tafRaw": "TAF EGPD 081656Z 0818/0918 VRB03KT 9999 SCT020 \n  PROB30 \n  TEMPO 0818/0820 4000 BR \n  TEMPO 0820/0915 6000 -RADZ BKN014 \n  PROB30 \n  TEMPO 0820/0903 BKN008 \n  PROB40 \n  TEMPO 0903/0910 4000 RADZ BR BKN004 \n  BECMG 0907/0910 12010KT \n  PROB40 \n  TEMPO 0912/0918 4000 RASN BR BKN006",
      "metarHtml": "METAR EGPD 081720Z COR VRB01KT <span class=\"hl-vis\">CAVOK</span> M03/M04 Q0998 NOSIG",
      "tafHtml": "TAF EGPD 081656Z 0818/0918 VRB03KT 9999 SCT020 \n  PROB30 \n  TEMPO 0818/0820 4000 <span class=\"hl\">BR</span> \n  TEMPO 0820/0915 6000 -RADZ BKN014 \n  PROB30 \n  TEMPO 0820/0903 BKN008 \n  PROB40 \n  TEMPO 0903/0910 4000 RADZ <span class=\"hl\">BR</span> BKN004 \n  BECMG 0907/0910 12010KT \n  PROB40 \n  TEMPO 0912/0918 4000 RASN <span class=\"hl\">BR</span> BKN006"
    },
    {
      "icao": "ESSA",
      "iata": "ARN",
      "name": "Stockholm-Arlanda Airport",
      "updatedAt": "081720Z",
      "visibility_m": 10000,
      "taf_visibility_m": 2500,
      "worst_visibility_m": 2500,
      "ceiling_ft": null,
      "hazards": [
        "SHSN"
      ],
      "severityScore": 10,
      "metarRaw": "METAR ESSA 081720Z 15010KT CAVOK M01/M07 Q1015 NOSIG",
      "tafRaw": "TAF ESSA 081730Z 0818/0918 16010KT 9999 BKN040 \n  PROB40 0818/0902 2500 -SHSN BKN013 BKN025TCU \n  PROB40 0907/0909 4000 -SHSN BKN014 BKN030TCU \n  BECMG 0900/0902 10007KT",
      "metarHtml": "METAR ESSA 081720Z 15010KT <span class=\"hl-vis\">CAVOK</span> M01/M07 Q1015 NOSIG",
      "tafHtml": "TAF ESSA 081730Z 0818/0918 16010KT 9999 BKN040 \n  PROB40 0818/0902 2500 -<span class=\"hl\">SHSN</span> BKN013 BKN025TCU \n  PROB40 0907/0909 4000 -<span class=\"hl\">SHSN</span> BKN014 BKN030TCU \n  BECMG 0900/0902 10007KT"
    },
    {
      "icao": "LEZL",
      "iata": "SVQ",
      "name": "Sevilla Airport",
      "updatedAt": "081730Z",
      "visibility_m": 10000,
      "taf_visibility_m": 4000,
      "worst_visibility_m": 4000,
      "ceiling_ft": null,
      "hazards": [
        "BR"
      ],
      "severityScore": 10,
      "metarRaw": "METAR LEZL 081730Z 23004KT CAVOK 11/08 Q1032 NOSIG",
      "tafRaw": "TAF LEZL 081400Z 0815/0915 VRB03KT 9999 SCT020 TX14/0815Z TN09/0907Z \n  PROB30 \n  TEMPO 0900/0906 4000 BR",
      "metarHtml": "METAR LEZL 081730Z 23004KT <span class=\"hl-vis\">CAVOK</span> 11/08 Q1032 NOSIG",
      "tafHtml": "TAF LEZL 081400Z 0815/0915 VRB03KT 9999 SCT020 TX14/0815Z TN09/0907Z \n  PROB30 \n  TEMPO 0900/0906 4000 <span class=\"hl\">BR</span>"
    },
    {
      "icao": "LHDC",
      "iata": "DEB",
      "name": "Debrecen International Airport",
      "updatedAt": "081715Z",
      "visibility_m": 7000,
      "taf_visibility_m": 4000,
      "worst_visibility_m": 4000,
      "ceiling_ft": 7700,
      "hazards": [
        "BR"
      ],
      "severityScore": 10,
      "metarRaw": "METAR LHDC 081715Z AUTO 19005KT 7000 FEW046 SCT060 BKN077 M06/M08 Q1008 NOSIG",
      "tafRaw": "TAF LHDC 081415Z 0815/0824 25005KT 7000 NSC \n  TEMPO 0815/0821 4000 BR",
      "metarHtml": "METAR LHDC 081715Z AUTO 19005KT 7000 FEW046 SCT060 BKN077 M06/M08 Q1008 NOSIG",
      "tafHtml": "TAF LHDC 081415Z 0815/0824 25005KT 7000 NSC \n  TEMPO 0815/0821 4000 <span class=\"hl\">BR</span>"
    },
    {
      "icao": "LPPR",
      "iata": "OPO",
      "name": "Francisco de Sá Carneiro Airport",
      "updatedAt": "081730Z",
      "visibility_m": 10000,
      "taf_visibility_m": 2000,
      "worst_visibility_m": 2000,
      "ceiling_ft": 3000,
      "hazards": [
        "BR"
      ],
      "severityScore": 10,
      "metarRaw": "METAR LPPR 081730Z 21011KT 190V250 9999 FEW006 BKN030 13/12 Q1026",
      "tafRaw": "TAF LPPR 081700Z 0818/0918 22015KT 9999 SCT004 BKN016 \n  TEMPO 0818/0823 2000 DZRA BR SCT002 BKN003 \n  PROB40 \n  TEMPO 0818/0823 23020G30KT \n  BECMG 0823/0901 30010KT SCT015",
      "metarHtml": "METAR LPPR 081730Z 21011KT 190V250 9999 FEW006 BKN030 13/12 Q1026",
      "tafHtml": "TAF LPPR 081700Z 0818/0918 22015KT 9999 SCT004 BKN016 \n  TEMPO 0818/0823 2000 DZRA <span class=\"hl\">BR</span> SCT002 BKN003 \n  PROB40 \n  TEMPO 0818/0823 23020G30KT \n  BECMG 0823/0901 30010KT SCT015"
    },
    {
      "icao": "LZKZ",
      "iata": "KSC",
      "name": "Košice International Airport",
      "updatedAt": "081730Z",
      "visibility_m": 10000,
      "taf_visibility_m": 2000,
      "worst_visibility_m": 2000,
      "ceiling_ft": null,
      "hazards": [
        "BR"
      ],
      "severityScore": 10,
      "metarRaw": "METAR LZKZ 081730Z 33005KT CAVOK M04/M11 Q1006 NOSIG",
      "tafRaw": "TAF LZKZ 081715Z 0818/0918 34007KT CAVOK \n  BECMG 0820/0822 VRB02KT \n  PROB30 \n  TEMPO 0903/0908 2000 BR SCT002 \n  BECMG 0912/0914 BKN020 \n  TEMPO 0914/0918 BKN012",
      "metarHtml": "METAR LZKZ 081730Z 33005KT <span class=\"hl-vis\">CAVOK</span> M04/M11 Q1006 NOSIG",
      "tafHtml": "TAF LZKZ 081715Z 0818/0918 34007KT <span class=\"hl-vis\">CAVOK</span> \n  BECMG 0820/0822 VRB02KT \n  PROB30 \n  TEMPO 0903/0908 2000 <span class=\"hl\">BR</span> SCT002 \n  BECMG 0912/0914 BKN020 \n  TEMPO 0914/0918 BKN012"
    },
    {
      "icao": "OEJN",
      "iata": "JED",
      "name": "King Abdulaziz International Airport",
      "updatedAt": "081700Z",
      "visibility_m": 10000,
      "taf_visibility_m": 2000,
      "worst_visibility_m": 2000,
      "ceiling_ft": null,
      "hazards": [
        "BR"
      ],
      "severityScore": 10,
      "metarRaw": "METAR OEJN 081700Z 26003KT CAVOK 26/19 Q1016 NOSIG",
      "tafRaw": "TAF OEJN 081700Z 0818/0924 VRB03KT 6000 NSC \n  TEMPO 0818/0906 2000 BR \n  BECMG 0908/0910 24010KT 9999 FEW040 \n  BECMG 0918/0920 VRB03KT 6000",
      "metarHtml": "METAR OEJN 081700Z 26003KT <span class=\"hl-vis\">CAVOK</span> 26/19 Q1016 NOSIG",
      "tafHtml": "TAF OEJN 081700Z 0818/0924 VRB03KT 6000 NSC \n  TEMPO 0818/0906 2000 <span class=\"hl\">BR</span> \n  BECMG 0908/0910 24010KT 9999 FEW040 \n  BECMG 0918/0920 VRB03KT 6000"
    },
    {
      "icao": "LECH",
      "iata": "CDT",
      "name": "Castellón-Costa Azahar Airport",
      "updatedAt": "081730Z",
      "visibility_m": 10000,
      "taf_visibility_m": null,
      "worst_visibility_m": 10000,
      "ceiling_ft": null,
      "hazards": [],
      "severityScore": 5,
      "metarRaw": "METAR LECH 081730Z AUTO VRB02KT CAVOK 12/06 Q1021",
      "tafRaw": null,
      "metarHtml": "METAR LECH 081730Z AUTO VRB02KT <span class=\"hl-vis\">CAVOK</span> 12/06 Q1021",
      "tafHtml": null
    },
    {
      "icao": "LEXJ",
      "iata": "SDR",
      "name": "Seve Ballesteros-Santander Airport",
      "updatedAt": "081730Z",
      "visibility_m": 10000,
      "taf_visibility_m": null,
      "worst_visibility_m": 10000,
      "ceiling_ft": null,
      "hazards": [],
      "severityScore": 5,
      "metarRaw": "METAR LEXJ 081730Z 22008KT 190V250 9999 FEW050 14/05 Q1015",
      "tafRaw": null,
      "metarHtml": "METAR LEXJ 081730Z 22008KT 190V250 9999 FEW050 14/05 Q1015",
      "tafHtml": null
    },
    {
      "icao": "LFLS",
      "iata": "GNB",
      "name": "Grenoble Alpes Isère Airport",
      "updatedAt": "081730Z",
      "visibility_m": 10000,
      "taf_visibility_m": null,
      "worst_visibility_m": 10000,
      "ceiling_ft": 4100,
      "hazards": [],
      "severityScore": 5,
      "metarRaw": "METAR LFLS 081730Z AUTO 08009KT 9999 BKN041 OVC052 03/02 Q1013",
      "tafRaw": null,
      "metarHtml": "METAR LFLS 081730Z AUTO 08009KT 9999 BKN041 OVC052 03/02 Q1013",
      "tafHtml": null
    },
    {
      "icao": "LQBK",
      "iata": "BNX",
      "name": "Banja Luka International Airport",
      "updatedAt": "081730Z",
      "visibility_m": 7000,
      "taf_visibility_m": null,
      "worst_visibility_m": 7000,
      "ceiling_ft": null,
      "hazards": [],
      "severityScore": 5,
      "metarRaw": "METAR LQBK 081730Z 14005KT 7000 NSC M06/M07 Q1012 NOSIG",
      "tafRaw": null,
      "metarHtml": "METAR LQBK 081730Z 14005KT 7000 NSC M06/M07 Q1012 NOSIG",
      "tafHtml": null
    },
    {
      "icao": "OJAI",
      "iata": "AMM",
      "name": "Queen Alia International Airport",
      "updatedAt": "081700Z",
      "visibility_m": 3500,
      "taf_visibility_m": null,
      "worst_visibility_m": 3500,
      "ceiling_ft": null,
      "hazards": [],
      "severityScore": 5,
      "metarRaw": "METAR OJAI 081700Z 19002KT 3500 HZ NSC 15/05 Q1019 NOSIG",
      "tafRaw": null,
      "metarHtml": "METAR OJAI 081700Z 19002KT 3500 HZ NSC 15/05 Q1019 NOSIG",
      "tafHtml": null
    },
    {
      "icao": "BIKF",
      "iata": "KEF",
      "name": "Keflavik International Airport",
      "updatedAt": "081730Z",
      "visibility_m": 10000,
      "taf_visibility_m": 10000,
      "worst_visibility_m": 10000,
      "ceiling_ft": null,
      "hazards": [],
      "severityScore": 0,
      "metarRaw": "METAR BIKF 081730Z 03017KT CAVOK 01/M06 Q1001",
      "tafRaw": "TAF BIKF 081632Z 0818/0918 05014KT 9999 FEW045 TX01/0818Z TNM04/0912Z",
      "metarHtml": "METAR BIKF 081730Z 03017KT <span class=\"hl-vis\">CAVOK</span> 01/M06 Q1001",
      "tafHtml": "TAF BIKF 081632Z 0818/0918 05014KT 9999 FEW045 TX01/0818Z TNM04/0912Z"
    },
    {
      "icao": "GCFV",
      "iata": "FUE",
      "name": "Fuerteventura Airport",
      "updatedAt": "081730Z",
      "visibility_m": 10000,
      "taf_visibility_m": 10000,
      "worst_visibility_m": 10000,
      "ceiling_ft": null,
      "hazards": [],
      "severityScore": 0,
      "metarRaw": "METAR GCFV 081730Z 06004KT 030V100 9999 FEW035 18/10 Q1029",
      "tafRaw": "TAF GCFV 081400Z 0815/0915 05011KT 9999 FEW030 TX20/0914Z TN14/0906Z \n  PROB30 \n  TEMPO 0815/0819 14008KT \n  TEMPO 0819/0824 34005KT",
      "metarHtml": "METAR GCFV 081730Z 06004KT 030V100 9999 FEW035 18/10 Q1029",
      "tafHtml": "TAF GCFV 081400Z 0815/0915 05011KT 9999 FEW030 TX20/0914Z TN14/0906Z \n  PROB30 \n  TEMPO 0815/0819 14008KT \n  TEMPO 0819/0824 34005KT"
    },
    {
      "icao": "GCLP",
      "iata": "LPA",
      "name": "Gran Canaria Airport",
      "updatedAt": "081730Z",
      "visibility_m": 10000,
      "taf_visibility_m": 10000,
      "worst_visibility_m": 10000,
      "ceiling_ft": null,
      "hazards": [],
      "severityScore": 0,
      "metarRaw": "METAR GCLP 081730Z 02008KT 9999 FEW035 19/10 Q1029 NOSIG",
      "tafRaw": "TAF GCLP 081400Z 0815/0915 07010KT 9999 BKN035 TX20/0914Z TN14/0906Z \n  BECMG 0819/0821 33008KT \n  BECMG 0909/0911 05012KT",
      "metarHtml": "METAR GCLP 081730Z 02008KT 9999 FEW035 19/10 Q1029 NOSIG",
      "tafHtml": "TAF GCLP 081400Z 0815/0915 07010KT 9999 BKN035 TX20/0914Z TN14/0906Z \n  BECMG 0819/0821 33008KT \n  BECMG 0909/0911 05012KT"
    },
    {
      "icao": "GCTS",
      "iata": "TFS",
      "name": "Tenerife Sur Airport",
      "updatedAt": "081730Z",
      "visibility_m": 10000,
      "taf_visibility_m": 10000,
      "worst_visibility_m": 10000,
      "ceiling_ft": null,
      "hazards": [],
      "severityScore": 0,
      "metarRaw": "METAR GCTS 081730Z 08021KT 9999 FEW030 19/11 Q1029 NOSIG",
      "tafRaw": "TAF GCTS 081400Z 0815/0915 08020KT 9999 SCT035 TX22/0914Z TN15/0906Z \n  PROB30 \n  TEMPO 0815/0818 08020G30KT \n  TEMPO 0901/0911 03010KT",
      "metarHtml": "METAR GCTS 081730Z 08021KT 9999 FEW030 19/11 Q1029 NOSIG",
      "tafHtml": "TAF GCTS 081400Z 0815/0915 08020KT 9999 SCT035 TX22/0914Z TN15/0906Z \n  PROB30 \n  TEMPO 0815/0818 08020G30KT \n  TEMPO 0901/0911 03010KT"
    },
    {
      "icao": "GMAD",
      "iata": "AGA",
      "name": "Al Massira Airport",
      "updatedAt": "081730Z",
      "visibility_m": 10000,
      "taf_visibility_m": 10000,
      "worst_visibility_m": 10000,
      "ceiling_ft": null,
      "hazards": [],
      "severityScore": 0,
      "metarRaw": "METAR GMAD 081730Z 27008KT CAVOK 15/09 Q1029 NOSIG",
      "tafRaw": "TAF GMAD 081700Z 0818/0924 18006KT CAVOK \n  BECMG 0912/0914 28012KT",
      "metarHtml": "METAR GMAD 081730Z 27008KT <span class=\"hl-vis\">CAVOK</span> 15/09 Q1029 NOSIG",
      "tafHtml": "TAF GMAD 081700Z 0818/0924 18006KT <span class=\"hl-vis\">CAVOK</span> \n  BECMG 0912/0914 28012KT"
    },
    {
      "icao": "GMMN",
      "iata": "CMN",
      "name": "Mohammed V International Airport",
      "updatedAt": "081730Z",
      "visibility_m": 10000,
      "taf_visibility_m": 8000,
      "worst_visibility_m": 8000,
      "ceiling_ft": null,
      "hazards": [],
      "severityScore": 0,
      "metarRaw": "METAR GMMN 081730Z 01008KT CAVOK 13/08 Q1031 NOSIG",
      "tafRaw": "TAF GMMN 081700Z 0818/0924 02008KT CAVOK \n  BECMG 0822/0824 16006KT 8000 SCT016 \n  BECMG 0913/0915 36010KT CAVOK",
      "metarHtml": "METAR GMMN 081730Z 01008KT <span class=\"hl-vis\">CAVOK</span> 13/08 Q1031 NOSIG",
      "tafHtml": "TAF GMMN 081700Z 0818/0924 02008KT <span class=\"hl-vis\">CAVOK</span> \n  BECMG 0822/0824 16006KT 8000 SCT016 \n  BECMG 0913/0915 36010KT <span class=\"hl-vis\">CAVOK</span>"
    },
    {
      "icao": "EFTU",
      "iata": "TKU",
      "name": "Turku Airport",
      "updatedAt": "081720Z",
      "visibility_m": 10000,
      "taf_visibility_m": 6000,
      "worst_visibility_m": 6000,
      "ceiling_ft": 2700,
      "hazards": [],
      "severityScore": 0,
      "metarRaw": "METAR EFTU 081720Z AUTO 10009KT 9999 BKN027 M12/M15 Q1021",
      "tafRaw": "TAF EFTU 081429Z 0815/0915 09007KT 9999 BKN023 \n  PROB30 0903/0908 6000 BKN006",
      "metarHtml": "METAR EFTU 081720Z AUTO 10009KT 9999 BKN027 M12/M15 Q1021",
      "tafHtml": "TAF EFTU 081429Z 0815/0915 09007KT 9999 BKN023 \n  PROB30 0903/0908 6000 BKN006"
    },
    {
      "icao": "EKCH",
      "iata": "CPH",
      "name": "Copenhagen Kastrup Airport",
      "updatedAt": "081720Z",
      "visibility_m": 10000,
      "taf_visibility_m": 10000,
      "worst_visibility_m": 10000,
      "ceiling_ft": null,
      "hazards": [],
      "severityScore": 0,
      "metarRaw": "METAR EKCH 081720Z AUTO 11014KT 9999 BKN023/// M01/M05 Q1010 NOSIG",
      "tafRaw": "TAF EKCH 081727Z 0818/0918 12015KT 9999 BKN020 \n  TEMPO 0903/0908 10018G28KT \n  TEMPO 0912/0918 09020G30KT",
      "metarHtml": "METAR EKCH 081720Z AUTO 11014KT 9999 BKN023/// M01/M05 Q1010 NOSIG",
      "tafHtml": "TAF EKCH 081727Z 0818/0918 12015KT 9999 BKN020 \n  TEMPO 0903/0908 10018G28KT \n  TEMPO 0912/0918 09020G30KT"
    },
    {
      "icao": "ENBR",
      "iata": "BGO",
      "name": "Bergen Airport, Flesland",
      "updatedAt": "081720Z",
      "visibility_m": 10000,
      "taf_visibility_m": 10000,
      "worst_visibility_m": 10000,
      "ceiling_ft": null,
      "hazards": [],
      "severityScore": 0,
      "metarRaw": "METAR ENBR 081720Z VRB02KT CAVOK M09/M16 Q1005 NOSIG RMK WIND 1200FT 11015KT",
      "tafRaw": "TAF ENBR 081700Z 0818/0918 08005KT CAVOK",
      "metarHtml": "METAR ENBR 081720Z VRB02KT <span class=\"hl-vis\">CAVOK</span> M09/M16 Q1005 NOSIG RMK WIND 1200FT 11015KT",
      "tafHtml": "TAF ENBR 081700Z 0818/0918 08005KT <span class=\"hl-vis\">CAVOK</span>"
    },
    {
      "icao": "ENHD",
      "iata": "HAU",
      "name": "Haugesund Airport, Karmøy",
      "updatedAt": "081720Z",
      "visibility_m": 10000,
      "taf_visibility_m": 10000,
      "worst_visibility_m": 10000,
      "ceiling_ft": null,
      "hazards": [],
      "severityScore": 0,
      "metarRaw": "METAR ENHD 081720Z 09010KT CAVOK M05/M11 Q1005",
      "tafRaw": "TAF ENHD 081400Z 0815/0823 09007KT CAVOK \n  BECMG 0821/0823 13017KT",
      "metarHtml": "METAR ENHD 081720Z 09010KT <span class=\"hl-vis\">CAVOK</span> M05/M11 Q1005",
      "tafHtml": "TAF ENHD 081400Z 0815/0823 09007KT <span class=\"hl-vis\">CAVOK</span> \n  BECMG 0821/0823 13017KT"
    },
    {
      "icao": "ENTC",
      "iata": "TOS",
      "name": "Tromsø Airport, Langnes",
      "updatedAt": "081720Z",
      "visibility_m": 10000,
      "taf_visibility_m": 10000,
      "worst_visibility_m": 10000,
      "ceiling_ft": null,
      "hazards": [],
      "severityScore": 0,
      "metarRaw": "METAR ENTC 081720Z VRB03KT CAVOK M10/M15 Q1023 NOSIG RMK WIND 2600FT 17024KT",
      "tafRaw": "TAF ENTC 081700Z 0818/0918 VRB03KT CAVOK \n  TEMPO 0818/0918 18012KT",
      "metarHtml": "METAR ENTC 081720Z VRB03KT <span class=\"hl-vis\">CAVOK</span> M10/M15 Q1023 NOSIG RMK WIND 2600FT 17024KT",
      "tafHtml": "TAF ENTC 081700Z 0818/0918 VRB03KT <span class=\"hl-vis\">CAVOK</span> \n  TEMPO 0818/0918 18012KT"
    },
    {
      "icao": "ENZV",
      "iata": "SVG",
      "name": "Stavanger Airport, Sola",
      "updatedAt": "081720Z",
      "visibility_m": 10000,
      "taf_visibility_m": 10000,
      "worst_visibility_m": 10000,
      "ceiling_ft": null,
      "hazards": [],
      "severityScore": 0,
      "metarRaw": "METAR ENZV 081720Z 15002KT CAVOK M06/M11 Q1005 NOSIG",
      "tafRaw": "TAF ENZV 081700Z 0818/0918 10008KT CAVOK \n  TEMPO 0819/0916 12015G25KT",
      "metarHtml": "METAR ENZV 081720Z 15002KT <span class=\"hl-vis\">CAVOK</span> M06/M11 Q1005 NOSIG",
      "tafHtml": "TAF ENZV 081700Z 0818/0918 10008KT <span class=\"hl-vis\">CAVOK</span> \n  TEMPO 0819/0916 12015G25KT"
    },
    {
      "icao": "ESGG",
      "iata": "GOT",
      "name": "Göteborg Landvetter Airport",
      "updatedAt": "081720Z",
      "visibility_m": 10000,
      "taf_visibility_m": 10000,
      "worst_visibility_m": 10000,
      "ceiling_ft": 3200,
      "hazards": [],
      "severityScore": 0,
      "metarRaw": "METAR ESGG 081720Z 14008KT 9999 SCT024 BKN032 M04/M06 Q1010",
      "tafRaw": "TAF ESGG 081730Z 0818/0918 13007KT 9999 SCT025 BKN030 \n  PROB40 0818/0819 BKN014 \n  PROB40 0909/0913 BKN012",
      "metarHtml": "METAR ESGG 081720Z 14008KT 9999 SCT024 BKN032 M04/M06 Q1010",
      "tafHtml": "TAF ESGG 081730Z 0818/0918 13007KT 9999 SCT025 BKN030 \n  PROB40 0818/0819 BKN014 \n  PROB40 0909/0913 BKN012"
    },
    {
      "icao": "ESMS",
      "iata": "MMX",
      "name": "Malmö Sturup Airport",
      "updatedAt": "081720Z",
      "visibility_m": 10000,
      "taf_visibility_m": 10000,
      "worst_visibility_m": 10000,
      "ceiling_ft": 2000,
      "hazards": [],
      "severityScore": 0,
      "metarRaw": "METAR ESMS 081720Z 12009KT 9999 OVC020 M02/M06 Q1010",
      "tafRaw": "TAF ESMS 081727Z 0818/0918 16010KT 9999 BKN020 \n  BECMG 0821/0824 10010KT \n  TEMPO 0912/0918 09015G30KT",
      "metarHtml": "METAR ESMS 081720Z 12009KT 9999 OVC020 M02/M06 Q1010",
      "tafHtml": "TAF ESMS 081727Z 0818/0918 16010KT 9999 BKN020 \n  BECMG 0821/0824 10010KT \n  TEMPO 0912/0918 09015G30KT"
    },
    {
      "icao": "HEGN",
      "iata": "HRG",
      "name": "Hurghada International Airport",
      "updatedAt": "081700Z",
      "visibility_m": 10000,
      "taf_visibility_m": 3000,
      "worst_visibility_m": 3000,
      "ceiling_ft": null,
      "hazards": [],
      "severityScore": 0,
      "metarRaw": "METAR HEGN 081700Z 19003KT CAVOK 22/15 Q1016 NOSIG",
      "tafRaw": "TAF HEGN 081700Z 0818/0924 24008KT CAVOK \n  BECMG 0906/0908 35015G30KT \n  TEMPO 0907/0918 3000 SA NSC",
      "metarHtml": "METAR HEGN 081700Z 19003KT <span class=\"hl-vis\">CAVOK</span> 22/15 Q1016 NOSIG",
      "tafHtml": "TAF HEGN 081700Z 0818/0924 24008KT <span class=\"hl-vis\">CAVOK</span> \n  BECMG 0906/0908 35015G30KT \n  TEMPO 0907/0918 3000 SA NSC"
    },
    {
      "icao": "HEMA",
      "iata": "RMF",
      "name": "Marsa Alam International Airport",
      "updatedAt": "081700Z",
      "visibility_m": 6000,
      "taf_visibility_m": 4000,
      "worst_visibility_m": 4000,
      "ceiling_ft": null,
      "hazards": [],
      "severityScore": 0,
      "metarRaw": "METAR HEMA 081700Z 36005KT 6000 NSC 23/18 Q1016 NOSIG",
      "tafRaw": "TAF HEMA 081700Z 0818/0924 30009KT 6000 NSC \n  TEMPO 0818/0906 4000 HZ",
      "metarHtml": "METAR HEMA 081700Z 36005KT 6000 NSC 23/18 Q1016 NOSIG",
      "tafHtml": "TAF HEMA 081700Z 0818/0924 30009KT 6000 NSC \n  TEMPO 0818/0906 4000 HZ"
    },
    {
      "icao": "HESH",
      "iata": "SSH",
      "name": "Sharm El Sheikh International Airport",
      "updatedAt": "081700Z",
      "visibility_m": 10000,
      "taf_visibility_m": 3000,
      "worst_visibility_m": 3000,
      "ceiling_ft": null,
      "hazards": [],
      "severityScore": 0,
      "metarRaw": "METAR HESH 081700Z 00000KT CAVOK 25/12 Q1017 NOSIG",
      "tafRaw": "TAF HESH 081700Z 0818/0924 27007KT CAVOK \n  BECMG 0906/0908 36010G22KT \n  TEMPO 0907/0918 3000 SA NSC",
      "metarHtml": "METAR HESH 081700Z 00000KT <span class=\"hl-vis\">CAVOK</span> 25/12 Q1017 NOSIG",
      "tafHtml": "TAF HESH 081700Z 0818/0924 27007KT <span class=\"hl-vis\">CAVOK</span> \n  BECMG 0906/0908 36010G22KT \n  TEMPO 0907/0918 3000 SA NSC"
    },
    {
      "icao": "LATI",
      "iata": "TIA",
      "name": "Tirana International Airport Mother Teresa",
      "updatedAt": "081720Z",
      "visibility_m": 10000,
      "taf_visibility_m": 10000,
      "worst_visibility_m": 10000,
      "ceiling_ft": 6400,
      "hazards": [],
      "severityScore": 0,
      "metarRaw": "METAR LATI 081720Z 06003KT 030V100 9999 SCT043 BKN064 06/01 Q1012 NOSIG",
      "tafRaw": "TAF LATI 081700Z 0818/0918 VRB05KT 9999 SCT050 BKN070 TX11/0918Z TN01/0902Z \n  BECMG 0908/0910 15010KT",
      "metarHtml": "METAR LATI 081720Z 06003KT 030V100 9999 SCT043 BKN064 06/01 Q1012 NOSIG",
      "tafHtml": "TAF LATI 081700Z 0818/0918 VRB05KT 9999 SCT050 BKN070 TX11/0918Z TN01/0902Z \n  BECMG 0908/0910 15010KT"
    },
    {
      "icao": "LBPD",
      "iata": "PDV",
      "name": "Plovdiv International Airport",
      "updatedAt": "081730Z",
      "visibility_m": 10000,
      "taf_visibility_m": 10000,
      "worst_visibility_m": 10000,
      "ceiling_ft": null,
      "hazards": [],
      "severityScore": 0,
      "metarRaw": "METAR LBPD 081730Z AUTO 29023KT 9999 BKN076/// 00/M06 Q1005 NOSIG",
      "tafRaw": "TAF LBPD 081700Z 0818/0918 29020G30KT 9999 SCT050 \n  BECMG 0904/0906 29010KT \n  BECMG 0910/0912 VRB03KT",
      "metarHtml": "METAR LBPD 081730Z AUTO 29023KT 9999 BKN076/// 00/M06 Q1005 NOSIG",
      "tafHtml": "TAF LBPD 081700Z 0818/0918 29020G30KT 9999 SCT050 \n  BECMG 0904/0906 29010KT \n  BECMG 0910/0912 VRB03KT"
    },
    {
      "icao": "LEAL",
      "iata": "ALC",
      "name": "Alicante-Elche Miguel Hernández Airport",
      "updatedAt": "081730Z",
      "visibility_m": 10000,
      "taf_visibility_m": 10000,
      "worst_visibility_m": 10000,
      "ceiling_ft": null,
      "hazards": [],
      "severityScore": 0,
      "metarRaw": "METAR LEAL 081730Z 30005KT CAVOK 13/04 Q1025 NOSIG",
      "tafRaw": "TAF LEAL 081700Z 0818/0918 27015KT CAVOK TX18/0914Z TN10/0906Z \n  TEMPO 0818/0820 24005KT \n  TEMPO 0822/0904 27020G30KT \n  PROB30 \n  TEMPO 0904/0910 24005KT \n  TEMPO 0912/0916 28015G25KT",
      "metarHtml": "METAR LEAL 081730Z 30005KT <span class=\"hl-vis\">CAVOK</span> 13/04 Q1025 NOSIG",
      "tafHtml": "TAF LEAL 081700Z 0818/0918 27015KT <span class=\"hl-vis\">CAVOK</span> TX18/0914Z TN10/0906Z \n  TEMPO 0818/0820 24005KT \n  TEMPO 0822/0904 27020G30KT \n  PROB30 \n  TEMPO 0904/0910 24005KT \n  TEMPO 0912/0916 28015G25KT"
    },
    {
      "icao": "LEBL",
      "iata": "BCN",
      "name": "Josep Tarradellas Barcelona-El Prat Airport",
      "updatedAt": "081730Z",
      "visibility_m": 10000,
      "taf_visibility_m": 10000,
      "worst_visibility_m": 10000,
      "ceiling_ft": null,
      "hazards": [],
      "severityScore": 0,
      "metarRaw": "METAR LEBL 081730Z 01003KT 9999 FEW020 SCT060 13/07 Q1019 NOSIG",
      "tafRaw": "TAF LEBL 081700Z 0818/0918 33009KT 9999 FEW020 TX16/0913Z TN09/0906Z \n  BECMG 0818/0819 25009KT \n  BECMG 0902/0905 33006KT \n  BECMG 0908/0910 27010KT \n  TEMPO 0911/0918 27018G32KT",
      "metarHtml": "METAR LEBL 081730Z 01003KT 9999 FEW020 SCT060 13/07 Q1019 NOSIG",
      "tafHtml": "TAF LEBL 081700Z 0818/0918 33009KT 9999 FEW020 TX16/0913Z TN09/0906Z \n  BECMG 0818/0819 25009KT \n  BECMG 0902/0905 33006KT \n  BECMG 0908/0910 27010KT \n  TEMPO 0911/0918 27018G32KT"
    },
    {
      "icao": "LEMG",
      "iata": "AGP",
      "name": "Málaga-Costa del Sol Airport",
      "updatedAt": "081730Z",
      "visibility_m": 10000,
      "taf_visibility_m": 10000,
      "worst_visibility_m": 10000,
      "ceiling_ft": null,
      "hazards": [],
      "severityScore": 0,
      "metarRaw": "METAR LEMG 081730Z 27011KT CAVOK 14/06 Q1029 NOSIG",
      "tafRaw": "TAF LEMG 081700Z 0818/0918 29012KT CAVOK TX18/0914Z TN08/0906Z \n  PROB40 \n  TEMPO 0822/0906 29015G25KT",
      "metarHtml": "METAR LEMG 081730Z 27011KT <span class=\"hl-vis\">CAVOK</span> 14/06 Q1029 NOSIG",
      "tafHtml": "TAF LEMG 081700Z 0818/0918 29012KT <span class=\"hl-vis\">CAVOK</span> TX18/0914Z TN08/0906Z \n  PROB40 \n  TEMPO 0822/0906 29015G25KT"
    },
    {
      "icao": "LEVC",
      "iata": "VLC",
      "name": "Valencia Airport",
      "updatedAt": "081730Z",
      "visibility_m": 10000,
      "taf_visibility_m": 10000,
      "worst_visibility_m": 10000,
      "ceiling_ft": null,
      "hazards": [],
      "severityScore": 0,
      "metarRaw": "METAR LEVC 081730Z 21011KT 170V240 CAVOK 11/03 Q1023 NOSIG",
      "tafRaw": "TAF LEVC 081700Z 0818/0918 26015KT CAVOK TX18/0914Z TN09/0906Z \n  TEMPO 0823/0904 27018G28KT \n  PROB30 \n  TEMPO 0900/0903 27030G40KT \n  TEMPO 0902/0909 VRB04KT \n  TEMPO 0909/0916 27020G30KT \n  PROB30 \n  TEMPO 0909/0913 27030G40KT",
      "metarHtml": "METAR LEVC 081730Z 21011KT 170V240 <span class=\"hl-vis\">CAVOK</span> 11/03 Q1023 NOSIG",
      "tafHtml": "TAF LEVC 081700Z 0818/0918 26015KT <span class=\"hl-vis\">CAVOK</span> TX18/0914Z TN09/0906Z \n  TEMPO 0823/0904 27018G28KT \n  PROB30 \n  TEMPO 0900/0903 27030G40KT \n  TEMPO 0902/0909 VRB04KT \n  TEMPO 0909/0916 27020G30KT \n  PROB30 \n  TEMPO 0909/0913 27030G40KT"
    },
    {
      "icao": "LFMN",
      "iata": "NCE",
      "name": "Nice-Côte d'Azur Airport",
      "updatedAt": "081730Z",
      "visibility_m": 10000,
      "taf_visibility_m": 10000,
      "worst_visibility_m": 10000,
      "ceiling_ft": 26000,
      "hazards": [],
      "severityScore": 0,
      "metarRaw": "METAR LFMN 081730Z 10007KT 9999 FEW050 BKN260 11/05 Q1012 NOSIG",
      "tafRaw": "TAF LFMN 081400Z 0815/0921 08010KT 9999 FEW050 \n  BECMG 0816/0818 33010KT \n  TEMPO 0820/0823 24015KT \n  BECMG 0823/0901 24020KT \n  TEMPO 0906/0912 24025G35KT \n  PROB40 \n  TEMPO 0918/0921 30012KT",
      "metarHtml": "METAR LFMN 081730Z 10007KT 9999 FEW050 BKN260 11/05 Q1012 NOSIG",
      "tafHtml": "TAF LFMN 081400Z 0815/0921 08010KT 9999 FEW050 \n  BECMG 0816/0818 33010KT \n  TEMPO 0820/0823 24015KT \n  BECMG 0823/0901 24020KT \n  TEMPO 0906/0912 24025G35KT \n  PROB40 \n  TEMPO 0918/0921 30012KT"
    },
    {
      "icao": "LGAV",
      "iata": "ATH",
      "name": "Athens Eleftherios Venizelos International Airport",
      "updatedAt": "081720Z",
      "visibility_m": 10000,
      "taf_visibility_m": 10000,
      "worst_visibility_m": 10000,
      "ceiling_ft": null,
      "hazards": [],
      "severityScore": 0,
      "metarRaw": "METAR LGAV 081720Z 30013KT 9999 FEW025 11/M01 Q1010 NOSIG",
      "tafRaw": "TAF LGAV 081700Z 0818/0918 28020KT 9999 FEW025 \n  TEMPO 0818/0824 28020G30KT \n  BECMG 0902/0904 28012KT \n  BECMG 0909/0911 22010KT",
      "metarHtml": "METAR LGAV 081720Z 30013KT 9999 FEW025 11/M01 Q1010 NOSIG",
      "tafHtml": "TAF LGAV 081700Z 0818/0918 28020KT 9999 FEW025 \n  TEMPO 0818/0824 28020G30KT \n  BECMG 0902/0904 28012KT \n  BECMG 0909/0911 22010KT"
    },
    {
      "icao": "LGTS",
      "iata": "SKG",
      "name": "Thessaloniki Macedonia International Airport",
      "updatedAt": "081720Z",
      "visibility_m": 10000,
      "taf_visibility_m": 10000,
      "worst_visibility_m": 10000,
      "ceiling_ft": null,
      "hazards": [],
      "severityScore": 0,
      "metarRaw": "METAR LGTS 081720Z 33017G27KT 9999 FEW025 06/M03 Q1008 NOSIG",
      "tafRaw": "TAF LGTS 081700Z 0818/0918 31015KT 9999 FEW025 \n  TEMPO 0818/0903 31015G25KT \n  BECMG 0907/0909 VRB03KT",
      "metarHtml": "METAR LGTS 081720Z 33017G27KT 9999 FEW025 06/M03 Q1008 NOSIG",
      "tafHtml": "TAF LGTS 081700Z 0818/0918 31015KT 9999 FEW025 \n  TEMPO 0818/0903 31015G25KT \n  BECMG 0907/0909 VRB03KT"
    },
    {
      "icao": "LIBD",
      "iata": "BRI",
      "name": "Bari Karol Wojtyła International Airport",
      "updatedAt": "081720Z",
      "visibility_m": 10000,
      "taf_visibility_m": 10000,
      "worst_visibility_m": 10000,
      "ceiling_ft": null,
      "hazards": [],
      "severityScore": 0,
      "metarRaw": "METAR LIBD 081720Z 25010KT 9999 FEW030 04/M01 Q1016",
      "tafRaw": "TAF LIBD 081700Z 0818/0918 28012KT 9999 FEW020 \n  BECMG 0818/0820 17008KT \n  BECMG 0908/0910 23013KT \n  TEMPO 0910/0915 23015G25KT",
      "metarHtml": "METAR LIBD 081720Z 25010KT 9999 FEW030 04/M01 Q1016",
      "tafHtml": "TAF LIBD 081700Z 0818/0918 28012KT 9999 FEW020 \n  BECMG 0818/0820 17008KT \n  BECMG 0908/0910 23013KT \n  TEMPO 0910/0915 23015G25KT"
    },
    {
      "icao": "LIBG",
      "iata": "TAR",
      "name": "Taranto-Grottaglie Marcello Arlotta Airport",
      "updatedAt": "081650Z",
      "visibility_m": 10000,
      "taf_visibility_m": 10000,
      "worst_visibility_m": 10000,
      "ceiling_ft": null,
      "hazards": [],
      "severityScore": 0,
      "metarRaw": "METAR LIBG 081650Z 25003KT 210V270 CAVOK 06/01 Q1016",
      "tafRaw": "TAF LIBG 081700Z 0818/0903 32008KT 9999 FEW040",
      "metarHtml": "METAR LIBG 081650Z 25003KT 210V270 <span class=\"hl-vis\">CAVOK</span> 06/01 Q1016",
      "tafHtml": "TAF LIBG 081700Z 0818/0903 32008KT 9999 FEW040"
    },
    {
      "icao": "LIBP",
      "iata": "PSR",
      "name": "Abruzzo Airport",
      "updatedAt": "081720Z",
      "visibility_m": 10000,
      "taf_visibility_m": 10000,
      "worst_visibility_m": 10000,
      "ceiling_ft": null,
      "hazards": [],
      "severityScore": 0,
      "metarRaw": "METAR LIBP 081720Z AUTO VRB01KT 9999 NCD 04/M03 Q1014",
      "tafRaw": "TAF LIBP 081700Z 0818/0918 VRB05KT 9999 FEW030 \n  BECMG 0904/0906 24010KT \n  TEMPO 0910/0918 24015G30KT",
      "metarHtml": "METAR LIBP 081720Z AUTO VRB01KT 9999 NCD 04/M03 Q1014",
      "tafHtml": "TAF LIBP 081700Z 0818/0918 VRB05KT 9999 FEW030 \n  BECMG 0904/0906 24010KT \n  TEMPO 0910/0918 24015G30KT"
    },
    {
      "icao": "LIBR",
      "iata": "BDS",
      "name": "Brindisi Airport",
      "updatedAt": "081720Z",
      "visibility_m": 10000,
      "taf_visibility_m": 10000,
      "worst_visibility_m": 10000,
      "ceiling_ft": null,
      "hazards": [],
      "severityScore": 0,
      "metarRaw": "METAR LIBR 081720Z 33020KT CAVOK 09/M03 Q1015",
      "tafRaw": "TAF LIBR 081700Z 0818/0918 30018KT 9999 FEW040 \n  BECMG 0822/0824 16008KT \n  BECMG 0910/0912 22013KT",
      "metarHtml": "METAR LIBR 081720Z 33020KT <span class=\"hl-vis\">CAVOK</span> 09/M03 Q1015",
      "tafHtml": "TAF LIBR 081700Z 0818/0918 30018KT 9999 FEW040 \n  BECMG 0822/0824 16008KT \n  BECMG 0910/0912 22013KT"
    },
    {
      "icao": "LICC",
      "iata": "CTA",
      "name": "Catania-Fontanarossa Airport",
      "updatedAt": "081720Z",
      "visibility_m": 10000,
      "taf_visibility_m": 10000,
      "worst_visibility_m": 10000,
      "ceiling_ft": null,
      "hazards": [],
      "severityScore": 0,
      "metarRaw": "METAR LICC 081720Z 26013KT 9999 FEW050 13/08 Q1018",
      "tafRaw": "TAF LICC 081700Z 0818/0918 28020G30KT 9999 SCT040",
      "metarHtml": "METAR LICC 081720Z 26013KT 9999 FEW050 13/08 Q1018",
      "tafHtml": "TAF LICC 081700Z 0818/0918 28020G30KT 9999 SCT040"
    },
    {
      "icao": "LIMF",
      "iata": "TRN",
      "name": "Turin Airport",
      "updatedAt": "081720Z",
      "visibility_m": 8000,
      "taf_visibility_m": 9000,
      "worst_visibility_m": 8000,
      "ceiling_ft": null,
      "hazards": [],
      "severityScore": 0,
      "metarRaw": "METAR LIMF 081720Z 21003KT 180V250 8000 NSC 03/M07 Q1011",
      "tafRaw": "TAF LIMF 081700Z 0818/0918 VRB03KT 9000 FEW050",
      "metarHtml": "METAR LIMF 081720Z 21003KT 180V250 8000 NSC 03/M07 Q1011",
      "tafHtml": "TAF LIMF 081700Z 0818/0918 VRB03KT 9000 FEW050"
    },
    {
      "icao": "LIMJ",
      "iata": "GOA",
      "name": "Genoa Cristoforo Colombo Airport",
      "updatedAt": "081720Z",
      "visibility_m": 10000,
      "taf_visibility_m": 10000,
      "worst_visibility_m": 10000,
      "ceiling_ft": 3000,
      "hazards": [],
      "severityScore": 0,
      "metarRaw": "METAR LIMJ 081720Z 13008KT 9999 BKN030 11/04 Q1012",
      "tafRaw": "TAF LIMJ 081700Z 0818/0918 14010KT 9999 BKN030 \n  BECMG 0906/0908 03008KT",
      "metarHtml": "METAR LIMJ 081720Z 13008KT 9999 BKN030 11/04 Q1012",
      "tafHtml": "TAF LIMJ 081700Z 0818/0918 14010KT 9999 BKN030 \n  BECMG 0906/0908 03008KT"
    },
    {
      "icao": "LIPE",
      "iata": "BLQ",
      "name": "Bologna Guglielmo Marconi Airport",
      "updatedAt": "081720Z",
      "visibility_m": 10000,
      "taf_visibility_m": 10000,
      "worst_visibility_m": 10000,
      "ceiling_ft": null,
      "hazards": [],
      "severityScore": 0,
      "metarRaw": "METAR LIPE 081720Z VRB02KT CAVOK M01/M04 Q1012",
      "tafRaw": "TAF LIPE 081700Z 0818/0918 VRB05KT CAVOK",
      "metarHtml": "METAR LIPE 081720Z VRB02KT <span class=\"hl-vis\">CAVOK</span> M01/M04 Q1012",
      "tafHtml": "TAF LIPE 081700Z 0818/0918 VRB05KT <span class=\"hl-vis\">CAVOK</span>"
    },
    {
      "icao": "LIPH",
      "iata": "TSF",
      "name": "Treviso Antonio Canova Airport",
      "updatedAt": "081720Z",
      "visibility_m": 10000,
      "taf_visibility_m": 10000,
      "worst_visibility_m": 10000,
      "ceiling_ft": null,
      "hazards": [],
      "severityScore": 0,
      "metarRaw": "METAR LIPH 081720Z VRB01KT CAVOK M01/M06 Q1013",
      "tafRaw": "TAF LIPH 081700Z 0818/0918 VRB05KT CAVOK",
      "metarHtml": "METAR LIPH 081720Z VRB01KT <span class=\"hl-vis\">CAVOK</span> M01/M06 Q1013",
      "tafHtml": "TAF LIPH 081700Z 0818/0918 VRB05KT <span class=\"hl-vis\">CAVOK</span>"
    },
    {
      "icao": "LIPR",
      "iata": "RMI",
      "name": "Federico Fellini International Airport",
      "updatedAt": "081720Z",
      "visibility_m": 10000,
      "taf_visibility_m": 10000,
      "worst_visibility_m": 10000,
      "ceiling_ft": null,
      "hazards": [],
      "severityScore": 0,
      "metarRaw": "METAR LIPR 081720Z 14003KT 120V190 CAVOK 00/M02 Q1012",
      "tafRaw": "TAF LIPR 081700Z 0818/0918 VRB05KT CAVOK \n  BECMG 0908/0910 29010KT",
      "metarHtml": "METAR LIPR 081720Z 14003KT 120V190 <span class=\"hl-vis\">CAVOK</span> 00/M02 Q1012",
      "tafHtml": "TAF LIPR 081700Z 0818/0918 VRB05KT <span class=\"hl-vis\">CAVOK</span> \n  BECMG 0908/0910 29010KT"
    },
    {
      "icao": "LIPY",
      "iata": "AOI",
      "name": "Marche Airport",
      "updatedAt": "081720Z",
      "visibility_m": 10000,
      "taf_visibility_m": 10000,
      "worst_visibility_m": 10000,
      "ceiling_ft": null,
      "hazards": [],
      "severityScore": 0,
      "metarRaw": "METAR LIPY 081720Z AUTO 17004KT 9999 SCT047/// 04/M00 Q1013",
      "tafRaw": "TAF LIPY 081700Z 0818/0918 VRB05KT 9999 SCT030 \n  BECMG 0911/0913 24010KT \n  TEMPO 0915/0918 24015G25KT",
      "metarHtml": "METAR LIPY 081720Z AUTO 17004KT 9999 SCT047/// 04/M00 Q1013",
      "tafHtml": "TAF LIPY 081700Z 0818/0918 VRB05KT 9999 SCT030 \n  BECMG 0911/0913 24010KT \n  TEMPO 0915/0918 24015G25KT"
    },
    {
      "icao": "LIPZ",
      "iata": "VCE",
      "name": "Venice Marco Polo Airport",
      "updatedAt": "081720Z",
      "visibility_m": 10000,
      "taf_visibility_m": 10000,
      "worst_visibility_m": 10000,
      "ceiling_ft": null,
      "hazards": [],
      "severityScore": 0,
      "metarRaw": "METAR LIPZ 081720Z 26005KT CAVOK M00/M02 Q1013 NOSIG",
      "tafRaw": "TAF LIPZ 081700Z 0818/0924 VRB05KT CAVOK",
      "metarHtml": "METAR LIPZ 081720Z 26005KT <span class=\"hl-vis\">CAVOK</span> M00/M02 Q1013 NOSIG",
      "tafHtml": "TAF LIPZ 081700Z 0818/0924 VRB05KT <span class=\"hl-vis\">CAVOK</span>"
    },
    {
      "icao": "LRCV",
      "iata": "CRA",
      "name": "Craiova International Airport",
      "updatedAt": "081730Z",
      "visibility_m": 10000,
      "taf_visibility_m": 10000,
      "worst_visibility_m": 10000,
      "ceiling_ft": null,
      "hazards": [],
      "severityScore": 0,
      "metarRaw": "METAR LRCV 081730Z 28024KT CAVOK M05/M08 Q1004",
      "tafRaw": "TAF LRCV 081700Z 0818/0903 27018KT CAVOK \n  TEMPO 0818/0822 27020G35KT",
      "metarHtml": "METAR LRCV 081730Z 28024KT <span class=\"hl-vis\">CAVOK</span> M05/M08 Q1004",
      "tafHtml": "TAF LRCV 081700Z 0818/0903 27018KT <span class=\"hl-vis\">CAVOK</span> \n  TEMPO 0818/0822 27020G35KT"
    },
    {
      "icao": "LRSV",
      "iata": "SCV",
      "name": "Suceava Stefan cel Mare Airport",
      "updatedAt": "081730Z",
      "visibility_m": 10000,
      "taf_visibility_m": 10000,
      "worst_visibility_m": 10000,
      "ceiling_ft": 3100,
      "hazards": [],
      "severityScore": 0,
      "metarRaw": "METAR LRSV 081730Z COR 32021G32KT 9999 DRSN BKN031 M05/M09 Q0996",
      "tafRaw": "TAF LRSV 081700Z 0818/0903 32020KT 9999 DRSN BKN045 \n  TEMPO 0818/0822 32020G30KT \n  BECMG 0900/0902 30010KT NSW",
      "metarHtml": "METAR LRSV 081730Z COR 32021G32KT 9999 DRSN BKN031 M05/M09 Q0996",
      "tafHtml": "TAF LRSV 081700Z 0818/0903 32020KT 9999 DRSN BKN045 \n  TEMPO 0818/0822 32020G30KT \n  BECMG 0900/0902 30010KT NSW"
    },
    {
      "icao": "LWSK",
      "iata": "SKP",
      "name": "Skopje International Airport",
      "updatedAt": "081720Z",
      "visibility_m": 10000,
      "taf_visibility_m": 10000,
      "worst_visibility_m": 10000,
      "ceiling_ft": null,
      "hazards": [],
      "severityScore": 0,
      "metarRaw": "METAR LWSK 081720Z 02010KT 9999 FEW033 SCT060 M00/M05 Q1011 NOSIG",
      "tafRaw": "TAF LWSK 081420Z 0815/0915 02012KT 9999 SCT030 BKN060 \n  TEMPO 0815/0818 36015G25KT \n  BECMG 0818/0820 CAVOK",
      "metarHtml": "METAR LWSK 081720Z 02010KT 9999 FEW033 SCT060 M00/M05 Q1011 NOSIG",
      "tafHtml": "TAF LWSK 081420Z 0815/0915 02012KT 9999 SCT030 BKN060 \n  TEMPO 0815/0818 36015G25KT \n  BECMG 0818/0820 <span class=\"hl-vis\">CAVOK</span>"
    },
    {
      "icao": "OEMA",
      "iata": "MED",
      "name": "Prince Mohammad Bin Abdulaziz Airport",
      "updatedAt": "081700Z",
      "visibility_m": 10000,
      "taf_visibility_m": 7000,
      "worst_visibility_m": 7000,
      "ceiling_ft": null,
      "hazards": [],
      "severityScore": 0,
      "metarRaw": "METAR OEMA 081700Z 07009KT CAVOK 24/M03 Q1021 NOSIG",
      "tafRaw": "TAF OEMA 081700Z 0818/0924 08006KT CAVOK \n  BECMG 0910/0912 22012KT 7000 FEW040",
      "metarHtml": "METAR OEMA 081700Z 07009KT <span class=\"hl-vis\">CAVOK</span> 24/M03 Q1021 NOSIG",
      "tafHtml": "TAF OEMA 081700Z 0818/0924 08006KT <span class=\"hl-vis\">CAVOK</span> \n  BECMG 0910/0912 22012KT 7000 FEW040"
    },
    {
      "icao": "OMAA",
      "iata": "AUH",
      "name": "Zayed International Airport",
      "updatedAt": "081700Z",
      "visibility_m": 10000,
      "taf_visibility_m": 10000,
      "worst_visibility_m": 10000,
      "ceiling_ft": null,
      "hazards": [],
      "severityScore": 0,
      "metarRaw": "METAR OMAA 081700Z 32004KT CAVOK 20/12 Q1020 NOSIG",
      "tafRaw": "TAF OMAA 081700Z 0818/1000 VRB02KT CAVOK \n  BECMG 0908/0910 33009KT \n  BECMG 0918/0920 VRB02KT",
      "metarHtml": "METAR OMAA 081700Z 32004KT <span class=\"hl-vis\">CAVOK</span> 20/12 Q1020 NOSIG",
      "tafHtml": "TAF OMAA 081700Z 0818/1000 VRB02KT <span class=\"hl-vis\">CAVOK</span> \n  BECMG 0908/0910 33009KT \n  BECMG 0918/0920 VRB02KT"
    },
    {
      "icao": "OMDB",
      "iata": "DXB",
      "name": "Dubai International Airport",
      "updatedAt": "081730Z",
      "visibility_m": 10000,
      "taf_visibility_m": 10000,
      "worst_visibility_m": 10000,
      "ceiling_ft": null,
      "hazards": [],
      "severityScore": 0,
      "metarRaw": "METAR OMDB 081730Z 03005KT 350V080 CAVOK 22/12 Q1020 NOSIG",
      "tafRaw": "TAF OMDB 081700Z 0818/1000 09005KT CAVOK \n  BECMG 0908/0910 33010KT \n  BECMG 0916/0918 08005KT",
      "metarHtml": "METAR OMDB 081730Z 03005KT 350V080 <span class=\"hl-vis\">CAVOK</span> 22/12 Q1020 NOSIG",
      "tafHtml": "TAF OMDB 081700Z 0818/1000 09005KT <span class=\"hl-vis\">CAVOK</span> \n  BECMG 0908/0910 33010KT \n  BECMG 0916/0918 08005KT"
    }
  ],
  "stats": {
    "icaoCount": 159,
    "metarReturned": 159,
    "tafReturned": 148,
    "stationsWritten": 159,
    "missingMetar": 0,
    "missingTaf": 11
  },
  "errors": []
}