{
  "generatedAt": "2026-01-08T14:15:46.009Z",
  "stations": [
    {
      "icao": "BKPR",
      "iata": "PRN",
      "name": "Priština Adem Jashari International Airport",
      "updatedAt": "081400Z",
      "visibility_m": 10000,
      "taf_visibility_m": 300,
      "worst_visibility_m": 300,
      "ceiling_ft": 4500,
      "hazards": [
        "SN",
        "FZFG",
        "BR"
      ],
      "severityScore": 100,
      "metarRaw": "METAR BKPR 081400Z 35009KT 9999 -SN FEW014 BKN045 M03/M05 Q1008 NOSIG",
      "tafRaw": "TAF BKPR 081130Z 0812/0912 35009KT 9999 FEW015 BKN040 \n  TEMPO 0812/0817 34020KT \n  TEMPO 0902/0910 3000 BR \n  PROB30 0904/0908 0300 FZFG BKN003",
      "metarHtml": "METAR BKPR 081400Z 35009KT 9999 -<span class=\"hl\">SN</span> FEW014 BKN045 M03/M05 Q1008 NOSIG",
      "tafHtml": "TAF BKPR 081130Z 0812/0912 35009KT 9999 FEW015 BKN040 \n  TEMPO 0812/0817 34020KT \n  TEMPO 0902/0910 3000 <span class=\"hl\">BR</span> \n  PROB30 0904/0908 <span class=\"hl-vis\">0300</span> <span class=\"hl\">FZFG</span> BKN003"
    },
    {
      "icao": "EDFH",
      "iata": "HHN",
      "name": "Frankfurt-Hahn Airport",
      "updatedAt": "081350Z",
      "visibility_m": 3500,
      "taf_visibility_m": 1200,
      "worst_visibility_m": 1200,
      "ceiling_ft": 400,
      "hazards": [
        "BR",
        "DZ",
        "SN",
        "RA",
        "SHRA"
      ],
      "severityScore": 100,
      "metarRaw": "METAR EDFH 081350Z 15005KT 3500 -DZ BR OVC004 00/M00 Q1004",
      "tafRaw": "TAF EDFH 081100Z 0812/0912 22010KT 6000 OVC004 \n  TEMPO 0812/0821 2000 -SN BR OVC001 \n  BECMG 0818/0821 16013KT \n  PROB40 \n  TEMPO 0818/0821 1200 SN \n  TEMPO 0821/0901 4000 RA \n  BECMG 0900/0903 22020G30KT \n  TEMPO 0905/0912 23030G45KT 4000 SHRA BKN012TCU",
      "metarHtml": "METAR EDFH 081350Z 15005KT 3500 -<span class=\"hl\">DZ</span> <span class=\"hl\">BR</span> OVC004 00/M00 Q1004",
      "tafHtml": "TAF EDFH 081100Z 0812/0912 22010KT 6000 OVC004 \n  TEMPO 0812/0821 2000 -<span class=\"hl\">SN</span> <span class=\"hl\">BR</span> OVC001 \n  BECMG 0818/0821 16013KT \n  PROB40 \n  TEMPO 0818/0821 1200 <span class=\"hl\">SN</span> \n  TEMPO 0821/0901 4000 <span class=\"hl\">RA</span> \n  BECMG 0900/0903 22020G30KT \n  TEMPO 0905/0912 23030G45KT 4000 <span class=\"hl\">SHRA</span> BKN012TCU"
    },
    {
      "icao": "EGGW",
      "iata": "LTN",
      "name": "London Luton Airport",
      "updatedAt": "081350Z",
      "visibility_m": 300,
      "taf_visibility_m": 300,
      "worst_visibility_m": 300,
      "ceiling_ft": 200,
      "hazards": [
        "FG",
        "BR",
        "RA"
      ],
      "severityScore": 100,
      "metarRaw": "METAR EGGW 081350Z AUTO 14005KT 0300 R25/0450D FG OVC002 03/02 Q0999",
      "tafRaw": "TAF EGGW 081058Z 0812/0912 16008KT 9999 BKN005 \n  TEMPO 0812/0815 4000 RADZ BR BKN003 \n  PROB40 \n  TEMPO 0812/0814 0300 FG BKN001 \n  PROB30 \n  TEMPO 0814/0817 0600 FG BKN001 \n  BECMG 0815/0818 10012KT \n  TEMPO 0815/0821 4000 RA BKN004 \n  TEMPO 0818/0821 10017G27KT \n  PROB40 \n  TEMPO 0821/0904 3000 RADZ BR BKN004 \n  BECMG 0900/0903 34015KT \n  TEMPO 0904/0912 4000 RA RASN \n  TEMPO 0904/0909 33018G28KT \n  PROB30 \n  TEMPO 0904/0909 0600 +RASN BKN002 \n  BECMG 0909/0912 32018G33KT",
      "metarHtml": "METAR EGGW 081350Z AUTO 14005KT <span class=\"hl-vis\">0300</span> R25/0450D <span class=\"hl\">FG</span> OVC002 03/02 Q0999",
      "tafHtml": "TAF EGGW 081058Z 0812/0912 16008KT 9999 BKN005 \n  TEMPO 0812/0815 4000 RADZ <span class=\"hl\">BR</span> BKN003 \n  PROB40 \n  TEMPO 0812/0814 <span class=\"hl-vis\">0300</span> <span class=\"hl\">FG</span> BKN001 \n  PROB30 \n  TEMPO 0814/0817 <span class=\"hl-vis\">0600</span> <span class=\"hl\">FG</span> BKN001 \n  BECMG 0815/0818 10012KT \n  TEMPO 0815/0821 4000 <span class=\"hl\">RA</span> BKN004 \n  TEMPO 0818/0821 10017G27KT \n  PROB40 \n  TEMPO 0821/0904 3000 RADZ <span class=\"hl\">BR</span> BKN004 \n  BECMG 0900/0903 34015KT \n  TEMPO 0904/0912 4000 <span class=\"hl\">RA</span> RASN \n  TEMPO 0904/0909 33018G28KT \n  PROB30 \n  TEMPO 0904/0909 <span class=\"hl-vis\">0600</span> +RASN BKN002 \n  BECMG 0909/0912 32018G33KT"
    },
    {
      "icao": "LEMD",
      "iata": "MAD",
      "name": "Adolfo Suárez Madrid–Barajas Airport",
      "updatedAt": "081400Z",
      "visibility_m": 4000,
      "taf_visibility_m": 200,
      "worst_visibility_m": 200,
      "ceiling_ft": 1100,
      "hazards": [
        "BR",
        "FG",
        "DZ"
      ],
      "severityScore": 100,
      "metarRaw": "METAR LEMD 081400Z VRB01KT 4000 BR SCT003 OVC011 03/03 Q1028 NOSIG",
      "tafRaw": "TAF LEMD 081100Z 0812/0918 VRB03KT 6000 BKN005 TX11/0915Z TN03/0812Z \n  TEMPO 0812/0814 4000 BR BKN002 \n  BECMG 0817/0819 22010KT \n  TEMPO 0820/0909 3000 DZ BR BCFG BKN003 \n  PROB40 \n  TEMPO 0824/0907 0200 FG VV001 \n  TEMPO 0900/0907 23015G25KT \n  BECMG 0910/0912 27010KT CAVOK",
      "metarHtml": "METAR LEMD 081400Z VRB01KT 4000 <span class=\"hl\">BR</span> SCT003 OVC011 03/03 Q1028 NOSIG",
      "tafHtml": "TAF LEMD 081100Z 0812/0918 VRB03KT 6000 BKN005 TX11/0915Z TN03/0812Z \n  TEMPO 0812/0814 4000 <span class=\"hl\">BR</span> BKN002 \n  BECMG 0817/0819 22010KT \n  TEMPO 0820/0909 3000 <span class=\"hl\">DZ</span> <span class=\"hl\">BR</span> BCFG BKN003 \n  PROB40 \n  TEMPO 0824/0907 <span class=\"hl-vis\">0200</span> <span class=\"hl\">FG</span> VV001 \n  TEMPO 0900/0907 23015G25KT \n  BECMG 0910/0912 27010KT <span class=\"hl-vis\">CAVOK</span>"
    },
    {
      "icao": "LJLJ",
      "iata": "LJU",
      "name": "Ljubljana Jože Pučnik Airport",
      "updatedAt": "081400Z",
      "visibility_m": 10000,
      "taf_visibility_m": 300,
      "worst_visibility_m": 300,
      "ceiling_ft": null,
      "hazards": [
        "FZFG",
        "BR",
        "FZRA",
        "SN"
      ],
      "severityScore": 100,
      "metarRaw": "METAR LJLJ 081400Z 15001KT 9999 FEW080 M04/M08 Q1011 NOSIG",
      "tafRaw": "TAF LJLJ 081100Z 0812/0912 VRB02KT 9999 FEW020 \n  PROB40 \n  TEMPO 0900/0908 0300 FZFG VV001 \n  TEMPO 0909/0912 4000 -FZRA BR \n  PROB40 \n  TEMPO 0909/0911 3000 -SN BR",
      "metarHtml": "METAR LJLJ 081400Z 15001KT 9999 FEW080 M04/M08 Q1011 NOSIG",
      "tafHtml": "TAF LJLJ 081100Z 0812/0912 VRB02KT 9999 FEW020 \n  PROB40 \n  TEMPO 0900/0908 <span class=\"hl-vis\">0300</span> <span class=\"hl\">FZFG</span> VV001 \n  TEMPO 0909/0912 4000 -<span class=\"hl\">FZRA</span> <span class=\"hl\">BR</span> \n  PROB40 \n  TEMPO 0909/0911 3000 -<span class=\"hl\">SN</span> <span class=\"hl\">BR</span>"
    },
    {
      "icao": "LQSA",
      "iata": "SJJ",
      "name": "Sarajevo International Airport",
      "updatedAt": "081400Z",
      "visibility_m": 10000,
      "taf_visibility_m": 500,
      "worst_visibility_m": 500,
      "ceiling_ft": null,
      "hazards": [
        "FZFG",
        "FZRA"
      ],
      "severityScore": 100,
      "metarRaw": "METAR LQSA 081400Z 15005KT 9999 FEW045 M04/M09 Q1012 NOSIG",
      "tafRaw": "TAF LQSA 081100Z 0812/0912 VRB02KT 9999 SCT050 TX01/0912Z TNM10/0901Z \n  PROB30 0903/0907 0500 FZFG BKN004 \n  PROB30 \n  TEMPO 0909/0912 FZRA",
      "metarHtml": "METAR LQSA 081400Z 15005KT 9999 FEW045 M04/M09 Q1012 NOSIG",
      "tafHtml": "TAF LQSA 081100Z 0812/0912 VRB02KT 9999 SCT050 TX01/0912Z TNM10/0901Z \n  PROB30 0903/0907 <span class=\"hl-vis\">0500</span> <span class=\"hl\">FZFG</span> BKN004 \n  PROB30 \n  TEMPO 0909/0912 <span class=\"hl\">FZRA</span>"
    },
    {
      "icao": "UAAA",
      "iata": "ALA",
      "name": "Almaty International Airport",
      "updatedAt": "081400Z",
      "visibility_m": 3200,
      "taf_visibility_m": 200,
      "worst_visibility_m": 200,
      "ceiling_ft": 1000,
      "hazards": [
        "BR",
        "FZFG"
      ],
      "severityScore": 100,
      "metarRaw": "METAR UAAA 081400Z 33002MPS 280V010 3200 BR OVC010 M04/M05 Q1030 NOSIG",
      "tafRaw": "TAF UAAA 081102Z 0812/0912 33003MPS 1500 BR FU BKN011 OVC100 TXM01/0909Z TNM08/0901Z \n  TEMPO 0812/0817 0300 FZFG VV003 \n  TEMPO 0817/0905 0200 FZFG VV001 \n  FM090700 03003MPS 3100 BR FU SCT011 BKN100 \n  TEMPO 0907/0912 1700 BKN005",
      "metarHtml": "METAR UAAA 081400Z 33002MPS 280V010 3200 <span class=\"hl\">BR</span> OVC010 M04/M05 Q1030 NOSIG",
      "tafHtml": "TAF UAAA 081102Z 0812/0912 33003MPS 1500 <span class=\"hl\">BR</span> FU BKN011 OVC100 TXM01/0909Z TNM08/0901Z \n  TEMPO 0812/0817 <span class=\"hl-vis\">0300</span> <span class=\"hl\">FZFG</span> VV003 \n  TEMPO 0817/0905 <span class=\"hl-vis\">0200</span> <span class=\"hl\">FZFG</span> VV001 \n  FM090700 03003MPS 3100 <span class=\"hl\">BR</span> FU SCT011 BKN100 \n  TEMPO 0907/0912 1700 BKN005"
    },
    {
      "icao": "EGPD",
      "iata": "ABZ",
      "name": "Aberdeen International Airport",
      "updatedAt": "081350Z",
      "visibility_m": 10000,
      "taf_visibility_m": 300,
      "worst_visibility_m": 300,
      "ceiling_ft": null,
      "hazards": [
        "FZFG",
        "BR",
        "RA"
      ],
      "severityScore": 97,
      "metarRaw": "METAR EGPD 081350Z COR AUTO 17008KT 9999 NCD M00/M02 Q0999 NOSIG",
      "tafRaw": "TAF EGPD 081057Z 0812/0912 19005KT 9999 FEW006 \n  PROB40 \n  TEMPO 0812/0820 4000 BR \n  TEMPO 0820/0902 6000 -RA BKN004 \n  PROB40 \n  TEMPO 0820/0902 0300 FZFG VV/// \n  BECMG 0902/0905 31010KT BKN006 \n  TEMPO 0902/0912 6000 -RA BKN004 \n  PROB40 \n  TEMPO 0909/0912 4000 RASN",
      "metarHtml": "METAR EGPD 081350Z COR AUTO 17008KT 9999 NCD M00/M02 Q0999 NOSIG",
      "tafHtml": "TAF EGPD 081057Z 0812/0912 19005KT 9999 FEW006 \n  PROB40 \n  TEMPO 0812/0820 4000 <span class=\"hl\">BR</span> \n  TEMPO 0820/0902 6000 -<span class=\"hl\">RA</span> BKN004 \n  PROB40 \n  TEMPO 0820/0902 <span class=\"hl-vis\">0300</span> <span class=\"hl\">FZFG</span> VV/// \n  BECMG 0902/0905 31010KT BKN006 \n  TEMPO 0902/0912 6000 -<span class=\"hl\">RA</span> BKN004 \n  PROB40 \n  TEMPO 0909/0912 4000 RASN"
    },
    {
      "icao": "EDDN",
      "iata": "NUE",
      "name": "Nuremberg Airport",
      "updatedAt": "081350Z",
      "visibility_m": 10000,
      "taf_visibility_m": 800,
      "worst_visibility_m": 800,
      "ceiling_ft": 1900,
      "hazards": [
        "FZRA",
        "SN"
      ],
      "severityScore": 90,
      "metarRaw": "METAR EDDN 081350Z AUTO 12005KT 9999 BKN019 OVC026 M00/M02 Q1008 NOSIG",
      "tafRaw": "TAF EDDN 081100Z 0812/0912 14006KT 9999 BKN015 \n  BECMG 0816/0819 3500 -SN BKN007 OVC010 \n  TEMPO 0820/0901 0800 SN BKN004 OVC007 \n  PROB40 \n  TEMPO 0900/0903 FZRA \n  BECMG 0903/0905 8000 SCT008 BKN020 \n  BECMG 0908/0911 20012KT",
      "metarHtml": "METAR EDDN 081350Z AUTO 12005KT 9999 BKN019 OVC026 M00/M02 Q1008 NOSIG",
      "tafHtml": "TAF EDDN 081100Z 0812/0912 14006KT 9999 BKN015 \n  BECMG 0816/0819 3500 -<span class=\"hl\">SN</span> BKN007 OVC010 \n  TEMPO 0820/0901 <span class=\"hl-vis\">0800</span> <span class=\"hl\">SN</span> BKN004 OVC007 \n  PROB40 \n  TEMPO 0900/0903 <span class=\"hl\">FZRA</span> \n  BECMG 0903/0905 8000 SCT008 BKN020 \n  BECMG 0908/0911 20012KT"
    },
    {
      "icao": "EYVI",
      "iata": "VNO",
      "name": "Vilnius International Airport",
      "updatedAt": "081350Z",
      "visibility_m": 10000,
      "taf_visibility_m": 600,
      "worst_visibility_m": 600,
      "ceiling_ft": 700,
      "hazards": [
        "SN",
        "BLSN"
      ],
      "severityScore": 90,
      "metarRaw": "METAR EYVI 081350Z 03015KT 9999 OVC007 M08/M10 Q1009 NOSIG",
      "tafRaw": "TAF EYVI 081100Z 0812/0912 03013KT 6000 BKN010 \n  TEMPO 0812/0823 BKN005 OVC015 \n  PROB40 \n  TEMPO 0812/0823 OVC002 \n  BECMG 0823/0824 OVC015 \n  TEMPO 0900/0906 03015G26KT SCT015 \n  BECMG 0906/0907 03016G26KT 1500 SN BLSN OVC010 \n  TEMPO 0907/0912 0600 +SN BKN005",
      "metarHtml": "METAR EYVI 081350Z 03015KT 9999 OVC007 M08/M10 Q1009 NOSIG",
      "tafHtml": "TAF EYVI 081100Z 0812/0912 03013KT 6000 BKN010 \n  TEMPO 0812/0823 BKN005 OVC015 \n  PROB40 \n  TEMPO 0812/0823 OVC002 \n  BECMG 0823/0824 OVC015 \n  TEMPO 0900/0906 03015G26KT SCT015 \n  BECMG 0906/0907 03016G26KT 1500 <span class=\"hl\">SN</span> <span class=\"hl\">BLSN</span> OVC010 \n  TEMPO 0907/0912 <span class=\"hl-vis\">0600</span> +<span class=\"hl\">SN</span> BKN005"
    },
    {
      "icao": "EPLB",
      "iata": "LUZ",
      "name": "Lublin Airport",
      "updatedAt": "081400Z",
      "visibility_m": 1200,
      "taf_visibility_m": 700,
      "worst_visibility_m": 700,
      "ceiling_ft": 1800,
      "hazards": [
        "BR",
        "SN",
        "BLSN"
      ],
      "severityScore": 87,
      "metarRaw": "METAR EPLB 081400Z 34009KT 310V010 1200 1100W R25/1500N -SN BR OVC018 M06/M07 Q1005",
      "tafRaw": "TAF EPLB 081130Z 0812/0912 01010KT 2500 -SN BR FEW009 OVC018 \n  TEMPO 0812/0912 1300 SN BR BKN005 OVC010 \n  PROB40 \n  TEMPO 0812/0910 35017G27KT 0700 BLSN BKN003",
      "metarHtml": "METAR EPLB 081400Z 34009KT 310V010 1200 1100W R25/1500N -<span class=\"hl\">SN</span> <span class=\"hl\">BR</span> OVC018 M06/M07 Q1005",
      "tafHtml": "TAF EPLB 081130Z 0812/0912 01010KT 2500 -<span class=\"hl\">SN</span> <span class=\"hl\">BR</span> FEW009 OVC018 \n  TEMPO 0812/0912 1300 <span class=\"hl\">SN</span> <span class=\"hl\">BR</span> BKN005 OVC010 \n  PROB40 \n  TEMPO 0812/0910 35017G27KT <span class=\"hl-vis\">0700</span> <span class=\"hl\">BLSN</span> BKN003"
    },
    {
      "icao": "EGGP",
      "iata": "LPL",
      "name": "Liverpool John Lennon Airport",
      "updatedAt": "081350Z",
      "visibility_m": 6000,
      "taf_visibility_m": 1200,
      "worst_visibility_m": 1200,
      "ceiling_ft": 400,
      "hazards": [
        "SN",
        "RA",
        "DZ"
      ],
      "severityScore": 85,
      "metarRaw": "METAR EGGP 081350Z 10006KT 6000 OVC004 03/02 Q0997",
      "tafRaw": "TAF EGGP 081104Z 0812/0912 12007KT 9999 FEW010 \n  PROB40 \n  TEMPO 0812/0815 4000 DZ BKN004 \n  BECMG 0814/0817 06010KT \n  TEMPO 0815/0819 6000 RA -RADZ BKN009 \n  PROB30 \n  TEMPO 0815/0819 4000 RADZ BKN004 \n  BECMG 0819/0822 36012KT \n  TEMPO 0819/0823 35016G28KT 4000 RADZ RASN BKN008 \n  PROB30 \n  TEMPO 0819/0823 1200 +RASN SN BKN002 \n  TEMPO 0823/0909 6000 RA BKN012 \n  PROB30 \n  TEMPO 0823/0904 4000 RADZ BKN008 \n  PROB30 \n  TEMPO 0909/0912 6000 RA BKN012",
      "metarHtml": "METAR EGGP 081350Z 10006KT 6000 OVC004 03/02 Q0997",
      "tafHtml": "TAF EGGP 081104Z 0812/0912 12007KT 9999 FEW010 \n  PROB40 \n  TEMPO 0812/0815 4000 <span class=\"hl\">DZ</span> BKN004 \n  BECMG 0814/0817 06010KT \n  TEMPO 0815/0819 6000 <span class=\"hl\">RA</span> -RADZ BKN009 \n  PROB30 \n  TEMPO 0815/0819 4000 RADZ BKN004 \n  BECMG 0819/0822 36012KT \n  TEMPO 0819/0823 35016G28KT 4000 RADZ RASN BKN008 \n  PROB30 \n  TEMPO 0819/0823 1200 +RASN <span class=\"hl\">SN</span> BKN002 \n  TEMPO 0823/0909 6000 <span class=\"hl\">RA</span> BKN012 \n  PROB30 \n  TEMPO 0823/0904 4000 RADZ BKN008 \n  PROB30 \n  TEMPO 0909/0912 6000 <span class=\"hl\">RA</span> BKN012"
    },
    {
      "icao": "UBBB",
      "iata": "GYD",
      "name": "Heydar Aliyev International Airport",
      "updatedAt": "081400Z",
      "visibility_m": 1500,
      "taf_visibility_m": 200,
      "worst_visibility_m": 200,
      "ceiling_ft": null,
      "hazards": [
        "BR",
        "FG"
      ],
      "severityScore": 85,
      "metarRaw": "METAR UBBB 081400Z 16006KT 1500 BR SCT004 06/06 Q1015 NOSIG",
      "tafRaw": "TAF UBBB 081057Z 0812/0912 16010KT 3000 BR BKN005 TX08/0812Z TN04/0903Z \n  BECMG 0814/0816 VRB04KT 0600 FG VV003 \n  TEMPO 0816/0822 18005KT 0200 VV001 \n  BECMG 0822/0824 18016KT \n  TEMPO 0900/0906 20020G30KT 0300 VV001 \n  BECMG 0906/0908 19018G28KT 8000 NSW SCT020",
      "metarHtml": "METAR UBBB 081400Z 16006KT 1500 <span class=\"hl\">BR</span> SCT004 06/06 Q1015 NOSIG",
      "tafHtml": "TAF UBBB 081057Z 0812/0912 16010KT 3000 <span class=\"hl\">BR</span> BKN005 TX08/0812Z TN04/0903Z \n  BECMG 0814/0816 VRB04KT <span class=\"hl-vis\">0600</span> <span class=\"hl\">FG</span> VV003 \n  TEMPO 0816/0822 18005KT <span class=\"hl-vis\">0200</span> VV001 \n  BECMG 0822/0824 18016KT \n  TEMPO 0900/0906 20020G30KT <span class=\"hl-vis\">0300</span> VV001 \n  BECMG 0906/0908 19018G28KT 8000 NSW SCT020"
    },
    {
      "icao": "EGBB",
      "iata": "BHX",
      "name": "Birmingham Airport",
      "updatedAt": "081350Z",
      "visibility_m": 150,
      "taf_visibility_m": null,
      "worst_visibility_m": 150,
      "ceiling_ft": null,
      "hazards": [
        "FG"
      ],
      "severityScore": 80,
      "metarRaw": "METAR EGBB 081350Z 12008KT 0150 R15/0800N FG VV/// 03/03 Q0998",
      "tafRaw": null,
      "metarHtml": "METAR EGBB 081350Z 12008KT <span class=\"hl-vis\">0150</span> R15/0800N <span class=\"hl\">FG</span> VV/// 03/03 Q0998",
      "tafHtml": null
    },
    {
      "icao": "EDNY",
      "iata": "FDH",
      "name": "Friedrichshafen Airport",
      "updatedAt": "081350Z",
      "visibility_m": 4500,
      "taf_visibility_m": 2500,
      "worst_visibility_m": 2500,
      "ceiling_ft": 1900,
      "hazards": [
        "SN",
        "FZRA",
        "RA"
      ],
      "severityScore": 77,
      "metarRaw": "METAR EDNY 081350Z 14005KT 4500 -SN FEW005 BKN019 OVC036 M00/M01 Q1009",
      "tafRaw": "TAF EDNY 081100Z 0812/0821 13005KT 8000 SCT012 BKN030 \n  TEMPO 0812/0814 2500 SN BKN008 \n  PROB30 \n  TEMPO 0814/0817 -FZRA \n  BECMG 0816/0818 23005KT \n  TEMPO 0818/0821 RA",
      "metarHtml": "METAR EDNY 081350Z 14005KT 4500 -<span class=\"hl\">SN</span> FEW005 BKN019 OVC036 M00/M01 Q1009",
      "tafHtml": "TAF EDNY 081100Z 0812/0821 13005KT 8000 SCT012 BKN030 \n  TEMPO 0812/0814 2500 <span class=\"hl\">SN</span> BKN008 \n  PROB30 \n  TEMPO 0814/0817 -<span class=\"hl\">FZRA</span> \n  BECMG 0816/0818 23005KT \n  TEMPO 0818/0821 <span class=\"hl\">RA</span>"
    },
    {
      "icao": "LFBD",
      "iata": "BOD",
      "name": "Bordeaux–Mérignac Airport",
      "updatedAt": "081400Z",
      "visibility_m": 4000,
      "taf_visibility_m": 2000,
      "worst_visibility_m": 2000,
      "ceiling_ft": 800,
      "hazards": [
        "RA",
        "TSRA",
        "SHRA"
      ],
      "severityScore": 76,
      "metarRaw": "METAR LFBD 081400Z AUTO 26018KT 9999 -RADZ BKN013 BKN019 BKN027 12/11 Q1016 TEMPO 27015G25KT 4000 -RA BKN008 OVC025",
      "tafRaw": "TAF LFBD 081100Z 0812/0918 26010KT 9999 BKN025 TX13/0814Z TN08/0906Z \n  TEMPO 0812/0818 27015G25KT 4000 -RA BKN008 OVC025 \n  BECMG 0818/0820 24015G25KT BKN040 \n  TEMPO 0821/0824 27018G35KT 4000 SHRA BKN015TCU \n  PROB40 \n  TEMPO 0900/0912 27030G55KT 2000 TSRA BKN015CB \n  TEMPO 0912/0918 29020G30KT 4000 SHRA BKN015TCU",
      "metarHtml": "METAR LFBD 081400Z AUTO 26018KT 9999 -RADZ BKN013 BKN019 BKN027 12/11 Q1016 TEMPO 27015G25KT 4000 -<span class=\"hl\">RA</span> BKN008 OVC025",
      "tafHtml": "TAF LFBD 081100Z 0812/0918 26010KT 9999 BKN025 TX13/0814Z TN08/0906Z \n  TEMPO 0812/0818 27015G25KT 4000 -<span class=\"hl\">RA</span> BKN008 OVC025 \n  BECMG 0818/0820 24015G25KT BKN040 \n  TEMPO 0821/0824 27018G35KT 4000 <span class=\"hl\">SHRA</span> BKN015TCU \n  PROB40 \n  TEMPO 0900/0912 27030G55KT 2000 <span class=\"hl\">TSRA</span> BKN015CB \n  TEMPO 0912/0918 29020G30KT 4000 <span class=\"hl\">SHRA</span> BKN015TCU"
    },
    {
      "icao": "LUKK",
      "iata": "RMO",
      "name": "Chişinău International Airport",
      "updatedAt": "081400Z",
      "visibility_m": 900,
      "taf_visibility_m": null,
      "worst_visibility_m": 900,
      "ceiling_ft": 500,
      "hazards": [
        "BLSN",
        "SHSN"
      ],
      "severityScore": 72,
      "metarRaw": "METAR LUKK 081400Z 32017KT 280V350 0900 R26/0900U +SHSN VV006 M02/M03 Q0993 TEMPO 32018G30KT 1500 SHSN BLSN BKN005 SCT010CB",
      "tafRaw": null,
      "metarHtml": "METAR LUKK 081400Z 32017KT 280V350 0900 R26/0900U +<span class=\"hl\">SHSN</span> VV006 M02/M03 Q0993 TEMPO 32018G30KT 1500 <span class=\"hl\">SHSN</span> <span class=\"hl\">BLSN</span> BKN005 SCT010CB",
      "tafHtml": null
    },
    {
      "icao": "EHBK",
      "iata": "MST",
      "name": "Maastricht Aachen Airport",
      "updatedAt": "081355Z",
      "visibility_m": 4400,
      "taf_visibility_m": 2500,
      "worst_visibility_m": 2500,
      "ceiling_ft": 700,
      "hazards": [
        "BR",
        "RA",
        "SHRA",
        "DZ"
      ],
      "severityScore": 71,
      "metarRaw": "METAR EHBK 081355Z AUTO 18004KT 4400 BR FEW002 BKN007 BKN008 02/02 Q1004 TEMPO 6000 NSW BKN012",
      "tafRaw": "TAF EHBK 081120Z 0812/0918 18007KT CAVOK \n  PROB40 \n  TEMPO 0812/0818 SCT008 BKN012 \n  BECMG 0814/0817 6000 RA BKN012 \n  PROB40 \n  TEMPO 0817/0901 4000 BKN008 \n  BECMG 0821/0824 18015G25KT 9999 NSW SCT025 \n  TEMPO 0900/0908 7000 SHRA FEW020TCU \n  BECMG 0906/0909 19022G32KT 7000 RA BKN012 \n  TEMPO 0909/0918 2500 DZ BKN003 \n  BECMG 0912/0915 22020G30KT \n  BECMG 0915/0918 23015KT",
      "metarHtml": "METAR EHBK 081355Z AUTO 18004KT 4400 <span class=\"hl\">BR</span> FEW002 BKN007 BKN008 02/02 Q1004 TEMPO 6000 NSW BKN012",
      "tafHtml": "TAF EHBK 081120Z 0812/0918 18007KT <span class=\"hl-vis\">CAVOK</span> \n  PROB40 \n  TEMPO 0812/0818 SCT008 BKN012 \n  BECMG 0814/0817 6000 <span class=\"hl\">RA</span> BKN012 \n  PROB40 \n  TEMPO 0817/0901 4000 BKN008 \n  BECMG 0821/0824 18015G25KT 9999 NSW SCT025 \n  TEMPO 0900/0908 7000 <span class=\"hl\">SHRA</span> FEW020TCU \n  BECMG 0906/0909 19022G32KT 7000 <span class=\"hl\">RA</span> BKN012 \n  TEMPO 0909/0918 2500 <span class=\"hl\">DZ</span> BKN003 \n  BECMG 0912/0915 22020G30KT \n  BECMG 0915/0918 23015KT"
    },
    {
      "icao": "LKMT",
      "iata": "OSR",
      "name": "Ostrava Leos Janáček Airport",
      "updatedAt": "081400Z",
      "visibility_m": 8000,
      "taf_visibility_m": 900,
      "worst_visibility_m": 900,
      "ceiling_ft": 2900,
      "hazards": [
        "SN",
        "FZFG",
        "BR"
      ],
      "severityScore": 68,
      "metarRaw": "METAR LKMT 081400Z 04003KT 340V080 8000 -SN OVC029 M05/M07 Q1010 NOSIG",
      "tafRaw": "TAF LKMT 081100Z 0812/0912 01005KT 9999 OVC014 \n  BECMG 0812/0814 BKN020 \n  BECMG 0823/0901 VRB02KT 4500 BR SCT003 BKN015 \n  TEMPO 0903/0908 0900 FZFG BKN002 \n  BECMG 0909/0911 9999 SCT030",
      "metarHtml": "METAR LKMT 081400Z 04003KT 340V080 8000 -<span class=\"hl\">SN</span> OVC029 M05/M07 Q1010 NOSIG",
      "tafHtml": "TAF LKMT 081100Z 0812/0912 01005KT 9999 OVC014 \n  BECMG 0812/0814 BKN020 \n  BECMG 0823/0901 VRB02KT 4500 <span class=\"hl\">BR</span> SCT003 BKN015 \n  TEMPO 0903/0908 0900 <span class=\"hl\">FZFG</span> BKN002 \n  BECMG 0909/0911 9999 SCT030"
    },
    {
      "icao": "LTAC",
      "iata": "ESB",
      "name": "Esenboğa International Airport",
      "updatedAt": "081350Z",
      "visibility_m": 2000,
      "taf_visibility_m": 2500,
      "worst_visibility_m": 2000,
      "ceiling_ft": 3000,
      "hazards": [
        "SHRA",
        "BR",
        "TSRA",
        "SN"
      ],
      "severityScore": 67,
      "metarRaw": "METAR LTAC 081350Z 23029KT 190V260 2000 SHRA BKN030 BKN080 09/03 Q1005 WS R21C BECMG 6000 RMK RWY21C 22030G42KT RWY03L 22026G38KT RWY21R 21033G43KT 170V230 RWY03R 22026G36KT RWY21L 22026G40KT 140V240",
      "tafRaw": "TAF LTAC 081040Z 0812/0912 25012KT 6000 BKN030 BKN080 \n  TEMPO 0812/0816 24015G25KT 4000 -SHRA BR \n  TEMPO 0817/0821 24020G30KT 4000 -TSRA BR FEW025CB BKN030 \n  TEMPO 0822/0902 4000 -RASN BR \n  TEMPO 0903/0907 2500 -SN BR",
      "metarHtml": "METAR LTAC 081350Z 23029KT 190V260 2000 <span class=\"hl\">SHRA</span> BKN030 BKN080 09/03 Q1005 WS R21C BECMG 6000 RMK RWY21C 22030G42KT RWY03L 22026G38KT RWY21R 21033G43KT 170V230 RWY03R 22026G36KT RWY21L 22026G40KT 140V240",
      "tafHtml": "TAF LTAC 081040Z 0812/0912 25012KT 6000 BKN030 BKN080 \n  TEMPO 0812/0816 24015G25KT 4000 -<span class=\"hl\">SHRA</span> <span class=\"hl\">BR</span> \n  TEMPO 0817/0821 24020G30KT 4000 -<span class=\"hl\">TSRA</span> <span class=\"hl\">BR</span> FEW025CB BKN030 \n  TEMPO 0822/0902 4000 -RASN <span class=\"hl\">BR</span> \n  TEMPO 0903/0907 2500 -<span class=\"hl\">SN</span> <span class=\"hl\">BR</span>"
    },
    {
      "icao": "EGNM",
      "iata": "LBA",
      "name": "Leeds Bradford Airport",
      "updatedAt": "081350Z",
      "visibility_m": 10000,
      "taf_visibility_m": 500,
      "worst_visibility_m": 500,
      "ceiling_ft": null,
      "hazards": [
        "SN",
        "RA"
      ],
      "severityScore": 65,
      "metarRaw": "METAR EGNM 081350Z 06003KT 030V090 9999 FEW035 01/M01 Q0998",
      "tafRaw": "TAF EGNM 081103Z 0812/0912 23004KT 9999 FEW015 \n  TEMPO 0812/0817 BKN012 \n  BECMG 0818/0821 04012KT BKN009 \n  TEMPO 0818/0903 4000 RASN -SN BKN004 \n  PROB30 \n  TEMPO 0820/0903 04015G25KT 0500 +SN BKN001 \n  TEMPO 0903/0909 6000 RA -RADZ \n  PROB30 \n  TEMPO 0903/0909 4000 RADZ RASN BKN004 \n  BECMG 0906/0909 34010KT SCT020",
      "metarHtml": "METAR EGNM 081350Z 06003KT 030V090 9999 FEW035 01/M01 Q0998",
      "tafHtml": "TAF EGNM 081103Z 0812/0912 23004KT 9999 FEW015 \n  TEMPO 0812/0817 BKN012 \n  BECMG 0818/0821 04012KT BKN009 \n  TEMPO 0818/0903 4000 RASN -<span class=\"hl\">SN</span> BKN004 \n  PROB30 \n  TEMPO 0820/0903 04015G25KT <span class=\"hl-vis\">0500</span> +<span class=\"hl\">SN</span> BKN001 \n  TEMPO 0903/0909 6000 <span class=\"hl\">RA</span> -RADZ \n  PROB30 \n  TEMPO 0903/0909 4000 RADZ RASN BKN004 \n  BECMG 0906/0909 34010KT SCT020"
    },
    {
      "icao": "LBSF",
      "iata": "SOF",
      "name": "Sofia Airport",
      "updatedAt": "081400Z",
      "visibility_m": 10000,
      "taf_visibility_m": 800,
      "worst_visibility_m": 800,
      "ceiling_ft": 3000,
      "hazards": [
        "BLSN",
        "SN"
      ],
      "severityScore": 65,
      "metarRaw": "METAR LBSF 081400Z 29017KT 9999 1600W BLSN SCT026 BKN030 M04/M07 Q1005 NOSIG",
      "tafRaw": "TAF LBSF 081100Z 0812/0912 29024G36KT 5000 -SN SCT020 BKN040 OVC060 \n  TEMPO 0812/0814 0800 BLSN \n  BECMG 0814/0816 29016KT 9999 NSW SCT030 BKN060 \n  BECMG 0904/0906 VRB04KT SCT060",
      "metarHtml": "METAR LBSF 081400Z 29017KT 9999 1600W <span class=\"hl\">BLSN</span> SCT026 BKN030 M04/M07 Q1005 NOSIG",
      "tafHtml": "TAF LBSF 081100Z 0812/0912 29024G36KT 5000 -<span class=\"hl\">SN</span> SCT020 BKN040 OVC060 \n  TEMPO 0812/0814 <span class=\"hl-vis\">0800</span> <span class=\"hl\">BLSN</span> \n  BECMG 0814/0816 29016KT 9999 NSW SCT030 BKN060 \n  BECMG 0904/0906 VRB04KT SCT060"
    },
    {
      "icao": "LZTT",
      "iata": "TAT",
      "name": "Poprad-Tatry Airport",
      "updatedAt": "081400Z",
      "visibility_m": 10000,
      "taf_visibility_m": 500,
      "worst_visibility_m": 500,
      "ceiling_ft": null,
      "hazards": [
        "FZFG"
      ],
      "severityScore": 65,
      "metarRaw": "METAR LZTT 081400Z 27015KT 9999 FEW026 M06/M10 Q1002 NOSIG",
      "tafRaw": "TAF LZTT 081115Z 0812/0912 27010KT 9999 FEW035 \n  BECMG 0903/0905 VRB02KT \n  PROB30 \n  TEMPO 0904/0908 0500 FZFG BKN002",
      "metarHtml": "METAR LZTT 081400Z 27015KT 9999 FEW026 M06/M10 Q1002 NOSIG",
      "tafHtml": "TAF LZTT 081115Z 0812/0912 27010KT 9999 FEW035 \n  BECMG 0903/0905 VRB02KT \n  PROB30 \n  TEMPO 0904/0908 <span class=\"hl-vis\">0500</span> <span class=\"hl\">FZFG</span> BKN002"
    },
    {
      "icao": "EDJA",
      "iata": "FMM",
      "name": "Memmingen Allgau Airport",
      "updatedAt": "081350Z",
      "visibility_m": 10000,
      "taf_visibility_m": 900,
      "worst_visibility_m": 900,
      "ceiling_ft": 3500,
      "hazards": [
        "SN",
        "FZRA"
      ],
      "severityScore": 63,
      "metarRaw": "METAR EDJA 081350Z 23009KT 9999 -SN FEW010 OVC035 M01/M02 Q1007",
      "tafRaw": "TAF EDJA 081100Z 0812/0821 22010KT 9999 SCT020 BKN035 \n  TEMPO 0812/0816 4000 -SN BKN008 \n  PROB30 \n  TEMPO 0815/0818 -FZRA \n  TEMPO 0819/0821 0900 SN VV002",
      "metarHtml": "METAR EDJA 081350Z 23009KT 9999 -<span class=\"hl\">SN</span> FEW010 OVC035 M01/M02 Q1007",
      "tafHtml": "TAF EDJA 081100Z 0812/0821 22010KT 9999 SCT020 BKN035 \n  TEMPO 0812/0816 4000 -<span class=\"hl\">SN</span> BKN008 \n  PROB30 \n  TEMPO 0815/0818 -<span class=\"hl\">FZRA</span> \n  TEMPO 0819/0821 0900 <span class=\"hl\">SN</span> VV002"
    },
    {
      "icao": "ENAL",
      "iata": "AES",
      "name": "Ålesund Airport, Vigra",
      "updatedAt": "081350Z",
      "visibility_m": 10000,
      "taf_visibility_m": 1500,
      "worst_visibility_m": 1500,
      "ceiling_ft": 900,
      "hazards": [
        "SN",
        "SHSN"
      ],
      "severityScore": 63,
      "metarRaw": "METAR ENAL 081350Z 20009KT 9999 -SN SCT006 BKN009 M02/M04 Q1003",
      "tafRaw": "TAF ENAL 081100Z 0812/0821 15010KT 9999 FEW025 BKN040 \n  PROB40 \n  TEMPO 0812/0820 19020KT 1500 SHSN BKN009 SCT020CB",
      "metarHtml": "METAR ENAL 081350Z 20009KT 9999 -<span class=\"hl\">SN</span> SCT006 BKN009 M02/M04 Q1003",
      "tafHtml": "TAF ENAL 081100Z 0812/0821 15010KT 9999 FEW025 BKN040 \n  PROB40 \n  TEMPO 0812/0820 19020KT 1500 <span class=\"hl\">SHSN</span> BKN009 SCT020CB"
    },
    {
      "icao": "EPPO",
      "iata": "POZ",
      "name": "Poznań-Ławica Airport",
      "updatedAt": "081400Z",
      "visibility_m": 3200,
      "taf_visibility_m": 1200,
      "worst_visibility_m": 1200,
      "ceiling_ft": 600,
      "hazards": [
        "BR",
        "SN"
      ],
      "severityScore": 63,
      "metarRaw": "METAR EPPO 081400Z 10002KT 3200 BR BKN006 M08/M10 Q1012",
      "tafRaw": "TAF EPPO 081130Z 0812/0912 07003KT 4000 BR OVC006 \n  TEMPO 0812/0820 2000 BR OVC004 \n  PROB40 \n  TEMPO 0812/0816 7000 SCT012 \n  TEMPO 0820/0908 1200 -SN -SG BR OVC002 \n  BECMG 0908/0911 10013KT 7000 BKN012",
      "metarHtml": "METAR EPPO 081400Z 10002KT 3200 <span class=\"hl\">BR</span> BKN006 M08/M10 Q1012",
      "tafHtml": "TAF EPPO 081130Z 0812/0912 07003KT 4000 <span class=\"hl\">BR</span> OVC006 \n  TEMPO 0812/0820 2000 <span class=\"hl\">BR</span> OVC004 \n  PROB40 \n  TEMPO 0812/0816 7000 SCT012 \n  TEMPO 0820/0908 1200 -<span class=\"hl\">SN</span> -SG <span class=\"hl\">BR</span> OVC002 \n  BECMG 0908/0911 10013KT 7000 BKN012"
    },
    {
      "icao": "EDDB",
      "iata": "BER",
      "name": "Berlin Brandenburg Airport",
      "updatedAt": "081350Z",
      "visibility_m": 4000,
      "taf_visibility_m": 1000,
      "worst_visibility_m": 1000,
      "ceiling_ft": 1400,
      "hazards": [
        "SN",
        "BLSN"
      ],
      "severityScore": 62,
      "metarRaw": "METAR EDDB 081350Z AUTO 13007KT 9999 -SN SCT023 BKN036 BKN048 M05/M08 Q1009 TEMPO 4000 -SN BKN014",
      "tafRaw": "TAF EDDB 081100Z 0812/0912 12008KT 9999 BKN025 \n  PROB30 \n  TEMPO 0812/0817 2800 SN BKN009 \n  BECMG 0823/0902 10013KT \n  BECMG 0908/0911 10015G25KT 4000 -SN BKN010 \n  TEMPO 0910/0912 10020G30KT 1000 BLSN BKN004",
      "metarHtml": "METAR EDDB 081350Z AUTO 13007KT 9999 -<span class=\"hl\">SN</span> SCT023 BKN036 BKN048 M05/M08 Q1009 TEMPO 4000 -<span class=\"hl\">SN</span> BKN014",
      "tafHtml": "TAF EDDB 081100Z 0812/0912 12008KT 9999 BKN025 \n  PROB30 \n  TEMPO 0812/0817 2800 <span class=\"hl\">SN</span> BKN009 \n  BECMG 0823/0902 10013KT \n  BECMG 0908/0911 10015G25KT 4000 -<span class=\"hl\">SN</span> BKN010 \n  TEMPO 0910/0912 10020G30KT 1000 <span class=\"hl\">BLSN</span> BKN004"
    },
    {
      "icao": "LFPO",
      "iata": "ORY",
      "name": "Paris-Orly Airport",
      "updatedAt": "081410Z",
      "visibility_m": 4000,
      "taf_visibility_m": 4000,
      "worst_visibility_m": 4000,
      "ceiling_ft": 300,
      "hazards": [
        "RA",
        "SHRA"
      ],
      "severityScore": 61,
      "metarRaw": "METAR LFPO 081410Z COR 19007KT 4000 -RA BKN003 BKN013 06/06 Q1004 NOSIG",
      "tafRaw": "TAF LFPO 081100Z 0812/0918 21010G20KT 9999 SCT012 BKN040 \n  TEMPO 0812/0816 4000 -RA BKN008 \n  BECMG 0816/0818 20020G30KT \n  BECMG 0819/0821 20025G40KT BKN030TCU \n  PROB40 \n  TEMPO 0819/0821 -RA BKN012 \n  PROB40 0900/0905 24030G50KT \n  PROB40 0903/0918 4000 -SHRA \n  BECMG 0912/0914 25020G30KT",
      "metarHtml": "METAR LFPO 081410Z COR 19007KT 4000 -<span class=\"hl\">RA</span> BKN003 BKN013 06/06 Q1004 NOSIG",
      "tafHtml": "TAF LFPO 081100Z 0812/0918 21010G20KT 9999 SCT012 BKN040 \n  TEMPO 0812/0816 4000 -<span class=\"hl\">RA</span> BKN008 \n  BECMG 0816/0818 20020G30KT \n  BECMG 0819/0821 20025G40KT BKN030TCU \n  PROB40 \n  TEMPO 0819/0821 -<span class=\"hl\">RA</span> BKN012 \n  PROB40 0900/0905 24030G50KT \n  PROB40 0903/0918 4000 -<span class=\"hl\">SHRA</span> \n  BECMG 0912/0914 25020G30KT"
    },
    {
      "icao": "EDDH",
      "iata": "HAM",
      "name": "Hamburg Helmut Schmidt Airport",
      "updatedAt": "081350Z",
      "visibility_m": 1200,
      "taf_visibility_m": null,
      "worst_visibility_m": 1200,
      "ceiling_ft": 400,
      "hazards": [
        "SHSN"
      ],
      "severityScore": 60,
      "metarRaw": "METAR EDDH 081350Z AUTO 14007KT 8000 OVC005 M00/M01 Q1005 TEMPO 1200 SHSN BKN004",
      "tafRaw": null,
      "metarHtml": "METAR EDDH 081350Z AUTO 14007KT 8000 OVC005 M00/M01 Q1005 TEMPO 1200 <span class=\"hl\">SHSN</span> BKN004",
      "tafHtml": null
    },
    {
      "icao": "EHEH",
      "iata": "EIN",
      "name": "Eindhoven Airport",
      "updatedAt": "081355Z",
      "visibility_m": 5000,
      "taf_visibility_m": 2000,
      "worst_visibility_m": 2000,
      "ceiling_ft": 400,
      "hazards": [
        "BR",
        "RA"
      ],
      "severityScore": 57,
      "metarRaw": "METAR EHEH 081355Z AUTO 17003KT 140V210 5000 BR OVC004 02/01 Q1004 YLO TEMPO BKN005",
      "tafRaw": "TAF EHEH 081158Z 0812/0918 20007KT 6000 BKN006 \n  TEMPO 0817/0901 3000 BR -RADZ SCT003 BKN005 OVC010 \n  PROB40 \n  TEMPO 0821/0901 2000 RADZ \n  TEMPO 0901/0908 18012G22KT SCT025 \n  TEMPO 0905/0910 18015G27KT 3500 RA SCT005 BKN008 OVC015 \n  TEMPO 0910/0918 2500 SNRA SCT002 BKN004 OVC010",
      "metarHtml": "METAR EHEH 081355Z AUTO 17003KT 140V210 5000 <span class=\"hl\">BR</span> OVC004 02/01 Q1004 YLO TEMPO BKN005",
      "tafHtml": "TAF EHEH 081158Z 0812/0918 20007KT 6000 BKN006 \n  TEMPO 0817/0901 3000 <span class=\"hl\">BR</span> -RADZ SCT003 BKN005 OVC010 \n  PROB40 \n  TEMPO 0821/0901 2000 RADZ \n  TEMPO 0901/0908 18012G22KT SCT025 \n  TEMPO 0905/0910 18015G27KT 3500 <span class=\"hl\">RA</span> SCT005 BKN008 OVC015 \n  TEMPO 0910/0918 2500 SNRA SCT002 BKN004 OVC010"
    },
    {
      "icao": "OJAI",
      "iata": "AMM",
      "name": "Queen Alia International Airport",
      "updatedAt": "081400Z",
      "visibility_m": 4000,
      "taf_visibility_m": 1500,
      "worst_visibility_m": 1500,
      "ceiling_ft": null,
      "hazards": [
        "BR",
        "TSRA",
        "RA"
      ],
      "severityScore": 57,
      "metarRaw": "METAR OJAI 081400Z 17009KT 4000 HZ NSC 21/05 Q1018 NOSIG",
      "tafRaw": "TAF OJAI 081100Z 0812/0918 13008KT 5000 HZ NSC \n  PROB30 \n  TEMPO 0812/0817 12016KT 4000 BLDU \n  BECMG 0818/0820 24014KT \n  BECMG 0902/0904 3000 -RA BKN030 \n  TEMPO 0906/0918 27025G35KT 1500 TSRA BR FEW020CB OVC025",
      "metarHtml": "METAR OJAI 081400Z 17009KT 4000 HZ NSC 21/05 Q1018 NOSIG",
      "tafHtml": "TAF OJAI 081100Z 0812/0918 13008KT 5000 HZ NSC \n  PROB30 \n  TEMPO 0812/0817 12016KT 4000 BLDU \n  BECMG 0818/0820 24014KT \n  BECMG 0902/0904 3000 -<span class=\"hl\">RA</span> BKN030 \n  TEMPO 0906/0918 27025G35KT 1500 <span class=\"hl\">TSRA</span> <span class=\"hl\">BR</span> FEW020CB OVC025"
    },
    {
      "icao": "EPWA",
      "iata": "WAW",
      "name": "Warsaw Chopin Airport",
      "updatedAt": "081400Z",
      "visibility_m": 4700,
      "taf_visibility_m": 2500,
      "worst_visibility_m": 2500,
      "ceiling_ft": 700,
      "hazards": [
        "BR",
        "SN"
      ],
      "severityScore": 53,
      "metarRaw": "METAR EPWA 081400Z 33009KT 300V360 4700 BR BKN007 M07/M08 Q1009 TEMPO 5000 BR",
      "tafRaw": "TAF EPWA 081130Z 0812/0912 34006KT 3500 BR SCT007 \n  TEMPO 0812/0912 2500 -SN BR BKN005 \n  PROB40 \n  TEMPO 0822/0910 BKN003",
      "metarHtml": "METAR EPWA 081400Z 33009KT 300V360 4700 <span class=\"hl\">BR</span> BKN007 M07/M08 Q1009 TEMPO 5000 <span class=\"hl\">BR</span>",
      "tafHtml": "TAF EPWA 081130Z 0812/0912 34006KT 3500 <span class=\"hl\">BR</span> SCT007 \n  TEMPO 0812/0912 2500 -<span class=\"hl\">SN</span> <span class=\"hl\">BR</span> BKN005 \n  PROB40 \n  TEMPO 0822/0910 BKN003"
    },
    {
      "icao": "LRBV",
      "iata": "GHV",
      "name": "Brașov-Ghimbav International Airport",
      "updatedAt": "081400Z",
      "visibility_m": 4500,
      "taf_visibility_m": 1500,
      "worst_visibility_m": 1500,
      "ceiling_ft": 1000,
      "hazards": [
        "BR",
        "SN"
      ],
      "severityScore": 50,
      "metarRaw": "METAR LRBV 081400Z 29012KT 260V320 4500 -SNSG BR BKN010 OVC018 M05/M07 Q1000",
      "tafRaw": "TAF LRBV 081100Z 0812/0821 30012KT 3000 -SN BR BKN005 BKN015 \n  TEMPO 0812/0814 1500 SN BR BKN003 OVC010 \n  BECMG 0814/0816 7000 NSW BKN015 BKN030",
      "metarHtml": "METAR LRBV 081400Z 29012KT 260V320 4500 -SNSG <span class=\"hl\">BR</span> BKN010 OVC018 M05/M07 Q1000",
      "tafHtml": "TAF LRBV 081100Z 0812/0821 30012KT 3000 -<span class=\"hl\">SN</span> <span class=\"hl\">BR</span> BKN005 BKN015 \n  TEMPO 0812/0814 1500 <span class=\"hl\">SN</span> <span class=\"hl\">BR</span> BKN003 OVC010 \n  BECMG 0814/0816 7000 NSW BKN015 BKN030"
    },
    {
      "icao": "LROP",
      "iata": "OTP",
      "name": "Bucharest Henri Coandă International Airport",
      "updatedAt": "081400Z",
      "visibility_m": 9000,
      "taf_visibility_m": 1500,
      "worst_visibility_m": 1500,
      "ceiling_ft": 2300,
      "hazards": [
        "RA",
        "BR",
        "SN"
      ],
      "severityScore": 50,
      "metarRaw": "METAR LROP 081400Z 26011KT 9000 -RA BKN023 OVC048 00/00 Q0998 NOSIG",
      "tafRaw": "TAF LROP 081100Z 0812/0912 26014KT 5000 -SN BR BKN010 OVC020 \n  TEMPO 0812/0814 1500 SN BR BKN005 OVC020 \n  BECMG 0814/0816 9999 NSW BKN025",
      "metarHtml": "METAR LROP 081400Z 26011KT 9000 -<span class=\"hl\">RA</span> BKN023 OVC048 00/00 Q0998 NOSIG",
      "tafHtml": "TAF LROP 081100Z 0812/0912 26014KT 5000 -<span class=\"hl\">SN</span> <span class=\"hl\">BR</span> BKN010 OVC020 \n  TEMPO 0812/0814 1500 <span class=\"hl\">SN</span> <span class=\"hl\">BR</span> BKN005 OVC020 \n  BECMG 0814/0816 9999 NSW BKN025"
    },
    {
      "icao": "LFOB",
      "iata": "BVA",
      "name": "Beauvais Tillé airport",
      "updatedAt": "081400Z",
      "visibility_m": 4400,
      "taf_visibility_m": 4000,
      "worst_visibility_m": 4000,
      "ceiling_ft": 700,
      "hazards": [
        "BR",
        "RA"
      ],
      "severityScore": 47,
      "metarRaw": "METAR LFOB 081400Z AUTO 19004KT 160V220 4400 RA BR BKN036/// BKN045/// OVC058/// ///TCU 05/05 Q1003 TEMPO BKN007 OVC011",
      "tafRaw": "TAF LFOB 081100Z 0812/0912 22012KT 9999 BKN025 \n  TEMPO 0812/0820 4000 RA BKN007 OVC011 \n  BECMG 0820/0822 21025G35KT 4000 RA OVC020 \n  TEMPO 0822/0906 22030G50KT \n  PROB40 \n  TEMPO 0907/0912 OVC012",
      "metarHtml": "METAR LFOB 081400Z AUTO 19004KT 160V220 4400 <span class=\"hl\">RA</span> <span class=\"hl\">BR</span> BKN036/// BKN045/// OVC058/// ///TCU 05/05 Q1003 TEMPO BKN007 OVC011",
      "tafHtml": "TAF LFOB 081100Z 0812/0912 22012KT 9999 BKN025 \n  TEMPO 0812/0820 4000 <span class=\"hl\">RA</span> BKN007 OVC011 \n  BECMG 0820/0822 21025G35KT 4000 <span class=\"hl\">RA</span> OVC020 \n  TEMPO 0822/0906 22030G50KT \n  PROB40 \n  TEMPO 0907/0912 OVC012"
    },
    {
      "icao": "EDDS",
      "iata": "STR",
      "name": "Stuttgart Airport",
      "updatedAt": "081350Z",
      "visibility_m": 10000,
      "taf_visibility_m": 4000,
      "worst_visibility_m": 4000,
      "ceiling_ft": 2600,
      "hazards": [
        "SN",
        "RA",
        "SHRA"
      ],
      "severityScore": 44,
      "metarRaw": "METAR EDDS 081350Z AUTO 15004KT 9999 SCT018 OVC026 02/M01 Q1006 NOSIG",
      "tafRaw": "TAF EDDS 081100Z 0812/0912 15004KT 9999 BKN020 \n  TEMPO 0812/0821 4000 -SN \n  TEMPO 0821/0902 4000 RA \n  BECMG 0902/0905 21014KT \n  TEMPO 0905/0912 22020G35KT 4000 SHRA BKN015CB",
      "metarHtml": "METAR EDDS 081350Z AUTO 15004KT 9999 SCT018 OVC026 02/M01 Q1006 NOSIG",
      "tafHtml": "TAF EDDS 081100Z 0812/0912 15004KT 9999 BKN020 \n  TEMPO 0812/0821 4000 -<span class=\"hl\">SN</span> \n  TEMPO 0821/0902 4000 <span class=\"hl\">RA</span> \n  BECMG 0902/0905 21014KT \n  TEMPO 0905/0912 22020G35KT 4000 <span class=\"hl\">SHRA</span> BKN015CB"
    },
    {
      "icao": "EYKA",
      "iata": "KUN",
      "name": "Kaunas International Airport",
      "updatedAt": "081350Z",
      "visibility_m": 10000,
      "taf_visibility_m": 5000,
      "worst_visibility_m": 5000,
      "ceiling_ft": 900,
      "hazards": [
        "SN"
      ],
      "severityScore": 43,
      "metarRaw": "METAR EYKA 081350Z 02010KT 330V060 9999 OVC009 M08/M08 Q1012",
      "tafRaw": "TAF EYKA 081100Z 0812/0912 VRB05KT 7000 OVC005 \n  BECMG 0812/0815 OVC010 \n  BECMG 0815/0818 04010KT BKN015 \n  BECMG 0821/0824 NSC \n  BECMG 0910/0912 5000 SN SCT015 BKN040",
      "metarHtml": "METAR EYKA 081350Z 02010KT 330V060 9999 OVC009 M08/M08 Q1012",
      "tafHtml": "TAF EYKA 081100Z 0812/0912 VRB05KT 7000 OVC005 \n  BECMG 0812/0815 OVC010 \n  BECMG 0815/0818 04010KT BKN015 \n  BECMG 0821/0824 NSC \n  BECMG 0910/0912 5000 <span class=\"hl\">SN</span> SCT015 BKN040"
    },
    {
      "icao": "EBCI",
      "iata": "CRL",
      "name": "Brussels South Charleroi Airport",
      "updatedAt": "081350Z",
      "visibility_m": 2000,
      "taf_visibility_m": null,
      "worst_visibility_m": 2000,
      "ceiling_ft": 200,
      "hazards": [],
      "severityScore": 40,
      "metarRaw": "METAR EBCI 081350Z 17007KT 9999 FEW004 BKN006 02/01 Q1003 TEMPO 2000 -RADZ BKN002",
      "tafRaw": null,
      "metarHtml": "METAR EBCI 081350Z 17007KT 9999 FEW004 BKN006 02/01 Q1003 TEMPO 2000 -RADZ BKN002",
      "tafHtml": null
    },
    {
      "icao": "LRSM",
      "iata": "SUJ",
      "name": "Satu Mare International Airport",
      "updatedAt": "081400Z",
      "visibility_m": 2400,
      "taf_visibility_m": 5000,
      "worst_visibility_m": 2400,
      "ceiling_ft": 1600,
      "hazards": [
        "BR",
        "SN"
      ],
      "severityScore": 40,
      "metarRaw": "METAR LRSM 081400Z 27013KT 2400 -SN BR BKN016 OVC032 M05/M07 Q1005",
      "tafRaw": "TAF LRSM 081100Z 0812/0821 26010KT 7000 OVC015 \n  PROB40 \n  TEMPO 0812/0814 5000 -SN BR OVC010 \n  BECMG 0817/0819 BKN020",
      "metarHtml": "METAR LRSM 081400Z 27013KT 2400 -<span class=\"hl\">SN</span> <span class=\"hl\">BR</span> BKN016 OVC032 M05/M07 Q1005",
      "tafHtml": "TAF LRSM 081100Z 0812/0821 26010KT 7000 OVC015 \n  PROB40 \n  TEMPO 0812/0814 5000 -<span class=\"hl\">SN</span> <span class=\"hl\">BR</span> OVC010 \n  BECMG 0817/0819 BKN020"
    },
    {
      "icao": "LCLK",
      "iata": "LCA",
      "name": "Larnaca International Airport",
      "updatedAt": "081400Z",
      "visibility_m": 7000,
      "taf_visibility_m": 2000,
      "worst_visibility_m": 2000,
      "ceiling_ft": null,
      "hazards": [
        "TSRA",
        "SHRA"
      ],
      "severityScore": 39,
      "metarRaw": "METAR LCLK 081400Z 10008KT 7000 FEW030 20/17 Q1013 NOSIG",
      "tafRaw": "TAF LCLK 081130Z 0812/0912 12010KT 9999 FEW025 \n  BECMG 0812/0814 18010KT \n  BECMG 0820/0822 24020KT \n  PROB40 \n  TEMPO 0820/0902 3000 SHRA SCT020TCU \n  PROB30 \n  TEMPO 0909/0912 3000 SHRA SCT020TCU \n  PROB30 \n  TEMPO 0909/0912 28030G40KT 2000 TSRA SCT020CB \n  BECMG 0910/0912 28025G35KT",
      "metarHtml": "METAR LCLK 081400Z 10008KT 7000 FEW030 20/17 Q1013 NOSIG",
      "tafHtml": "TAF LCLK 081130Z 0812/0912 12010KT 9999 FEW025 \n  BECMG 0812/0814 18010KT \n  BECMG 0820/0822 24020KT \n  PROB40 \n  TEMPO 0820/0902 3000 <span class=\"hl\">SHRA</span> SCT020TCU \n  PROB30 \n  TEMPO 0909/0912 3000 <span class=\"hl\">SHRA</span> SCT020TCU \n  PROB30 \n  TEMPO 0909/0912 28030G40KT 2000 <span class=\"hl\">TSRA</span> SCT020CB \n  BECMG 0910/0912 28025G35KT"
    },
    {
      "icao": "LCPH",
      "iata": "PFO",
      "name": "Paphos International Airport",
      "updatedAt": "081400Z",
      "visibility_m": 10000,
      "taf_visibility_m": 2000,
      "worst_visibility_m": 2000,
      "ceiling_ft": null,
      "hazards": [
        "TSRA",
        "SHRA"
      ],
      "severityScore": 39,
      "metarRaw": "METAR LCPH 081400Z 11009KT 090V160 CAVOK 20/12 Q1011 NOSIG",
      "tafRaw": "TAF LCPH 081130Z 0812/0912 14016KT 9999 FEW025 \n  PROB40 \n  TEMPO 0818/0901 3000 SHRA SCT020TCU \n  BECMG 0819/0821 28025KT \n  BECMG 0905/0907 29032G42KT \n  PROB30 \n  TEMPO 0905/0912 2000 TSRA SCT020CB \n  PROB40 \n  TEMPO 0905/0912 4000 SHRA SCT020TCU",
      "metarHtml": "METAR LCPH 081400Z 11009KT 090V160 <span class=\"hl-vis\">CAVOK</span> 20/12 Q1011 NOSIG",
      "tafHtml": "TAF LCPH 081130Z 0812/0912 14016KT 9999 FEW025 \n  PROB40 \n  TEMPO 0818/0901 3000 <span class=\"hl\">SHRA</span> SCT020TCU \n  BECMG 0819/0821 28025KT \n  BECMG 0905/0907 29032G42KT \n  PROB30 \n  TEMPO 0905/0912 2000 <span class=\"hl\">TSRA</span> SCT020CB \n  PROB40 \n  TEMPO 0905/0912 4000 <span class=\"hl\">SHRA</span> SCT020TCU"
    },
    {
      "icao": "LTFM",
      "iata": "IST",
      "name": "İstanbul Airport",
      "updatedAt": "081350Z",
      "visibility_m": 10000,
      "taf_visibility_m": 4000,
      "worst_visibility_m": 4000,
      "ceiling_ft": 2500,
      "hazards": [
        "SHRA",
        "TSRA"
      ],
      "severityScore": 39,
      "metarRaw": "METAR LTFM 081350Z 28014KT 9999 -SHRA FEW018CB BKN025 BKN080 11/07 Q1000 RETSRA NOSIG RMK RWY17L 34015KT 300V360 RWY34L 27011KT RWY16R 34014KT RWY36 28014KT RWY18 28016G29KT 230V340",
      "tafRaw": "TAF LTFM 081040Z 0812/0918 22022G32KT 9999 -SHRA BKN030 BKN080 \n  BECMG 0812/0814 26008KT \n  TEMPO 0813/0817 34012KT 4000 TSRA SCT017CB BKN025 \n  PROB40 \n  TEMPO 0817/0820 34012KT 4000 SHRA FEW017CB BKN022 \n  PROB30 \n  TEMPO 0820/0823 -SHSNRA SCT010 BKN018 \n  BECMG 0903/0905 FEW035 BKN100 \n  BECMG 0912/0915 20012KT",
      "metarHtml": "METAR LTFM 081350Z 28014KT 9999 -<span class=\"hl\">SHRA</span> FEW018CB BKN025 BKN080 11/07 Q1000 RETSRA NOSIG RMK RWY17L 34015KT 300V360 RWY34L 27011KT RWY16R 34014KT RWY36 28014KT RWY18 28016G29KT 230V340",
      "tafHtml": "TAF LTFM 081040Z 0812/0918 22022G32KT 9999 -<span class=\"hl\">SHRA</span> BKN030 BKN080 \n  BECMG 0812/0814 26008KT \n  TEMPO 0813/0817 34012KT 4000 <span class=\"hl\">TSRA</span> SCT017CB BKN025 \n  PROB40 \n  TEMPO 0817/0820 34012KT 4000 <span class=\"hl\">SHRA</span> FEW017CB BKN022 \n  PROB30 \n  TEMPO 0820/0823 -SHSNRA SCT010 BKN018 \n  BECMG 0903/0905 FEW035 BKN100 \n  BECMG 0912/0915 20012KT"
    },
    {
      "icao": "EPRA",
      "iata": "RDO",
      "name": "Warsaw Radom Airport",
      "updatedAt": "081400Z",
      "visibility_m": 3500,
      "taf_visibility_m": 1200,
      "worst_visibility_m": 1200,
      "ceiling_ft": 2600,
      "hazards": [
        "BR",
        "SN"
      ],
      "severityScore": 38,
      "metarRaw": "METAR EPRA 081400Z 34009KT 3500 BR BKN026 M07/M09 Q1007",
      "tafRaw": "TAF EPRA 081130Z 0812/0821 35010KT 3000 -SN BR OVC025 \n  PROB40 \n  TEMPO 0812/0818 1200 SN BR SCT006 OVC014 \n  BECMG 0818/0820 5000 BR",
      "metarHtml": "METAR EPRA 081400Z 34009KT 3500 <span class=\"hl\">BR</span> BKN026 M07/M09 Q1007",
      "tafHtml": "TAF EPRA 081130Z 0812/0821 35010KT 3000 -<span class=\"hl\">SN</span> <span class=\"hl\">BR</span> OVC025 \n  PROB40 \n  TEMPO 0812/0818 1200 <span class=\"hl\">SN</span> <span class=\"hl\">BR</span> SCT006 OVC014 \n  BECMG 0818/0820 5000 <span class=\"hl\">BR</span>"
    },
    {
      "icao": "LRBS",
      "iata": "BBU",
      "name": "Bucharest Băneasa Aurel Vlaicu International Airport",
      "updatedAt": "081400Z",
      "visibility_m": 3500,
      "taf_visibility_m": 1500,
      "worst_visibility_m": 1500,
      "ceiling_ft": 2800,
      "hazards": [
        "BR",
        "SN"
      ],
      "severityScore": 38,
      "metarRaw": "METAR LRBS 081400Z 27009KT 240V310 3500 -SN BR BKN028 OVC045 00/M00 Q0999 NOSIG",
      "tafRaw": "TAF LRBS 081100Z 0812/0912 26014KT 5000 -SN BR BKN010 OVC020 \n  TEMPO 0812/0814 1500 SN BR BKN005 OVC020 \n  BECMG 0814/0816 9999 NSW BKN025",
      "metarHtml": "METAR LRBS 081400Z 27009KT 240V310 3500 -<span class=\"hl\">SN</span> <span class=\"hl\">BR</span> BKN028 OVC045 00/M00 Q0999 NOSIG",
      "tafHtml": "TAF LRBS 081100Z 0812/0912 26014KT 5000 -<span class=\"hl\">SN</span> <span class=\"hl\">BR</span> BKN010 OVC020 \n  TEMPO 0812/0814 1500 <span class=\"hl\">SN</span> <span class=\"hl\">BR</span> BKN005 OVC020 \n  BECMG 0814/0816 9999 NSW BKN025"
    },
    {
      "icao": "UDSG",
      "iata": "LWN",
      "name": "Shirak International Airport",
      "updatedAt": "081400Z",
      "visibility_m": 5000,
      "taf_visibility_m": 1000,
      "worst_visibility_m": 1000,
      "ceiling_ft": null,
      "hazards": [
        "BR",
        "SN"
      ],
      "severityScore": 38,
      "metarRaw": "METAR UDSG 081400Z 22002KT 5000 BR SCT049 M07/M10 Q1021 NOSIG",
      "tafRaw": "TAF UDSG 081100Z 0812/0912 VRB06KT 5000 BR SCT040 \n  TEMPO 0812/0820 2000 BR BKN030 \n  TEMPO 0820/0906 1000 SN BR OVC020",
      "metarHtml": "METAR UDSG 081400Z 22002KT 5000 <span class=\"hl\">BR</span> SCT049 M07/M10 Q1021 NOSIG",
      "tafHtml": "TAF UDSG 081100Z 0812/0912 VRB06KT 5000 <span class=\"hl\">BR</span> SCT040 \n  TEMPO 0812/0820 2000 <span class=\"hl\">BR</span> BKN030 \n  TEMPO 0820/0906 1000 <span class=\"hl\">SN</span> <span class=\"hl\">BR</span> OVC020"
    },
    {
      "icao": "EDSB",
      "iata": "FKB",
      "name": "Karlsruhe Baden-Baden Airport",
      "updatedAt": "081350Z",
      "visibility_m": 10000,
      "taf_visibility_m": 4000,
      "worst_visibility_m": 4000,
      "ceiling_ft": 2100,
      "hazards": [
        "DZ",
        "RA",
        "SHRA"
      ],
      "severityScore": 36,
      "metarRaw": "METAR EDSB 081350Z 21009KT 9999 -DZ OVC021 03/01 Q1007",
      "tafRaw": "TAF EDSB 081100Z 0812/0912 20010KT 9999 BKN025 \n  TEMPO 0812/0816 4000 -RASN \n  TEMPO 0818/0902 4000 RA \n  BECMG 0819/0822 20015G25KT \n  TEMPO 0902/0912 20025G40KT 4000 SHRA BKN020CB",
      "metarHtml": "METAR EDSB 081350Z 21009KT 9999 -<span class=\"hl\">DZ</span> OVC021 03/01 Q1007",
      "tafHtml": "TAF EDSB 081100Z 0812/0912 20010KT 9999 BKN025 \n  TEMPO 0812/0816 4000 -RASN \n  TEMPO 0818/0902 4000 <span class=\"hl\">RA</span> \n  BECMG 0819/0822 20015G25KT \n  TEMPO 0902/0912 20025G40KT 4000 <span class=\"hl\">SHRA</span> BKN020CB"
    },
    {
      "icao": "EGKK",
      "iata": "LGW",
      "name": "London Gatwick Airport",
      "updatedAt": "081350Z",
      "visibility_m": 6000,
      "taf_visibility_m": 2000,
      "worst_visibility_m": 2000,
      "ceiling_ft": 3100,
      "hazards": [
        "RA",
        "BR",
        "SHRA"
      ],
      "severityScore": 36,
      "metarRaw": "METAR EGKK 081350Z 15003KT 110V180 6000 -RA FEW006 BKN031 05/05 Q0999",
      "tafRaw": "TAF EGKK 081058Z 0812/0918 17004KT 9999 SCT007 BKN040 \n  TEMPO 0812/0814 8000 -RADZ BKN007 \n  PROB30 \n  TEMPO 0812/0814 4000 BR BKN004 \n  BECMG 0813/0816 11011KT \n  TEMPO 0814/0820 6000 RA BKN010 \n  PROB40 \n  TEMPO 0816/0820 4000 +RA BKN006 \n  PROB30 \n  TEMPO 0816/0818 12015G25KT \n  BECMG 0817/0819 19012KT \n  TEMPO 0819/0823 20016G27KT \n  PROB40 \n  TEMPO 0820/0904 7000 RA SHRA BKN012 \n  BECMG 0823/0902 30018G28KT \n  TEMPO 0904/0911 6000 -RASN BKN008 \n  PROB30 \n  TEMPO 0904/0910 30020G38KT 2000 RASN BKN004 \n  TEMPO 0911/0912 6000 RA SHRA BKN012",
      "metarHtml": "METAR EGKK 081350Z 15003KT 110V180 6000 -<span class=\"hl\">RA</span> FEW006 BKN031 05/05 Q0999",
      "tafHtml": "TAF EGKK 081058Z 0812/0918 17004KT 9999 SCT007 BKN040 \n  TEMPO 0812/0814 8000 -RADZ BKN007 \n  PROB30 \n  TEMPO 0812/0814 4000 <span class=\"hl\">BR</span> BKN004 \n  BECMG 0813/0816 11011KT \n  TEMPO 0814/0820 6000 <span class=\"hl\">RA</span> BKN010 \n  PROB40 \n  TEMPO 0816/0820 4000 +<span class=\"hl\">RA</span> BKN006 \n  PROB30 \n  TEMPO 0816/0818 12015G25KT \n  BECMG 0817/0819 19012KT \n  TEMPO 0819/0823 20016G27KT \n  PROB40 \n  TEMPO 0820/0904 7000 <span class=\"hl\">RA</span> <span class=\"hl\">SHRA</span> BKN012 \n  BECMG 0823/0902 30018G28KT \n  TEMPO 0904/0911 6000 -RASN BKN008 \n  PROB30 \n  TEMPO 0904/0910 30020G38KT 2000 RASN BKN004 \n  TEMPO 0911/0912 6000 <span class=\"hl\">RA</span> <span class=\"hl\">SHRA</span> BKN012"
    },
    {
      "icao": "LEXJ",
      "iata": "SDR",
      "name": "Seve Ballesteros-Santander Airport",
      "updatedAt": "081400Z",
      "visibility_m": 10000,
      "taf_visibility_m": 1500,
      "worst_visibility_m": 1500,
      "ceiling_ft": null,
      "hazards": [
        "RA",
        "SHRA"
      ],
      "severityScore": 36,
      "metarRaw": "METAR LEXJ 081400Z 21007KT 150V280 CAVOK 14/04 Q1017",
      "tafRaw": "TAF LEXJ 080800Z 0809/0909 24009KT 9999 FEW030 SCT060 TX15/0813Z TN10/0906Z \n  TEMPO 0810/0821 22018G28KT \n  TEMPO 0819/0909 27020G33KT 3000 RA \n  PROB40 \n  TEMPO 0821/0824 1500 +SHRA BKN010 SCT025TCU \n  PROB30 \n  TEMPO 0821/0909 27025G43KT \n  PROB30 \n  TEMPO 0900/0909 1500 SHRA BKN010 SCT025TCU",
      "metarHtml": "METAR LEXJ 081400Z 21007KT 150V280 <span class=\"hl-vis\">CAVOK</span> 14/04 Q1017",
      "tafHtml": "TAF LEXJ 080800Z 0809/0909 24009KT 9999 FEW030 SCT060 TX15/0813Z TN10/0906Z \n  TEMPO 0810/0821 22018G28KT \n  TEMPO 0819/0909 27020G33KT 3000 <span class=\"hl\">RA</span> \n  PROB40 \n  TEMPO 0821/0824 1500 +<span class=\"hl\">SHRA</span> BKN010 SCT025TCU \n  PROB30 \n  TEMPO 0821/0909 27025G43KT \n  PROB30 \n  TEMPO 0900/0909 1500 <span class=\"hl\">SHRA</span> BKN010 SCT025TCU"
    },
    {
      "icao": "LFLL",
      "iata": "LYS",
      "name": "Lyon Saint-Exupéry Airport",
      "updatedAt": "081400Z",
      "visibility_m": 4000,
      "taf_visibility_m": 4000,
      "worst_visibility_m": 4000,
      "ceiling_ft": 3300,
      "hazards": [
        "BR",
        "RA",
        "SHRA"
      ],
      "severityScore": 36,
      "metarRaw": "METAR LFLL 081400Z 14004KT 120V180 4000 -RA BR FEW007 BKN033 03/03 Q1013 TEMPO 4000 RA",
      "tafRaw": "TAF LFLL 081100Z 0812/0918 17008KT 9999 BKN030 \n  TEMPO 0812/0820 4000 RA \n  PROB40 \n  TEMPO 0812/0814 BKN006 \n  BECMG 0818/0820 18015G25KT \n  TEMPO 0822/0904 18020G35KT \n  PROB30 \n  TEMPO 0822/0904 4000 RA \n  BECMG 0906/0908 21010KT \n  PROB40 \n  TEMPO 0912/0918 4000 SHRA SCT030TCU",
      "metarHtml": "METAR LFLL 081400Z 14004KT 120V180 4000 -<span class=\"hl\">RA</span> <span class=\"hl\">BR</span> FEW007 BKN033 03/03 Q1013 TEMPO 4000 <span class=\"hl\">RA</span>",
      "tafHtml": "TAF LFLL 081100Z 0812/0918 17008KT 9999 BKN030 \n  TEMPO 0812/0820 4000 <span class=\"hl\">RA</span> \n  PROB40 \n  TEMPO 0812/0814 BKN006 \n  BECMG 0818/0820 18015G25KT \n  TEMPO 0822/0904 18020G35KT \n  PROB30 \n  TEMPO 0822/0904 4000 <span class=\"hl\">RA</span> \n  BECMG 0906/0908 21010KT \n  PROB40 \n  TEMPO 0912/0918 4000 <span class=\"hl\">SHRA</span> SCT030TCU"
    },
    {
      "icao": "EPKT",
      "iata": "KTW",
      "name": "Katowice Wojciech Korfanty International Airport",
      "updatedAt": "081400Z",
      "visibility_m": 10000,
      "taf_visibility_m": null,
      "worst_visibility_m": 10000,
      "ceiling_ft": 1000,
      "hazards": [
        "SN"
      ],
      "severityScore": 35,
      "metarRaw": "METAR EPKT 081400Z 32006KT 9999 -SN BKN010 M05/M07 Q1008",
      "tafRaw": null,
      "metarHtml": "METAR EPKT 081400Z 32006KT 9999 -<span class=\"hl\">SN</span> BKN010 M05/M07 Q1008",
      "tafHtml": null
    },
    {
      "icao": "EPRZ",
      "iata": "RZE",
      "name": "Rzeszów-Jasionka Airport",
      "updatedAt": "081400Z",
      "visibility_m": 7000,
      "taf_visibility_m": null,
      "worst_visibility_m": 7000,
      "ceiling_ft": 1000,
      "hazards": [
        "SN"
      ],
      "severityScore": 35,
      "metarRaw": "METAR EPRZ 081400Z 31009KT 7000 -SN OVC010 M05/M07 Q1005",
      "tafRaw": null,
      "metarHtml": "METAR EPRZ 081400Z 31009KT 7000 -<span class=\"hl\">SN</span> OVC010 M05/M07 Q1005",
      "tafHtml": null
    },
    {
      "icao": "LIRP",
      "iata": "PSA",
      "name": "Pisa International Airport",
      "updatedAt": "081345Z",
      "visibility_m": 10000,
      "taf_visibility_m": 800,
      "worst_visibility_m": 800,
      "ceiling_ft": null,
      "hazards": [
        "BR"
      ],
      "severityScore": 35,
      "metarRaw": "METAR LIRP 081345Z 12010KT 9999 FEW030 06/M02 Q1014 NOSIG",
      "tafRaw": "TAF LIRP 081100Z 0812/0912 11010KT 9999 FEW030 \n  PROB40 \n  TEMPO 0821/0905 3000 BR SCT015 SCT030 \n  PROB30 \n  TEMPO 0900/0904 0800 \n  BECMG 0906/0908 27017KT",
      "metarHtml": "METAR LIRP 081345Z 12010KT 9999 FEW030 06/M02 Q1014 NOSIG",
      "tafHtml": "TAF LIRP 081100Z 0812/0912 11010KT 9999 FEW030 \n  PROB40 \n  TEMPO 0821/0905 3000 <span class=\"hl\">BR</span> SCT015 SCT030 \n  PROB30 \n  TEMPO 0900/0904 <span class=\"hl-vis\">0800</span> \n  BECMG 0906/0908 27017KT"
    },
    {
      "icao": "EDDK",
      "iata": "CGN",
      "name": "Cologne Bonn Airport",
      "updatedAt": "081350Z",
      "visibility_m": 10000,
      "taf_visibility_m": 4000,
      "worst_visibility_m": 4000,
      "ceiling_ft": 1900,
      "hazards": [
        "BR",
        "RA"
      ],
      "severityScore": 34,
      "metarRaw": "METAR EDDK 081350Z AUTO 13006KT 9999 OVC019 03/00 Q1005 NOSIG",
      "tafRaw": "TAF EDDK 081100Z 0812/0918 13006KT 9999 OVC040 \n  PROB30 \n  TEMPO 0817/0819 BKN012 \n  BECMG 0819/0822 13013KT RA \n  TEMPO 0819/0904 4000 -RA BR BKN012 \n  PROB30 \n  TEMPO 0823/0902 BKN007 \n  BECMG 0900/0903 NSW \n  BECMG 0902/0905 19015G25KT \n  PROB30 \n  TEMPO 0907/0915 19020G30KT RA \n  BECMG 0915/0918 26010KT \n  TEMPO 0915/0918 4000 RASN BKN009",
      "metarHtml": "METAR EDDK 081350Z AUTO 13006KT 9999 OVC019 03/00 Q1005 NOSIG",
      "tafHtml": "TAF EDDK 081100Z 0812/0918 13006KT 9999 OVC040 \n  PROB30 \n  TEMPO 0817/0819 BKN012 \n  BECMG 0819/0822 13013KT <span class=\"hl\">RA</span> \n  TEMPO 0819/0904 4000 -<span class=\"hl\">RA</span> <span class=\"hl\">BR</span> BKN012 \n  PROB30 \n  TEMPO 0823/0902 BKN007 \n  BECMG 0900/0903 NSW \n  BECMG 0902/0905 19015G25KT \n  PROB30 \n  TEMPO 0907/0915 19020G30KT <span class=\"hl\">RA</span> \n  BECMG 0915/0918 26010KT \n  TEMPO 0915/0918 4000 RASN BKN009"
    },
    {
      "icao": "LPPT",
      "iata": "LIS",
      "name": "Lisbon Humberto Delgado Airport",
      "updatedAt": "081400Z",
      "visibility_m": 10000,
      "taf_visibility_m": 3000,
      "worst_visibility_m": 3000,
      "ceiling_ft": 1200,
      "hazards": [
        "BR",
        "RA"
      ],
      "severityScore": 34,
      "metarRaw": "METAR LPPT 081400Z 24006KT 210V270 9999 4000SW VCSH FEW007 SCT010 BKN012 12/12 Q1031",
      "tafRaw": "TAF LPPT 081100Z 0812/0918 25005KT 9999 SCT015 BKN025 \n  PROB30 \n  TEMPO 0812/0818 5000 -RA SCT006 BKN012 \n  TEMPO 0818/0907 3000 RADZ BR SCT003 BKN006 \n  BECMG 0907/0909 32010KT SCT020",
      "metarHtml": "METAR LPPT 081400Z 24006KT 210V270 9999 4000SW VCSH FEW007 SCT010 BKN012 12/12 Q1031",
      "tafHtml": "TAF LPPT 081100Z 0812/0918 25005KT 9999 SCT015 BKN025 \n  PROB30 \n  TEMPO 0812/0818 5000 -<span class=\"hl\">RA</span> SCT006 BKN012 \n  TEMPO 0818/0907 3000 RADZ <span class=\"hl\">BR</span> SCT003 BKN006 \n  BECMG 0907/0909 32010KT SCT020"
    },
    {
      "icao": "LBWN",
      "iata": "VAR",
      "name": "Varna Airport",
      "updatedAt": "081400Z",
      "visibility_m": 1400,
      "taf_visibility_m": null,
      "worst_visibility_m": 1400,
      "ceiling_ft": 2900,
      "hazards": [
        "SN"
      ],
      "severityScore": 33,
      "metarRaw": "METAR LBWN 081400Z 28030KT 1400 R27/1600D -SN FEW016 BKN029 OVC037 M00/M02 Q0998 NOSIG",
      "tafRaw": null,
      "metarHtml": "METAR LBWN 081400Z 28030KT 1400 R27/1600D -<span class=\"hl\">SN</span> FEW016 BKN029 OVC037 M00/M02 Q0998 NOSIG",
      "tafHtml": null
    },
    {
      "icao": "EPGD",
      "iata": "GDN",
      "name": "Gdańsk Lech Wałęsa Airport",
      "updatedAt": "081400Z",
      "visibility_m": 10000,
      "taf_visibility_m": null,
      "worst_visibility_m": 10000,
      "ceiling_ft": 800,
      "hazards": [],
      "severityScore": 30,
      "metarRaw": "METAR EPGD 081400Z 08004KT 9999 SCT005 OVC008 M04/M05 Q1012",
      "tafRaw": null,
      "metarHtml": "METAR EPGD 081400Z 08004KT 9999 SCT005 OVC008 M04/M05 Q1012",
      "tafHtml": null
    },
    {
      "icao": "ESGG",
      "iata": "GOT",
      "name": "Göteborg Landvetter Airport",
      "updatedAt": "081350Z",
      "visibility_m": 10000,
      "taf_visibility_m": 2000,
      "worst_visibility_m": 2000,
      "ceiling_ft": 1700,
      "hazards": [
        "SN"
      ],
      "severityScore": 30,
      "metarRaw": "METAR ESGG 081350Z 15007KT 9999 BKN017 M03/M05 Q1009",
      "tafRaw": "TAF ESGG 081130Z 0812/0912 15012KT 9999 BKN015 \n  TEMPO 0812/0814 2000 -SN VV007 \n  PROB40 0814/0824 BKN010 \n  PROB40 0909/0912 BKN012",
      "metarHtml": "METAR ESGG 081350Z 15007KT 9999 BKN017 M03/M05 Q1009",
      "tafHtml": "TAF ESGG 081130Z 0812/0912 15012KT 9999 BKN015 \n  TEMPO 0812/0814 2000 -<span class=\"hl\">SN</span> VV007 \n  PROB40 0814/0824 BKN010 \n  PROB40 0909/0912 BKN012"
    },
    {
      "icao": "LKPR",
      "iata": "PRG",
      "name": "Václav Havel Airport Prague",
      "updatedAt": "081400Z",
      "visibility_m": 10000,
      "taf_visibility_m": 2000,
      "worst_visibility_m": 2000,
      "ceiling_ft": 1500,
      "hazards": [
        "SN"
      ],
      "severityScore": 30,
      "metarRaw": "METAR LKPR 081400Z 21006KT 9999 OVC015 M03/M05 Q1009 NOSIG",
      "tafRaw": "TAF LKPR 081400Z 0815/0921 20006KT 9999 OVC015 \n  TEMPO 0815/0820 BKN012 \n  PROB30 \n  TEMPO 0815/0817 6000 -SN BKN009 \n  BECMG 0821/0823 12007KT \n  BECMG 0904/0906 BKN012 \n  TEMPO 0906/0911 4000 SN OVC006 \n  PROB30 \n  TEMPO 0906/0909 2000 SN OVC003",
      "metarHtml": "METAR LKPR 081400Z 21006KT 9999 OVC015 M03/M05 Q1009 NOSIG",
      "tafHtml": "TAF LKPR 081400Z 0815/0921 20006KT 9999 OVC015 \n  TEMPO 0815/0820 BKN012 \n  PROB30 \n  TEMPO 0815/0817 6000 -<span class=\"hl\">SN</span> BKN009 \n  BECMG 0821/0823 12007KT \n  BECMG 0904/0906 BKN012 \n  TEMPO 0906/0911 4000 <span class=\"hl\">SN</span> OVC006 \n  PROB30 \n  TEMPO 0906/0909 2000 <span class=\"hl\">SN</span> OVC003"
    },
    {
      "icao": "LRBC",
      "iata": "BCM",
      "name": "Bacău George Enescu International  Airport",
      "updatedAt": "081400Z",
      "visibility_m": 8000,
      "taf_visibility_m": 5000,
      "worst_visibility_m": 5000,
      "ceiling_ft": 1500,
      "hazards": [
        "SN"
      ],
      "severityScore": 30,
      "metarRaw": "METAR LRBC 081400Z 35010KT 8000 OVC015 M02/M05 Q0997",
      "tafRaw": "TAF LRBC 081100Z 0812/0821 34012KT 9999 OVC030 \n  TEMPO 0812/0816 5000 -SN BKN010 OVC025 \n  BECMG 0816/0818 VRB04KT",
      "metarHtml": "METAR LRBC 081400Z 35010KT 8000 OVC015 M02/M05 Q0997",
      "tafHtml": "TAF LRBC 081100Z 0812/0821 34012KT 9999 OVC030 \n  TEMPO 0812/0816 5000 -<span class=\"hl\">SN</span> BKN010 OVC025 \n  BECMG 0816/0818 VRB04KT"
    },
    {
      "icao": "LRTM",
      "iata": "TGM",
      "name": "Târgu Mureş Transilvania International Airport",
      "updatedAt": "081400Z",
      "visibility_m": 9000,
      "taf_visibility_m": 5000,
      "worst_visibility_m": 5000,
      "ceiling_ft": 1600,
      "hazards": [
        "SN"
      ],
      "severityScore": 30,
      "metarRaw": "METAR LRTM 081400Z 31004KT 9000 -SN BKN016 OVC025 M03/M06 Q1002",
      "tafRaw": "TAF LRTM 081100Z 0812/0821 30008KT 9999 SCT020 BKN040 \n  TEMPO 0812/0814 5000 -SN BKN015 BKN030",
      "metarHtml": "METAR LRTM 081400Z 31004KT 9000 -<span class=\"hl\">SN</span> BKN016 OVC025 M03/M06 Q1002",
      "tafHtml": "TAF LRTM 081100Z 0812/0821 30008KT 9999 SCT020 BKN040 \n  TEMPO 0812/0814 5000 -<span class=\"hl\">SN</span> BKN015 BKN030"
    },
    {
      "icao": "LYNI",
      "iata": "INI",
      "name": "Niš Constantine the Great Airport",
      "updatedAt": "081400Z",
      "visibility_m": 5000,
      "taf_visibility_m": 10000,
      "worst_visibility_m": 5000,
      "ceiling_ft": 1500,
      "hazards": [
        "SN"
      ],
      "severityScore": 30,
      "metarRaw": "METAR LYNI 081400Z 32007KT 5000 SN BKN015 BKN033 M03/M04 Q1010 NOSIG",
      "tafRaw": "TAF LYNI 081100Z 0812/0912 30010KT 9999 BKN030 TXM02/0912Z TNM10/0905Z \n  TEMPO 0812/0815 32015G25KT \n  BECMG 0816/0818 18004KT",
      "metarHtml": "METAR LYNI 081400Z 32007KT 5000 <span class=\"hl\">SN</span> BKN015 BKN033 M03/M04 Q1010 NOSIG",
      "tafHtml": "TAF LYNI 081100Z 0812/0912 30010KT 9999 BKN030 TXM02/0912Z TNM10/0905Z \n  TEMPO 0812/0815 32015G25KT \n  BECMG 0816/0818 18004KT"
    },
    {
      "icao": "ENGM",
      "iata": "OSL",
      "name": "Oslo-Gardermoen International Airport",
      "updatedAt": "081350Z",
      "visibility_m": 10000,
      "taf_visibility_m": 1200,
      "worst_visibility_m": 1200,
      "ceiling_ft": null,
      "hazards": [
        "SN"
      ],
      "severityScore": 28,
      "metarRaw": "METAR ENGM 081350Z 15007KT CAVOK M10/M13 Q1006 NOSIG",
      "tafRaw": "TAF ENGM 081100Z 0812/0912 20005KT 9999 FEW003 \n  BECMG 0820/0822 BKN012 \n  TEMPO 0822/0902 1200 SN VV008 \n  TEMPO 0903/0906 BKN020 \n  BECMG 0906/0908 BKN020",
      "metarHtml": "METAR ENGM 081350Z 15007KT <span class=\"hl-vis\">CAVOK</span> M10/M13 Q1006 NOSIG",
      "tafHtml": "TAF ENGM 081100Z 0812/0912 20005KT 9999 FEW003 \n  BECMG 0820/0822 BKN012 \n  TEMPO 0822/0902 1200 <span class=\"hl\">SN</span> VV008 \n  TEMPO 0903/0906 BKN020 \n  BECMG 0906/0908 BKN020"
    },
    {
      "icao": "ENTO",
      "iata": "TRF",
      "name": "Sandefjord Airport, Torp",
      "updatedAt": "081350Z",
      "visibility_m": 10000,
      "taf_visibility_m": 1200,
      "worst_visibility_m": 1200,
      "ceiling_ft": null,
      "hazards": [
        "SN"
      ],
      "severityScore": 28,
      "metarRaw": "METAR ENTO 081350Z VRB01KT CAVOK M10/M13 Q1007 NOSIG",
      "tafRaw": "TAF ENTO 081100Z 0812/0912 35005KT CAVOK \n  BECMG 0818/0820 BKN012 \n  TEMPO 0820/0901 1200 SN VV006 \n  BECMG 0902/0904 10010KT BKN020",
      "metarHtml": "METAR ENTO 081350Z VRB01KT <span class=\"hl-vis\">CAVOK</span> M10/M13 Q1007 NOSIG",
      "tafHtml": "TAF ENTO 081100Z 0812/0912 35005KT <span class=\"hl-vis\">CAVOK</span> \n  BECMG 0818/0820 BKN012 \n  TEMPO 0820/0901 1200 <span class=\"hl\">SN</span> VV006 \n  BECMG 0902/0904 10010KT BKN020"
    },
    {
      "icao": "EPMO",
      "iata": "WMI",
      "name": "Modlin Airport",
      "updatedAt": "081400Z",
      "visibility_m": 2900,
      "taf_visibility_m": 2500,
      "worst_visibility_m": 2500,
      "ceiling_ft": null,
      "hazards": [
        "BR",
        "SN"
      ],
      "severityScore": 28,
      "metarRaw": "METAR EPMO 081400Z 32006KT 2900 BR NSC M09/M09 Q1010",
      "tafRaw": "TAF EPMO 081130Z 0812/0912 36005KT 2500 BR NSC \n  TEMPO 0812/0820 BKN007 \n  PROB40 \n  TEMPO 0812/0815 3500 BR \n  TEMPO 0820/0910 -SN BKN003 BKN005 \n  BECMG 0909/0911 BKN012",
      "metarHtml": "METAR EPMO 081400Z 32006KT 2900 <span class=\"hl\">BR</span> NSC M09/M09 Q1010",
      "tafHtml": "TAF EPMO 081130Z 0812/0912 36005KT 2500 <span class=\"hl\">BR</span> NSC \n  TEMPO 0812/0820 BKN007 \n  PROB40 \n  TEMPO 0812/0815 3500 <span class=\"hl\">BR</span> \n  TEMPO 0820/0910 -<span class=\"hl\">SN</span> BKN003 BKN005 \n  BECMG 0909/0911 BKN012"
    },
    {
      "icao": "LRIA",
      "iata": "IAS",
      "name": "Iaşi Airport",
      "updatedAt": "081400Z",
      "visibility_m": 10000,
      "taf_visibility_m": 5000,
      "worst_visibility_m": 5000,
      "ceiling_ft": 4900,
      "hazards": [
        "BR",
        "SN"
      ],
      "severityScore": 28,
      "metarRaw": "METAR LRIA 081400Z 30018KT 270V330 9999 FEW012 OVC049 M02/M04 Q0996",
      "tafRaw": "TAF LRIA 081100Z 0812/0821 31012KT 9999 BKN007 OVC030 \n  PROB40 \n  TEMPO 0812/0817 31015G25KT 5000 -SN BR OVC002 \n  BECMG 0818/0820 BKN025",
      "metarHtml": "METAR LRIA 081400Z 30018KT 270V330 9999 FEW012 OVC049 M02/M04 Q0996",
      "tafHtml": "TAF LRIA 081100Z 0812/0821 31012KT 9999 BKN007 OVC030 \n  PROB40 \n  TEMPO 0812/0817 31015G25KT 5000 -<span class=\"hl\">SN</span> <span class=\"hl\">BR</span> OVC002 \n  BECMG 0818/0820 BKN025"
    },
    {
      "icao": "LZIB",
      "iata": "BTS",
      "name": "M. R. Štefánik Airport",
      "updatedAt": "081400Z",
      "visibility_m": 10000,
      "taf_visibility_m": 1400,
      "worst_visibility_m": 1400,
      "ceiling_ft": null,
      "hazards": [
        "SN"
      ],
      "severityScore": 28,
      "metarRaw": "METAR LZIB 081400Z 30014KT CAVOK M02/M10 Q1010 NOSIG",
      "tafRaw": "TAF LZIB 081115Z 0812/0912 32012KT CAVOK \n  BECMG 0816/0818 VRB02KT \n  BECMG 0907/0909 SCT008 OVC014 \n  TEMPO 0907/0912 2500 -SN \n  PROB30 \n  TEMPO 0908/0911 1400 SN BKN005",
      "metarHtml": "METAR LZIB 081400Z 30014KT <span class=\"hl-vis\">CAVOK</span> M02/M10 Q1010 NOSIG",
      "tafHtml": "TAF LZIB 081115Z 0812/0912 32012KT <span class=\"hl-vis\">CAVOK</span> \n  BECMG 0816/0818 VRB02KT \n  BECMG 0907/0909 SCT008 OVC014 \n  TEMPO 0907/0912 2500 -<span class=\"hl\">SN</span> \n  PROB30 \n  TEMPO 0908/0911 1400 <span class=\"hl\">SN</span> BKN005"
    },
    {
      "icao": "LFSB",
      "iata": "BSL",
      "name": "EuroAirport Basel–Mulhouse–Freiburg",
      "updatedAt": "081400Z",
      "visibility_m": 10000,
      "taf_visibility_m": 4000,
      "worst_visibility_m": 4000,
      "ceiling_ft": 2700,
      "hazards": [
        "RA",
        "SHRA"
      ],
      "severityScore": 26,
      "metarRaw": "METAR LFSB 081400Z AUTO 11004KT 070V180 9999 FEW013 BKN027 OVC047 02/01 Q1009 NOSIG",
      "tafRaw": "TAF LFSB 081100Z 0812/0912 15004KT 8000 SCT015 OVC025 \n  TEMPO 0812/0814 -DZRA OVC013 \n  PROB40 \n  TEMPO 0816/0821 4000 RA \n  BECMG 0823/0901 22015G25KT \n  TEMPO 0901/0912 23020G35KT -SHRA SCT030TCU \n  PROB40 \n  TEMPO 0902/0905 4000 SHRA SCT025CB",
      "metarHtml": "METAR LFSB 081400Z AUTO 11004KT 070V180 9999 FEW013 BKN027 OVC047 02/01 Q1009 NOSIG",
      "tafHtml": "TAF LFSB 081100Z 0812/0912 15004KT 8000 SCT015 OVC025 \n  TEMPO 0812/0814 -DZRA OVC013 \n  PROB40 \n  TEMPO 0816/0821 4000 <span class=\"hl\">RA</span> \n  BECMG 0823/0901 22015G25KT \n  TEMPO 0901/0912 23020G35KT -<span class=\"hl\">SHRA</span> SCT030TCU \n  PROB40 \n  TEMPO 0902/0905 4000 <span class=\"hl\">SHRA</span> SCT025CB"
    },
    {
      "icao": "LIRN",
      "iata": "NAP",
      "name": "Naples International Airport",
      "updatedAt": "081350Z",
      "visibility_m": 10000,
      "taf_visibility_m": 10000,
      "worst_visibility_m": 10000,
      "ceiling_ft": null,
      "hazards": [
        "RA",
        "SHRA"
      ],
      "severityScore": 26,
      "metarRaw": "METAR LIRN 081350Z 35003KT 290V030 CAVOK 10/M04 Q1015 NOSIG",
      "tafRaw": "TAF LIRN 081100Z 0812/0912 VRB05KT 9999 SCT040 \n  PROB40 \n  TEMPO 0900/0905 RA \n  TEMPO 0905/0912 SHRA \n  BECMG 0909/0911 24012KT",
      "metarHtml": "METAR LIRN 081350Z 35003KT 290V030 <span class=\"hl-vis\">CAVOK</span> 10/M04 Q1015 NOSIG",
      "tafHtml": "TAF LIRN 081100Z 0812/0912 VRB05KT 9999 SCT040 \n  PROB40 \n  TEMPO 0900/0905 <span class=\"hl\">RA</span> \n  TEMPO 0905/0912 <span class=\"hl\">SHRA</span> \n  BECMG 0909/0911 24012KT"
    },
    {
      "icao": "LLBG",
      "iata": "TLV",
      "name": "Ben Gurion International Airport",
      "updatedAt": "081350Z",
      "visibility_m": 10000,
      "taf_visibility_m": 4000,
      "worst_visibility_m": 4000,
      "ceiling_ft": null,
      "hazards": [
        "TSRA"
      ],
      "severityScore": 25,
      "metarRaw": "METAR LLBG 081350Z 20005KT CAVOK 26/06 Q1014 NOSIG",
      "tafRaw": "TAF LLBG 081120Z 0812/0912 23010KT CAVOK \n  BECMG 0816/0818 16006KT \n  BECMG 0823/0901 20010KT 9999 SCT030 \n  PROB40 \n  TEMPO 0902/0906 27018G28KT 5000 TSRA FEW020CB BKN025 \n  BECMG 0906/0908 26020G30KT \n  TEMPO 0908/0912 27025G40KT 4000 TSRA SCT020CB BKN025 TX27/0812Z TN14/0904Z",
      "metarHtml": "METAR LLBG 081350Z 20005KT <span class=\"hl-vis\">CAVOK</span> 26/06 Q1014 NOSIG",
      "tafHtml": "TAF LLBG 081120Z 0812/0912 23010KT <span class=\"hl-vis\">CAVOK</span> \n  BECMG 0816/0818 16006KT \n  BECMG 0823/0901 20010KT 9999 SCT030 \n  PROB40 \n  TEMPO 0902/0906 27018G28KT 5000 <span class=\"hl\">TSRA</span> FEW020CB BKN025 \n  BECMG 0906/0908 26020G30KT \n  TEMPO 0908/0912 27025G40KT 4000 <span class=\"hl\">TSRA</span> SCT020CB BKN025 TX27/0812Z TN14/0904Z"
    },
    {
      "icao": "EPKK",
      "iata": "KRK",
      "name": "Kraków John Paul II International Airport",
      "updatedAt": "081400Z",
      "visibility_m": 10000,
      "taf_visibility_m": null,
      "worst_visibility_m": 10000,
      "ceiling_ft": 2300,
      "hazards": [
        "SN"
      ],
      "severityScore": 23,
      "metarRaw": "METAR EPKK 081400Z 27006KT 9999 -SN FEW016 BKN023 M04/M07 Q1008",
      "tafRaw": null,
      "metarHtml": "METAR EPKK 081400Z 27006KT 9999 -<span class=\"hl\">SN</span> FEW016 BKN023 M04/M07 Q1008",
      "tafHtml": null
    },
    {
      "icao": "LWOH",
      "iata": "OHD",
      "name": "Ohrid St. Paul the Apostle Airport",
      "updatedAt": "081350Z",
      "visibility_m": 8000,
      "taf_visibility_m": null,
      "worst_visibility_m": 8000,
      "ceiling_ft": 2500,
      "hazards": [
        "SN"
      ],
      "severityScore": 23,
      "metarRaw": "METAR LWOH 081350Z 01003KT 300V070 8000 -SN SCT010 OVC025 02/M00 Q1006",
      "tafRaw": null,
      "metarHtml": "METAR LWOH 081350Z 01003KT 300V070 8000 -<span class=\"hl\">SN</span> SCT010 OVC025 02/M00 Q1006",
      "tafHtml": null
    },
    {
      "icao": "LPPR",
      "iata": "OPO",
      "name": "Francisco de Sá Carneiro Airport",
      "updatedAt": "081400Z",
      "visibility_m": 4500,
      "taf_visibility_m": 2000,
      "worst_visibility_m": 2000,
      "ceiling_ft": 1000,
      "hazards": [
        "BR"
      ],
      "severityScore": 22,
      "metarRaw": "METAR LPPR 081400Z 19010KT 4500 -DZRA BR SCT002 BKN010 13/12 Q1027",
      "tafRaw": "TAF LPPR 081100Z 0812/0912 18015KT 9999 SCT004 BKN018 \n  TEMPO 0812/0823 2000 DZRA BR SCT002 BKN003 \n  BECMG 0814/0816 23018KT \n  PROB40 \n  TEMPO 0816/0823 23020G30KT \n  BECMG 0823/0901 30010KT SCT015",
      "metarHtml": "METAR LPPR 081400Z 19010KT 4500 -DZRA <span class=\"hl\">BR</span> SCT002 BKN010 13/12 Q1027",
      "tafHtml": "TAF LPPR 081100Z 0812/0912 18015KT 9999 SCT004 BKN018 \n  TEMPO 0812/0823 2000 DZRA <span class=\"hl\">BR</span> SCT002 BKN003 \n  BECMG 0814/0816 23018KT \n  PROB40 \n  TEMPO 0816/0823 23020G30KT \n  BECMG 0823/0901 30010KT SCT015"
    },
    {
      "icao": "LPPS",
      "iata": "PXO",
      "name": "Porto Santo Airport",
      "updatedAt": "081400Z",
      "visibility_m": 10000,
      "taf_visibility_m": 5000,
      "worst_visibility_m": 5000,
      "ceiling_ft": null,
      "hazards": [
        "DZ",
        "RA"
      ],
      "severityScore": 22,
      "metarRaw": "METAR LPPS 081400Z 05007KT 020V080 9999 -DZ SCT012 SCT030 16/14 Q1033",
      "tafRaw": "TAF LPPS 081100Z 0812/0918 03010KT 9999 SCT015 \n  TEMPO 0812/0918 FEW015 BKN030 \n  PROB30 \n  TEMPO 0812/0910 5000 -RA SCT006 BKN012",
      "metarHtml": "METAR LPPS 081400Z 05007KT 020V080 9999 -<span class=\"hl\">DZ</span> SCT012 SCT030 16/14 Q1033",
      "tafHtml": "TAF LPPS 081100Z 0812/0918 03010KT 9999 SCT015 \n  TEMPO 0812/0918 FEW015 BKN030 \n  PROB30 \n  TEMPO 0812/0910 5000 -<span class=\"hl\">RA</span> SCT006 BKN012"
    },
    {
      "icao": "UDYZ",
      "iata": "EVN",
      "name": "Zvartnots International Airport",
      "updatedAt": "081400Z",
      "visibility_m": 3700,
      "taf_visibility_m": 1000,
      "worst_visibility_m": 1000,
      "ceiling_ft": null,
      "hazards": [
        "BR"
      ],
      "severityScore": 20,
      "metarRaw": "METAR UDYZ 081400Z 28002KT 3700 BR FEW046 M01/M07 Q1023 NOSIG",
      "tafRaw": "TAF UDYZ 081100Z 0812/0912 28006KT 2300 BR FEW040 \n  TEMPO 0814/0822 1000 BR SCT030",
      "metarHtml": "METAR UDYZ 081400Z 28002KT 3700 <span class=\"hl\">BR</span> FEW046 M01/M07 Q1023 NOSIG",
      "tafHtml": "TAF UDYZ 081100Z 0812/0912 28006KT 2300 <span class=\"hl\">BR</span> FEW040 \n  TEMPO 0814/0822 1000 <span class=\"hl\">BR</span> SCT030"
    },
    {
      "icao": "ENVA",
      "iata": "TRD",
      "name": "Trondheim Airport, Værnes",
      "updatedAt": "081350Z",
      "visibility_m": 10000,
      "taf_visibility_m": 3000,
      "worst_visibility_m": 3000,
      "ceiling_ft": 4900,
      "hazards": [
        "SN"
      ],
      "severityScore": 18,
      "metarRaw": "METAR ENVA 081350Z 07012KT 9999 VCSH FEW027 SCT039 BKN049 M04/M10 Q1003 NOSIG RMK WIND 670FT 07014KT",
      "tafRaw": "TAF ENVA 081100Z 0812/0912 07012KT 9999 SCT050 \n  BECMG 0816/0818 15012KT \n  PROB30 \n  TEMPO 0819/0824 3000 -SN VV014 \n  BECMG 0909/0911 16018G28KT",
      "metarHtml": "METAR ENVA 081350Z 07012KT 9999 VCSH FEW027 SCT039 BKN049 M04/M10 Q1003 NOSIG RMK WIND 670FT 07014KT",
      "tafHtml": "TAF ENVA 081100Z 0812/0912 07012KT 9999 SCT050 \n  BECMG 0816/0818 15012KT \n  PROB30 \n  TEMPO 0819/0824 3000 -<span class=\"hl\">SN</span> VV014 \n  BECMG 0909/0911 16018G28KT"
    },
    {
      "icao": "LHBP",
      "iata": "BUD",
      "name": "Budapest Liszt Ferenc International Airport",
      "updatedAt": "081400Z",
      "visibility_m": 10000,
      "taf_visibility_m": 10000,
      "worst_visibility_m": 10000,
      "ceiling_ft": null,
      "hazards": [
        "SN"
      ],
      "severityScore": 18,
      "metarRaw": "METAR LHBP 081400Z 29012KT 9999 DRSN FEW024 M04/M08 Q1008 NOSIG",
      "tafRaw": "TAF LHBP 081115Z 0812/0912 30012KT CAVOK \n  TEMPO 0812/0818 30017G27KT DRSN FEW023 \n  BECMG 0819/0822 30007KT \n  BECMG 0822/0901 VRB02KT \n  BECMG 0906/0909 11006KT \n  TEMPO 0907/0912 -SN SCT030 BKN045",
      "metarHtml": "METAR LHBP 081400Z 29012KT 9999 DRSN FEW024 M04/M08 Q1008 NOSIG",
      "tafHtml": "TAF LHBP 081115Z 0812/0912 30012KT <span class=\"hl-vis\">CAVOK</span> \n  TEMPO 0812/0818 30017G27KT DRSN FEW023 \n  BECMG 0819/0822 30007KT \n  BECMG 0822/0901 VRB02KT \n  BECMG 0906/0909 11006KT \n  TEMPO 0907/0912 -<span class=\"hl\">SN</span> SCT030 BKN045"
    },
    {
      "icao": "LIMC",
      "iata": "MXP",
      "name": "Milan Malpensa International Airport",
      "updatedAt": "081350Z",
      "visibility_m": 10000,
      "taf_visibility_m": 4000,
      "worst_visibility_m": 4000,
      "ceiling_ft": null,
      "hazards": [
        "SN"
      ],
      "severityScore": 18,
      "metarRaw": "METAR LIMC 081350Z 32003KT 290V020 CAVOK 06/M05 Q1012 NOSIG",
      "tafRaw": "TAF LIMC 081100Z 0812/0918 VRB04KT 9999 BKN050 \n  PROB30 \n  TEMPO 0905/0909 4000 -SN",
      "metarHtml": "METAR LIMC 081350Z 32003KT 290V020 <span class=\"hl-vis\">CAVOK</span> 06/M05 Q1012 NOSIG",
      "tafHtml": "TAF LIMC 081100Z 0812/0918 VRB04KT 9999 BKN050 \n  PROB30 \n  TEMPO 0905/0909 4000 -<span class=\"hl\">SN</span>"
    },
    {
      "icao": "LIME",
      "iata": "BGY",
      "name": "Milan Bergamo Airport / Antonio Locatelli Air Base",
      "updatedAt": "081350Z",
      "visibility_m": 10000,
      "taf_visibility_m": 4000,
      "worst_visibility_m": 4000,
      "ceiling_ft": null,
      "hazards": [
        "SN"
      ],
      "severityScore": 18,
      "metarRaw": "METAR LIME 081350Z VRB02KT CAVOK 05/M10 Q1011 NOSIG",
      "tafRaw": "TAF LIME 081100Z 0812/0912 VRB04KT 9999 SCT050 \n  PROB40 \n  TEMPO 0905/0910 4000 -SN",
      "metarHtml": "METAR LIME 081350Z VRB02KT <span class=\"hl-vis\">CAVOK</span> 05/M10 Q1011 NOSIG",
      "tafHtml": "TAF LIME 081100Z 0812/0912 VRB04KT 9999 SCT050 \n  PROB40 \n  TEMPO 0905/0910 4000 -<span class=\"hl\">SN</span>"
    },
    {
      "icao": "LRSB",
      "iata": "SBZ",
      "name": "Sibiu International Airport",
      "updatedAt": "081400Z",
      "visibility_m": 10000,
      "taf_visibility_m": 5000,
      "worst_visibility_m": 5000,
      "ceiling_ft": 4700,
      "hazards": [
        "SN"
      ],
      "severityScore": 18,
      "metarRaw": "METAR LRSB 081400Z 30020KT 9999 BKN047 SCT080 M04/M06 Q1001",
      "tafRaw": "TAF LRSB 081100Z 0812/0912 33014KT 9999 SCT035 \n  TEMPO 0812/0814 5000 -SN \n  BECMG 0905/0907 VRB04KT",
      "metarHtml": "METAR LRSB 081400Z 30020KT 9999 BKN047 SCT080 M04/M06 Q1001",
      "tafHtml": "TAF LRSB 081100Z 0812/0912 33014KT 9999 SCT035 \n  TEMPO 0812/0814 5000 -<span class=\"hl\">SN</span> \n  BECMG 0905/0907 VRB04KT"
    },
    {
      "icao": "LRSV",
      "iata": "SCV",
      "name": "Suceava Stefan cel Mare Airport",
      "updatedAt": "081400Z",
      "visibility_m": 10000,
      "taf_visibility_m": 5000,
      "worst_visibility_m": 5000,
      "ceiling_ft": 4800,
      "hazards": [
        "SN"
      ],
      "severityScore": 18,
      "metarRaw": "METAR LRSV 081400Z 32018KT 9999 DRSN FEW016 BKN048 M04/M07 Q0995",
      "tafRaw": "TAF LRSV 081100Z 0812/0821 32015KT 9999 DRSN BKN040 \n  PROB40 \n  TEMPO 0812/0818 32018G28KT \n  TEMPO 0812/0816 5000 -SN BKN010 OVC030",
      "metarHtml": "METAR LRSV 081400Z 32018KT 9999 DRSN FEW016 BKN048 M04/M07 Q0995",
      "tafHtml": "TAF LRSV 081100Z 0812/0821 32015KT 9999 DRSN BKN040 \n  PROB40 \n  TEMPO 0812/0818 32018G28KT \n  TEMPO 0812/0816 5000 -<span class=\"hl\">SN</span> BKN010 OVC030"
    },
    {
      "icao": "LFLS",
      "iata": "GNB",
      "name": "Grenoble Alpes Isère Airport",
      "updatedAt": "081400Z",
      "visibility_m": 10000,
      "taf_visibility_m": null,
      "worst_visibility_m": 10000,
      "ceiling_ft": null,
      "hazards": [
        "RA"
      ],
      "severityScore": 17,
      "metarRaw": "METAR LFLS 081400Z AUTO 08009KT 9999 -RA FEW023/// BKN040/// BKN050/// ///TCU 02/02 Q1014",
      "tafRaw": null,
      "metarHtml": "METAR LFLS 081400Z AUTO 08009KT 9999 -<span class=\"hl\">RA</span> FEW023/// BKN040/// BKN050/// ///TCU 02/02 Q1014",
      "tafHtml": null
    },
    {
      "icao": "LICA",
      "iata": "SUF",
      "name": "Lamezia Terme Sant'Eufemia International Airport",
      "updatedAt": "081350Z",
      "visibility_m": 10000,
      "taf_visibility_m": 4000,
      "worst_visibility_m": 4000,
      "ceiling_ft": null,
      "hazards": [
        "SHRA"
      ],
      "severityScore": 14,
      "metarRaw": "METAR LICA 081350Z AUTO 27017KT 9999 BKN042/// 12/05 Q1015",
      "tafRaw": "TAF LICA 081100Z 0812/0912 29015KT 9999 SCT030 \n  TEMPO 0812/0816 28018G28KT 4000 SHRA \n  TEMPO 0821/0912 4000 SHRA \n  BECMG 0904/0906 27022G38KT",
      "metarHtml": "METAR LICA 081350Z AUTO 27017KT 9999 BKN042/// 12/05 Q1015",
      "tafHtml": "TAF LICA 081100Z 0812/0912 29015KT 9999 SCT030 \n  TEMPO 0812/0816 28018G28KT 4000 <span class=\"hl\">SHRA</span> \n  TEMPO 0821/0912 4000 <span class=\"hl\">SHRA</span> \n  BECMG 0904/0906 27022G38KT"
    },
    {
      "icao": "LICJ",
      "iata": "PMO",
      "name": "Falcone–Borsellino Airport",
      "updatedAt": "081350Z",
      "visibility_m": 10000,
      "taf_visibility_m": 4000,
      "worst_visibility_m": 4000,
      "ceiling_ft": null,
      "hazards": [
        "SHRA"
      ],
      "severityScore": 14,
      "metarRaw": "METAR LICJ 081350Z 30015KT 9999 SCT040 SCT070 15/07 Q1019",
      "tafRaw": "TAF LICJ 081100Z 0812/0912 29025G35KT 9999 SCT040 \n  TEMPO 0813/0823 4000 SHRA \n  BECMG 0907/0909 23018G33KT",
      "metarHtml": "METAR LICJ 081350Z 30015KT 9999 SCT040 SCT070 15/07 Q1019",
      "tafHtml": "TAF LICJ 081100Z 0812/0912 29025G35KT 9999 SCT040 \n  TEMPO 0813/0823 4000 <span class=\"hl\">SHRA</span> \n  BECMG 0907/0909 23018G33KT"
    },
    {
      "icao": "LIRF",
      "iata": "FCO",
      "name": "Rome–Fiumicino Leonardo da Vinci International Airport",
      "updatedAt": "081350Z",
      "visibility_m": 10000,
      "taf_visibility_m": 4000,
      "worst_visibility_m": 4000,
      "ceiling_ft": null,
      "hazards": [
        "SHRA"
      ],
      "severityScore": 14,
      "metarRaw": "METAR LIRF 081350Z 07006KT CAVOK 08/M02 Q1016 NOSIG",
      "tafRaw": "TAF LIRF 081100Z 0812/0918 08006KT 9999 SCT045 \n  BECMG 0821/0823 15010KT \n  TEMPO 0903/0918 4000 SHRA \n  BECMG 0904/0906 26016KT \n  BECMG 0910/0912 26020G32KT",
      "metarHtml": "METAR LIRF 081350Z 07006KT <span class=\"hl-vis\">CAVOK</span> 08/M02 Q1016 NOSIG",
      "tafHtml": "TAF LIRF 081100Z 0812/0918 08006KT 9999 SCT045 \n  BECMG 0821/0823 15010KT \n  TEMPO 0903/0918 4000 <span class=\"hl\">SHRA</span> \n  BECMG 0904/0906 26016KT \n  BECMG 0910/0912 26020G32KT"
    },
    {
      "icao": "LIRZ",
      "iata": "PEG",
      "name": "Perugia San Francesco d'Assisi – Umbria International Airport",
      "updatedAt": "081350Z",
      "visibility_m": 10000,
      "taf_visibility_m": 10000,
      "worst_visibility_m": 10000,
      "ceiling_ft": null,
      "hazards": [
        "SHRA"
      ],
      "severityScore": 14,
      "metarRaw": "METAR LIRZ 081350Z AUTO VRB01KT 9999 BKN028/// 01/M03 Q1015",
      "tafRaw": "TAF LIRZ 081100Z 0812/0912 VRB05KT 9999 BKN040 \n  TEMPO 0900/0912 SHRA \n  BECMG 0903/0905 19010KT",
      "metarHtml": "METAR LIRZ 081350Z AUTO VRB01KT 9999 BKN028/// 01/M03 Q1015",
      "tafHtml": "TAF LIRZ 081100Z 0812/0912 VRB05KT 9999 BKN040 \n  TEMPO 0900/0912 <span class=\"hl\">SHRA</span> \n  BECMG 0903/0905 19010KT"
    },
    {
      "icao": "LMML",
      "iata": "MLA",
      "name": "Malta International Airport",
      "updatedAt": "081415Z",
      "visibility_m": 5000,
      "taf_visibility_m": 3000,
      "worst_visibility_m": 3000,
      "ceiling_ft": null,
      "hazards": [
        "SHRA"
      ],
      "severityScore": 14,
      "metarRaw": "METAR LMML 081415Z 27022G34KT 9999 -SHRA SCT024TCU 14/09 Q1020 TEMPO 5000 SHRA",
      "tafRaw": "TAF LMML 081100Z 0812/0912 28028G38KT 9999 SCT025 \n  TEMPO 0812/0822 7000 SHRA BKN023TCU \n  PROB30 \n  TEMPO 0812/0816 3000 TSRAGS BKN015CB \n  BECMG 0902/0905 27019KT \n  TEMPO 0905/0912 27021G31KT",
      "metarHtml": "METAR LMML 081415Z 27022G34KT 9999 -<span class=\"hl\">SHRA</span> SCT024TCU 14/09 Q1020 TEMPO 5000 <span class=\"hl\">SHRA</span>",
      "tafHtml": "TAF LMML 081100Z 0812/0912 28028G38KT 9999 SCT025 \n  TEMPO 0812/0822 7000 <span class=\"hl\">SHRA</span> BKN023TCU \n  PROB30 \n  TEMPO 0812/0816 3000 TSRAGS BKN015CB \n  BECMG 0902/0905 27019KT \n  TEMPO 0905/0912 27021G31KT"
    },
    {
      "icao": "UGKO",
      "iata": "KUT",
      "name": "David the Builder Kutaisi International Airport",
      "updatedAt": "081400Z",
      "visibility_m": 10000,
      "taf_visibility_m": 3000,
      "worst_visibility_m": 3000,
      "ceiling_ft": null,
      "hazards": [
        "SHRA"
      ],
      "severityScore": 14,
      "metarRaw": "METAR UGKO 081400Z 10006KT CAVOK 14/03 Q1011 NOSIG",
      "tafRaw": "TAF UGKO 081100Z 0812/0912 09015KT 9999 SCT022 BKN050 TX18/0812Z TN09/0903Z \n  TEMPO 0812/0816 CAVOK \n  TEMPO 0820/0904 08025G39KT 4000 SHRA BKN017CB OVC040 \n  TEMPO 0908/0912 26010KT 3000 SHRA BKN015CB OVC030",
      "metarHtml": "METAR UGKO 081400Z 10006KT <span class=\"hl-vis\">CAVOK</span> 14/03 Q1011 NOSIG",
      "tafHtml": "TAF UGKO 081100Z 0812/0912 09015KT 9999 SCT022 BKN050 TX18/0812Z TN09/0903Z \n  TEMPO 0812/0816 <span class=\"hl-vis\">CAVOK</span> \n  TEMPO 0820/0904 08025G39KT 4000 <span class=\"hl\">SHRA</span> BKN017CB OVC040 \n  TEMPO 0908/0912 26010KT 3000 <span class=\"hl\">SHRA</span> BKN015CB OVC030"
    },
    {
      "icao": "EDLW",
      "iata": "DTM",
      "name": "Dortmund Airport",
      "updatedAt": "081350Z",
      "visibility_m": 10000,
      "taf_visibility_m": 4000,
      "worst_visibility_m": 4000,
      "ceiling_ft": 2300,
      "hazards": [
        "RA"
      ],
      "severityScore": 12,
      "metarRaw": "METAR EDLW 081350Z 18006KT 9999 BKN023 03/M00 Q1005",
      "tafRaw": "TAF EDLW 081100Z 0812/0912 19011KT 9999 OVC040 \n  BECMG 0814/0817 15006KT \n  TEMPO 0819/0904 4000 RA BKN012 \n  BECMG 0822/0901 16012KT \n  PROB30 \n  TEMPO 0909/0912 16015G25KT RA",
      "metarHtml": "METAR EDLW 081350Z 18006KT 9999 BKN023 03/M00 Q1005",
      "tafHtml": "TAF EDLW 081100Z 0812/0912 19011KT 9999 OVC040 \n  BECMG 0814/0817 15006KT \n  TEMPO 0819/0904 4000 <span class=\"hl\">RA</span> BKN012 \n  BECMG 0822/0901 16012KT \n  PROB30 \n  TEMPO 0909/0912 16015G25KT <span class=\"hl\">RA</span>"
    },
    {
      "icao": "EGPF",
      "iata": "GLA",
      "name": "Glasgow Airport",
      "updatedAt": "081350Z",
      "visibility_m": 8000,
      "taf_visibility_m": 6000,
      "worst_visibility_m": 6000,
      "ceiling_ft": 1300,
      "hazards": [],
      "severityScore": 12,
      "metarRaw": "METAR EGPF 081350Z 06003KT 020V090 8000 OVC013 01/00 Q0998",
      "tafRaw": "TAF EGPF 081102Z 0812/0912 VRB03KT 9999 SCT025 \n  TEMPO 0812/0821 BKN014 \n  PROB30 \n  TEMPO 0812/0911 6000",
      "metarHtml": "METAR EGPF 081350Z 06003KT 020V090 8000 OVC013 01/00 Q0998",
      "tafHtml": "TAF EGPF 081102Z 0812/0912 VRB03KT 9999 SCT025 \n  TEMPO 0812/0821 BKN014 \n  PROB30 \n  TEMPO 0812/0911 6000"
    },
    {
      "icao": "ESMS",
      "iata": "MMX",
      "name": "Malmö Sturup Airport",
      "updatedAt": "081350Z",
      "visibility_m": 10000,
      "taf_visibility_m": 10000,
      "worst_visibility_m": 10000,
      "ceiling_ft": 1700,
      "hazards": [],
      "severityScore": 12,
      "metarRaw": "METAR ESMS 081350Z 13010KT 9999 BKN017 M02/M06 Q1009",
      "tafRaw": "TAF ESMS 081127Z 0812/0912 16010KT 9999 SCT018 \n  BECMG 0821/0824 10010KT",
      "metarHtml": "METAR ESMS 081350Z 13010KT 9999 BKN017 M02/M06 Q1009",
      "tafHtml": "TAF ESMS 081127Z 0812/0912 16010KT 9999 SCT018 \n  BECMG 0821/0824 10010KT"
    },
    {
      "icao": "HESX",
      "iata": "SPX",
      "name": "Sphinx International Airport",
      "updatedAt": "081300Z",
      "visibility_m": 10000,
      "taf_visibility_m": 4000,
      "worst_visibility_m": 4000,
      "ceiling_ft": null,
      "hazards": [
        "RA"
      ],
      "severityScore": 12,
      "metarRaw": "METAR HESX 081300Z 24016KT CAVOK 26/04 Q1015 NOSIG",
      "tafRaw": "TAF HESX 081100Z 0812/0918 21010KT 9999 SCT025 \n  TEMPO 0812/0818 24012G22KT 4000 SA \n  TEMPO 0900/0908 6000 RA BKN020",
      "metarHtml": "METAR HESX 081300Z 24016KT <span class=\"hl-vis\">CAVOK</span> 26/04 Q1015 NOSIG",
      "tafHtml": "TAF HESX 081100Z 0812/0918 21010KT 9999 SCT025 \n  TEMPO 0812/0818 24012G22KT 4000 SA \n  TEMPO 0900/0908 6000 <span class=\"hl\">RA</span> BKN020"
    },
    {
      "icao": "LATI",
      "iata": "TIA",
      "name": "Tirana International Airport Mother Teresa",
      "updatedAt": "081350Z",
      "visibility_m": 10000,
      "taf_visibility_m": 10000,
      "worst_visibility_m": 10000,
      "ceiling_ft": 7600,
      "hazards": [
        "RA"
      ],
      "severityScore": 12,
      "metarRaw": "METAR LATI 081350Z 15004KT 9999 FEW025CB SCT050 BKN076 05/03 Q1009 NOSIG",
      "tafRaw": "TAF LATI 081100Z 0812/0912 29013KT 9999 -RA FEW030TCU BKN070 TX09/0912Z TN01/0905Z \n  BECMG 0815/0817 VRB03KT CAVOK \n  BECMG 0908/0910 15010KT",
      "metarHtml": "METAR LATI 081350Z 15004KT 9999 FEW025CB SCT050 BKN076 05/03 Q1009 NOSIG",
      "tafHtml": "TAF LATI 081100Z 0812/0912 29013KT 9999 -<span class=\"hl\">RA</span> FEW030TCU BKN070 TX09/0912Z TN01/0905Z \n  BECMG 0815/0817 VRB03KT <span class=\"hl-vis\">CAVOK</span> \n  BECMG 0908/0910 15010KT"
    },
    {
      "icao": "LEBB",
      "iata": "BIO",
      "name": "Bilbao Airport",
      "updatedAt": "081400Z",
      "visibility_m": 10000,
      "taf_visibility_m": 3000,
      "worst_visibility_m": 3000,
      "ceiling_ft": null,
      "hazards": [
        "RA"
      ],
      "severityScore": 12,
      "metarRaw": "METAR LEBB 081400Z VRB04KT CAVOK 14/05 Q1019 NOSIG",
      "tafRaw": "TAF LEBB 081100Z 0812/0912 22009KT 9999 FEW040 TX13/0814Z TN06/0905Z \n  TEMPO 0812/0824 22020G33KT \n  PROB30 0815/0822 22025G43KT \n  PROB40 \n  TEMPO 0822/0902 28010KT 3000 RA BKN010 \n  BECMG 0909/0911 29012KT \n  PROB30 \n  TEMPO 0910/0912 30015G25KT 3000 RA",
      "metarHtml": "METAR LEBB 081400Z VRB04KT <span class=\"hl-vis\">CAVOK</span> 14/05 Q1019 NOSIG",
      "tafHtml": "TAF LEBB 081100Z 0812/0912 22009KT 9999 FEW040 TX13/0814Z TN06/0905Z \n  TEMPO 0812/0824 22020G33KT \n  PROB30 0815/0822 22025G43KT \n  PROB40 \n  TEMPO 0822/0902 28010KT 3000 <span class=\"hl\">RA</span> BKN010 \n  BECMG 0909/0911 29012KT \n  PROB30 \n  TEMPO 0910/0912 30015G25KT 3000 <span class=\"hl\">RA</span>"
    },
    {
      "icao": "LIPQ",
      "iata": "TRS",
      "name": "Trieste–Friuli Venezia Giulia Airport",
      "updatedAt": "081350Z",
      "visibility_m": 10000,
      "taf_visibility_m": 3000,
      "worst_visibility_m": 3000,
      "ceiling_ft": null,
      "hazards": [
        "RA"
      ],
      "severityScore": 12,
      "metarRaw": "METAR LIPQ 081350Z AUTO VRB01KT 9999 NCD 05/M05 Q1013",
      "tafRaw": "TAF LIPQ 081100Z 0812/0912 VRB05KT 9999 SCT070 \n  TEMPO 0909/0912 3000 RA BKN014",
      "metarHtml": "METAR LIPQ 081350Z AUTO VRB01KT 9999 NCD 05/M05 Q1013",
      "tafHtml": "TAF LIPQ 081100Z 0812/0912 VRB05KT 9999 SCT070 \n  TEMPO 0909/0912 3000 <span class=\"hl\">RA</span> BKN014"
    },
    {
      "icao": "LIPZ",
      "iata": "VCE",
      "name": "Venice Marco Polo Airport",
      "updatedAt": "081350Z",
      "visibility_m": 10000,
      "taf_visibility_m": 4000,
      "worst_visibility_m": 4000,
      "ceiling_ft": null,
      "hazards": [
        "RA"
      ],
      "severityScore": 12,
      "metarRaw": "METAR LIPZ 081350Z 11003KT 080V150 CAVOK 02/M05 Q1013 NOSIG",
      "tafRaw": "TAF LIPZ 081100Z 0812/0918 VRB05KT CAVOK \n  PROB30 \n  TEMPO 0909/0915 4000 RA BKN014",
      "metarHtml": "METAR LIPZ 081350Z 11003KT 080V150 <span class=\"hl-vis\">CAVOK</span> 02/M05 Q1013 NOSIG",
      "tafHtml": "TAF LIPZ 081100Z 0812/0918 VRB05KT <span class=\"hl-vis\">CAVOK</span> \n  PROB30 \n  TEMPO 0909/0915 4000 <span class=\"hl\">RA</span> BKN014"
    },
    {
      "icao": "EETN",
      "iata": "TLL",
      "name": "Lennart Meri Tallinn Airport",
      "updatedAt": "081350Z",
      "visibility_m": 10000,
      "taf_visibility_m": 4000,
      "worst_visibility_m": 4000,
      "ceiling_ft": 2100,
      "hazards": [
        "BR"
      ],
      "severityScore": 10,
      "metarRaw": "METAR EETN 081350Z 11007KT 9999 OVC021 M06/M08 Q1020 NOSIG",
      "tafRaw": "TAF EETN 081130Z 0812/0912 10006KT 9999 OVC020 \n  BECMG 0814/0816 BKN014 \n  PROB40 \n  TEMPO 0818/0901 4000 BR BKN006 \n  BECMG 0820/0822 08012KT \n  TEMPO 0902/0907 SCT020 \n  TEMPO 0908/0912 07015G25KT",
      "metarHtml": "METAR EETN 081350Z 11007KT 9999 OVC021 M06/M08 Q1020 NOSIG",
      "tafHtml": "TAF EETN 081130Z 0812/0912 10006KT 9999 OVC020 \n  BECMG 0814/0816 BKN014 \n  PROB40 \n  TEMPO 0818/0901 4000 <span class=\"hl\">BR</span> BKN006 \n  BECMG 0820/0822 08012KT \n  TEMPO 0902/0907 SCT020 \n  TEMPO 0908/0912 07015G25KT"
    },
    {
      "icao": "EPSC",
      "iata": "SZZ",
      "name": "Solidarity Szczecin–Goleniów Airport",
      "updatedAt": "081400Z",
      "visibility_m": 10000,
      "taf_visibility_m": 2000,
      "worst_visibility_m": 2000,
      "ceiling_ft": null,
      "hazards": [
        "BR"
      ],
      "severityScore": 10,
      "metarRaw": "METAR EPSC 081400Z 12011KT CAVOK M06/M09 Q1011",
      "tafRaw": "TAF EPSC 081130Z 0812/0912 13010KT 8000 SCT005 \n  PROB40 0812/0824 BKN006 \n  BECMG 0900/0903 OVC005 \n  PROB40 0902/0906 2000 BR BKN002 \n  BECMG 0907/0910 CAVOK",
      "metarHtml": "METAR EPSC 081400Z 12011KT <span class=\"hl-vis\">CAVOK</span> M06/M09 Q1011",
      "tafHtml": "TAF EPSC 081130Z 0812/0912 13010KT 8000 SCT005 \n  PROB40 0812/0824 BKN006 \n  BECMG 0900/0903 OVC005 \n  PROB40 0902/0906 2000 <span class=\"hl\">BR</span> BKN002 \n  BECMG 0907/0910 <span class=\"hl-vis\">CAVOK</span>"
    },
    {
      "icao": "EPSY",
      "iata": "SZY",
      "name": "Olsztyn-Mazury Airport",
      "updatedAt": "081400Z",
      "visibility_m": 9000,
      "taf_visibility_m": 4000,
      "worst_visibility_m": 4000,
      "ceiling_ft": null,
      "hazards": [
        "BR"
      ],
      "severityScore": 10,
      "metarRaw": "METAR EPSY 081400Z 01010KT 9000 FEW006 SCT020 M08/M09 Q1010",
      "tafRaw": "TAF EPSY 081130Z 0812/0821 02006KT 7000 SCT025 \n  BECMG 0815/0817 4000 BR",
      "metarHtml": "METAR EPSY 081400Z 01010KT 9000 FEW006 SCT020 M08/M09 Q1010",
      "tafHtml": "TAF EPSY 081130Z 0812/0821 02006KT 7000 SCT025 \n  BECMG 0815/0817 4000 <span class=\"hl\">BR</span>"
    },
    {
      "icao": "EPWR",
      "iata": "WRO",
      "name": "Copernicus Wrocław Airport",
      "updatedAt": "081400Z",
      "visibility_m": 9000,
      "taf_visibility_m": 3000,
      "worst_visibility_m": 3000,
      "ceiling_ft": null,
      "hazards": [
        "BR"
      ],
      "severityScore": 10,
      "metarRaw": "METAR EPWR 081400Z VRB02KT 9000 FEW020 M03/M08 Q1011",
      "tafRaw": "TAF EPWR 081130Z 0812/0912 VRB02KT 8000 BKN020 \n  TEMPO 0820/0903 3000 BR \n  BECMG 0903/0906 10010KT \n  PROB40 0903/0907 4000 BR BKN008",
      "metarHtml": "METAR EPWR 081400Z VRB02KT 9000 FEW020 M03/M08 Q1011",
      "tafHtml": "TAF EPWR 081130Z 0812/0912 VRB02KT 8000 BKN020 \n  TEMPO 0820/0903 3000 <span class=\"hl\">BR</span> \n  BECMG 0903/0906 10010KT \n  PROB40 0903/0907 4000 <span class=\"hl\">BR</span> BKN008"
    },
    {
      "icao": "ESKN",
      "iata": "NYO",
      "name": "Stockholm Skavsta Airport",
      "updatedAt": "081350Z",
      "visibility_m": 10000,
      "taf_visibility_m": 2000,
      "worst_visibility_m": 2000,
      "ceiling_ft": 15000,
      "hazards": [
        "SHSN"
      ],
      "severityScore": 10,
      "metarRaw": "METAR ESKN 081350Z 21004KT 9999 FEW030 BKN150 M02/M04 Q1013",
      "tafRaw": "TAF ESKN 081130Z 0812/0912 18008KT 9999 SCT030 \n  TEMPO 0816/0904 2000 SHSN BKN012 BKN020TCU",
      "metarHtml": "METAR ESKN 081350Z 21004KT 9999 FEW030 BKN150 M02/M04 Q1013",
      "tafHtml": "TAF ESKN 081130Z 0812/0912 18008KT 9999 SCT030 \n  TEMPO 0816/0904 2000 <span class=\"hl\">SHSN</span> BKN012 BKN020TCU"
    },
    {
      "icao": "ESSA",
      "iata": "ARN",
      "name": "Stockholm-Arlanda Airport",
      "updatedAt": "081350Z",
      "visibility_m": 10000,
      "taf_visibility_m": 2500,
      "worst_visibility_m": 2500,
      "ceiling_ft": null,
      "hazards": [
        "SHSN"
      ],
      "severityScore": 10,
      "metarRaw": "METAR ESSA 081350Z 15011KT 9999 SCT049 M01/M05 Q1013 NOSIG",
      "tafRaw": "TAF ESSA 081130Z 0812/0912 16013KT 9999 BKN030 \n  PROB40 0818/0902 2500 -SHSN BKN013 BKN025TCU \n  BECMG 0900/0902 10007KT",
      "metarHtml": "METAR ESSA 081350Z 15011KT 9999 SCT049 M01/M05 Q1013 NOSIG",
      "tafHtml": "TAF ESSA 081130Z 0812/0912 16013KT 9999 BKN030 \n  PROB40 0818/0902 2500 -<span class=\"hl\">SHSN</span> BKN013 BKN025TCU \n  BECMG 0900/0902 10007KT"
    },
    {
      "icao": "LEZL",
      "iata": "SVQ",
      "name": "Sevilla Airport",
      "updatedAt": "081400Z",
      "visibility_m": 10000,
      "taf_visibility_m": 4000,
      "worst_visibility_m": 4000,
      "ceiling_ft": 2000,
      "hazards": [
        "BR"
      ],
      "severityScore": 10,
      "metarRaw": "METAR LEZL 081400Z 28004KT 220V350 9999 OVC020 12/07 Q1032 NOSIG",
      "tafRaw": "TAF LEZL 080800Z 0809/0909 02004KT 9999 SCT020 TX14/0815Z TN09/0907Z \n  PROB30 \n  TEMPO 0900/0906 4000 BR",
      "metarHtml": "METAR LEZL 081400Z 28004KT 220V350 9999 OVC020 12/07 Q1032 NOSIG",
      "tafHtml": "TAF LEZL 080800Z 0809/0909 02004KT 9999 SCT020 TX14/0815Z TN09/0907Z \n  PROB30 \n  TEMPO 0900/0906 4000 <span class=\"hl\">BR</span>"
    },
    {
      "icao": "LHDC",
      "iata": "DEB",
      "name": "Debrecen International Airport",
      "updatedAt": "081345Z",
      "visibility_m": 7000,
      "taf_visibility_m": 4500,
      "worst_visibility_m": 4500,
      "ceiling_ft": null,
      "hazards": [
        "BR"
      ],
      "severityScore": 10,
      "metarRaw": "METAR LHDC 081345Z AUTO 25005KT 200V270 7000 NSC M05/M07 Q1006 NOSIG",
      "tafRaw": "TAF LHDC 081115Z 0812/0821 26006KT 8000 OVC035 \n  TEMPO 0817/0821 4500 BR",
      "metarHtml": "METAR LHDC 081345Z AUTO 25005KT 200V270 7000 NSC M05/M07 Q1006 NOSIG",
      "tafHtml": "TAF LHDC 081115Z 0812/0821 26006KT 8000 OVC035 \n  TEMPO 0817/0821 4500 <span class=\"hl\">BR</span>"
    },
    {
      "icao": "LIPE",
      "iata": "BLQ",
      "name": "Bologna Guglielmo Marconi Airport",
      "updatedAt": "081350Z",
      "visibility_m": 10000,
      "taf_visibility_m": 1000,
      "worst_visibility_m": 1000,
      "ceiling_ft": null,
      "hazards": [],
      "severityScore": 10,
      "metarRaw": "METAR LIPE 081350Z VRB02KT CAVOK 02/M04 Q1013",
      "tafRaw": "TAF LIPE 081100Z 0812/0912 VRB05KT 9999 FEW030 \n  TEMPO 0821/0906 1000 BCFG BKN008",
      "metarHtml": "METAR LIPE 081350Z VRB02KT <span class=\"hl-vis\">CAVOK</span> 02/M04 Q1013",
      "tafHtml": "TAF LIPE 081100Z 0812/0912 VRB05KT 9999 FEW030 \n  TEMPO 0821/0906 1000 BCFG BKN008"
    },
    {
      "icao": "LRTR",
      "iata": "TSR",
      "name": "Timişoara Traian Vuia Airport",
      "updatedAt": "081400Z",
      "visibility_m": 10000,
      "taf_visibility_m": 3000,
      "worst_visibility_m": 3000,
      "ceiling_ft": 2200,
      "hazards": [
        "BR"
      ],
      "severityScore": 10,
      "metarRaw": "METAR LRTR 081400Z 27011KT 9999 BKN022 M06/M09 Q1009",
      "tafRaw": "TAF LRTR 081100Z 0812/0912 28010KT 7000 NSC \n  BECMG 0821/0823 VRB03KT \n  TEMPO 0901/0906 3000 BR BKN010 \n  BECMG 0910/0912 11010KT",
      "metarHtml": "METAR LRTR 081400Z 27011KT 9999 BKN022 M06/M09 Q1009",
      "tafHtml": "TAF LRTR 081100Z 0812/0912 28010KT 7000 NSC \n  BECMG 0821/0823 VRB03KT \n  TEMPO 0901/0906 3000 <span class=\"hl\">BR</span> BKN010 \n  BECMG 0910/0912 11010KT"
    },
    {
      "icao": "LZKZ",
      "iata": "KSC",
      "name": "Košice International Airport",
      "updatedAt": "081400Z",
      "visibility_m": 10000,
      "taf_visibility_m": 2000,
      "worst_visibility_m": 2000,
      "ceiling_ft": null,
      "hazards": [
        "BR"
      ],
      "severityScore": 10,
      "metarRaw": "METAR LZKZ 081400Z 35013KT CAVOK M02/M09 Q1005 NOSIG",
      "tafRaw": "TAF LZKZ 081115Z 0812/0912 36017KT 9999 FEW035 \n  PROB30 \n  TEMPO 0812/0814 36018G28KT DRSN \n  BECMG 0814/0816 34007KT CAVOK \n  BECMG 0820/0822 VRB02KT \n  PROB30 \n  TEMPO 0903/0908 2000 BR SCT002",
      "metarHtml": "METAR LZKZ 081400Z 35013KT <span class=\"hl-vis\">CAVOK</span> M02/M09 Q1005 NOSIG",
      "tafHtml": "TAF LZKZ 081115Z 0812/0912 36017KT 9999 FEW035 \n  PROB30 \n  TEMPO 0812/0814 36018G28KT DRSN \n  BECMG 0814/0816 34007KT <span class=\"hl-vis\">CAVOK</span> \n  BECMG 0820/0822 VRB02KT \n  PROB30 \n  TEMPO 0903/0908 2000 <span class=\"hl\">BR</span> SCT002"
    },
    {
      "icao": "EKBI",
      "iata": "BLL",
      "name": "Billund Airport",
      "updatedAt": "081350Z",
      "visibility_m": 5000,
      "taf_visibility_m": null,
      "worst_visibility_m": 5000,
      "ceiling_ft": null,
      "hazards": [],
      "severityScore": 5,
      "metarRaw": "METAR EKBI 081350Z AUTO 11007KT 5000 OVC005/// M01/M01 Q1005",
      "tafRaw": null,
      "metarHtml": "METAR EKBI 081350Z AUTO 11007KT 5000 OVC005/// M01/M01 Q1005",
      "tafHtml": null
    },
    {
      "icao": "ENTC",
      "iata": "TOS",
      "name": "Tromsø Airport, Langnes",
      "updatedAt": "081350Z",
      "visibility_m": 10000,
      "taf_visibility_m": null,
      "worst_visibility_m": 10000,
      "ceiling_ft": null,
      "hazards": [],
      "severityScore": 5,
      "metarRaw": "METAR ENTC 081350Z 17003KT 090V200 CAVOK M11/M16 Q1023 NOSIG RMK WIND 2600FT 18023KT",
      "tafRaw": null,
      "metarHtml": "METAR ENTC 081350Z 17003KT 090V200 <span class=\"hl-vis\">CAVOK</span> M11/M16 Q1023 NOSIG RMK WIND 2600FT 18023KT",
      "tafHtml": null
    },
    {
      "icao": "LECH",
      "iata": "CDT",
      "name": "Castellón-Costa Azahar Airport",
      "updatedAt": "081400Z",
      "visibility_m": 10000,
      "taf_visibility_m": null,
      "worst_visibility_m": 10000,
      "ceiling_ft": null,
      "hazards": [],
      "severityScore": 5,
      "metarRaw": "METAR LECH 081400Z AUTO 23006KT CAVOK 17/04 Q1022",
      "tafRaw": null,
      "metarHtml": "METAR LECH 081400Z AUTO 23006KT <span class=\"hl-vis\">CAVOK</span> 17/04 Q1022",
      "tafHtml": null
    },
    {
      "icao": "LEZG",
      "iata": "ZAZ",
      "name": "Zaragoza Airport",
      "updatedAt": "081400Z",
      "visibility_m": 10000,
      "taf_visibility_m": null,
      "worst_visibility_m": 10000,
      "ceiling_ft": null,
      "hazards": [],
      "severityScore": 5,
      "metarRaw": "METAR LEZG 081400Z 23021KT CAVOK 12/03 Q1022 NOSIG",
      "tafRaw": null,
      "metarHtml": "METAR LEZG 081400Z 23021KT <span class=\"hl-vis\">CAVOK</span> 12/03 Q1022 NOSIG",
      "tafHtml": null
    },
    {
      "icao": "LGTS",
      "iata": "SKG",
      "name": "Thessaloniki Macedonia International Airport",
      "updatedAt": "081350Z",
      "visibility_m": 10000,
      "taf_visibility_m": null,
      "worst_visibility_m": 10000,
      "ceiling_ft": null,
      "hazards": [],
      "severityScore": 5,
      "metarRaw": "METAR LGTS 081350Z 31010KT 9999 FEW025 09/00 Q1004 NOSIG",
      "tafRaw": null,
      "metarHtml": "METAR LGTS 081350Z 31010KT 9999 FEW025 09/00 Q1004 NOSIG",
      "tafHtml": null
    },
    {
      "icao": "LOWW",
      "iata": "VIE",
      "name": "Vienna International Airport",
      "updatedAt": "081350Z",
      "visibility_m": 10000,
      "taf_visibility_m": null,
      "worst_visibility_m": 10000,
      "ceiling_ft": 2800,
      "hazards": [],
      "severityScore": 5,
      "metarRaw": "METAR LOWW 081350Z 03005KT 9999 FEW026 OVC028 M02/M08 Q1010 NOSIG",
      "tafRaw": null,
      "metarHtml": "METAR LOWW 081350Z 03005KT 9999 FEW026 OVC028 M02/M08 Q1010 NOSIG",
      "tafHtml": null
    },
    {
      "icao": "LYPG",
      "iata": "TGD",
      "name": "Podgorica Airport / Podgorica Golubovci Airbase",
      "updatedAt": "081400Z",
      "visibility_m": 10000,
      "taf_visibility_m": null,
      "worst_visibility_m": 10000,
      "ceiling_ft": null,
      "hazards": [],
      "severityScore": 5,
      "metarRaw": "METAR LYPG 081400Z 36013KT 9999 FEW034 SCT050 07/M06 Q1009 NOSIG",
      "tafRaw": null,
      "metarHtml": "METAR LYPG 081400Z 36013KT 9999 FEW034 SCT050 07/M06 Q1009 NOSIG",
      "tafHtml": null
    },
    {
      "icao": "BIKF",
      "iata": "KEF",
      "name": "Keflavik International Airport",
      "updatedAt": "081400Z",
      "visibility_m": 10000,
      "taf_visibility_m": 10000,
      "worst_visibility_m": 10000,
      "ceiling_ft": 4900,
      "hazards": [],
      "severityScore": 0,
      "metarRaw": "METAR BIKF 081400Z 03018KT 9999 OVC049 02/M05 Q1000",
      "tafRaw": "TAF BIKF 081330Z 0815/0915 05017KT 9999 FEW045 SCT055 TX02/0815Z TNM04/0910Z",
      "metarHtml": "METAR BIKF 081400Z 03018KT 9999 OVC049 02/M05 Q1000",
      "tafHtml": "TAF BIKF 081330Z 0815/0915 05017KT 9999 FEW045 SCT055 TX02/0815Z TNM04/0910Z"
    },
    {
      "icao": "GCFV",
      "iata": "FUE",
      "name": "Fuerteventura Airport",
      "updatedAt": "081400Z",
      "visibility_m": 10000,
      "taf_visibility_m": 10000,
      "worst_visibility_m": 10000,
      "ceiling_ft": null,
      "hazards": [],
      "severityScore": 0,
      "metarRaw": "METAR GCFV 081400Z 08007KT 040V110 9999 SCT034 19/11 Q1030",
      "tafRaw": "TAF GCFV 080800Z 0809/0909 06015KT 9999 FEW035 TX20/0814Z TN15/0906Z \n  TEMPO 0812/0819 14008KT",
      "metarHtml": "METAR GCFV 081400Z 08007KT 040V110 9999 SCT034 19/11 Q1030",
      "tafHtml": "TAF GCFV 080800Z 0809/0909 06015KT 9999 FEW035 TX20/0814Z TN15/0906Z \n  TEMPO 0812/0819 14008KT"
    },
    {
      "icao": "GCLP",
      "iata": "LPA",
      "name": "Gran Canaria Airport",
      "updatedAt": "081400Z",
      "visibility_m": 10000,
      "taf_visibility_m": 10000,
      "worst_visibility_m": 10000,
      "ceiling_ft": null,
      "hazards": [],
      "severityScore": 0,
      "metarRaw": "METAR GCLP 081400Z 05010KT 9999 SCT031 20/11 Q1030 NOSIG",
      "tafRaw": "TAF GCLP 080800Z 0809/0909 06017KT 9999 SCT035 TX20/0814Z TN15/0906Z \n  TEMPO 0818/0908 35007KT",
      "metarHtml": "METAR GCLP 081400Z 05010KT 9999 SCT031 20/11 Q1030 NOSIG",
      "tafHtml": "TAF GCLP 080800Z 0809/0909 06017KT 9999 SCT035 TX20/0814Z TN15/0906Z \n  TEMPO 0818/0908 35007KT"
    },
    {
      "icao": "GCTS",
      "iata": "TFS",
      "name": "Tenerife Sur Airport",
      "updatedAt": "081400Z",
      "visibility_m": 10000,
      "taf_visibility_m": 10000,
      "worst_visibility_m": 10000,
      "ceiling_ft": null,
      "hazards": [],
      "severityScore": 0,
      "metarRaw": "METAR GCTS 081400Z 08025KT 9999 FEW040 20/10 Q1029 NOSIG",
      "tafRaw": "TAF GCTS 080800Z 0809/0909 07019KT 9999 SCT040 TX23/0814Z TN15/0906Z \n  PROB30 \n  TEMPO 0809/0818 07020G30KT \n  PROB40 \n  TEMPO 0819/0908 03009KT",
      "metarHtml": "METAR GCTS 081400Z 08025KT 9999 FEW040 20/10 Q1029 NOSIG",
      "tafHtml": "TAF GCTS 080800Z 0809/0909 07019KT 9999 SCT040 TX23/0814Z TN15/0906Z \n  PROB30 \n  TEMPO 0809/0818 07020G30KT \n  PROB40 \n  TEMPO 0819/0908 03009KT"
    },
    {
      "icao": "GMAD",
      "iata": "AGA",
      "name": "Al Massira Airport",
      "updatedAt": "081400Z",
      "visibility_m": 10000,
      "taf_visibility_m": 10000,
      "worst_visibility_m": 10000,
      "ceiling_ft": null,
      "hazards": [],
      "severityScore": 0,
      "metarRaw": "METAR GMAD 081400Z 21003KT CAVOK 19/07 Q1029 NOSIG",
      "tafRaw": "TAF GMAD 081100Z 0812/0918 26008KT CAVOK",
      "metarHtml": "METAR GMAD 081400Z 21003KT <span class=\"hl-vis\">CAVOK</span> 19/07 Q1029 NOSIG",
      "tafHtml": "TAF GMAD 081100Z 0812/0918 26008KT <span class=\"hl-vis\">CAVOK</span>"
    },
    {
      "icao": "GMMN",
      "iata": "CMN",
      "name": "Mohammed V International Airport",
      "updatedAt": "081400Z",
      "visibility_m": 10000,
      "taf_visibility_m": 10000,
      "worst_visibility_m": 10000,
      "ceiling_ft": null,
      "hazards": [],
      "severityScore": 0,
      "metarRaw": "METAR GMMN 081400Z 36007KT 330V040 CAVOK 16/08 Q1031 NOSIG",
      "tafRaw": "TAF GMMN 081100Z 0812/0918 12004KT CAVOK \n  BECMG 0812/0814 36010KT \n  BECMG 0819/0822 16004KT SCT016 \n  BECMG 0910/0913 36012KT",
      "metarHtml": "METAR GMMN 081400Z 36007KT 330V040 <span class=\"hl-vis\">CAVOK</span> 16/08 Q1031 NOSIG",
      "tafHtml": "TAF GMMN 081100Z 0812/0918 12004KT <span class=\"hl-vis\">CAVOK</span> \n  BECMG 0812/0814 36010KT \n  BECMG 0819/0822 16004KT SCT016 \n  BECMG 0910/0913 36012KT"
    },
    {
      "icao": "GMMX",
      "iata": "RAK",
      "name": "Menara Airport",
      "updatedAt": "081400Z",
      "visibility_m": 10000,
      "taf_visibility_m": 8000,
      "worst_visibility_m": 8000,
      "ceiling_ft": null,
      "hazards": [],
      "severityScore": 0,
      "metarRaw": "METAR GMMX 081400Z 06003KT 340V140 CAVOK 17/03 Q1029 NOSIG",
      "tafRaw": "TAF GMMX 081100Z 0812/0918 06006KT 8000 NSC \n  TEMPO 0815/0821 34016KT",
      "metarHtml": "METAR GMMX 081400Z 06003KT 340V140 <span class=\"hl-vis\">CAVOK</span> 17/03 Q1029 NOSIG",
      "tafHtml": "TAF GMMX 081100Z 0812/0918 06006KT 8000 NSC \n  TEMPO 0815/0821 34016KT"
    },
    {
      "icao": "EFTU",
      "iata": "TKU",
      "name": "Turku Airport",
      "updatedAt": "081350Z",
      "visibility_m": 10000,
      "taf_visibility_m": 6000,
      "worst_visibility_m": 6000,
      "ceiling_ft": 2800,
      "hazards": [],
      "severityScore": 0,
      "metarRaw": "METAR EFTU 081350Z AUTO 09007KT 9999 BKN028 M10/M13 Q1020",
      "tafRaw": "TAF EFTU 081134Z 0812/0912 10007KT 9999 SCT017 \n  TEMPO 0812/0815 BKN013 \n  PROB30 0903/0908 6000 BKN006",
      "metarHtml": "METAR EFTU 081350Z AUTO 09007KT 9999 BKN028 M10/M13 Q1020",
      "tafHtml": "TAF EFTU 081134Z 0812/0912 10007KT 9999 SCT017 \n  TEMPO 0812/0815 BKN013 \n  PROB30 0903/0908 6000 BKN006"
    },
    {
      "icao": "EKCH",
      "iata": "CPH",
      "name": "Copenhagen Kastrup Airport",
      "updatedAt": "081350Z",
      "visibility_m": 10000,
      "taf_visibility_m": 10000,
      "worst_visibility_m": 10000,
      "ceiling_ft": null,
      "hazards": [],
      "severityScore": 0,
      "metarRaw": "METAR EKCH 081350Z AUTO 13017KT 9999 BKN021/// M01/M05 Q1009 NOSIG",
      "tafRaw": "TAF EKCH 081127Z 0812/0912 16015KT 9999 BKN018 \n  BECMG 0821/0824 10015KT \n  TEMPO 0903/0908 10018G28KT",
      "metarHtml": "METAR EKCH 081350Z AUTO 13017KT 9999 BKN021/// M01/M05 Q1009 NOSIG",
      "tafHtml": "TAF EKCH 081127Z 0812/0912 16015KT 9999 BKN018 \n  BECMG 0821/0824 10015KT \n  TEMPO 0903/0908 10018G28KT"
    },
    {
      "icao": "ENBR",
      "iata": "BGO",
      "name": "Bergen Airport, Flesland",
      "updatedAt": "081350Z",
      "visibility_m": 10000,
      "taf_visibility_m": 10000,
      "worst_visibility_m": 10000,
      "ceiling_ft": null,
      "hazards": [],
      "severityScore": 0,
      "metarRaw": "METAR ENBR 081350Z 09004KT CAVOK M07/M16 Q1006 NOSIG RMK WIND 1200FT 13010KT",
      "tafRaw": "TAF ENBR 081100Z 0812/0912 10005KT CAVOK",
      "metarHtml": "METAR ENBR 081350Z 09004KT <span class=\"hl-vis\">CAVOK</span> M07/M16 Q1006 NOSIG RMK WIND 1200FT 13010KT",
      "tafHtml": "TAF ENBR 081100Z 0812/0912 10005KT <span class=\"hl-vis\">CAVOK</span>"
    },
    {
      "icao": "ENHD",
      "iata": "HAU",
      "name": "Haugesund Airport, Karmøy",
      "updatedAt": "081350Z",
      "visibility_m": 10000,
      "taf_visibility_m": 10000,
      "worst_visibility_m": 10000,
      "ceiling_ft": null,
      "hazards": [],
      "severityScore": 0,
      "metarRaw": "METAR ENHD 081350Z 10007KT CAVOK M06/M11 Q1006",
      "tafRaw": "TAF ENHD 081100Z 0812/0821 10010KT CAVOK",
      "metarHtml": "METAR ENHD 081350Z 10007KT <span class=\"hl-vis\">CAVOK</span> M06/M11 Q1006",
      "tafHtml": "TAF ENHD 081100Z 0812/0821 10010KT <span class=\"hl-vis\">CAVOK</span>"
    },
    {
      "icao": "ENZV",
      "iata": "SVG",
      "name": "Stavanger Airport, Sola",
      "updatedAt": "081350Z",
      "visibility_m": 10000,
      "taf_visibility_m": 10000,
      "worst_visibility_m": 10000,
      "ceiling_ft": null,
      "hazards": [],
      "severityScore": 0,
      "metarRaw": "METAR ENZV 081350Z VRB01KT CAVOK M06/M11 Q1006 NOSIG",
      "tafRaw": "TAF ENZV 081100Z 0812/0912 10008KT CAVOK \n  TEMPO 0819/0912 12015G25KT",
      "metarHtml": "METAR ENZV 081350Z VRB01KT <span class=\"hl-vis\">CAVOK</span> M06/M11 Q1006 NOSIG",
      "tafHtml": "TAF ENZV 081100Z 0812/0912 10008KT <span class=\"hl-vis\">CAVOK</span> \n  TEMPO 0819/0912 12015G25KT"
    },
    {
      "icao": "EYPA",
      "iata": "PLQ",
      "name": "Palanga International Airport",
      "updatedAt": "081350Z",
      "visibility_m": 10000,
      "taf_visibility_m": 6000,
      "worst_visibility_m": 6000,
      "ceiling_ft": null,
      "hazards": [],
      "severityScore": 0,
      "metarRaw": "METAR EYPA 081350Z 07008KT CAVOK M12/M13 Q1015",
      "tafRaw": "TAF EYPA 081100Z 0812/0912 VRB04KT 6000 NSC \n  TEMPO 0812/0822 BKN010 \n  BECMG 0906/0908 06010KT",
      "metarHtml": "METAR EYPA 081350Z 07008KT <span class=\"hl-vis\">CAVOK</span> M12/M13 Q1015",
      "tafHtml": "TAF EYPA 081100Z 0812/0912 VRB04KT 6000 NSC \n  TEMPO 0812/0822 BKN010 \n  BECMG 0906/0908 06010KT"
    },
    {
      "icao": "HEGN",
      "iata": "HRG",
      "name": "Hurghada International Airport",
      "updatedAt": "081300Z",
      "visibility_m": 10000,
      "taf_visibility_m": 3000,
      "worst_visibility_m": 3000,
      "ceiling_ft": null,
      "hazards": [],
      "severityScore": 0,
      "metarRaw": "METAR HEGN 081300Z 09005KT CAVOK 27/11 Q1016 NOSIG",
      "tafRaw": "TAF HEGN 081100Z 0812/0918 05008KT CAVOK \n  BECMG 0906/0908 33015G30KT \n  TEMPO 0907/0918 3000 SA NSC",
      "metarHtml": "METAR HEGN 081300Z 09005KT <span class=\"hl-vis\">CAVOK</span> 27/11 Q1016 NOSIG",
      "tafHtml": "TAF HEGN 081100Z 0812/0918 05008KT <span class=\"hl-vis\">CAVOK</span> \n  BECMG 0906/0908 33015G30KT \n  TEMPO 0907/0918 3000 SA NSC"
    },
    {
      "icao": "HEMA",
      "iata": "RMF",
      "name": "Marsa Alam International Airport",
      "updatedAt": "081300Z",
      "visibility_m": 6000,
      "taf_visibility_m": 4000,
      "worst_visibility_m": 4000,
      "ceiling_ft": null,
      "hazards": [],
      "severityScore": 0,
      "metarRaw": "METAR HEMA 081300Z 01008KT 6000 NSC 25/18 Q1016 NOSIG",
      "tafRaw": "TAF HEMA 081100Z 0812/0918 01012KT 6000 NSC \n  TEMPO 0812/0824 4000 SA",
      "metarHtml": "METAR HEMA 081300Z 01008KT 6000 NSC 25/18 Q1016 NOSIG",
      "tafHtml": "TAF HEMA 081100Z 0812/0918 01012KT 6000 NSC \n  TEMPO 0812/0824 4000 SA"
    },
    {
      "icao": "HESH",
      "iata": "SSH",
      "name": "Sharm El Sheikh International Airport",
      "updatedAt": null,
      "visibility_m": null,
      "taf_visibility_m": 3000,
      "worst_visibility_m": 3000,
      "ceiling_ft": null,
      "hazards": [],
      "severityScore": 0,
      "metarRaw": null,
      "tafRaw": "TAF HESH 081100Z 0812/0918 08010KT CAVOK \n  BECMG 0906/0908 35010G22KT \n  TEMPO 0907/0918 3000 SA NSC",
      "metarHtml": null,
      "tafHtml": "TAF HESH 081100Z 0812/0918 08010KT <span class=\"hl-vis\">CAVOK</span> \n  BECMG 0906/0908 35010G22KT \n  TEMPO 0907/0918 3000 SA NSC"
    },
    {
      "icao": "LBPD",
      "iata": "PDV",
      "name": "Plovdiv International Airport",
      "updatedAt": "081400Z",
      "visibility_m": 10000,
      "taf_visibility_m": 10000,
      "worst_visibility_m": 10000,
      "ceiling_ft": null,
      "hazards": [],
      "severityScore": 0,
      "metarRaw": "METAR LBPD 081400Z AUTO 29026KT 9999 SCT067/// BKN180/// 03/M05 Q1002 NOSIG",
      "tafRaw": "TAF LBPD 081100Z 0812/0912 29024G36KT 9999 BKN040 \n  BECMG 0908/0910 29014KT SCT060",
      "metarHtml": "METAR LBPD 081400Z AUTO 29026KT 9999 SCT067/// BKN180/// 03/M05 Q1002 NOSIG",
      "tafHtml": "TAF LBPD 081100Z 0812/0912 29024G36KT 9999 BKN040 \n  BECMG 0908/0910 29014KT SCT060"
    },
    {
      "icao": "LEAL",
      "iata": "ALC",
      "name": "Alicante-Elche Miguel Hernández Airport",
      "updatedAt": "081400Z",
      "visibility_m": 10000,
      "taf_visibility_m": 10000,
      "worst_visibility_m": 10000,
      "ceiling_ft": null,
      "hazards": [],
      "severityScore": 0,
      "metarRaw": "METAR LEAL 081400Z 23013KT 200V260 CAVOK 17/03 Q1025 NOSIG",
      "tafRaw": "TAF LEAL 081100Z 0812/0912 26015KT CAVOK TX16/0814Z TN10/0906Z \n  TEMPO 0816/0820 26005KT \n  TEMPO 0822/0904 27020G30KT \n  PROB30 \n  TEMPO 0904/0910 24005KT",
      "metarHtml": "METAR LEAL 081400Z 23013KT 200V260 <span class=\"hl-vis\">CAVOK</span> 17/03 Q1025 NOSIG",
      "tafHtml": "TAF LEAL 081100Z 0812/0912 26015KT <span class=\"hl-vis\">CAVOK</span> TX16/0814Z TN10/0906Z \n  TEMPO 0816/0820 26005KT \n  TEMPO 0822/0904 27020G30KT \n  PROB30 \n  TEMPO 0904/0910 24005KT"
    },
    {
      "icao": "LEBL",
      "iata": "BCN",
      "name": "Josep Tarradellas Barcelona-El Prat Airport",
      "updatedAt": "081400Z",
      "visibility_m": 10000,
      "taf_visibility_m": 10000,
      "worst_visibility_m": 10000,
      "ceiling_ft": null,
      "hazards": [],
      "severityScore": 0,
      "metarRaw": "METAR LEBL 081400Z 32008KT 9999 FEW042 17/06 Q1019 NOSIG",
      "tafRaw": "TAF LEBL 081100Z 0812/0912 33009KT 9999 FEW020 TX15/0813Z TN09/0906Z \n  TEMPO 0812/0815 32015G25KT \n  BECMG 0816/0819 25009KT \n  BECMG 0902/0905 33006KT \n  BECMG 0908/0910 27010KT",
      "metarHtml": "METAR LEBL 081400Z 32008KT 9999 FEW042 17/06 Q1019 NOSIG",
      "tafHtml": "TAF LEBL 081100Z 0812/0912 33009KT 9999 FEW020 TX15/0813Z TN09/0906Z \n  TEMPO 0812/0815 32015G25KT \n  BECMG 0816/0819 25009KT \n  BECMG 0902/0905 33006KT \n  BECMG 0908/0910 27010KT"
    },
    {
      "icao": "LEMG",
      "iata": "AGP",
      "name": "Málaga-Costa del Sol Airport",
      "updatedAt": "081400Z",
      "visibility_m": 10000,
      "taf_visibility_m": 10000,
      "worst_visibility_m": 10000,
      "ceiling_ft": null,
      "hazards": [],
      "severityScore": 0,
      "metarRaw": "METAR LEMG 081400Z 27008KT 230V300 CAVOK 16/07 Q1029 NOSIG",
      "tafRaw": "TAF LEMG 081100Z 0812/0912 29012KT CAVOK TX16/0814Z TN08/0906Z \n  PROB40 \n  TEMPO 0822/0906 29015G25KT",
      "metarHtml": "METAR LEMG 081400Z 27008KT 230V300 <span class=\"hl-vis\">CAVOK</span> 16/07 Q1029 NOSIG",
      "tafHtml": "TAF LEMG 081100Z 0812/0912 29012KT <span class=\"hl-vis\">CAVOK</span> TX16/0814Z TN08/0906Z \n  PROB40 \n  TEMPO 0822/0906 29015G25KT"
    },
    {
      "icao": "LEVC",
      "iata": "VLC",
      "name": "Valencia Airport",
      "updatedAt": "081400Z",
      "visibility_m": 10000,
      "taf_visibility_m": 10000,
      "worst_visibility_m": 10000,
      "ceiling_ft": null,
      "hazards": [],
      "severityScore": 0,
      "metarRaw": "METAR LEVC 081400Z 23016KT 200V260 CAVOK 13/03 Q1024 NOSIG",
      "tafRaw": "TAF LEVC 081100Z 0812/0912 26018KT CAVOK TX14/0814Z TN09/0906Z \n  TEMPO 0812/0818 25020G30KT \n  TEMPO 0823/0904 27020G30KT \n  PROB30 \n  TEMPO 0900/0903 27030G40KT \n  TEMPO 0902/0909 VRB04KT \n  TEMPO 0909/0912 27020G30KT \n  PROB30 \n  TEMPO 0909/0912 27030G40KT",
      "metarHtml": "METAR LEVC 081400Z 23016KT 200V260 <span class=\"hl-vis\">CAVOK</span> 13/03 Q1024 NOSIG",
      "tafHtml": "TAF LEVC 081100Z 0812/0912 26018KT <span class=\"hl-vis\">CAVOK</span> TX14/0814Z TN09/0906Z \n  TEMPO 0812/0818 25020G30KT \n  TEMPO 0823/0904 27020G30KT \n  PROB30 \n  TEMPO 0900/0903 27030G40KT \n  TEMPO 0902/0909 VRB04KT \n  TEMPO 0909/0912 27020G30KT \n  PROB30 \n  TEMPO 0909/0912 27030G40KT"
    },
    {
      "icao": "LFMN",
      "iata": "NCE",
      "name": "Nice-Côte d'Azur Airport",
      "updatedAt": "081400Z",
      "visibility_m": 10000,
      "taf_visibility_m": 10000,
      "worst_visibility_m": 10000,
      "ceiling_ft": null,
      "hazards": [],
      "severityScore": 0,
      "metarRaw": "METAR LFMN 081400Z 08010KT 9999 FEW050 SCT260 12/03 Q1011 NOSIG",
      "tafRaw": "TAF LFMN 080800Z 0809/0915 32010KT CAVOK \n  BECMG 0809/0811 VRB04KT \n  BECMG 0812/0814 09010KT \n  BECMG 0816/0818 33010KT \n  BECMG 0821/0823 24010KT \n  BECMG 0823/0901 23020KT \n  TEMPO 0906/0911 23025G35KT",
      "metarHtml": "METAR LFMN 081400Z 08010KT 9999 FEW050 SCT260 12/03 Q1011 NOSIG",
      "tafHtml": "TAF LFMN 080800Z 0809/0915 32010KT <span class=\"hl-vis\">CAVOK</span> \n  BECMG 0809/0811 VRB04KT \n  BECMG 0812/0814 09010KT \n  BECMG 0816/0818 33010KT \n  BECMG 0821/0823 24010KT \n  BECMG 0823/0901 23020KT \n  TEMPO 0906/0911 23025G35KT"
    },
    {
      "icao": "LGAV",
      "iata": "ATH",
      "name": "Athens Eleftherios Venizelos International Airport",
      "updatedAt": "081350Z",
      "visibility_m": 10000,
      "taf_visibility_m": 10000,
      "worst_visibility_m": 10000,
      "ceiling_ft": null,
      "hazards": [],
      "severityScore": 0,
      "metarRaw": "METAR LGAV 081350Z 29014KT 260V330 9999 FEW025 14/M02 Q1009 NOSIG",
      "tafRaw": "TAF LGAV 081100Z 0812/0912 26012KT 9999 FEW020 SCT030 \n  TEMPO 0812/0821 26017G27KT \n  BECMG 0902/0904 VRB05KT \n  BECMG 0906/0908 26010KT",
      "metarHtml": "METAR LGAV 081350Z 29014KT 260V330 9999 FEW025 14/M02 Q1009 NOSIG",
      "tafHtml": "TAF LGAV 081100Z 0812/0912 26012KT 9999 FEW020 SCT030 \n  TEMPO 0812/0821 26017G27KT \n  BECMG 0902/0904 VRB05KT \n  BECMG 0906/0908 26010KT"
    },
    {
      "icao": "LIBD",
      "iata": "BRI",
      "name": "Bari Karol Wojtyła International Airport",
      "updatedAt": "081350Z",
      "visibility_m": 10000,
      "taf_visibility_m": 10000,
      "worst_visibility_m": 10000,
      "ceiling_ft": null,
      "hazards": [],
      "severityScore": 0,
      "metarRaw": "METAR LIBD 081350Z 29013KT 9999 SCT020 08/M00 Q1013 WS R25",
      "tafRaw": "TAF LIBD 081100Z 0812/0912 28020G30KT 9999 SCT010 SCT030 \n  BECMG 0816/0818 22010KT",
      "metarHtml": "METAR LIBD 081350Z 29013KT 9999 SCT020 08/M00 Q1013 WS R25",
      "tafHtml": "TAF LIBD 081100Z 0812/0912 28020G30KT 9999 SCT010 SCT030 \n  BECMG 0816/0818 22010KT"
    },
    {
      "icao": "LIBG",
      "iata": "TAR",
      "name": "Taranto-Grottaglie Marcello Arlotta Airport",
      "updatedAt": "081350Z",
      "visibility_m": 10000,
      "taf_visibility_m": 10000,
      "worst_visibility_m": 10000,
      "ceiling_ft": null,
      "hazards": [],
      "severityScore": 0,
      "metarRaw": "METAR LIBG 081350Z 31012KT CAVOK 09/M00 Q1013",
      "tafRaw": "TAF LIBG 081100Z 0812/0821 32015KT 9999 SCT025 \n  TEMPO 0812/0815 32016G26KT",
      "metarHtml": "METAR LIBG 081350Z 31012KT <span class=\"hl-vis\">CAVOK</span> 09/M00 Q1013",
      "tafHtml": "TAF LIBG 081100Z 0812/0821 32015KT 9999 SCT025 \n  TEMPO 0812/0815 32016G26KT"
    },
    {
      "icao": "LIBP",
      "iata": "PSR",
      "name": "Abruzzo Airport",
      "updatedAt": "081350Z",
      "visibility_m": 10000,
      "taf_visibility_m": 10000,
      "worst_visibility_m": 10000,
      "ceiling_ft": null,
      "hazards": [],
      "severityScore": 0,
      "metarRaw": "METAR LIBP 081350Z AUTO 08004KT 9999 NCD 09/M06 Q1015",
      "tafRaw": "TAF LIBP 081100Z 0812/0912 23006KT 9999 SCT030",
      "metarHtml": "METAR LIBP 081350Z AUTO 08004KT 9999 NCD 09/M06 Q1015",
      "tafHtml": "TAF LIBP 081100Z 0812/0912 23006KT 9999 SCT030"
    },
    {
      "icao": "LIBR",
      "iata": "BDS",
      "name": "Brindisi Airport",
      "updatedAt": "081350Z",
      "visibility_m": 10000,
      "taf_visibility_m": 10000,
      "worst_visibility_m": 10000,
      "ceiling_ft": null,
      "hazards": [],
      "severityScore": 0,
      "metarRaw": "METAR LIBR 081350Z 30021KT 9999 FEW040 09/M00 Q1012",
      "tafRaw": "TAF LIBR 081100Z 0812/0912 31022G33KT 9999 SCT030 \n  BECMG 0818/0820 23009KT",
      "metarHtml": "METAR LIBR 081350Z 30021KT 9999 FEW040 09/M00 Q1012",
      "tafHtml": "TAF LIBR 081100Z 0812/0912 31022G33KT 9999 SCT030 \n  BECMG 0818/0820 23009KT"
    },
    {
      "icao": "LICC",
      "iata": "CTA",
      "name": "Catania-Fontanarossa Airport",
      "updatedAt": "081350Z",
      "visibility_m": 10000,
      "taf_visibility_m": 10000,
      "worst_visibility_m": 10000,
      "ceiling_ft": null,
      "hazards": [],
      "severityScore": 0,
      "metarRaw": "METAR LICC 081350Z 29016KT 9999 FEW050 16/11 Q1016",
      "tafRaw": "TAF LICC 081100Z 0812/0912 27016KT 9999 SCT050 \n  TEMPO 0812/0818 28020G33KT \n  TEMPO 0909/0912 26020G30KT",
      "metarHtml": "METAR LICC 081350Z 29016KT 9999 FEW050 16/11 Q1016",
      "tafHtml": "TAF LICC 081100Z 0812/0912 27016KT 9999 SCT050 \n  TEMPO 0812/0818 28020G33KT \n  TEMPO 0909/0912 26020G30KT"
    },
    {
      "icao": "LIMF",
      "iata": "TRN",
      "name": "Turin Airport",
      "updatedAt": "081350Z",
      "visibility_m": 9000,
      "taf_visibility_m": 10000,
      "worst_visibility_m": 9000,
      "ceiling_ft": null,
      "hazards": [],
      "severityScore": 0,
      "metarRaw": "METAR LIMF 081350Z 11003KT 040V170 9000 NSC 06/M08 Q1011",
      "tafRaw": "TAF LIMF 081100Z 0812/0912 VRB03KT 9999 BKN003",
      "metarHtml": "METAR LIMF 081350Z 11003KT 040V170 9000 NSC 06/M08 Q1011",
      "tafHtml": "TAF LIMF 081100Z 0812/0912 VRB03KT 9999 BKN003"
    },
    {
      "icao": "LIMJ",
      "iata": "GOA",
      "name": "Genoa Cristoforo Colombo Airport",
      "updatedAt": "081350Z",
      "visibility_m": 10000,
      "taf_visibility_m": 10000,
      "worst_visibility_m": 10000,
      "ceiling_ft": 4000,
      "hazards": [],
      "severityScore": 0,
      "metarRaw": "METAR LIMJ 081350Z 14011KT 9999 SCT028 BKN040 10/04 Q1012",
      "tafRaw": "TAF LIMJ 081100Z 0812/0912 14010KT 9999 BKN020 \n  BECMG 0820/0822 03010KT",
      "metarHtml": "METAR LIMJ 081350Z 14011KT 9999 SCT028 BKN040 10/04 Q1012",
      "tafHtml": "TAF LIMJ 081100Z 0812/0912 14010KT 9999 BKN020 \n  BECMG 0820/0822 03010KT"
    },
    {
      "icao": "LIPH",
      "iata": "TSF",
      "name": "Treviso Antonio Canova Airport",
      "updatedAt": "081350Z",
      "visibility_m": 10000,
      "taf_visibility_m": 10000,
      "worst_visibility_m": 10000,
      "ceiling_ft": null,
      "hazards": [],
      "severityScore": 0,
      "metarRaw": "METAR LIPH 081350Z VRB02KT CAVOK 03/M07 Q1013",
      "tafRaw": "TAF LIPH 081100Z 0812/0912 VRB05KT CAVOK",
      "metarHtml": "METAR LIPH 081350Z VRB02KT <span class=\"hl-vis\">CAVOK</span> 03/M07 Q1013",
      "tafHtml": "TAF LIPH 081100Z 0812/0912 VRB05KT <span class=\"hl-vis\">CAVOK</span>"
    },
    {
      "icao": "LIPR",
      "iata": "RMI",
      "name": "Federico Fellini International Airport",
      "updatedAt": "081350Z",
      "visibility_m": 10000,
      "taf_visibility_m": 10000,
      "worst_visibility_m": 10000,
      "ceiling_ft": null,
      "hazards": [],
      "severityScore": 0,
      "metarRaw": "METAR LIPR 081350Z 07003KT 030V110 CAVOK 04/M05 Q1014",
      "tafRaw": "TAF LIPR 081100Z 0812/0912 VRB06KT 9999 SCT030",
      "metarHtml": "METAR LIPR 081350Z 07003KT 030V110 <span class=\"hl-vis\">CAVOK</span> 04/M05 Q1014",
      "tafHtml": "TAF LIPR 081100Z 0812/0912 VRB06KT 9999 SCT030"
    },
    {
      "icao": "LIPX",
      "iata": "VRN",
      "name": "Verona Villafranca Valerio Catullo Airport",
      "updatedAt": "081350Z",
      "visibility_m": 10000,
      "taf_visibility_m": 10000,
      "worst_visibility_m": 10000,
      "ceiling_ft": null,
      "hazards": [],
      "severityScore": 0,
      "metarRaw": "METAR LIPX 081350Z 17003KT 130V210 CAVOK 03/00 Q1012",
      "tafRaw": "TAF LIPX 081100Z 0812/0912 VRB05KT 9999 SCT040",
      "metarHtml": "METAR LIPX 081350Z 17003KT 130V210 <span class=\"hl-vis\">CAVOK</span> 03/00 Q1012",
      "tafHtml": "TAF LIPX 081100Z 0812/0912 VRB05KT 9999 SCT040"
    },
    {
      "icao": "LIPY",
      "iata": "AOI",
      "name": "Marche Airport",
      "updatedAt": "081350Z",
      "visibility_m": 10000,
      "taf_visibility_m": 10000,
      "worst_visibility_m": 10000,
      "ceiling_ft": null,
      "hazards": [],
      "severityScore": 0,
      "metarRaw": "METAR LIPY 081350Z AUTO 02003KT 9999 FEW220/// 07/M02 Q1014",
      "tafRaw": "TAF LIPY 081100Z 0812/0912 23006KT 9999 SCT030",
      "metarHtml": "METAR LIPY 081350Z AUTO 02003KT 9999 FEW220/// 07/M02 Q1014",
      "tafHtml": "TAF LIPY 081100Z 0812/0912 23006KT 9999 SCT030"
    },
    {
      "icao": "LPFR",
      "iata": "FAO",
      "name": "Faro Airport",
      "updatedAt": "081400Z",
      "visibility_m": 10000,
      "taf_visibility_m": 10000,
      "worst_visibility_m": 10000,
      "ceiling_ft": null,
      "hazards": [],
      "severityScore": 0,
      "metarRaw": "METAR LPFR 081400Z 20004KT 160V250 9999 FEW016 13/08 Q1032",
      "tafRaw": "TAF LPFR 081100Z 0812/0912 VRB02KT 9999 FEW020 \n  BECMG 0812/0814 19007KT \n  BECMG 0816/0818 VRB05KT \n  BECMG 0905/0907 SCT015 BKN035",
      "metarHtml": "METAR LPFR 081400Z 20004KT 160V250 9999 FEW016 13/08 Q1032",
      "tafHtml": "TAF LPFR 081100Z 0812/0912 VRB02KT 9999 FEW020 \n  BECMG 0812/0814 19007KT \n  BECMG 0816/0818 VRB05KT \n  BECMG 0905/0907 SCT015 BKN035"
    },
    {
      "icao": "LPMA",
      "iata": "FNC",
      "name": "Madeira International Airport Cristiano Ronaldo",
      "updatedAt": "081400Z",
      "visibility_m": 10000,
      "taf_visibility_m": 10000,
      "worst_visibility_m": 10000,
      "ceiling_ft": null,
      "hazards": [],
      "severityScore": 0,
      "metarRaw": "METAR LPMA 081400Z 03011KT 9999 SCT015 19/12 Q1033",
      "tafRaw": "TAF LPMA 081100Z 0812/0912 02013KT 9999 SCT015 \n  TEMPO 0818/0912 BKN013",
      "metarHtml": "METAR LPMA 081400Z 03011KT 9999 SCT015 19/12 Q1033",
      "tafHtml": "TAF LPMA 081100Z 0812/0912 02013KT 9999 SCT015 \n  TEMPO 0818/0912 BKN013"
    },
    {
      "icao": "LQBK",
      "iata": "BNX",
      "name": "Banja Luka International Airport",
      "updatedAt": "081400Z",
      "visibility_m": 10000,
      "taf_visibility_m": 2000,
      "worst_visibility_m": 2000,
      "ceiling_ft": null,
      "hazards": [],
      "severityScore": 0,
      "metarRaw": "METAR LQBK 081400Z 36002KT CAVOK M03/M07 Q1013 NOSIG",
      "tafRaw": "TAF LQBK 081100Z 0812/0912 16005KT CAVOK TXM01/0813Z TNM09/0903Z \n  TEMPO 0812/0816 22010KT \n  PROB30 \n  TEMPO 0900/0909 2000 BCFG",
      "metarHtml": "METAR LQBK 081400Z 36002KT <span class=\"hl-vis\">CAVOK</span> M03/M07 Q1013 NOSIG",
      "tafHtml": "TAF LQBK 081100Z 0812/0912 16005KT <span class=\"hl-vis\">CAVOK</span> TXM01/0813Z TNM09/0903Z \n  TEMPO 0812/0816 22010KT \n  PROB30 \n  TEMPO 0900/0909 2000 BCFG"
    },
    {
      "icao": "LQTZ",
      "iata": "TZL",
      "name": "Tuzla International Airport",
      "updatedAt": "081400Z",
      "visibility_m": 10000,
      "taf_visibility_m": 10000,
      "worst_visibility_m": 10000,
      "ceiling_ft": null,
      "hazards": [],
      "severityScore": 0,
      "metarRaw": "METAR LQTZ 081400Z 00000KT CAVOK M02/M06 Q1012",
      "tafRaw": "TAF LQTZ 081100Z 0812/0912 23005KT CAVOK TX00/0912Z TNM10/0905Z \n  TEMPO 0812/0815 30010KT",
      "metarHtml": "METAR LQTZ 081400Z 00000KT <span class=\"hl-vis\">CAVOK</span> M02/M06 Q1012",
      "tafHtml": "TAF LQTZ 081100Z 0812/0912 23005KT <span class=\"hl-vis\">CAVOK</span> TX00/0912Z TNM10/0905Z \n  TEMPO 0812/0815 30010KT"
    },
    {
      "icao": "LRCL",
      "iata": "CLJ",
      "name": "Cluj Avram Iancu International Airport",
      "updatedAt": "081400Z",
      "visibility_m": 10000,
      "taf_visibility_m": 10000,
      "worst_visibility_m": 10000,
      "ceiling_ft": 4300,
      "hazards": [],
      "severityScore": 0,
      "metarRaw": "METAR LRCL 081400Z 33008KT 9999 BKN043 M03/M06 Q1003",
      "tafRaw": "TAF LRCL 081100Z 0812/0821 30010KT 9999 BKN050",
      "metarHtml": "METAR LRCL 081400Z 33008KT 9999 BKN043 M03/M06 Q1003",
      "tafHtml": "TAF LRCL 081100Z 0812/0821 30010KT 9999 BKN050"
    },
    {
      "icao": "LRCV",
      "iata": "CRA",
      "name": "Craiova International Airport",
      "updatedAt": "081400Z",
      "visibility_m": 10000,
      "taf_visibility_m": 10000,
      "worst_visibility_m": 10000,
      "ceiling_ft": null,
      "hazards": [],
      "severityScore": 0,
      "metarRaw": "METAR LRCV 081400Z 29024KT CAVOK M02/M06 Q1001",
      "tafRaw": "TAF LRCV 081100Z 0812/0821 27020KT CAVOK \n  TEMPO 0812/0818 27025G35KT",
      "metarHtml": "METAR LRCV 081400Z 29024KT <span class=\"hl-vis\">CAVOK</span> M02/M06 Q1001",
      "tafHtml": "TAF LRCV 081100Z 0812/0821 27020KT <span class=\"hl-vis\">CAVOK</span> \n  TEMPO 0812/0818 27025G35KT"
    },
    {
      "icao": "LWSK",
      "iata": "SKP",
      "name": "Skopje International Airport",
      "updatedAt": "081350Z",
      "visibility_m": 10000,
      "taf_visibility_m": 10000,
      "worst_visibility_m": 10000,
      "ceiling_ft": null,
      "hazards": [],
      "severityScore": 0,
      "metarRaw": "METAR LWSK 081350Z 01012KT 9999 FEW030 SCT060 02/M05 Q1008 NOSIG",
      "tafRaw": "TAF LWSK 081120Z 0812/0912 36012KT 9999 FEW020 BKN030 BKN050 \n  TEMPO 0812/0816 03015G25KT \n  BECMG 0818/0820 CAVOK",
      "metarHtml": "METAR LWSK 081350Z 01012KT 9999 FEW030 SCT060 02/M05 Q1008 NOSIG",
      "tafHtml": "TAF LWSK 081120Z 0812/0912 36012KT 9999 FEW020 BKN030 BKN050 \n  TEMPO 0812/0816 03015G25KT \n  BECMG 0818/0820 <span class=\"hl-vis\">CAVOK</span>"
    },
    {
      "icao": "LYBE",
      "iata": "BEG",
      "name": "Belgrade Nikola Tesla Airport",
      "updatedAt": "081400Z",
      "visibility_m": 10000,
      "taf_visibility_m": 10000,
      "worst_visibility_m": 10000,
      "ceiling_ft": null,
      "hazards": [],
      "severityScore": 0,
      "metarRaw": "METAR LYBE 081400Z 27013KT CAVOK M04/M07 Q1011 NOSIG",
      "tafRaw": "TAF LYBE 081100Z 0812/0912 28014KT CAVOK TXM02/0912Z TNM12/0904Z \n  BECMG 0817/0819 22006KT",
      "metarHtml": "METAR LYBE 081400Z 27013KT <span class=\"hl-vis\">CAVOK</span> M04/M07 Q1011 NOSIG",
      "tafHtml": "TAF LYBE 081100Z 0812/0912 28014KT <span class=\"hl-vis\">CAVOK</span> TXM02/0912Z TNM12/0904Z \n  BECMG 0817/0819 22006KT"
    },
    {
      "icao": "OEJN",
      "iata": "JED",
      "name": "King Abdulaziz International Airport",
      "updatedAt": "081400Z",
      "visibility_m": 7000,
      "taf_visibility_m": 2000,
      "worst_visibility_m": 2000,
      "ceiling_ft": null,
      "hazards": [],
      "severityScore": 0,
      "metarRaw": "METAR OEJN 081400Z 24008KT 7000 NSC 28/18 Q1015 NOSIG",
      "tafRaw": "TAF OEJN 081100Z 0812/0918 24010KT 7000 FEW040 \n  BECMG 0818/0820 VRB03KT \n  PROB30 \n  TEMPO 0822/0902 2000 HZ \n  BECMG 0906/0908 25010KT",
      "metarHtml": "METAR OEJN 081400Z 24008KT 7000 NSC 28/18 Q1015 NOSIG",
      "tafHtml": "TAF OEJN 081100Z 0812/0918 24010KT 7000 FEW040 \n  BECMG 0818/0820 VRB03KT \n  PROB30 \n  TEMPO 0822/0902 2000 HZ \n  BECMG 0906/0908 25010KT"
    },
    {
      "icao": "OEMA",
      "iata": "MED",
      "name": "Prince Mohammad Bin Abdulaziz Airport",
      "updatedAt": "081400Z",
      "visibility_m": 10000,
      "taf_visibility_m": 10000,
      "worst_visibility_m": 10000,
      "ceiling_ft": null,
      "hazards": [],
      "severityScore": 0,
      "metarRaw": "METAR OEMA 081400Z 08006KT CAVOK 27/M03 Q1021 NOSIG",
      "tafRaw": "TAF OEMA 081100Z 0812/0918 09010KT CAVOK",
      "metarHtml": "METAR OEMA 081400Z 08006KT <span class=\"hl-vis\">CAVOK</span> 27/M03 Q1021 NOSIG",
      "tafHtml": "TAF OEMA 081100Z 0812/0918 09010KT <span class=\"hl-vis\">CAVOK</span>"
    },
    {
      "icao": "OMAA",
      "iata": "AUH",
      "name": "Zayed International Airport",
      "updatedAt": "081400Z",
      "visibility_m": 10000,
      "taf_visibility_m": 8000,
      "worst_visibility_m": 8000,
      "ceiling_ft": null,
      "hazards": [],
      "severityScore": 0,
      "metarRaw": "METAR OMAA 081400Z 33009KT CAVOK 22/10 Q1019 NOSIG",
      "tafRaw": "TAF OMAA 081100Z 0812/0918 34011KT 8000 NSC \n  BECMG 0816/0818 VRB02KT \n  BECMG 0910/0912 33010KT \n  BECMG 0915/0917 04005KT",
      "metarHtml": "METAR OMAA 081400Z 33009KT <span class=\"hl-vis\">CAVOK</span> 22/10 Q1019 NOSIG",
      "tafHtml": "TAF OMAA 081100Z 0812/0918 34011KT 8000 NSC \n  BECMG 0816/0818 VRB02KT \n  BECMG 0910/0912 33010KT \n  BECMG 0915/0917 04005KT"
    },
    {
      "icao": "OMDB",
      "iata": "DXB",
      "name": "Dubai International Airport",
      "updatedAt": "081400Z",
      "visibility_m": 10000,
      "taf_visibility_m": 10000,
      "worst_visibility_m": 10000,
      "ceiling_ft": null,
      "hazards": [],
      "severityScore": 0,
      "metarRaw": "METAR OMDB 081400Z 34008KT 310V010 CAVOK 23/10 Q1019 NOSIG",
      "tafRaw": "TAF OMDB 081100Z 0812/0918 33010KT CAVOK \n  BECMG 0816/0818 10005KT \n  BECMG 0909/0911 33010KT \n  BECMG 0916/0918 08005KT",
      "metarHtml": "METAR OMDB 081400Z 34008KT 310V010 <span class=\"hl-vis\">CAVOK</span> 23/10 Q1019 NOSIG",
      "tafHtml": "TAF OMDB 081100Z 0812/0918 33010KT <span class=\"hl-vis\">CAVOK</span> \n  BECMG 0816/0818 10005KT \n  BECMG 0909/0911 33010KT \n  BECMG 0916/0918 08005KT"
    }
  ],
  "stats": {
    "icaoCount": 159,
    "metarReturned": 158,
    "tafReturned": 141,
    "stationsWritten": 159,
    "missingMetar": 1,
    "missingTaf": 18
  },
  "errors": []
}