{
  "generatedAt": "2026-01-09T03:58:01.230Z",
  "stations": [
    {
      "icao": "EBCI",
      "iata": "CRL",
      "name": "Brussels South Charleroi Airport",
      "updatedAt": "090350Z",
      "visibility_m": 4000,
      "taf_visibility_m": 400,
      "worst_visibility_m": 400,
      "ceiling_ft": 1500,
      "hazards": [
        "FZFG",
        "SN",
        "RA",
        "SHRA"
      ],
      "severityScore": 100,
      "metarRaw": "METAR EBCI 090350Z 19021G32KT 6000 -RADZ SCT010 BKN015 05/03 Q0983 TEMPO20018G35KT 4000 MODRADZ BKN015",
      "tafRaw": "TAF EBCI 082300Z 0900/1006 20020G35KT 9999 BKN030 \n  PROB40 \n  TEMPO 0900/0902 3500 SHRA SCT006 BKN014TCU \n  PROB40 \n  TEMPO 0902/0912 18028G45KT \n  BECMG 0902/0904 SCT006 BKN008 \n  TEMPO 0903/0907 4500 -RADZ \n  PROB40 0907/0923 2000 RA RADZ BKN003 \n  BECMG 0916/0919 27018G32KT \n  PROB40 \n  TEMPO 0908/0918 1400 RASN BKN002 \n  PROB40 \n  TEMPO 0918/0923 0800 SNRA BKN002 \n  BECMG 0923/1001 33012KT 1200 -SN BKN002 \n  PROB40 1001/1006 0400 FZFG SN BKN001",
      "metarHtml": "METAR EBCI 090350Z 19021G32KT 6000 -RADZ SCT010 BKN015 05/03 Q0983 TEMPO20018G35KT 4000 MODRADZ BKN015",
      "tafHtml": "TAF EBCI 082300Z 0900/1006 20020G35KT 9999 BKN030 \n  PROB40 \n  TEMPO 0900/0902 3500 <span class=\"hl\">SHRA</span> SCT006 BKN014TCU \n  PROB40 \n  TEMPO 0902/0912 18028G45KT \n  BECMG 0902/0904 SCT006 BKN008 \n  TEMPO 0903/0907 4500 -RADZ \n  PROB40 0907/0923 2000 <span class=\"hl\">RA</span> RADZ BKN003 \n  BECMG 0916/0919 27018G32KT \n  PROB40 \n  TEMPO 0908/0918 1400 RASN BKN002 \n  PROB40 \n  TEMPO 0918/0923 <span class=\"hl-vis\">0800</span> SNRA BKN002 \n  BECMG 0923/1001 33012KT 1200 -<span class=\"hl\">SN</span> BKN002 \n  PROB40 1001/1006 <span class=\"hl-vis\">0400</span> <span class=\"hl\">FZFG</span> <span class=\"hl\">SN</span> BKN001"
    },
    {
      "icao": "EGBB",
      "iata": "BHX",
      "name": "Birmingham Airport",
      "updatedAt": "090350Z",
      "visibility_m": 2500,
      "taf_visibility_m": 300,
      "worst_visibility_m": 300,
      "ceiling_ft": 500,
      "hazards": [
        "SN",
        "FG",
        "BR"
      ],
      "severityScore": 100,
      "metarRaw": "METAR EGBB 090350Z 33019KT 2500 -SN BKN005 OVC009 01/00 Q0988",
      "tafRaw": "TAF EGBB 082257Z 0900/0924 03018G30KT 5000 BR BKN005 \n  BECMG 0900/0903 33018G30KT \n  TEMPO 0900/0906 1200 SN BKN002 \n  PROB30 \n  TEMPO 0900/0904 0300 +SN FG BKN000 \n  TEMPO 0906/0908 3000 RADZ BR BKN003 \n  BECMG 0908/0911 9999 NSW SCT006 \n  BECMG 0912/0915 33009KT \n  TEMPO 0913/0924 4000 RADZ BKN014",
      "metarHtml": "METAR EGBB 090350Z 33019KT 2500 -<span class=\"hl\">SN</span> BKN005 OVC009 01/00 Q0988",
      "tafHtml": "TAF EGBB 082257Z 0900/0924 03018G30KT 5000 <span class=\"hl\">BR</span> BKN005 \n  BECMG 0900/0903 33018G30KT \n  TEMPO 0900/0906 1200 <span class=\"hl\">SN</span> BKN002 \n  PROB30 \n  TEMPO 0900/0904 <span class=\"hl-vis\">0300</span> +<span class=\"hl\">SN</span> <span class=\"hl\">FG</span> BKN000 \n  TEMPO 0906/0908 3000 RADZ <span class=\"hl\">BR</span> BKN003 \n  BECMG 0908/0911 9999 NSW SCT006 \n  BECMG 0912/0915 33009KT \n  TEMPO 0913/0924 4000 RADZ BKN014"
    },
    {
      "icao": "EPWR",
      "iata": "WRO",
      "name": "Copernicus Wrocław Airport",
      "updatedAt": "090330Z",
      "visibility_m": 3500,
      "taf_visibility_m": 300,
      "worst_visibility_m": 300,
      "ceiling_ft": null,
      "hazards": [
        "BR",
        "FZFG",
        "SN"
      ],
      "severityScore": 100,
      "metarRaw": "METAR EPWR 090330Z VRB01KT 3500 BR NSC M12/M13 Q1007",
      "tafRaw": "TAF EPWR 090230Z 0903/1003 12003KT 2200 BR NSC \n  BECMG 0903/0905 0800 FZFG BKN002 \n  TEMPO 0903/0906 0300 FZFG BKN001 \n  BECMG 0906/0908 10013KT 8000 NSW BKN006 \n  BECMG 0908/0911 SCT017 \n  TEMPO 0915/0924 -SN BKN012 \n  TEMPO 1000/1003 4000 -SN BR BKN009",
      "metarHtml": "METAR EPWR 090330Z VRB01KT 3500 <span class=\"hl\">BR</span> NSC M12/M13 Q1007",
      "tafHtml": "TAF EPWR 090230Z 0903/1003 12003KT 2200 <span class=\"hl\">BR</span> NSC \n  BECMG 0903/0905 <span class=\"hl-vis\">0800</span> <span class=\"hl\">FZFG</span> BKN002 \n  TEMPO 0903/0906 <span class=\"hl-vis\">0300</span> <span class=\"hl\">FZFG</span> BKN001 \n  BECMG 0906/0908 10013KT 8000 NSW BKN006 \n  BECMG 0908/0911 SCT017 \n  TEMPO 0915/0924 -<span class=\"hl\">SN</span> BKN012 \n  TEMPO 1000/1003 4000 -<span class=\"hl\">SN</span> <span class=\"hl\">BR</span> BKN009"
    },
    {
      "icao": "LEMD",
      "iata": "MAD",
      "name": "Adolfo Suárez Madrid–Barajas Airport",
      "updatedAt": "090330Z",
      "visibility_m": 10000,
      "taf_visibility_m": 200,
      "worst_visibility_m": 200,
      "ceiling_ft": 1000,
      "hazards": [
        "FG",
        "BR",
        "DZ"
      ],
      "severityScore": 100,
      "metarRaw": "METAR LEMD 090330Z 22012KT 190V250 9999 OVC010 07/06 Q1022 NOSIG",
      "tafRaw": "TAF LEMD 082300Z 0900/1006 23010KT 9999 SCT030 TX11/0915Z TN05/0906Z \n  TEMPO 0900/0909 3000 DZ BR BKN005 \n  PROB40 \n  TEMPO 0900/0908 0200 FG VV001 \n  TEMPO 0900/0907 23015G25KT \n  TEMPO 0907/0911 VRB05KT \n  TEMPO 0909/0917 27020G30KT \n  BECMG 0922/0924 VRB05KT",
      "metarHtml": "METAR LEMD 090330Z 22012KT 190V250 9999 OVC010 07/06 Q1022 NOSIG",
      "tafHtml": "TAF LEMD 082300Z 0900/1006 23010KT 9999 SCT030 TX11/0915Z TN05/0906Z \n  TEMPO 0900/0909 3000 <span class=\"hl\">DZ</span> <span class=\"hl\">BR</span> BKN005 \n  PROB40 \n  TEMPO 0900/0908 <span class=\"hl-vis\">0200</span> <span class=\"hl\">FG</span> VV001 \n  TEMPO 0900/0907 23015G25KT \n  TEMPO 0907/0911 VRB05KT \n  TEMPO 0909/0917 27020G30KT \n  BECMG 0922/0924 VRB05KT"
    },
    {
      "icao": "LJLJ",
      "iata": "LJU",
      "name": "Ljubljana Jože Pučnik Airport",
      "updatedAt": "090330Z",
      "visibility_m": 10000,
      "taf_visibility_m": 300,
      "worst_visibility_m": 300,
      "ceiling_ft": null,
      "hazards": [
        "FZFG",
        "BR",
        "FZRA",
        "SN"
      ],
      "severityScore": 100,
      "metarRaw": "METAR LJLJ 090330Z 28005KT CAVOK M10/M12 Q1007 NOSIG",
      "tafRaw": "TAF LJLJ 082300Z 0900/1000 VRB02KT 9999 FEW002 \n  TEMPO 0900/0908 3000 BCFG BR \n  PROB40 \n  TEMPO 0900/0908 0300 FZFG VV001 \n  TEMPO 0909/0918 4000 -FZRA BR \n  PROB40 \n  TEMPO 0909/0911 -SN BR",
      "metarHtml": "METAR LJLJ 090330Z 28005KT <span class=\"hl-vis\">CAVOK</span> M10/M12 Q1007 NOSIG",
      "tafHtml": "TAF LJLJ 082300Z 0900/1000 VRB02KT 9999 FEW002 \n  TEMPO 0900/0908 3000 BCFG <span class=\"hl\">BR</span> \n  PROB40 \n  TEMPO 0900/0908 <span class=\"hl-vis\">0300</span> <span class=\"hl\">FZFG</span> VV001 \n  TEMPO 0909/0918 4000 -<span class=\"hl\">FZRA</span> <span class=\"hl\">BR</span> \n  PROB40 \n  TEMPO 0909/0911 -<span class=\"hl\">SN</span> <span class=\"hl\">BR</span>"
    },
    {
      "icao": "LRTR",
      "iata": "TSR",
      "name": "Timişoara Traian Vuia Airport",
      "updatedAt": "090330Z",
      "visibility_m": 800,
      "taf_visibility_m": 300,
      "worst_visibility_m": 300,
      "ceiling_ft": null,
      "hazards": [
        "FZFG",
        "BR",
        "SN"
      ],
      "severityScore": 100,
      "metarRaw": "METAR LRTR 090330Z 09007KT 0800 R11/2000U FZFG SCT001 M16/M18 Q1010",
      "tafRaw": "TAF LRTR 082300Z 0900/0924 VRB04KT 1500 BR BKN005 \n  TEMPO 0900/0903 0300 FZFG VV001 \n  BECMG 0903/0905 5000 SCT010 \n  BECMG 0906/0908 CAVOK \n  BECMG 0910/0912 11010KT \n  BECMG 0913/0915 5000 -SN BR BKN015 BKN030 \n  TEMPO 0918/0924 1500 SN BR BKN010 OVC020",
      "metarHtml": "METAR LRTR 090330Z 09007KT <span class=\"hl-vis\">0800</span> R11/2000U <span class=\"hl\">FZFG</span> SCT001 M16/M18 Q1010",
      "tafHtml": "TAF LRTR 082300Z 0900/0924 VRB04KT 1500 <span class=\"hl\">BR</span> BKN005 \n  TEMPO 0900/0903 <span class=\"hl-vis\">0300</span> <span class=\"hl\">FZFG</span> VV001 \n  BECMG 0903/0905 5000 SCT010 \n  BECMG 0906/0908 <span class=\"hl-vis\">CAVOK</span> \n  BECMG 0910/0912 11010KT \n  BECMG 0913/0915 5000 -<span class=\"hl\">SN</span> <span class=\"hl\">BR</span> BKN015 BKN030 \n  TEMPO 0918/0924 1500 <span class=\"hl\">SN</span> <span class=\"hl\">BR</span> BKN010 OVC020"
    },
    {
      "icao": "UAAA",
      "iata": "ALA",
      "name": "Almaty International Airport",
      "updatedAt": "090330Z",
      "visibility_m": 2300,
      "taf_visibility_m": 300,
      "worst_visibility_m": 300,
      "ceiling_ft": 700,
      "hazards": [
        "BR",
        "FZFG"
      ],
      "severityScore": 100,
      "metarRaw": "METAR UAAA 090330Z 02002MPS 2300 BR OVC007 M05/M06 Q1025 NOSIG",
      "tafRaw": "TAF UAAA 082301Z 0900/0924 35003MPS 1500 BR BKN007 OVC015 TXM01/0909Z TNM07/0901Z \n  TEMPO 0900/0905 VRB01MPS 0300 FZFG VV002 \n  FM090500 04003MPS 3100 BR FU SCT011 BKN020 \n  TEMPO 0912/0916 1500 \n  TEMPO 0916/0924 VRB01MPS 0300 FZFG VV002",
      "metarHtml": "METAR UAAA 090330Z 02002MPS 2300 <span class=\"hl\">BR</span> OVC007 M05/M06 Q1025 NOSIG",
      "tafHtml": "TAF UAAA 082301Z 0900/0924 35003MPS 1500 <span class=\"hl\">BR</span> BKN007 OVC015 TXM01/0909Z TNM07/0901Z \n  TEMPO 0900/0905 VRB01MPS <span class=\"hl-vis\">0300</span> <span class=\"hl\">FZFG</span> VV002 \n  FM090500 04003MPS 3100 <span class=\"hl\">BR</span> FU SCT011 BKN020 \n  TEMPO 0912/0916 1500 \n  TEMPO 0916/0924 VRB01MPS <span class=\"hl-vis\">0300</span> <span class=\"hl\">FZFG</span> VV002"
    },
    {
      "icao": "UDYZ",
      "iata": "EVN",
      "name": "Zvartnots International Airport",
      "updatedAt": "090330Z",
      "visibility_m": 1600,
      "taf_visibility_m": 200,
      "worst_visibility_m": 200,
      "ceiling_ft": null,
      "hazards": [
        "BR",
        "FZFG",
        "SN"
      ],
      "severityScore": 100,
      "metarRaw": "METAR UDYZ 090330Z 34002KT 1600 1400W R08/P2000N BR SCT046 M03/M05 Q1014 NOSIG",
      "tafRaw": "TAF UDYZ 082300Z 0900/0924 VRB06KT 1200 BR SCT040 \n  TEMPO 0900/0906 0200 SN FZFG VV001",
      "metarHtml": "METAR UDYZ 090330Z 34002KT 1600 1400W R08/P2000N <span class=\"hl\">BR</span> SCT046 M03/M05 Q1014 NOSIG",
      "tafHtml": "TAF UDYZ 082300Z 0900/0924 VRB06KT 1200 <span class=\"hl\">BR</span> SCT040 \n  TEMPO 0900/0906 <span class=\"hl-vis\">0200</span> <span class=\"hl\">SN</span> <span class=\"hl\">FZFG</span> VV001"
    },
    {
      "icao": "UDSG",
      "iata": "LWN",
      "name": "Shirak International Airport",
      "updatedAt": "090330Z",
      "visibility_m": 2800,
      "taf_visibility_m": 400,
      "worst_visibility_m": 400,
      "ceiling_ft": 3300,
      "hazards": [
        "BR",
        "FZFG",
        "SN"
      ],
      "severityScore": 93,
      "metarRaw": "METAR UDSG 090330Z 02004KT 2800 BR OVC033 M05/M05 Q1011 NOSIG",
      "tafRaw": "TAF UDSG 082258Z 0900/0924 VRB06KT 2000 BR BKN030 \n  TEMPO 0900/0908 0400 SN FZFG OVC003 \n  TEMPO 0908/0916 0800 +SN OVC005",
      "metarHtml": "METAR UDSG 090330Z 02004KT 2800 <span class=\"hl\">BR</span> OVC033 M05/M05 Q1011 NOSIG",
      "tafHtml": "TAF UDSG 082258Z 0900/0924 VRB06KT 2000 <span class=\"hl\">BR</span> BKN030 \n  TEMPO 0900/0908 <span class=\"hl-vis\">0400</span> <span class=\"hl\">SN</span> <span class=\"hl\">FZFG</span> OVC003 \n  TEMPO 0908/0916 <span class=\"hl-vis\">0800</span> +<span class=\"hl\">SN</span> OVC005"
    },
    {
      "icao": "EHBK",
      "iata": "MST",
      "name": "Maastricht Aachen Airport",
      "updatedAt": "090355Z",
      "visibility_m": 10000,
      "taf_visibility_m": 800,
      "worst_visibility_m": 800,
      "ceiling_ft": 3200,
      "hazards": [
        "BR",
        "SN",
        "RA",
        "SHRA",
        "DZ"
      ],
      "severityScore": 89,
      "metarRaw": "METAR EHBK 090355Z AUTO 20017KT 160V220 9999 SCT027 BKN032 BKN044 07/04 Q0985",
      "tafRaw": "TAF EHBK 082301Z 0900/1006 16010KT 9999 -RA BKN035 \n  PROB40 \n  TEMPO 0900/0908 7000 RA SHRA BKN012 FEW020TCU \n  BECMG 0906/0909 20018G28KT RA \n  TEMPO 0912/0918 22020G30KT 4000 -DZ BKN006 \n  BECMG 0916/0919 24012KT 4000 SNRA BKN003 \n  BECMG 0919/0922 27010KT 2000 -SN BR \n  TEMPO 0921/1006 0800 SN VV002 \n  BECMG 1003/1006 36006KT",
      "metarHtml": "METAR EHBK 090355Z AUTO 20017KT 160V220 9999 SCT027 BKN032 BKN044 07/04 Q0985",
      "tafHtml": "TAF EHBK 082301Z 0900/1006 16010KT 9999 -<span class=\"hl\">RA</span> BKN035 \n  PROB40 \n  TEMPO 0900/0908 7000 <span class=\"hl\">RA</span> <span class=\"hl\">SHRA</span> BKN012 FEW020TCU \n  BECMG 0906/0909 20018G28KT <span class=\"hl\">RA</span> \n  TEMPO 0912/0918 22020G30KT 4000 -<span class=\"hl\">DZ</span> BKN006 \n  BECMG 0916/0919 24012KT 4000 SNRA BKN003 \n  BECMG 0919/0922 27010KT 2000 -<span class=\"hl\">SN</span> <span class=\"hl\">BR</span> \n  TEMPO 0921/1006 <span class=\"hl-vis\">0800</span> <span class=\"hl\">SN</span> VV002 \n  BECMG 1003/1006 36006KT"
    },
    {
      "icao": "LQTZ",
      "iata": "TZL",
      "name": "Tuzla International Airport",
      "updatedAt": "090330Z",
      "visibility_m": 2400,
      "taf_visibility_m": 400,
      "worst_visibility_m": 400,
      "ceiling_ft": null,
      "hazards": [
        "BR",
        "FZFG",
        "RA"
      ],
      "severityScore": 87,
      "metarRaw": "METAR LQTZ 090330Z VRB02KT 2400 BR FEW002 M14/M15 Q1010",
      "tafRaw": "TAF LQTZ 082300Z 0900/0924 10005KT 7000 SCT060 TX03/0913Z TNM14/0900Z \n  TEMPO 0900/0908 3000 BR \n  PROB40 0900/0907 0400 FZFG \n  PROB30 \n  TEMPO 0910/0915 23010KT \n  TEMPO 0916/0924 3000 -RA BR",
      "metarHtml": "METAR LQTZ 090330Z VRB02KT 2400 <span class=\"hl\">BR</span> FEW002 M14/M15 Q1010",
      "tafHtml": "TAF LQTZ 082300Z 0900/0924 10005KT 7000 SCT060 TX03/0913Z TNM14/0900Z \n  TEMPO 0900/0908 3000 <span class=\"hl\">BR</span> \n  PROB40 0900/0907 <span class=\"hl-vis\">0400</span> <span class=\"hl\">FZFG</span> \n  PROB30 \n  TEMPO 0910/0915 23010KT \n  TEMPO 0916/0924 3000 -<span class=\"hl\">RA</span> <span class=\"hl\">BR</span>"
    },
    {
      "icao": "LOWW",
      "iata": "VIE",
      "name": "Vienna International Airport",
      "updatedAt": "090350Z",
      "visibility_m": 10000,
      "taf_visibility_m": 800,
      "worst_visibility_m": 800,
      "ceiling_ft": null,
      "hazards": [
        "FZFG",
        "BR",
        "SN"
      ],
      "severityScore": 83,
      "metarRaw": "METAR LOWW 090350Z 11005KT CAVOK M06/M09 Q1006 NOSIG",
      "tafRaw": "TAF LOWW 090215Z 0903/1009 12008KT 9999 SCT030 TXM04/1009Z TNM06/0903Z \n  FM090600 12008KT 6000 -SN VV015 \n  TEMPO 0907/0911 0800 SN VV003 \n  FM091100 13008KT 6000 BKN007 \n  TEMPO 0911/0918 SCT012 \n  TEMPO 0918/1006 2000 BR BKN003 \n  PROB30 \n  TEMPO 1000/1006 15003KT 0800 FZFG",
      "metarHtml": "METAR LOWW 090350Z 11005KT <span class=\"hl-vis\">CAVOK</span> M06/M09 Q1006 NOSIG",
      "tafHtml": "TAF LOWW 090215Z 0903/1009 12008KT 9999 SCT030 TXM04/1009Z TNM06/0903Z \n  FM090600 12008KT 6000 -<span class=\"hl\">SN</span> VV015 \n  TEMPO 0907/0911 <span class=\"hl-vis\">0800</span> <span class=\"hl\">SN</span> VV003 \n  FM091100 13008KT 6000 BKN007 \n  TEMPO 0911/0918 SCT012 \n  TEMPO 0918/1006 2000 <span class=\"hl\">BR</span> BKN003 \n  PROB30 \n  TEMPO 1000/1006 15003KT <span class=\"hl-vis\">0800</span> <span class=\"hl\">FZFG</span>"
    },
    {
      "icao": "EHEH",
      "iata": "EIN",
      "name": "Eindhoven Airport",
      "updatedAt": "090325Z",
      "visibility_m": 10000,
      "taf_visibility_m": 500,
      "worst_visibility_m": 500,
      "ceiling_ft": null,
      "hazards": [
        "SN",
        "RA",
        "SHRA"
      ],
      "severityScore": 79,
      "metarRaw": "METAR EHEH 090325Z AUTO 15007KT 9999 FEW032 SCT039 04/03 Q0984 BLU RMK TREND REMOTE BY EHWX",
      "tafRaw": "TAF EHEH 082340Z 0900/1006 10010KT 6000 SCT008 BKN010 \n  TEMPO 0900/0902 2500 13013KT RADZ FEW002 SCT004 BKN006 \n  TEMPO 0900/0904 BKN025 \n  TEMPO 0901/0904 4000 SHRA SCT012 SCT020CB BKN022 \n  BECMG 0904/0906 16015G25KT 4000 -RA SCT012 BKN015 \n  BECMG 0909/0911 28010KT 1500 SNRA FEW002 SCT003 BKN005 \n  TEMPO 0915/1006 0500 SN SCT001 BKN003",
      "metarHtml": "METAR EHEH 090325Z AUTO 15007KT 9999 FEW032 SCT039 04/03 Q0984 BLU RMK TREND REMOTE BY EHWX",
      "tafHtml": "TAF EHEH 082340Z 0900/1006 10010KT 6000 SCT008 BKN010 \n  TEMPO 0900/0902 2500 13013KT RADZ FEW002 SCT004 BKN006 \n  TEMPO 0900/0904 BKN025 \n  TEMPO 0901/0904 4000 <span class=\"hl\">SHRA</span> SCT012 SCT020CB BKN022 \n  BECMG 0904/0906 16015G25KT 4000 -<span class=\"hl\">RA</span> SCT012 BKN015 \n  BECMG 0909/0911 28010KT 1500 SNRA FEW002 SCT003 BKN005 \n  TEMPO 0915/1006 <span class=\"hl-vis\">0500</span> <span class=\"hl\">SN</span> SCT001 BKN003"
    },
    {
      "icao": "EDDH",
      "iata": "HAM",
      "name": "Hamburg Helmut Schmidt Airport",
      "updatedAt": "090350Z",
      "visibility_m": 10000,
      "taf_visibility_m": 600,
      "worst_visibility_m": 600,
      "ceiling_ft": 1300,
      "hazards": [
        "SN",
        "BLSN"
      ],
      "severityScore": 77,
      "metarRaw": "METAR EDDH 090350Z AUTO 10017KT 9999 BKN013 M03/M05 Q0998 TEMPO 11015G25KT SCT011",
      "tafRaw": "TAF EDDH 082300Z 0900/1006 11013KT 9000 FEW007 BKN020 \n  PROB40 \n  TEMPO 0900/0907 BKN007 \n  BECMG 0903/0905 09015G25KT \n  TEMPO 0905/0921 08020G35KT 0600 BLSN \n  PROB40 \n  TEMPO 0907/0918 3500 -SN BKN007 \n  PROB30 \n  TEMPO 0909/0913 1200 SN BKN004 \n  PROB30 \n  TEMPO 0921/1006 4500 BLSN",
      "metarHtml": "METAR EDDH 090350Z AUTO 10017KT 9999 BKN013 M03/M05 Q0998 TEMPO 11015G25KT SCT011",
      "tafHtml": "TAF EDDH 082300Z 0900/1006 11013KT 9000 FEW007 BKN020 \n  PROB40 \n  TEMPO 0900/0907 BKN007 \n  BECMG 0903/0905 09015G25KT \n  TEMPO 0905/0921 08020G35KT <span class=\"hl-vis\">0600</span> <span class=\"hl\">BLSN</span> \n  PROB40 \n  TEMPO 0907/0918 3500 -<span class=\"hl\">SN</span> BKN007 \n  PROB30 \n  TEMPO 0909/0913 1200 <span class=\"hl\">SN</span> BKN004 \n  PROB30 \n  TEMPO 0921/1006 4500 <span class=\"hl\">BLSN</span>"
    },
    {
      "icao": "EGNM",
      "iata": "LBA",
      "name": "Leeds Bradford Airport",
      "updatedAt": null,
      "visibility_m": null,
      "taf_visibility_m": 800,
      "worst_visibility_m": 800,
      "ceiling_ft": null,
      "hazards": [
        "SN",
        "RA",
        "SHRA"
      ],
      "severityScore": 69,
      "metarRaw": null,
      "tafRaw": "TAF EGNM 081659Z 0818/0918 VRB04KT 9999 FEW010 \n  BECMG 0818/0821 03012KT BKN009 \n  TEMPO 0818/0903 3000 RASN -SN BKN004 \n  PROB30 \n  TEMPO 0820/0903 04015G25KT 0800 SN BKN001 \n  TEMPO 0903/0909 02015G25KT 6000 RA -RADZ \n  PROB30 \n  TEMPO 0903/0909 4000 RADZ RASN BKN004 \n  BECMG 0907/0910 SCT020 \n  PROB30 \n  TEMPO 0910/0916 6000 SHRA BKN012",
      "metarHtml": null,
      "tafHtml": "TAF EGNM 081659Z 0818/0918 VRB04KT 9999 FEW010 \n  BECMG 0818/0821 03012KT BKN009 \n  TEMPO 0818/0903 3000 RASN -<span class=\"hl\">SN</span> BKN004 \n  PROB30 \n  TEMPO 0820/0903 04015G25KT <span class=\"hl-vis\">0800</span> <span class=\"hl\">SN</span> BKN001 \n  TEMPO 0903/0909 02015G25KT 6000 <span class=\"hl\">RA</span> -RADZ \n  PROB30 \n  TEMPO 0903/0909 4000 RADZ RASN BKN004 \n  BECMG 0907/0910 SCT020 \n  PROB30 \n  TEMPO 0910/0916 6000 <span class=\"hl\">SHRA</span> BKN012"
    },
    {
      "icao": "LKMT",
      "iata": "OSR",
      "name": "Ostrava Leos Janáček Airport",
      "updatedAt": "090330Z",
      "visibility_m": 4500,
      "taf_visibility_m": 900,
      "worst_visibility_m": 900,
      "ceiling_ft": null,
      "hazards": [
        "BR",
        "FZFG",
        "SN"
      ],
      "severityScore": 68,
      "metarRaw": "METAR LKMT 090330Z 22003KT 4500 BR NSC M13/M14 Q1007 NOSIG",
      "tafRaw": "TAF LKMT 082300Z 0900/0924 VRB02KT 3500 BR BKN030 \n  PROB40 \n  TEMPO 0900/0911 0900 FZFG BKN002 \n  BECMG 0911/0913 OVC020 \n  PROB40 \n  TEMPO 0913/0924 1500 -SN BR OVC012",
      "metarHtml": "METAR LKMT 090330Z 22003KT 4500 <span class=\"hl\">BR</span> NSC M13/M14 Q1007 NOSIG",
      "tafHtml": "TAF LKMT 082300Z 0900/0924 VRB02KT 3500 <span class=\"hl\">BR</span> BKN030 \n  PROB40 \n  TEMPO 0900/0911 0900 <span class=\"hl\">FZFG</span> BKN002 \n  BECMG 0911/0913 OVC020 \n  PROB40 \n  TEMPO 0913/0924 1500 -<span class=\"hl\">SN</span> <span class=\"hl\">BR</span> OVC012"
    },
    {
      "icao": "LIRP",
      "iata": "PSA",
      "name": "Pisa International Airport",
      "updatedAt": "090345Z",
      "visibility_m": 10000,
      "taf_visibility_m": 800,
      "worst_visibility_m": 800,
      "ceiling_ft": null,
      "hazards": [
        "FG",
        "BR",
        "RA"
      ],
      "severityScore": 67,
      "metarRaw": "METAR LIRP 090345Z 10006KT 9999 SCT015 SCT020 06/06 Q1008 NOSIG",
      "tafRaw": "TAF LIRP 082300Z 0900/0924 12010KT 9999 SCT025 SCT030 \n  PROB40 \n  TEMPO 0900/0905 3000 BR SCT015 BKN030 \n  PROB30 \n  TEMPO 0900/0904 0800 FG BKN005 \n  BECMG 0906/0908 27015KT RA \n  BECMG 0911/0913 27015G25KT NSW \n  BECMG 0918/0920 27005KT",
      "metarHtml": "METAR LIRP 090345Z 10006KT 9999 SCT015 SCT020 06/06 Q1008 NOSIG",
      "tafHtml": "TAF LIRP 082300Z 0900/0924 12010KT 9999 SCT025 SCT030 \n  PROB40 \n  TEMPO 0900/0905 3000 <span class=\"hl\">BR</span> SCT015 BKN030 \n  PROB30 \n  TEMPO 0900/0904 <span class=\"hl-vis\">0800</span> <span class=\"hl\">FG</span> BKN005 \n  BECMG 0906/0908 27015KT <span class=\"hl\">RA</span> \n  BECMG 0911/0913 27015G25KT NSW \n  BECMG 0918/0920 27005KT"
    },
    {
      "icao": "GMMN",
      "iata": "CMN",
      "name": "Mohammed V International Airport",
      "updatedAt": "090330Z",
      "visibility_m": 8000,
      "taf_visibility_m": 400,
      "worst_visibility_m": 400,
      "ceiling_ft": null,
      "hazards": [
        "FG",
        "BR"
      ],
      "severityScore": 65,
      "metarRaw": "METAR GMMN 090330Z 12003KT 8000 SCT018 05/04 Q1031 NOSIG",
      "tafRaw": "TAF GMMN 082300Z 0900/1006 15004KT 3000 BR SCT005 \n  PROB40 \n  TEMPO 0900/0910 0400 FG BKN002 \n  BECMG 0910/0912 CAVOK",
      "metarHtml": "METAR GMMN 090330Z 12003KT 8000 SCT018 05/04 Q1031 NOSIG",
      "tafHtml": "TAF GMMN 082300Z 0900/1006 15004KT 3000 <span class=\"hl\">BR</span> SCT005 \n  PROB40 \n  TEMPO 0900/0910 <span class=\"hl-vis\">0400</span> <span class=\"hl\">FG</span> BKN002 \n  BECMG 0910/0912 <span class=\"hl-vis\">CAVOK</span>"
    },
    {
      "icao": "EYVI",
      "iata": "VNO",
      "name": "Vilnius International Airport",
      "updatedAt": "090350Z",
      "visibility_m": 1200,
      "taf_visibility_m": 600,
      "worst_visibility_m": 600,
      "ceiling_ft": 4300,
      "hazards": [
        "SN",
        "BLSN"
      ],
      "severityScore": 65,
      "metarRaw": "METAR EYVI 090350Z 36021KT 1200 SN BLSN OVC043 M11/M13 Q1001 NOSIG",
      "tafRaw": "TAF EYVI 082300Z 0900/0924 02015G25KT 1500 SN BLSN OVC020 \n  TEMPO 0900/0914 02020G30KT 0600 +SN BKN005 \n  TEMPO 0914/0924 02013KT 0600 +SN BKN005",
      "metarHtml": "METAR EYVI 090350Z 36021KT 1200 <span class=\"hl\">SN</span> <span class=\"hl\">BLSN</span> OVC043 M11/M13 Q1001 NOSIG",
      "tafHtml": "TAF EYVI 082300Z 0900/0924 02015G25KT 1500 <span class=\"hl\">SN</span> <span class=\"hl\">BLSN</span> OVC020 \n  TEMPO 0900/0914 02020G30KT <span class=\"hl-vis\">0600</span> +<span class=\"hl\">SN</span> BKN005 \n  TEMPO 0914/0924 02013KT <span class=\"hl-vis\">0600</span> +<span class=\"hl\">SN</span> BKN005"
    },
    {
      "icao": "LZTT",
      "iata": "TAT",
      "name": "Poprad-Tatry Airport",
      "updatedAt": "090330Z",
      "visibility_m": 10000,
      "taf_visibility_m": 500,
      "worst_visibility_m": 500,
      "ceiling_ft": null,
      "hazards": [
        "FZFG"
      ],
      "severityScore": 65,
      "metarRaw": "METAR LZTT 090330Z 29011KT CAVOK M13/M15 Q1003",
      "tafRaw": "TAF LZTT 082315Z 0900/1000 27009KT 9999 FEW015 \n  BECMG 0903/0905 VRB02KT \n  PROB30 \n  TEMPO 0904/0908 0500 FZFG BKN002 \n  BECMG 0913/0915 BKN028 \n  TEMPO 0916/1000 1500 BCFG BKN004",
      "metarHtml": "METAR LZTT 090330Z 29011KT <span class=\"hl-vis\">CAVOK</span> M13/M15 Q1003",
      "tafHtml": "TAF LZTT 082315Z 0900/1000 27009KT 9999 FEW015 \n  BECMG 0903/0905 VRB02KT \n  PROB30 \n  TEMPO 0904/0908 <span class=\"hl-vis\">0500</span> <span class=\"hl\">FZFG</span> BKN002 \n  BECMG 0913/0915 BKN028 \n  TEMPO 0916/1000 1500 BCFG BKN004"
    },
    {
      "icao": "EPKT",
      "iata": "KTW",
      "name": "Katowice Wojciech Korfanty International Airport",
      "updatedAt": "090330Z",
      "visibility_m": 10000,
      "taf_visibility_m": 1200,
      "worst_visibility_m": 1200,
      "ceiling_ft": 700,
      "hazards": [
        "SN",
        "BR"
      ],
      "severityScore": 63,
      "metarRaw": "METAR EPKT 090330Z 24003KT 9999 -SN BKN007 M08/M09 Q1007",
      "tafRaw": "TAF EPKT 082330Z 0900/0924 32004KT 7000 OVC007 \n  TEMPO 0900/0908 3000 -SN BR OVC004 \n  PROB40 0900/0908 1200 BR \n  BECMG 0908/0910 CAVOK \n  BECMG 0922/0924 BKN013",
      "metarHtml": "METAR EPKT 090330Z 24003KT 9999 -<span class=\"hl\">SN</span> BKN007 M08/M09 Q1007",
      "tafHtml": "TAF EPKT 082330Z 0900/0924 32004KT 7000 OVC007 \n  TEMPO 0900/0908 3000 -<span class=\"hl\">SN</span> <span class=\"hl\">BR</span> OVC004 \n  PROB40 0900/0908 1200 <span class=\"hl\">BR</span> \n  BECMG 0908/0910 <span class=\"hl-vis\">CAVOK</span> \n  BECMG 0922/0924 BKN013"
    },
    {
      "icao": "EPLB",
      "iata": "LUZ",
      "name": "Lublin Airport",
      "updatedAt": "090330Z",
      "visibility_m": 6000,
      "taf_visibility_m": 1000,
      "worst_visibility_m": 1000,
      "ceiling_ft": 2400,
      "hazards": [
        "SN",
        "BR",
        "BLSN"
      ],
      "severityScore": 60,
      "metarRaw": "METAR EPLB 090330Z 30014KT 6000 -SN DRSN FEW009 BKN024 OVC048 M08/M09 Q1002",
      "tafRaw": "TAF EPLB 082330Z 0900/0924 30011KT 5000 -SN BR BKN011 OVC020 \n  TEMPO 0900/0915 2500 -SN DRSN OVC008 \n  PROB30 \n  TEMPO 0900/0913 35015G25KT 1000 SN BLSN BKN003 \n  PROB40 0920/0924 SCT015",
      "metarHtml": "METAR EPLB 090330Z 30014KT 6000 -<span class=\"hl\">SN</span> DRSN FEW009 BKN024 OVC048 M08/M09 Q1002",
      "tafHtml": "TAF EPLB 082330Z 0900/0924 30011KT 5000 -<span class=\"hl\">SN</span> <span class=\"hl\">BR</span> BKN011 OVC020 \n  TEMPO 0900/0915 2500 -<span class=\"hl\">SN</span> DRSN OVC008 \n  PROB30 \n  TEMPO 0900/0913 35015G25KT 1000 <span class=\"hl\">SN</span> <span class=\"hl\">BLSN</span> BKN003 \n  PROB40 0920/0924 SCT015"
    },
    {
      "icao": "LQBK",
      "iata": "BNX",
      "name": "Banja Luka International Airport",
      "updatedAt": "090330Z",
      "visibility_m": 10000,
      "taf_visibility_m": 3000,
      "worst_visibility_m": 3000,
      "ceiling_ft": null,
      "hazards": [
        "BR",
        "FZRA",
        "RA"
      ],
      "severityScore": 57,
      "metarRaw": "METAR LQBK 090330Z VRB01KT CAVOK M12/M13 Q1009 NOSIG",
      "tafRaw": "TAF LQBK 082300Z 0900/0924 15005KT CAVOK TX01/0913Z TNM11/0902Z \n  PROB40 \n  TEMPO 0900/0909 3000 BR \n  TEMPO 0913/0918 5000 -RA BR \n  PROB40 0916/0924 3000 FZRA BR",
      "metarHtml": "METAR LQBK 090330Z VRB01KT <span class=\"hl-vis\">CAVOK</span> M12/M13 Q1009 NOSIG",
      "tafHtml": "TAF LQBK 082300Z 0900/0924 15005KT <span class=\"hl-vis\">CAVOK</span> TX01/0913Z TNM11/0902Z \n  PROB40 \n  TEMPO 0900/0909 3000 <span class=\"hl\">BR</span> \n  TEMPO 0913/0918 5000 -<span class=\"hl\">RA</span> <span class=\"hl\">BR</span> \n  PROB40 0916/0924 3000 <span class=\"hl\">FZRA</span> <span class=\"hl\">BR</span>"
    },
    {
      "icao": "OJAI",
      "iata": "AMM",
      "name": "Queen Alia International Airport",
      "updatedAt": "090300Z",
      "visibility_m": 3000,
      "taf_visibility_m": 1500,
      "worst_visibility_m": 1500,
      "ceiling_ft": null,
      "hazards": [
        "BR",
        "TSRA",
        "RA"
      ],
      "severityScore": 57,
      "metarRaw": "METAR OJAI 090300Z 20005KT 3000 HZ NSC 09/06 Q1013 NOSIG",
      "tafRaw": "TAF OJAI 082300Z 0900/1006 24011KT 3500 HZ NSC \n  TEMPO 0902/0912 28022KT 2000 BLDU \n  BECMG 0902/0904 3000 -RA BKN030 \n  TEMPO 0906/0918 27025G35KT 1500 TSRA BR FEW020CB SCT025 OVC030",
      "metarHtml": "METAR OJAI 090300Z 20005KT 3000 HZ NSC 09/06 Q1013 NOSIG",
      "tafHtml": "TAF OJAI 082300Z 0900/1006 24011KT 3500 HZ NSC \n  TEMPO 0902/0912 28022KT 2000 BLDU \n  BECMG 0902/0904 3000 -<span class=\"hl\">RA</span> BKN030 \n  TEMPO 0906/0918 27025G35KT 1500 <span class=\"hl\">TSRA</span> <span class=\"hl\">BR</span> FEW020CB SCT025 OVC030"
    },
    {
      "icao": "EDDK",
      "iata": "CGN",
      "name": "Cologne Bonn Airport",
      "updatedAt": "090350Z",
      "visibility_m": 10000,
      "taf_visibility_m": 1200,
      "worst_visibility_m": 1200,
      "ceiling_ft": null,
      "hazards": [
        "SHRA",
        "SN",
        "RA"
      ],
      "severityScore": 54,
      "metarRaw": "METAR EDDK 090350Z AUTO 13012KT 9999 FEW037 SCT048 05/03 Q0988 TEMPO 17015G25KT SHRA BKN025CB",
      "tafRaw": "TAF EDDK 082300Z 0900/1006 13011KT 9999 OVC030 \n  TEMPO 0900/0903 RA BKN009 \n  PROB40 \n  TEMPO 0903/0907 SHRA BKN012CB \n  BECMG 0905/0908 19015G25KT \n  TEMPO 0907/0918 19020G30KT RA \n  BECMG 0915/0918 26010KT OVC012 \n  TEMPO 0918/0922 4000 RASN OVC008 \n  BECMG 0922/1001 OVC008 \n  TEMPO 0922/1006 1200 SN BKN003",
      "metarHtml": "METAR EDDK 090350Z AUTO 13012KT 9999 FEW037 SCT048 05/03 Q0988 TEMPO 17015G25KT <span class=\"hl\">SHRA</span> BKN025CB",
      "tafHtml": "TAF EDDK 082300Z 0900/1006 13011KT 9999 OVC030 \n  TEMPO 0900/0903 <span class=\"hl\">RA</span> BKN009 \n  PROB40 \n  TEMPO 0903/0907 <span class=\"hl\">SHRA</span> BKN012CB \n  BECMG 0905/0908 19015G25KT \n  TEMPO 0907/0918 19020G30KT <span class=\"hl\">RA</span> \n  BECMG 0915/0918 26010KT OVC012 \n  TEMPO 0918/0922 4000 RASN OVC008 \n  BECMG 0922/1001 OVC008 \n  TEMPO 0922/1006 1200 <span class=\"hl\">SN</span> BKN003"
    },
    {
      "icao": "EDFH",
      "iata": "HHN",
      "name": "Frankfurt-Hahn Airport",
      "updatedAt": "090350Z",
      "visibility_m": 10000,
      "taf_visibility_m": 1000,
      "worst_visibility_m": 1000,
      "ceiling_ft": 3000,
      "hazards": [
        "RA",
        "SN",
        "SHRA"
      ],
      "severityScore": 54,
      "metarRaw": "METAR EDFH 090350Z 23018G34KT 200V270 9999 -RA FEW007 SCT018 BKN030 05/03 Q0989",
      "tafRaw": "TAF EDFH 082300Z 0900/0924 17015G25KT 9999 SCT001 BKN012 \n  TEMPO 0900/0903 2000 RA OVC001 \n  BECMG 0901/0903 21020G35KT BKN015 \n  TEMPO 0903/0912 21030G45KT SHRA BKN010CB \n  PROB30 \n  TEMPO 0909/0912 21035G50KT \n  TEMPO 0912/0916 4000 RASN BKN005 \n  BECMG 0914/0916 BKN010 \n  TEMPO 0916/0924 2000 -SN BKN004 \n  PROB40 \n  TEMPO 0916/0924 1000 SN",
      "metarHtml": "METAR EDFH 090350Z 23018G34KT 200V270 9999 -<span class=\"hl\">RA</span> FEW007 SCT018 BKN030 05/03 Q0989",
      "tafHtml": "TAF EDFH 082300Z 0900/0924 17015G25KT 9999 SCT001 BKN012 \n  TEMPO 0900/0903 2000 <span class=\"hl\">RA</span> OVC001 \n  BECMG 0901/0903 21020G35KT BKN015 \n  TEMPO 0903/0912 21030G45KT <span class=\"hl\">SHRA</span> BKN010CB \n  PROB30 \n  TEMPO 0909/0912 21035G50KT \n  TEMPO 0912/0916 4000 RASN BKN005 \n  BECMG 0914/0916 BKN010 \n  TEMPO 0916/0924 2000 -<span class=\"hl\">SN</span> BKN004 \n  PROB40 \n  TEMPO 0916/0924 1000 <span class=\"hl\">SN</span>"
    },
    {
      "icao": "ENGM",
      "iata": "OSL",
      "name": "Oslo-Gardermoen International Airport",
      "updatedAt": "090350Z",
      "visibility_m": 10000,
      "taf_visibility_m": 1200,
      "worst_visibility_m": 1200,
      "ceiling_ft": 900,
      "hazards": [
        "SN"
      ],
      "severityScore": 53,
      "metarRaw": "METAR ENGM 090350Z VRB02KT 9999 -SN OVC009 M10/M12 Q1014",
      "tafRaw": "TAF ENGM 082300Z 0900/0924 36003KT 7000 -SN BKN012 \n  TEMPO 0900/0904 1200 SN VV008 \n  TEMPO 0904/0915 BKN020 \n  BECMG 0915/0917 BKN020",
      "metarHtml": "METAR ENGM 090350Z VRB02KT 9999 -<span class=\"hl\">SN</span> OVC009 M10/M12 Q1014",
      "tafHtml": "TAF ENGM 082300Z 0900/0924 36003KT 7000 -<span class=\"hl\">SN</span> BKN012 \n  TEMPO 0900/0904 1200 <span class=\"hl\">SN</span> VV008 \n  TEMPO 0904/0915 BKN020 \n  BECMG 0915/0917 BKN020"
    },
    {
      "icao": "EPWA",
      "iata": "WAW",
      "name": "Warsaw Chopin Airport",
      "updatedAt": "090330Z",
      "visibility_m": 10000,
      "taf_visibility_m": 2000,
      "worst_visibility_m": 2000,
      "ceiling_ft": 800,
      "hazards": [
        "BR",
        "SN"
      ],
      "severityScore": 53,
      "metarRaw": "METAR EPWA 090330Z 31011KT 9999 BKN008 M09/M10 Q1006 NOSIG",
      "tafRaw": "TAF EPWA 090230Z 0903/1003 31011KT 9000 OVC007 \n  PROB40 \n  TEMPO 0903/0910 3000 -SN BR BKN003 \n  BECMG 0910/0913 BKN013 \n  PROB40 0911/0916 BKN016 \n  PROB40 0921/1003 2000 -SG BR OVC003",
      "metarHtml": "METAR EPWA 090330Z 31011KT 9999 BKN008 M09/M10 Q1006 NOSIG",
      "tafHtml": "TAF EPWA 090230Z 0903/1003 31011KT 9000 OVC007 \n  PROB40 \n  TEMPO 0903/0910 3000 -<span class=\"hl\">SN</span> <span class=\"hl\">BR</span> BKN003 \n  BECMG 0910/0913 BKN013 \n  PROB40 0911/0916 BKN016 \n  PROB40 0921/1003 2000 -SG <span class=\"hl\">BR</span> OVC003"
    },
    {
      "icao": "EGKK",
      "iata": "LGW",
      "name": "London Gatwick Airport",
      "updatedAt": "090350Z",
      "visibility_m": 4000,
      "taf_visibility_m": 2000,
      "worst_visibility_m": 2000,
      "ceiling_ft": 700,
      "hazards": [
        "RA",
        "SHRA"
      ],
      "severityScore": 51,
      "metarRaw": "METAR EGKK 090350Z 30019KT 4000 -DZRA BKN007 04/04 Q0981",
      "tafRaw": "TAF EGKK 082255Z 0900/1006 19012KT 9999 SCT010 BKN020 \n  BECMG 0900/0903 32016G26KT \n  TEMPO 0900/0904 6000 RA BKN010 \n  PROB40 \n  TEMPO 0900/0904 4000 +RA RADZ BKN006 \n  TEMPO 0904/0912 6000 -RASN BKN008 \n  PROB30 \n  TEMPO 0904/0911 32019G36KT 2000 RASN BKN004 \n  TEMPO 0912/0921 6000 RA SHRA BKN008 \n  PROB30 \n  TEMPO 0921/1006 8000 -RA BKN014",
      "metarHtml": "METAR EGKK 090350Z 30019KT 4000 -DZRA BKN007 04/04 Q0981",
      "tafHtml": "TAF EGKK 082255Z 0900/1006 19012KT 9999 SCT010 BKN020 \n  BECMG 0900/0903 32016G26KT \n  TEMPO 0900/0904 6000 <span class=\"hl\">RA</span> BKN010 \n  PROB40 \n  TEMPO 0900/0904 4000 +<span class=\"hl\">RA</span> RADZ BKN006 \n  TEMPO 0904/0912 6000 -RASN BKN008 \n  PROB30 \n  TEMPO 0904/0911 32019G36KT 2000 RASN BKN004 \n  TEMPO 0912/0921 6000 <span class=\"hl\">RA</span> <span class=\"hl\">SHRA</span> BKN008 \n  PROB30 \n  TEMPO 0921/1006 8000 -<span class=\"hl\">RA</span> BKN014"
    },
    {
      "icao": "LFBD",
      "iata": "BOD",
      "name": "Bordeaux–Mérignac Airport",
      "updatedAt": "090330Z",
      "visibility_m": 4000,
      "taf_visibility_m": 4000,
      "worst_visibility_m": 4000,
      "ceiling_ft": 1000,
      "hazards": [
        "SHRA",
        "TSRA"
      ],
      "severityScore": 51,
      "metarRaw": "METAR LFBD 090330Z AUTO 27020G31KT 9999 ///CB 12/05 Q1010 TEMPO 28030G55KT 4000 SHRA BKN010 BKN015CB",
      "tafRaw": "TAF LFBD 082300Z 0900/1006 26015G25KT 9999 BKN030 TX11/0914Z TN09/0906Z \n  TEMPO 0900/0922 27020G35KT 4000 SHRA BKN015TCU SCT020CB \n  PROB40 \n  TEMPO 0900/0918 28030G55KT \n  PROB30 \n  TEMPO 0900/0918 TSRA BKN010 BKN015CB \n  TEMPO 0922/1006 4000 SHRA BKN010 BKN020TCU",
      "metarHtml": "METAR LFBD 090330Z AUTO 27020G31KT 9999 ///CB 12/05 Q1010 TEMPO 28030G55KT 4000 <span class=\"hl\">SHRA</span> BKN010 BKN015CB",
      "tafHtml": "TAF LFBD 082300Z 0900/1006 26015G25KT 9999 BKN030 TX11/0914Z TN09/0906Z \n  TEMPO 0900/0922 27020G35KT 4000 <span class=\"hl\">SHRA</span> BKN015TCU SCT020CB \n  PROB40 \n  TEMPO 0900/0918 28030G55KT \n  PROB30 \n  TEMPO 0900/0918 <span class=\"hl\">TSRA</span> BKN010 BKN015CB \n  TEMPO 0922/1006 4000 <span class=\"hl\">SHRA</span> BKN010 BKN020TCU"
    },
    {
      "icao": "LFOB",
      "iata": "BVA",
      "name": "Beauvais Tillé airport",
      "updatedAt": "090330Z",
      "visibility_m": 4000,
      "taf_visibility_m": 4000,
      "worst_visibility_m": 4000,
      "ceiling_ft": 500,
      "hazards": [
        "RA",
        "SHRA"
      ],
      "severityScore": 51,
      "metarRaw": "METAR LFOB 090330Z AUTO 25025G39KT 220V280 9999 -RA BKN018/// OVC025/// ///TCU 06/03 Q0984 TEMPO 22030G50KT 4000 SHRA BKN005",
      "tafRaw": "TAF LFOB 082300Z 0900/0924 21025G35KT 9999 OVC020 \n  TEMPO 0900/0906 22030G50KT \n  TEMPO 0900/0917 4000 SHRA BKN012TCU \n  PROB30 \n  TEMPO 0900/0917 BKN005 \n  BECMG 0917/0921 28015G25KT NSW \n  PROB40 \n  TEMPO 0921/0924 4000 SHRA BKN012TCU",
      "metarHtml": "METAR LFOB 090330Z AUTO 25025G39KT 220V280 9999 -<span class=\"hl\">RA</span> BKN018/// OVC025/// ///TCU 06/03 Q0984 TEMPO 22030G50KT 4000 <span class=\"hl\">SHRA</span> BKN005",
      "tafHtml": "TAF LFOB 082300Z 0900/0924 21025G35KT 9999 OVC020 \n  TEMPO 0900/0906 22030G50KT \n  TEMPO 0900/0917 4000 <span class=\"hl\">SHRA</span> BKN012TCU \n  PROB30 \n  TEMPO 0900/0917 BKN005 \n  BECMG 0917/0921 28015G25KT NSW \n  PROB40 \n  TEMPO 0921/0924 4000 <span class=\"hl\">SHRA</span> BKN012TCU"
    },
    {
      "icao": "LIRN",
      "iata": "NAP",
      "name": "Naples International Airport",
      "updatedAt": "090320Z",
      "visibility_m": 10000,
      "taf_visibility_m": 4000,
      "worst_visibility_m": 4000,
      "ceiling_ft": 5000,
      "hazards": [
        "TSRA",
        "RA",
        "SHRA"
      ],
      "severityScore": 51,
      "metarRaw": "METAR LIRN 090320Z 21003KT 180V240 9999 BKN050 08/08 Q1013 NOSIG",
      "tafRaw": "TAF LIRN 082300Z 0900/0924 VRB05KT 9999 BKN025 \n  TEMPO 0900/0906 RA \n  TEMPO 0906/0919 4000 SHRA \n  BECMG 0909/0911 25013KT \n  TEMPO 0912/0924 25015G25KT \n  TEMPO 0919/0924 4000 TSRA",
      "metarHtml": "METAR LIRN 090320Z 21003KT 180V240 9999 BKN050 08/08 Q1013 NOSIG",
      "tafHtml": "TAF LIRN 082300Z 0900/0924 VRB05KT 9999 BKN025 \n  TEMPO 0900/0906 <span class=\"hl\">RA</span> \n  TEMPO 0906/0919 4000 <span class=\"hl\">SHRA</span> \n  BECMG 0909/0911 25013KT \n  TEMPO 0912/0924 25015G25KT \n  TEMPO 0919/0924 4000 <span class=\"hl\">TSRA</span>"
    },
    {
      "icao": "EDDB",
      "iata": "BER",
      "name": "Berlin Brandenburg Airport",
      "updatedAt": "090350Z",
      "visibility_m": 10000,
      "taf_visibility_m": 1000,
      "worst_visibility_m": 1000,
      "ceiling_ft": 2600,
      "hazards": [
        "SN",
        "BLSN"
      ],
      "severityScore": 50,
      "metarRaw": "METAR EDDB 090350Z AUTO 09009KT 9999 BKN026 M06/M09 Q1004 NOSIG",
      "tafRaw": "TAF EDDB 082300Z 0900/0924 11008KT 9999 BKN020 \n  BECMG 0901/0903 10013KT \n  BECMG 0907/0909 09015G25KT \n  BECMG 0910/0912 4000 -SN BKN009 \n  TEMPO 0910/0924 1000 SN BLSN BKN004 \n  PROB30 \n  TEMPO 0912/0922 09020G30KT",
      "metarHtml": "METAR EDDB 090350Z AUTO 09009KT 9999 BKN026 M06/M09 Q1004 NOSIG",
      "tafHtml": "TAF EDDB 082300Z 0900/0924 11008KT 9999 BKN020 \n  BECMG 0901/0903 10013KT \n  BECMG 0907/0909 09015G25KT \n  BECMG 0910/0912 4000 -<span class=\"hl\">SN</span> BKN009 \n  TEMPO 0910/0924 1000 <span class=\"hl\">SN</span> <span class=\"hl\">BLSN</span> BKN004 \n  PROB30 \n  TEMPO 0912/0922 09020G30KT"
    },
    {
      "icao": "EPKK",
      "iata": "KRK",
      "name": "Kraków John Paul II International Airport",
      "updatedAt": "090330Z",
      "visibility_m": 8000,
      "taf_visibility_m": 1200,
      "worst_visibility_m": 1200,
      "ceiling_ft": 1400,
      "hazards": [
        "BR",
        "SN"
      ],
      "severityScore": 50,
      "metarRaw": "METAR EPKK 090330Z 27011KT 8000 BKN014 M07/M10 Q1007",
      "tafRaw": "TAF EPKK 090230Z 0903/1003 26012KT 9999 BKN020 \n  PROB40 \n  TEMPO 0903/0905 4000 BR BKN011 \n  BECMG 0904/0906 VRB02KT \n  PROB30 0905/0908 1200 BR \n  BECMG 0912/0915 07010KT \n  BECMG 0922/0924 BKN013 \n  TEMPO 1000/1003 2000 -SN BR BKN009",
      "metarHtml": "METAR EPKK 090330Z 27011KT 8000 BKN014 M07/M10 Q1007",
      "tafHtml": "TAF EPKK 090230Z 0903/1003 26012KT 9999 BKN020 \n  PROB40 \n  TEMPO 0903/0905 4000 <span class=\"hl\">BR</span> BKN011 \n  BECMG 0904/0906 VRB02KT \n  PROB30 0905/0908 1200 <span class=\"hl\">BR</span> \n  BECMG 0912/0915 07010KT \n  BECMG 0922/0924 BKN013 \n  TEMPO 1000/1003 2000 -<span class=\"hl\">SN</span> <span class=\"hl\">BR</span> BKN009"
    },
    {
      "icao": "EPPO",
      "iata": "POZ",
      "name": "Poznań-Ławica Airport",
      "updatedAt": "090330Z",
      "visibility_m": 5000,
      "taf_visibility_m": null,
      "worst_visibility_m": 5000,
      "ceiling_ft": 300,
      "hazards": [
        "BR"
      ],
      "severityScore": 50,
      "metarRaw": "METAR EPPO 090330Z 05004KT 5000 BR BKN003 M13/M15 Q1008",
      "tafRaw": null,
      "metarHtml": "METAR EPPO 090330Z 05004KT 5000 <span class=\"hl\">BR</span> BKN003 M13/M15 Q1008",
      "tafHtml": null
    },
    {
      "icao": "LLBG",
      "iata": "TLV",
      "name": "Ben Gurion International Airport",
      "updatedAt": "090350Z",
      "visibility_m": 5000,
      "taf_visibility_m": 5000,
      "worst_visibility_m": 5000,
      "ceiling_ft": 1800,
      "hazards": [
        "TSRA",
        "RA"
      ],
      "severityScore": 49,
      "metarRaw": "METAR LLBG 090350Z 31015KT 9999 BKN018 17/14 Q1013 BECMG 27018G28KT 5000 TSRA FEW025CB RMK RERA",
      "tafRaw": "TAF LLBG 082306Z 0900/0924 20012KT 9999 SCT030 \n  TEMPO 0902/0907 27018G28KT 5000 TSRA FEW020CB BKN025 \n  FM090700 27020G35KT 9999 SCT030 \n  TEMPO 0907/0914 27025G40KT 5000 TSRA FEW020CB BKN025 \n  BECMG 0915/0917 30015KT \n  PROB40 \n  TEMPO 0917/0924 32018G28KT 7000 RA FEW020TCU BKN025 TX18/0911Z TN15/0903Z",
      "metarHtml": "METAR LLBG 090350Z 31015KT 9999 BKN018 17/14 Q1013 BECMG 27018G28KT 5000 <span class=\"hl\">TSRA</span> FEW025CB RMK RERA",
      "tafHtml": "TAF LLBG 082306Z 0900/0924 20012KT 9999 SCT030 \n  TEMPO 0902/0907 27018G28KT 5000 <span class=\"hl\">TSRA</span> FEW020CB BKN025 \n  FM090700 27020G35KT 9999 SCT030 \n  TEMPO 0907/0914 27025G40KT 5000 <span class=\"hl\">TSRA</span> FEW020CB BKN025 \n  BECMG 0915/0917 30015KT \n  PROB40 \n  TEMPO 0917/0924 32018G28KT 7000 <span class=\"hl\">RA</span> FEW020TCU BKN025 TX18/0911Z TN15/0903Z"
    },
    {
      "icao": "LYBE",
      "iata": "BEG",
      "name": "Belgrade Nikola Tesla Airport",
      "updatedAt": "090330Z",
      "visibility_m": 3000,
      "taf_visibility_m": 2000,
      "worst_visibility_m": 2000,
      "ceiling_ft": null,
      "hazards": [
        "BR",
        "FZRA"
      ],
      "severityScore": 45,
      "metarRaw": "METAR LYBE 090330Z 15004KT 3000 BR NSC M10/M11 Q1011 NOSIG",
      "tafRaw": "TAF LYBE 082300Z 0900/0924 12005KT CAVOK TX01/0919Z TNM12/0904Z \n  TEMPO 0913/0924 FZRA \n  BECMG 0919/0921 2000 BR SCT005 BKN015",
      "metarHtml": "METAR LYBE 090330Z 15004KT 3000 <span class=\"hl\">BR</span> NSC M10/M11 Q1011 NOSIG",
      "tafHtml": "TAF LYBE 082300Z 0900/0924 12005KT <span class=\"hl-vis\">CAVOK</span> TX01/0919Z TNM12/0904Z \n  TEMPO 0913/0924 <span class=\"hl\">FZRA</span> \n  BECMG 0919/0921 2000 <span class=\"hl\">BR</span> SCT005 BKN015"
    },
    {
      "icao": "EKBI",
      "iata": "BLL",
      "name": "Billund Airport",
      "updatedAt": "090350Z",
      "visibility_m": 9000,
      "taf_visibility_m": 3000,
      "worst_visibility_m": 3000,
      "ceiling_ft": 800,
      "hazards": [
        "SN"
      ],
      "severityScore": 43,
      "metarRaw": "METAR EKBI 090350Z 09018KT 9000 -SN BKN008 M01/M03 Q1003",
      "tafRaw": "TAF EKBI 090227Z 0903/1003 10012KT 6000 BKN006 \n  TEMPO 0903/0904 11016G28KT 3000 -SN DRSN BKN015 \n  FM090400 09022G36KT 9999 FEW020 \n  TEMPO 0905/0924 DRSN \n  BECMG 1000/1002 07012KT \n  TEMPO 1002/1003 07015G25KT",
      "metarHtml": "METAR EKBI 090350Z 09018KT 9000 -<span class=\"hl\">SN</span> BKN008 M01/M03 Q1003",
      "tafHtml": "TAF EKBI 090227Z 0903/1003 10012KT 6000 BKN006 \n  TEMPO 0903/0904 11016G28KT 3000 -<span class=\"hl\">SN</span> DRSN BKN015 \n  FM090400 09022G36KT 9999 FEW020 \n  TEMPO 0905/0924 DRSN \n  BECMG 1000/1002 07012KT \n  TEMPO 1002/1003 07015G25KT"
    },
    {
      "icao": "EPRZ",
      "iata": "RZE",
      "name": "Rzeszów-Jasionka Airport",
      "updatedAt": "090330Z",
      "visibility_m": 8000,
      "taf_visibility_m": 2000,
      "worst_visibility_m": 2000,
      "ceiling_ft": 800,
      "hazards": [
        "SN"
      ],
      "severityScore": 43,
      "metarRaw": "METAR EPRZ 090330Z 27018KT 8000 -SN BKN008 M07/M09 Q1004",
      "tafRaw": "TAF EPRZ 082330Z 0900/0924 31012KT 9999 -SN OVC013 \n  PROB40 \n  TEMPO 0900/0905 30015G25KT 2000 SN DRSN BKN007 BKN012 \n  BECMG 0904/0906 BKN025 \n  BECMG 0914/0916 VRB02KT",
      "metarHtml": "METAR EPRZ 090330Z 27018KT 8000 -<span class=\"hl\">SN</span> BKN008 M07/M09 Q1004",
      "tafHtml": "TAF EPRZ 082330Z 0900/0924 31012KT 9999 -<span class=\"hl\">SN</span> OVC013 \n  PROB40 \n  TEMPO 0900/0905 30015G25KT 2000 <span class=\"hl\">SN</span> DRSN BKN007 BKN012 \n  BECMG 0904/0906 BKN025 \n  BECMG 0914/0916 VRB02KT"
    },
    {
      "icao": "LCLK",
      "iata": "LCA",
      "name": "Larnaca International Airport",
      "updatedAt": "090330Z",
      "visibility_m": 10000,
      "taf_visibility_m": 2000,
      "worst_visibility_m": 2000,
      "ceiling_ft": null,
      "hazards": [
        "TSRA",
        "SHRA"
      ],
      "severityScore": 39,
      "metarRaw": "METAR LCLK 090330Z 24007KT 9999 FEW050 13/08 Q1008 NOSIG",
      "tafRaw": "TAF LCLK 082330Z 0900/1000 25008KT 9999 FEW020 SCT040 \n  PROB30 \n  TEMPO 0900/0909 23018KT \n  PROB30 \n  TEMPO 0908/0913 4000 SHRA SCT020TCU FEW030CB \n  PROB30 \n  TEMPO 0908/0912 VRB28G38KT 2000 TSRA SCT020CB \n  TEMPO 0909/0914 29024G34KT",
      "metarHtml": "METAR LCLK 090330Z 24007KT 9999 FEW050 13/08 Q1008 NOSIG",
      "tafHtml": "TAF LCLK 082330Z 0900/1000 25008KT 9999 FEW020 SCT040 \n  PROB30 \n  TEMPO 0900/0909 23018KT \n  PROB30 \n  TEMPO 0908/0913 4000 <span class=\"hl\">SHRA</span> SCT020TCU FEW030CB \n  PROB30 \n  TEMPO 0908/0912 VRB28G38KT 2000 <span class=\"hl\">TSRA</span> SCT020CB \n  TEMPO 0909/0914 29024G34KT"
    },
    {
      "icao": "LCPH",
      "iata": "PFO",
      "name": "Paphos International Airport",
      "updatedAt": "090330Z",
      "visibility_m": 10000,
      "taf_visibility_m": 2000,
      "worst_visibility_m": 2000,
      "ceiling_ft": null,
      "hazards": [
        "TSRA",
        "SHRA"
      ],
      "severityScore": 39,
      "metarRaw": "METAR LCPH 090330Z 31025KT 9999 SCT035 SCT070 17/07 Q1009 NOSIG",
      "tafRaw": "TAF LCPH 082330Z 0900/1000 31024KT 9999 FEW025 SCT040 \n  PROB40 \n  TEMPO 0900/0913 30024G34KT 4000 SHRA SCT020TCU FEW030CB \n  PROB30 \n  TEMPO 0902/0913 2000 TSRA SCT020CB \n  TEMPO 0908/0913 31030G40KT \n  BECMG 0918/0922 33009KT",
      "metarHtml": "METAR LCPH 090330Z 31025KT 9999 SCT035 SCT070 17/07 Q1009 NOSIG",
      "tafHtml": "TAF LCPH 082330Z 0900/1000 31024KT 9999 FEW025 SCT040 \n  PROB40 \n  TEMPO 0900/0913 30024G34KT 4000 <span class=\"hl\">SHRA</span> SCT020TCU FEW030CB \n  PROB30 \n  TEMPO 0902/0913 2000 <span class=\"hl\">TSRA</span> SCT020CB \n  TEMPO 0908/0913 31030G40KT \n  BECMG 0918/0922 33009KT"
    },
    {
      "icao": "LICA",
      "iata": "SUF",
      "name": "Lamezia Terme Sant'Eufemia International Airport",
      "updatedAt": "090350Z",
      "visibility_m": 10000,
      "taf_visibility_m": 4000,
      "worst_visibility_m": 4000,
      "ceiling_ft": null,
      "hazards": [
        "TSRA",
        "SHRA"
      ],
      "severityScore": 39,
      "metarRaw": "METAR LICA 090350Z AUTO 25024KT 9999 SCT019/// BKN051/// 15/12 Q1015",
      "tafRaw": "TAF LICA 082300Z 0900/0924 28012KT 9999 BKN016 \n  TEMPO 0900/0921 4000 SHRA \n  BECMG 0902/0904 27022G38KT \n  TEMPO 0921/0924 4000 TSRA BKN012",
      "metarHtml": "METAR LICA 090350Z AUTO 25024KT 9999 SCT019/// BKN051/// 15/12 Q1015",
      "tafHtml": "TAF LICA 082300Z 0900/0924 28012KT 9999 BKN016 \n  TEMPO 0900/0921 4000 <span class=\"hl\">SHRA</span> \n  BECMG 0902/0904 27022G38KT \n  TEMPO 0921/0924 4000 <span class=\"hl\">TSRA</span> BKN012"
    },
    {
      "icao": "LIRF",
      "iata": "FCO",
      "name": "Rome–Fiumicino Leonardo da Vinci International Airport",
      "updatedAt": "090350Z",
      "visibility_m": 10000,
      "taf_visibility_m": 4000,
      "worst_visibility_m": 4000,
      "ceiling_ft": null,
      "hazards": [
        "TSRA",
        "SHRA"
      ],
      "severityScore": 39,
      "metarRaw": "METAR LIRF 090350Z 26013G23KT 9999 SCT020 14/11 Q1011 NOSIG",
      "tafRaw": "TAF LIRF 082300Z 0900/1006 15012KT 9999 SCT020 \n  BECMG 0902/0904 25016KT \n  TEMPO 0903/0918 25016G26KT 4000 SHRA \n  BECMG 0910/0912 25020G35KT \n  TEMPO 0921/1006 4000 TSRA",
      "metarHtml": "METAR LIRF 090350Z 26013G23KT 9999 SCT020 14/11 Q1011 NOSIG",
      "tafHtml": "TAF LIRF 082300Z 0900/1006 15012KT 9999 SCT020 \n  BECMG 0902/0904 25016KT \n  TEMPO 0903/0918 25016G26KT 4000 <span class=\"hl\">SHRA</span> \n  BECMG 0910/0912 25020G35KT \n  TEMPO 0921/1006 4000 <span class=\"hl\">TSRA</span>"
    },
    {
      "icao": "LIRZ",
      "iata": "PEG",
      "name": "Perugia San Francesco d'Assisi – Umbria International Airport",
      "updatedAt": "090350Z",
      "visibility_m": 10000,
      "taf_visibility_m": 4000,
      "worst_visibility_m": 4000,
      "ceiling_ft": null,
      "hazards": [
        "TSRA",
        "SHRA"
      ],
      "severityScore": 39,
      "metarRaw": "METAR LIRZ 090350Z AUTO VRB01KT 9999 OVC017/// 05/04 Q1009",
      "tafRaw": "TAF LIRZ 082300Z 0900/0924 VRB05KT 9999 BKN040 \n  TEMPO 0900/0913 4000 SHRA \n  BECMG 0904/0906 19013KT \n  BECMG 0912/0914 25012KT \n  TEMPO 0913/0924 4000 TSRA \n  BECMG 0919/0921 19006KT",
      "metarHtml": "METAR LIRZ 090350Z AUTO VRB01KT 9999 OVC017/// 05/04 Q1009",
      "tafHtml": "TAF LIRZ 082300Z 0900/0924 VRB05KT 9999 BKN040 \n  TEMPO 0900/0913 4000 <span class=\"hl\">SHRA</span> \n  BECMG 0904/0906 19013KT \n  BECMG 0912/0914 25012KT \n  TEMPO 0913/0924 4000 <span class=\"hl\">TSRA</span> \n  BECMG 0919/0921 19006KT"
    },
    {
      "icao": "LKPR",
      "iata": "PRG",
      "name": "Václav Havel Airport Prague",
      "updatedAt": "090330Z",
      "visibility_m": 10000,
      "taf_visibility_m": 1200,
      "worst_visibility_m": 1200,
      "ceiling_ft": null,
      "hazards": [
        "SN",
        "BR"
      ],
      "severityScore": 38,
      "metarRaw": "METAR LKPR 090330Z 07007KT 9999 -SN FEW012 M04/M05 Q1002 NOSIG",
      "tafRaw": "TAF LKPR 090200Z 0903/1009 09007KT 9000 SCT018 \n  BECMG 0903/0905 5000 -SN BR SCT007 OVC015 \n  TEMPO 0906/0911 3000 SN BR SCT004 OVC007 \n  PROB40 \n  TEMPO 0906/0909 1200 +SN BR BKN003 \n  TEMPO 0911/1009 4000 BR OVC006 \n  PROB40 \n  TEMPO 0920/1009 1500 SN BR BKN003",
      "metarHtml": "METAR LKPR 090330Z 07007KT 9999 -<span class=\"hl\">SN</span> FEW012 M04/M05 Q1002 NOSIG",
      "tafHtml": "TAF LKPR 090200Z 0903/1009 09007KT 9000 SCT018 \n  BECMG 0903/0905 5000 -<span class=\"hl\">SN</span> <span class=\"hl\">BR</span> SCT007 OVC015 \n  TEMPO 0906/0911 3000 <span class=\"hl\">SN</span> <span class=\"hl\">BR</span> SCT004 OVC007 \n  PROB40 \n  TEMPO 0906/0909 1200 +<span class=\"hl\">SN</span> <span class=\"hl\">BR</span> BKN003 \n  TEMPO 0911/1009 4000 <span class=\"hl\">BR</span> OVC006 \n  PROB40 \n  TEMPO 0920/1009 1500 <span class=\"hl\">SN</span> <span class=\"hl\">BR</span> BKN003"
    },
    {
      "icao": "LZIB",
      "iata": "BTS",
      "name": "M. R. Štefánik Airport",
      "updatedAt": "090330Z",
      "visibility_m": 10000,
      "taf_visibility_m": 1400,
      "worst_visibility_m": 1400,
      "ceiling_ft": 2300,
      "hazards": [
        "BR",
        "SN"
      ],
      "severityScore": 38,
      "metarRaw": "METAR LZIB 090330Z 04004KT 9999 BKN023 M07/M09 Q1008 NOSIG",
      "tafRaw": "TAF LZIB 082315Z 0900/1000 07005KT 9999 SCT030 \n  BECMG 0907/0909 SCT008 OVC014 \n  BECMG 0907/0909 3000 -SN \n  PROB30 \n  TEMPO 0908/0911 1400 SN BKN005 \n  BECMG 0912/0914 9999 NSW SCT014 BKN018 \n  PROB40 \n  TEMPO 0914/0918 2800 -SN BKN014 \n  TEMPO 0918/1000 2800 BR BKN008",
      "metarHtml": "METAR LZIB 090330Z 04004KT 9999 BKN023 M07/M09 Q1008 NOSIG",
      "tafHtml": "TAF LZIB 082315Z 0900/1000 07005KT 9999 SCT030 \n  BECMG 0907/0909 SCT008 OVC014 \n  BECMG 0907/0909 3000 -<span class=\"hl\">SN</span> \n  PROB30 \n  TEMPO 0908/0911 1400 <span class=\"hl\">SN</span> BKN005 \n  BECMG 0912/0914 9999 NSW SCT014 BKN018 \n  PROB40 \n  TEMPO 0914/0918 2800 -<span class=\"hl\">SN</span> BKN014 \n  TEMPO 0918/1000 2800 <span class=\"hl\">BR</span> BKN008"
    },
    {
      "icao": "LATI",
      "iata": "TIA",
      "name": "Tirana International Airport Mother Teresa",
      "updatedAt": "090350Z",
      "visibility_m": 10000,
      "taf_visibility_m": 10000,
      "worst_visibility_m": 10000,
      "ceiling_ft": null,
      "hazards": [
        "TSRA",
        "RA"
      ],
      "severityScore": 37,
      "metarRaw": "METAR LATI 090350Z 15004KT CAVOK 00/M03 Q1016 NOSIG",
      "tafRaw": "TAF LATI 082300Z 0900/0924 VRB05KT CAVOK TX14/0924Z TNM02/0903Z \n  BECMG 0908/0910 15012KT \n  BECMG 0916/0918 RA BKN025 \n  PROB40 \n  TEMPO 0920/0924 22012KT -TSRA FEW025CB OVC040",
      "metarHtml": "METAR LATI 090350Z 15004KT <span class=\"hl-vis\">CAVOK</span> 00/M03 Q1016 NOSIG",
      "tafHtml": "TAF LATI 082300Z 0900/0924 VRB05KT <span class=\"hl-vis\">CAVOK</span> TX14/0924Z TNM02/0903Z \n  BECMG 0908/0910 15012KT \n  BECMG 0916/0918 <span class=\"hl\">RA</span> BKN025 \n  PROB40 \n  TEMPO 0920/0924 22012KT -<span class=\"hl\">TSRA</span> FEW025CB OVC040"
    },
    {
      "icao": "LYPG",
      "iata": "TGD",
      "name": "Podgorica Airport / Podgorica Golubovci Airbase",
      "updatedAt": "090330Z",
      "visibility_m": 10000,
      "taf_visibility_m": 2000,
      "worst_visibility_m": 2000,
      "ceiling_ft": null,
      "hazards": [
        "TSRA",
        "RA"
      ],
      "severityScore": 37,
      "metarRaw": "METAR LYPG 090330Z 31004KT 260V350 CAVOK M02/M06 Q1016 NOSIG",
      "tafRaw": "TAF LYPG 082300Z 0900/0924 36005KT 9999 FEW040 TX07/0923Z TNM02/0904Z \n  PROB30 \n  TEMPO 0909/0912 2000 SNRA \n  BECMG 0911/0913 5000 RA \n  PROB40 \n  TEMPO 0922/0924 3000 TSRA FEW010 SCT025CB BKN030",
      "metarHtml": "METAR LYPG 090330Z 31004KT 260V350 <span class=\"hl-vis\">CAVOK</span> M02/M06 Q1016 NOSIG",
      "tafHtml": "TAF LYPG 082300Z 0900/0924 36005KT 9999 FEW040 TX07/0923Z TNM02/0904Z \n  PROB30 \n  TEMPO 0909/0912 2000 SNRA \n  BECMG 0911/0913 5000 <span class=\"hl\">RA</span> \n  PROB40 \n  TEMPO 0922/0924 3000 <span class=\"hl\">TSRA</span> FEW010 SCT025CB BKN030"
    },
    {
      "icao": "EGPF",
      "iata": "GLA",
      "name": "Glasgow Airport",
      "updatedAt": "090350Z",
      "visibility_m": 8000,
      "taf_visibility_m": 4000,
      "worst_visibility_m": 4000,
      "ceiling_ft": null,
      "hazards": [
        "BR",
        "RA",
        "SHRA"
      ],
      "severityScore": 36,
      "metarRaw": "METAR EGPF 090350Z AUTO 23003KT 8000 NCD M03/M03 Q0998",
      "tafRaw": "TAF EGPF 082258Z 0900/0924 VRB03KT 9999 BKN030 \n  PROB30 0900/0904 4000 BR MIFG BKN014 \n  TEMPO 0904/0924 6000 RA SHRA BKN009 \n  PROB30 \n  TEMPO 0904/0924 4000 SHRASN BKN004",
      "metarHtml": "METAR EGPF 090350Z AUTO 23003KT 8000 NCD M03/M03 Q0998",
      "tafHtml": "TAF EGPF 082258Z 0900/0924 VRB03KT 9999 BKN030 \n  PROB30 0900/0904 4000 <span class=\"hl\">BR</span> MIFG BKN014 \n  TEMPO 0904/0924 6000 <span class=\"hl\">RA</span> <span class=\"hl\">SHRA</span> BKN009 \n  PROB30 \n  TEMPO 0904/0924 4000 SHRASN BKN004"
    },
    {
      "icao": "LYNI",
      "iata": "INI",
      "name": "Niš Constantine the Great Airport",
      "updatedAt": "090330Z",
      "visibility_m": 10000,
      "taf_visibility_m": 3000,
      "worst_visibility_m": 3000,
      "ceiling_ft": null,
      "hazards": [
        "FZRA"
      ],
      "severityScore": 35,
      "metarRaw": "METAR LYNI 090330Z VRB01KT CAVOK M08/M09 Q1012 NOSIG",
      "tafRaw": "TAF LYNI 082300Z 0900/0924 19004KT 9999 SCT040 TX02/0914Z TNM10/0905Z \n  TEMPO 0915/0924 5000 -FZRA \n  PROB40 \n  TEMPO 0917/0920 3000 FZRA",
      "metarHtml": "METAR LYNI 090330Z VRB01KT <span class=\"hl-vis\">CAVOK</span> M08/M09 Q1012 NOSIG",
      "tafHtml": "TAF LYNI 082300Z 0900/0924 19004KT 9999 SCT040 TX02/0914Z TNM10/0905Z \n  TEMPO 0915/0924 5000 -<span class=\"hl\">FZRA</span> \n  PROB40 \n  TEMPO 0917/0920 3000 <span class=\"hl\">FZRA</span>"
    },
    {
      "icao": "LPPT",
      "iata": "LIS",
      "name": "Lisbon Humberto Delgado Airport",
      "updatedAt": "090330Z",
      "visibility_m": 5000,
      "taf_visibility_m": 3000,
      "worst_visibility_m": 3000,
      "ceiling_ft": 1000,
      "hazards": [
        "DZ",
        "BR"
      ],
      "severityScore": 32,
      "metarRaw": "METAR LPPT 090330Z 24009KT 5000 DZ FEW002 SCT006 BKN010 13/13 Q1028",
      "tafRaw": "TAF LPPT 082300Z 0900/1006 25008KT 9999 SCT008 BKN015 \n  TEMPO 0900/0907 3000 RADZ BR SCT002 BKN004 \n  BECMG 0907/0909 30008KT SCT008 \n  BECMG 0910/0912 33010KT SCT030 \n  BECMG 0919/0921 29005KT SCT012",
      "metarHtml": "METAR LPPT 090330Z 24009KT 5000 <span class=\"hl\">DZ</span> FEW002 SCT006 BKN010 13/13 Q1028",
      "tafHtml": "TAF LPPT 082300Z 0900/1006 25008KT 9999 SCT008 BKN015 \n  TEMPO 0900/0907 3000 RADZ <span class=\"hl\">BR</span> SCT002 BKN004 \n  BECMG 0907/0909 30008KT SCT008 \n  BECMG 0910/0912 33010KT SCT030 \n  BECMG 0919/0921 29005KT SCT012"
    },
    {
      "icao": "EPGD",
      "iata": "GDN",
      "name": "Gdańsk Lech Wałęsa Airport",
      "updatedAt": "090330Z",
      "visibility_m": 10000,
      "taf_visibility_m": 2500,
      "worst_visibility_m": 2500,
      "ceiling_ft": null,
      "hazards": [
        "BR",
        "SN"
      ],
      "severityScore": 28,
      "metarRaw": "METAR EPGD 090330Z 06004KT 9999 FEW014 M05/M06 Q1009",
      "tafRaw": "TAF EPGD 082330Z 0900/0924 05006KT 9999 BKN007 \n  TEMPO 0900/0908 BKN004 \n  PROB30 0900/0905 2500 BR SCT002 \n  BECMG 0908/0911 05016KT BKN015 \n  TEMPO 0911/0924 06022G33KT \n  PROB40 0921/0924 -SN BKN005",
      "metarHtml": "METAR EPGD 090330Z 06004KT 9999 FEW014 M05/M06 Q1009",
      "tafHtml": "TAF EPGD 082330Z 0900/0924 05006KT 9999 BKN007 \n  TEMPO 0900/0908 BKN004 \n  PROB30 0900/0905 2500 <span class=\"hl\">BR</span> SCT002 \n  BECMG 0908/0911 05016KT BKN015 \n  TEMPO 0911/0924 06022G33KT \n  PROB40 0921/0924 -<span class=\"hl\">SN</span> BKN005"
    },
    {
      "icao": "EPMO",
      "iata": "WMI",
      "name": "Modlin Airport",
      "updatedAt": "090330Z",
      "visibility_m": 7000,
      "taf_visibility_m": 2000,
      "worst_visibility_m": 2000,
      "ceiling_ft": null,
      "hazards": [
        "BR",
        "SN"
      ],
      "severityScore": 28,
      "metarRaw": "METAR EPMO 090330Z 30008KT 7000 SCT010 M10/M11 Q1007",
      "tafRaw": "TAF EPMO 082330Z 0900/0924 34008KT 6000 OVC007 \n  PROB40 \n  TEMPO 0900/0910 3000 -SN BR BKN004 \n  BECMG 0910/0913 BKN013 \n  PROB30 \n  TEMPO 0916/0924 2000 -SN BR OVC002",
      "metarHtml": "METAR EPMO 090330Z 30008KT 7000 SCT010 M10/M11 Q1007",
      "tafHtml": "TAF EPMO 082330Z 0900/0924 34008KT 6000 OVC007 \n  PROB40 \n  TEMPO 0900/0910 3000 -<span class=\"hl\">SN</span> <span class=\"hl\">BR</span> BKN004 \n  BECMG 0910/0913 BKN013 \n  PROB30 \n  TEMPO 0916/0924 2000 -<span class=\"hl\">SN</span> <span class=\"hl\">BR</span> OVC002"
    },
    {
      "icao": "LRBS",
      "iata": "BBU",
      "name": "Bucharest Băneasa Aurel Vlaicu International Airport",
      "updatedAt": "090330Z",
      "visibility_m": 10000,
      "taf_visibility_m": 3000,
      "worst_visibility_m": 3000,
      "ceiling_ft": null,
      "hazards": [
        "BR",
        "SN"
      ],
      "severityScore": 28,
      "metarRaw": "METAR LRBS 090330Z 26011KT CAVOK M03/M06 Q1005 NOSIG",
      "tafRaw": "TAF LRBS 082300Z 0900/0924 24015KT 9999 BKN040 \n  PROB30 \n  TEMPO 0900/0904 3000 -SN BR \n  BECMG 0914/0916 24005KT",
      "metarHtml": "METAR LRBS 090330Z 26011KT <span class=\"hl-vis\">CAVOK</span> M03/M06 Q1005 NOSIG",
      "tafHtml": "TAF LRBS 082300Z 0900/0924 24015KT 9999 BKN040 \n  PROB30 \n  TEMPO 0900/0904 3000 -<span class=\"hl\">SN</span> <span class=\"hl\">BR</span> \n  BECMG 0914/0916 24005KT"
    },
    {
      "icao": "LRBV",
      "iata": "GHV",
      "name": "Brașov-Ghimbav International Airport",
      "updatedAt": "090330Z",
      "visibility_m": 6000,
      "taf_visibility_m": 3000,
      "worst_visibility_m": 3000,
      "ceiling_ft": null,
      "hazards": [
        "BR",
        "SN"
      ],
      "severityScore": 28,
      "metarRaw": "METAR LRBV 090330Z AUTO 30009KT 270V340 6000 SG FEW015/// OVC026/// M06/M10 Q1004",
      "tafRaw": "TAF LRBV 090200Z 0903/0912 30010KT 5000 -SN BR BKN010 BKN025 \n  TEMPO 0903/0907 29015G25KT 3000 SN BKN005 OVC025 \n  BECMG 0908/0910 9999 NSW BKN040",
      "metarHtml": "METAR LRBV 090330Z AUTO 30009KT 270V340 6000 SG FEW015/// OVC026/// M06/M10 Q1004",
      "tafHtml": "TAF LRBV 090200Z 0903/0912 30010KT 5000 -<span class=\"hl\">SN</span> <span class=\"hl\">BR</span> BKN010 BKN025 \n  TEMPO 0903/0907 29015G25KT 3000 <span class=\"hl\">SN</span> BKN005 OVC025 \n  BECMG 0908/0910 9999 NSW BKN040"
    },
    {
      "icao": "LRCL",
      "iata": "CLJ",
      "name": "Cluj Avram Iancu International Airport",
      "updatedAt": "090330Z",
      "visibility_m": 10000,
      "taf_visibility_m": 5000,
      "worst_visibility_m": 5000,
      "ceiling_ft": 6400,
      "hazards": [
        "BR",
        "SN"
      ],
      "severityScore": 28,
      "metarRaw": "METAR LRCL 090330Z 28009KT 9999 OVC064 M04/M09 Q1006",
      "tafRaw": "TAF LRCL 090200Z 0903/0912 27008KT 9999 BKN040 \n  PROB30 \n  TEMPO 0903/0905 5000 -SN BR BKN015 BKN035",
      "metarHtml": "METAR LRCL 090330Z 28009KT 9999 OVC064 M04/M09 Q1006",
      "tafHtml": "TAF LRCL 090200Z 0903/0912 27008KT 9999 BKN040 \n  PROB30 \n  TEMPO 0903/0905 5000 -<span class=\"hl\">SN</span> <span class=\"hl\">BR</span> BKN015 BKN035"
    },
    {
      "icao": "LROP",
      "iata": "OTP",
      "name": "Bucharest Henri Coandă International Airport",
      "updatedAt": "090330Z",
      "visibility_m": 10000,
      "taf_visibility_m": 3000,
      "worst_visibility_m": 3000,
      "ceiling_ft": null,
      "hazards": [
        "BR",
        "SN"
      ],
      "severityScore": 28,
      "metarRaw": "METAR LROP 090330Z 25008KT CAVOK M05/M06 Q1005 NOSIG",
      "tafRaw": "TAF LROP 082300Z 0900/0924 24015KT 9999 BKN040 \n  PROB30 \n  TEMPO 0900/0904 3000 -SN BR \n  BECMG 0914/0916 24005KT",
      "metarHtml": "METAR LROP 090330Z 25008KT <span class=\"hl-vis\">CAVOK</span> M05/M06 Q1005 NOSIG",
      "tafHtml": "TAF LROP 082300Z 0900/0924 24015KT 9999 BKN040 \n  PROB30 \n  TEMPO 0900/0904 3000 -<span class=\"hl\">SN</span> <span class=\"hl\">BR</span> \n  BECMG 0914/0916 24005KT"
    },
    {
      "icao": "LRSM",
      "iata": "SUJ",
      "name": "Satu Mare International Airport",
      "updatedAt": "090330Z",
      "visibility_m": 10000,
      "taf_visibility_m": 3000,
      "worst_visibility_m": 3000,
      "ceiling_ft": null,
      "hazards": [
        "BR",
        "SN"
      ],
      "severityScore": 28,
      "metarRaw": "METAR LRSM 090330Z AUTO 27014KT 9999 FEW045/// M09/M11 Q1007",
      "tafRaw": "TAF LRSM 090200Z 0903/0912 26016KT 5000 BR BKN035 \n  PROB40 \n  TEMPO 0903/0906 3000 -SN BR BKN010 OVC030 \n  BECMG 0907/0909 VRB04KT 9999 NSW",
      "metarHtml": "METAR LRSM 090330Z AUTO 27014KT 9999 FEW045/// M09/M11 Q1007",
      "tafHtml": "TAF LRSM 090200Z 0903/0912 26016KT 5000 <span class=\"hl\">BR</span> BKN035 \n  PROB40 \n  TEMPO 0903/0906 3000 -<span class=\"hl\">SN</span> <span class=\"hl\">BR</span> BKN010 OVC030 \n  BECMG 0907/0909 VRB04KT 9999 NSW"
    },
    {
      "icao": "LRTM",
      "iata": "TGM",
      "name": "Târgu Mureş Transilvania International Airport",
      "updatedAt": "090330Z",
      "visibility_m": 10000,
      "taf_visibility_m": 5000,
      "worst_visibility_m": 5000,
      "ceiling_ft": null,
      "hazards": [
        "BR",
        "SN"
      ],
      "severityScore": 28,
      "metarRaw": "METAR LRTM 090330Z AUTO 24010KT 9999 FEW031/// BKN065/// M07/M09 Q1006",
      "tafRaw": "TAF LRTM 090200Z 0903/0912 24010KT 9999 BKN040 \n  TEMPO 0903/0906 5000 -SN BR BKN015 BKN035",
      "metarHtml": "METAR LRTM 090330Z AUTO 24010KT 9999 FEW031/// BKN065/// M07/M09 Q1006",
      "tafHtml": "TAF LRTM 090200Z 0903/0912 24010KT 9999 BKN040 \n  TEMPO 0903/0906 5000 -<span class=\"hl\">SN</span> <span class=\"hl\">BR</span> BKN015 BKN035"
    },
    {
      "icao": "LTAC",
      "iata": "ESB",
      "name": "Esenboğa International Airport",
      "updatedAt": "090350Z",
      "visibility_m": 8000,
      "taf_visibility_m": 4000,
      "worst_visibility_m": 4000,
      "ceiling_ft": 8000,
      "hazards": [
        "BR",
        "SN"
      ],
      "severityScore": 28,
      "metarRaw": "METAR LTAC 090350Z 21006KT 8000 FEW017 SCT033 BKN080 01/M01 Q1004 NOSIG RMK RWY21C 21008KT RWY03L 21007KT RWY21R 21009KT RWY03R 18006KT RWY21L 20006KT",
      "tafRaw": "TAF LTAC 082240Z 0900/0924 24012KT 8000 SCT040 BKN100 \n  TEMPO 0904/0907 4000 -SN BR SCT010 BKN030 BKN080 \n  TEMPO 0908/0912 4000 -SN BR SCT010 BKN030 BKN080",
      "metarHtml": "METAR LTAC 090350Z 21006KT 8000 FEW017 SCT033 BKN080 01/M01 Q1004 NOSIG RMK RWY21C 21008KT RWY03L 21007KT RWY21R 21009KT RWY03R 18006KT RWY21L 20006KT",
      "tafHtml": "TAF LTAC 082240Z 0900/0924 24012KT 8000 SCT040 BKN100 \n  TEMPO 0904/0907 4000 -<span class=\"hl\">SN</span> <span class=\"hl\">BR</span> SCT010 BKN030 BKN080 \n  TEMPO 0908/0912 4000 -<span class=\"hl\">SN</span> <span class=\"hl\">BR</span> SCT010 BKN030 BKN080"
    },
    {
      "icao": "EDDS",
      "iata": "STR",
      "name": "Stuttgart Airport",
      "updatedAt": "090350Z",
      "visibility_m": 10000,
      "taf_visibility_m": 3000,
      "worst_visibility_m": 3000,
      "ceiling_ft": null,
      "hazards": [
        "RA",
        "SHRA"
      ],
      "severityScore": 26,
      "metarRaw": "METAR EDDS 090350Z AUTO 20008KT 170V230 CAVOK 06/03 Q0994",
      "tafRaw": "TAF EDDS 082300Z 0900/0924 17003KT 9999 BKN020 \n  TEMPO 0900/0903 3000 RA BKN014 \n  BECMG 0900/0902 20010KT \n  BECMG 0902/0904 20015G25KT \n  TEMPO 0902/0918 20020G35KT \n  PROB40 \n  TEMPO 0903/0907 SHRA BKN015CB \n  PROB40 \n  TEMPO 0913/0920 20025G40KT SHRA BKN020CB \n  BECMG 0920/0922 21010KT",
      "metarHtml": "METAR EDDS 090350Z AUTO 20008KT 170V230 <span class=\"hl-vis\">CAVOK</span> 06/03 Q0994",
      "tafHtml": "TAF EDDS 082300Z 0900/0924 17003KT 9999 BKN020 \n  TEMPO 0900/0903 3000 <span class=\"hl\">RA</span> BKN014 \n  BECMG 0900/0902 20010KT \n  BECMG 0902/0904 20015G25KT \n  TEMPO 0902/0918 20020G35KT \n  PROB40 \n  TEMPO 0903/0907 <span class=\"hl\">SHRA</span> BKN015CB \n  PROB40 \n  TEMPO 0913/0920 20025G40KT <span class=\"hl\">SHRA</span> BKN020CB \n  BECMG 0920/0922 21010KT"
    },
    {
      "icao": "EDSB",
      "iata": "FKB",
      "name": "Karlsruhe Baden-Baden Airport",
      "updatedAt": "090350Z",
      "visibility_m": 10000,
      "taf_visibility_m": 4000,
      "worst_visibility_m": 4000,
      "ceiling_ft": null,
      "hazards": [
        "RA",
        "SHRA"
      ],
      "severityScore": 26,
      "metarRaw": "METAR EDSB 090350Z 19021G31KT CAVOK 08/06 Q0995",
      "tafRaw": "TAF EDSB 082300Z 0900/0924 20020KT 9999 BKN030 \n  TEMPO 0900/0903 20020G30KT 4000 RA BKN010 \n  PROB40 \n  TEMPO 0903/0907 21020G30KT SHRA BKN015CB \n  PROB40 \n  TEMPO 0913/0920 20030G40KT SHRA BKN020CB",
      "metarHtml": "METAR EDSB 090350Z 19021G31KT <span class=\"hl-vis\">CAVOK</span> 08/06 Q0995",
      "tafHtml": "TAF EDSB 082300Z 0900/0924 20020KT 9999 BKN030 \n  TEMPO 0900/0903 20020G30KT 4000 <span class=\"hl\">RA</span> BKN010 \n  PROB40 \n  TEMPO 0903/0907 21020G30KT <span class=\"hl\">SHRA</span> BKN015CB \n  PROB40 \n  TEMPO 0913/0920 20030G40KT <span class=\"hl\">SHRA</span> BKN020CB"
    },
    {
      "icao": "EGGP",
      "iata": "LPL",
      "name": "Liverpool John Lennon Airport",
      "updatedAt": "090350Z",
      "visibility_m": 10000,
      "taf_visibility_m": 4000,
      "worst_visibility_m": 4000,
      "ceiling_ft": null,
      "hazards": [
        "RA",
        "SHRA"
      ],
      "severityScore": 26,
      "metarRaw": "METAR EGGP 090350Z AUTO 32012KT 9999 FEW026/// BKN033/// BKN048/// 04/01 Q0993",
      "tafRaw": "TAF EGGP 082300Z 0900/0924 35012KT 9999 SCT016 \n  TEMPO 0900/0909 6000 RA BKN012 \n  PROB40 \n  TEMPO 0900/0909 34015G25KT \n  PROB30 \n  TEMPO 0900/0904 4000 RADZ BKN004 \n  PROB30 \n  TEMPO 0909/0919 7000 SHRA BKN012",
      "metarHtml": "METAR EGGP 090350Z AUTO 32012KT 9999 FEW026/// BKN033/// BKN048/// 04/01 Q0993",
      "tafHtml": "TAF EGGP 082300Z 0900/0924 35012KT 9999 SCT016 \n  TEMPO 0900/0909 6000 <span class=\"hl\">RA</span> BKN012 \n  PROB40 \n  TEMPO 0900/0909 34015G25KT \n  PROB30 \n  TEMPO 0900/0904 4000 RADZ BKN004 \n  PROB30 \n  TEMPO 0909/0919 7000 <span class=\"hl\">SHRA</span> BKN012"
    },
    {
      "icao": "LEXJ",
      "iata": "SDR",
      "name": "Seve Ballesteros-Santander Airport",
      "updatedAt": "090330Z",
      "visibility_m": 6000,
      "taf_visibility_m": 3000,
      "worst_visibility_m": 3000,
      "ceiling_ft": null,
      "hazards": [
        "RA",
        "SHRA"
      ],
      "severityScore": 26,
      "metarRaw": "METAR LEXJ 090330Z AUTO 27008G18KT 240V340 6000 NCD 11/06 Q1017",
      "tafRaw": "TAF LEXJ 090200Z 0903/1003 24009KT 9999 SCT025 TX12/0913Z TN07/0921Z \n  PROB40 \n  TEMPO 0903/0906 28015G25KT \n  TEMPO 0906/1003 28018G33KT \n  TEMPO 0908/0918 28028G43KT \n  PROB40 \n  TEMPO 0909/1003 3000 RA BKN010 \n  TEMPO 0910/0922 3000 SHRA BKN010 SCT025TCU",
      "metarHtml": "METAR LEXJ 090330Z AUTO 27008G18KT 240V340 6000 NCD 11/06 Q1017",
      "tafHtml": "TAF LEXJ 090200Z 0903/1003 24009KT 9999 SCT025 TX12/0913Z TN07/0921Z \n  PROB40 \n  TEMPO 0903/0906 28015G25KT \n  TEMPO 0906/1003 28018G33KT \n  TEMPO 0908/0918 28028G43KT \n  PROB40 \n  TEMPO 0909/1003 3000 <span class=\"hl\">RA</span> BKN010 \n  TEMPO 0910/0922 3000 <span class=\"hl\">SHRA</span> BKN010 SCT025TCU"
    },
    {
      "icao": "LFLL",
      "iata": "LYS",
      "name": "Lyon Saint-Exupéry Airport",
      "updatedAt": "090330Z",
      "visibility_m": 10000,
      "taf_visibility_m": 3000,
      "worst_visibility_m": 3000,
      "ceiling_ft": 4300,
      "hazards": [
        "RA",
        "SHRA"
      ],
      "severityScore": 26,
      "metarRaw": "METAR LFLL 090330Z 19012KT 9999 BKN043 09/05 Q1007 NOSIG",
      "tafRaw": "TAF LFLL 090110Z 0901/1006 18015G25KT 9999 BKN045 \n  TEMPO 0901/0904 18020G35KT \n  PROB30 \n  TEMPO 0901/0909 4000 RA SCT030TCU \n  BECMG 0907/0909 21010KT \n  PROB40 \n  TEMPO 0914/0924 32010KT 3000 SHRA BKN025TCU",
      "metarHtml": "METAR LFLL 090330Z 19012KT 9999 BKN043 09/05 Q1007 NOSIG",
      "tafHtml": "TAF LFLL 090110Z 0901/1006 18015G25KT 9999 BKN045 \n  TEMPO 0901/0904 18020G35KT \n  PROB30 \n  TEMPO 0901/0909 4000 <span class=\"hl\">RA</span> SCT030TCU \n  BECMG 0907/0909 21010KT \n  PROB40 \n  TEMPO 0914/0924 32010KT 3000 <span class=\"hl\">SHRA</span> BKN025TCU"
    },
    {
      "icao": "LFSB",
      "iata": "BSL",
      "name": "EuroAirport Basel–Mulhouse–Freiburg",
      "updatedAt": "090330Z",
      "visibility_m": 4000,
      "taf_visibility_m": 4000,
      "worst_visibility_m": 4000,
      "ceiling_ft": null,
      "hazards": [
        "RA",
        "SHRA"
      ],
      "severityScore": 26,
      "metarRaw": "METAR LFSB 090330Z AUTO 23016G29KT 200V260 9999 RA SCT033/// BKN045/// BKN062/// ///TCU 08/05 Q1000 TEMPO 22025G40KT 4000 SHRA SCT025CB",
      "tafRaw": "TAF LFSB 082300Z 0900/0924 12010KT 9999 SCT025 BKN035 \n  BECMG 0900/0902 23020G30KT \n  TEMPO 0902/0924 -SHRA SCT030TCU \n  PROB40 \n  TEMPO 0902/0905 22025G40KT 4000 SHRA SCT025CB",
      "metarHtml": "METAR LFSB 090330Z AUTO 23016G29KT 200V260 9999 <span class=\"hl\">RA</span> SCT033/// BKN045/// BKN062/// ///TCU 08/05 Q1000 TEMPO 22025G40KT 4000 <span class=\"hl\">SHRA</span> SCT025CB",
      "tafHtml": "TAF LFSB 082300Z 0900/0924 12010KT 9999 SCT025 BKN035 \n  BECMG 0900/0902 23020G30KT \n  TEMPO 0902/0924 -<span class=\"hl\">SHRA</span> SCT030TCU \n  PROB40 \n  TEMPO 0902/0905 22025G40KT 4000 <span class=\"hl\">SHRA</span> SCT025CB"
    },
    {
      "icao": "EPRA",
      "iata": "RDO",
      "name": "Warsaw Radom Airport",
      "updatedAt": "090330Z",
      "visibility_m": 6000,
      "taf_visibility_m": 8000,
      "worst_visibility_m": 6000,
      "ceiling_ft": 600,
      "hazards": [],
      "severityScore": 25,
      "metarRaw": "METAR EPRA 090330Z 31013KT 270V330 6000 OVC006 M10/M11 Q1005",
      "tafRaw": "TAF EPRA 090230Z 0903/0912 32010KT 8000 OVC006 \n  BECMG 0908/0910 BKN014",
      "metarHtml": "METAR EPRA 090330Z 31013KT 270V330 6000 OVC006 M10/M11 Q1005",
      "tafHtml": "TAF EPRA 090230Z 0903/0912 32010KT 8000 OVC006 \n  BECMG 0908/0910 BKN014"
    },
    {
      "icao": "LPPR",
      "iata": "OPO",
      "name": "Francisco de Sá Carneiro Airport",
      "updatedAt": "090330Z",
      "visibility_m": 10000,
      "taf_visibility_m": 5000,
      "worst_visibility_m": 5000,
      "ceiling_ft": null,
      "hazards": [
        "BR",
        "SHRA"
      ],
      "severityScore": 24,
      "metarRaw": "METAR LPPR 090330Z 30006KT 260V330 9999 FEW015 12/09 Q1026",
      "tafRaw": "TAF LPPR 082300Z 0900/0924 26010KT 5000 -RADZ BR SCT004 BKN008 \n  BECMG 0900/0901 30010KT 9999 NSW SCT015 \n  PROB30 \n  TEMPO 0904/0915 8000 SHRA SCT012 FEW018TCU BKN030 \n  BECMG 0916/0918 33007KT \n  BECMG 0921/0923 VRB02KT",
      "metarHtml": "METAR LPPR 090330Z 30006KT 260V330 9999 FEW015 12/09 Q1026",
      "tafHtml": "TAF LPPR 082300Z 0900/0924 26010KT 5000 -RADZ <span class=\"hl\">BR</span> SCT004 BKN008 \n  BECMG 0900/0901 30010KT 9999 NSW SCT015 \n  PROB30 \n  TEMPO 0904/0915 8000 <span class=\"hl\">SHRA</span> SCT012 FEW018TCU BKN030 \n  BECMG 0916/0918 33007KT \n  BECMG 0921/0923 VRB02KT"
    },
    {
      "icao": "ENTO",
      "iata": "TRF",
      "name": "Sandefjord Airport, Torp",
      "updatedAt": "090350Z",
      "visibility_m": 10000,
      "taf_visibility_m": null,
      "worst_visibility_m": 10000,
      "ceiling_ft": null,
      "hazards": [
        "SN"
      ],
      "severityScore": 23,
      "metarRaw": "METAR ENTO 090350Z AUTO 01008KT 9999 -SN BKN016/// OVC024/// M08/M09 Q1013",
      "tafRaw": null,
      "metarHtml": "METAR ENTO 090350Z AUTO 01008KT 9999 -<span class=\"hl\">SN</span> BKN016/// OVC024/// M08/M09 Q1013",
      "tafHtml": null
    },
    {
      "icao": "BKPR",
      "iata": "PRN",
      "name": "Priština Adem Jashari International Airport",
      "updatedAt": null,
      "visibility_m": null,
      "taf_visibility_m": 3000,
      "worst_visibility_m": 3000,
      "ceiling_ft": null,
      "hazards": [
        "BR",
        "RA"
      ],
      "severityScore": 22,
      "metarRaw": null,
      "tafRaw": "TAF BKPR 082330Z 0900/0924 VRB05KT 9999 SCT060 \n  TEMPO 0902/0907 3000 BR \n  BECMG 0907/0909 22012KT \n  TEMPO 0911/0917 22015G25KT \n  TEMPO 0921/0924 4000 -RA BR BKN012",
      "metarHtml": null,
      "tafHtml": "TAF BKPR 082330Z 0900/0924 VRB05KT 9999 SCT060 \n  TEMPO 0902/0907 3000 <span class=\"hl\">BR</span> \n  BECMG 0907/0909 22012KT \n  TEMPO 0911/0917 22015G25KT \n  TEMPO 0921/0924 4000 -<span class=\"hl\">RA</span> <span class=\"hl\">BR</span> BKN012"
    },
    {
      "icao": "EFTU",
      "iata": "TKU",
      "name": "Turku Airport",
      "updatedAt": "090350Z",
      "visibility_m": 10000,
      "taf_visibility_m": 6000,
      "worst_visibility_m": 6000,
      "ceiling_ft": 1700,
      "hazards": [
        "SHSN"
      ],
      "severityScore": 22,
      "metarRaw": "METAR EFTU 090350Z AUTO 06005KT 9999 -SHSN OVC017 M15/M17 Q1023",
      "tafRaw": "TAF EFTU 090230Z 0903/1003 07006KT CAVOK \n  TEMPO 0903/0908 BKN006 \n  PROB30 0903/0908 6000",
      "metarHtml": "METAR EFTU 090350Z AUTO 06005KT 9999 -<span class=\"hl\">SHSN</span> OVC017 M15/M17 Q1023",
      "tafHtml": "TAF EFTU 090230Z 0903/1003 07006KT <span class=\"hl-vis\">CAVOK</span> \n  TEMPO 0903/0908 BKN006 \n  PROB30 0903/0908 6000"
    },
    {
      "icao": "LEZL",
      "iata": "SVQ",
      "name": "Sevilla Airport",
      "updatedAt": "090330Z",
      "visibility_m": 9000,
      "taf_visibility_m": 4000,
      "worst_visibility_m": 4000,
      "ceiling_ft": 2300,
      "hazards": [
        "BR",
        "RA"
      ],
      "severityScore": 22,
      "metarRaw": "METAR LEZL 090330Z AUTO 20006KT 9000 OVC023 10/08 Q1030",
      "tafRaw": "TAF LEZL 090200Z 0903/1003 VRB03KT 9999 BKN020 TX16/0915Z TN09/0907Z \n  PROB30 \n  TEMPO 0903/0909 4000 BR \n  PROB30 \n  TEMPO 0911/0915 27010KT RA BKN014",
      "metarHtml": "METAR LEZL 090330Z AUTO 20006KT 9000 OVC023 10/08 Q1030",
      "tafHtml": "TAF LEZL 090200Z 0903/1003 VRB03KT 9999 BKN020 TX16/0915Z TN09/0907Z \n  PROB30 \n  TEMPO 0903/0909 4000 <span class=\"hl\">BR</span> \n  PROB30 \n  TEMPO 0911/0915 27010KT <span class=\"hl\">RA</span> BKN014"
    },
    {
      "icao": "LIPQ",
      "iata": "TRS",
      "name": "Trieste–Friuli Venezia Giulia Airport",
      "updatedAt": "090350Z",
      "visibility_m": 10000,
      "taf_visibility_m": 2000,
      "worst_visibility_m": 2000,
      "ceiling_ft": null,
      "hazards": [
        "BR",
        "RA"
      ],
      "severityScore": 22,
      "metarRaw": "METAR LIPQ 090350Z AUTO 02004KT 9999 OVC030/// 01/M03 Q1008",
      "tafRaw": "TAF LIPQ 082300Z 0900/0924 VRB05KT 9999 SCT030 \n  PROB30 \n  TEMPO 0906/0914 RA \n  TEMPO 0916/0924 2000 BR",
      "metarHtml": "METAR LIPQ 090350Z AUTO 02004KT 9999 OVC030/// 01/M03 Q1008",
      "tafHtml": "TAF LIPQ 082300Z 0900/0924 VRB05KT 9999 SCT030 \n  PROB30 \n  TEMPO 0906/0914 <span class=\"hl\">RA</span> \n  TEMPO 0916/0924 2000 <span class=\"hl\">BR</span>"
    },
    {
      "icao": "LPFR",
      "iata": "FAO",
      "name": "Faro Airport",
      "updatedAt": "090330Z",
      "visibility_m": 5000,
      "taf_visibility_m": 5000,
      "worst_visibility_m": 5000,
      "ceiling_ft": null,
      "hazards": [
        "BR",
        "RA"
      ],
      "severityScore": 22,
      "metarRaw": "METAR LPFR 090330Z 00000KT 5000 -RADZ BR SCT008 SCT018 10/09 Q1030",
      "tafRaw": "TAF LPFR 082300Z 0900/0924 VRB05KT 9999 FEW015 BKN030 \n  PROB30 \n  TEMPO 0902/0909 5000 -RADZ BR SCT004 BKN008 \n  BECMG 0908/0910 29005KT \n  BECMG 0912/0914 26013KT \n  TEMPO 0912/0916 6000 -RA SCT006 BKN012 \n  BECMG 0918/0920 31005KT FEW020",
      "metarHtml": "METAR LPFR 090330Z 00000KT 5000 -RADZ <span class=\"hl\">BR</span> SCT008 SCT018 10/09 Q1030",
      "tafHtml": "TAF LPFR 082300Z 0900/0924 VRB05KT 9999 FEW015 BKN030 \n  PROB30 \n  TEMPO 0902/0909 5000 -RADZ <span class=\"hl\">BR</span> SCT004 BKN008 \n  BECMG 0908/0910 29005KT \n  BECMG 0912/0914 26013KT \n  TEMPO 0912/0916 6000 -<span class=\"hl\">RA</span> SCT006 BKN012 \n  BECMG 0918/0920 31005KT FEW020"
    },
    {
      "icao": "LIPR",
      "iata": "RMI",
      "name": "Federico Fellini International Airport",
      "updatedAt": "090350Z",
      "visibility_m": 10000,
      "taf_visibility_m": 1500,
      "worst_visibility_m": 1500,
      "ceiling_ft": null,
      "hazards": [
        "BR"
      ],
      "severityScore": 20,
      "metarRaw": "METAR LIPR 090350Z AUTO 23002KT 9999 BKN049/// 01/M01 Q1007",
      "tafRaw": "TAF LIPR 082300Z 0900/0924 VRB05KT CAVOK \n  BECMG 0908/0910 29010KT \n  BECMG 0918/0920 VRB05KT \n  TEMPO 0920/0924 1500 BR",
      "metarHtml": "METAR LIPR 090350Z AUTO 23002KT 9999 BKN049/// 01/M01 Q1007",
      "tafHtml": "TAF LIPR 082300Z 0900/0924 VRB05KT <span class=\"hl-vis\">CAVOK</span> \n  BECMG 0908/0910 29010KT \n  BECMG 0918/0920 VRB05KT \n  TEMPO 0920/0924 1500 <span class=\"hl\">BR</span>"
    },
    {
      "icao": "UBBB",
      "iata": "GYD",
      "name": "Heydar Aliyev International Airport",
      "updatedAt": "090330Z",
      "visibility_m": 8000,
      "taf_visibility_m": 1200,
      "worst_visibility_m": 1200,
      "ceiling_ft": null,
      "hazards": [
        "BR"
      ],
      "severityScore": 20,
      "metarRaw": "METAR UBBB 090330Z 19022G34KT 8000 SCT005 10/08 Q1005 NOSIG",
      "tafRaw": "TAF UBBB 082303Z 0900/0924 17014KT 3500 BR BKN010 TX12/0910Z TN08/0900Z \n  TEMPO 0900/0902 20022KT 1200 BCFG BKN002 \n  BECMG 0902/0904 18018G28KT 6000 NSW BKN020 \n  TEMPO 0902/0910 22024G34KT BKN006 \n  TEMPO 0912/0916 21010KT 4000 BR BCFG BKN004 \n  BECMG 0916/0918 33022G32KT",
      "metarHtml": "METAR UBBB 090330Z 19022G34KT 8000 SCT005 10/08 Q1005 NOSIG",
      "tafHtml": "TAF UBBB 082303Z 0900/0924 17014KT 3500 <span class=\"hl\">BR</span> BKN010 TX12/0910Z TN08/0900Z \n  TEMPO 0900/0902 20022KT 1200 BCFG BKN002 \n  BECMG 0902/0904 18018G28KT 6000 NSW BKN020 \n  TEMPO 0902/0910 22024G34KT BKN006 \n  TEMPO 0912/0916 21010KT 4000 <span class=\"hl\">BR</span> BCFG BKN004 \n  BECMG 0916/0918 33022G32KT"
    },
    {
      "icao": "LFPO",
      "iata": "ORY",
      "name": "Paris-Orly Airport",
      "updatedAt": "090330Z",
      "visibility_m": 4000,
      "taf_visibility_m": null,
      "worst_visibility_m": 4000,
      "ceiling_ft": 3400,
      "hazards": [
        "SHRA"
      ],
      "severityScore": 19,
      "metarRaw": "METAR LFPO 090330Z AUTO 24029G45KT 9999 BKN034 OVC040 08/03 Q0990 TEMPO 4000 SHRA BKN030TCU",
      "tafRaw": null,
      "metarHtml": "METAR LFPO 090330Z AUTO 24029G45KT 9999 BKN034 OVC040 08/03 Q0990 TEMPO 4000 <span class=\"hl\">SHRA</span> BKN030TCU",
      "tafHtml": null
    },
    {
      "icao": "EETN",
      "iata": "TLL",
      "name": "Lennart Meri Tallinn Airport",
      "updatedAt": "090350Z",
      "visibility_m": 10000,
      "taf_visibility_m": 4000,
      "worst_visibility_m": 4000,
      "ceiling_ft": null,
      "hazards": [
        "SN"
      ],
      "severityScore": 18,
      "metarRaw": "METAR EETN 090350Z 08008KT CAVOK M09/M11 Q1020 NOSIG",
      "tafRaw": "TAF EETN 082330Z 0900/0924 09013KT 9999 BKN018 \n  PROB40 \n  TEMPO 0900/0907 4000 SN BKN012 \n  BECMG 0908/0910 07016G30KT \n  TEMPO 0910/0915 BKN014",
      "metarHtml": "METAR EETN 090350Z 08008KT <span class=\"hl-vis\">CAVOK</span> M09/M11 Q1020 NOSIG",
      "tafHtml": "TAF EETN 082330Z 0900/0924 09013KT 9999 BKN018 \n  PROB40 \n  TEMPO 0900/0907 4000 <span class=\"hl\">SN</span> BKN012 \n  BECMG 0908/0910 07016G30KT \n  TEMPO 0910/0915 BKN014"
    },
    {
      "icao": "LBSF",
      "iata": "SOF",
      "name": "Sofia Airport",
      "updatedAt": "090330Z",
      "visibility_m": 10000,
      "taf_visibility_m": 4000,
      "worst_visibility_m": 4000,
      "ceiling_ft": null,
      "hazards": [
        "SN"
      ],
      "severityScore": 18,
      "metarRaw": "METAR LBSF 090330Z AUTO 33007KT 300V020 9999 NCD M05/M09 Q1009 TEMPO 29022G34KT",
      "tafRaw": "TAF LBSF 082300Z 0900/0924 29016KT 9999 SCT030 BKN050 \n  PROB40 \n  TEMPO 0900/0902 30016G28KT \n  BECMG 0904/0906 VRB04KT \n  TEMPO 0917/0924 4000 SN BKN015 OVC030",
      "metarHtml": "METAR LBSF 090330Z AUTO 33007KT 300V020 9999 NCD M05/M09 Q1009 TEMPO 29022G34KT",
      "tafHtml": "TAF LBSF 082300Z 0900/0924 29016KT 9999 SCT030 BKN050 \n  PROB40 \n  TEMPO 0900/0902 30016G28KT \n  BECMG 0904/0906 VRB04KT \n  TEMPO 0917/0924 4000 <span class=\"hl\">SN</span> BKN015 OVC030"
    },
    {
      "icao": "LHBP",
      "iata": "BUD",
      "name": "Budapest Liszt Ferenc International Airport",
      "updatedAt": "090330Z",
      "visibility_m": 10000,
      "taf_visibility_m": 2500,
      "worst_visibility_m": 2500,
      "ceiling_ft": null,
      "hazards": [
        "SN"
      ],
      "severityScore": 18,
      "metarRaw": "METAR LHBP 090330Z VRB02KT CAVOK M16/M18 Q1008 NOSIG",
      "tafRaw": "TAF LHBP 082315Z 0900/0924 30007KT CAVOK \n  BECMG 0900/0902 VRB02KT \n  BECMG 0907/0910 11007KT -SN SCT030 BKN050 \n  TEMPO 0911/0918 2500 SN BKN012 OVC040 \n  BECMG 0918/0921 04005KT CAVOK",
      "metarHtml": "METAR LHBP 090330Z VRB02KT <span class=\"hl-vis\">CAVOK</span> M16/M18 Q1008 NOSIG",
      "tafHtml": "TAF LHBP 082315Z 0900/0924 30007KT <span class=\"hl-vis\">CAVOK</span> \n  BECMG 0900/0902 VRB02KT \n  BECMG 0907/0910 11007KT -<span class=\"hl\">SN</span> SCT030 BKN050 \n  TEMPO 0911/0918 2500 <span class=\"hl\">SN</span> BKN012 OVC040 \n  BECMG 0918/0921 04005KT <span class=\"hl-vis\">CAVOK</span>"
    },
    {
      "icao": "LIMC",
      "iata": "MXP",
      "name": "Milan Malpensa International Airport",
      "updatedAt": "090350Z",
      "visibility_m": 8000,
      "taf_visibility_m": 4000,
      "worst_visibility_m": 4000,
      "ceiling_ft": 3500,
      "hazards": [
        "SN"
      ],
      "severityScore": 18,
      "metarRaw": "METAR LIMC 090350Z 10006KT 8000 BKN035 00/M02 Q1007 NOSIG",
      "tafRaw": "TAF LIMC 082300Z 0900/1006 VRB04KT 9999 BKN025 \n  PROB40 \n  TEMPO 0905/0909 4000 -SN BKN010",
      "metarHtml": "METAR LIMC 090350Z 10006KT 8000 BKN035 00/M02 Q1007 NOSIG",
      "tafHtml": "TAF LIMC 082300Z 0900/1006 VRB04KT 9999 BKN025 \n  PROB40 \n  TEMPO 0905/0909 4000 -<span class=\"hl\">SN</span> BKN010"
    },
    {
      "icao": "LIME",
      "iata": "BGY",
      "name": "Milan Bergamo Airport / Antonio Locatelli Air Base",
      "updatedAt": "090350Z",
      "visibility_m": 10000,
      "taf_visibility_m": 4000,
      "worst_visibility_m": 4000,
      "ceiling_ft": 3500,
      "hazards": [
        "SN"
      ],
      "severityScore": 18,
      "metarRaw": "METAR LIME 090350Z VRB02KT 9999 BKN035 M00/M03 Q1008 NOSIG",
      "tafRaw": "TAF LIME 082300Z 0900/0924 VRB04KT 9999 SCT050 \n  PROB40 \n  TEMPO 0905/0909 4000 -SN BKN010",
      "metarHtml": "METAR LIME 090350Z VRB02KT 9999 BKN035 M00/M03 Q1008 NOSIG",
      "tafHtml": "TAF LIME 082300Z 0900/0924 VRB04KT 9999 SCT050 \n  PROB40 \n  TEMPO 0905/0909 4000 -<span class=\"hl\">SN</span> BKN010"
    },
    {
      "icao": "LRSB",
      "iata": "SBZ",
      "name": "Sibiu International Airport",
      "updatedAt": "090330Z",
      "visibility_m": 10000,
      "taf_visibility_m": 5000,
      "worst_visibility_m": 5000,
      "ceiling_ft": 5000,
      "hazards": [
        "SN"
      ],
      "severityScore": 18,
      "metarRaw": "METAR LRSB 090330Z COR 28013KT 9999 OVC050 M05/M10 Q1005",
      "tafRaw": "TAF LRSB 082300Z 0900/0924 33017KT 9999 BKN040 \n  BECMG 0903/0905 VRB04KT \n  BECMG 0916/0918 5000 -SN BKN005 OVC025",
      "metarHtml": "METAR LRSB 090330Z COR 28013KT 9999 OVC050 M05/M10 Q1005",
      "tafHtml": "TAF LRSB 082300Z 0900/0924 33017KT 9999 BKN040 \n  BECMG 0903/0905 VRB04KT \n  BECMG 0916/0918 5000 -<span class=\"hl\">SN</span> BKN005 OVC025"
    },
    {
      "icao": "LUKK",
      "iata": "RMO",
      "name": "Chişinău International Airport",
      "updatedAt": "090330Z",
      "visibility_m": 10000,
      "taf_visibility_m": 10000,
      "worst_visibility_m": 10000,
      "ceiling_ft": 2100,
      "hazards": [
        "SN"
      ],
      "severityScore": 18,
      "metarRaw": "METAR LUKK 090330Z 29009KT 9999 -SN OVC021 M04/M07 Q0999 NOSIG",
      "tafRaw": "TAF LUKK 082315Z 0900/0924 30015G25KT 9999 BKN030 \n  TEMPO 0900/0906 31020G30KT DRSN \n  BECMG 0915/0917 VRB06KT",
      "metarHtml": "METAR LUKK 090330Z 29009KT 9999 -<span class=\"hl\">SN</span> OVC021 M04/M07 Q0999 NOSIG",
      "tafHtml": "TAF LUKK 082315Z 0900/0924 30015G25KT 9999 BKN030 \n  TEMPO 0900/0906 31020G30KT DRSN \n  BECMG 0915/0917 VRB06KT"
    },
    {
      "icao": "EDDN",
      "iata": "NUE",
      "name": "Nuremberg Airport",
      "updatedAt": "090350Z",
      "visibility_m": 5000,
      "taf_visibility_m": null,
      "worst_visibility_m": 5000,
      "ceiling_ft": 2200,
      "hazards": [
        "BR"
      ],
      "severityScore": 15,
      "metarRaw": "METAR EDDN 090350Z AUTO 12012KT 5000 -RADZ BR FEW008 BKN022 OVC028 01/00 Q0995 RERA",
      "tafRaw": null,
      "metarHtml": "METAR EDDN 090350Z AUTO 12012KT 5000 -RADZ <span class=\"hl\">BR</span> FEW008 BKN022 OVC028 01/00 Q0995 RERA",
      "tafHtml": null
    },
    {
      "icao": "LQSA",
      "iata": "SJJ",
      "name": "Sarajevo International Airport",
      "updatedAt": "090330Z",
      "visibility_m": 5000,
      "taf_visibility_m": null,
      "worst_visibility_m": 5000,
      "ceiling_ft": null,
      "hazards": [
        "BR"
      ],
      "severityScore": 15,
      "metarRaw": "METAR LQSA 090330Z 26001KT 5000 BR NSC M13/M14 Q1011",
      "tafRaw": null,
      "metarHtml": "METAR LQSA 090330Z 26001KT 5000 <span class=\"hl\">BR</span> NSC M13/M14 Q1011",
      "tafHtml": null
    },
    {
      "icao": "EDJA",
      "iata": "FMM",
      "name": "Memmingen Allgau Airport",
      "updatedAt": "090350Z",
      "visibility_m": 10000,
      "taf_visibility_m": 10000,
      "worst_visibility_m": 10000,
      "ceiling_ft": null,
      "hazards": [
        "SHRA"
      ],
      "severityScore": 14,
      "metarRaw": "METAR EDJA 090350Z AUTO 23015G28KT 9999 SCT077/// BKN089/// BKN230/// 03/02 Q0997",
      "tafRaw": "TAF EDJA 090200Z 0903/0912 22012KT 9999 SCT025 \n  BECMG 0903/0906 23020G30KT \n  PROB40 \n  TEMPO 0903/0906 SHRA SCT020TCU \n  TEMPO 0908/0912 23025G35KT",
      "metarHtml": "METAR EDJA 090350Z AUTO 23015G28KT 9999 SCT077/// BKN089/// BKN230/// 03/02 Q0997",
      "tafHtml": "TAF EDJA 090200Z 0903/0912 22012KT 9999 SCT025 \n  BECMG 0903/0906 23020G30KT \n  PROB40 \n  TEMPO 0903/0906 <span class=\"hl\">SHRA</span> SCT020TCU \n  TEMPO 0908/0912 23025G35KT"
    },
    {
      "icao": "EDNY",
      "iata": "FDH",
      "name": "Friedrichshafen Airport",
      "updatedAt": "090350Z",
      "visibility_m": 10000,
      "taf_visibility_m": 10000,
      "worst_visibility_m": 10000,
      "ceiling_ft": null,
      "hazards": [
        "SHRA"
      ],
      "severityScore": 14,
      "metarRaw": "METAR EDNY 090350Z AUTO 25015KT 9999 // FEW023/// SCT035/// BKN041/// 05/04 Q0999",
      "tafRaw": "TAF EDNY 090200Z 0903/0912 VRB03KT 9999 SCT030 \n  BECMG 0903/0906 23008KT \n  PROB40 \n  TEMPO 0903/0906 SHRA SCT025TCU \n  BECMG 0908/0910 24015G25KT",
      "metarHtml": "METAR EDNY 090350Z AUTO 25015KT 9999 // FEW023/// SCT035/// BKN041/// 05/04 Q0999",
      "tafHtml": "TAF EDNY 090200Z 0903/0912 VRB03KT 9999 SCT030 \n  BECMG 0903/0906 23008KT \n  PROB40 \n  TEMPO 0903/0906 <span class=\"hl\">SHRA</span> SCT025TCU \n  BECMG 0908/0910 24015G25KT"
    },
    {
      "icao": "LICJ",
      "iata": "PMO",
      "name": "Falcone–Borsellino Airport",
      "updatedAt": "090350Z",
      "visibility_m": 10000,
      "taf_visibility_m": 4000,
      "worst_visibility_m": 4000,
      "ceiling_ft": null,
      "hazards": [
        "SHRA"
      ],
      "severityScore": 14,
      "metarRaw": "METAR LICJ 090350Z 24021KT 9999 SCT030 16/10 Q1019",
      "tafRaw": "TAF LICJ 082300Z 0900/0924 29025G35KT 9999 SCT020 \n  BECMG 0903/0905 23018G35KT \n  TEMPO 0912/0924 4000 SHRA",
      "metarHtml": "METAR LICJ 090350Z 24021KT 9999 SCT030 16/10 Q1019",
      "tafHtml": "TAF LICJ 082300Z 0900/0924 29025G35KT 9999 SCT020 \n  BECMG 0903/0905 23018G35KT \n  TEMPO 0912/0924 4000 <span class=\"hl\">SHRA</span>"
    },
    {
      "icao": "UGKO",
      "iata": "KUT",
      "name": "David the Builder Kutaisi International Airport",
      "updatedAt": "090330Z",
      "visibility_m": 10000,
      "taf_visibility_m": 3000,
      "worst_visibility_m": 3000,
      "ceiling_ft": 8000,
      "hazards": [
        "SHRA"
      ],
      "severityScore": 14,
      "metarRaw": "METAR UGKO 090330Z 08016KT 9999 BKN080 12/05 Q1002 NOSIG",
      "tafRaw": "TAF UGKO 082300Z 0900/0924 09007KT 9999 BKN070 TX12/0911Z TN09/0903Z \n  TEMPO 0900/0904 08017KT 4000 SHRA BKN020CB OVC040 \n  BECMG 0907/0910 26010KT \n  TEMPO 0908/0914 3000 SHRA BKN017CB OVC035",
      "metarHtml": "METAR UGKO 090330Z 08016KT 9999 BKN080 12/05 Q1002 NOSIG",
      "tafHtml": "TAF UGKO 082300Z 0900/0924 09007KT 9999 BKN070 TX12/0911Z TN09/0903Z \n  TEMPO 0900/0904 08017KT 4000 <span class=\"hl\">SHRA</span> BKN020CB OVC040 \n  BECMG 0907/0910 26010KT \n  TEMPO 0908/0914 3000 <span class=\"hl\">SHRA</span> BKN017CB OVC035"
    },
    {
      "icao": "EDLW",
      "iata": "DTM",
      "name": "Dortmund Airport",
      "updatedAt": "090350Z",
      "visibility_m": 10000,
      "taf_visibility_m": 4000,
      "worst_visibility_m": 4000,
      "ceiling_ft": null,
      "hazards": [
        "RA"
      ],
      "severityScore": 12,
      "metarRaw": "METAR EDLW 090350Z AUTO 15012KT 9999 // SCT043/// BKN180/// BKN230/// 04/02 Q0987",
      "tafRaw": "TAF EDLW 081700Z 0818/0918 14007KT 9999 BKN025 \n  TEMPO 0820/0904 4000 RA BKN012 \n  BECMG 0822/0901 16012KT \n  PROB30 \n  TEMPO 0909/0915 16015G25KT RA \n  TEMPO 0915/0918 RA BKN012",
      "metarHtml": "METAR EDLW 090350Z AUTO 15012KT 9999 // SCT043/// BKN180/// BKN230/// 04/02 Q0987",
      "tafHtml": "TAF EDLW 081700Z 0818/0918 14007KT 9999 BKN025 \n  TEMPO 0820/0904 4000 <span class=\"hl\">RA</span> BKN012 \n  BECMG 0822/0901 16012KT \n  PROB30 \n  TEMPO 0909/0915 16015G25KT <span class=\"hl\">RA</span> \n  TEMPO 0915/0918 <span class=\"hl\">RA</span> BKN012"
    },
    {
      "icao": "EPSY",
      "iata": "SZY",
      "name": "Olsztyn-Mazury Airport",
      "updatedAt": "090330Z",
      "visibility_m": 10000,
      "taf_visibility_m": 8000,
      "worst_visibility_m": 8000,
      "ceiling_ft": 1000,
      "hazards": [],
      "severityScore": 12,
      "metarRaw": "METAR EPSY 090330Z 36011KT 9999 BKN010 M10/M11 Q1007",
      "tafRaw": "TAF EPSY 090230Z 0903/0912 01010KT 8000 OVC011 \n  BECMG 0903/0906 BKN020",
      "metarHtml": "METAR EPSY 090330Z 36011KT 9999 BKN010 M10/M11 Q1007",
      "tafHtml": "TAF EPSY 090230Z 0903/0912 01010KT 8000 OVC011 \n  BECMG 0903/0906 BKN020"
    },
    {
      "icao": "HESX",
      "iata": "SPX",
      "name": "Sphinx International Airport",
      "updatedAt": "090300Z",
      "visibility_m": 10000,
      "taf_visibility_m": 4000,
      "worst_visibility_m": 4000,
      "ceiling_ft": null,
      "hazards": [
        "RA"
      ],
      "severityScore": 12,
      "metarRaw": "METAR HESX 090300Z 29011KT CAVOK 15/10 Q1017 NOSIG",
      "tafRaw": "TAF HESX 082300Z 0900/1006 27008KT 6000 SCT025 \n  TEMPO 0900/0908 29008G20KT 4000 RA SA SCT020 BKN022 \n  PROB40 \n  TEMPO 0910/0918 27018G30KT 4000 SA",
      "metarHtml": "METAR HESX 090300Z 29011KT <span class=\"hl-vis\">CAVOK</span> 15/10 Q1017 NOSIG",
      "tafHtml": "TAF HESX 082300Z 0900/1006 27008KT 6000 SCT025 \n  TEMPO 0900/0908 29008G20KT 4000 <span class=\"hl\">RA</span> SA SCT020 BKN022 \n  PROB40 \n  TEMPO 0910/0918 27018G30KT 4000 SA"
    },
    {
      "icao": "LEZG",
      "iata": "ZAZ",
      "name": "Zaragoza Airport",
      "updatedAt": "090330Z",
      "visibility_m": 10000,
      "taf_visibility_m": 10000,
      "worst_visibility_m": 10000,
      "ceiling_ft": null,
      "hazards": [
        "RA"
      ],
      "severityScore": 12,
      "metarRaw": "METAR LEZG 090330Z 23017KT 9999 FEW050 11/04 Q1016 NOSIG",
      "tafRaw": "TAF LEZG 082300Z 0900/0924 24020KT CAVOK TX14/0915Z TN05/0906Z \n  TEMPO 0900/0914 24018G28KT \n  TEMPO 0900/0913 24025G38KT \n  BECMG 0913/0915 31015KT \n  TEMPO 0913/0918 31018G28KT \n  TEMPO 0914/0916 31025G38KT \n  TEMPO 0914/0921 RA \n  BECMG 0920/0922 25007KT",
      "metarHtml": "METAR LEZG 090330Z 23017KT 9999 FEW050 11/04 Q1016 NOSIG",
      "tafHtml": "TAF LEZG 082300Z 0900/0924 24020KT <span class=\"hl-vis\">CAVOK</span> TX14/0915Z TN05/0906Z \n  TEMPO 0900/0914 24018G28KT \n  TEMPO 0900/0913 24025G38KT \n  BECMG 0913/0915 31015KT \n  TEMPO 0913/0918 31018G28KT \n  TEMPO 0914/0916 31025G38KT \n  TEMPO 0914/0921 <span class=\"hl\">RA</span> \n  BECMG 0920/0922 25007KT"
    },
    {
      "icao": "LGAV",
      "iata": "ATH",
      "name": "Athens Eleftherios Venizelos International Airport",
      "updatedAt": "090350Z",
      "visibility_m": 10000,
      "taf_visibility_m": 10000,
      "worst_visibility_m": 10000,
      "ceiling_ft": null,
      "hazards": [
        "RA"
      ],
      "severityScore": 12,
      "metarRaw": "METAR LGAV 090350Z VRB01KT 9999 FEW025 06/M05 Q1014 NOSIG",
      "tafRaw": "TAF LGAV 082300Z 0900/0924 28015KT 9999 FEW025 \n  PROB30 \n  TEMPO 0909/0912 RA SCT020 BKN070 \n  TEMPO 0900/0904 28016G26KT",
      "metarHtml": "METAR LGAV 090350Z VRB01KT 9999 FEW025 06/M05 Q1014 NOSIG",
      "tafHtml": "TAF LGAV 082300Z 0900/0924 28015KT 9999 FEW025 \n  PROB30 \n  TEMPO 0909/0912 <span class=\"hl\">RA</span> SCT020 BKN070 \n  TEMPO 0900/0904 28016G26KT"
    },
    {
      "icao": "LIBD",
      "iata": "BRI",
      "name": "Bari Karol Wojtyła International Airport",
      "updatedAt": "090350Z",
      "visibility_m": 10000,
      "taf_visibility_m": 10000,
      "worst_visibility_m": 10000,
      "ceiling_ft": null,
      "hazards": [
        "RA"
      ],
      "severityScore": 12,
      "metarRaw": "METAR LIBD 090350Z 19006KT 9999 -RA FEW015 SCT040 04/02 Q1012",
      "tafRaw": "TAF LIBD 082300Z 0900/0924 17008KT 9999 FEW020 \n  BECMG 0908/0910 23013KT \n  TEMPO 0910/0915 23015G25KT",
      "metarHtml": "METAR LIBD 090350Z 19006KT 9999 -<span class=\"hl\">RA</span> FEW015 SCT040 04/02 Q1012",
      "tafHtml": "TAF LIBD 082300Z 0900/0924 17008KT 9999 FEW020 \n  BECMG 0908/0910 23013KT \n  TEMPO 0910/0915 23015G25KT"
    },
    {
      "icao": "LIBR",
      "iata": "BDS",
      "name": "Brindisi Airport",
      "updatedAt": "090350Z",
      "visibility_m": 10000,
      "taf_visibility_m": 4000,
      "worst_visibility_m": 4000,
      "ceiling_ft": null,
      "hazards": [
        "RA"
      ],
      "severityScore": 12,
      "metarRaw": "METAR LIBR 090350Z 20008KT CAVOK 05/M01 Q1014",
      "tafRaw": "TAF LIBR 082300Z 0900/0924 25010KT 9999 FEW040 \n  BECMG 0902/0904 16010KT \n  PROB30 \n  TEMPO 0903/0909 4000 RA \n  BECMG 0916/0918 23013KT",
      "metarHtml": "METAR LIBR 090350Z 20008KT <span class=\"hl-vis\">CAVOK</span> 05/M01 Q1014",
      "tafHtml": "TAF LIBR 082300Z 0900/0924 25010KT 9999 FEW040 \n  BECMG 0902/0904 16010KT \n  PROB30 \n  TEMPO 0903/0909 4000 <span class=\"hl\">RA</span> \n  BECMG 0916/0918 23013KT"
    },
    {
      "icao": "LPMA",
      "iata": "FNC",
      "name": "Madeira International Airport Cristiano Ronaldo",
      "updatedAt": "090330Z",
      "visibility_m": 10000,
      "taf_visibility_m": 10000,
      "worst_visibility_m": 10000,
      "ceiling_ft": 1500,
      "hazards": [],
      "severityScore": 12,
      "metarRaw": "METAR LPMA 090330Z 01008KT 9999 BKN015 16/11 Q1033",
      "tafRaw": "TAF LPMA 082300Z 0900/0924 01010KT 9999 SCT015 \n  TEMPO 0900/0912 BKN013 \n  BECMG 0911/0913 05010KT \n  BECMG 0919/0921 01010KT",
      "metarHtml": "METAR LPMA 090330Z 01008KT 9999 BKN015 16/11 Q1033",
      "tafHtml": "TAF LPMA 082300Z 0900/0924 01010KT 9999 SCT015 \n  TEMPO 0900/0912 BKN013 \n  BECMG 0911/0913 05010KT \n  BECMG 0919/0921 01010KT"
    },
    {
      "icao": "LPPS",
      "iata": "PXO",
      "name": "Porto Santo Airport",
      "updatedAt": "090330Z",
      "visibility_m": 10000,
      "taf_visibility_m": 6000,
      "worst_visibility_m": 6000,
      "ceiling_ft": null,
      "hazards": [
        "RA"
      ],
      "severityScore": 12,
      "metarRaw": "METAR LPPS 090330Z 06004KT 9999 SCT014 SCT030 15/11 Q1033",
      "tafRaw": "TAF LPPS 082300Z 0900/1006 05008KT 9999 FEW015 SCT030 \n  PROB30 \n  TEMPO 0900/0912 6000 -RA SCT006 BKN012 \n  PROB30 \n  TEMPO 0912/0919 10008KT",
      "metarHtml": "METAR LPPS 090330Z 06004KT 9999 SCT014 SCT030 15/11 Q1033",
      "tafHtml": "TAF LPPS 082300Z 0900/1006 05008KT 9999 FEW015 SCT030 \n  PROB30 \n  TEMPO 0900/0912 6000 -<span class=\"hl\">RA</span> SCT006 BKN012 \n  PROB30 \n  TEMPO 0912/0919 10008KT"
    },
    {
      "icao": "LWOH",
      "iata": "OHD",
      "name": "Ohrid St. Paul the Apostle Airport",
      "updatedAt": null,
      "visibility_m": null,
      "taf_visibility_m": 10000,
      "worst_visibility_m": 10000,
      "ceiling_ft": null,
      "hazards": [
        "RA"
      ],
      "severityScore": 12,
      "metarRaw": null,
      "tafRaw": "TAF LWOH 082020Z 0821/0921 VRB02KT 9999 FEW015 BKN035 \n  BECMG 0914/0916 RA BKN010 OVC025",
      "metarHtml": null,
      "tafHtml": "TAF LWOH 082020Z 0821/0921 VRB02KT 9999 FEW015 BKN035 \n  BECMG 0914/0916 <span class=\"hl\">RA</span> BKN010 OVC025"
    },
    {
      "icao": "LWSK",
      "iata": "SKP",
      "name": "Skopje International Airport",
      "updatedAt": "090350Z",
      "visibility_m": 10000,
      "taf_visibility_m": 10000,
      "worst_visibility_m": 10000,
      "ceiling_ft": null,
      "hazards": [
        "RA"
      ],
      "severityScore": 12,
      "metarRaw": "METAR LWSK 090350Z 12001KT CAVOK M08/M10 Q1013 NOSIG",
      "tafRaw": "TAF LWSK 090210Z 0903/1003 VRB02KT CAVOK \n  TEMPO 0912/0921 14012KT SCT045 \n  BECMG 0921/0923 RA SCT020 OVC040",
      "metarHtml": "METAR LWSK 090350Z 12001KT <span class=\"hl-vis\">CAVOK</span> M08/M10 Q1013 NOSIG",
      "tafHtml": "TAF LWSK 090210Z 0903/1003 VRB02KT <span class=\"hl-vis\">CAVOK</span> \n  TEMPO 0912/0921 14012KT SCT045 \n  BECMG 0921/0923 <span class=\"hl\">RA</span> SCT020 OVC040"
    },
    {
      "icao": "GMMX",
      "iata": "RAK",
      "name": "Menara Airport",
      "updatedAt": "090330Z",
      "visibility_m": 10000,
      "taf_visibility_m": 3000,
      "worst_visibility_m": 3000,
      "ceiling_ft": null,
      "hazards": [
        "BR"
      ],
      "severityScore": 10,
      "metarRaw": "METAR GMMX 090330Z VRB02KT CAVOK 07/05 Q1030 NOSIG",
      "tafRaw": "TAF GMMX 082300Z 0900/1006 06006KT 8000 NSC \n  PROB30 \n  TEMPO 0905/0910 3000 BR BKN006",
      "metarHtml": "METAR GMMX 090330Z VRB02KT <span class=\"hl-vis\">CAVOK</span> 07/05 Q1030 NOSIG",
      "tafHtml": "TAF GMMX 082300Z 0900/1006 06006KT 8000 NSC \n  PROB30 \n  TEMPO 0905/0910 3000 <span class=\"hl\">BR</span> BKN006"
    },
    {
      "icao": "ESKN",
      "iata": "NYO",
      "name": "Stockholm Skavsta Airport",
      "updatedAt": "090320Z",
      "visibility_m": 10000,
      "taf_visibility_m": 2000,
      "worst_visibility_m": 2000,
      "ceiling_ft": 4100,
      "hazards": [
        "SHSN"
      ],
      "severityScore": 10,
      "metarRaw": "METAR ESKN 090320Z 09008KT 9999 FEW031 BKN041 M01/M04 Q1016",
      "tafRaw": "TAF ESKN 090230Z 0903/1003 VRB03KT 9999 BKN030 \n  PROB40 0903/0904 2000 SHSN BKN012 BKN020TCU \n  BECMG 0905/0907 08012KT",
      "metarHtml": "METAR ESKN 090320Z 09008KT 9999 FEW031 BKN041 M01/M04 Q1016",
      "tafHtml": "TAF ESKN 090230Z 0903/1003 VRB03KT 9999 BKN030 \n  PROB40 0903/0904 2000 <span class=\"hl\">SHSN</span> BKN012 BKN020TCU \n  BECMG 0905/0907 08012KT"
    },
    {
      "icao": "ESSA",
      "iata": "ARN",
      "name": "Stockholm-Arlanda Airport",
      "updatedAt": "090350Z",
      "visibility_m": 10000,
      "taf_visibility_m": 4000,
      "worst_visibility_m": 4000,
      "ceiling_ft": 2800,
      "hazards": [
        "SHSN"
      ],
      "severityScore": 10,
      "metarRaw": "METAR ESSA 090350Z 10007KT 9999 BKN028 M04/M06 Q1018 NOSIG",
      "tafRaw": "TAF ESSA 090230Z 0903/1003 10007KT 9999 BKN017 \n  PROB40 0907/0909 4000 -SHSN BKN014 BKN030TCU \n  BECMG 0916/0918 04010KT",
      "metarHtml": "METAR ESSA 090350Z 10007KT 9999 BKN028 M04/M06 Q1018 NOSIG",
      "tafHtml": "TAF ESSA 090230Z 0903/1003 10007KT 9999 BKN017 \n  PROB40 0907/0909 4000 -<span class=\"hl\">SHSN</span> BKN014 BKN030TCU \n  BECMG 0916/0918 04010KT"
    },
    {
      "icao": "LIPE",
      "iata": "BLQ",
      "name": "Bologna Guglielmo Marconi Airport",
      "updatedAt": "090250Z",
      "visibility_m": 10000,
      "taf_visibility_m": 2000,
      "worst_visibility_m": 2000,
      "ceiling_ft": 3000,
      "hazards": [
        "BR"
      ],
      "severityScore": 10,
      "metarRaw": "METAR LIPE 090250Z VRB01KT 9999 BKN030 M01/M03 Q1009",
      "tafRaw": "TAF LIPE 082300Z 0900/0924 VRB05KT CAVOK \n  TEMPO 0921/0924 2000 BR",
      "metarHtml": "METAR LIPE 090250Z VRB01KT 9999 BKN030 M01/M03 Q1009",
      "tafHtml": "TAF LIPE 082300Z 0900/0924 VRB05KT <span class=\"hl-vis\">CAVOK</span> \n  TEMPO 0921/0924 2000 <span class=\"hl\">BR</span>"
    },
    {
      "icao": "LIPX",
      "iata": "VRN",
      "name": "Verona Villafranca Valerio Catullo Airport",
      "updatedAt": "090350Z",
      "visibility_m": 7000,
      "taf_visibility_m": 3000,
      "worst_visibility_m": 3000,
      "ceiling_ft": null,
      "hazards": [
        "BR"
      ],
      "severityScore": 10,
      "metarRaw": "METAR LIPX 090350Z 27002KT 7000 NSC M02/M04 Q1009",
      "tafRaw": "TAF LIPX 082300Z 0900/0924 VRB05KT 8000 FEW020 \n  TEMPO 0900/0907 3000 BR",
      "metarHtml": "METAR LIPX 090350Z 27002KT 7000 NSC M02/M04 Q1009",
      "tafHtml": "TAF LIPX 082300Z 0900/0924 VRB05KT 8000 FEW020 \n  TEMPO 0900/0907 3000 <span class=\"hl\">BR</span>"
    },
    {
      "icao": "LRBC",
      "iata": "BCM",
      "name": "Bacău George Enescu International  Airport",
      "updatedAt": "090330Z",
      "visibility_m": 10000,
      "taf_visibility_m": 3000,
      "worst_visibility_m": 3000,
      "ceiling_ft": null,
      "hazards": [
        "BR"
      ],
      "severityScore": 10,
      "metarRaw": "METAR LRBC 090330Z 25010KT CAVOK M04/M11 Q1001",
      "tafRaw": "TAF LRBC 090200Z 0903/0912 26012KT CAVOK \n  PROB40 \n  TEMPO 0903/0905 3000 BR",
      "metarHtml": "METAR LRBC 090330Z 25010KT <span class=\"hl-vis\">CAVOK</span> M04/M11 Q1001",
      "tafHtml": "TAF LRBC 090200Z 0903/0912 26012KT <span class=\"hl-vis\">CAVOK</span> \n  PROB40 \n  TEMPO 0903/0905 3000 <span class=\"hl\">BR</span>"
    },
    {
      "icao": "LZKZ",
      "iata": "KSC",
      "name": "Košice International Airport",
      "updatedAt": "090330Z",
      "visibility_m": 10000,
      "taf_visibility_m": 2000,
      "worst_visibility_m": 2000,
      "ceiling_ft": null,
      "hazards": [
        "BR"
      ],
      "severityScore": 10,
      "metarRaw": "METAR LZKZ 090330Z VRB03KT CAVOK M11/M12 Q1006 NOSIG",
      "tafRaw": "TAF LZKZ 082315Z 0900/1000 VRB02KT CAVOK \n  PROB30 \n  TEMPO 0903/0909 2000 BR SCT002 \n  BECMG 0910/0912 22007KT BKN020 \n  BECMG 0916/0918 VRB02KT \n  TEMPO 0917/1000 2000 BR BKN012",
      "metarHtml": "METAR LZKZ 090330Z VRB03KT <span class=\"hl-vis\">CAVOK</span> M11/M12 Q1006 NOSIG",
      "tafHtml": "TAF LZKZ 082315Z 0900/1000 VRB02KT <span class=\"hl-vis\">CAVOK</span> \n  PROB30 \n  TEMPO 0903/0909 2000 <span class=\"hl\">BR</span> SCT002 \n  BECMG 0910/0912 22007KT BKN020 \n  BECMG 0916/0918 VRB02KT \n  TEMPO 0917/1000 2000 <span class=\"hl\">BR</span> BKN012"
    },
    {
      "icao": "OEJN",
      "iata": "JED",
      "name": "King Abdulaziz International Airport",
      "updatedAt": "090300Z",
      "visibility_m": 10000,
      "taf_visibility_m": 2000,
      "worst_visibility_m": 2000,
      "ceiling_ft": null,
      "hazards": [
        "BR"
      ],
      "severityScore": 10,
      "metarRaw": "METAR OEJN 090300Z 33003KT CAVOK 23/18 Q1014 NOSIG",
      "tafRaw": "TAF OEJN 082300Z 0900/1006 VRB03KT 7000 NSC \n  PROB30 \n  TEMPO 0900/0905 2000 BR \n  BECMG 0908/0910 23010KT FEW040 \n  BECMG 0918/0920 04006KT 6000 SCT040",
      "metarHtml": "METAR OEJN 090300Z 33003KT <span class=\"hl-vis\">CAVOK</span> 23/18 Q1014 NOSIG",
      "tafHtml": "TAF OEJN 082300Z 0900/1006 VRB03KT 7000 NSC \n  PROB30 \n  TEMPO 0900/0905 2000 <span class=\"hl\">BR</span> \n  BECMG 0908/0910 23010KT FEW040 \n  BECMG 0918/0920 04006KT 6000 SCT040"
    },
    {
      "icao": "EGGW",
      "iata": "LTN",
      "name": "London Luton Airport",
      "updatedAt": "090350Z",
      "visibility_m": 2500,
      "taf_visibility_m": null,
      "worst_visibility_m": 2500,
      "ceiling_ft": null,
      "hazards": [],
      "severityScore": 5,
      "metarRaw": "METAR EGGW 090350Z AUTO 34018KT 2500 -RASN OVC004/// //////CB 01/01 Q0981",
      "tafRaw": null,
      "metarHtml": "METAR EGGW 090350Z AUTO 34018KT 2500 -RASN OVC004/// //////CB 01/01 Q0981",
      "tafHtml": null
    },
    {
      "icao": "EGPD",
      "iata": "ABZ",
      "name": "Aberdeen International Airport",
      "updatedAt": "090350Z",
      "visibility_m": 2300,
      "taf_visibility_m": null,
      "worst_visibility_m": 2300,
      "ceiling_ft": null,
      "hazards": [],
      "severityScore": 5,
      "metarRaw": "METAR EGPD 090350Z AUTO VRB01KT 2300 HZ NCD M06/M07 Q0998 TEMPO 9999 NSW",
      "tafRaw": null,
      "metarHtml": "METAR EGPD 090350Z AUTO VRB01KT 2300 HZ NCD M06/M07 Q0998 TEMPO 9999 NSW",
      "tafHtml": null
    },
    {
      "icao": "ENTC",
      "iata": "TOS",
      "name": "Tromsø Airport, Langnes",
      "updatedAt": "090350Z",
      "visibility_m": 10000,
      "taf_visibility_m": null,
      "worst_visibility_m": 10000,
      "ceiling_ft": null,
      "hazards": [],
      "severityScore": 5,
      "metarRaw": "METAR ENTC 090350Z AUTO 13003KT 9999 NCD M11/M17 Q1024 RMK WIND 2600FT 18026KT",
      "tafRaw": null,
      "metarHtml": "METAR ENTC 090350Z AUTO 13003KT 9999 NCD M11/M17 Q1024 RMK WIND 2600FT 18026KT",
      "tafHtml": null
    },
    {
      "icao": "ENVA",
      "iata": "TRD",
      "name": "Trondheim Airport, Værnes",
      "updatedAt": "090350Z",
      "visibility_m": 10000,
      "taf_visibility_m": null,
      "worst_visibility_m": 10000,
      "ceiling_ft": null,
      "hazards": [],
      "severityScore": 5,
      "metarRaw": "METAR ENVA 090350Z 09007KT 030V120 CAVOK M06/M14 Q1011 RMK WIND 670FT 16020KT",
      "tafRaw": null,
      "metarHtml": "METAR ENVA 090350Z 09007KT 030V120 <span class=\"hl-vis\">CAVOK</span> M06/M14 Q1011 RMK WIND 670FT 16020KT",
      "tafHtml": null
    },
    {
      "icao": "EPSC",
      "iata": "SZZ",
      "name": "Solidarity Szczecin–Goleniów Airport",
      "updatedAt": "090330Z",
      "visibility_m": 10000,
      "taf_visibility_m": null,
      "worst_visibility_m": 10000,
      "ceiling_ft": null,
      "hazards": [],
      "severityScore": 5,
      "metarRaw": "METAR EPSC 090330Z 10006KT CAVOK M10/M12 Q1008",
      "tafRaw": null,
      "metarHtml": "METAR EPSC 090330Z 10006KT <span class=\"hl-vis\">CAVOK</span> M10/M12 Q1008",
      "tafHtml": null
    },
    {
      "icao": "EYKA",
      "iata": "KUN",
      "name": "Kaunas International Airport",
      "updatedAt": "090350Z",
      "visibility_m": 10000,
      "taf_visibility_m": null,
      "worst_visibility_m": 10000,
      "ceiling_ft": null,
      "hazards": [],
      "severityScore": 5,
      "metarRaw": "METAR EYKA 090350Z 01015G25KT 330V050 9999 FEW016 M10/M13 Q1006",
      "tafRaw": null,
      "metarHtml": "METAR EYKA 090350Z 01015G25KT 330V050 9999 FEW016 M10/M13 Q1006",
      "tafHtml": null
    },
    {
      "icao": "LEBB",
      "iata": "BIO",
      "name": "Bilbao Airport",
      "updatedAt": "090330Z",
      "visibility_m": 10000,
      "taf_visibility_m": null,
      "worst_visibility_m": 10000,
      "ceiling_ft": null,
      "hazards": [],
      "severityScore": 5,
      "metarRaw": "METAR LEBB 090330Z AUTO 26005KT 210V290 9999 SCT038 12/07 Q1017",
      "tafRaw": null,
      "metarHtml": "METAR LEBB 090330Z AUTO 26005KT 210V290 9999 SCT038 12/07 Q1017",
      "tafHtml": null
    },
    {
      "icao": "LEBL",
      "iata": "BCN",
      "name": "Josep Tarradellas Barcelona-El Prat Airport",
      "updatedAt": "090330Z",
      "visibility_m": 10000,
      "taf_visibility_m": null,
      "worst_visibility_m": 10000,
      "ceiling_ft": null,
      "hazards": [],
      "severityScore": 5,
      "metarRaw": "METAR LEBL 090330Z 24008KT 210V280 9999 FEW025 13/04 Q1015 NOSIG",
      "tafRaw": null,
      "metarHtml": "METAR LEBL 090330Z 24008KT 210V280 9999 FEW025 13/04 Q1015 NOSIG",
      "tafHtml": null
    },
    {
      "icao": "LECH",
      "iata": "CDT",
      "name": "Castellón-Costa Azahar Airport",
      "updatedAt": "090330Z",
      "visibility_m": 10000,
      "taf_visibility_m": null,
      "worst_visibility_m": 10000,
      "ceiling_ft": null,
      "hazards": [],
      "severityScore": 5,
      "metarRaw": "METAR LECH 090330Z AUTO 22006KT CAVOK 11/00 Q1018",
      "tafRaw": null,
      "metarHtml": "METAR LECH 090330Z AUTO 22006KT <span class=\"hl-vis\">CAVOK</span> 11/00 Q1018",
      "tafHtml": null
    },
    {
      "icao": "LFLS",
      "iata": "GNB",
      "name": "Grenoble Alpes Isère Airport",
      "updatedAt": "090330Z",
      "visibility_m": 10000,
      "taf_visibility_m": null,
      "worst_visibility_m": 10000,
      "ceiling_ft": 5400,
      "hazards": [],
      "severityScore": 5,
      "metarRaw": "METAR LFLS 090330Z AUTO 20015KT 9999 FEW045 OVC054 09/04 Q1008",
      "tafRaw": null,
      "metarHtml": "METAR LFLS 090330Z AUTO 20015KT 9999 FEW045 OVC054 09/04 Q1008",
      "tafHtml": null
    },
    {
      "icao": "LHDC",
      "iata": "DEB",
      "name": "Debrecen International Airport",
      "updatedAt": null,
      "visibility_m": null,
      "taf_visibility_m": null,
      "worst_visibility_m": null,
      "ceiling_ft": null,
      "hazards": [],
      "severityScore": 5,
      "metarRaw": null,
      "tafRaw": null,
      "metarHtml": null,
      "tafHtml": null
    },
    {
      "icao": "BIKF",
      "iata": "KEF",
      "name": "Keflavik International Airport",
      "updatedAt": "090330Z",
      "visibility_m": 10000,
      "taf_visibility_m": 10000,
      "worst_visibility_m": 10000,
      "ceiling_ft": null,
      "hazards": [],
      "severityScore": 0,
      "metarRaw": "METAR BIKF 090330Z 02010KT CAVOK M02/M07 Q1005",
      "tafRaw": "TAF BIKF 090105Z 0903/1003 05015KT CAVOK TXM02/0903Z TNM07/1001Z \n  BECMG 0903/0905 05005KT",
      "metarHtml": "METAR BIKF 090330Z 02010KT <span class=\"hl-vis\">CAVOK</span> M02/M07 Q1005",
      "tafHtml": "TAF BIKF 090105Z 0903/1003 05015KT <span class=\"hl-vis\">CAVOK</span> TXM02/0903Z TNM07/1001Z \n  BECMG 0903/0905 05005KT"
    },
    {
      "icao": "GCFV",
      "iata": "FUE",
      "name": "Fuerteventura Airport",
      "updatedAt": "090330Z",
      "visibility_m": 10000,
      "taf_visibility_m": 10000,
      "worst_visibility_m": 10000,
      "ceiling_ft": null,
      "hazards": [],
      "severityScore": 0,
      "metarRaw": "METAR GCFV 090330Z AUTO 32007KT CAVOK 14/08 Q1030",
      "tafRaw": "TAF GCFV 090200Z 0903/1003 06010KT 9999 FEW025 TX20/0914Z TN14/0906Z \n  TEMPO 0903/0904 36005KT",
      "metarHtml": "METAR GCFV 090330Z AUTO 32007KT <span class=\"hl-vis\">CAVOK</span> 14/08 Q1030",
      "tafHtml": "TAF GCFV 090200Z 0903/1003 06010KT 9999 FEW025 TX20/0914Z TN14/0906Z \n  TEMPO 0903/0904 36005KT"
    },
    {
      "icao": "GCLP",
      "iata": "LPA",
      "name": "Gran Canaria Airport",
      "updatedAt": "090330Z",
      "visibility_m": 10000,
      "taf_visibility_m": 10000,
      "worst_visibility_m": 10000,
      "ceiling_ft": null,
      "hazards": [],
      "severityScore": 0,
      "metarRaw": "METAR GCLP 090330Z 32008KT 9999 FEW030 15/10 Q1029 NOSIG",
      "tafRaw": "TAF GCLP 090200Z 0903/1003 33008KT 9999 FEW030 TX20/0914Z TN14/0906Z \n  BECMG 0909/0911 05012KT",
      "metarHtml": "METAR GCLP 090330Z 32008KT 9999 FEW030 15/10 Q1029 NOSIG",
      "tafHtml": "TAF GCLP 090200Z 0903/1003 33008KT 9999 FEW030 TX20/0914Z TN14/0906Z \n  BECMG 0909/0911 05012KT"
    },
    {
      "icao": "GCTS",
      "iata": "TFS",
      "name": "Tenerife Sur Airport",
      "updatedAt": "090330Z",
      "visibility_m": 10000,
      "taf_visibility_m": 10000,
      "worst_visibility_m": 10000,
      "ceiling_ft": null,
      "hazards": [],
      "severityScore": 0,
      "metarRaw": "METAR GCTS 090330Z 05010KT CAVOK 16/11 Q1030 NOSIG",
      "tafRaw": "TAF GCTS 090200Z 0903/1003 03010KT 9999 FEW035 TX22/0914Z TN15/0906Z \n  PROB30 \n  TEMPO 0911/0918 09015G25KT \n  TEMPO 0912/0918 09015KT",
      "metarHtml": "METAR GCTS 090330Z 05010KT <span class=\"hl-vis\">CAVOK</span> 16/11 Q1030 NOSIG",
      "tafHtml": "TAF GCTS 090200Z 0903/1003 03010KT 9999 FEW035 TX22/0914Z TN15/0906Z \n  PROB30 \n  TEMPO 0911/0918 09015G25KT \n  TEMPO 0912/0918 09015KT"
    },
    {
      "icao": "GMAD",
      "iata": "AGA",
      "name": "Al Massira Airport",
      "updatedAt": "090330Z",
      "visibility_m": 10000,
      "taf_visibility_m": 10000,
      "worst_visibility_m": 10000,
      "ceiling_ft": null,
      "hazards": [],
      "severityScore": 0,
      "metarRaw": "METAR GMAD 090330Z 03005KT CAVOK 05/05 Q1030 NOSIG",
      "tafRaw": "TAF GMAD 082300Z 0900/1006 05005KT CAVOK \n  BECMG 0912/0914 28012KT \n  BECMG 0919/0922 18005KT",
      "metarHtml": "METAR GMAD 090330Z 03005KT <span class=\"hl-vis\">CAVOK</span> 05/05 Q1030 NOSIG",
      "tafHtml": "TAF GMAD 082300Z 0900/1006 05005KT <span class=\"hl-vis\">CAVOK</span> \n  BECMG 0912/0914 28012KT \n  BECMG 0919/0922 18005KT"
    },
    {
      "icao": "EKCH",
      "iata": "CPH",
      "name": "Copenhagen Kastrup Airport",
      "updatedAt": "090350Z",
      "visibility_m": 10000,
      "taf_visibility_m": 10000,
      "worst_visibility_m": 10000,
      "ceiling_ft": null,
      "hazards": [],
      "severityScore": 0,
      "metarRaw": "METAR EKCH 090350Z AUTO 10014KT 070V130 9999 BKN032/// M00/M05 Q1009 TEMPO 12015G28KT",
      "tafRaw": "TAF EKCH 090227Z 0903/1003 12018KT 9999 BKN020 \n  TEMPO 0903/0910 10018G28KT \n  TEMPO 0910/0918 09020G30KT \n  TEMPO 0918/0924 09020G35KT \n  TEMPO 1000/1003 07018G28KT",
      "metarHtml": "METAR EKCH 090350Z AUTO 10014KT 070V130 9999 BKN032/// M00/M05 Q1009 TEMPO 12015G28KT",
      "tafHtml": "TAF EKCH 090227Z 0903/1003 12018KT 9999 BKN020 \n  TEMPO 0903/0910 10018G28KT \n  TEMPO 0910/0918 09020G30KT \n  TEMPO 0918/0924 09020G35KT \n  TEMPO 1000/1003 07018G28KT"
    },
    {
      "icao": "ENAL",
      "iata": "AES",
      "name": "Ålesund Airport, Vigra",
      "updatedAt": "090350Z",
      "visibility_m": 10000,
      "taf_visibility_m": 10000,
      "worst_visibility_m": 10000,
      "ceiling_ft": null,
      "hazards": [],
      "severityScore": 0,
      "metarRaw": "METAR ENAL 090350Z AUTO 14013KT 9999 NCD M02/M08 Q1007",
      "tafRaw": "TAF ENAL 090200Z 0903/0912 16012KT CAVOK",
      "metarHtml": "METAR ENAL 090350Z AUTO 14013KT 9999 NCD M02/M08 Q1007",
      "tafHtml": "TAF ENAL 090200Z 0903/0912 16012KT <span class=\"hl-vis\">CAVOK</span>"
    },
    {
      "icao": "ENBR",
      "iata": "BGO",
      "name": "Bergen Airport, Flesland",
      "updatedAt": "090350Z",
      "visibility_m": 10000,
      "taf_visibility_m": 10000,
      "worst_visibility_m": 10000,
      "ceiling_ft": null,
      "hazards": [],
      "severityScore": 0,
      "metarRaw": "METAR ENBR 090350Z VRB02KT CAVOK M05/M14 Q1006 RMK WIND 1200FT 13010KT",
      "tafRaw": "TAF ENBR 082300Z 0900/0924 08005KT CAVOK",
      "metarHtml": "METAR ENBR 090350Z VRB02KT <span class=\"hl-vis\">CAVOK</span> M05/M14 Q1006 RMK WIND 1200FT 13010KT",
      "tafHtml": "TAF ENBR 082300Z 0900/0924 08005KT <span class=\"hl-vis\">CAVOK</span>"
    },
    {
      "icao": "ENHD",
      "iata": "HAU",
      "name": "Haugesund Airport, Karmøy",
      "updatedAt": "090350Z",
      "visibility_m": 10000,
      "taf_visibility_m": 10000,
      "worst_visibility_m": 10000,
      "ceiling_ft": null,
      "hazards": [],
      "severityScore": 0,
      "metarRaw": "METAR ENHD 090350Z AUTO 12006KT 9999 NCD 00/M05 Q1006",
      "tafRaw": "TAF ENHD 090200Z 0903/0912 12008KT 9999 FEW040",
      "metarHtml": "METAR ENHD 090350Z AUTO 12006KT 9999 NCD 00/M05 Q1006",
      "tafHtml": "TAF ENHD 090200Z 0903/0912 12008KT 9999 FEW040"
    },
    {
      "icao": "ENZV",
      "iata": "SVG",
      "name": "Stavanger Airport, Sola",
      "updatedAt": "090320Z",
      "visibility_m": 10000,
      "taf_visibility_m": 10000,
      "worst_visibility_m": 10000,
      "ceiling_ft": null,
      "hazards": [],
      "severityScore": 0,
      "metarRaw": "METAR ENZV 090320Z AUTO 12008KT 9999 BKN035/// 01/M06 Q1006",
      "tafRaw": "TAF ENZV 082300Z 0900/0924 10008KT CAVOK \n  PROB30 \n  TEMPO 0906/0915 12015G25KT",
      "metarHtml": "METAR ENZV 090320Z AUTO 12008KT 9999 BKN035/// 01/M06 Q1006",
      "tafHtml": "TAF ENZV 082300Z 0900/0924 10008KT <span class=\"hl-vis\">CAVOK</span> \n  PROB30 \n  TEMPO 0906/0915 12015G25KT"
    },
    {
      "icao": "ESGG",
      "iata": "GOT",
      "name": "Göteborg Landvetter Airport",
      "updatedAt": "090350Z",
      "visibility_m": 10000,
      "taf_visibility_m": 10000,
      "worst_visibility_m": 10000,
      "ceiling_ft": null,
      "hazards": [],
      "severityScore": 0,
      "metarRaw": "METAR ESGG 090350Z 10008KT 9999 SCT037 M06/M08 Q1011",
      "tafRaw": "TAF ESGG 090230Z 0903/1003 11008KT CAVOK \n  PROB40 0909/0913 BKN012",
      "metarHtml": "METAR ESGG 090350Z 10008KT 9999 SCT037 M06/M08 Q1011",
      "tafHtml": "TAF ESGG 090230Z 0903/1003 11008KT <span class=\"hl-vis\">CAVOK</span> \n  PROB40 0909/0913 BKN012"
    },
    {
      "icao": "ESMS",
      "iata": "MMX",
      "name": "Malmö Sturup Airport",
      "updatedAt": "090350Z",
      "visibility_m": 10000,
      "taf_visibility_m": 10000,
      "worst_visibility_m": 10000,
      "ceiling_ft": null,
      "hazards": [],
      "severityScore": 0,
      "metarRaw": "METAR ESMS 090350Z 11010KT 9999 FEW031 M02/M07 Q1008",
      "tafRaw": "TAF ESMS 090227Z 0903/1003 10014KT 9999 BKN025 \n  TEMPO 0911/0918 08018G30KT \n  TEMPO 0918/1003 08020G35KT",
      "metarHtml": "METAR ESMS 090350Z 11010KT 9999 FEW031 M02/M07 Q1008",
      "tafHtml": "TAF ESMS 090227Z 0903/1003 10014KT 9999 BKN025 \n  TEMPO 0911/0918 08018G30KT \n  TEMPO 0918/1003 08020G35KT"
    },
    {
      "icao": "EYPA",
      "iata": "PLQ",
      "name": "Palanga International Airport",
      "updatedAt": "090350Z",
      "visibility_m": 10000,
      "taf_visibility_m": 9000,
      "worst_visibility_m": 9000,
      "ceiling_ft": null,
      "hazards": [],
      "severityScore": 0,
      "metarRaw": "METAR EYPA 090350Z 02007KT CAVOK M11/M12 Q1012",
      "tafRaw": "TAF EYPA 082300Z 0900/0924 02010KT 9000 NSC \n  TEMPO 0906/0915 03015G25KT BKN015",
      "metarHtml": "METAR EYPA 090350Z 02007KT <span class=\"hl-vis\">CAVOK</span> M11/M12 Q1012",
      "tafHtml": "TAF EYPA 082300Z 0900/0924 02010KT 9000 NSC \n  TEMPO 0906/0915 03015G25KT BKN015"
    },
    {
      "icao": "HEGN",
      "iata": "HRG",
      "name": "Hurghada International Airport",
      "updatedAt": "090300Z",
      "visibility_m": 10000,
      "taf_visibility_m": 3000,
      "worst_visibility_m": 3000,
      "ceiling_ft": null,
      "hazards": [],
      "severityScore": 0,
      "metarRaw": "METAR HEGN 090300Z 27004KT CAVOK 16/06 Q1013 NOSIG",
      "tafRaw": "TAF HEGN 082300Z 0900/1006 28008KT CAVOK \n  BECMG 0906/0908 35015G30KT 6000 NSC \n  TEMPO 0907/0918 3000 SA",
      "metarHtml": "METAR HEGN 090300Z 27004KT <span class=\"hl-vis\">CAVOK</span> 16/06 Q1013 NOSIG",
      "tafHtml": "TAF HEGN 082300Z 0900/1006 28008KT <span class=\"hl-vis\">CAVOK</span> \n  BECMG 0906/0908 35015G30KT 6000 NSC \n  TEMPO 0907/0918 3000 SA"
    },
    {
      "icao": "HEMA",
      "iata": "RMF",
      "name": "Marsa Alam International Airport",
      "updatedAt": "090300Z",
      "visibility_m": 10000,
      "taf_visibility_m": 4000,
      "worst_visibility_m": 4000,
      "ceiling_ft": null,
      "hazards": [],
      "severityScore": 0,
      "metarRaw": "METAR HEMA 090300Z 24003KT CAVOK 16/13 Q1013 NOSIG",
      "tafRaw": "TAF HEMA 082300Z 0900/1006 27009KT 6000 NSC \n  TEMPO 0900/0912 4000 HZ",
      "metarHtml": "METAR HEMA 090300Z 24003KT <span class=\"hl-vis\">CAVOK</span> 16/13 Q1013 NOSIG",
      "tafHtml": "TAF HEMA 082300Z 0900/1006 27009KT 6000 NSC \n  TEMPO 0900/0912 4000 HZ"
    },
    {
      "icao": "HESH",
      "iata": "SSH",
      "name": "Sharm El Sheikh International Airport",
      "updatedAt": "090300Z",
      "visibility_m": 10000,
      "taf_visibility_m": 3000,
      "worst_visibility_m": 3000,
      "ceiling_ft": null,
      "hazards": [],
      "severityScore": 0,
      "metarRaw": "METAR HESH 090300Z 00000KT CAVOK 19/17 Q1013 NOSIG",
      "tafRaw": "TAF HESH 082300Z 0900/1006 28007KT CAVOK \n  BECMG 0906/0908 36010G22KT 6000 NSC \n  TEMPO 0907/0918 3000 SA",
      "metarHtml": "METAR HESH 090300Z 00000KT <span class=\"hl-vis\">CAVOK</span> 19/17 Q1013 NOSIG",
      "tafHtml": "TAF HESH 082300Z 0900/1006 28007KT <span class=\"hl-vis\">CAVOK</span> \n  BECMG 0906/0908 36010G22KT 6000 NSC \n  TEMPO 0907/0918 3000 SA"
    },
    {
      "icao": "LBPD",
      "iata": "PDV",
      "name": "Plovdiv International Airport",
      "updatedAt": "090330Z",
      "visibility_m": 10000,
      "taf_visibility_m": 10000,
      "worst_visibility_m": 10000,
      "ceiling_ft": null,
      "hazards": [],
      "severityScore": 0,
      "metarRaw": "METAR LBPD 090330Z AUTO 28016KT 9999 NCD 01/M10 Q1009",
      "tafRaw": "TAF LBPD 082300Z 0900/0924 29020G30KT 9999 SCT050 \n  BECMG 0904/0906 29010KT \n  BECMG 0910/0912 VRB03KT",
      "metarHtml": "METAR LBPD 090330Z AUTO 28016KT 9999 NCD 01/M10 Q1009",
      "tafHtml": "TAF LBPD 082300Z 0900/0924 29020G30KT 9999 SCT050 \n  BECMG 0904/0906 29010KT \n  BECMG 0910/0912 VRB03KT"
    },
    {
      "icao": "LBWN",
      "iata": "VAR",
      "name": "Varna Airport",
      "updatedAt": "090330Z",
      "visibility_m": 10000,
      "taf_visibility_m": 10000,
      "worst_visibility_m": 10000,
      "ceiling_ft": null,
      "hazards": [],
      "severityScore": 0,
      "metarRaw": "METAR LBWN 090330Z AUTO 27024KT 9999 NSC M03/M07 Q1006 NOSIG",
      "tafRaw": "TAF LBWN 082300Z 0900/0924 28025G35KT 9999 SCT020 BKN045 \n  BECMG 0906/0908 28018KT \n  BECMG 0913/0914 28008KT \n  BECMG 0915/0917 VRB03KT",
      "metarHtml": "METAR LBWN 090330Z AUTO 27024KT 9999 NSC M03/M07 Q1006 NOSIG",
      "tafHtml": "TAF LBWN 082300Z 0900/0924 28025G35KT 9999 SCT020 BKN045 \n  BECMG 0906/0908 28018KT \n  BECMG 0913/0914 28008KT \n  BECMG 0915/0917 VRB03KT"
    },
    {
      "icao": "LEAL",
      "iata": "ALC",
      "name": "Alicante-Elche Miguel Hernández Airport",
      "updatedAt": "090330Z",
      "visibility_m": 10000,
      "taf_visibility_m": 10000,
      "worst_visibility_m": 10000,
      "ceiling_ft": null,
      "hazards": [],
      "severityScore": 0,
      "metarRaw": "METAR LEAL 090330Z 30019KT CAVOK 12/04 Q1022 NOSIG",
      "tafRaw": "TAF LEAL 082300Z 0900/0924 25008KT CAVOK TX18/0914Z TN10/0906Z \n  TEMPO 0900/0906 27015KT \n  TEMPO 0900/0904 27020G30KT \n  BECMG 0911/0913 29016KT \n  TEMPO 0912/0916 29018G28KT \n  TEMPO 0919/0924 25006KT",
      "metarHtml": "METAR LEAL 090330Z 30019KT <span class=\"hl-vis\">CAVOK</span> 12/04 Q1022 NOSIG",
      "tafHtml": "TAF LEAL 082300Z 0900/0924 25008KT <span class=\"hl-vis\">CAVOK</span> TX18/0914Z TN10/0906Z \n  TEMPO 0900/0906 27015KT \n  TEMPO 0900/0904 27020G30KT \n  BECMG 0911/0913 29016KT \n  TEMPO 0912/0916 29018G28KT \n  TEMPO 0919/0924 25006KT"
    },
    {
      "icao": "LEMG",
      "iata": "AGP",
      "name": "Málaga-Costa del Sol Airport",
      "updatedAt": "090330Z",
      "visibility_m": 10000,
      "taf_visibility_m": 10000,
      "worst_visibility_m": 10000,
      "ceiling_ft": null,
      "hazards": [],
      "severityScore": 0,
      "metarRaw": "METAR LEMG 090330Z 29023KT 9999 FEW025 09/05 Q1028 NOSIG",
      "tafRaw": "TAF LEMG 082300Z 0900/0924 29015KT CAVOK TX18/0914Z TN08/0906Z \n  PROB40 \n  TEMPO 0900/0906 29017G30KT",
      "metarHtml": "METAR LEMG 090330Z 29023KT 9999 FEW025 09/05 Q1028 NOSIG",
      "tafHtml": "TAF LEMG 082300Z 0900/0924 29015KT <span class=\"hl-vis\">CAVOK</span> TX18/0914Z TN08/0906Z \n  PROB40 \n  TEMPO 0900/0906 29017G30KT"
    },
    {
      "icao": "LEVC",
      "iata": "VLC",
      "name": "Valencia Airport",
      "updatedAt": "090330Z",
      "visibility_m": 10000,
      "taf_visibility_m": 10000,
      "worst_visibility_m": 10000,
      "ceiling_ft": null,
      "hazards": [],
      "severityScore": 0,
      "metarRaw": "METAR LEVC 090330Z 25014G24KT 210V280 CAVOK 11/04 Q1021 NOSIG",
      "tafRaw": "TAF LEVC 082300Z 0900/0924 27015KT CAVOK TX18/0914Z TN09/0906Z \n  TEMPO 0900/0904 27018G28KT \n  PROB30 \n  TEMPO 0900/0903 27030G40KT \n  TEMPO 0902/0909 VRB04KT \n  TEMPO 0909/0916 27020G30KT \n  PROB30 \n  TEMPO 0909/0913 27030G40KT",
      "metarHtml": "METAR LEVC 090330Z 25014G24KT 210V280 <span class=\"hl-vis\">CAVOK</span> 11/04 Q1021 NOSIG",
      "tafHtml": "TAF LEVC 082300Z 0900/0924 27015KT <span class=\"hl-vis\">CAVOK</span> TX18/0914Z TN09/0906Z \n  TEMPO 0900/0904 27018G28KT \n  PROB30 \n  TEMPO 0900/0903 27030G40KT \n  TEMPO 0902/0909 VRB04KT \n  TEMPO 0909/0916 27020G30KT \n  PROB30 \n  TEMPO 0909/0913 27030G40KT"
    },
    {
      "icao": "LFMN",
      "iata": "NCE",
      "name": "Nice-Côte d'Azur Airport",
      "updatedAt": "090330Z",
      "visibility_m": 10000,
      "taf_visibility_m": 10000,
      "worst_visibility_m": 10000,
      "ceiling_ft": null,
      "hazards": [],
      "severityScore": 0,
      "metarRaw": "METAR LFMN 090330Z 24006KT CAVOK 12/06 Q1007 NOSIG",
      "tafRaw": "TAF LFMN 090200Z 0903/1009 33010KT CAVOK \n  BECMG 0903/0905 24020KT \n  PROB40 \n  TEMPO 0903/0918 24025G35KT \n  BECMG 0920/0922 24015KT \n  TEMPO 0922/1009 30012KT",
      "metarHtml": "METAR LFMN 090330Z 24006KT <span class=\"hl-vis\">CAVOK</span> 12/06 Q1007 NOSIG",
      "tafHtml": "TAF LFMN 090200Z 0903/1009 33010KT <span class=\"hl-vis\">CAVOK</span> \n  BECMG 0903/0905 24020KT \n  PROB40 \n  TEMPO 0903/0918 24025G35KT \n  BECMG 0920/0922 24015KT \n  TEMPO 0922/1009 30012KT"
    },
    {
      "icao": "LGTS",
      "iata": "SKG",
      "name": "Thessaloniki Macedonia International Airport",
      "updatedAt": "090350Z",
      "visibility_m": 10000,
      "taf_visibility_m": 10000,
      "worst_visibility_m": 10000,
      "ceiling_ft": null,
      "hazards": [],
      "severityScore": 0,
      "metarRaw": "METAR LGTS 090350Z 33014KT 9999 FEW025 04/M07 Q1013 NOSIG",
      "tafRaw": "TAF LGTS 082300Z 0900/0924 31015KT 9999 FEW025 \n  TEMPO 0900/0903 31015G25KT \n  BECMG 0907/0909 VRB03KT",
      "metarHtml": "METAR LGTS 090350Z 33014KT 9999 FEW025 04/M07 Q1013 NOSIG",
      "tafHtml": "TAF LGTS 082300Z 0900/0924 31015KT 9999 FEW025 \n  TEMPO 0900/0903 31015G25KT \n  BECMG 0907/0909 VRB03KT"
    },
    {
      "icao": "LIBG",
      "iata": "TAR",
      "name": "Taranto-Grottaglie Marcello Arlotta Airport",
      "updatedAt": null,
      "visibility_m": null,
      "taf_visibility_m": 10000,
      "worst_visibility_m": 10000,
      "ceiling_ft": null,
      "hazards": [],
      "severityScore": 0,
      "metarRaw": null,
      "tafRaw": "TAF LIBG 081700Z 0818/0903 32008KT 9999 FEW040",
      "metarHtml": null,
      "tafHtml": "TAF LIBG 081700Z 0818/0903 32008KT 9999 FEW040"
    },
    {
      "icao": "LIBP",
      "iata": "PSR",
      "name": "Abruzzo Airport",
      "updatedAt": "090350Z",
      "visibility_m": 10000,
      "taf_visibility_m": 10000,
      "worst_visibility_m": 10000,
      "ceiling_ft": null,
      "hazards": [],
      "severityScore": 0,
      "metarRaw": "METAR LIBP 090350Z AUTO 02003KT 9999 SCT120/// 06/02 Q1008",
      "tafRaw": "TAF LIBP 082300Z 0900/0924 VRB05KT 9999 FEW030 \n  BECMG 0904/0906 24010KT \n  TEMPO 0910/0918 24015G30KT",
      "metarHtml": "METAR LIBP 090350Z AUTO 02003KT 9999 SCT120/// 06/02 Q1008",
      "tafHtml": "TAF LIBP 082300Z 0900/0924 VRB05KT 9999 FEW030 \n  BECMG 0904/0906 24010KT \n  TEMPO 0910/0918 24015G30KT"
    },
    {
      "icao": "LICC",
      "iata": "CTA",
      "name": "Catania-Fontanarossa Airport",
      "updatedAt": "090350Z",
      "visibility_m": 10000,
      "taf_visibility_m": 10000,
      "worst_visibility_m": 10000,
      "ceiling_ft": null,
      "hazards": [],
      "severityScore": 0,
      "metarRaw": "METAR LICC 090350Z 24013KT 9999 SCT050 12/08 Q1018",
      "tafRaw": "TAF LICC 082300Z 0900/0924 26013KT 9999 FEW050 \n  TEMPO 0909/0918 26018G30KT",
      "metarHtml": "METAR LICC 090350Z 24013KT 9999 SCT050 12/08 Q1018",
      "tafHtml": "TAF LICC 082300Z 0900/0924 26013KT 9999 FEW050 \n  TEMPO 0909/0918 26018G30KT"
    },
    {
      "icao": "LIMF",
      "iata": "TRN",
      "name": "Turin Airport",
      "updatedAt": "090350Z",
      "visibility_m": 10000,
      "taf_visibility_m": 9000,
      "worst_visibility_m": 9000,
      "ceiling_ft": null,
      "hazards": [],
      "severityScore": 0,
      "metarRaw": "METAR LIMF 090350Z AUTO 07003KT 9999 OVC031/// 00/M05 Q1007",
      "tafRaw": "TAF LIMF 082300Z 0900/0924 VRB03KT 9000 BKN030",
      "metarHtml": "METAR LIMF 090350Z AUTO 07003KT 9999 OVC031/// 00/M05 Q1007",
      "tafHtml": "TAF LIMF 082300Z 0900/0924 VRB03KT 9000 BKN030"
    },
    {
      "icao": "LIMJ",
      "iata": "GOA",
      "name": "Genoa Cristoforo Colombo Airport",
      "updatedAt": "090350Z",
      "visibility_m": 10000,
      "taf_visibility_m": 10000,
      "worst_visibility_m": 10000,
      "ceiling_ft": 2800,
      "hazards": [],
      "severityScore": 0,
      "metarRaw": "METAR LIMJ 090350Z 10009KT 9999 FEW018 BKN028 11/07 Q1006",
      "tafRaw": "TAF LIMJ 082300Z 0900/0924 03008KT 9999 BKN030",
      "metarHtml": "METAR LIMJ 090350Z 10009KT 9999 FEW018 BKN028 11/07 Q1006",
      "tafHtml": "TAF LIMJ 082300Z 0900/0924 03008KT 9999 BKN030"
    },
    {
      "icao": "LIPH",
      "iata": "TSF",
      "name": "Treviso Antonio Canova Airport",
      "updatedAt": "090350Z",
      "visibility_m": 10000,
      "taf_visibility_m": 10000,
      "worst_visibility_m": 10000,
      "ceiling_ft": null,
      "hazards": [],
      "severityScore": 0,
      "metarRaw": "METAR LIPH 090350Z AUTO VRB02KT 9999 SCT031/// BKN053/// BKN130/// M00/M05 Q1008",
      "tafRaw": "TAF LIPH 082300Z 0900/0924 VRB05KT CAVOK",
      "metarHtml": "METAR LIPH 090350Z AUTO VRB02KT 9999 SCT031/// BKN053/// BKN130/// M00/M05 Q1008",
      "tafHtml": "TAF LIPH 082300Z 0900/0924 VRB05KT <span class=\"hl-vis\">CAVOK</span>"
    },
    {
      "icao": "LIPY",
      "iata": "AOI",
      "name": "Marche Airport",
      "updatedAt": "090350Z",
      "visibility_m": 10000,
      "taf_visibility_m": 10000,
      "worst_visibility_m": 10000,
      "ceiling_ft": null,
      "hazards": [],
      "severityScore": 0,
      "metarRaw": "METAR LIPY 090350Z AUTO VRB02KT 9999 OVC056/// 05/00 Q1007",
      "tafRaw": "TAF LIPY 082300Z 0900/0924 VRB05KT 9999 SCT030 \n  BECMG 0910/0912 24015KT \n  TEMPO 0915/0918 24015G25KT",
      "metarHtml": "METAR LIPY 090350Z AUTO VRB02KT 9999 OVC056/// 05/00 Q1007",
      "tafHtml": "TAF LIPY 082300Z 0900/0924 VRB05KT 9999 SCT030 \n  BECMG 0910/0912 24015KT \n  TEMPO 0915/0918 24015G25KT"
    },
    {
      "icao": "LIPZ",
      "iata": "VCE",
      "name": "Venice Marco Polo Airport",
      "updatedAt": "090350Z",
      "visibility_m": 10000,
      "taf_visibility_m": 10000,
      "worst_visibility_m": 10000,
      "ceiling_ft": 2500,
      "hazards": [],
      "severityScore": 0,
      "metarRaw": "METAR LIPZ 090350Z 01007KT 9999 BKN025 M00/M05 Q1009 NOSIG",
      "tafRaw": "TAF LIPZ 082300Z 0900/1006 VRB05KT CAVOK",
      "metarHtml": "METAR LIPZ 090350Z 01007KT 9999 BKN025 M00/M05 Q1009 NOSIG",
      "tafHtml": "TAF LIPZ 082300Z 0900/1006 VRB05KT <span class=\"hl-vis\">CAVOK</span>"
    },
    {
      "icao": "LMML",
      "iata": "MLA",
      "name": "Malta International Airport",
      "updatedAt": "090345Z",
      "visibility_m": 10000,
      "taf_visibility_m": 10000,
      "worst_visibility_m": 10000,
      "ceiling_ft": null,
      "hazards": [],
      "severityScore": 0,
      "metarRaw": "METAR LMML 090345Z 27018G30KT 9999 FEW019 14/10 Q1023 NOSIG",
      "tafRaw": "TAF LMML 082300Z 0900/0924 27018KT 9999 FEW025 \n  TEMPO 0900/0916 27020G30KT",
      "metarHtml": "METAR LMML 090345Z 27018G30KT 9999 FEW019 14/10 Q1023 NOSIG",
      "tafHtml": "TAF LMML 082300Z 0900/0924 27018KT 9999 FEW025 \n  TEMPO 0900/0916 27020G30KT"
    },
    {
      "icao": "LRIA",
      "iata": "IAS",
      "name": "Iaşi Airport",
      "updatedAt": "090330Z",
      "visibility_m": 10000,
      "taf_visibility_m": 10000,
      "worst_visibility_m": 10000,
      "ceiling_ft": 4600,
      "hazards": [],
      "severityScore": 0,
      "metarRaw": "METAR LRIA 090330Z 26007KT 220V300 9999 OVC046 M03/M07 Q1000",
      "tafRaw": "TAF LRIA 090200Z 0903/0912 26006KT 9999 OVC040",
      "metarHtml": "METAR LRIA 090330Z 26007KT 220V300 9999 OVC046 M03/M07 Q1000",
      "tafHtml": "TAF LRIA 090200Z 0903/0912 26006KT 9999 OVC040"
    },
    {
      "icao": "LRCV",
      "iata": "CRA",
      "name": "Craiova International Airport",
      "updatedAt": "090330Z",
      "visibility_m": 10000,
      "taf_visibility_m": 10000,
      "worst_visibility_m": 10000,
      "ceiling_ft": null,
      "hazards": [],
      "severityScore": 0,
      "metarRaw": "METAR LRCV 090330Z 29010KT CAVOK M06/M09 Q1008",
      "tafRaw": "TAF LRCV 090200Z 0903/0912 28012KT CAVOK",
      "metarHtml": "METAR LRCV 090330Z 29010KT <span class=\"hl-vis\">CAVOK</span> M06/M09 Q1008",
      "tafHtml": "TAF LRCV 090200Z 0903/0912 28012KT <span class=\"hl-vis\">CAVOK</span>"
    },
    {
      "icao": "LRSV",
      "iata": "SCV",
      "name": "Suceava Stefan cel Mare Airport",
      "updatedAt": "090330Z",
      "visibility_m": 10000,
      "taf_visibility_m": 10000,
      "worst_visibility_m": 10000,
      "ceiling_ft": 4400,
      "hazards": [],
      "severityScore": 0,
      "metarRaw": "METAR LRSV 090330Z 28013KT 9999 BKN044 M04/M10 Q0997",
      "tafRaw": "TAF LRSV 090200Z 0903/0912 29012KT 9999 BKN045 \n  PROB40 \n  TEMPO 0903/0906 29015G25KT",
      "metarHtml": "METAR LRSV 090330Z 28013KT 9999 BKN044 M04/M10 Q0997",
      "tafHtml": "TAF LRSV 090200Z 0903/0912 29012KT 9999 BKN045 \n  PROB40 \n  TEMPO 0903/0906 29015G25KT"
    },
    {
      "icao": "LTFM",
      "iata": "IST",
      "name": "İstanbul Airport",
      "updatedAt": "090350Z",
      "visibility_m": 10000,
      "taf_visibility_m": 10000,
      "worst_visibility_m": 10000,
      "ceiling_ft": null,
      "hazards": [],
      "severityScore": 0,
      "metarRaw": "METAR LTFM 090350Z VRB07G18KT 9999 FEW035 SCT080 00/M03 Q1009 NOSIG RMK RWY17L 25007KT 100V260 RWY34L 26007KT RWY16R 25006KT RWY36 27007KT RWY18 27008KT",
      "tafRaw": "TAF LTFM 082240Z 0900/1006 26008KT 9999 FEW035 BKN080 \n  BECMG 0905/0908 26015G25KT \n  BECMG 0915/0918 19018G28KT BKN035 BKN080 \n  BECMG 0922/1001 BKN025 BKN080",
      "metarHtml": "METAR LTFM 090350Z VRB07G18KT 9999 FEW035 SCT080 00/M03 Q1009 NOSIG RMK RWY17L 25007KT 100V260 RWY34L 26007KT RWY16R 25006KT RWY36 27007KT RWY18 27008KT",
      "tafHtml": "TAF LTFM 082240Z 0900/1006 26008KT 9999 FEW035 BKN080 \n  BECMG 0905/0908 26015G25KT \n  BECMG 0915/0918 19018G28KT BKN035 BKN080 \n  BECMG 0922/1001 BKN025 BKN080"
    },
    {
      "icao": "OEMA",
      "iata": "MED",
      "name": "Prince Mohammad Bin Abdulaziz Airport",
      "updatedAt": "090300Z",
      "visibility_m": 10000,
      "taf_visibility_m": 3000,
      "worst_visibility_m": 3000,
      "ceiling_ft": null,
      "hazards": [],
      "severityScore": 0,
      "metarRaw": "METAR OEMA 090300Z 04009KT CAVOK 14/M03 Q1020 NOSIG",
      "tafRaw": "TAF OEMA 082300Z 0900/1006 09006KT CAVOK \n  BECMG 0908/0910 25018KT 7000 FEW045 \n  PROB30 \n  TEMPO 0908/0918 3000 BLDU \n  BECMG 0918/0920 35006KT SCT045",
      "metarHtml": "METAR OEMA 090300Z 04009KT <span class=\"hl-vis\">CAVOK</span> 14/M03 Q1020 NOSIG",
      "tafHtml": "TAF OEMA 082300Z 0900/1006 09006KT <span class=\"hl-vis\">CAVOK</span> \n  BECMG 0908/0910 25018KT 7000 FEW045 \n  PROB30 \n  TEMPO 0908/0918 3000 BLDU \n  BECMG 0918/0920 35006KT SCT045"
    },
    {
      "icao": "OMAA",
      "iata": "AUH",
      "name": "Zayed International Airport",
      "updatedAt": "090300Z",
      "visibility_m": 10000,
      "taf_visibility_m": 10000,
      "worst_visibility_m": 10000,
      "ceiling_ft": null,
      "hazards": [],
      "severityScore": 0,
      "metarRaw": "METAR OMAA 090300Z 16003KT CAVOK 16/12 Q1019 NOSIG",
      "tafRaw": "TAF OMAA 082300Z 0900/1006 VRB02KT CAVOK \n  BECMG 0908/0910 33009KT \n  BECMG 0918/0920 VRB02KT",
      "metarHtml": "METAR OMAA 090300Z 16003KT <span class=\"hl-vis\">CAVOK</span> 16/12 Q1019 NOSIG",
      "tafHtml": "TAF OMAA 082300Z 0900/1006 VRB02KT <span class=\"hl-vis\">CAVOK</span> \n  BECMG 0908/0910 33009KT \n  BECMG 0918/0920 VRB02KT"
    },
    {
      "icao": "OMDB",
      "iata": "DXB",
      "name": "Dubai International Airport",
      "updatedAt": "090330Z",
      "visibility_m": 10000,
      "taf_visibility_m": 10000,
      "worst_visibility_m": 10000,
      "ceiling_ft": null,
      "hazards": [],
      "severityScore": 0,
      "metarRaw": "METAR OMDB 090330Z 17004KT 110V190 CAVOK 17/11 Q1019 NOSIG",
      "tafRaw": "TAF OMDB 082300Z 0900/1006 10005KT CAVOK \n  BECMG 0908/0910 33010KT \n  BECMG 0916/0918 09005KT",
      "metarHtml": "METAR OMDB 090330Z 17004KT 110V190 <span class=\"hl-vis\">CAVOK</span> 17/11 Q1019 NOSIG",
      "tafHtml": "TAF OMDB 082300Z 0900/1006 10005KT <span class=\"hl-vis\">CAVOK</span> \n  BECMG 0908/0910 33010KT \n  BECMG 0916/0918 09005KT"
    }
  ],
  "stats": {
    "icaoCount": 159,
    "metarReturned": 154,
    "tafReturned": 143,
    "stationsWritten": 159,
    "missingMetar": 5,
    "missingTaf": 16
  },
  "errors": []
}