{
  "generatedAt": "2026-01-09T09:37:54.993Z",
  "stations": [
    {
      "icao": "EBCI",
      "iata": "CRL",
      "name": "Brussels South Charleroi Airport",
      "updatedAt": "090920Z",
      "visibility_m": 4000,
      "taf_visibility_m": 400,
      "worst_visibility_m": 400,
      "ceiling_ft": 900,
      "hazards": [
        "RA",
        "FZFG",
        "SN"
      ],
      "severityScore": 100,
      "metarRaw": "METAR EBCI 090920Z 22024KT 9999 -RA FEW008 BKN009 03/01 Q0982 WS R24 TEMPO 22020G40KT 4000 MODRASN",
      "tafRaw": "TAF EBCI 090500Z 0906/1012 21020G35KT 6000 -RA SCT003 BKN005 \n  PROB40 \n  TEMPO 0906/0909 21028G45KT \n  PROB40 \n  TEMPO 0909/0912 25028G45KT \n  PROB40 0906/0919 2000 -RA RADZ BKN003 \n  BECMG 0916/0919 26018G32KT \n  PROB40 \n  TEMPO 0907/0919 1400 RASN SNRA BKN002 \n  PROB30 \n  TEMPO 0913/0917 SN \n  PROB40 \n  TEMPO 0919/0922 0800 SNRA BKN002 \n  BECMG 0922/0924 32012KT 1200 -SN BKN002 \n  PROB40 1001/1012 0400 FZFG SN BKN001",
      "metarHtml": "METAR EBCI 090920Z 22024KT 9999 -<span class=\"hl\">RA</span> FEW008 BKN009 03/01 Q0982 WS R24 TEMPO 22020G40KT 4000 MODRASN",
      "tafHtml": "TAF EBCI 090500Z 0906/1012 21020G35KT 6000 -<span class=\"hl\">RA</span> SCT003 BKN005 \n  PROB40 \n  TEMPO 0906/0909 21028G45KT \n  PROB40 \n  TEMPO 0909/0912 25028G45KT \n  PROB40 0906/0919 2000 -<span class=\"hl\">RA</span> RADZ BKN003 \n  BECMG 0916/0919 26018G32KT \n  PROB40 \n  TEMPO 0907/0919 1400 RASN SNRA BKN002 \n  PROB30 \n  TEMPO 0913/0917 <span class=\"hl\">SN</span> \n  PROB40 \n  TEMPO 0919/0922 <span class=\"hl-vis\">0800</span> SNRA BKN002 \n  BECMG 0922/0924 32012KT 1200 -<span class=\"hl\">SN</span> BKN002 \n  PROB40 1001/1012 <span class=\"hl-vis\">0400</span> <span class=\"hl\">FZFG</span> <span class=\"hl\">SN</span> BKN001"
    },
    {
      "icao": "EDDH",
      "iata": "HAM",
      "name": "Hamburg Helmut Schmidt Airport",
      "updatedAt": "090920Z",
      "visibility_m": 700,
      "taf_visibility_m": 800,
      "worst_visibility_m": 700,
      "ceiling_ft": 100,
      "hazards": [
        "SN",
        "BLSN"
      ],
      "severityScore": 100,
      "metarRaw": "METAR EDDH 090920Z AUTO 09020G32KT 0900 0700 R05/1400D R15/1500D +SN BKN004 M04/M06 Q0997 TEMPO 0900 -SN BLSN BKN001",
      "tafRaw": "TAF EDDH 090500Z 0906/1012 09015G25KT 9999 BKN015 \n  TEMPO 0906/0921 08020G35KT 0800 BLSN \n  PROB40 \n  TEMPO 0906/0918 3500 -SN DRSN BKN007 \n  PROB30 \n  TEMPO 0907/0913 2000 SN BKN004 \n  PROB30 \n  TEMPO 0921/1005 4500 DRSN \n  BECMG 1005/1008 07011KT \n  BECMG 1009/1012 06006KT",
      "metarHtml": "METAR EDDH 090920Z AUTO 09020G32KT 0900 <span class=\"hl-vis\">0700</span> R05/1400D R15/1500D +<span class=\"hl\">SN</span> BKN004 M04/M06 Q0997 TEMPO 0900 -<span class=\"hl\">SN</span> <span class=\"hl\">BLSN</span> BKN001",
      "tafHtml": "TAF EDDH 090500Z 0906/1012 09015G25KT 9999 BKN015 \n  TEMPO 0906/0921 08020G35KT <span class=\"hl-vis\">0800</span> <span class=\"hl\">BLSN</span> \n  PROB40 \n  TEMPO 0906/0918 3500 -<span class=\"hl\">SN</span> DRSN BKN007 \n  PROB30 \n  TEMPO 0907/0913 2000 <span class=\"hl\">SN</span> BKN004 \n  PROB30 \n  TEMPO 0921/1005 4500 DRSN \n  BECMG 1005/1008 07011KT \n  BECMG 1009/1012 06006KT"
    },
    {
      "icao": "LQBK",
      "iata": "BNX",
      "name": "Banja Luka International Airport",
      "updatedAt": "090930Z",
      "visibility_m": 10000,
      "taf_visibility_m": 500,
      "worst_visibility_m": 500,
      "ceiling_ft": null,
      "hazards": [
        "FZFG",
        "FZRA"
      ],
      "severityScore": 100,
      "metarRaw": "METAR LQBK 090930Z 00000KT CAVOK M06/M07 Q1005 NOSIG",
      "tafRaw": "TAF LQBK 090500Z 0906/1006 15005KT 9999 SCT040 TX01/0913Z TNM10/0906Z \n  PROB40 0913/0924 5000 FZRA BKN014 BKN030 \n  PROB40 \n  TEMPO 1000/1006 0500 FZFG BKN003 OVC012",
      "metarHtml": "METAR LQBK 090930Z 00000KT <span class=\"hl-vis\">CAVOK</span> M06/M07 Q1005 NOSIG",
      "tafHtml": "TAF LQBK 090500Z 0906/1006 15005KT 9999 SCT040 TX01/0913Z TNM10/0906Z \n  PROB40 0913/0924 5000 <span class=\"hl\">FZRA</span> BKN014 BKN030 \n  PROB40 \n  TEMPO 1000/1006 <span class=\"hl-vis\">0500</span> <span class=\"hl\">FZFG</span> BKN003 OVC012"
    },
    {
      "icao": "UDSG",
      "iata": "LWN",
      "name": "Shirak International Airport",
      "updatedAt": "090930Z",
      "visibility_m": 5000,
      "taf_visibility_m": 200,
      "worst_visibility_m": 200,
      "ceiling_ft": 3600,
      "hazards": [
        "BR",
        "FZFG",
        "SN"
      ],
      "severityScore": 100,
      "metarRaw": "METAR UDSG 090930Z 10003KT 070V140 5000 BR OVC036 M01/M04 Q1007 NOSIG",
      "tafRaw": "TAF UDSG 090500Z 0906/1006 VRB06KT 1200 BR OVC020 \n  TEMPO 0906/0918 35016KT 0200 SN FZFG VV002",
      "metarHtml": "METAR UDSG 090930Z 10003KT 070V140 5000 <span class=\"hl\">BR</span> OVC036 M01/M04 Q1007 NOSIG",
      "tafHtml": "TAF UDSG 090500Z 0906/1006 VRB06KT 1200 <span class=\"hl\">BR</span> OVC020 \n  TEMPO 0906/0918 35016KT <span class=\"hl-vis\">0200</span> <span class=\"hl\">SN</span> <span class=\"hl\">FZFG</span> VV002"
    },
    {
      "icao": "EYVI",
      "iata": "VNO",
      "name": "Vilnius International Airport",
      "updatedAt": "090920Z",
      "visibility_m": 800,
      "taf_visibility_m": 500,
      "worst_visibility_m": 500,
      "ceiling_ft": 1200,
      "hazards": [
        "SN",
        "BLSN",
        "BR"
      ],
      "severityScore": 97,
      "metarRaw": "METAR EYVI 090920Z 01017KT 0800 R01/0900N +SN BLSN OVC012 M11/M14 Q0999 NOSIG",
      "tafRaw": "TAF EYVI 090500Z 0906/1006 02015KT 1500 SN BLSN SCT010 OVC015 \n  TEMPO 0906/0912 01018G28KT 0500 +SN BKN005 OVC010 \n  TEMPO 0912/0916 3000 BKN010 \n  BECMG 0916/0919 01005KT 5000 -SN BR BKN010 OVC015 \n  TEMPO 0919/1006 3000 SN BKN005",
      "metarHtml": "METAR EYVI 090920Z 01017KT <span class=\"hl-vis\">0800</span> R01/0900N +<span class=\"hl\">SN</span> <span class=\"hl\">BLSN</span> OVC012 M11/M14 Q0999 NOSIG",
      "tafHtml": "TAF EYVI 090500Z 0906/1006 02015KT 1500 <span class=\"hl\">SN</span> <span class=\"hl\">BLSN</span> SCT010 OVC015 \n  TEMPO 0906/0912 01018G28KT <span class=\"hl-vis\">0500</span> +<span class=\"hl\">SN</span> BKN005 OVC010 \n  TEMPO 0912/0916 3000 BKN010 \n  BECMG 0916/0919 01005KT 5000 -<span class=\"hl\">SN</span> <span class=\"hl\">BR</span> BKN010 OVC015 \n  TEMPO 0919/1006 3000 <span class=\"hl\">SN</span> BKN005"
    },
    {
      "icao": "LEMD",
      "iata": "MAD",
      "name": "Adolfo Suárez Madrid–Barajas Airport",
      "updatedAt": "090930Z",
      "visibility_m": 10000,
      "taf_visibility_m": 200,
      "worst_visibility_m": 200,
      "ceiling_ft": null,
      "hazards": [
        "FG",
        "BR",
        "DZ"
      ],
      "severityScore": 95,
      "metarRaw": "METAR LEMD 090930Z VRB08KT 9999 FEW048 10/01 Q1023 NOSIG",
      "tafRaw": "TAF LEMD 090500Z 0906/1012 23010KT 9999 SCT030 TX11/0912Z TN01/1006Z \n  TEMPO 0906/0908 3000 DZ BR BKN005 \n  PROB30 \n  TEMPO 0906/0907 0200 FG VV001 \n  TEMPO 0906/0907 23015G25KT \n  TEMPO 0907/0911 VRB05KT \n  TEMPO 0909/0917 27020G30KT \n  BECMG 0922/0924 VRB05KT",
      "metarHtml": "METAR LEMD 090930Z VRB08KT 9999 FEW048 10/01 Q1023 NOSIG",
      "tafHtml": "TAF LEMD 090500Z 0906/1012 23010KT 9999 SCT030 TX11/0912Z TN01/1006Z \n  TEMPO 0906/0908 3000 <span class=\"hl\">DZ</span> <span class=\"hl\">BR</span> BKN005 \n  PROB30 \n  TEMPO 0906/0907 <span class=\"hl-vis\">0200</span> <span class=\"hl\">FG</span> VV001 \n  TEMPO 0906/0907 23015G25KT \n  TEMPO 0907/0911 VRB05KT \n  TEMPO 0909/0917 27020G30KT \n  BECMG 0922/0924 VRB05KT"
    },
    {
      "icao": "LOWW",
      "iata": "VIE",
      "name": "Vienna International Airport",
      "updatedAt": "090920Z",
      "visibility_m": 1800,
      "taf_visibility_m": 800,
      "worst_visibility_m": 800,
      "ceiling_ft": 1800,
      "hazards": [
        "SN",
        "FZFG",
        "BR"
      ],
      "severityScore": 95,
      "metarRaw": "METAR LOWW 090920Z 12008KT 1800 1200SW R11/P1500U SN FEW011 SCT015 BKN018 M06/M08 Q1003 TEMPO 4000 -SN",
      "tafRaw": "TAF LOWW 090815Z 0909/1015 12008KT 8000 BKN020 TX00/1013Z TNM06/0911Z \n  TEMPO 0909/0912 0800 SN BKN010 \n  TEMPO 0918/1008 2000 BR BKN012 \n  PROB30 \n  TEMPO 1000/1007 15003KT 0800 FZFG BKN005 \n  FM101100 29012KT 9999 FEW030",
      "metarHtml": "METAR LOWW 090920Z 12008KT 1800 1200SW R11/P1500U <span class=\"hl\">SN</span> FEW011 SCT015 BKN018 M06/M08 Q1003 TEMPO 4000 -<span class=\"hl\">SN</span>",
      "tafHtml": "TAF LOWW 090815Z 0909/1015 12008KT 8000 BKN020 TX00/1013Z TNM06/0911Z \n  TEMPO 0909/0912 <span class=\"hl-vis\">0800</span> <span class=\"hl\">SN</span> BKN010 \n  TEMPO 0918/1008 2000 <span class=\"hl\">BR</span> BKN012 \n  PROB30 \n  TEMPO 1000/1007 15003KT <span class=\"hl-vis\">0800</span> <span class=\"hl\">FZFG</span> BKN005 \n  FM101100 29012KT 9999 FEW030"
    },
    {
      "icao": "LZTT",
      "iata": "TAT",
      "name": "Poprad-Tatry Airport",
      "updatedAt": "090930Z",
      "visibility_m": 10000,
      "taf_visibility_m": 500,
      "worst_visibility_m": 500,
      "ceiling_ft": null,
      "hazards": [
        "FZFG",
        "BR",
        "SN"
      ],
      "severityScore": 93,
      "metarRaw": "METAR LZTT 090930Z VRB03KT CAVOK M14/M17 Q1001 NOSIG",
      "tafRaw": "TAF LZTT 090515Z 0906/1006 VRB02KT 9999 FEW015 \n  PROB30 \n  TEMPO 0906/0908 0500 FZFG BKN002 \n  BECMG 0913/0915 BKN028 \n  TEMPO 0916/1006 2000 BR BKN012 \n  TEMPO 1000/1006 -SN",
      "metarHtml": "METAR LZTT 090930Z VRB03KT <span class=\"hl-vis\">CAVOK</span> M14/M17 Q1001 NOSIG",
      "tafHtml": "TAF LZTT 090515Z 0906/1006 VRB02KT 9999 FEW015 \n  PROB30 \n  TEMPO 0906/0908 <span class=\"hl-vis\">0500</span> <span class=\"hl\">FZFG</span> BKN002 \n  BECMG 0913/0915 BKN028 \n  TEMPO 0916/1006 2000 <span class=\"hl\">BR</span> BKN012 \n  TEMPO 1000/1006 -<span class=\"hl\">SN</span>"
    },
    {
      "icao": "EHBK",
      "iata": "MST",
      "name": "Maastricht Aachen Airport",
      "updatedAt": "090925Z",
      "visibility_m": 8000,
      "taf_visibility_m": 800,
      "worst_visibility_m": 800,
      "ceiling_ft": 1600,
      "hazards": [
        "RA",
        "BR",
        "SN",
        "DZ"
      ],
      "severityScore": 87,
      "metarRaw": "METAR EHBK 090925Z AUTO 20024G39KT 170V230 8000 -RA FEW012/// BKN014/// BKN017/// 04/02 Q0981 TEMPO 9999 BKN016",
      "tafRaw": "TAF EHBK 090516Z 0906/1012 19018G28KT 9999 -RADZ BKN035 \n  TEMPO 0906/0911 7000 RADZ \n  BECMG 0911/0914 23020G30KT 4000 -DZ BKN006 \n  BECMG 0916/0919 25010KT 4000 SNRA BKN003 \n  BECMG 0921/0924 32008KT 2000 -SN BR \n  TEMPO 0921/1006 0800 SN VV002 \n  BECMG 1005/1008 4000 BKN008",
      "metarHtml": "METAR EHBK 090925Z AUTO 20024G39KT 170V230 8000 -<span class=\"hl\">RA</span> FEW012/// BKN014/// BKN017/// 04/02 Q0981 TEMPO 9999 BKN016",
      "tafHtml": "TAF EHBK 090516Z 0906/1012 19018G28KT 9999 -RADZ BKN035 \n  TEMPO 0906/0911 7000 RADZ \n  BECMG 0911/0914 23020G30KT 4000 -<span class=\"hl\">DZ</span> BKN006 \n  BECMG 0916/0919 25010KT 4000 SNRA BKN003 \n  BECMG 0921/0924 32008KT 2000 -<span class=\"hl\">SN</span> <span class=\"hl\">BR</span> \n  TEMPO 0921/1006 <span class=\"hl-vis\">0800</span> <span class=\"hl\">SN</span> VV002 \n  BECMG 1005/1008 4000 BKN008"
    },
    {
      "icao": "UAAA",
      "iata": "ALA",
      "name": "Almaty International Airport",
      "updatedAt": "090930Z",
      "visibility_m": 4100,
      "taf_visibility_m": 300,
      "worst_visibility_m": 300,
      "ceiling_ft": 5000,
      "hazards": [
        "BR",
        "FZFG"
      ],
      "severityScore": 85,
      "metarRaw": "METAR UAAA 090930Z 01003MPS 340V050 4100 BR FU SCT011 BKN050 M03/M06 Q1023 NOSIG",
      "tafRaw": "TAF UAAA 090505Z 0906/1006 06003G08MPS 4000 BR FU BKN011 OVC020 TXM02/0909Z TNM07/1001Z \n  TEMPO 0906/0912 2200 OVC008 \n  BECMG 0912/0913 20003MPS 1200 \n  TEMPO 0916/1003 VRB01MPS 0300 FZFG VV002 \n  FM100400 34003MPS 3100 BR FU SCT011 BKN020",
      "metarHtml": "METAR UAAA 090930Z 01003MPS 340V050 4100 <span class=\"hl\">BR</span> FU SCT011 BKN050 M03/M06 Q1023 NOSIG",
      "tafHtml": "TAF UAAA 090505Z 0906/1006 06003G08MPS 4000 <span class=\"hl\">BR</span> FU BKN011 OVC020 TXM02/0909Z TNM07/1001Z \n  TEMPO 0906/0912 2200 OVC008 \n  BECMG 0912/0913 20003MPS 1200 \n  TEMPO 0916/1003 VRB01MPS <span class=\"hl-vis\">0300</span> <span class=\"hl\">FZFG</span> VV002 \n  FM100400 34003MPS 3100 <span class=\"hl\">BR</span> FU SCT011 BKN020"
    },
    {
      "icao": "UDYZ",
      "iata": "EVN",
      "name": "Zvartnots International Airport",
      "updatedAt": "090930Z",
      "visibility_m": 2800,
      "taf_visibility_m": 800,
      "worst_visibility_m": 800,
      "ceiling_ft": null,
      "hazards": [
        "BR",
        "FZFG",
        "SN"
      ],
      "severityScore": 83,
      "metarRaw": "METAR UDYZ 090930Z VRB01KT 2800 BR SCT046 M00/M06 Q1009 NOSIG",
      "tafRaw": "TAF UDYZ 090500Z 0906/1006 23006KT 2300 BR BKN030 \n  TEMPO 0906/0909 0800 FZFG OVC004 \n  TEMPO 0909/0918 1000 SN BR OVC010",
      "metarHtml": "METAR UDYZ 090930Z VRB01KT 2800 <span class=\"hl\">BR</span> SCT046 M00/M06 Q1009 NOSIG",
      "tafHtml": "TAF UDYZ 090500Z 0906/1006 23006KT 2300 <span class=\"hl\">BR</span> BKN030 \n  TEMPO 0906/0909 <span class=\"hl-vis\">0800</span> <span class=\"hl\">FZFG</span> OVC004 \n  TEMPO 0909/0918 1000 <span class=\"hl\">SN</span> <span class=\"hl\">BR</span> OVC010"
    },
    {
      "icao": "LKPR",
      "iata": "PRG",
      "name": "Václav Havel Airport Prague",
      "updatedAt": "090930Z",
      "visibility_m": 6000,
      "taf_visibility_m": 600,
      "worst_visibility_m": 600,
      "ceiling_ft": 800,
      "hazards": [
        "BR",
        "SN"
      ],
      "severityScore": 78,
      "metarRaw": "METAR LKPR 090930Z 13009KT 6000 FEW005 BKN008 OVC034 M04/M05 Q0999 NOSIG",
      "tafRaw": "TAF LKPR 090800Z 0909/1015 09007KT 6000 -SN SCT010 OVC015 \n  TEMPO 0909/1014 04006KT 3000 SN BR SCT002 OVC006 \n  PROB30 \n  TEMPO 0909/1009 VRB02KT 0600 +SN BKN002",
      "metarHtml": "METAR LKPR 090930Z 13009KT 6000 FEW005 BKN008 OVC034 M04/M05 Q0999 NOSIG",
      "tafHtml": "TAF LKPR 090800Z 0909/1015 09007KT 6000 -<span class=\"hl\">SN</span> SCT010 OVC015 \n  TEMPO 0909/1014 04006KT 3000 <span class=\"hl\">SN</span> <span class=\"hl\">BR</span> SCT002 OVC006 \n  PROB30 \n  TEMPO 0909/1009 VRB02KT <span class=\"hl-vis\">0600</span> +<span class=\"hl\">SN</span> BKN002"
    },
    {
      "icao": "EHEH",
      "iata": "EIN",
      "name": "Eindhoven Airport",
      "updatedAt": "090925Z",
      "visibility_m": 4000,
      "taf_visibility_m": 500,
      "worst_visibility_m": 500,
      "ceiling_ft": 1200,
      "hazards": [
        "RA",
        "SN"
      ],
      "severityScore": 77,
      "metarRaw": "METAR EHEH 090925Z AUTO 15013G26KT 110V210 7000 RA FEW010 BKN012 OVC015 04/02 Q0978 GRN TEMPO 17012G25KT 4000 -RA SCT015 BKN020 RMK TREND REMOTE BY EHWX",
      "tafRaw": "TAF EHEH 090549Z 0906/1012 16010KT 9999 SCT018 BKN030 \n  TEMPO 0906/0909 17012G25KT 4000 -RA SCT015 BKN020 \n  BECMG 0909/0911 3500 RA FEW005 SCT012 BKN015 \n  TEMPO 0911/0916 2500 RASN FEW002 SCT004 BKN005 \n  BECMG 0913/0915 30010KT 2000 SNRA FEW002 SCT004 BKN005 \n  TEMPO 0916/1012 0500 SN SCT001 BKN003 \n  BECMG 0919/0921 34010KT 1500 -SN FEW001 SCT003 BKN005 \n  BECMG 1010/1012 01008KT 7000 NSW SCT025",
      "metarHtml": "METAR EHEH 090925Z AUTO 15013G26KT 110V210 7000 <span class=\"hl\">RA</span> FEW010 BKN012 OVC015 04/02 Q0978 GRN TEMPO 17012G25KT 4000 -<span class=\"hl\">RA</span> SCT015 BKN020 RMK TREND REMOTE BY EHWX",
      "tafHtml": "TAF EHEH 090549Z 0906/1012 16010KT 9999 SCT018 BKN030 \n  TEMPO 0906/0909 17012G25KT 4000 -<span class=\"hl\">RA</span> SCT015 BKN020 \n  BECMG 0909/0911 3500 <span class=\"hl\">RA</span> FEW005 SCT012 BKN015 \n  TEMPO 0911/0916 2500 RASN FEW002 SCT004 BKN005 \n  BECMG 0913/0915 30010KT 2000 SNRA FEW002 SCT004 BKN005 \n  TEMPO 0916/1012 <span class=\"hl-vis\">0500</span> <span class=\"hl\">SN</span> SCT001 BKN003 \n  BECMG 0919/0921 34010KT 1500 -<span class=\"hl\">SN</span> FEW001 SCT003 BKN005 \n  BECMG 1010/1012 01008KT 7000 NSW SCT025"
    },
    {
      "icao": "LKMT",
      "iata": "OSR",
      "name": "Ostrava Leos Janáček Airport",
      "updatedAt": "090930Z",
      "visibility_m": 10000,
      "taf_visibility_m": 900,
      "worst_visibility_m": 900,
      "ceiling_ft": null,
      "hazards": [
        "FZFG",
        "BR",
        "SN"
      ],
      "severityScore": 68,
      "metarRaw": "METAR LKMT 090930Z VRB01KT CAVOK M08/M10 Q1004 NOSIG",
      "tafRaw": "TAF LKMT 090500Z 0906/1006 VRB02KT 5000 BR NSC \n  PROB40 \n  TEMPO 0906/0909 0900 FZFG BKN002 \n  BECMG 0909/0911 8000 OVC020 \n  TEMPO 0915/1006 2500 -SN BR OVC012 \n  PROB40 \n  TEMPO 0922/1004 1200 SN BR OVC004",
      "metarHtml": "METAR LKMT 090930Z VRB01KT <span class=\"hl-vis\">CAVOK</span> M08/M10 Q1004 NOSIG",
      "tafHtml": "TAF LKMT 090500Z 0906/1006 VRB02KT 5000 <span class=\"hl\">BR</span> NSC \n  PROB40 \n  TEMPO 0906/0909 0900 <span class=\"hl\">FZFG</span> BKN002 \n  BECMG 0909/0911 8000 OVC020 \n  TEMPO 0915/1006 2500 -<span class=\"hl\">SN</span> <span class=\"hl\">BR</span> OVC012 \n  PROB40 \n  TEMPO 0922/1004 1200 <span class=\"hl\">SN</span> <span class=\"hl\">BR</span> OVC004"
    },
    {
      "icao": "EDFH",
      "iata": "HHN",
      "name": "Frankfurt-Hahn Airport",
      "updatedAt": "090920Z",
      "visibility_m": 10000,
      "taf_visibility_m": 1500,
      "worst_visibility_m": 1500,
      "ceiling_ft": 1300,
      "hazards": [
        "RA",
        "SN",
        "SHRA"
      ],
      "severityScore": 66,
      "metarRaw": "METAR EDFH 090920Z 21023G34KT 9999 -RA SCT010 BKN013 03/02 Q0986",
      "tafRaw": "TAF EDFH 090500Z 0906/1006 22020G35KT 9999 SCT010 BKN030 \n  TEMPO 0906/0914 24030G45KT 4000 SHRA BKN010CB \n  TEMPO 0914/0917 4000 RA BKN008 \n  BECMG 0917/0920 24015G30KT BKN005 \n  TEMPO 0917/1006 1500 SN BKN002",
      "metarHtml": "METAR EDFH 090920Z 21023G34KT 9999 -<span class=\"hl\">RA</span> SCT010 BKN013 03/02 Q0986",
      "tafHtml": "TAF EDFH 090500Z 0906/1006 22020G35KT 9999 SCT010 BKN030 \n  TEMPO 0906/0914 24030G45KT 4000 <span class=\"hl\">SHRA</span> BKN010CB \n  TEMPO 0914/0917 4000 <span class=\"hl\">RA</span> BKN008 \n  BECMG 0917/0920 24015G30KT BKN005 \n  TEMPO 0917/1006 1500 <span class=\"hl\">SN</span> BKN002"
    },
    {
      "icao": "EYKA",
      "iata": "KUN",
      "name": "Kaunas International Airport",
      "updatedAt": "090920Z",
      "visibility_m": 2800,
      "taf_visibility_m": 800,
      "worst_visibility_m": 800,
      "ceiling_ft": 3500,
      "hazards": [
        "SN",
        "BLSN"
      ],
      "severityScore": 65,
      "metarRaw": "METAR EYKA 090920Z 36013KT 340V050 2800 SN BLSN BKN035 OVC048 M10/M13 Q1004",
      "tafRaw": "TAF EYKA 090505Z 0906/1006 01015G28KT 3000 SN BKN015 OVC030 \n  TEMPO 0906/0915 0800 +SN BLSN BKN010 \n  BECMG 0915/0917 02010KT \n  TEMPO 0917/0921 02015G25KT 1500 BLSN BKN010 \n  BECMG 0921/0923 5000 \n  TEMPO 0923/1006 VRB04KT 3000",
      "metarHtml": "METAR EYKA 090920Z 36013KT 340V050 2800 <span class=\"hl\">SN</span> <span class=\"hl\">BLSN</span> BKN035 OVC048 M10/M13 Q1004",
      "tafHtml": "TAF EYKA 090505Z 0906/1006 01015G28KT 3000 <span class=\"hl\">SN</span> BKN015 OVC030 \n  TEMPO 0906/0915 <span class=\"hl-vis\">0800</span> +<span class=\"hl\">SN</span> <span class=\"hl\">BLSN</span> BKN010 \n  BECMG 0915/0917 02010KT \n  TEMPO 0917/0921 02015G25KT 1500 <span class=\"hl\">BLSN</span> BKN010 \n  BECMG 0921/0923 5000 \n  TEMPO 0923/1006 VRB04KT 3000"
    },
    {
      "icao": "EDDK",
      "iata": "CGN",
      "name": "Cologne Bonn Airport",
      "updatedAt": "090920Z",
      "visibility_m": 10000,
      "taf_visibility_m": 1200,
      "worst_visibility_m": 1200,
      "ceiling_ft": 3100,
      "hazards": [
        "BR",
        "SN",
        "RA",
        "SHRA"
      ],
      "severityScore": 64,
      "metarRaw": "METAR EDDK 090920Z AUTO 17014KT 9999 BKN031 BKN038 07/02 Q0986 TEMPO 14015G25KT",
      "tafRaw": "TAF EDDK 090500Z 0906/1012 16013KT 9999 OVC030 \n  TEMPO 0906/0910 19015G25KT SHRA BKN015CB \n  TEMPO 0910/0918 19020G30KT RA \n  BECMG 0915/0918 23010KT OVC012 \n  TEMPO 0918/0922 4000 RASN OVC008 \n  BECMG 0922/1001 OVC008 \n  TEMPO 0922/1004 1200 SN BKN003 \n  BECMG 1003/1006 29007KT \n  TEMPO 1004/1012 1200 -SN BR BKN003",
      "metarHtml": "METAR EDDK 090920Z AUTO 17014KT 9999 BKN031 BKN038 07/02 Q0986 TEMPO 14015G25KT",
      "tafHtml": "TAF EDDK 090500Z 0906/1012 16013KT 9999 OVC030 \n  TEMPO 0906/0910 19015G25KT <span class=\"hl\">SHRA</span> BKN015CB \n  TEMPO 0910/0918 19020G30KT <span class=\"hl\">RA</span> \n  BECMG 0915/0918 23010KT OVC012 \n  TEMPO 0918/0922 4000 RASN OVC008 \n  BECMG 0922/1001 OVC008 \n  TEMPO 0922/1004 1200 <span class=\"hl\">SN</span> BKN003 \n  BECMG 1003/1006 29007KT \n  TEMPO 1004/1012 1200 -<span class=\"hl\">SN</span> <span class=\"hl\">BR</span> BKN003"
    },
    {
      "icao": "LCPH",
      "iata": "PFO",
      "name": "Paphos International Airport",
      "updatedAt": "090930Z",
      "visibility_m": 5000,
      "taf_visibility_m": 2000,
      "worst_visibility_m": 2000,
      "ceiling_ft": 500,
      "hazards": [
        "TSRA",
        "SHRA"
      ],
      "severityScore": 64,
      "metarRaw": "METAR LCPH 090930Z 32021KT 9999 FEW025 FEW030CB SCT050 BKN060 16/09 Q1009 TEMPO 5000 TSRA BKN005",
      "tafRaw": "TAF LCPH 090530Z 0906/1006 30025G35KT 9999 FEW025 SCT040 \n  PROB40 \n  TEMPO 0906/0914 4000 SHRA SCT020TCU FEW030CB \n  PROB30 \n  TEMPO 0906/0914 2000 TSRA SCT020CB \n  TEMPO 0908/0914 30030G40KT \n  BECMG 0918/0922 33012KT \n  PROB40 \n  TEMPO 1001/1006 4000 SHRA SCT020TCU",
      "metarHtml": "METAR LCPH 090930Z 32021KT 9999 FEW025 FEW030CB SCT050 BKN060 16/09 Q1009 TEMPO 5000 <span class=\"hl\">TSRA</span> BKN005",
      "tafHtml": "TAF LCPH 090530Z 0906/1006 30025G35KT 9999 FEW025 SCT040 \n  PROB40 \n  TEMPO 0906/0914 4000 <span class=\"hl\">SHRA</span> SCT020TCU FEW030CB \n  PROB30 \n  TEMPO 0906/0914 2000 <span class=\"hl\">TSRA</span> SCT020CB \n  TEMPO 0908/0914 30030G40KT \n  BECMG 0918/0922 33012KT \n  PROB40 \n  TEMPO 1001/1006 4000 <span class=\"hl\">SHRA</span> SCT020TCU"
    },
    {
      "icao": "LQSA",
      "iata": "SJJ",
      "name": "Sarajevo International Airport",
      "updatedAt": "090930Z",
      "visibility_m": 4000,
      "taf_visibility_m": 2000,
      "worst_visibility_m": 2000,
      "ceiling_ft": null,
      "hazards": [
        "BR",
        "FZRA",
        "SN"
      ],
      "severityScore": 63,
      "metarRaw": "METAR LQSA 090930Z VRB01KT 4000 BR FEW060 M08/M08 Q1008 NOSIG",
      "tafRaw": "TAF LQSA 090500Z 0906/1006 10006KT 6000 SCT050 TX02/0913Z TNM12/0906Z \n  PROB30 0907/0910 2500 BR BKN004 \n  PROB40 \n  TEMPO 0911/0918 16012KT \n  PROB40 \n  TEMPO 0916/0921 4000 FZRA BKN014 BKN030 \n  PROB40 \n  TEMPO 0921/1001 2000 SN BKN008 OVC020",
      "metarHtml": "METAR LQSA 090930Z VRB01KT 4000 <span class=\"hl\">BR</span> FEW060 M08/M08 Q1008 NOSIG",
      "tafHtml": "TAF LQSA 090500Z 0906/1006 10006KT 6000 SCT050 TX02/0913Z TNM12/0906Z \n  PROB30 0907/0910 2500 <span class=\"hl\">BR</span> BKN004 \n  PROB40 \n  TEMPO 0911/0918 16012KT \n  PROB40 \n  TEMPO 0916/0921 4000 <span class=\"hl\">FZRA</span> BKN014 BKN030 \n  PROB40 \n  TEMPO 0921/1001 2000 <span class=\"hl\">SN</span> BKN008 OVC020"
    },
    {
      "icao": "LEBB",
      "iata": "BIO",
      "name": "Bilbao Airport",
      "updatedAt": "090930Z",
      "visibility_m": 10000,
      "taf_visibility_m": 1500,
      "worst_visibility_m": 1500,
      "ceiling_ft": 5200,
      "hazards": [
        "TSRA",
        "RA",
        "SHRA"
      ],
      "severityScore": 61,
      "metarRaw": "METAR LEBB 090930Z 23006KT 200V270 9999 SCT040 BKN052 11/07 Q1017 BECMG 29018G29KT",
      "tafRaw": "TAF LEBB 090500Z 0906/1006 29009KT 9999 FEW020 SCT040 TX12/0914Z TN07/0923Z \n  TEMPO 0909/0918 29018G33KT 3000 RA BKN010 \n  TEMPO 0909/0920 29025G43KT \n  PROB40 \n  TEMPO 0912/0920 1500 SHRA SCT025TCU \n  PROB30 \n  TEMPO 0913/0918 TSRA FEW020CB \n  PROB40 \n  TEMPO 0918/1006 29018G30KT RA BKN010",
      "metarHtml": "METAR LEBB 090930Z 23006KT 200V270 9999 SCT040 BKN052 11/07 Q1017 BECMG 29018G29KT",
      "tafHtml": "TAF LEBB 090500Z 0906/1006 29009KT 9999 FEW020 SCT040 TX12/0914Z TN07/0923Z \n  TEMPO 0909/0918 29018G33KT 3000 <span class=\"hl\">RA</span> BKN010 \n  TEMPO 0909/0920 29025G43KT \n  PROB40 \n  TEMPO 0912/0920 1500 <span class=\"hl\">SHRA</span> SCT025TCU \n  PROB30 \n  TEMPO 0913/0918 <span class=\"hl\">TSRA</span> FEW020CB \n  PROB40 \n  TEMPO 0918/1006 29018G30KT <span class=\"hl\">RA</span> BKN010"
    },
    {
      "icao": "EGGW",
      "iata": "LTN",
      "name": "London Luton Airport",
      "updatedAt": "090920Z",
      "visibility_m": 10000,
      "taf_visibility_m": 600,
      "worst_visibility_m": 600,
      "ceiling_ft": null,
      "hazards": [
        "RA",
        "SN"
      ],
      "severityScore": 55,
      "metarRaw": "METAR EGGW 090920Z AUTO 33020KT 9999 -RA OVC007/// //////TCU 02/01 Q0990",
      "tafRaw": "TAF EGGW 090458Z 0906/1006 31020G30KT 9999 BKN005 \n  TEMPO 0906/0912 3000 RA RASN BKN003 \n  PROB30 \n  TEMPO 0906/0911 0600 SN \n  PROB40 \n  TEMPO 0912/0918 4000 RADZ -RASN BKN004 \n  BECMG 0918/0921 34017G27KT \n  PROB30 \n  TEMPO 0918/0924 6000 -RADZ \n  BECMG 0921/0924 SCT020 \n  BECMG 1001/1004 32010KT",
      "metarHtml": "METAR EGGW 090920Z AUTO 33020KT 9999 -<span class=\"hl\">RA</span> OVC007/// //////TCU 02/01 Q0990",
      "tafHtml": "TAF EGGW 090458Z 0906/1006 31020G30KT 9999 BKN005 \n  TEMPO 0906/0912 3000 <span class=\"hl\">RA</span> RASN BKN003 \n  PROB30 \n  TEMPO 0906/0911 <span class=\"hl-vis\">0600</span> <span class=\"hl\">SN</span> \n  PROB40 \n  TEMPO 0912/0918 4000 RADZ -RASN BKN004 \n  BECMG 0918/0921 34017G27KT \n  PROB30 \n  TEMPO 0918/0924 6000 -RADZ \n  BECMG 0921/0924 SCT020 \n  BECMG 1001/1004 32010KT"
    },
    {
      "icao": "LYBE",
      "iata": "BEG",
      "name": "Belgrade Nikola Tesla Airport",
      "updatedAt": "090930Z",
      "visibility_m": 3500,
      "taf_visibility_m": 1500,
      "worst_visibility_m": 1500,
      "ceiling_ft": null,
      "hazards": [
        "BR",
        "FZRA"
      ],
      "severityScore": 55,
      "metarRaw": "METAR LYBE 090930Z 15003KT 3500 BR NSC M04/M06 Q1008 BECMG 6000 NSW",
      "tafRaw": "TAF LYBE 090500Z 0906/1006 10005KT CAVOK TX01/0919Z TNM12/0906Z \n  TEMPO 0914/1001 FZRA \n  BECMG 0920/0922 3000 BR SCT005 BKN015 \n  BECMG 0923/1001 1500 BKN003 BKN023 \n  TEMPO 1001/1006 SNRA BKN001 BKN021",
      "metarHtml": "METAR LYBE 090930Z 15003KT 3500 <span class=\"hl\">BR</span> NSC M04/M06 Q1008 BECMG 6000 NSW",
      "tafHtml": "TAF LYBE 090500Z 0906/1006 10005KT <span class=\"hl-vis\">CAVOK</span> TX01/0919Z TNM12/0906Z \n  TEMPO 0914/1001 <span class=\"hl\">FZRA</span> \n  BECMG 0920/0922 3000 <span class=\"hl\">BR</span> SCT005 BKN015 \n  BECMG 0923/1001 1500 BKN003 BKN023 \n  TEMPO 1001/1006 SNRA BKN001 BKN021"
    },
    {
      "icao": "LYPG",
      "iata": "TGD",
      "name": "Podgorica Airport / Podgorica Golubovci Airbase",
      "updatedAt": "090930Z",
      "visibility_m": 10000,
      "taf_visibility_m": 2000,
      "worst_visibility_m": 2000,
      "ceiling_ft": 9000,
      "hazards": [
        "SN",
        "TSRA",
        "RA"
      ],
      "severityScore": 55,
      "metarRaw": "METAR LYPG 090930Z 34005KT 9999 -SN FEW030 SCT040 OVC090 02/M02 Q1016 NOSIG",
      "tafRaw": "TAF LYPG 090500Z 0906/1006 02008KT 9999 BKN034 BKN070 TX07/0923Z TN00/0906Z \n  PROB30 \n  TEMPO 0909/0912 2000 SNRA \n  TEMPO 0912/1006 5000 RA \n  PROB40 \n  TEMPO 0922/1006 3000 TSRA FEW010 SCT025CB BKN030",
      "metarHtml": "METAR LYPG 090930Z 34005KT 9999 -<span class=\"hl\">SN</span> FEW030 SCT040 OVC090 02/M02 Q1016 NOSIG",
      "tafHtml": "TAF LYPG 090500Z 0906/1006 02008KT 9999 BKN034 BKN070 TX07/0923Z TN00/0906Z \n  PROB30 \n  TEMPO 0909/0912 2000 SNRA \n  TEMPO 0912/1006 5000 <span class=\"hl\">RA</span> \n  PROB40 \n  TEMPO 0922/1006 3000 <span class=\"hl\">TSRA</span> FEW010 SCT025CB BKN030"
    },
    {
      "icao": "EDLW",
      "iata": "DTM",
      "name": "Dortmund Airport",
      "updatedAt": "090920Z",
      "visibility_m": 10000,
      "taf_visibility_m": 1200,
      "worst_visibility_m": 1200,
      "ceiling_ft": null,
      "hazards": [
        "SN",
        "RA",
        "SHRA"
      ],
      "severityScore": 54,
      "metarRaw": "METAR EDLW 090920Z 15013KT CAVOK 06/02 Q0984",
      "tafRaw": "TAF EDLW 090500Z 0906/1006 15012KT 9999 SCT040 \n  TEMPO 0907/0910 15015G25KT SHRA BKN015CB \n  TEMPO 0910/0920 15020G30KT RA \n  BECMG 0919/0922 17004KT BKN012 \n  TEMPO 0920/0923 4000 RASN BKN003 \n  BECMG 0923/1002 07006KT OVC008 \n  TEMPO 0923/1006 1200 SN BKN003",
      "metarHtml": "METAR EDLW 090920Z 15013KT <span class=\"hl-vis\">CAVOK</span> 06/02 Q0984",
      "tafHtml": "TAF EDLW 090500Z 0906/1006 15012KT 9999 SCT040 \n  TEMPO 0907/0910 15015G25KT <span class=\"hl\">SHRA</span> BKN015CB \n  TEMPO 0910/0920 15020G30KT <span class=\"hl\">RA</span> \n  BECMG 0919/0922 17004KT BKN012 \n  TEMPO 0920/0923 4000 RASN BKN003 \n  BECMG 0923/1002 07006KT OVC008 \n  TEMPO 0923/1006 1200 <span class=\"hl\">SN</span> BKN003"
    },
    {
      "icao": "LJLJ",
      "iata": "LJU",
      "name": "Ljubljana Jože Pučnik Airport",
      "updatedAt": "090930Z",
      "visibility_m": 10000,
      "taf_visibility_m": 4000,
      "worst_visibility_m": 4000,
      "ceiling_ft": 2700,
      "hazards": [
        "SN",
        "FZRA"
      ],
      "severityScore": 53,
      "metarRaw": "METAR LJLJ 090930Z VRB01KT 9999 -SN BKN027 OVC037 M03/M04 Q1003 NOSIG",
      "tafRaw": "TAF LJLJ 090500Z 0906/1006 29006KT 9999 BKN030 \n  PROB40 \n  TEMPO 0909/1003 4000 -SN BKN010 \n  PROB30 \n  TEMPO 0909/0918 -FZRA \n  PROB30 \n  TEMPO 1003/1006 4000 -SN BKN010",
      "metarHtml": "METAR LJLJ 090930Z VRB01KT 9999 -<span class=\"hl\">SN</span> BKN027 OVC037 M03/M04 Q1003 NOSIG",
      "tafHtml": "TAF LJLJ 090500Z 0906/1006 29006KT 9999 BKN030 \n  PROB40 \n  TEMPO 0909/1003 4000 -<span class=\"hl\">SN</span> BKN010 \n  PROB30 \n  TEMPO 0909/0918 -<span class=\"hl\">FZRA</span> \n  PROB30 \n  TEMPO 1003/1006 4000 -<span class=\"hl\">SN</span> BKN010"
    },
    {
      "icao": "EGKK",
      "iata": "LGW",
      "name": "London Gatwick Airport",
      "updatedAt": "090920Z",
      "visibility_m": 8000,
      "taf_visibility_m": 2000,
      "worst_visibility_m": 2000,
      "ceiling_ft": 900,
      "hazards": [
        "RA",
        "SHRA"
      ],
      "severityScore": 51,
      "metarRaw": "METAR EGKK 090920Z 31019G31KT 8000 -RA BKN009 03/02 Q0990",
      "tafRaw": "TAF EGKK 090453Z 0906/1012 31016G26KT 9999 SCT010 BKN020 \n  TEMPO 0906/0912 6000 RA -RASN BKN008 \n  PROB30 \n  TEMPO 0906/0911 32019G36KT 2000 RASN BKN004 \n  TEMPO 0912/0921 6000 RA SHRA BKN008 \n  BECMG 0918/0921 31009KT \n  PROB30 \n  TEMPO 0921/1001 31015G25KT 8000 -SHRA BKN014",
      "metarHtml": "METAR EGKK 090920Z 31019G31KT 8000 -<span class=\"hl\">RA</span> BKN009 03/02 Q0990",
      "tafHtml": "TAF EGKK 090453Z 0906/1012 31016G26KT 9999 SCT010 BKN020 \n  TEMPO 0906/0912 6000 <span class=\"hl\">RA</span> -RASN BKN008 \n  PROB30 \n  TEMPO 0906/0911 32019G36KT 2000 RASN BKN004 \n  TEMPO 0912/0921 6000 <span class=\"hl\">RA</span> <span class=\"hl\">SHRA</span> BKN008 \n  BECMG 0918/0921 31009KT \n  PROB30 \n  TEMPO 0921/1001 31015G25KT 8000 -<span class=\"hl\">SHRA</span> BKN014"
    },
    {
      "icao": "EDDB",
      "iata": "BER",
      "name": "Berlin Brandenburg Airport",
      "updatedAt": "090920Z",
      "visibility_m": 10000,
      "taf_visibility_m": 1500,
      "worst_visibility_m": 1500,
      "ceiling_ft": null,
      "hazards": [
        "SN",
        "BLSN"
      ],
      "severityScore": 50,
      "metarRaw": "METAR EDDB 090920Z AUTO 09014KT 9999 FEW038 SCT048 M06/M09 Q1002 TEMPO 09015G25KT",
      "tafRaw": "TAF EDDB 090500Z 0906/1006 09013KT 9999 FEW025 \n  BECMG 0907/0910 09015G25KT \n  TEMPO 0911/1002 3000 -SN BKN010 \n  PROB30 \n  TEMPO 0912/1002 1500 BLSN BKN007 \n  BECMG 1002/1005 07013KT",
      "metarHtml": "METAR EDDB 090920Z AUTO 09014KT 9999 FEW038 SCT048 M06/M09 Q1002 TEMPO 09015G25KT",
      "tafHtml": "TAF EDDB 090500Z 0906/1006 09013KT 9999 FEW025 \n  BECMG 0907/0910 09015G25KT \n  TEMPO 0911/1002 3000 -<span class=\"hl\">SN</span> BKN010 \n  PROB30 \n  TEMPO 0912/1002 1500 <span class=\"hl\">BLSN</span> BKN007 \n  BECMG 1002/1005 07013KT"
    },
    {
      "icao": "EPGD",
      "iata": "GDN",
      "name": "Gdańsk Lech Wałęsa Airport",
      "updatedAt": "090930Z",
      "visibility_m": 6000,
      "taf_visibility_m": 1500,
      "worst_visibility_m": 1500,
      "ceiling_ft": 2100,
      "hazards": [
        "SN",
        "BLSN"
      ],
      "severityScore": 50,
      "metarRaw": "METAR EPGD 090930Z VRB02KT 6000 BKN021 M08/M09 Q1007",
      "tafRaw": "TAF EPGD 090530Z 0906/1006 06006KT 9999 SCT015 \n  BECMG 0908/0911 05016KT \n  TEMPO 0911/1006 06021G31KT \n  BECMG 0921/0923 -SN BKN012 \n  PROB40 \n  TEMPO 1000/1006 1500 SN BLSN BKN004 BKN008",
      "metarHtml": "METAR EPGD 090930Z VRB02KT 6000 BKN021 M08/M09 Q1007",
      "tafHtml": "TAF EPGD 090530Z 0906/1006 06006KT 9999 SCT015 \n  BECMG 0908/0911 05016KT \n  TEMPO 0911/1006 06021G31KT \n  BECMG 0921/0923 -<span class=\"hl\">SN</span> BKN012 \n  PROB40 \n  TEMPO 1000/1006 1500 <span class=\"hl\">SN</span> <span class=\"hl\">BLSN</span> BKN004 BKN008"
    },
    {
      "icao": "EETN",
      "iata": "TLL",
      "name": "Lennart Meri Tallinn Airport",
      "updatedAt": "090920Z",
      "visibility_m": 10000,
      "taf_visibility_m": 3000,
      "worst_visibility_m": 3000,
      "ceiling_ft": 2300,
      "hazards": [
        "SN",
        "BLSN"
      ],
      "severityScore": 40,
      "metarRaw": "METAR EETN 090920Z 06017KT 9999 DRSN BKN023 M05/M09 Q1019 TEMPO 06018G30KT",
      "tafRaw": "TAF EETN 090530Z 0906/1006 07014KT 9999 DRSN SCT020 \n  PROB30 \n  TEMPO 0906/0914 5000 SN BKN015 \n  BECMG 0908/0910 06018G30KT \n  TEMPO 0914/0922 BKN014 \n  BECMG 0922/0924 BKN013 \n  PROB40 \n  TEMPO 1000/1006 3000 SN BLSN VV009",
      "metarHtml": "METAR EETN 090920Z 06017KT 9999 DRSN BKN023 M05/M09 Q1019 TEMPO 06018G30KT",
      "tafHtml": "TAF EETN 090530Z 0906/1006 07014KT 9999 DRSN SCT020 \n  PROB30 \n  TEMPO 0906/0914 5000 <span class=\"hl\">SN</span> BKN015 \n  BECMG 0908/0910 06018G30KT \n  TEMPO 0914/0922 BKN014 \n  BECMG 0922/0924 BKN013 \n  PROB40 \n  TEMPO 1000/1006 3000 <span class=\"hl\">SN</span> <span class=\"hl\">BLSN</span> VV009"
    },
    {
      "icao": "EPLB",
      "iata": "LUZ",
      "name": "Lublin Airport",
      "updatedAt": "090930Z",
      "visibility_m": 6000,
      "taf_visibility_m": 2000,
      "worst_visibility_m": 2000,
      "ceiling_ft": 1200,
      "hazards": [
        "SN",
        "BR"
      ],
      "severityScore": 40,
      "metarRaw": "METAR EPLB 090930Z 29009KT 6000 -SN DRSN BKN012 M08/M10 Q1001",
      "tafRaw": "TAF EPLB 090530Z 0906/1006 30012KT 8000 -SN BKN013 BKN030 \n  TEMPO 0906/0915 DRSN BKN009 \n  PROB40 \n  TEMPO 0906/0915 31015G25KT 4000 -SN \n  TEMPO 0918/1006 SCT015 \n  PROB40 0918/1006 VRB02KT 2000 -SG BR BKN003",
      "metarHtml": "METAR EPLB 090930Z 29009KT 6000 -<span class=\"hl\">SN</span> DRSN BKN012 M08/M10 Q1001",
      "tafHtml": "TAF EPLB 090530Z 0906/1006 30012KT 8000 -<span class=\"hl\">SN</span> BKN013 BKN030 \n  TEMPO 0906/0915 DRSN BKN009 \n  PROB40 \n  TEMPO 0906/0915 31015G25KT 4000 -<span class=\"hl\">SN</span> \n  TEMPO 0918/1006 SCT015 \n  PROB40 0918/1006 VRB02KT 2000 -SG <span class=\"hl\">BR</span> BKN003"
    },
    {
      "icao": "LCLK",
      "iata": "LCA",
      "name": "Larnaca International Airport",
      "updatedAt": "090930Z",
      "visibility_m": 10000,
      "taf_visibility_m": 2000,
      "worst_visibility_m": 2000,
      "ceiling_ft": null,
      "hazards": [
        "TSRA",
        "SHRA"
      ],
      "severityScore": 39,
      "metarRaw": "METAR LCLK 090930Z 23012KT 9999 FEW020 FEW035CB 16/11 Q1007 NOSIG RMK CB TO E SW N",
      "tafRaw": "TAF LCLK 090530Z 0906/1006 24014KT 9999 FEW020 SCT040 \n  BECMG 0907/0910 29025G35KT \n  PROB30 \n  TEMPO 0908/0913 4000 SHRA SCT020TCU FEW030CB \n  PROB30 \n  TEMPO 0908/0914 VRB30G40KT 2000 TSRA FEW020CB \n  BECMG 0914/0916 25014KT",
      "metarHtml": "METAR LCLK 090930Z 23012KT 9999 FEW020 FEW035CB 16/11 Q1007 NOSIG RMK CB TO E SW N",
      "tafHtml": "TAF LCLK 090530Z 0906/1006 24014KT 9999 FEW020 SCT040 \n  BECMG 0907/0910 29025G35KT \n  PROB30 \n  TEMPO 0908/0913 4000 <span class=\"hl\">SHRA</span> SCT020TCU FEW030CB \n  PROB30 \n  TEMPO 0908/0914 VRB30G40KT 2000 <span class=\"hl\">TSRA</span> FEW020CB \n  BECMG 0914/0916 25014KT"
    },
    {
      "icao": "LFBD",
      "iata": "BOD",
      "name": "Bordeaux–Mérignac Airport",
      "updatedAt": "090930Z",
      "visibility_m": 10000,
      "taf_visibility_m": 4000,
      "worst_visibility_m": 4000,
      "ceiling_ft": 9200,
      "hazards": [
        "TSRA",
        "SHRA"
      ],
      "severityScore": 39,
      "metarRaw": "METAR LFBD 090930Z AUTO 27020G31KT 240V300 9999 FEW040 OVC092 10/03 Q1010",
      "tafRaw": "TAF LFBD 090500Z 0906/1012 26015G25KT 9999 BKN030 TX11/0914Z TN09/0906Z \n  TEMPO 0906/0922 27020G40KT 4000 SHRA BKN015TCU SCT020CB \n  PROB40 \n  TEMPO 0906/0916 28030G55KT \n  PROB30 \n  TEMPO 0906/0918 TSRA BKN010 BKN015CB \n  BECMG 1000/1002 30012KT",
      "metarHtml": "METAR LFBD 090930Z AUTO 27020G31KT 240V300 9999 FEW040 OVC092 10/03 Q1010",
      "tafHtml": "TAF LFBD 090500Z 0906/1012 26015G25KT 9999 BKN030 TX11/0914Z TN09/0906Z \n  TEMPO 0906/0922 27020G40KT 4000 <span class=\"hl\">SHRA</span> BKN015TCU SCT020CB \n  PROB40 \n  TEMPO 0906/0916 28030G55KT \n  PROB30 \n  TEMPO 0906/0918 <span class=\"hl\">TSRA</span> BKN010 BKN015CB \n  BECMG 1000/1002 30012KT"
    },
    {
      "icao": "LICA",
      "iata": "SUF",
      "name": "Lamezia Terme Sant'Eufemia International Airport",
      "updatedAt": "090920Z",
      "visibility_m": 10000,
      "taf_visibility_m": 4000,
      "worst_visibility_m": 4000,
      "ceiling_ft": null,
      "hazards": [
        "TSRA",
        "SHRA"
      ],
      "severityScore": 39,
      "metarRaw": "METAR LICA 090920Z AUTO 25023KT 9999 FEW020/// BKN045/// 16/13 Q1015",
      "tafRaw": "TAF LICA 090500Z 0906/1006 27026G38KT 9999 BKN016 \n  TEMPO 0906/0921 4000 SHRA \n  TEMPO 0921/1006 4000 TSRA BKN012",
      "metarHtml": "METAR LICA 090920Z AUTO 25023KT 9999 FEW020/// BKN045/// 16/13 Q1015",
      "tafHtml": "TAF LICA 090500Z 0906/1006 27026G38KT 9999 BKN016 \n  TEMPO 0906/0921 4000 <span class=\"hl\">SHRA</span> \n  TEMPO 0921/1006 4000 <span class=\"hl\">TSRA</span> BKN012"
    },
    {
      "icao": "LICJ",
      "iata": "PMO",
      "name": "Falcone–Borsellino Airport",
      "updatedAt": "090920Z",
      "visibility_m": 10000,
      "taf_visibility_m": 4000,
      "worst_visibility_m": 4000,
      "ceiling_ft": 3500,
      "hazards": [
        "TSRA",
        "SHRA"
      ],
      "severityScore": 39,
      "metarRaw": "METAR LICJ 090920Z 22022KT 9999 BKN035 15/11 Q1018 RERA",
      "tafRaw": "TAF LICJ 090500Z 0906/1006 23020G35KT 9999 SCT020 \n  TEMPO 0912/1001 4000 SHRA \n  TEMPO 1001/1006 4000 TSRA \n  BECMG 1004/1006 29026G40KT",
      "metarHtml": "METAR LICJ 090920Z 22022KT 9999 BKN035 15/11 Q1018 RERA",
      "tafHtml": "TAF LICJ 090500Z 0906/1006 23020G35KT 9999 SCT020 \n  TEMPO 0912/1001 4000 <span class=\"hl\">SHRA</span> \n  TEMPO 1001/1006 4000 <span class=\"hl\">TSRA</span> \n  BECMG 1004/1006 29026G40KT"
    },
    {
      "icao": "LIRF",
      "iata": "FCO",
      "name": "Rome–Fiumicino Leonardo da Vinci International Airport",
      "updatedAt": "090920Z",
      "visibility_m": 9000,
      "taf_visibility_m": 3000,
      "worst_visibility_m": 3000,
      "ceiling_ft": null,
      "hazards": [
        "TSRA",
        "SHRA"
      ],
      "severityScore": 39,
      "metarRaw": "METAR LIRF 090920Z 24016KT 9000 SCT028 15/10 Q1009 NOSIG",
      "tafRaw": "TAF LIRF 090500Z 0906/1012 25016G26KT 9999 SCT020 \n  TEMPO 0909/0918 4000 SHRA \n  BECMG 0910/0912 25020G36KT \n  TEMPO 0920/1012 3000 TSRA \n  BECMG 1005/1007 31018G30KT \n  BECMG 1010/1012 32015KT",
      "metarHtml": "METAR LIRF 090920Z 24016KT 9000 SCT028 15/10 Q1009 NOSIG",
      "tafHtml": "TAF LIRF 090500Z 0906/1012 25016G26KT 9999 SCT020 \n  TEMPO 0909/0918 4000 <span class=\"hl\">SHRA</span> \n  BECMG 0910/0912 25020G36KT \n  TEMPO 0920/1012 3000 <span class=\"hl\">TSRA</span> \n  BECMG 1005/1007 31018G30KT \n  BECMG 1010/1012 32015KT"
    },
    {
      "icao": "LIRN",
      "iata": "NAP",
      "name": "Naples International Airport",
      "updatedAt": "090920Z",
      "visibility_m": 10000,
      "taf_visibility_m": 4000,
      "worst_visibility_m": 4000,
      "ceiling_ft": null,
      "hazards": [
        "TSRA",
        "SHRA"
      ],
      "severityScore": 39,
      "metarRaw": "METAR LIRN 090920Z 22008KT 9999 FEW020 SCT040 15/11 Q1012 NOSIG",
      "tafRaw": "TAF LIRN 090500Z 0906/1006 VRB05KT 9999 BKN025 \n  TEMPO 0906/0919 4000 SHRA \n  BECMG 0909/0911 25013KT \n  TEMPO 0912/1006 25016G28KT \n  TEMPO 0919/1006 4000 TSRA",
      "metarHtml": "METAR LIRN 090920Z 22008KT 9999 FEW020 SCT040 15/11 Q1012 NOSIG",
      "tafHtml": "TAF LIRN 090500Z 0906/1006 VRB05KT 9999 BKN025 \n  TEMPO 0906/0919 4000 <span class=\"hl\">SHRA</span> \n  BECMG 0909/0911 25013KT \n  TEMPO 0912/1006 25016G28KT \n  TEMPO 0919/1006 4000 <span class=\"hl\">TSRA</span>"
    },
    {
      "icao": "LIRZ",
      "iata": "PEG",
      "name": "Perugia San Francesco d'Assisi – Umbria International Airport",
      "updatedAt": "090920Z",
      "visibility_m": 10000,
      "taf_visibility_m": 4000,
      "worst_visibility_m": 4000,
      "ceiling_ft": null,
      "hazards": [
        "TSRA",
        "SHRA"
      ],
      "severityScore": 39,
      "metarRaw": "METAR LIRZ 090920Z AUTO 24004KT 170V270 9999 OVC015/// 09/08 Q1007",
      "tafRaw": "TAF LIRZ 090500Z 0906/1006 VRB05KT 9999 BKN040 \n  BECMG 0907/0909 19013KT \n  TEMPO 0906/0913 4000 SHRA \n  BECMG 0912/0914 25012KT \n  TEMPO 0913/1006 4000 TSRA \n  BECMG 0919/0921 19006KT",
      "metarHtml": "METAR LIRZ 090920Z AUTO 24004KT 170V270 9999 OVC015/// 09/08 Q1007",
      "tafHtml": "TAF LIRZ 090500Z 0906/1006 VRB05KT 9999 BKN040 \n  BECMG 0907/0909 19013KT \n  TEMPO 0906/0913 4000 <span class=\"hl\">SHRA</span> \n  BECMG 0912/0914 25012KT \n  TEMPO 0913/1006 4000 <span class=\"hl\">TSRA</span> \n  BECMG 0919/0921 19006KT"
    },
    {
      "icao": "LFOB",
      "iata": "BVA",
      "name": "Beauvais Tillé airport",
      "updatedAt": "090930Z",
      "visibility_m": 4000,
      "taf_visibility_m": 4000,
      "worst_visibility_m": 4000,
      "ceiling_ft": 1400,
      "hazards": [
        "RA",
        "SHRA"
      ],
      "severityScore": 38,
      "metarRaw": "METAR LFOB 090930Z AUTO 26018KT 9999 -RA BKN014 OVC020 05/03 Q0990 TEMPO 4000 SHRA BKN012TCU BECMG 25025G40KT",
      "tafRaw": "TAF LFOB 090500Z 0906/1006 25025G40KT 9999 OVC020 \n  TEMPO 0906/0921 4000 SHRA BKN012TCU \n  PROB30 \n  TEMPO 0906/0917 BKN005 \n  BECMG 0917/0921 28015G25KT \n  PROB40 \n  TEMPO 0921/1003 4500 -SHRA BKN012TCU",
      "metarHtml": "METAR LFOB 090930Z AUTO 26018KT 9999 -<span class=\"hl\">RA</span> BKN014 OVC020 05/03 Q0990 TEMPO 4000 <span class=\"hl\">SHRA</span> BKN012TCU BECMG 25025G40KT",
      "tafHtml": "TAF LFOB 090500Z 0906/1006 25025G40KT 9999 OVC020 \n  TEMPO 0906/0921 4000 <span class=\"hl\">SHRA</span> BKN012TCU \n  PROB30 \n  TEMPO 0906/0917 BKN005 \n  BECMG 0917/0921 28015G25KT \n  PROB40 \n  TEMPO 0921/1003 4500 -<span class=\"hl\">SHRA</span> BKN012TCU"
    },
    {
      "icao": "LATI",
      "iata": "TIA",
      "name": "Tirana International Airport Mother Teresa",
      "updatedAt": "090920Z",
      "visibility_m": 10000,
      "taf_visibility_m": 4000,
      "worst_visibility_m": 4000,
      "ceiling_ft": 3500,
      "hazards": [
        "RA",
        "TSRA"
      ],
      "severityScore": 37,
      "metarRaw": "METAR LATI 090920Z 17006KT 9999 -RA BKN035 OVC060 06/M00 Q1014 NOSIG",
      "tafRaw": "TAF LATI 090500Z 0906/1006 VRB05KT CAVOK TX14/0921Z TN01/0906Z \n  BECMG 0908/0910 15012KT \n  BECMG 0916/0918 RA BKN025 \n  PROB40 \n  TEMPO 0921/1006 22012KT 4000 TSRA FEW025CB OVC040",
      "metarHtml": "METAR LATI 090920Z 17006KT 9999 -<span class=\"hl\">RA</span> BKN035 OVC060 06/M00 Q1014 NOSIG",
      "tafHtml": "TAF LATI 090500Z 0906/1006 VRB05KT <span class=\"hl-vis\">CAVOK</span> TX14/0921Z TN01/0906Z \n  BECMG 0908/0910 15012KT \n  BECMG 0916/0918 <span class=\"hl\">RA</span> BKN025 \n  PROB40 \n  TEMPO 0921/1006 22012KT 4000 <span class=\"hl\">TSRA</span> FEW025CB OVC040"
    },
    {
      "icao": "LEXJ",
      "iata": "SDR",
      "name": "Seve Ballesteros-Santander Airport",
      "updatedAt": "090930Z",
      "visibility_m": 10000,
      "taf_visibility_m": 3000,
      "worst_visibility_m": 3000,
      "ceiling_ft": null,
      "hazards": [
        "TSRA",
        "RA"
      ],
      "severityScore": 37,
      "metarRaw": "METAR LEXJ 090930Z 30030G45KT 9999 SCT050 13/03 Q1017",
      "tafRaw": "TAF LEXJ 090800Z 0909/1009 29015KT 9999 SCT025 TX12/0913Z TN07/0921Z \n  TEMPO 0909/1002 3000 RA BKN010 \n  TEMPO 0909/0921 28018G35KT \n  TEMPO 0909/0918 28028G45KT \n  PROB30 \n  TEMPO 0911/0917 3000 TSRA BKN010 SCT025CB \n  PROB40 \n  TEMPO 0921/1007 28018G28KT",
      "metarHtml": "METAR LEXJ 090930Z 30030G45KT 9999 SCT050 13/03 Q1017",
      "tafHtml": "TAF LEXJ 090800Z 0909/1009 29015KT 9999 SCT025 TX12/0913Z TN07/0921Z \n  TEMPO 0909/1002 3000 <span class=\"hl\">RA</span> BKN010 \n  TEMPO 0909/0921 28018G35KT \n  TEMPO 0909/0918 28028G45KT \n  PROB30 \n  TEMPO 0911/0917 3000 <span class=\"hl\">TSRA</span> BKN010 SCT025CB \n  PROB40 \n  TEMPO 0921/1007 28018G28KT"
    },
    {
      "icao": "LLBG",
      "iata": "TLV",
      "name": "Ben Gurion International Airport",
      "updatedAt": "090920Z",
      "visibility_m": 5000,
      "taf_visibility_m": 5000,
      "worst_visibility_m": 5000,
      "ceiling_ft": 3000,
      "hazards": [
        "TSRA",
        "RA"
      ],
      "severityScore": 37,
      "metarRaw": "METAR LLBG 090920Z 28017KT 9999 SCT045 19/09 Q1013 TEMPO 28020G30KT 5000 TSRA FEW025CB BKN030",
      "tafRaw": "TAF LLBG 090502Z 0906/1006 24014KT 9999 SCT025 BKN035 \n  TEMPO 0906/0915 26025G40KT 5000 TSRA FEW020CB BKN025 \n  BECMG 0915/0917 29012KT SCT030 \n  PROB40 \n  TEMPO 0917/1006 31018G28KT 7000 RA FEW025TCU BKN030 TX18/0911Z TN15/1004Z",
      "metarHtml": "METAR LLBG 090920Z 28017KT 9999 SCT045 19/09 Q1013 TEMPO 28020G30KT 5000 <span class=\"hl\">TSRA</span> FEW025CB BKN030",
      "tafHtml": "TAF LLBG 090502Z 0906/1006 24014KT 9999 SCT025 BKN035 \n  TEMPO 0906/0915 26025G40KT 5000 <span class=\"hl\">TSRA</span> FEW020CB BKN025 \n  BECMG 0915/0917 29012KT SCT030 \n  PROB40 \n  TEMPO 0917/1006 31018G28KT 7000 <span class=\"hl\">RA</span> FEW025TCU BKN030 TX18/0911Z TN15/1004Z"
    },
    {
      "icao": "LRBS",
      "iata": "BBU",
      "name": "Bucharest Băneasa Aurel Vlaicu International Airport",
      "updatedAt": "090930Z",
      "visibility_m": 10000,
      "taf_visibility_m": 5000,
      "worst_visibility_m": 5000,
      "ceiling_ft": null,
      "hazards": [
        "FZRA"
      ],
      "severityScore": 35,
      "metarRaw": "METAR LRBS 090930Z 26011KT 240V310 CAVOK M01/M06 Q1007 NOSIG",
      "tafRaw": "TAF LRBS 090500Z 0906/1006 25012KT CAVOK \n  BECMG 0918/0920 VRB04KT \n  BECMG 1001/1003 -FZRA BKN015 OVC035 \n  PROB30 \n  TEMPO 1003/1006 5000 FZRA BKN010 OVC030",
      "metarHtml": "METAR LRBS 090930Z 26011KT 240V310 <span class=\"hl-vis\">CAVOK</span> M01/M06 Q1007 NOSIG",
      "tafHtml": "TAF LRBS 090500Z 0906/1006 25012KT <span class=\"hl-vis\">CAVOK</span> \n  BECMG 0918/0920 VRB04KT \n  BECMG 1001/1003 -<span class=\"hl\">FZRA</span> BKN015 OVC035 \n  PROB30 \n  TEMPO 1003/1006 5000 <span class=\"hl\">FZRA</span> BKN010 OVC030"
    },
    {
      "icao": "LROP",
      "iata": "OTP",
      "name": "Bucharest Henri Coandă International Airport",
      "updatedAt": "090930Z",
      "visibility_m": 10000,
      "taf_visibility_m": 5000,
      "worst_visibility_m": 5000,
      "ceiling_ft": null,
      "hazards": [
        "FZRA"
      ],
      "severityScore": 35,
      "metarRaw": "METAR LROP 090930Z 25011KT CAVOK M00/M05 Q1007 NOSIG",
      "tafRaw": "TAF LROP 090500Z 0906/1006 25012KT CAVOK \n  BECMG 0918/0920 VRB04KT \n  BECMG 1001/1003 -FZRA BKN015 OVC035 \n  PROB30 \n  TEMPO 1003/1006 5000 FZRA BKN010 OVC030",
      "metarHtml": "METAR LROP 090930Z 25011KT <span class=\"hl-vis\">CAVOK</span> M00/M05 Q1007 NOSIG",
      "tafHtml": "TAF LROP 090500Z 0906/1006 25012KT <span class=\"hl-vis\">CAVOK</span> \n  BECMG 0918/0920 VRB04KT \n  BECMG 1001/1003 -<span class=\"hl\">FZRA</span> BKN015 OVC035 \n  PROB30 \n  TEMPO 1003/1006 5000 <span class=\"hl\">FZRA</span> BKN010 OVC030"
    },
    {
      "icao": "LYNI",
      "iata": "INI",
      "name": "Niš Constantine the Great Airport",
      "updatedAt": "090930Z",
      "visibility_m": 10000,
      "taf_visibility_m": 3000,
      "worst_visibility_m": 3000,
      "ceiling_ft": null,
      "hazards": [
        "FZRA"
      ],
      "severityScore": 35,
      "metarRaw": "METAR LYNI 090930Z VRB01KT CAVOK M03/M06 Q1012 NOSIG",
      "tafRaw": "TAF LYNI 090500Z 0906/1006 19004KT CAVOK TX02/0914Z TNM10/0906Z \n  TEMPO 0915/1002 5000 -FZRA \n  PROB40 \n  TEMPO 0917/0924 3000 FZRA",
      "metarHtml": "METAR LYNI 090930Z VRB01KT <span class=\"hl-vis\">CAVOK</span> M03/M06 Q1012 NOSIG",
      "tafHtml": "TAF LYNI 090500Z 0906/1006 19004KT <span class=\"hl-vis\">CAVOK</span> TX02/0914Z TNM10/0906Z \n  TEMPO 0915/1002 5000 -<span class=\"hl\">FZRA</span> \n  PROB40 \n  TEMPO 0917/0924 3000 <span class=\"hl\">FZRA</span>"
    },
    {
      "icao": "LZIB",
      "iata": "BTS",
      "name": "M. R. Štefánik Airport",
      "updatedAt": "090930Z",
      "visibility_m": 2000,
      "taf_visibility_m": null,
      "worst_visibility_m": 2000,
      "ceiling_ft": 1200,
      "hazards": [
        "SN"
      ],
      "severityScore": 35,
      "metarRaw": "METAR LZIB 090930Z 06007KT 6000 -SN SCT045 M06/M09 Q1005 TEMPO 2000 SN BKN012",
      "tafRaw": null,
      "metarHtml": "METAR LZIB 090930Z 06007KT 6000 -<span class=\"hl\">SN</span> SCT045 M06/M09 Q1005 TEMPO 2000 <span class=\"hl\">SN</span> BKN012",
      "tafHtml": null
    },
    {
      "icao": "LEZL",
      "iata": "SVQ",
      "name": "Sevilla Airport",
      "updatedAt": "090930Z",
      "visibility_m": 9000,
      "taf_visibility_m": 2000,
      "worst_visibility_m": 2000,
      "ceiling_ft": 1200,
      "hazards": [
        "BR",
        "RA"
      ],
      "severityScore": 34,
      "metarRaw": "METAR LEZL 090930Z 24003KT 210V290 9000 OVC012 11/09 Q1030 NOSIG",
      "tafRaw": "TAF LEZL 090800Z 0909/1009 VRB03KT 9999 BKN020 TX16/0915Z TN06/1007Z \n  PROB40 \n  TEMPO 0909/0911 BKN010 \n  PROB40 \n  TEMPO 0911/0915 27010KT RA BKN012 \n  PROB30 \n  TEMPO 1001/1009 2000 BR BKN005",
      "metarHtml": "METAR LEZL 090930Z 24003KT 210V290 9000 OVC012 11/09 Q1030 NOSIG",
      "tafHtml": "TAF LEZL 090800Z 0909/1009 VRB03KT 9999 BKN020 TX16/0915Z TN06/1007Z \n  PROB40 \n  TEMPO 0909/0911 BKN010 \n  PROB40 \n  TEMPO 0911/0915 27010KT <span class=\"hl\">RA</span> BKN012 \n  PROB30 \n  TEMPO 1001/1009 2000 <span class=\"hl\">BR</span> BKN005"
    },
    {
      "icao": "EDDS",
      "iata": "STR",
      "name": "Stuttgart Airport",
      "updatedAt": "090920Z",
      "visibility_m": 10000,
      "taf_visibility_m": 4000,
      "worst_visibility_m": 4000,
      "ceiling_ft": null,
      "hazards": [
        "SN",
        "SHRA"
      ],
      "severityScore": 32,
      "metarRaw": "METAR EDDS 090920Z AUTO 23011G27KT 170V270 9999 SCT039 08/01 Q0994 NOSIG",
      "tafRaw": "TAF EDDS 090500Z 0906/1006 20010KT 9999 SCT030 \n  BECMG 0906/0909 21015G30KT \n  TEMPO 0910/0915 21020G35KT \n  BECMG 0913/0915 20010KT \n  TEMPO 0915/0920 20015G25KT 4000 SHRA BKN030CB \n  PROB40 \n  TEMPO 1000/1006 4000 -SN",
      "metarHtml": "METAR EDDS 090920Z AUTO 23011G27KT 170V270 9999 SCT039 08/01 Q0994 NOSIG",
      "tafHtml": "TAF EDDS 090500Z 0906/1006 20010KT 9999 SCT030 \n  BECMG 0906/0909 21015G30KT \n  TEMPO 0910/0915 21020G35KT \n  BECMG 0913/0915 20010KT \n  TEMPO 0915/0920 20015G25KT 4000 <span class=\"hl\">SHRA</span> BKN030CB \n  PROB40 \n  TEMPO 1000/1006 4000 -<span class=\"hl\">SN</span>"
    },
    {
      "icao": "LIPR",
      "iata": "RMI",
      "name": "Federico Fellini International Airport",
      "updatedAt": "090920Z",
      "visibility_m": 10000,
      "taf_visibility_m": 1500,
      "worst_visibility_m": 1500,
      "ceiling_ft": null,
      "hazards": [
        "BR",
        "RA"
      ],
      "severityScore": 32,
      "metarRaw": "METAR LIPR 090920Z VRB02KT 9999 FEW060 03/M02 Q1005",
      "tafRaw": "TAF LIPR 090500Z 0906/1006 VRB05KT 9999 BKN040 \n  BECMG 0908/0910 29010KT \n  BECMG 0918/0920 VRB05KT \n  TEMPO 0920/0924 1500 BR \n  BECMG 0923/1001 30010KT \n  TEMPO 1000/1006 2000 RA",
      "metarHtml": "METAR LIPR 090920Z VRB02KT 9999 FEW060 03/M02 Q1005",
      "tafHtml": "TAF LIPR 090500Z 0906/1006 VRB05KT 9999 BKN040 \n  BECMG 0908/0910 29010KT \n  BECMG 0918/0920 VRB05KT \n  TEMPO 0920/0924 1500 <span class=\"hl\">BR</span> \n  BECMG 0923/1001 30010KT \n  TEMPO 1000/1006 2000 <span class=\"hl\">RA</span>"
    },
    {
      "icao": "LIMC",
      "iata": "MXP",
      "name": "Milan Malpensa International Airport",
      "updatedAt": "090920Z",
      "visibility_m": 6000,
      "taf_visibility_m": 4000,
      "worst_visibility_m": 4000,
      "ceiling_ft": 1000,
      "hazards": [
        "SN"
      ],
      "severityScore": 30,
      "metarRaw": "METAR LIMC 090920Z VRB01KT 6000 BKN010 01/M02 Q1006 NOSIG",
      "tafRaw": "TAF LIMC 090500Z 0906/1012 VRB04KT 9999 BKN025 \n  PROB30 \n  TEMPO 0906/0909 4000 -SN",
      "metarHtml": "METAR LIMC 090920Z VRB01KT 6000 BKN010 01/M02 Q1006 NOSIG",
      "tafHtml": "TAF LIMC 090500Z 0906/1012 VRB04KT 9999 BKN025 \n  PROB30 \n  TEMPO 0906/0909 4000 -<span class=\"hl\">SN</span>"
    },
    {
      "icao": "EPKK",
      "iata": "KRK",
      "name": "Kraków John Paul II International Airport",
      "updatedAt": "090930Z",
      "visibility_m": 10000,
      "taf_visibility_m": 2000,
      "worst_visibility_m": 2000,
      "ceiling_ft": null,
      "hazards": [
        "BR",
        "SN"
      ],
      "severityScore": 28,
      "metarRaw": "METAR EPKK 090930Z 24004KT CAVOK M07/M10 Q1004",
      "tafRaw": "TAF EPKK 090830Z 0909/1009 25006KT 9999 BKN010 \n  BECMG 0909/0911 CAVOK \n  BECMG 0912/0915 07010KT \n  BECMG 0922/0924 BKN013 \n  TEMPO 1000/1009 2000 -SN BR BKN009",
      "metarHtml": "METAR EPKK 090930Z 24004KT <span class=\"hl-vis\">CAVOK</span> M07/M10 Q1004",
      "tafHtml": "TAF EPKK 090830Z 0909/1009 25006KT 9999 BKN010 \n  BECMG 0909/0911 <span class=\"hl-vis\">CAVOK</span> \n  BECMG 0912/0915 07010KT \n  BECMG 0922/0924 BKN013 \n  TEMPO 1000/1009 2000 -<span class=\"hl\">SN</span> <span class=\"hl\">BR</span> BKN009"
    },
    {
      "icao": "EPMO",
      "iata": "WMI",
      "name": "Modlin Airport",
      "updatedAt": "090930Z",
      "visibility_m": 9000,
      "taf_visibility_m": 2000,
      "worst_visibility_m": 2000,
      "ceiling_ft": null,
      "hazards": [
        "BR",
        "SN"
      ],
      "severityScore": 28,
      "metarRaw": "METAR EPMO 090930Z 29009KT 9000 NSC M11/M12 Q1003",
      "tafRaw": "TAF EPMO 090530Z 0906/1006 31008KT 8000 NSC \n  PROB30 0906/0910 4500 -SN BR BKN008 \n  PROB40 0910/0921 BKN014 \n  PROB40 0921/1006 2000 -SG BR BKN003",
      "metarHtml": "METAR EPMO 090930Z 29009KT 9000 NSC M11/M12 Q1003",
      "tafHtml": "TAF EPMO 090530Z 0906/1006 31008KT 8000 NSC \n  PROB30 0906/0910 4500 -<span class=\"hl\">SN</span> <span class=\"hl\">BR</span> BKN008 \n  PROB40 0910/0921 BKN014 \n  PROB40 0921/1006 2000 -SG <span class=\"hl\">BR</span> BKN003"
    },
    {
      "icao": "EPRZ",
      "iata": "RZE",
      "name": "Rzeszów-Jasionka Airport",
      "updatedAt": "090930Z",
      "visibility_m": 10000,
      "taf_visibility_m": 4000,
      "worst_visibility_m": 4000,
      "ceiling_ft": 3000,
      "hazards": [
        "BR",
        "SN"
      ],
      "severityScore": 28,
      "metarRaw": "METAR EPRZ 090930Z 26018KT 9999 BKN030 M07/M10 Q1003",
      "tafRaw": "TAF EPRZ 090530Z 0906/1006 31015KT 9999 -SN OVC013 \n  TEMPO 0906/0909 30015G25KT DRSN OVC007 \n  BECMG 0909/0911 BKN025 \n  BECMG 0914/0916 VRB02KT \n  TEMPO 1002/1006 4000 -SN BR BKN011",
      "metarHtml": "METAR EPRZ 090930Z 26018KT 9999 BKN030 M07/M10 Q1003",
      "tafHtml": "TAF EPRZ 090530Z 0906/1006 31015KT 9999 -<span class=\"hl\">SN</span> OVC013 \n  TEMPO 0906/0909 30015G25KT DRSN OVC007 \n  BECMG 0909/0911 BKN025 \n  BECMG 0914/0916 VRB02KT \n  TEMPO 1002/1006 4000 -<span class=\"hl\">SN</span> <span class=\"hl\">BR</span> BKN011"
    },
    {
      "icao": "EPWR",
      "iata": "WRO",
      "name": "Copernicus Wrocław Airport",
      "updatedAt": "090930Z",
      "visibility_m": 4500,
      "taf_visibility_m": 3500,
      "worst_visibility_m": 3500,
      "ceiling_ft": null,
      "hazards": [
        "BR",
        "SN"
      ],
      "severityScore": 28,
      "metarRaw": "METAR EPWR 090930Z 10004KT 060V120 4500 BR NSC M09/M11 Q1005",
      "tafRaw": "TAF EPWR 090830Z 0909/1009 10006KT 3500 BR FEW002 \n  BECMG 0909/0911 CAVOK \n  TEMPO 0912/0924 BKN012 \n  TEMPO 1000/1009 4000 -SN BR BKN012",
      "metarHtml": "METAR EPWR 090930Z 10004KT 060V120 4500 <span class=\"hl\">BR</span> NSC M09/M11 Q1005",
      "tafHtml": "TAF EPWR 090830Z 0909/1009 10006KT 3500 <span class=\"hl\">BR</span> FEW002 \n  BECMG 0909/0911 <span class=\"hl-vis\">CAVOK</span> \n  TEMPO 0912/0924 BKN012 \n  TEMPO 1000/1009 4000 -<span class=\"hl\">SN</span> <span class=\"hl\">BR</span> BKN012"
    },
    {
      "icao": "LHBP",
      "iata": "BUD",
      "name": "Budapest Liszt Ferenc International Airport",
      "updatedAt": "090930Z",
      "visibility_m": 3500,
      "taf_visibility_m": 2500,
      "worst_visibility_m": 2500,
      "ceiling_ft": 5000,
      "hazards": [
        "SN",
        "BR"
      ],
      "severityScore": 28,
      "metarRaw": "METAR LHBP 090930Z VRB02KT 8000 NSC M06/M09 Q1006 TEMPO 3500 SN SCT030 BKN050",
      "tafRaw": "TAF LHBP 090515Z 0906/1006 VRB03KT CAVOK \n  BECMG 0908/0911 11007KT -SN SCT030 BKN060 \n  TEMPO 0911/0917 2500 SN BKN012 OVC040 \n  BECMG 0917/0920 04005KT CAVOK \n  TEMPO 0921/1006 VRB02KT 4000 BR BKN004",
      "metarHtml": "METAR LHBP 090930Z VRB02KT 8000 NSC M06/M09 Q1006 TEMPO 3500 <span class=\"hl\">SN</span> SCT030 BKN050",
      "tafHtml": "TAF LHBP 090515Z 0906/1006 VRB03KT <span class=\"hl-vis\">CAVOK</span> \n  BECMG 0908/0911 11007KT -<span class=\"hl\">SN</span> SCT030 BKN060 \n  TEMPO 0911/0917 2500 <span class=\"hl\">SN</span> BKN012 OVC040 \n  BECMG 0917/0920 04005KT <span class=\"hl-vis\">CAVOK</span> \n  TEMPO 0921/1006 VRB02KT 4000 <span class=\"hl\">BR</span> BKN004"
    },
    {
      "icao": "LHDC",
      "iata": "DEB",
      "name": "Debrecen International Airport",
      "updatedAt": "090915Z",
      "visibility_m": 5000,
      "taf_visibility_m": 4500,
      "worst_visibility_m": 4500,
      "ceiling_ft": null,
      "hazards": [
        "BR",
        "SN"
      ],
      "severityScore": 28,
      "metarRaw": "METAR LHDC 090915Z AUTO 21006KT 170V230 5000 BR NCD M11/M13 Q1008 NOSIG",
      "tafRaw": "TAF LHDC 090815Z 0909/0918 19008KT 7000 NSC \n  TEMPO 0909/0910 4500 BR \n  TEMPO 0913/0918 5000 -SN FEW012 OVC025 \n  BECMG 0914/0917 VRB03KT OVC030",
      "metarHtml": "METAR LHDC 090915Z AUTO 21006KT 170V230 5000 <span class=\"hl\">BR</span> NCD M11/M13 Q1008 NOSIG",
      "tafHtml": "TAF LHDC 090815Z 0909/0918 19008KT 7000 NSC \n  TEMPO 0909/0910 4500 <span class=\"hl\">BR</span> \n  TEMPO 0913/0918 5000 -<span class=\"hl\">SN</span> FEW012 OVC025 \n  BECMG 0914/0917 VRB03KT OVC030"
    },
    {
      "icao": "LRBV",
      "iata": "GHV",
      "name": "Brașov-Ghimbav International Airport",
      "updatedAt": "090930Z",
      "visibility_m": 10000,
      "taf_visibility_m": 5000,
      "worst_visibility_m": 5000,
      "ceiling_ft": null,
      "hazards": [
        "BR",
        "SN"
      ],
      "severityScore": 28,
      "metarRaw": "METAR LRBV 090930Z 30006KT 260V320 9999 FEW023 SCT031 M05/M10 Q1005",
      "tafRaw": "TAF LRBV 090800Z 0909/0918 VRB04KT 9999 -SN SCT015 OVC030 \n  TEMPO 0909/0911 5000 -SN BR BKN010 OVC025",
      "metarHtml": "METAR LRBV 090930Z 30006KT 260V320 9999 FEW023 SCT031 M05/M10 Q1005",
      "tafHtml": "TAF LRBV 090800Z 0909/0918 VRB04KT 9999 -<span class=\"hl\">SN</span> SCT015 OVC030 \n  TEMPO 0909/0911 5000 -<span class=\"hl\">SN</span> <span class=\"hl\">BR</span> BKN010 OVC025"
    },
    {
      "icao": "LRSB",
      "iata": "SBZ",
      "name": "Sibiu International Airport",
      "updatedAt": "090930Z",
      "visibility_m": 10000,
      "taf_visibility_m": 3000,
      "worst_visibility_m": 3000,
      "ceiling_ft": null,
      "hazards": [
        "BR",
        "SN"
      ],
      "severityScore": 28,
      "metarRaw": "METAR LRSB 090930Z 12003KT CAVOK M04/M10 Q1005",
      "tafRaw": "TAF LRSB 090500Z 0906/1006 29012KT 9999 OVC050 \n  BECMG 0908/0910 VRB04KT \n  BECMG 1001/1003 5000 -SN BR BKN010 OVC025 \n  TEMPO 1003/1006 3000 SN BR BKN005 OVC020",
      "metarHtml": "METAR LRSB 090930Z 12003KT <span class=\"hl-vis\">CAVOK</span> M04/M10 Q1005",
      "tafHtml": "TAF LRSB 090500Z 0906/1006 29012KT 9999 OVC050 \n  BECMG 0908/0910 VRB04KT \n  BECMG 1001/1003 5000 -<span class=\"hl\">SN</span> <span class=\"hl\">BR</span> BKN010 OVC025 \n  TEMPO 1003/1006 3000 <span class=\"hl\">SN</span> <span class=\"hl\">BR</span> BKN005 OVC020"
    },
    {
      "icao": "LTAC",
      "iata": "ESB",
      "name": "Esenboğa International Airport",
      "updatedAt": "090920Z",
      "visibility_m": 10000,
      "taf_visibility_m": 4000,
      "worst_visibility_m": 4000,
      "ceiling_ft": null,
      "hazards": [
        "BR",
        "SN"
      ],
      "severityScore": 28,
      "metarRaw": "METAR LTAC 090920Z 26016KT 9999 SCT040 SCT080 02/M03 Q1005 NOSIG RMK RWY21C 25016KT RWY03L 26014KT RWY21R 24015KT RWY03R 24015KT RWY21L 25015KT",
      "tafRaw": "TAF LTAC 090440Z 0906/1006 24012KT 8000 SCT040 BKN100 \n  TEMPO 0906/0909 4000 -SN BR SCT010 BKN030 BKN080 \n  TEMPO 0910/0913 27015G25KT 4000 -SN BR SCT010 BKN025 BKN080 \n  BECMG 0919/0922 VRB02KT",
      "metarHtml": "METAR LTAC 090920Z 26016KT 9999 SCT040 SCT080 02/M03 Q1005 NOSIG RMK RWY21C 25016KT RWY03L 26014KT RWY21R 24015KT RWY03R 24015KT RWY21L 25015KT",
      "tafHtml": "TAF LTAC 090440Z 0906/1006 24012KT 8000 SCT040 BKN100 \n  TEMPO 0906/0909 4000 -<span class=\"hl\">SN</span> <span class=\"hl\">BR</span> SCT010 BKN030 BKN080 \n  TEMPO 0910/0913 27015G25KT 4000 -<span class=\"hl\">SN</span> <span class=\"hl\">BR</span> SCT010 BKN025 BKN080 \n  BECMG 0919/0922 VRB02KT"
    },
    {
      "icao": "EGGP",
      "iata": "LPL",
      "name": "Liverpool John Lennon Airport",
      "updatedAt": "090920Z",
      "visibility_m": 10000,
      "taf_visibility_m": 4000,
      "worst_visibility_m": 4000,
      "ceiling_ft": null,
      "hazards": [
        "RA",
        "SHRA"
      ],
      "severityScore": 26,
      "metarRaw": "METAR EGGP 090920Z 32009KT 9999 SCT028 SCT037 04/01 Q0998",
      "tafRaw": "TAF EGGP 090453Z 0906/1006 34012KT 9999 SCT016 \n  TEMPO 0906/0909 6000 RA BKN012 \n  PROB40 \n  TEMPO 0906/0909 34015G25KT \n  TEMPO 0909/0914 7000 SHRA BKN012 \n  PROB30 \n  TEMPO 0909/0914 4000 RADZ BKN004 \n  PROB30 \n  TEMPO 0914/0919 7000 SHRA \n  BECMG 0923/1002 VRB03KT",
      "metarHtml": "METAR EGGP 090920Z 32009KT 9999 SCT028 SCT037 04/01 Q0998",
      "tafHtml": "TAF EGGP 090453Z 0906/1006 34012KT 9999 SCT016 \n  TEMPO 0906/0909 6000 <span class=\"hl\">RA</span> BKN012 \n  PROB40 \n  TEMPO 0906/0909 34015G25KT \n  TEMPO 0909/0914 7000 <span class=\"hl\">SHRA</span> BKN012 \n  PROB30 \n  TEMPO 0909/0914 4000 RADZ BKN004 \n  PROB30 \n  TEMPO 0914/0919 7000 <span class=\"hl\">SHRA</span> \n  BECMG 0923/1002 VRB03KT"
    },
    {
      "icao": "EGPF",
      "iata": "GLA",
      "name": "Glasgow Airport",
      "updatedAt": "090920Z",
      "visibility_m": 10000,
      "taf_visibility_m": 3000,
      "worst_visibility_m": 3000,
      "ceiling_ft": 3000,
      "hazards": [
        "RA",
        "SHRA"
      ],
      "severityScore": 26,
      "metarRaw": "METAR EGPF 090920Z AUTO 24004KT 9999 OVC030 M01/M01 Q1001",
      "tafRaw": "TAF EGPF 090504Z 0906/1006 VRB03KT 9999 SCT025 \n  TEMPO 0906/1002 6000 RA SHRA BKN009 \n  PROB30 \n  TEMPO 0906/1002 3000 SHRASN BKN004 \n  PROB30 1002/1006 8000",
      "metarHtml": "METAR EGPF 090920Z AUTO 24004KT 9999 OVC030 M01/M01 Q1001",
      "tafHtml": "TAF EGPF 090504Z 0906/1006 VRB03KT 9999 SCT025 \n  TEMPO 0906/1002 6000 <span class=\"hl\">RA</span> <span class=\"hl\">SHRA</span> BKN009 \n  PROB30 \n  TEMPO 0906/1002 3000 SHRASN BKN004 \n  PROB30 1002/1006 8000"
    },
    {
      "icao": "LFLL",
      "iata": "LYS",
      "name": "Lyon Saint-Exupéry Airport",
      "updatedAt": "090930Z",
      "visibility_m": 10000,
      "taf_visibility_m": 3000,
      "worst_visibility_m": 3000,
      "ceiling_ft": 13000,
      "hazards": [
        "RA",
        "SHRA"
      ],
      "severityScore": 26,
      "metarRaw": "METAR LFLL 090930Z 23017KT 9999 FEW050 SCT053 BKN130 08/01 Q1006 NOSIG",
      "tafRaw": "TAF LFLL 090500Z 0906/1012 22012KT 9999 BKN045 \n  PROB30 \n  TEMPO 0906/0910 4000 RA SCT030TCU \n  PROB30 \n  TEMPO 0914/0924 32010KT 3000 SHRA BKN025TCU \n  BECMG 1005/1007 29010KT \n  PROB30 \n  TEMPO 1007/1012 4000 -SHRASN",
      "metarHtml": "METAR LFLL 090930Z 23017KT 9999 FEW050 SCT053 BKN130 08/01 Q1006 NOSIG",
      "tafHtml": "TAF LFLL 090500Z 0906/1012 22012KT 9999 BKN045 \n  PROB30 \n  TEMPO 0906/0910 4000 <span class=\"hl\">RA</span> SCT030TCU \n  PROB30 \n  TEMPO 0914/0924 32010KT 3000 <span class=\"hl\">SHRA</span> BKN025TCU \n  BECMG 1005/1007 29010KT \n  PROB30 \n  TEMPO 1007/1012 4000 -SHRASN"
    },
    {
      "icao": "LFLS",
      "iata": "GNB",
      "name": "Grenoble Alpes Isère Airport",
      "updatedAt": "090930Z",
      "visibility_m": 10000,
      "taf_visibility_m": 2000,
      "worst_visibility_m": 2000,
      "ceiling_ft": 6000,
      "hazards": [
        "SHRA",
        "SHSN"
      ],
      "severityScore": 24,
      "metarRaw": "METAR LFLS 090930Z AUTO 21010KT 9999 FEW048 BKN060 BKN076 07/01 Q1007 NOSIG",
      "tafRaw": "TAF LFLS 090800Z 0909/1009 20014KT 9999 SCT045 SCT100 \n  TEMPO 0914/0919 4000 -SHRA BKN025TCU \n  BECMG 0919/0920 28008KT \n  PROB40 \n  TEMPO 1000/1005 4000 -SHRASN BKN020TCU \n  PROB40 \n  TEMPO 1005/1009 2000 -SHSN BKN006 BKN020TCU",
      "metarHtml": "METAR LFLS 090930Z AUTO 21010KT 9999 FEW048 BKN060 BKN076 07/01 Q1007 NOSIG",
      "tafHtml": "TAF LFLS 090800Z 0909/1009 20014KT 9999 SCT045 SCT100 \n  TEMPO 0914/0919 4000 -<span class=\"hl\">SHRA</span> BKN025TCU \n  BECMG 0919/0920 28008KT \n  PROB40 \n  TEMPO 1000/1005 4000 -SHRASN BKN020TCU \n  PROB40 \n  TEMPO 1005/1009 2000 -<span class=\"hl\">SHSN</span> BKN006 BKN020TCU"
    },
    {
      "icao": "BKPR",
      "iata": "PRN",
      "name": "Priština Adem Jashari International Airport",
      "updatedAt": "090930Z",
      "visibility_m": 10000,
      "taf_visibility_m": null,
      "worst_visibility_m": 10000,
      "ceiling_ft": 5000,
      "hazards": [
        "SN"
      ],
      "severityScore": 23,
      "metarRaw": "METAR BKPR 090930Z 06004KT 030V110 9999 -SN FEW015 BKN050 M04/M07 Q1011 NOSIG",
      "tafRaw": null,
      "metarHtml": "METAR BKPR 090930Z 06004KT 030V110 9999 -<span class=\"hl\">SN</span> FEW015 BKN050 M04/M07 Q1011 NOSIG",
      "tafHtml": null
    },
    {
      "icao": "ENGM",
      "iata": "OSL",
      "name": "Oslo-Gardermoen International Airport",
      "updatedAt": "090920Z",
      "visibility_m": 10000,
      "taf_visibility_m": null,
      "worst_visibility_m": 10000,
      "ceiling_ft": 4200,
      "hazards": [
        "SN"
      ],
      "severityScore": 23,
      "metarRaw": "METAR ENGM 090920Z 02004KT 9999 -SN OVC042 M07/M09 Q1017 NOSIG",
      "tafRaw": null,
      "metarHtml": "METAR ENGM 090920Z 02004KT 9999 -<span class=\"hl\">SN</span> OVC042 M07/M09 Q1017 NOSIG",
      "tafHtml": null
    },
    {
      "icao": "LIPQ",
      "iata": "TRS",
      "name": "Trieste–Friuli Venezia Giulia Airport",
      "updatedAt": "090920Z",
      "visibility_m": 4100,
      "taf_visibility_m": 2000,
      "worst_visibility_m": 2000,
      "ceiling_ft": null,
      "hazards": [
        "BR",
        "RA"
      ],
      "severityScore": 22,
      "metarRaw": "METAR LIPQ 090920Z AUTO 06003KT 4100 -RA BR OVC014/// 02/02 Q1004",
      "tafRaw": "TAF LIPQ 090500Z 0906/1006 VRB05KT 9999 BKN030 \n  PROB30 \n  TEMPO 0906/0914 RA \n  TEMPO 0916/0924 2000 BR",
      "metarHtml": "METAR LIPQ 090920Z AUTO 06003KT 4100 -<span class=\"hl\">RA</span> <span class=\"hl\">BR</span> OVC014/// 02/02 Q1004",
      "tafHtml": "TAF LIPQ 090500Z 0906/1006 VRB05KT 9999 BKN030 \n  PROB30 \n  TEMPO 0906/0914 <span class=\"hl\">RA</span> \n  TEMPO 0916/0924 2000 <span class=\"hl\">BR</span>"
    },
    {
      "icao": "LPFR",
      "iata": "FAO",
      "name": "Faro Airport",
      "updatedAt": "090930Z",
      "visibility_m": 10000,
      "taf_visibility_m": 5000,
      "worst_visibility_m": 5000,
      "ceiling_ft": null,
      "hazards": [
        "BR",
        "RA"
      ],
      "severityScore": 22,
      "metarRaw": "METAR LPFR 090930Z 29004KT 9999 FEW035 SCT045 12/12 Q1030",
      "tafRaw": "TAF LPFR 090500Z 0906/1006 31005KT 9999 SCT012 BKN020 \n  PROB30 \n  TEMPO 0906/0909 5000 -RADZ BR SCT004 BKN008 \n  BECMG 0912/0914 26013KT \n  TEMPO 0912/0916 6000 -RA SCT006 BKN012 \n  BECMG 0918/0920 31005KT FEW020",
      "metarHtml": "METAR LPFR 090930Z 29004KT 9999 FEW035 SCT045 12/12 Q1030",
      "tafHtml": "TAF LPFR 090500Z 0906/1006 31005KT 9999 SCT012 BKN020 \n  PROB30 \n  TEMPO 0906/0909 5000 -RADZ <span class=\"hl\">BR</span> SCT004 BKN008 \n  BECMG 0912/0914 26013KT \n  TEMPO 0912/0916 6000 -<span class=\"hl\">RA</span> SCT006 BKN012 \n  BECMG 0918/0920 31005KT FEW020"
    },
    {
      "icao": "EGPD",
      "iata": "ABZ",
      "name": "Aberdeen International Airport",
      "updatedAt": "090920Z",
      "visibility_m": 10000,
      "taf_visibility_m": 1500,
      "worst_visibility_m": 1500,
      "ceiling_ft": 4600,
      "hazards": [
        "SHSN"
      ],
      "severityScore": 20,
      "metarRaw": "METAR EGPD 090920Z COR AUTO 34004KT 9999 OVC046 M03/M04 Q1001 NOSIG",
      "tafRaw": "TAF EGPD 090455Z 0906/1006 VRB03KT 9999 FEW009 \n  TEMPO 0906/0915 4000 -SHSN BKN009 \n  PROB40 \n  TEMPO 0906/0910 2000 SHSN BKN004 \n  BECMG 0909/0912 12010KT \n  PROB40 \n  TEMPO 0912/0924 SHRASN BKN006 \n  TEMPO 0915/1006 6000 -SHRASN BKN014 \n  PROB30 \n  TEMPO 0921/1001 13015G25KT \n  PROB40 \n  TEMPO 1000/1006 1500 SHSN BKN004",
      "metarHtml": "METAR EGPD 090920Z COR AUTO 34004KT 9999 OVC046 M03/M04 Q1001 NOSIG",
      "tafHtml": "TAF EGPD 090455Z 0906/1006 VRB03KT 9999 FEW009 \n  TEMPO 0906/0915 4000 -<span class=\"hl\">SHSN</span> BKN009 \n  PROB40 \n  TEMPO 0906/0910 2000 <span class=\"hl\">SHSN</span> BKN004 \n  BECMG 0909/0912 12010KT \n  PROB40 \n  TEMPO 0912/0924 SHRASN BKN006 \n  TEMPO 0915/1006 6000 -SHRASN BKN014 \n  PROB30 \n  TEMPO 0921/1001 13015G25KT \n  PROB40 \n  TEMPO 1000/1006 1500 <span class=\"hl\">SHSN</span> BKN004"
    },
    {
      "icao": "OMDB",
      "iata": "DXB",
      "name": "Dubai International Airport",
      "updatedAt": "090930Z",
      "visibility_m": 10000,
      "taf_visibility_m": 1500,
      "worst_visibility_m": 1500,
      "ceiling_ft": null,
      "hazards": [
        "BR"
      ],
      "severityScore": 20,
      "metarRaw": "METAR OMDB 090930Z VRB03KT 9999 FEW045 23/11 Q1018 NOSIG",
      "tafRaw": "TAF OMDB 090500Z 0906/1012 06005KT 8000 NSC \n  BECMG 0909/0911 34010KT \n  BECMG 0915/0917 06005KT \n  PROB30 1001/1006 1500 BR BKN003 \n  BECMG 1009/1011 28010KT",
      "metarHtml": "METAR OMDB 090930Z VRB03KT 9999 FEW045 23/11 Q1018 NOSIG",
      "tafHtml": "TAF OMDB 090500Z 0906/1012 06005KT 8000 NSC \n  BECMG 0909/0911 34010KT \n  BECMG 0915/0917 06005KT \n  PROB30 1001/1006 1500 <span class=\"hl\">BR</span> BKN003 \n  BECMG 1009/1011 28010KT"
    },
    {
      "icao": "ENTO",
      "iata": "TRF",
      "name": "Sandefjord Airport, Torp",
      "updatedAt": "090920Z",
      "visibility_m": 10000,
      "taf_visibility_m": 10000,
      "worst_visibility_m": 10000,
      "ceiling_ft": 4100,
      "hazards": [
        "SN"
      ],
      "severityScore": 18,
      "metarRaw": "METAR ENTO 090920Z 01008KT 9999 FEW032 OVC041 M07/M08 Q1016 NOSIG",
      "tafRaw": "TAF ENTO 090500Z 0906/1006 03010KT 9999 -SN SCT012 BKN020 \n  TEMPO 0906/0918 BKN012",
      "metarHtml": "METAR ENTO 090920Z 01008KT 9999 FEW032 OVC041 M07/M08 Q1016 NOSIG",
      "tafHtml": "TAF ENTO 090500Z 0906/1006 03010KT 9999 -<span class=\"hl\">SN</span> SCT012 BKN020 \n  TEMPO 0906/0918 BKN012"
    },
    {
      "icao": "EPSY",
      "iata": "SZY",
      "name": "Olsztyn-Mazury Airport",
      "updatedAt": "090930Z",
      "visibility_m": 10000,
      "taf_visibility_m": 3000,
      "worst_visibility_m": 3000,
      "ceiling_ft": null,
      "hazards": [
        "SN"
      ],
      "severityScore": 18,
      "metarRaw": "METAR EPSY 090930Z 34009KT CAVOK M10/M12 Q1004",
      "tafRaw": "TAF EPSY 090830Z 0909/0918 36010KT CAVOK \n  BECMG 0912/0914 BKN010 \n  PROB40 \n  TEMPO 0914/0918 3000 SN BKN005",
      "metarHtml": "METAR EPSY 090930Z 34009KT <span class=\"hl-vis\">CAVOK</span> M10/M12 Q1004",
      "tafHtml": "TAF EPSY 090830Z 0909/0918 36010KT <span class=\"hl-vis\">CAVOK</span> \n  BECMG 0912/0914 BKN010 \n  PROB40 \n  TEMPO 0914/0918 3000 <span class=\"hl\">SN</span> BKN005"
    },
    {
      "icao": "ESSA",
      "iata": "ARN",
      "name": "Stockholm-Arlanda Airport",
      "updatedAt": "090920Z",
      "visibility_m": 10000,
      "taf_visibility_m": 10000,
      "worst_visibility_m": 10000,
      "ceiling_ft": 3300,
      "hazards": [
        "SN"
      ],
      "severityScore": 18,
      "metarRaw": "METAR ESSA 090920Z 06012KT 9999 -SN FEW026 BKN033 M04/M07 Q1020 NOSIG",
      "tafRaw": "TAF ESSA 090830Z 0909/1009 10012KT 9999 SCT035 \n  BECMG 0916/0918 04010KT \n  BECMG 1007/1009 34010KT",
      "metarHtml": "METAR ESSA 090920Z 06012KT 9999 -<span class=\"hl\">SN</span> FEW026 BKN033 M04/M07 Q1020 NOSIG",
      "tafHtml": "TAF ESSA 090830Z 0909/1009 10012KT 9999 SCT035 \n  BECMG 0916/0918 04010KT \n  BECMG 1007/1009 34010KT"
    },
    {
      "icao": "LBSF",
      "iata": "SOF",
      "name": "Sofia Airport",
      "updatedAt": "090930Z",
      "visibility_m": 10000,
      "taf_visibility_m": 3000,
      "worst_visibility_m": 3000,
      "ceiling_ft": null,
      "hazards": [
        "SN"
      ],
      "severityScore": 18,
      "metarRaw": "METAR LBSF 090930Z 33006KT 270V010 CAVOK M00/M08 Q1010 NOSIG",
      "tafRaw": "TAF LBSF 090500Z 0906/1006 VRB04KT 9999 SCT030 \n  TEMPO 0917/0923 5000 SN BKN020 OVC030 \n  TEMPO 1000/1004 3000 SN BKN015 OVC030",
      "metarHtml": "METAR LBSF 090930Z 33006KT 270V010 <span class=\"hl-vis\">CAVOK</span> M00/M08 Q1010 NOSIG",
      "tafHtml": "TAF LBSF 090500Z 0906/1006 VRB04KT 9999 SCT030 \n  TEMPO 0917/0923 5000 <span class=\"hl\">SN</span> BKN020 OVC030 \n  TEMPO 1000/1004 3000 <span class=\"hl\">SN</span> BKN015 OVC030"
    },
    {
      "icao": "LIME",
      "iata": "BGY",
      "name": "Milan Bergamo Airport / Antonio Locatelli Air Base",
      "updatedAt": "090920Z",
      "visibility_m": 10000,
      "taf_visibility_m": 4000,
      "worst_visibility_m": 4000,
      "ceiling_ft": 3500,
      "hazards": [
        "SN"
      ],
      "severityScore": 18,
      "metarRaw": "METAR LIME 090920Z 26005KT 9999 SCT025 BKN035 01/M05 Q1005 NOSIG",
      "tafRaw": "TAF LIME 090500Z 0906/1006 VRB04KT 9999 SCT050 \n  PROB40 \n  TEMPO 0906/0910 4000 -SN BKN010",
      "metarHtml": "METAR LIME 090920Z 26005KT 9999 SCT025 BKN035 01/M05 Q1005 NOSIG",
      "tafHtml": "TAF LIME 090500Z 0906/1006 VRB04KT 9999 SCT050 \n  PROB40 \n  TEMPO 0906/0910 4000 -<span class=\"hl\">SN</span> BKN010"
    },
    {
      "icao": "LRSM",
      "iata": "SUJ",
      "name": "Satu Mare International Airport",
      "updatedAt": "090930Z",
      "visibility_m": 10000,
      "taf_visibility_m": 5000,
      "worst_visibility_m": 5000,
      "ceiling_ft": null,
      "hazards": [
        "SN"
      ],
      "severityScore": 18,
      "metarRaw": "METAR LRSM 090930Z 21004KT CAVOK M09/M12 Q1008",
      "tafRaw": "TAF LRSM 090800Z 0909/0918 VRB04KT CAVOK \n  TEMPO 0916/0918 5000 -SN BKN015 BKN040",
      "metarHtml": "METAR LRSM 090930Z 21004KT <span class=\"hl-vis\">CAVOK</span> M09/M12 Q1008",
      "tafHtml": "TAF LRSM 090800Z 0909/0918 VRB04KT <span class=\"hl-vis\">CAVOK</span> \n  TEMPO 0916/0918 5000 -<span class=\"hl\">SN</span> BKN015 BKN040"
    },
    {
      "icao": "OJAI",
      "iata": "AMM",
      "name": "Queen Alia International Airport",
      "updatedAt": "090900Z",
      "visibility_m": 2500,
      "taf_visibility_m": null,
      "worst_visibility_m": 2500,
      "ceiling_ft": 2500,
      "hazards": [
        "RA"
      ],
      "severityScore": 17,
      "metarRaw": "METAR OJAI 090900Z 26018KT 2500 RA FEW015 BKN025 11/10 Q1014 NOSIG",
      "tafRaw": null,
      "metarHtml": "METAR OJAI 090900Z 26018KT 2500 <span class=\"hl\">RA</span> FEW015 BKN025 11/10 Q1014 NOSIG",
      "tafHtml": null
    },
    {
      "icao": "EPKT",
      "iata": "KTW",
      "name": "Katowice Wojciech Korfanty International Airport",
      "updatedAt": "090930Z",
      "visibility_m": 5000,
      "taf_visibility_m": null,
      "worst_visibility_m": 5000,
      "ceiling_ft": null,
      "hazards": [
        "BR"
      ],
      "severityScore": 15,
      "metarRaw": "METAR EPKT 090930Z VRB01KT 5000 BR NSC M06/M07 Q1004",
      "tafRaw": null,
      "metarHtml": "METAR EPKT 090930Z VRB01KT 5000 <span class=\"hl\">BR</span> NSC M06/M07 Q1004",
      "tafHtml": null
    },
    {
      "icao": "LQTZ",
      "iata": "TZL",
      "name": "Tuzla International Airport",
      "updatedAt": "090930Z",
      "visibility_m": 3000,
      "taf_visibility_m": null,
      "worst_visibility_m": 3000,
      "ceiling_ft": 4500,
      "hazards": [
        "BR"
      ],
      "severityScore": 15,
      "metarRaw": "METAR LQTZ 090930Z VRB01KT 3000 BR SCT005 BKN045 M08/M08 Q1006",
      "tafRaw": null,
      "metarHtml": "METAR LQTZ 090930Z VRB01KT 3000 <span class=\"hl\">BR</span> SCT005 BKN045 M08/M08 Q1006",
      "tafHtml": null
    },
    {
      "icao": "EDNY",
      "iata": "FDH",
      "name": "Friedrichshafen Airport",
      "updatedAt": "090920Z",
      "visibility_m": 10000,
      "taf_visibility_m": 10000,
      "worst_visibility_m": 10000,
      "ceiling_ft": null,
      "hazards": [
        "SHRA"
      ],
      "severityScore": 14,
      "metarRaw": "METAR EDNY 090920Z 25014KT 9999 FEW056 06/02 Q0998",
      "tafRaw": "TAF EDNY 090800Z 0909/0918 24015G25KT 9999 SCT020 \n  TEMPO 0909/0916 24020G35KT \n  PROB30 \n  TEMPO 0914/0918 SHRA SCT025TCU",
      "metarHtml": "METAR EDNY 090920Z 25014KT 9999 FEW056 06/02 Q0998",
      "tafHtml": "TAF EDNY 090800Z 0909/0918 24015G25KT 9999 SCT020 \n  TEMPO 0909/0916 24020G35KT \n  PROB30 \n  TEMPO 0914/0918 <span class=\"hl\">SHRA</span> SCT025TCU"
    },
    {
      "icao": "EDSB",
      "iata": "FKB",
      "name": "Karlsruhe Baden-Baden Airport",
      "updatedAt": "090920Z",
      "visibility_m": 10000,
      "taf_visibility_m": 4000,
      "worst_visibility_m": 4000,
      "ceiling_ft": 4500,
      "hazards": [
        "SHRA"
      ],
      "severityScore": 14,
      "metarRaw": "METAR EDSB 090920Z 20024G34KT 9999 BKN045 08/03 Q0994",
      "tafRaw": "TAF EDSB 090500Z 0906/1006 20020G30KT 9999 SCT030 \n  TEMPO 0910/0920 22030G40KT SHRA BKN030CB \n  BECMG 0917/0920 20015G25KT \n  PROB30 \n  TEMPO 1002/1006 4000 RADZ BKN010",
      "metarHtml": "METAR EDSB 090920Z 20024G34KT 9999 BKN045 08/03 Q0994",
      "tafHtml": "TAF EDSB 090500Z 0906/1006 20020G30KT 9999 SCT030 \n  TEMPO 0910/0920 22030G40KT <span class=\"hl\">SHRA</span> BKN030CB \n  BECMG 0917/0920 20015G25KT \n  PROB30 \n  TEMPO 1002/1006 4000 RADZ BKN010"
    },
    {
      "icao": "LFPO",
      "iata": "ORY",
      "name": "Paris-Orly Airport",
      "updatedAt": "090930Z",
      "visibility_m": 10000,
      "taf_visibility_m": 4000,
      "worst_visibility_m": 4000,
      "ceiling_ft": 3000,
      "hazards": [
        "SHRA"
      ],
      "severityScore": 14,
      "metarRaw": "METAR LFPO 090930Z 25022KT 9999 FEW023 BKN030 06/02 Q0994 NOSIG",
      "tafRaw": "TAF LFPO 090500Z 0906/1012 24025G40KT 9999 BKN030 \n  PROB30 \n  TEMPO 0906/0908 24030G50KT \n  PROB40 \n  TEMPO 0906/0922 4000 SHRA BKN030TCU \n  BECMG 0911/0914 27015G30KT \n  BECMG 0917/0920 27015KT \n  BECMG 1000/1003 27010KT",
      "metarHtml": "METAR LFPO 090930Z 25022KT 9999 FEW023 BKN030 06/02 Q0994 NOSIG",
      "tafHtml": "TAF LFPO 090500Z 0906/1012 24025G40KT 9999 BKN030 \n  PROB30 \n  TEMPO 0906/0908 24030G50KT \n  PROB40 \n  TEMPO 0906/0922 4000 <span class=\"hl\">SHRA</span> BKN030TCU \n  BECMG 0911/0914 27015G30KT \n  BECMG 0917/0920 27015KT \n  BECMG 1000/1003 27010KT"
    },
    {
      "icao": "LIBD",
      "iata": "BRI",
      "name": "Bari Karol Wojtyła International Airport",
      "updatedAt": "090920Z",
      "visibility_m": 10000,
      "taf_visibility_m": 4000,
      "worst_visibility_m": 4000,
      "ceiling_ft": null,
      "hazards": [
        "SHRA"
      ],
      "severityScore": 14,
      "metarRaw": "METAR LIBD 090920Z 15005KT CAVOK 13/08 Q1010",
      "tafRaw": "TAF LIBD 090500Z 0906/1006 17008KT 9999 FEW020 \n  BECMG 0908/0910 23015KT \n  TEMPO 1000/1006 4000 SHRA",
      "metarHtml": "METAR LIBD 090920Z 15005KT <span class=\"hl-vis\">CAVOK</span> 13/08 Q1010",
      "tafHtml": "TAF LIBD 090500Z 0906/1006 17008KT 9999 FEW020 \n  BECMG 0908/0910 23015KT \n  TEMPO 1000/1006 4000 <span class=\"hl\">SHRA</span>"
    },
    {
      "icao": "LICC",
      "iata": "CTA",
      "name": "Catania-Fontanarossa Airport",
      "updatedAt": "090920Z",
      "visibility_m": 10000,
      "taf_visibility_m": 10000,
      "worst_visibility_m": 10000,
      "ceiling_ft": null,
      "hazards": [
        "SHRA"
      ],
      "severityScore": 14,
      "metarRaw": "METAR LICC 090920Z 25017KT 9999 FEW060 17/12 Q1018",
      "tafRaw": "TAF LICC 090500Z 0906/1006 26013KT 9999 FEW050 \n  TEMPO 0909/0918 26018G30KT \n  PROB40 \n  TEMPO 1000/1006 SHRA \n  BECMG 1004/1006 26018G30KT",
      "metarHtml": "METAR LICC 090920Z 25017KT 9999 FEW060 17/12 Q1018",
      "tafHtml": "TAF LICC 090500Z 0906/1006 26013KT 9999 FEW050 \n  TEMPO 0909/0918 26018G30KT \n  PROB40 \n  TEMPO 1000/1006 <span class=\"hl\">SHRA</span> \n  BECMG 1004/1006 26018G30KT"
    },
    {
      "icao": "LIPY",
      "iata": "AOI",
      "name": "Marche Airport",
      "updatedAt": "090920Z",
      "visibility_m": 10000,
      "taf_visibility_m": 4000,
      "worst_visibility_m": 4000,
      "ceiling_ft": null,
      "hazards": [
        "SHRA"
      ],
      "severityScore": 14,
      "metarRaw": "METAR LIPY 090920Z AUTO 01005KT 320V050 9999 SCT048/// BKN150/// 07/04 Q1004",
      "tafRaw": "TAF LIPY 090500Z 0906/1006 VRB05KT 9999 SCT035 \n  BECMG 0910/0912 24015KT \n  TEMPO 0915/0918 24015G25KT \n  BECMG 1000/1002 32015KT \n  TEMPO 1000/1006 4000 SHRA",
      "metarHtml": "METAR LIPY 090920Z AUTO 01005KT 320V050 9999 SCT048/// BKN150/// 07/04 Q1004",
      "tafHtml": "TAF LIPY 090500Z 0906/1006 VRB05KT 9999 SCT035 \n  BECMG 0910/0912 24015KT \n  TEMPO 0915/0918 24015G25KT \n  BECMG 1000/1002 32015KT \n  TEMPO 1000/1006 4000 <span class=\"hl\">SHRA</span>"
    },
    {
      "icao": "LPPR",
      "iata": "OPO",
      "name": "Francisco de Sá Carneiro Airport",
      "updatedAt": "090930Z",
      "visibility_m": 10000,
      "taf_visibility_m": 8000,
      "worst_visibility_m": 8000,
      "ceiling_ft": 3100,
      "hazards": [
        "SHRA"
      ],
      "severityScore": 14,
      "metarRaw": "METAR LPPR 090930Z 30008KT 270V330 9999 FEW018 SCT026 BKN031 13/08 Q1027",
      "tafRaw": "TAF LPPR 090500Z 0906/1006 30010KT 9999 FEW020 \n  PROB30 \n  TEMPO 0906/0915 8000 SHRA SCT012 FEW018TCU BKN030 \n  BECMG 0916/0918 33007KT \n  BECMG 0921/0923 VRB02KT BKN020",
      "metarHtml": "METAR LPPR 090930Z 30008KT 270V330 9999 FEW018 SCT026 BKN031 13/08 Q1027",
      "tafHtml": "TAF LPPR 090500Z 0906/1006 30010KT 9999 FEW020 \n  PROB30 \n  TEMPO 0906/0915 8000 <span class=\"hl\">SHRA</span> SCT012 FEW018TCU BKN030 \n  BECMG 0916/0918 33007KT \n  BECMG 0921/0923 VRB02KT BKN020"
    },
    {
      "icao": "LTFM",
      "iata": "IST",
      "name": "İstanbul Airport",
      "updatedAt": "090920Z",
      "visibility_m": 10000,
      "taf_visibility_m": 10000,
      "worst_visibility_m": 10000,
      "ceiling_ft": null,
      "hazards": [
        "SHRA"
      ],
      "severityScore": 14,
      "metarRaw": "METAR LTFM 090920Z 24013KT 9999 FEW040 03/M07 Q1011 NOSIG RMK RWY17L 23013KT RWY34L 23011KT RWY16R 23010KT RWY36 25013KT RWY18 25014KT",
      "tafRaw": "TAF LTFM 090440Z 0906/1012 26008KT 9999 FEW040 \n  BECMG 0906/0909 26015G25KT CAVOK \n  BECMG 0914/0917 20014KT SCT035 BKN080 \n  BECMG 0918/0921 19019G29KT \n  BECMG 1005/1008 21028G39KT BKN028 BKN080 \n  PROB40 \n  TEMPO 1009/1012 -SHRA FEW017TCU BKN025",
      "metarHtml": "METAR LTFM 090920Z 24013KT 9999 FEW040 03/M07 Q1011 NOSIG RMK RWY17L 23013KT RWY34L 23011KT RWY16R 23010KT RWY36 25013KT RWY18 25014KT",
      "tafHtml": "TAF LTFM 090440Z 0906/1012 26008KT 9999 FEW040 \n  BECMG 0906/0909 26015G25KT <span class=\"hl-vis\">CAVOK</span> \n  BECMG 0914/0917 20014KT SCT035 BKN080 \n  BECMG 0918/0921 19019G29KT \n  BECMG 1005/1008 21028G39KT BKN028 BKN080 \n  PROB40 \n  TEMPO 1009/1012 -<span class=\"hl\">SHRA</span> FEW017TCU BKN025"
    },
    {
      "icao": "UGKO",
      "iata": "KUT",
      "name": "David the Builder Kutaisi International Airport",
      "updatedAt": "090930Z",
      "visibility_m": 10000,
      "taf_visibility_m": 3000,
      "worst_visibility_m": 3000,
      "ceiling_ft": 5000,
      "hazards": [
        "SHRA"
      ],
      "severityScore": 14,
      "metarRaw": "METAR UGKO 090930Z 25020G30KT 9999 BKN016CB OVC050 10/07 Q1004 NOSIG",
      "tafRaw": "TAF UGKO 090500Z 0906/1006 08010KT 9999 BKN050 TX12/0906Z TN04/1003Z \n  BECMG 0908/0911 26010KT \n  TEMPO 0908/0914 26020KT 4000 SHRA BKN020CB OVC050 \n  TEMPO 0916/0920 VRB02KT \n  TEMPO 0922/1006 26020KT 3000 SHRA BKN017CB OVC040",
      "metarHtml": "METAR UGKO 090930Z 25020G30KT 9999 BKN016CB OVC050 10/07 Q1004 NOSIG",
      "tafHtml": "TAF UGKO 090500Z 0906/1006 08010KT 9999 BKN050 TX12/0906Z TN04/1003Z \n  BECMG 0908/0911 26010KT \n  TEMPO 0908/0914 26020KT 4000 <span class=\"hl\">SHRA</span> BKN020CB OVC050 \n  TEMPO 0916/0920 VRB02KT \n  TEMPO 0922/1006 26020KT 3000 <span class=\"hl\">SHRA</span> BKN017CB OVC040"
    },
    {
      "icao": "EDDN",
      "iata": "NUE",
      "name": "Nuremberg Airport",
      "updatedAt": "090920Z",
      "visibility_m": 10000,
      "taf_visibility_m": 2500,
      "worst_visibility_m": 2500,
      "ceiling_ft": 4300,
      "hazards": [
        "RA"
      ],
      "severityScore": 12,
      "metarRaw": "METAR EDDN 090920Z AUTO 14007KT 9999 SCT030 BKN043 04/02 Q0995 NOSIG",
      "tafRaw": "TAF EDDN 090500Z 0906/1006 13010KT 9999 FEW015 BKN025 \n  BECMG 0909/0912 19010KT \n  PROB40 \n  TEMPO 0918/1002 4500 RA BKN012 \n  TEMPO 1002/1006 2500 RASN BKN008",
      "metarHtml": "METAR EDDN 090920Z AUTO 14007KT 9999 SCT030 BKN043 04/02 Q0995 NOSIG",
      "tafHtml": "TAF EDDN 090500Z 0906/1006 13010KT 9999 FEW015 BKN025 \n  BECMG 0909/0912 19010KT \n  PROB40 \n  TEMPO 0918/1002 4500 <span class=\"hl\">RA</span> BKN012 \n  TEMPO 1002/1006 2500 RASN BKN008"
    },
    {
      "icao": "EGNM",
      "iata": "LBA",
      "name": "Leeds Bradford Airport",
      "updatedAt": "090920Z",
      "visibility_m": 10000,
      "taf_visibility_m": 4000,
      "worst_visibility_m": 4000,
      "ceiling_ft": null,
      "hazards": [
        "RA"
      ],
      "severityScore": 12,
      "metarRaw": "METAR EGNM 090920Z 35011KT 9999 VCSH SCT008 SCT020 02/01 Q0995",
      "tafRaw": "TAF EGNM 090455Z 0906/1006 01012KT 9999 BKN018 \n  TEMPO 0906/0910 02015G25KT 6000 RA -RADZ BKN010 \n  PROB30 \n  TEMPO 0906/0910 4000 RADZ RASN BKN004 \n  PROB30 \n  TEMPO 0910/0917 4000 SHRASN BKN006 \n  PROB30 1003/1006 7000",
      "metarHtml": "METAR EGNM 090920Z 35011KT 9999 VCSH SCT008 SCT020 02/01 Q0995",
      "tafHtml": "TAF EGNM 090455Z 0906/1006 01012KT 9999 BKN018 \n  TEMPO 0906/0910 02015G25KT 6000 <span class=\"hl\">RA</span> -RADZ BKN010 \n  PROB30 \n  TEMPO 0906/0910 4000 RADZ RASN BKN004 \n  PROB30 \n  TEMPO 0910/0917 4000 SHRASN BKN006 \n  PROB30 1003/1006 7000"
    },
    {
      "icao": "HESX",
      "iata": "SPX",
      "name": "Sphinx International Airport",
      "updatedAt": "090900Z",
      "visibility_m": 10000,
      "taf_visibility_m": 4000,
      "worst_visibility_m": 4000,
      "ceiling_ft": null,
      "hazards": [
        "RA"
      ],
      "severityScore": 12,
      "metarRaw": "METAR HESX 090900Z 28017KT CAVOK 17/04 Q1019 NOSIG",
      "tafRaw": "TAF HESX 090500Z 0906/1012 27015KT 6000 SCT025 \n  TEMPO 0906/0910 29015G25KT 5000 RA SA SCT020 BKN022 \n  PROB40 \n  TEMPO 0910/0916 27020G30KT 4000 SA",
      "metarHtml": "METAR HESX 090900Z 28017KT <span class=\"hl-vis\">CAVOK</span> 17/04 Q1019 NOSIG",
      "tafHtml": "TAF HESX 090500Z 0906/1012 27015KT 6000 SCT025 \n  TEMPO 0906/0910 29015G25KT 5000 <span class=\"hl\">RA</span> SA SCT020 BKN022 \n  PROB40 \n  TEMPO 0910/0916 27020G30KT 4000 SA"
    },
    {
      "icao": "LGTS",
      "iata": "SKG",
      "name": "Thessaloniki Macedonia International Airport",
      "updatedAt": "090920Z",
      "visibility_m": 10000,
      "taf_visibility_m": 5000,
      "worst_visibility_m": 5000,
      "ceiling_ft": null,
      "hazards": [
        "RA"
      ],
      "severityScore": 12,
      "metarRaw": "METAR LGTS 090920Z 10004KT CAVOK 08/M06 Q1013 NOSIG",
      "tafRaw": "TAF LGTS 090500Z 0906/1006 31015KT 9999 FEW025 \n  BECMG 0907/0909 VRB03KT \n  BECMG 1002/1004 FEW015 BKN030 \n  PROB40 \n  TEMPO 1004/1006 5000 RA",
      "metarHtml": "METAR LGTS 090920Z 10004KT <span class=\"hl-vis\">CAVOK</span> 08/M06 Q1013 NOSIG",
      "tafHtml": "TAF LGTS 090500Z 0906/1006 31015KT 9999 FEW025 \n  BECMG 0907/0909 VRB03KT \n  BECMG 1002/1004 FEW015 BKN030 \n  PROB40 \n  TEMPO 1004/1006 5000 <span class=\"hl\">RA</span>"
    },
    {
      "icao": "LIBP",
      "iata": "PSR",
      "name": "Abruzzo Airport",
      "updatedAt": "090920Z",
      "visibility_m": 10000,
      "taf_visibility_m": 3000,
      "worst_visibility_m": 3000,
      "ceiling_ft": null,
      "hazards": [
        "RA"
      ],
      "severityScore": 12,
      "metarRaw": "METAR LIBP 090920Z AUTO 22016KT 9999 FEW170/// 17/07 Q1005",
      "tafRaw": "TAF LIBP 090500Z 0906/1006 VRB06KT 9999 SCT025 \n  BECMG 0906/0908 24012KT \n  TEMPO 0912/0920 24015G25KT \n  TEMPO 1000/1006 3000 RA",
      "metarHtml": "METAR LIBP 090920Z AUTO 22016KT 9999 FEW170/// 17/07 Q1005",
      "tafHtml": "TAF LIBP 090500Z 0906/1006 VRB06KT 9999 SCT025 \n  BECMG 0906/0908 24012KT \n  TEMPO 0912/0920 24015G25KT \n  TEMPO 1000/1006 3000 <span class=\"hl\">RA</span>"
    },
    {
      "icao": "LIBR",
      "iata": "BDS",
      "name": "Brindisi Airport",
      "updatedAt": "090920Z",
      "visibility_m": 10000,
      "taf_visibility_m": 4000,
      "worst_visibility_m": 4000,
      "ceiling_ft": null,
      "hazards": [
        "RA"
      ],
      "severityScore": 12,
      "metarRaw": "METAR LIBR 090920Z 17007KT CAVOK 10/07 Q1012",
      "tafRaw": "TAF LIBR 090500Z 0906/1006 17010KT 9999 FEW040 \n  PROB30 \n  TEMPO 0906/0909 4000 RA \n  BECMG 0916/0918 24013KT \n  TEMPO 0921/1006 4000 RA",
      "metarHtml": "METAR LIBR 090920Z 17007KT <span class=\"hl-vis\">CAVOK</span> 10/07 Q1012",
      "tafHtml": "TAF LIBR 090500Z 0906/1006 17010KT 9999 FEW040 \n  PROB30 \n  TEMPO 0906/0909 4000 <span class=\"hl\">RA</span> \n  BECMG 0916/0918 24013KT \n  TEMPO 0921/1006 4000 <span class=\"hl\">RA</span>"
    },
    {
      "icao": "LIRP",
      "iata": "PSA",
      "name": "Pisa International Airport",
      "updatedAt": "090915Z",
      "visibility_m": 10000,
      "taf_visibility_m": 10000,
      "worst_visibility_m": 10000,
      "ceiling_ft": 2500,
      "hazards": [
        "RA"
      ],
      "severityScore": 12,
      "metarRaw": "METAR LIRP 090915Z 24015KT 9999 FEW015 FEW020TCU BKN025 13/11 Q1005 TEMPO 24017G30KT",
      "tafRaw": "TAF LIRP 090500Z 0906/1006 12003KT 9999 SCT020 SCT030 \n  BECMG 0908/0910 27015KT \n  TEMPO 0911/0918 27015G25KT \n  BECMG 0920/0922 30010KT RA \n  BECMG 1002/1004 33005KT NSW",
      "metarHtml": "METAR LIRP 090915Z 24015KT 9999 FEW015 FEW020TCU BKN025 13/11 Q1005 TEMPO 24017G30KT",
      "tafHtml": "TAF LIRP 090500Z 0906/1006 12003KT 9999 SCT020 SCT030 \n  BECMG 0908/0910 27015KT \n  TEMPO 0911/0918 27015G25KT \n  BECMG 0920/0922 30010KT <span class=\"hl\">RA</span> \n  BECMG 1002/1004 33005KT NSW"
    },
    {
      "icao": "LPPS",
      "iata": "PXO",
      "name": "Porto Santo Airport",
      "updatedAt": "090930Z",
      "visibility_m": 10000,
      "taf_visibility_m": 6000,
      "worst_visibility_m": 6000,
      "ceiling_ft": null,
      "hazards": [
        "RA"
      ],
      "severityScore": 12,
      "metarRaw": "METAR LPPS 090930Z 36005KT 9999 3000N SCT005 SCT030 14/13 Q1034",
      "tafRaw": "TAF LPPS 090500Z 0906/1012 05008KT 9999 FEW015 SCT030 \n  PROB30 \n  TEMPO 0906/0912 6000 -RA SCT006 BKN012 \n  PROB30 \n  TEMPO 0912/0919 10008KT",
      "metarHtml": "METAR LPPS 090930Z 36005KT 9999 3000N SCT005 SCT030 14/13 Q1034",
      "tafHtml": "TAF LPPS 090500Z 0906/1012 05008KT 9999 FEW015 SCT030 \n  PROB30 \n  TEMPO 0906/0912 6000 -<span class=\"hl\">RA</span> SCT006 BKN012 \n  PROB30 \n  TEMPO 0912/0919 10008KT"
    },
    {
      "icao": "LWSK",
      "iata": "SKP",
      "name": "Skopje International Airport",
      "updatedAt": "090920Z",
      "visibility_m": 10000,
      "taf_visibility_m": 10000,
      "worst_visibility_m": 10000,
      "ceiling_ft": 9500,
      "hazards": [
        "RA"
      ],
      "severityScore": 12,
      "metarRaw": "METAR LWSK 090920Z VRB02KT 9999 BKN095 M02/M06 Q1014 NOSIG",
      "tafRaw": "TAF LWSK 090810Z 0909/1009 VRB02KT CAVOK \n  BECMG 0912/0921 14012KT SCT045 \n  TEMPO 0921/1009 RA SCT020 OVC040",
      "metarHtml": "METAR LWSK 090920Z VRB02KT 9999 BKN095 M02/M06 Q1014 NOSIG",
      "tafHtml": "TAF LWSK 090810Z 0909/1009 VRB02KT <span class=\"hl-vis\">CAVOK</span> \n  BECMG 0912/0921 14012KT SCT045 \n  TEMPO 0921/1009 <span class=\"hl\">RA</span> SCT020 OVC040"
    },
    {
      "icao": "EPSC",
      "iata": "SZZ",
      "name": "Solidarity Szczecin–Goleniów Airport",
      "updatedAt": "090930Z",
      "visibility_m": 10000,
      "taf_visibility_m": 2000,
      "worst_visibility_m": 2000,
      "ceiling_ft": null,
      "hazards": [
        "BR"
      ],
      "severityScore": 10,
      "metarRaw": "METAR EPSC 090930Z 09010KT CAVOK M08/M11 Q1006",
      "tafRaw": "TAF EPSC 090530Z 0906/1006 10008KT CAVOK \n  TEMPO 0906/0908 2000 BR BKN002 \n  TEMPO 0909/0921 09015G25KT",
      "metarHtml": "METAR EPSC 090930Z 09010KT <span class=\"hl-vis\">CAVOK</span> M08/M11 Q1006",
      "tafHtml": "TAF EPSC 090530Z 0906/1006 10008KT <span class=\"hl-vis\">CAVOK</span> \n  TEMPO 0906/0908 2000 <span class=\"hl\">BR</span> BKN002 \n  TEMPO 0909/0921 09015G25KT"
    },
    {
      "icao": "EPWA",
      "iata": "WAW",
      "name": "Warsaw Chopin Airport",
      "updatedAt": "090930Z",
      "visibility_m": 10000,
      "taf_visibility_m": 3000,
      "worst_visibility_m": 3000,
      "ceiling_ft": null,
      "hazards": [
        "BR"
      ],
      "severityScore": 10,
      "metarRaw": "METAR EPWA 090930Z 29009KT 9999 FEW007 M11/M12 Q1003 NOSIG",
      "tafRaw": "TAF EPWA 090830Z 0909/1009 30010KT 9999 SCT030 \n  PROB40 0921/1007 3000 -SG BR BKN004",
      "metarHtml": "METAR EPWA 090930Z 29009KT 9999 FEW007 M11/M12 Q1003 NOSIG",
      "tafHtml": "TAF EPWA 090830Z 0909/1009 30010KT 9999 SCT030 \n  PROB40 0921/1007 3000 -SG <span class=\"hl\">BR</span> BKN004"
    },
    {
      "icao": "HEGN",
      "iata": "HRG",
      "name": "Hurghada International Airport",
      "updatedAt": "090900Z",
      "visibility_m": 3000,
      "taf_visibility_m": 1400,
      "worst_visibility_m": 1400,
      "ceiling_ft": null,
      "hazards": [],
      "severityScore": 10,
      "metarRaw": "METAR HEGN 090900Z 33022KT 3000 SA NSC 24/09 Q1015 NOSIG",
      "tafRaw": "TAF HEGN 090500Z 0906/1012 32015G30KT 6000 NSC \n  TEMPO 0906/0918 3000 SA \n  TEMPO 0906/0913 1400",
      "metarHtml": "METAR HEGN 090900Z 33022KT 3000 SA NSC 24/09 Q1015 NOSIG",
      "tafHtml": "TAF HEGN 090500Z 0906/1012 32015G30KT 6000 NSC \n  TEMPO 0906/0918 3000 SA \n  TEMPO 0906/0913 1400"
    },
    {
      "icao": "LIPE",
      "iata": "BLQ",
      "name": "Bologna Guglielmo Marconi Airport",
      "updatedAt": "090920Z",
      "visibility_m": 10000,
      "taf_visibility_m": 2000,
      "worst_visibility_m": 2000,
      "ceiling_ft": 2000,
      "hazards": [
        "BR"
      ],
      "severityScore": 10,
      "metarRaw": "METAR LIPE 090920Z 23005KT 200V260 9999 BKN020 M00/M02 Q1006",
      "tafRaw": "TAF LIPE 090500Z 0906/1006 VRB05KT 9999 BKN020 \n  TEMPO 0921/1006 2000 BR",
      "metarHtml": "METAR LIPE 090920Z 23005KT 200V260 9999 BKN020 M00/M02 Q1006",
      "tafHtml": "TAF LIPE 090500Z 0906/1006 VRB05KT 9999 BKN020 \n  TEMPO 0921/1006 2000 <span class=\"hl\">BR</span>"
    },
    {
      "icao": "LIPZ",
      "iata": "VCE",
      "name": "Venice Marco Polo Airport",
      "updatedAt": "090920Z",
      "visibility_m": 9000,
      "taf_visibility_m": 10000,
      "worst_visibility_m": 9000,
      "ceiling_ft": 2000,
      "hazards": [
        "DZ"
      ],
      "severityScore": 10,
      "metarRaw": "METAR LIPZ 090920Z 34006KT 9000 -DZ BKN020 01/M02 Q1005 NOSIG",
      "tafRaw": "TAF LIPZ 090500Z 0906/1012 VRB06KT 9999 BKN020",
      "metarHtml": "METAR LIPZ 090920Z 34006KT 9000 -<span class=\"hl\">DZ</span> BKN020 01/M02 Q1005 NOSIG",
      "tafHtml": "TAF LIPZ 090500Z 0906/1012 VRB06KT 9999 BKN020"
    },
    {
      "icao": "LZKZ",
      "iata": "KSC",
      "name": "Košice International Airport",
      "updatedAt": "090930Z",
      "visibility_m": 10000,
      "taf_visibility_m": 2000,
      "worst_visibility_m": 2000,
      "ceiling_ft": null,
      "hazards": [
        "BR"
      ],
      "severityScore": 10,
      "metarRaw": "METAR LZKZ 090930Z VRB01KT CAVOK M08/M13 Q1005 NOSIG",
      "tafRaw": "TAF LZKZ 090515Z 0906/1006 VRB02KT CAVOK \n  PROB30 \n  TEMPO 0906/0909 2000 BR SCT002 \n  BECMG 0910/0912 22007KT BKN020 \n  BECMG 0916/0918 VRB02KT \n  TEMPO 0917/1006 2000 BR BKN012",
      "metarHtml": "METAR LZKZ 090930Z VRB01KT <span class=\"hl-vis\">CAVOK</span> M08/M13 Q1005 NOSIG",
      "tafHtml": "TAF LZKZ 090515Z 0906/1006 VRB02KT <span class=\"hl-vis\">CAVOK</span> \n  PROB30 \n  TEMPO 0906/0909 2000 <span class=\"hl\">BR</span> SCT002 \n  BECMG 0910/0912 22007KT BKN020 \n  BECMG 0916/0918 VRB02KT \n  TEMPO 0917/1006 2000 <span class=\"hl\">BR</span> BKN012"
    },
    {
      "icao": "OEJN",
      "iata": "JED",
      "name": "King Abdulaziz International Airport",
      "updatedAt": "090900Z",
      "visibility_m": 8000,
      "taf_visibility_m": 2000,
      "worst_visibility_m": 2000,
      "ceiling_ft": null,
      "hazards": [
        "BR"
      ],
      "severityScore": 10,
      "metarRaw": "METAR OEJN 090900Z 16006KT 8000 SCT040 29/17 Q1014 NOSIG",
      "tafRaw": "TAF OEJN 090500Z 0906/1012 23010KT 7000 FEW040 \n  BECMG 0918/0920 04006KT SCT040 \n  PROB30 \n  TEMPO 1000/1006 2000 BR \n  BECMG 1006/1008 36010KT",
      "metarHtml": "METAR OEJN 090900Z 16006KT 8000 SCT040 29/17 Q1014 NOSIG",
      "tafHtml": "TAF OEJN 090500Z 0906/1012 23010KT 7000 FEW040 \n  BECMG 0918/0920 04006KT SCT040 \n  PROB30 \n  TEMPO 1000/1006 2000 <span class=\"hl\">BR</span> \n  BECMG 1006/1008 36010KT"
    },
    {
      "icao": "UBBB",
      "iata": "GYD",
      "name": "Heydar Aliyev International Airport",
      "updatedAt": "090930Z",
      "visibility_m": 10000,
      "taf_visibility_m": 3000,
      "worst_visibility_m": 3000,
      "ceiling_ft": null,
      "hazards": [
        "BR"
      ],
      "severityScore": 10,
      "metarRaw": "METAR UBBB 090930Z 21012KT CAVOK 13/04 Q1001 NOSIG",
      "tafRaw": "TAF UBBB 090504Z 0906/1006 18024G34KT 8000 SCT012 TX12/0910Z TN08/1000Z \n  TEMPO 0906/0912 21028G38KT SCT006 SCT025 \n  TEMPO 0914/0917 23010KT 3000 BR BKN004 \n  BECMG 0917/0919 33016G26KT \n  TEMPO 0919/1006 35024G34KT SCT007 BKN020",
      "metarHtml": "METAR UBBB 090930Z 21012KT <span class=\"hl-vis\">CAVOK</span> 13/04 Q1001 NOSIG",
      "tafHtml": "TAF UBBB 090504Z 0906/1006 18024G34KT 8000 SCT012 TX12/0910Z TN08/1000Z \n  TEMPO 0906/0912 21028G38KT SCT006 SCT025 \n  TEMPO 0914/0917 23010KT 3000 <span class=\"hl\">BR</span> BKN004 \n  BECMG 0917/0919 33016G26KT \n  TEMPO 0919/1006 35024G34KT SCT007 BKN020"
    },
    {
      "icao": "EGBB",
      "iata": "BHX",
      "name": "Birmingham Airport",
      "updatedAt": "090920Z",
      "visibility_m": 10000,
      "taf_visibility_m": null,
      "worst_visibility_m": 10000,
      "ceiling_ft": 2500,
      "hazards": [],
      "severityScore": 5,
      "metarRaw": "METAR EGBB 090920Z 32014KT 9999 BKN025 02/01 Q0995",
      "tafRaw": null,
      "metarHtml": "METAR EGBB 090920Z 32014KT 9999 BKN025 02/01 Q0995",
      "tafHtml": null
    },
    {
      "icao": "EPPO",
      "iata": "POZ",
      "name": "Poznań-Ławica Airport",
      "updatedAt": "090930Z",
      "visibility_m": 7000,
      "taf_visibility_m": null,
      "worst_visibility_m": 7000,
      "ceiling_ft": null,
      "hazards": [],
      "severityScore": 5,
      "metarRaw": "METAR EPPO 090930Z 11003KT 7000 SCT005 M09/M11 Q1006",
      "tafRaw": null,
      "metarHtml": "METAR EPPO 090930Z 11003KT 7000 SCT005 M09/M11 Q1006",
      "tafHtml": null
    },
    {
      "icao": "EYPA",
      "iata": "PLQ",
      "name": "Palanga International Airport",
      "updatedAt": "090920Z",
      "visibility_m": 10000,
      "taf_visibility_m": null,
      "worst_visibility_m": 10000,
      "ceiling_ft": null,
      "hazards": [],
      "severityScore": 5,
      "metarRaw": "METAR EYPA 090920Z 05014KT CAVOK M08/M11 Q1010",
      "tafRaw": null,
      "metarHtml": "METAR EYPA 090920Z 05014KT <span class=\"hl-vis\">CAVOK</span> M08/M11 Q1010",
      "tafHtml": null
    },
    {
      "icao": "LEBL",
      "iata": "BCN",
      "name": "Josep Tarradellas Barcelona-El Prat Airport",
      "updatedAt": "090930Z",
      "visibility_m": 10000,
      "taf_visibility_m": null,
      "worst_visibility_m": 10000,
      "ceiling_ft": null,
      "hazards": [],
      "severityScore": 5,
      "metarRaw": "METAR LEBL 090930Z 25010KT 9999 FEW025 15/06 Q1014 NOSIG",
      "tafRaw": null,
      "metarHtml": "METAR LEBL 090930Z 25010KT 9999 FEW025 15/06 Q1014 NOSIG",
      "tafHtml": null
    },
    {
      "icao": "LECH",
      "iata": "CDT",
      "name": "Castellón-Costa Azahar Airport",
      "updatedAt": "090930Z",
      "visibility_m": 8000,
      "taf_visibility_m": null,
      "worst_visibility_m": 8000,
      "ceiling_ft": null,
      "hazards": [],
      "severityScore": 5,
      "metarRaw": "METAR LECH 090930Z AUTO 24007KT 210V280 8000 NCD 13/04 Q1017",
      "tafRaw": null,
      "metarHtml": "METAR LECH 090930Z AUTO 24007KT 210V280 8000 NCD 13/04 Q1017",
      "tafHtml": null
    },
    {
      "icao": "LEZG",
      "iata": "ZAZ",
      "name": "Zaragoza Airport",
      "updatedAt": "090930Z",
      "visibility_m": 10000,
      "taf_visibility_m": null,
      "worst_visibility_m": 10000,
      "ceiling_ft": null,
      "hazards": [],
      "severityScore": 5,
      "metarRaw": "METAR LEZG 090930Z 29013KT CAVOK 13/03 Q1017 NOSIG",
      "tafRaw": null,
      "metarHtml": "METAR LEZG 090930Z 29013KT <span class=\"hl-vis\">CAVOK</span> 13/03 Q1017 NOSIG",
      "tafHtml": null
    },
    {
      "icao": "LFSB",
      "iata": "BSL",
      "name": "EuroAirport Basel–Mulhouse–Freiburg",
      "updatedAt": "090930Z",
      "visibility_m": 10000,
      "taf_visibility_m": null,
      "worst_visibility_m": 10000,
      "ceiling_ft": 13000,
      "hazards": [],
      "severityScore": 5,
      "metarRaw": "METAR LFSB 090930Z AUTO 25018G32KT 9999 SCT039 SCT047 BKN130 07/02 Q0999 NOSIG",
      "tafRaw": null,
      "metarHtml": "METAR LFSB 090930Z AUTO 25018G32KT 9999 SCT039 SCT047 BKN130 07/02 Q0999 NOSIG",
      "tafHtml": null
    },
    {
      "icao": "LPPT",
      "iata": "LIS",
      "name": "Lisbon Humberto Delgado Airport",
      "updatedAt": "090930Z",
      "visibility_m": 10000,
      "taf_visibility_m": null,
      "worst_visibility_m": 10000,
      "ceiling_ft": null,
      "hazards": [],
      "severityScore": 5,
      "metarRaw": "METAR LPPT 090930Z 29003KT 250V330 9999 FEW012 13/12 Q1029",
      "tafRaw": null,
      "metarHtml": "METAR LPPT 090930Z 29003KT 250V330 9999 FEW012 13/12 Q1029",
      "tafHtml": null
    },
    {
      "icao": "LRTR",
      "iata": "TSR",
      "name": "Timişoara Traian Vuia Airport",
      "updatedAt": "090930Z",
      "visibility_m": 7000,
      "taf_visibility_m": null,
      "worst_visibility_m": 7000,
      "ceiling_ft": null,
      "hazards": [],
      "severityScore": 5,
      "metarRaw": "METAR LRTR 090930Z 10009KT 7000 FEW045 M09/M10 Q1008 NOSIG",
      "tafRaw": null,
      "metarHtml": "METAR LRTR 090930Z 10009KT 7000 FEW045 M09/M10 Q1008 NOSIG",
      "tafHtml": null
    },
    {
      "icao": "LWOH",
      "iata": "OHD",
      "name": "Ohrid St. Paul the Apostle Airport",
      "updatedAt": "090920Z",
      "visibility_m": 10000,
      "taf_visibility_m": null,
      "worst_visibility_m": 10000,
      "ceiling_ft": 4000,
      "hazards": [],
      "severityScore": 5,
      "metarRaw": "METAR LWOH 090920Z VRB02KT 9999 FEW020 BKN040 00/M04 Q1013",
      "tafRaw": null,
      "metarHtml": "METAR LWOH 090920Z VRB02KT 9999 FEW020 BKN040 00/M04 Q1013",
      "tafHtml": null
    },
    {
      "icao": "BIKF",
      "iata": "KEF",
      "name": "Keflavik International Airport",
      "updatedAt": "090930Z",
      "visibility_m": 10000,
      "taf_visibility_m": 10000,
      "worst_visibility_m": 10000,
      "ceiling_ft": null,
      "hazards": [],
      "severityScore": 0,
      "metarRaw": "METAR BIKF 090930Z 04005KT 9999 FEW035 SCT170 M02/M07 Q1008",
      "tafRaw": "TAF BIKF 090751Z 0909/1009 03010KT CAVOK TXM00/0916Z TNM05/1006Z",
      "metarHtml": "METAR BIKF 090930Z 04005KT 9999 FEW035 SCT170 M02/M07 Q1008",
      "tafHtml": "TAF BIKF 090751Z 0909/1009 03010KT <span class=\"hl-vis\">CAVOK</span> TXM00/0916Z TNM05/1006Z"
    },
    {
      "icao": "GCFV",
      "iata": "FUE",
      "name": "Fuerteventura Airport",
      "updatedAt": "090930Z",
      "visibility_m": 10000,
      "taf_visibility_m": 10000,
      "worst_visibility_m": 10000,
      "ceiling_ft": null,
      "hazards": [],
      "severityScore": 0,
      "metarRaw": "METAR GCFV 090930Z 04009KT 9999 FEW030 18/10 Q1031",
      "tafRaw": "TAF GCFV 090800Z 0909/1009 05013KT 9999 FEW025 TX20/0914Z TN15/1006Z \n  TEMPO 0909/0911 35006KT",
      "metarHtml": "METAR GCFV 090930Z 04009KT 9999 FEW030 18/10 Q1031",
      "tafHtml": "TAF GCFV 090800Z 0909/1009 05013KT 9999 FEW025 TX20/0914Z TN15/1006Z \n  TEMPO 0909/0911 35006KT"
    },
    {
      "icao": "GCLP",
      "iata": "LPA",
      "name": "Gran Canaria Airport",
      "updatedAt": "090930Z",
      "visibility_m": 10000,
      "taf_visibility_m": 10000,
      "worst_visibility_m": 10000,
      "ceiling_ft": null,
      "hazards": [],
      "severityScore": 0,
      "metarRaw": "METAR GCLP 090930Z 34006KT 9999 FEW030 17/11 Q1031 NOSIG",
      "tafRaw": "TAF GCLP 090800Z 0909/1009 03012KT 9999 FEW030 TX20/0914Z TN15/1006Z \n  TEMPO 0909/0911 33008KT",
      "metarHtml": "METAR GCLP 090930Z 34006KT 9999 FEW030 17/11 Q1031 NOSIG",
      "tafHtml": "TAF GCLP 090800Z 0909/1009 03012KT 9999 FEW030 TX20/0914Z TN15/1006Z \n  TEMPO 0909/0911 33008KT"
    },
    {
      "icao": "GCTS",
      "iata": "TFS",
      "name": "Tenerife Sur Airport",
      "updatedAt": "090930Z",
      "visibility_m": 10000,
      "taf_visibility_m": 10000,
      "worst_visibility_m": 10000,
      "ceiling_ft": null,
      "hazards": [],
      "severityScore": 0,
      "metarRaw": "METAR GCTS 090930Z 06012KT CAVOK 18/09 Q1031 NOSIG",
      "tafRaw": "TAF GCTS 090800Z 0909/1009 03010KT 9999 FEW030 TX22/0914Z TN15/1006Z \n  PROB30 \n  TEMPO 0911/0918 09015G25KT \n  TEMPO 0912/0918 09015KT",
      "metarHtml": "METAR GCTS 090930Z 06012KT <span class=\"hl-vis\">CAVOK</span> 18/09 Q1031 NOSIG",
      "tafHtml": "TAF GCTS 090800Z 0909/1009 03010KT 9999 FEW030 TX22/0914Z TN15/1006Z \n  PROB30 \n  TEMPO 0911/0918 09015G25KT \n  TEMPO 0912/0918 09015KT"
    },
    {
      "icao": "GMAD",
      "iata": "AGA",
      "name": "Al Massira Airport",
      "updatedAt": "090930Z",
      "visibility_m": 10000,
      "taf_visibility_m": 10000,
      "worst_visibility_m": 10000,
      "ceiling_ft": null,
      "hazards": [],
      "severityScore": 0,
      "metarRaw": "METAR GMAD 090930Z 06007KT CAVOK 09/06 Q1030 NOSIG",
      "tafRaw": "TAF GMAD 090500Z 0906/1012 05005KT CAVOK \n  BECMG 0912/0914 28012KT \n  BECMG 0919/0922 12005KT",
      "metarHtml": "METAR GMAD 090930Z 06007KT <span class=\"hl-vis\">CAVOK</span> 09/06 Q1030 NOSIG",
      "tafHtml": "TAF GMAD 090500Z 0906/1012 05005KT <span class=\"hl-vis\">CAVOK</span> \n  BECMG 0912/0914 28012KT \n  BECMG 0919/0922 12005KT"
    },
    {
      "icao": "GMMN",
      "iata": "CMN",
      "name": "Mohammed V International Airport",
      "updatedAt": "090930Z",
      "visibility_m": 10000,
      "taf_visibility_m": 10000,
      "worst_visibility_m": 10000,
      "ceiling_ft": null,
      "hazards": [],
      "severityScore": 0,
      "metarRaw": "METAR GMMN 090930Z 18004KT 9999 SCT030 10/09 Q1031 NOSIG",
      "tafRaw": "TAF GMMN 090500Z 0906/1012 15004KT 9999 SCT030 \n  BECMG 0909/0911 CAVOK \n  TEMPO 0915/0917 36013KT",
      "metarHtml": "METAR GMMN 090930Z 18004KT 9999 SCT030 10/09 Q1031 NOSIG",
      "tafHtml": "TAF GMMN 090500Z 0906/1012 15004KT 9999 SCT030 \n  BECMG 0909/0911 <span class=\"hl-vis\">CAVOK</span> \n  TEMPO 0915/0917 36013KT"
    },
    {
      "icao": "GMMX",
      "iata": "RAK",
      "name": "Menara Airport",
      "updatedAt": "090930Z",
      "visibility_m": 8000,
      "taf_visibility_m": 8000,
      "worst_visibility_m": 8000,
      "ceiling_ft": null,
      "hazards": [],
      "severityScore": 0,
      "metarRaw": "METAR GMMX 090930Z VRB02KT 8000 NSC 09/06 Q1031 NOSIG",
      "tafRaw": "TAF GMMX 090500Z 0906/1012 24004KT 8000 NSC \n  TEMPO 0918/0921 34016KT",
      "metarHtml": "METAR GMMX 090930Z VRB02KT 8000 NSC 09/06 Q1031 NOSIG",
      "tafHtml": "TAF GMMX 090500Z 0906/1012 24004KT 8000 NSC \n  TEMPO 0918/0921 34016KT"
    },
    {
      "icao": "EDJA",
      "iata": "FMM",
      "name": "Memmingen Allgau Airport",
      "updatedAt": "090920Z",
      "visibility_m": 10000,
      "taf_visibility_m": 10000,
      "worst_visibility_m": 10000,
      "ceiling_ft": null,
      "hazards": [],
      "severityScore": 0,
      "metarRaw": "METAR EDJA 090920Z 24025KT CAVOK 05/01 Q0997",
      "tafRaw": "TAF EDJA 090800Z 0909/0918 24020G35KT 9999 SCT020 \n  BECMG 0916/0918 23015G25KT",
      "metarHtml": "METAR EDJA 090920Z 24025KT <span class=\"hl-vis\">CAVOK</span> 05/01 Q0997",
      "tafHtml": "TAF EDJA 090800Z 0909/0918 24020G35KT 9999 SCT020 \n  BECMG 0916/0918 23015G25KT"
    },
    {
      "icao": "EFTU",
      "iata": "TKU",
      "name": "Turku Airport",
      "updatedAt": "090920Z",
      "visibility_m": 10000,
      "taf_visibility_m": 10000,
      "worst_visibility_m": 10000,
      "ceiling_ft": null,
      "hazards": [],
      "severityScore": 0,
      "metarRaw": "METAR EFTU 090920Z AUTO 08007KT CAVOK M15/M17 Q1024",
      "tafRaw": "TAF EFTU 090826Z 0909/1009 08007KT CAVOK \n  BECMG 0920/0922 02010KT",
      "metarHtml": "METAR EFTU 090920Z AUTO 08007KT <span class=\"hl-vis\">CAVOK</span> M15/M17 Q1024",
      "tafHtml": "TAF EFTU 090826Z 0909/1009 08007KT <span class=\"hl-vis\">CAVOK</span> \n  BECMG 0920/0922 02010KT"
    },
    {
      "icao": "EKBI",
      "iata": "BLL",
      "name": "Billund Airport",
      "updatedAt": "090920Z",
      "visibility_m": 10000,
      "taf_visibility_m": 9000,
      "worst_visibility_m": 9000,
      "ceiling_ft": 2400,
      "hazards": [],
      "severityScore": 0,
      "metarRaw": "METAR EKBI 090920Z 09019KT 9999 DRSN BKN024 M01/M05 Q1004",
      "tafRaw": "TAF EKBI 090827Z 0909/1009 10018KT 9000 SCT020 \n  TEMPO 0909/1003 09025G35KT DRSN \n  BECMG 1006/1009 04015KT",
      "metarHtml": "METAR EKBI 090920Z 09019KT 9999 DRSN BKN024 M01/M05 Q1004",
      "tafHtml": "TAF EKBI 090827Z 0909/1009 10018KT 9000 SCT020 \n  TEMPO 0909/1003 09025G35KT DRSN \n  BECMG 1006/1009 04015KT"
    },
    {
      "icao": "EKCH",
      "iata": "CPH",
      "name": "Copenhagen Kastrup Airport",
      "updatedAt": "090920Z",
      "visibility_m": 10000,
      "taf_visibility_m": 10000,
      "worst_visibility_m": 10000,
      "ceiling_ft": null,
      "hazards": [],
      "severityScore": 0,
      "metarRaw": "METAR EKCH 090920Z AUTO 09019KT 9999 BKN042/// 00/M05 Q1008 TEMPO 12020G30KT",
      "tafRaw": "TAF EKCH 090827Z 0909/1009 09015KT 9999 BKN030 \n  TEMPO 0909/0924 08023G33KT \n  BECMG 1000/1002 03016KT \n  TEMPO 1002/1009 03016G26KT",
      "metarHtml": "METAR EKCH 090920Z AUTO 09019KT 9999 BKN042/// 00/M05 Q1008 TEMPO 12020G30KT",
      "tafHtml": "TAF EKCH 090827Z 0909/1009 09015KT 9999 BKN030 \n  TEMPO 0909/0924 08023G33KT \n  BECMG 1000/1002 03016KT \n  TEMPO 1002/1009 03016G26KT"
    },
    {
      "icao": "ENAL",
      "iata": "AES",
      "name": "Ålesund Airport, Vigra",
      "updatedAt": "090920Z",
      "visibility_m": 10000,
      "taf_visibility_m": 10000,
      "worst_visibility_m": 10000,
      "ceiling_ft": null,
      "hazards": [],
      "severityScore": 0,
      "metarRaw": "METAR ENAL 090920Z 13015KT CAVOK M00/M09 Q1009",
      "tafRaw": "TAF ENAL 090800Z 0909/0918 14012KT 9999 BKN060 \n  BECMG 0912/0914 VRB05KT",
      "metarHtml": "METAR ENAL 090920Z 13015KT <span class=\"hl-vis\">CAVOK</span> M00/M09 Q1009",
      "tafHtml": "TAF ENAL 090800Z 0909/0918 14012KT 9999 BKN060 \n  BECMG 0912/0914 VRB05KT"
    },
    {
      "icao": "ENBR",
      "iata": "BGO",
      "name": "Bergen Airport, Flesland",
      "updatedAt": "090920Z",
      "visibility_m": 10000,
      "taf_visibility_m": 10000,
      "worst_visibility_m": 10000,
      "ceiling_ft": null,
      "hazards": [],
      "severityScore": 0,
      "metarRaw": "METAR ENBR 090920Z 00000KT CAVOK M05/M11 Q1009 NOSIG RMK WIND 1200FT 13011KT",
      "tafRaw": "TAF ENBR 090500Z 0906/1006 06005KT CAVOK",
      "metarHtml": "METAR ENBR 090920Z 00000KT <span class=\"hl-vis\">CAVOK</span> M05/M11 Q1009 NOSIG RMK WIND 1200FT 13011KT",
      "tafHtml": "TAF ENBR 090500Z 0906/1006 06005KT <span class=\"hl-vis\">CAVOK</span>"
    },
    {
      "icao": "ENHD",
      "iata": "HAU",
      "name": "Haugesund Airport, Karmøy",
      "updatedAt": "090920Z",
      "visibility_m": 10000,
      "taf_visibility_m": 10000,
      "worst_visibility_m": 10000,
      "ceiling_ft": null,
      "hazards": [],
      "severityScore": 0,
      "metarRaw": "METAR ENHD 090920Z 09008KT CAVOK M00/M08 Q1009",
      "tafRaw": "TAF ENHD 090800Z 0909/0918 11012KT CAVOK",
      "metarHtml": "METAR ENHD 090920Z 09008KT <span class=\"hl-vis\">CAVOK</span> M00/M08 Q1009",
      "tafHtml": "TAF ENHD 090800Z 0909/0918 11012KT <span class=\"hl-vis\">CAVOK</span>"
    },
    {
      "icao": "ENTC",
      "iata": "TOS",
      "name": "Tromsø Airport, Langnes",
      "updatedAt": "090920Z",
      "visibility_m": 10000,
      "taf_visibility_m": 10000,
      "worst_visibility_m": 10000,
      "ceiling_ft": null,
      "hazards": [],
      "severityScore": 0,
      "metarRaw": "METAR ENTC 090920Z 12001KT CAVOK M11/M15 Q1024 NOSIG RMK WIND 2600FT 18025KT",
      "tafRaw": "TAF ENTC 090500Z 0906/1006 20005KT CAVOK",
      "metarHtml": "METAR ENTC 090920Z 12001KT <span class=\"hl-vis\">CAVOK</span> M11/M15 Q1024 NOSIG RMK WIND 2600FT 18025KT",
      "tafHtml": "TAF ENTC 090500Z 0906/1006 20005KT <span class=\"hl-vis\">CAVOK</span>"
    },
    {
      "icao": "ENVA",
      "iata": "TRD",
      "name": "Trondheim Airport, Værnes",
      "updatedAt": "090920Z",
      "visibility_m": 10000,
      "taf_visibility_m": 10000,
      "worst_visibility_m": 10000,
      "ceiling_ft": null,
      "hazards": [],
      "severityScore": 0,
      "metarRaw": "METAR ENVA 090920Z 09005G15KT 020V170 CAVOK M03/M10 Q1013 TEMPO 15015G25KT RMK WIND 670FT 14003G19KT",
      "tafRaw": "TAF ENVA 090500Z 0906/1006 10008KT CAVOK \n  TEMPO 0909/1002 16018G28KT",
      "metarHtml": "METAR ENVA 090920Z 09005G15KT 020V170 <span class=\"hl-vis\">CAVOK</span> M03/M10 Q1013 TEMPO 15015G25KT RMK WIND 670FT 14003G19KT",
      "tafHtml": "TAF ENVA 090500Z 0906/1006 10008KT <span class=\"hl-vis\">CAVOK</span> \n  TEMPO 0909/1002 16018G28KT"
    },
    {
      "icao": "ENZV",
      "iata": "SVG",
      "name": "Stavanger Airport, Sola",
      "updatedAt": "090920Z",
      "visibility_m": 10000,
      "taf_visibility_m": 10000,
      "worst_visibility_m": 10000,
      "ceiling_ft": null,
      "hazards": [],
      "severityScore": 0,
      "metarRaw": "METAR ENZV 090920Z 11006KT 070V130 CAVOK 00/M09 Q1009 NOSIG",
      "tafRaw": "TAF ENZV 090500Z 0906/1006 12008KT CAVOK \n  PROB30 \n  TEMPO 0906/0912 12015G25KT",
      "metarHtml": "METAR ENZV 090920Z 11006KT 070V130 <span class=\"hl-vis\">CAVOK</span> 00/M09 Q1009 NOSIG",
      "tafHtml": "TAF ENZV 090500Z 0906/1006 12008KT <span class=\"hl-vis\">CAVOK</span> \n  PROB30 \n  TEMPO 0906/0912 12015G25KT"
    },
    {
      "icao": "EPRA",
      "iata": "RDO",
      "name": "Warsaw Radom Airport",
      "updatedAt": "090930Z",
      "visibility_m": 9000,
      "taf_visibility_m": 8000,
      "worst_visibility_m": 8000,
      "ceiling_ft": 3300,
      "hazards": [],
      "severityScore": 0,
      "metarRaw": "METAR EPRA 090930Z 29007KT 270V330 9000 SCT008 OVC033 M10/M12 Q1003",
      "tafRaw": "TAF EPRA 090830Z 0909/0918 30010KT 8000 BKN010 BKN030 \n  BECMG 0911/0913 BKN016",
      "metarHtml": "METAR EPRA 090930Z 29007KT 270V330 9000 SCT008 OVC033 M10/M12 Q1003",
      "tafHtml": "TAF EPRA 090830Z 0909/0918 30010KT 8000 BKN010 BKN030 \n  BECMG 0911/0913 BKN016"
    },
    {
      "icao": "ESGG",
      "iata": "GOT",
      "name": "Göteborg Landvetter Airport",
      "updatedAt": "090920Z",
      "visibility_m": 10000,
      "taf_visibility_m": 10000,
      "worst_visibility_m": 10000,
      "ceiling_ft": 2500,
      "hazards": [],
      "severityScore": 0,
      "metarRaw": "METAR ESGG 090920Z 08010KT 9999 BKN025 M04/M07 Q1012",
      "tafRaw": "TAF ESGG 090830Z 0909/1009 08010KT 9999 SCT030",
      "metarHtml": "METAR ESGG 090920Z 08010KT 9999 BKN025 M04/M07 Q1012",
      "tafHtml": "TAF ESGG 090830Z 0909/1009 08010KT 9999 SCT030"
    },
    {
      "icao": "ESKN",
      "iata": "NYO",
      "name": "Stockholm Skavsta Airport",
      "updatedAt": "090920Z",
      "visibility_m": 10000,
      "taf_visibility_m": 10000,
      "worst_visibility_m": 10000,
      "ceiling_ft": 2900,
      "hazards": [],
      "severityScore": 0,
      "metarRaw": "METAR ESKN 090920Z 05005KT 9999 BKN029 M03/M05 Q1018",
      "tafRaw": "TAF ESKN 090830Z 0909/1009 07010KT 9999 BKN030 \n  BECMG 0918/0920 01012KT",
      "metarHtml": "METAR ESKN 090920Z 05005KT 9999 BKN029 M03/M05 Q1018",
      "tafHtml": "TAF ESKN 090830Z 0909/1009 07010KT 9999 BKN030 \n  BECMG 0918/0920 01012KT"
    },
    {
      "icao": "ESMS",
      "iata": "MMX",
      "name": "Malmö Sturup Airport",
      "updatedAt": "090920Z",
      "visibility_m": 10000,
      "taf_visibility_m": 10000,
      "worst_visibility_m": 10000,
      "ceiling_ft": 4000,
      "hazards": [],
      "severityScore": 0,
      "metarRaw": "METAR ESMS 090920Z 08018KT 9999 BKN040 M00/M06 Q1008",
      "tafRaw": "TAF ESMS 090827Z 0909/1009 09012KT 9999 BKN040 \n  TEMPO 0909/1003 08020G35KT \n  BECMG 1003/1005 01010KT",
      "metarHtml": "METAR ESMS 090920Z 08018KT 9999 BKN040 M00/M06 Q1008",
      "tafHtml": "TAF ESMS 090827Z 0909/1009 09012KT 9999 BKN040 \n  TEMPO 0909/1003 08020G35KT \n  BECMG 1003/1005 01010KT"
    },
    {
      "icao": "HEMA",
      "iata": "RMF",
      "name": "Marsa Alam International Airport",
      "updatedAt": "090900Z",
      "visibility_m": 10000,
      "taf_visibility_m": 4000,
      "worst_visibility_m": 4000,
      "ceiling_ft": null,
      "hazards": [],
      "severityScore": 0,
      "metarRaw": "METAR HEMA 090900Z 11006KT CAVOK 27/16 Q1014 NOSIG",
      "tafRaw": "TAF HEMA 090500Z 0906/1012 32008G20KT 6000 NSC \n  TEMPO 0906/0918 4000 SA",
      "metarHtml": "METAR HEMA 090900Z 11006KT <span class=\"hl-vis\">CAVOK</span> 27/16 Q1014 NOSIG",
      "tafHtml": "TAF HEMA 090500Z 0906/1012 32008G20KT 6000 NSC \n  TEMPO 0906/0918 4000 SA"
    },
    {
      "icao": "HESH",
      "iata": "SSH",
      "name": "Sharm El Sheikh International Airport",
      "updatedAt": "090900Z",
      "visibility_m": 8000,
      "taf_visibility_m": 3000,
      "worst_visibility_m": 3000,
      "ceiling_ft": null,
      "hazards": [],
      "severityScore": 0,
      "metarRaw": "METAR HESH 090900Z 31010KT 8000 NSC 24/17 Q1013 NOSIG",
      "tafRaw": "TAF HESH 090500Z 0906/1012 34010G22KT 6000 NSC \n  TEMPO 0906/0918 3000 SA",
      "metarHtml": "METAR HESH 090900Z 31010KT 8000 NSC 24/17 Q1013 NOSIG",
      "tafHtml": "TAF HESH 090500Z 0906/1012 34010G22KT 6000 NSC \n  TEMPO 0906/0918 3000 SA"
    },
    {
      "icao": "LBPD",
      "iata": "PDV",
      "name": "Plovdiv International Airport",
      "updatedAt": "090930Z",
      "visibility_m": 10000,
      "taf_visibility_m": 10000,
      "worst_visibility_m": 10000,
      "ceiling_ft": null,
      "hazards": [],
      "severityScore": 0,
      "metarRaw": "METAR LBPD 090930Z AUTO 31011KT 9999 NCD 05/M09 Q1009 NOSIG",
      "tafRaw": "TAF LBPD 090500Z 0906/1006 29010KT 9999 SCT050 \n  BECMG 0910/0912 VRB03KT",
      "metarHtml": "METAR LBPD 090930Z AUTO 31011KT 9999 NCD 05/M09 Q1009 NOSIG",
      "tafHtml": "TAF LBPD 090500Z 0906/1006 29010KT 9999 SCT050 \n  BECMG 0910/0912 VRB03KT"
    },
    {
      "icao": "LBWN",
      "iata": "VAR",
      "name": "Varna Airport",
      "updatedAt": "090930Z",
      "visibility_m": 10000,
      "taf_visibility_m": 10000,
      "worst_visibility_m": 10000,
      "ceiling_ft": null,
      "hazards": [],
      "severityScore": 0,
      "metarRaw": "METAR LBWN 090930Z 28017KT CAVOK M00/M06 Q1007 NOSIG",
      "tafRaw": "TAF LBWN 090500Z 0906/1006 28018G28KT CAVOK \n  BECMG 0908/0910 28018KT \n  BECMG 0913/0914 28008KT \n  BECMG 0915/0917 VRB03KT BKN040",
      "metarHtml": "METAR LBWN 090930Z 28017KT <span class=\"hl-vis\">CAVOK</span> M00/M06 Q1007 NOSIG",
      "tafHtml": "TAF LBWN 090500Z 0906/1006 28018G28KT <span class=\"hl-vis\">CAVOK</span> \n  BECMG 0908/0910 28018KT \n  BECMG 0913/0914 28008KT \n  BECMG 0915/0917 VRB03KT BKN040"
    },
    {
      "icao": "LEAL",
      "iata": "ALC",
      "name": "Alicante-Elche Miguel Hernández Airport",
      "updatedAt": "090930Z",
      "visibility_m": 10000,
      "taf_visibility_m": 10000,
      "worst_visibility_m": 10000,
      "ceiling_ft": null,
      "hazards": [],
      "severityScore": 0,
      "metarRaw": "METAR LEAL 090930Z 21004KT 160V240 CAVOK 15/06 Q1023 NOSIG",
      "tafRaw": "TAF LEAL 090500Z 0906/1006 23008KT CAVOK TX18/0914Z TN10/0906Z \n  BECMG 0911/0913 29016KT \n  TEMPO 0912/0916 28018G28KT \n  TEMPO 0919/0924 25006KT \n  TEMPO 1001/1006 31020G30KT",
      "metarHtml": "METAR LEAL 090930Z 21004KT 160V240 <span class=\"hl-vis\">CAVOK</span> 15/06 Q1023 NOSIG",
      "tafHtml": "TAF LEAL 090500Z 0906/1006 23008KT <span class=\"hl-vis\">CAVOK</span> TX18/0914Z TN10/0906Z \n  BECMG 0911/0913 29016KT \n  TEMPO 0912/0916 28018G28KT \n  TEMPO 0919/0924 25006KT \n  TEMPO 1001/1006 31020G30KT"
    },
    {
      "icao": "LEMG",
      "iata": "AGP",
      "name": "Málaga-Costa del Sol Airport",
      "updatedAt": "090930Z",
      "visibility_m": 10000,
      "taf_visibility_m": 10000,
      "worst_visibility_m": 10000,
      "ceiling_ft": null,
      "hazards": [],
      "severityScore": 0,
      "metarRaw": "METAR LEMG 090930Z 29011KT 240V330 9999 FEW025 13/08 Q1028 NOSIG",
      "tafRaw": "TAF LEMG 090500Z 0906/1006 29013KT CAVOK TX18/0914Z TN08/0906Z",
      "metarHtml": "METAR LEMG 090930Z 29011KT 240V330 9999 FEW025 13/08 Q1028 NOSIG",
      "tafHtml": "TAF LEMG 090500Z 0906/1006 29013KT <span class=\"hl-vis\">CAVOK</span> TX18/0914Z TN08/0906Z"
    },
    {
      "icao": "LEVC",
      "iata": "VLC",
      "name": "Valencia Airport",
      "updatedAt": "090930Z",
      "visibility_m": 10000,
      "taf_visibility_m": 10000,
      "worst_visibility_m": 10000,
      "ceiling_ft": null,
      "hazards": [],
      "severityScore": 0,
      "metarRaw": "METAR LEVC 090930Z 22013KT 9999 FEW035 14/07 Q1020 NOSIG",
      "tafRaw": "TAF LEVC 090500Z 0906/1006 27015KT 9999 FEW020 TX18/0914Z TN09/0906Z \n  TEMPO 0906/0909 VRB03KT \n  TEMPO 0909/0916 27020G30KT \n  PROB30 \n  TEMPO 0909/0913 27030G40KT",
      "metarHtml": "METAR LEVC 090930Z 22013KT 9999 FEW035 14/07 Q1020 NOSIG",
      "tafHtml": "TAF LEVC 090500Z 0906/1006 27015KT 9999 FEW020 TX18/0914Z TN09/0906Z \n  TEMPO 0906/0909 VRB03KT \n  TEMPO 0909/0916 27020G30KT \n  PROB30 \n  TEMPO 0909/0913 27030G40KT"
    },
    {
      "icao": "LFMN",
      "iata": "NCE",
      "name": "Nice-Côte d'Azur Airport",
      "updatedAt": "090930Z",
      "visibility_m": 10000,
      "taf_visibility_m": 10000,
      "worst_visibility_m": 10000,
      "ceiling_ft": null,
      "hazards": [],
      "severityScore": 0,
      "metarRaw": "METAR LFMN 090930Z 25023KT CAVOK 14/02 Q1005 NOSIG",
      "tafRaw": "TAF LFMN 090800Z 0909/1015 25020G30KT CAVOK \n  TEMPO 0909/0917 25025G35KT \n  BECMG 0921/0923 33015KT",
      "metarHtml": "METAR LFMN 090930Z 25023KT <span class=\"hl-vis\">CAVOK</span> 14/02 Q1005 NOSIG",
      "tafHtml": "TAF LFMN 090800Z 0909/1015 25020G30KT <span class=\"hl-vis\">CAVOK</span> \n  TEMPO 0909/0917 25025G35KT \n  BECMG 0921/0923 33015KT"
    },
    {
      "icao": "LGAV",
      "iata": "ATH",
      "name": "Athens Eleftherios Venizelos International Airport",
      "updatedAt": "090920Z",
      "visibility_m": 10000,
      "taf_visibility_m": 10000,
      "worst_visibility_m": 10000,
      "ceiling_ft": null,
      "hazards": [],
      "severityScore": 0,
      "metarRaw": "METAR LGAV 090920Z 31005KT 230V360 9999 FEW025 13/M01 Q1016 NOSIG",
      "tafRaw": "TAF LGAV 090500Z 0906/1006 25012KT 9999 FEW025 \n  PROB30 \n  TEMPO 0909/0914 SCT020 BKN070",
      "metarHtml": "METAR LGAV 090920Z 31005KT 230V360 9999 FEW025 13/M01 Q1016 NOSIG",
      "tafHtml": "TAF LGAV 090500Z 0906/1006 25012KT 9999 FEW025 \n  PROB30 \n  TEMPO 0909/0914 SCT020 BKN070"
    },
    {
      "icao": "LIBG",
      "iata": "TAR",
      "name": "Taranto-Grottaglie Marcello Arlotta Airport",
      "updatedAt": "090850Z",
      "visibility_m": 10000,
      "taf_visibility_m": 10000,
      "worst_visibility_m": 10000,
      "ceiling_ft": null,
      "hazards": [],
      "severityScore": 0,
      "metarRaw": "METAR LIBG 090850Z VRB02KT 9999 FEW010 11/11 Q1012",
      "tafRaw": "TAF LIBG 090800Z 0909/0918 21008KT 9999 SCT040",
      "metarHtml": "METAR LIBG 090850Z VRB02KT 9999 FEW010 11/11 Q1012",
      "tafHtml": "TAF LIBG 090800Z 0909/0918 21008KT 9999 SCT040"
    },
    {
      "icao": "LIMF",
      "iata": "TRN",
      "name": "Turin Airport",
      "updatedAt": "090920Z",
      "visibility_m": 7000,
      "taf_visibility_m": 10000,
      "worst_visibility_m": 7000,
      "ceiling_ft": null,
      "hazards": [],
      "severityScore": 0,
      "metarRaw": "METAR LIMF 090920Z 03003KT 350V070 7000 FEW030 00/M04 Q1005",
      "tafRaw": "TAF LIMF 090500Z 0906/1006 VRB03KT 9999 BKN030",
      "metarHtml": "METAR LIMF 090920Z 03003KT 350V070 7000 FEW030 00/M04 Q1005",
      "tafHtml": "TAF LIMF 090500Z 0906/1006 VRB03KT 9999 BKN030"
    },
    {
      "icao": "LIMJ",
      "iata": "GOA",
      "name": "Genoa Cristoforo Colombo Airport",
      "updatedAt": "090920Z",
      "visibility_m": 10000,
      "taf_visibility_m": 10000,
      "worst_visibility_m": 10000,
      "ceiling_ft": null,
      "hazards": [],
      "severityScore": 0,
      "metarRaw": "METAR LIMJ 090920Z 04016KT 9999 SCT030 06/M02 Q1003",
      "tafRaw": "TAF LIMJ 090500Z 0906/1006 03012KT 9999 SCT020 BKN030",
      "metarHtml": "METAR LIMJ 090920Z 04016KT 9999 SCT030 06/M02 Q1003",
      "tafHtml": "TAF LIMJ 090500Z 0906/1006 03012KT 9999 SCT020 BKN030"
    },
    {
      "icao": "LIPH",
      "iata": "TSF",
      "name": "Treviso Antonio Canova Airport",
      "updatedAt": "090920Z",
      "visibility_m": 10000,
      "taf_visibility_m": 10000,
      "worst_visibility_m": 10000,
      "ceiling_ft": 4000,
      "hazards": [],
      "severityScore": 0,
      "metarRaw": "METAR LIPH 090920Z 26003KT 9999 -RASN SCT030 BKN040 02/M02 Q1005",
      "tafRaw": "TAF LIPH 090500Z 0906/1006 VRB05KT 9999 BKN030",
      "metarHtml": "METAR LIPH 090920Z 26003KT 9999 -RASN SCT030 BKN040 02/M02 Q1005",
      "tafHtml": "TAF LIPH 090500Z 0906/1006 VRB05KT 9999 BKN030"
    },
    {
      "icao": "LIPX",
      "iata": "VRN",
      "name": "Verona Villafranca Valerio Catullo Airport",
      "updatedAt": "090920Z",
      "visibility_m": 10000,
      "taf_visibility_m": 7000,
      "worst_visibility_m": 7000,
      "ceiling_ft": 2500,
      "hazards": [],
      "severityScore": 0,
      "metarRaw": "METAR LIPX 090920Z 34003KT 9999 BKN025 01/M05 Q1006",
      "tafRaw": "TAF LIPX 090500Z 0906/1006 VRB05KT 7000 FEW020",
      "metarHtml": "METAR LIPX 090920Z 34003KT 9999 BKN025 01/M05 Q1006",
      "tafHtml": "TAF LIPX 090500Z 0906/1006 VRB05KT 7000 FEW020"
    },
    {
      "icao": "LMML",
      "iata": "MLA",
      "name": "Malta International Airport",
      "updatedAt": "090915Z",
      "visibility_m": 10000,
      "taf_visibility_m": 10000,
      "worst_visibility_m": 10000,
      "ceiling_ft": null,
      "hazards": [],
      "severityScore": 0,
      "metarRaw": "METAR LMML 090915Z 24015KT 210V270 9999 FEW023 16/11 Q1022 NOSIG",
      "tafRaw": "TAF LMML 090500Z 0906/1006 27017KT 9999 FEW025 \n  TEMPO 0906/1006 27020G30KT",
      "metarHtml": "METAR LMML 090915Z 24015KT 210V270 9999 FEW023 16/11 Q1022 NOSIG",
      "tafHtml": "TAF LMML 090500Z 0906/1006 27017KT 9999 FEW025 \n  TEMPO 0906/1006 27020G30KT"
    },
    {
      "icao": "LPMA",
      "iata": "FNC",
      "name": "Madeira International Airport Cristiano Ronaldo",
      "updatedAt": "090930Z",
      "visibility_m": 10000,
      "taf_visibility_m": 10000,
      "worst_visibility_m": 10000,
      "ceiling_ft": null,
      "hazards": [],
      "severityScore": 0,
      "metarRaw": "METAR LPMA 090930Z 01007KT 9999 SCT015 16/11 Q1034",
      "tafRaw": "TAF LPMA 090500Z 0906/1006 01010KT 9999 SCT015 \n  TEMPO 0906/0912 BKN013 \n  BECMG 0911/0913 05010KT \n  BECMG 0919/0921 01010KT \n  TEMPO 0920/1006 BKN013",
      "metarHtml": "METAR LPMA 090930Z 01007KT 9999 SCT015 16/11 Q1034",
      "tafHtml": "TAF LPMA 090500Z 0906/1006 01010KT 9999 SCT015 \n  TEMPO 0906/0912 BKN013 \n  BECMG 0911/0913 05010KT \n  BECMG 0919/0921 01010KT \n  TEMPO 0920/1006 BKN013"
    },
    {
      "icao": "LRIA",
      "iata": "IAS",
      "name": "Iaşi Airport",
      "updatedAt": "090930Z",
      "visibility_m": 10000,
      "taf_visibility_m": 10000,
      "worst_visibility_m": 10000,
      "ceiling_ft": null,
      "hazards": [],
      "severityScore": 0,
      "metarRaw": "METAR LRIA 090930Z 25010KT 200V280 CAVOK M01/M08 Q1001",
      "tafRaw": "TAF LRIA 090800Z 0909/0918 24010KT CAVOK \n  BECMG 0916/0918 VRB04KT",
      "metarHtml": "METAR LRIA 090930Z 25010KT 200V280 <span class=\"hl-vis\">CAVOK</span> M01/M08 Q1001",
      "tafHtml": "TAF LRIA 090800Z 0909/0918 24010KT <span class=\"hl-vis\">CAVOK</span> \n  BECMG 0916/0918 VRB04KT"
    },
    {
      "icao": "LRBC",
      "iata": "BCM",
      "name": "Bacău George Enescu International  Airport",
      "updatedAt": "090930Z",
      "visibility_m": 10000,
      "taf_visibility_m": 10000,
      "worst_visibility_m": 10000,
      "ceiling_ft": null,
      "hazards": [],
      "severityScore": 0,
      "metarRaw": "METAR LRBC 090930Z 26018KT CAVOK M01/M11 Q1002",
      "tafRaw": "TAF LRBC 090800Z 0909/0918 26016KT CAVOK \n  BECMG 0916/0918 VRB04KT",
      "metarHtml": "METAR LRBC 090930Z 26018KT <span class=\"hl-vis\">CAVOK</span> M01/M11 Q1002",
      "tafHtml": "TAF LRBC 090800Z 0909/0918 26016KT <span class=\"hl-vis\">CAVOK</span> \n  BECMG 0916/0918 VRB04KT"
    },
    {
      "icao": "LRCL",
      "iata": "CLJ",
      "name": "Cluj Avram Iancu International Airport",
      "updatedAt": "090930Z",
      "visibility_m": 10000,
      "taf_visibility_m": 10000,
      "worst_visibility_m": 10000,
      "ceiling_ft": null,
      "hazards": [],
      "severityScore": 0,
      "metarRaw": "METAR LRCL 090930Z 00000KT CAVOK M04/M10 Q1006",
      "tafRaw": "TAF LRCL 090800Z 0909/0918 VRB04KT CAVOK",
      "metarHtml": "METAR LRCL 090930Z 00000KT <span class=\"hl-vis\">CAVOK</span> M04/M10 Q1006",
      "tafHtml": "TAF LRCL 090800Z 0909/0918 VRB04KT <span class=\"hl-vis\">CAVOK</span>"
    },
    {
      "icao": "LRCV",
      "iata": "CRA",
      "name": "Craiova International Airport",
      "updatedAt": "090930Z",
      "visibility_m": 10000,
      "taf_visibility_m": 10000,
      "worst_visibility_m": 10000,
      "ceiling_ft": null,
      "hazards": [],
      "severityScore": 0,
      "metarRaw": "METAR LRCV 090930Z 30008KT CAVOK M01/M05 Q1008",
      "tafRaw": "TAF LRCV 090800Z 0909/0918 29008KT CAVOK",
      "metarHtml": "METAR LRCV 090930Z 30008KT <span class=\"hl-vis\">CAVOK</span> M01/M05 Q1008",
      "tafHtml": "TAF LRCV 090800Z 0909/0918 29008KT <span class=\"hl-vis\">CAVOK</span>"
    },
    {
      "icao": "LRSV",
      "iata": "SCV",
      "name": "Suceava Stefan cel Mare Airport",
      "updatedAt": "090930Z",
      "visibility_m": 10000,
      "taf_visibility_m": 10000,
      "worst_visibility_m": 10000,
      "ceiling_ft": 4800,
      "hazards": [],
      "severityScore": 0,
      "metarRaw": "METAR LRSV 090930Z 26012KT 9999 BKN048 M03/M10 Q0998",
      "tafRaw": "TAF LRSV 090800Z 0909/0918 25008KT 9999 BKN045",
      "metarHtml": "METAR LRSV 090930Z 26012KT 9999 BKN048 M03/M10 Q0998",
      "tafHtml": "TAF LRSV 090800Z 0909/0918 25008KT 9999 BKN045"
    },
    {
      "icao": "LRTM",
      "iata": "TGM",
      "name": "Târgu Mureş Transilvania International Airport",
      "updatedAt": "090930Z",
      "visibility_m": 10000,
      "taf_visibility_m": 10000,
      "worst_visibility_m": 10000,
      "ceiling_ft": null,
      "hazards": [],
      "severityScore": 0,
      "metarRaw": "METAR LRTM 090930Z 25003KT 9999 FEW042 M06/M10 Q1006",
      "tafRaw": "TAF LRTM 090800Z 0909/0918 24007KT 9999 SCT040",
      "metarHtml": "METAR LRTM 090930Z 25003KT 9999 FEW042 M06/M10 Q1006",
      "tafHtml": "TAF LRTM 090800Z 0909/0918 24007KT 9999 SCT040"
    },
    {
      "icao": "LUKK",
      "iata": "RMO",
      "name": "Chişinău International Airport",
      "updatedAt": "090930Z",
      "visibility_m": 10000,
      "taf_visibility_m": 10000,
      "worst_visibility_m": 10000,
      "ceiling_ft": null,
      "hazards": [],
      "severityScore": 0,
      "metarRaw": "METAR LUKK 090930Z 28011KT 9999 SCT049 M01/M08 Q1001 NOSIG",
      "tafRaw": "TAF LUKK 090516Z 0906/1006 27010KT 9999 SCT030 \n  TEMPO 0906/0909 28015G25KT \n  BECMG 0915/0917 VRB05KT",
      "metarHtml": "METAR LUKK 090930Z 28011KT 9999 SCT049 M01/M08 Q1001 NOSIG",
      "tafHtml": "TAF LUKK 090516Z 0906/1006 27010KT 9999 SCT030 \n  TEMPO 0906/0909 28015G25KT \n  BECMG 0915/0917 VRB05KT"
    },
    {
      "icao": "OEMA",
      "iata": "MED",
      "name": "Prince Mohammad Bin Abdulaziz Airport",
      "updatedAt": "090900Z",
      "visibility_m": 10000,
      "taf_visibility_m": 3000,
      "worst_visibility_m": 3000,
      "ceiling_ft": null,
      "hazards": [],
      "severityScore": 0,
      "metarRaw": "METAR OEMA 090900Z 17006KT CAVOK 23/M05 Q1018 NOSIG",
      "tafRaw": "TAF OEMA 090500Z 0906/1012 25018KT 7000 FEW045 \n  PROB30 \n  TEMPO 0908/0918 3000 BLDU \n  BECMG 0918/0920 35006KT SCT045 \n  BECMG 1006/1008 08010KT",
      "metarHtml": "METAR OEMA 090900Z 17006KT <span class=\"hl-vis\">CAVOK</span> 23/M05 Q1018 NOSIG",
      "tafHtml": "TAF OEMA 090500Z 0906/1012 25018KT 7000 FEW045 \n  PROB30 \n  TEMPO 0908/0918 3000 BLDU \n  BECMG 0918/0920 35006KT SCT045 \n  BECMG 1006/1008 08010KT"
    },
    {
      "icao": "OMAA",
      "iata": "AUH",
      "name": "Zayed International Airport",
      "updatedAt": "090900Z",
      "visibility_m": 10000,
      "taf_visibility_m": 10000,
      "worst_visibility_m": 10000,
      "ceiling_ft": null,
      "hazards": [],
      "severityScore": 0,
      "metarRaw": "METAR OMAA 090900Z 32006KT 290V350 9999 FEW035 22/13 Q1018 NOSIG",
      "tafRaw": "TAF OMAA 090500Z 0906/1012 VRB02KT CAVOK \n  BECMG 0909/0911 33010KT \n  BECMG 0918/0920 VRB02KT",
      "metarHtml": "METAR OMAA 090900Z 32006KT 290V350 9999 FEW035 22/13 Q1018 NOSIG",
      "tafHtml": "TAF OMAA 090500Z 0906/1012 VRB02KT <span class=\"hl-vis\">CAVOK</span> \n  BECMG 0909/0911 33010KT \n  BECMG 0918/0920 VRB02KT"
    }
  ],
  "stats": {
    "icaoCount": 159,
    "metarReturned": 159,
    "tafReturned": 143,
    "stationsWritten": 159,
    "missingMetar": 0,
    "missingTaf": 16
  },
  "errors": []
}