{
  "generatedAt": "2026-01-10T02:46:24.127Z",
  "stations": [
    {
      "icao": "EBCI",
      "iata": "CRL",
      "name": "Brussels South Charleroi Airport",
      "updatedAt": "100220Z",
      "visibility_m": 2000,
      "taf_visibility_m": 300,
      "worst_visibility_m": 300,
      "ceiling_ft": 300,
      "hazards": [
        "SN",
        "FZFG"
      ],
      "severityScore": 100,
      "metarRaw": "METAR EBCI 100220Z 28007KT 260V330 2000 -SN OVC003 00/00 Q0998 NOSIG",
      "tafRaw": "TAF EBCI 092312Z 1000/1106 30010KT 2500 -SN SCT001 BKN003 \n  TEMPO 1000/1009 1200 SN BKN001 \n  PROB30 \n  TEMPO 1000/1009 0300 FZFG SG \n  BECMG 1011/1013 6000 NSW \n  PROB40 \n  TEMPO 1013/1018 4500 -SG -SN \n  BECMG 1016/1018 36005KT SCT004 BKN007 \n  BECMG 1021/1023 SCT008 BKN012 \n  TEMPO 1103/1106 BKN016",
      "metarHtml": "METAR EBCI 100220Z 28007KT 260V330 2000 -<span class=\"hl\">SN</span> OVC003 00/00 Q0998 NOSIG",
      "tafHtml": "TAF EBCI 092312Z 1000/1106 30010KT 2500 -<span class=\"hl\">SN</span> SCT001 BKN003 \n  TEMPO 1000/1009 1200 <span class=\"hl\">SN</span> BKN001 \n  PROB30 \n  TEMPO 1000/1009 <span class=\"hl-vis\">0300</span> <span class=\"hl\">FZFG</span> SG \n  BECMG 1011/1013 6000 NSW \n  PROB40 \n  TEMPO 1013/1018 4500 -SG -<span class=\"hl\">SN</span> \n  BECMG 1016/1018 36005KT SCT004 BKN007 \n  BECMG 1021/1023 SCT008 BKN012 \n  TEMPO 1103/1106 BKN016"
    },
    {
      "icao": "EETN",
      "iata": "TLL",
      "name": "Lennart Meri Tallinn Airport",
      "updatedAt": "100220Z",
      "visibility_m": 3600,
      "taf_visibility_m": 800,
      "worst_visibility_m": 800,
      "ceiling_ft": 800,
      "hazards": [
        "SN",
        "BLSN",
        "SHSN"
      ],
      "severityScore": 100,
      "metarRaw": "METAR EETN 100220Z 04013KT 3600 SN DRSN OVC008 M06/M08 Q1011",
      "tafRaw": "TAF EETN 092330Z 1000/1024 03016G26KT 9999 DRSN BKN012 \n  TEMPO 1000/1012 03022G35KT \n  TEMPO 1000/1005 1500 SHSN BLSN BKN007 SCT015CB \n  BECMG 1008/1010 3000 SN BLSN \n  TEMPO 1010/1024 0800 +SN BLSN VV005",
      "metarHtml": "METAR EETN 100220Z 04013KT 3600 <span class=\"hl\">SN</span> DRSN OVC008 M06/M08 Q1011",
      "tafHtml": "TAF EETN 092330Z 1000/1024 03016G26KT 9999 DRSN BKN012 \n  TEMPO 1000/1012 03022G35KT \n  TEMPO 1000/1005 1500 <span class=\"hl\">SHSN</span> <span class=\"hl\">BLSN</span> BKN007 SCT015CB \n  BECMG 1008/1010 3000 <span class=\"hl\">SN</span> <span class=\"hl\">BLSN</span> \n  TEMPO 1010/1024 <span class=\"hl-vis\">0800</span> +<span class=\"hl\">SN</span> <span class=\"hl\">BLSN</span> VV005"
    },
    {
      "icao": "EPGD",
      "iata": "GDN",
      "name": "Gdańsk Lech Wałęsa Airport",
      "updatedAt": "100230Z",
      "visibility_m": 4500,
      "taf_visibility_m": 200,
      "worst_visibility_m": 200,
      "ceiling_ft": 2500,
      "hazards": [
        "SN",
        "BLSN",
        "SHSN"
      ],
      "severityScore": 100,
      "metarRaw": "METAR EPGD 100230Z 03013KT 4500 SN FEW002 BKN025 M03/M06 Q1005",
      "tafRaw": "TAF EPGD 092330Z 1000/1024 05015KT 9999 -SN BKN020 \n  TEMPO 1000/1014 03022G32KT 2000 SN BKN012 \n  PROB40 1000/1014 0800 SN BLSN BKN005 BKN010CB \n  BECMG 1013/1016 35015KT 2000 SN BKN010 \n  TEMPO 1014/1024 01025G36KT 0200 +SHSN BLSN BKN002 BKN008CB",
      "metarHtml": "METAR EPGD 100230Z 03013KT 4500 <span class=\"hl\">SN</span> FEW002 BKN025 M03/M06 Q1005",
      "tafHtml": "TAF EPGD 092330Z 1000/1024 05015KT 9999 -<span class=\"hl\">SN</span> BKN020 \n  TEMPO 1000/1014 03022G32KT 2000 <span class=\"hl\">SN</span> BKN012 \n  PROB40 1000/1014 <span class=\"hl-vis\">0800</span> <span class=\"hl\">SN</span> <span class=\"hl\">BLSN</span> BKN005 BKN010CB \n  BECMG 1013/1016 35015KT 2000 <span class=\"hl\">SN</span> BKN010 \n  TEMPO 1014/1024 01025G36KT <span class=\"hl-vis\">0200</span> +<span class=\"hl\">SHSN</span> <span class=\"hl\">BLSN</span> BKN002 BKN008CB"
    },
    {
      "icao": "LJLJ",
      "iata": "LJU",
      "name": "Ljubljana Jože Pučnik Airport",
      "updatedAt": "100230Z",
      "visibility_m": 4000,
      "taf_visibility_m": 300,
      "worst_visibility_m": 300,
      "ceiling_ft": 3000,
      "hazards": [
        "BR",
        "RA",
        "FZFG",
        "SN"
      ],
      "severityScore": 100,
      "metarRaw": "METAR LJLJ 100230Z 33002KT 4000 -RA BR SCT001 OVC030 00/M00 Q1000 NOSIG",
      "tafRaw": "TAF LJLJ 092300Z 1000/1100 30003KT 4000 BR FEW003 BKN016 BKN030 \n  TEMPO 1000/1008 2000 -SN BKN010 \n  PROB40 \n  TEMPO 1020/1100 0300 FZFG VV002",
      "metarHtml": "METAR LJLJ 100230Z 33002KT 4000 -<span class=\"hl\">RA</span> <span class=\"hl\">BR</span> SCT001 OVC030 00/M00 Q1000 NOSIG",
      "tafHtml": "TAF LJLJ 092300Z 1000/1100 30003KT 4000 <span class=\"hl\">BR</span> FEW003 BKN016 BKN030 \n  TEMPO 1000/1008 2000 -<span class=\"hl\">SN</span> BKN010 \n  PROB40 \n  TEMPO 1020/1100 <span class=\"hl-vis\">0300</span> <span class=\"hl\">FZFG</span> VV002"
    },
    {
      "icao": "LOWW",
      "iata": "VIE",
      "name": "Vienna International Airport",
      "updatedAt": "100220Z",
      "visibility_m": 4700,
      "taf_visibility_m": 800,
      "worst_visibility_m": 800,
      "ceiling_ft": 500,
      "hazards": [
        "BR",
        "FZFG",
        "SHSN"
      ],
      "severityScore": 100,
      "metarRaw": "METAR LOWW 100220Z 15002KT 4700 BR SCT004 BKN005 M06/M07 Q1001 NOSIG",
      "tafRaw": "TAF LOWW 100215Z 1003/1109 12003KT 6000 BKN008 TXM02/1012Z TNM06/1100Z \n  TEMPO 1003/1011 1600 BCFG BKN003 \n  PROB40 \n  TEMPO 1005/1008 0800 FZFG BKN001 \n  FM101100 29012KT 9999 FEW030 \n  TEMPO 1015/1016 4000 -RASN BKN012 \n  TEMPO 1016/1021 34015G25KT 2000 SHSN BKN008 \n  BECMG 1101/1103 32015G30KT",
      "metarHtml": "METAR LOWW 100220Z 15002KT 4700 <span class=\"hl\">BR</span> SCT004 BKN005 M06/M07 Q1001 NOSIG",
      "tafHtml": "TAF LOWW 100215Z 1003/1109 12003KT 6000 BKN008 TXM02/1012Z TNM06/1100Z \n  TEMPO 1003/1011 1600 BCFG BKN003 \n  PROB40 \n  TEMPO 1005/1008 <span class=\"hl-vis\">0800</span> <span class=\"hl\">FZFG</span> BKN001 \n  FM101100 29012KT 9999 FEW030 \n  TEMPO 1015/1016 4000 -RASN BKN012 \n  TEMPO 1016/1021 34015G25KT 2000 <span class=\"hl\">SHSN</span> BKN008 \n  BECMG 1101/1103 32015G30KT"
    },
    {
      "icao": "LQSA",
      "iata": "SJJ",
      "name": "Sarajevo International Airport",
      "updatedAt": "100230Z",
      "visibility_m": 800,
      "taf_visibility_m": 500,
      "worst_visibility_m": 500,
      "ceiling_ft": 100,
      "hazards": [
        "FZFG",
        "BR",
        "SN",
        "SHSN"
      ],
      "severityScore": 100,
      "metarRaw": "METAR LQSA 100230Z VRB02KT 0800 R11/0300N FZFG VV001 M01/M01 Q1000",
      "tafRaw": "TAF LQSA 092300Z 1000/1024 VRB02KT 4000 BR FEW005 SCT050 TX01/1000Z TNM04/1007Z \n  PROB40 1002/1006 0500 FZFG BKN004 \n  TEMPO 1010/1019 30012KT 2000 SN BKN008 OVC020 \n  PROB40 \n  TEMPO 1012/1017 1000 SHSN BKN004 FEW025TCU OVC030",
      "metarHtml": "METAR LQSA 100230Z VRB02KT <span class=\"hl-vis\">0800</span> R11/0300N <span class=\"hl\">FZFG</span> VV001 M01/M01 Q1000",
      "tafHtml": "TAF LQSA 092300Z 1000/1024 VRB02KT 4000 <span class=\"hl\">BR</span> FEW005 SCT050 TX01/1000Z TNM04/1007Z \n  PROB40 1002/1006 <span class=\"hl-vis\">0500</span> <span class=\"hl\">FZFG</span> BKN004 \n  TEMPO 1010/1019 30012KT 2000 <span class=\"hl\">SN</span> BKN008 OVC020 \n  PROB40 \n  TEMPO 1012/1017 1000 <span class=\"hl\">SHSN</span> BKN004 FEW025TCU OVC030"
    },
    {
      "icao": "LRTR",
      "iata": "TSR",
      "name": "Timişoara Traian Vuia Airport",
      "updatedAt": "100230Z",
      "visibility_m": 4000,
      "taf_visibility_m": 350,
      "worst_visibility_m": 350,
      "ceiling_ft": 300,
      "hazards": [
        "BR",
        "SN",
        "FZFG"
      ],
      "severityScore": 100,
      "metarRaw": "METAR LRTR 100230Z 11002KT 4000 -SN BR BKN003 OVC015 M01/M01 Q1000",
      "tafRaw": "TAF LRTR 092300Z 1000/1024 VRB04KT 3000 -SN BR BKN010 OVC025 \n  BECMG 1000/1002 1500 BR OVC005 \n  TEMPO 1002/1009 0350 FZFG VV001 \n  BECMG 1010/1012 35010KT 5000 BKN010 \n  TEMPO 1012/1016 8000 NSW SCT015 \n  PROB30 \n  TEMPO 1020/1024 1500 BR OVC005",
      "metarHtml": "METAR LRTR 100230Z 11002KT 4000 -<span class=\"hl\">SN</span> <span class=\"hl\">BR</span> BKN003 OVC015 M01/M01 Q1000",
      "tafHtml": "TAF LRTR 092300Z 1000/1024 VRB04KT 3000 -<span class=\"hl\">SN</span> <span class=\"hl\">BR</span> BKN010 OVC025 \n  BECMG 1000/1002 1500 <span class=\"hl\">BR</span> OVC005 \n  TEMPO 1002/1009 <span class=\"hl-vis\">0350</span> <span class=\"hl\">FZFG</span> VV001 \n  BECMG 1010/1012 35010KT 5000 BKN010 \n  TEMPO 1012/1016 8000 NSW SCT015 \n  PROB30 \n  TEMPO 1020/1024 1500 <span class=\"hl\">BR</span> OVC005"
    },
    {
      "icao": "LYBE",
      "iata": "BEG",
      "name": "Belgrade Nikola Tesla Airport",
      "updatedAt": "100230Z",
      "visibility_m": 1000,
      "taf_visibility_m": 2000,
      "worst_visibility_m": 1000,
      "ceiling_ft": 300,
      "hazards": [
        "BR",
        "RA",
        "FZRA"
      ],
      "severityScore": 100,
      "metarRaw": "METAR LYBE 100230Z 32002KT 1000 R12L/2000D R30R/1700D -RA BR BKN003 BKN018 00/00 Q1001 NOSIG",
      "tafRaw": "TAF LYBE 092300Z 1000/1024 26006KT 2000 BR BKN008 BKN025 TX00/1000Z TNM02/1019Z \n  TEMPO 1000/1002 FZRA BKN002 BKN022 \n  TEMPO 1002/1006 RASN BKN001 BKN022 \n  BECMG 1011/1013 36010KT 6000 NSW",
      "metarHtml": "METAR LYBE 100230Z 32002KT 1000 R12L/2000D R30R/1700D -<span class=\"hl\">RA</span> <span class=\"hl\">BR</span> BKN003 BKN018 00/00 Q1001 NOSIG",
      "tafHtml": "TAF LYBE 092300Z 1000/1024 26006KT 2000 <span class=\"hl\">BR</span> BKN008 BKN025 TX00/1000Z TNM02/1019Z \n  TEMPO 1000/1002 <span class=\"hl\">FZRA</span> BKN002 BKN022 \n  TEMPO 1002/1006 RASN BKN001 BKN022 \n  BECMG 1011/1013 36010KT 6000 NSW"
    },
    {
      "icao": "UAAA",
      "iata": "ALA",
      "name": "Almaty International Airport",
      "updatedAt": "100230Z",
      "visibility_m": 200,
      "taf_visibility_m": 200,
      "worst_visibility_m": 200,
      "ceiling_ft": 200,
      "hazards": [
        "FZFG",
        "BR"
      ],
      "severityScore": 100,
      "metarRaw": "METAR UAAA 100230Z VRB01MPS 0200 R23L/0275D FZFG VV002 M07/M08 Q1020 NOSIG RMK QBB060",
      "tafRaw": "TAF UAAA 092301Z 1000/1024 17003MPS 1200 BR FU BKN011 OVC020 TX03/1009Z TNM07/1001Z \n  TEMPO 1000/1005 VRB01MPS 0200 FZFG VV001 \n  FM100500 01003MPS 4000 BR FU FEW050 SCT100 \n  BECMG 1012/1013 16003MPS SCT011 BKN020 \n  TEMPO 1012/1018 1200 BKN011 OVC020 \n  TEMPO 1018/1024 VRB01MPS 0300 FZFG VV002",
      "metarHtml": "METAR UAAA 100230Z VRB01MPS <span class=\"hl-vis\">0200</span> R23L/0275D <span class=\"hl\">FZFG</span> VV002 M07/M08 Q1020 NOSIG RMK QBB060",
      "tafHtml": "TAF UAAA 092301Z 1000/1024 17003MPS 1200 <span class=\"hl\">BR</span> FU BKN011 OVC020 TX03/1009Z TNM07/1001Z \n  TEMPO 1000/1005 VRB01MPS <span class=\"hl-vis\">0200</span> <span class=\"hl\">FZFG</span> VV001 \n  FM100500 01003MPS 4000 <span class=\"hl\">BR</span> FU FEW050 SCT100 \n  BECMG 1012/1013 16003MPS SCT011 BKN020 \n  TEMPO 1012/1018 1200 BKN011 OVC020 \n  TEMPO 1018/1024 VRB01MPS <span class=\"hl-vis\">0300</span> <span class=\"hl\">FZFG</span> VV002"
    },
    {
      "icao": "UDSG",
      "iata": "LWN",
      "name": "Shirak International Airport",
      "updatedAt": "100230Z",
      "visibility_m": 400,
      "taf_visibility_m": 200,
      "worst_visibility_m": 200,
      "ceiling_ft": 600,
      "hazards": [
        "FZFG",
        "SN",
        "BR"
      ],
      "severityScore": 100,
      "metarRaw": "METAR UDSG 100230Z 25003KT 0400 R02/1200D SN FZFG OVC006 M03/M03 Q1007 NOSIG",
      "tafRaw": "TAF UDSG 092300Z 1000/1024 VRB06KT 0800 FZFG OVC006 \n  TEMPO 1000/1006 0200 SN FZFG VV002 \n  BECMG 1006/1007 1200 BR OVC010 \n  TEMPO 1007/1014 0500 SN FZFG VV003",
      "metarHtml": "METAR UDSG 100230Z 25003KT <span class=\"hl-vis\">0400</span> R02/1200D <span class=\"hl\">SN</span> <span class=\"hl\">FZFG</span> OVC006 M03/M03 Q1007 NOSIG",
      "tafHtml": "TAF UDSG 092300Z 1000/1024 VRB06KT <span class=\"hl-vis\">0800</span> <span class=\"hl\">FZFG</span> OVC006 \n  TEMPO 1000/1006 <span class=\"hl-vis\">0200</span> <span class=\"hl\">SN</span> <span class=\"hl\">FZFG</span> VV002 \n  BECMG 1006/1007 1200 <span class=\"hl\">BR</span> OVC010 \n  TEMPO 1007/1014 <span class=\"hl-vis\">0500</span> <span class=\"hl\">SN</span> <span class=\"hl\">FZFG</span> VV003"
    },
    {
      "icao": "LQTZ",
      "iata": "TZL",
      "name": "Tuzla International Airport",
      "updatedAt": "100230Z",
      "visibility_m": 2500,
      "taf_visibility_m": 500,
      "worst_visibility_m": 500,
      "ceiling_ft": 3000,
      "hazards": [
        "BR",
        "FG",
        "SN",
        "RA"
      ],
      "severityScore": 95,
      "metarRaw": "METAR LQTZ 100230Z 05004KT 2500 BR FEW020 BKN030 00/00 Q1001",
      "tafRaw": "TAF LQTZ 092300Z 1000/1024 16005KT 6000 SCT005 BKN025 TX02/1013Z TNM00/1006Z \n  TEMPO 1000/1008 3000 -RA BR BKN005 OVC015 \n  PROB40 \n  TEMPO 1002/1008 0500 FG BKN001 \n  TEMPO 1008/1016 1500 SNRA BR BKN005 OVC015 \n  TEMPO 1012/1016 0800 SN FG BKN002 OVC010",
      "metarHtml": "METAR LQTZ 100230Z 05004KT 2500 <span class=\"hl\">BR</span> FEW020 BKN030 00/00 Q1001",
      "tafHtml": "TAF LQTZ 092300Z 1000/1024 16005KT 6000 SCT005 BKN025 TX02/1013Z TNM00/1006Z \n  TEMPO 1000/1008 3000 -<span class=\"hl\">RA</span> <span class=\"hl\">BR</span> BKN005 OVC015 \n  PROB40 \n  TEMPO 1002/1008 <span class=\"hl-vis\">0500</span> <span class=\"hl\">FG</span> BKN001 \n  TEMPO 1008/1016 1500 SNRA <span class=\"hl\">BR</span> BKN005 OVC015 \n  TEMPO 1012/1016 <span class=\"hl-vis\">0800</span> <span class=\"hl\">SN</span> <span class=\"hl\">FG</span> BKN002 OVC010"
    },
    {
      "icao": "EPSC",
      "iata": "SZZ",
      "name": "Solidarity Szczecin–Goleniów Airport",
      "updatedAt": "100230Z",
      "visibility_m": 10000,
      "taf_visibility_m": 800,
      "worst_visibility_m": 800,
      "ceiling_ft": 3100,
      "hazards": [
        "BR",
        "SN",
        "BLSN",
        "SHSN"
      ],
      "severityScore": 85,
      "metarRaw": "METAR EPSC 100230Z 05004KT 350V090 9999 BKN031 M04/M09 Q1007",
      "tafRaw": "TAF EPSC 092330Z 1000/1024 06010KT CAVOK \n  PROB40 1000/1008 4000 BR \n  BECMG 1010/1013 36010KT \n  TEMPO 1013/1021 36022G32KT 2000 SN BKN012 \n  PROB40 \n  TEMPO 1014/1020 0800 SHSN BLSN BKN003 BKN010CB",
      "metarHtml": "METAR EPSC 100230Z 05004KT 350V090 9999 BKN031 M04/M09 Q1007",
      "tafHtml": "TAF EPSC 092330Z 1000/1024 06010KT <span class=\"hl-vis\">CAVOK</span> \n  PROB40 1000/1008 4000 <span class=\"hl\">BR</span> \n  BECMG 1010/1013 36010KT \n  TEMPO 1013/1021 36022G32KT 2000 <span class=\"hl\">SN</span> BKN012 \n  PROB40 \n  TEMPO 1014/1020 <span class=\"hl-vis\">0800</span> <span class=\"hl\">SHSN</span> <span class=\"hl\">BLSN</span> BKN003 BKN010CB"
    },
    {
      "icao": "EYPA",
      "iata": "PLQ",
      "name": "Palanga International Airport",
      "updatedAt": "100220Z",
      "visibility_m": 10000,
      "taf_visibility_m": 800,
      "worst_visibility_m": 800,
      "ceiling_ft": 3400,
      "hazards": [
        "SN",
        "BLSN",
        "SHSN"
      ],
      "severityScore": 75,
      "metarRaw": "METAR EYPA 100220Z 02012KT 9999 -SN OVC034 M05/M08 Q1005",
      "tafRaw": "TAF EYPA 092304Z 1000/1024 01012G22KT 9000 SCT010 OVC025 \n  TEMPO 1000/1006 5000 SN BLSN \n  TEMPO 1006/1015 1500 SN BLSN \n  TEMPO 1015/1024 0800 +SHSN BLSN BKN005 BKN015CB",
      "metarHtml": "METAR EYPA 100220Z 02012KT 9999 -<span class=\"hl\">SN</span> OVC034 M05/M08 Q1005",
      "tafHtml": "TAF EYPA 092304Z 1000/1024 01012G22KT 9000 SCT010 OVC025 \n  TEMPO 1000/1006 5000 <span class=\"hl\">SN</span> <span class=\"hl\">BLSN</span> \n  TEMPO 1006/1015 1500 <span class=\"hl\">SN</span> <span class=\"hl\">BLSN</span> \n  TEMPO 1015/1024 <span class=\"hl-vis\">0800</span> +<span class=\"hl\">SHSN</span> <span class=\"hl\">BLSN</span> BKN005 BKN015CB"
    },
    {
      "icao": "EDDK",
      "iata": "CGN",
      "name": "Cologne Bonn Airport",
      "updatedAt": "100220Z",
      "visibility_m": 2500,
      "taf_visibility_m": 1400,
      "worst_visibility_m": 1400,
      "ceiling_ft": 400,
      "hazards": [
        "BR",
        "SN"
      ],
      "severityScore": 73,
      "metarRaw": "METAR EDDK 100220Z AUTO 23005KT 4800 -SN BR BKN005 BKN009 00/M00 Q0995 RESN TEMPO 2500 SN BKN004",
      "tafRaw": "TAF EDDK 092300Z 1000/1106 24005KT 7000 BKN012 \n  BECMG 1000/1002 4000 -SN BR OVC008 \n  TEMPO 1002/1008 1800 SN BKN004 \n  BECMG 1003/1006 33007KT \n  TEMPO 1008/1016 1400 -SN BR BKN003 \n  BECMG 1011/1014 BKN010 \n  BECMG 1016/1019 04003KT 9999 SCT025 \n  BECMG 1103/1106 12005KT",
      "metarHtml": "METAR EDDK 100220Z AUTO 23005KT 4800 -<span class=\"hl\">SN</span> <span class=\"hl\">BR</span> BKN005 BKN009 00/M00 Q0995 RESN TEMPO 2500 <span class=\"hl\">SN</span> BKN004",
      "tafHtml": "TAF EDDK 092300Z 1000/1106 24005KT 7000 BKN012 \n  BECMG 1000/1002 4000 -<span class=\"hl\">SN</span> <span class=\"hl\">BR</span> OVC008 \n  TEMPO 1002/1008 1800 <span class=\"hl\">SN</span> BKN004 \n  BECMG 1003/1006 33007KT \n  TEMPO 1008/1016 1400 -<span class=\"hl\">SN</span> <span class=\"hl\">BR</span> BKN003 \n  BECMG 1011/1014 BKN010 \n  BECMG 1016/1019 04003KT 9999 SCT025 \n  BECMG 1103/1106 12005KT"
    },
    {
      "icao": "LKPR",
      "iata": "PRG",
      "name": "Václav Havel Airport Prague",
      "updatedAt": "100230Z",
      "visibility_m": 3700,
      "taf_visibility_m": 1200,
      "worst_visibility_m": 1200,
      "ceiling_ft": 300,
      "hazards": [
        "BR",
        "SN"
      ],
      "severityScore": 73,
      "metarRaw": "METAR LKPR 100230Z 02003KT 350V050 3700 -SN BR FEW002 BKN003 OVC010 M04/M05 Q0998 NOSIG",
      "tafRaw": "TAF LKPR 100200Z 1003/1109 06005KT 5000 BR SCT008 OVC013 \n  TEMPO 1003/1015 04009KT 3000 -SN BR SCT002 OVC004 \n  PROB30 \n  TEMPO 1006/1010 1200 SN BR BKN002 \n  BECMG 1016/1018 35012KT 9000 SCT020 \n  PROB30 \n  TEMPO 1021/1103 5000 -SN BR BKN015",
      "metarHtml": "METAR LKPR 100230Z 02003KT 350V050 3700 -<span class=\"hl\">SN</span> <span class=\"hl\">BR</span> FEW002 BKN003 OVC010 M04/M05 Q0998 NOSIG",
      "tafHtml": "TAF LKPR 100200Z 1003/1109 06005KT 5000 <span class=\"hl\">BR</span> SCT008 OVC013 \n  TEMPO 1003/1015 04009KT 3000 -<span class=\"hl\">SN</span> <span class=\"hl\">BR</span> SCT002 OVC004 \n  PROB30 \n  TEMPO 1006/1010 1200 <span class=\"hl\">SN</span> <span class=\"hl\">BR</span> BKN002 \n  BECMG 1016/1018 35012KT 9000 SCT020 \n  PROB30 \n  TEMPO 1021/1103 5000 -<span class=\"hl\">SN</span> <span class=\"hl\">BR</span> BKN015"
    },
    {
      "icao": "EDFH",
      "iata": "HHN",
      "name": "Frankfurt-Hahn Airport",
      "updatedAt": "100220Z",
      "visibility_m": 5000,
      "taf_visibility_m": 1000,
      "worst_visibility_m": 1000,
      "ceiling_ft": 200,
      "hazards": [
        "SN"
      ],
      "severityScore": 63,
      "metarRaw": "METAR EDFH 100220Z 25012KT 220V280 5000 -SN OVC002 M00/M01 Q0993",
      "tafRaw": "TAF EDFH 092300Z 1000/1024 26015G25KT 6000 BKN005 \n  TEMPO 1000/1011 2000 -SN BKN002 \n  PROB40 \n  TEMPO 1000/1010 1000 SN BKN001 \n  BECMG 1004/1006 28010KT \n  TEMPO 1011/1018 4000 -SG \n  BECMG 1014/1016 36007KT",
      "metarHtml": "METAR EDFH 100220Z 25012KT 220V280 5000 -<span class=\"hl\">SN</span> OVC002 M00/M01 Q0993",
      "tafHtml": "TAF EDFH 092300Z 1000/1024 26015G25KT 6000 BKN005 \n  TEMPO 1000/1011 2000 -<span class=\"hl\">SN</span> BKN002 \n  PROB40 \n  TEMPO 1000/1010 1000 <span class=\"hl\">SN</span> BKN001 \n  BECMG 1004/1006 28010KT \n  TEMPO 1011/1018 4000 -SG \n  BECMG 1014/1016 36007KT"
    },
    {
      "icao": "EHEH",
      "iata": "EIN",
      "name": "Eindhoven Airport",
      "updatedAt": "100225Z",
      "visibility_m": 6000,
      "taf_visibility_m": 1500,
      "worst_visibility_m": 1500,
      "ceiling_ft": 700,
      "hazards": [
        "BR",
        "SN"
      ],
      "severityScore": 63,
      "metarRaw": "METAR EHEH 100225Z AUTO 35007KT 330V040 6000 BR FEW001 BKN007 BKN008 M01/M02 Q0998 GRN",
      "tafRaw": "TAF EHEH 092351Z 1000/1106 33008KT 8000 -SN SCT005 BKN007 \n  TEMPO 1000/1003 1500 SN SCT003 BKN004 \n  BECMG 1003/1005 03007KT BKN012 \n  TEMPO 1003/1010 3500 -SN SCT006 BKN009 \n  BECMG 1010/1013 9999 NSW BKN025",
      "metarHtml": "METAR EHEH 100225Z AUTO 35007KT 330V040 6000 <span class=\"hl\">BR</span> FEW001 BKN007 BKN008 M01/M02 Q0998 GRN",
      "tafHtml": "TAF EHEH 092351Z 1000/1106 33008KT 8000 -<span class=\"hl\">SN</span> SCT005 BKN007 \n  TEMPO 1000/1003 1500 <span class=\"hl\">SN</span> SCT003 BKN004 \n  BECMG 1003/1005 03007KT BKN012 \n  TEMPO 1003/1010 3500 -<span class=\"hl\">SN</span> SCT006 BKN009 \n  BECMG 1010/1013 9999 NSW BKN025"
    },
    {
      "icao": "EPKK",
      "iata": "KRK",
      "name": "Kraków John Paul II International Airport",
      "updatedAt": "100230Z",
      "visibility_m": 3300,
      "taf_visibility_m": 1400,
      "worst_visibility_m": 1400,
      "ceiling_ft": 500,
      "hazards": [
        "BR",
        "SN"
      ],
      "severityScore": 63,
      "metarRaw": "METAR EPKK 100230Z 07006KT 3300 BR BKN005 M11/M13 Q1001",
      "tafRaw": "TAF EPKK 100230Z 1003/1103 06007KT 3500 BR OVC005 \n  TEMPO 1003/1009 2000 -SN BR OVC004 \n  BECMG 1009/1011 9999 BKN020 \n  TEMPO 1009/1021 4000 -SN BR BKN010 \n  BECMG 1013/1016 27010KT \n  BECMG 1021/1024 27015G25KT 2500 -SN BR BKN007 \n  TEMPO 1100/1103 1400 SN DRSN BKN004",
      "metarHtml": "METAR EPKK 100230Z 07006KT 3300 <span class=\"hl\">BR</span> BKN005 M11/M13 Q1001",
      "tafHtml": "TAF EPKK 100230Z 1003/1103 06007KT 3500 <span class=\"hl\">BR</span> OVC005 \n  TEMPO 1003/1009 2000 -<span class=\"hl\">SN</span> <span class=\"hl\">BR</span> OVC004 \n  BECMG 1009/1011 9999 BKN020 \n  TEMPO 1009/1021 4000 -<span class=\"hl\">SN</span> <span class=\"hl\">BR</span> BKN010 \n  BECMG 1013/1016 27010KT \n  BECMG 1021/1024 27015G25KT 2500 -<span class=\"hl\">SN</span> <span class=\"hl\">BR</span> BKN007 \n  TEMPO 1100/1103 1400 <span class=\"hl\">SN</span> DRSN BKN004"
    },
    {
      "icao": "EPWA",
      "iata": "WAW",
      "name": "Warsaw Chopin Airport",
      "updatedAt": "100230Z",
      "visibility_m": 10000,
      "taf_visibility_m": 800,
      "worst_visibility_m": 800,
      "ceiling_ft": null,
      "hazards": [
        "BR",
        "SN",
        "SHSN"
      ],
      "severityScore": 63,
      "metarRaw": "METAR EPWA 100230Z 26005KT CAVOK M15/M16 Q1002 NOSIG",
      "tafRaw": "TAF EPWA 100230Z 1003/1103 28005KT CAVOK \n  PROB40 \n  TEMPO 1010/1012 3000 -SN BKN014 \n  TEMPO 1012/1103 2000 SN BR BKN008 BKN012 \n  PROB40 \n  TEMPO 1014/1024 0800 +SHSN BKN002 BKN010TCU",
      "metarHtml": "METAR EPWA 100230Z 26005KT <span class=\"hl-vis\">CAVOK</span> M15/M16 Q1002 NOSIG",
      "tafHtml": "TAF EPWA 100230Z 1003/1103 28005KT <span class=\"hl-vis\">CAVOK</span> \n  PROB40 \n  TEMPO 1010/1012 3000 -<span class=\"hl\">SN</span> BKN014 \n  TEMPO 1012/1103 2000 <span class=\"hl\">SN</span> <span class=\"hl\">BR</span> BKN008 BKN012 \n  PROB40 \n  TEMPO 1014/1024 <span class=\"hl-vis\">0800</span> +<span class=\"hl\">SHSN</span> BKN002 BKN010TCU"
    },
    {
      "icao": "LHBP",
      "iata": "BUD",
      "name": "Budapest Liszt Ferenc International Airport",
      "updatedAt": "100230Z",
      "visibility_m": 3600,
      "taf_visibility_m": 2500,
      "worst_visibility_m": 2500,
      "ceiling_ft": 400,
      "hazards": [
        "BR",
        "SN"
      ],
      "severityScore": 63,
      "metarRaw": "METAR LHBP 100230Z 36003KT 330V040 3600 BR FEW002 OVC004 M06/M07 Q1002 NOSIG",
      "tafRaw": "TAF LHBP 092315Z 1000/1024 VRB03KT 7000 BKN015 OVC030 \n  TEMPO 1000/1010 2500 -SG -SN BR OVC003 \n  TEMPO 1010/1018 23005KT 4000 BR BKN008 OVC025 \n  PROB30 \n  TEMPO 1018/1024 3500 -SN BR OVC008 \n  BECMG 1018/1021 08005KT",
      "metarHtml": "METAR LHBP 100230Z 36003KT 330V040 3600 <span class=\"hl\">BR</span> FEW002 OVC004 M06/M07 Q1002 NOSIG",
      "tafHtml": "TAF LHBP 092315Z 1000/1024 VRB03KT 7000 BKN015 OVC030 \n  TEMPO 1000/1010 2500 -SG -<span class=\"hl\">SN</span> <span class=\"hl\">BR</span> OVC003 \n  TEMPO 1010/1018 23005KT 4000 <span class=\"hl\">BR</span> BKN008 OVC025 \n  PROB30 \n  TEMPO 1018/1024 3500 -<span class=\"hl\">SN</span> <span class=\"hl\">BR</span> OVC008 \n  BECMG 1018/1021 08005KT"
    },
    {
      "icao": "LRBS",
      "iata": "BBU",
      "name": "Bucharest Băneasa Aurel Vlaicu International Airport",
      "updatedAt": "100230Z",
      "visibility_m": 10000,
      "taf_visibility_m": 3000,
      "worst_visibility_m": 3000,
      "ceiling_ft": null,
      "hazards": [
        "BR",
        "FZRA",
        "SN"
      ],
      "severityScore": 63,
      "metarRaw": "METAR LRBS 100230Z VRB02KT CAVOK 00/M02 Q1001 NOSIG",
      "tafRaw": "TAF LRBS 092300Z 1000/1024 VRB04KT 9999 BKN030 \n  TEMPO 1001/1006 -FZRA BKN015 BKN030 \n  BECMG 1013/1015 06014KT \n  BECMG 1018/1020 5000 -SN BR BKN010 OVC035 \n  BECMG 1022/1024 3000 SN BR BKN005 OVC025",
      "metarHtml": "METAR LRBS 100230Z VRB02KT <span class=\"hl-vis\">CAVOK</span> 00/M02 Q1001 NOSIG",
      "tafHtml": "TAF LRBS 092300Z 1000/1024 VRB04KT 9999 BKN030 \n  TEMPO 1001/1006 -<span class=\"hl\">FZRA</span> BKN015 BKN030 \n  BECMG 1013/1015 06014KT \n  BECMG 1018/1020 5000 -<span class=\"hl\">SN</span> <span class=\"hl\">BR</span> BKN010 OVC035 \n  BECMG 1022/1024 3000 <span class=\"hl\">SN</span> <span class=\"hl\">BR</span> BKN005 OVC025"
    },
    {
      "icao": "LROP",
      "iata": "OTP",
      "name": "Bucharest Henri Coandă International Airport",
      "updatedAt": "100230Z",
      "visibility_m": 10000,
      "taf_visibility_m": 3000,
      "worst_visibility_m": 3000,
      "ceiling_ft": null,
      "hazards": [
        "SN",
        "BR",
        "FZRA"
      ],
      "severityScore": 63,
      "metarRaw": "METAR LROP 100230Z 36004KT 9999 -SN NSC 01/M03 Q1000 NOSIG",
      "tafRaw": "TAF LROP 092300Z 1000/1024 VRB04KT 9999 BKN030 \n  TEMPO 1001/1006 -FZRA BKN015 BKN030 \n  BECMG 1013/1015 06014KT \n  BECMG 1018/1020 5000 -SN BR BKN010 OVC035 \n  BECMG 1022/1024 3000 SN BR BKN005 OVC025",
      "metarHtml": "METAR LROP 100230Z 36004KT 9999 -<span class=\"hl\">SN</span> NSC 01/M03 Q1000 NOSIG",
      "tafHtml": "TAF LROP 092300Z 1000/1024 VRB04KT 9999 BKN030 \n  TEMPO 1001/1006 -<span class=\"hl\">FZRA</span> BKN015 BKN030 \n  BECMG 1013/1015 06014KT \n  BECMG 1018/1020 5000 -<span class=\"hl\">SN</span> <span class=\"hl\">BR</span> BKN010 OVC035 \n  BECMG 1022/1024 3000 <span class=\"hl\">SN</span> <span class=\"hl\">BR</span> BKN005 OVC025"
    },
    {
      "icao": "EYKA",
      "iata": "KUN",
      "name": "Kaunas International Airport",
      "updatedAt": "100220Z",
      "visibility_m": 9000,
      "taf_visibility_m": 1500,
      "worst_visibility_m": 1500,
      "ceiling_ft": 1500,
      "hazards": [
        "SN",
        "BLSN"
      ],
      "severityScore": 62,
      "metarRaw": "METAR EYKA 100220Z 36009KT 320V040 9000 -SN BKN015 M08/M11 Q1000",
      "tafRaw": "TAF EYKA 092304Z 1000/1024 01012KT 5000 SN SCT010 OVC020 \n  TEMPO 1000/1009 1500 SN BLSN SCT005 BKN010 \n  TEMPO 1009/1015 3000 \n  BECMG 1016/1018 8000 NSW \n  TEMPO 1018/1024 3000 SN BKN010",
      "metarHtml": "METAR EYKA 100220Z 36009KT 320V040 9000 -<span class=\"hl\">SN</span> BKN015 M08/M11 Q1000",
      "tafHtml": "TAF EYKA 092304Z 1000/1024 01012KT 5000 <span class=\"hl\">SN</span> SCT010 OVC020 \n  TEMPO 1000/1009 1500 <span class=\"hl\">SN</span> <span class=\"hl\">BLSN</span> SCT005 BKN010 \n  TEMPO 1009/1015 3000 \n  BECMG 1016/1018 8000 NSW \n  TEMPO 1018/1024 3000 <span class=\"hl\">SN</span> BKN010"
    },
    {
      "icao": "EYVI",
      "iata": "VNO",
      "name": "Vilnius International Airport",
      "updatedAt": "100220Z",
      "visibility_m": 2700,
      "taf_visibility_m": 1500,
      "worst_visibility_m": 1500,
      "ceiling_ft": 1900,
      "hazards": [
        "SN",
        "BLSN"
      ],
      "severityScore": 62,
      "metarRaw": "METAR EYVI 100220Z 36010KT 2700 SN BKN019 M10/M12 Q0997 NOSIG",
      "tafRaw": "TAF EYVI 092303Z 1000/1024 01012KT 5000 SN SCT010 OVC020 \n  TEMPO 1000/1009 1500 SN BLSN SCT005 \n  BECMG 1016/1018 VRB04KT 9000 NSW \n  TEMPO 1018/1024 3000 SN BKN010",
      "metarHtml": "METAR EYVI 100220Z 36010KT 2700 <span class=\"hl\">SN</span> BKN019 M10/M12 Q0997 NOSIG",
      "tafHtml": "TAF EYVI 092303Z 1000/1024 01012KT 5000 <span class=\"hl\">SN</span> SCT010 OVC020 \n  TEMPO 1000/1009 1500 <span class=\"hl\">SN</span> <span class=\"hl\">BLSN</span> SCT005 \n  BECMG 1016/1018 VRB04KT 9000 NSW \n  TEMPO 1018/1024 3000 <span class=\"hl\">SN</span> BKN010"
    },
    {
      "icao": "UDYZ",
      "iata": "EVN",
      "name": "Zvartnots International Airport",
      "updatedAt": "100230Z",
      "visibility_m": 800,
      "taf_visibility_m": null,
      "worst_visibility_m": 800,
      "ceiling_ft": null,
      "hazards": [
        "FZFG"
      ],
      "severityScore": 60,
      "metarRaw": "METAR UDYZ 100230Z 00000KT 0800 0750W R08/1700U FZFG SCT046 M02/M02 Q1007 NOSIG",
      "tafRaw": null,
      "metarHtml": "METAR UDYZ 100230Z 00000KT <span class=\"hl-vis\">0800</span> 0750W R08/1700U <span class=\"hl\">FZFG</span> SCT046 M02/M02 Q1007 NOSIG",
      "tafHtml": null
    },
    {
      "icao": "EPKT",
      "iata": "KTW",
      "name": "Katowice Wojciech Korfanty International Airport",
      "updatedAt": "100230Z",
      "visibility_m": 3500,
      "taf_visibility_m": null,
      "worst_visibility_m": 3500,
      "ceiling_ft": 500,
      "hazards": [
        "BR",
        "SN"
      ],
      "severityScore": 58,
      "metarRaw": "METAR EPKT 100230Z 03005KT 3500 -SN BR SCT004 OVC005 M13/M14 Q1001",
      "tafRaw": null,
      "metarHtml": "METAR EPKT 100230Z 03005KT 3500 -<span class=\"hl\">SN</span> <span class=\"hl\">BR</span> SCT004 OVC005 M13/M14 Q1001",
      "tafHtml": null
    },
    {
      "icao": "LWSK",
      "iata": "SKP",
      "name": "Skopje International Airport",
      "updatedAt": null,
      "visibility_m": null,
      "taf_visibility_m": 5000,
      "worst_visibility_m": 5000,
      "ceiling_ft": null,
      "hazards": [
        "BR",
        "FZRA",
        "RA"
      ],
      "severityScore": 57,
      "metarRaw": null,
      "tafRaw": "TAF LWSK 100230Z 1003/1103 VRB02KT 9999 SCT040 BKN060 \n  TEMPO 1003/1006 5000 -FZRA BR SCT030 BKN040 \n  TEMPO 1006/1015 5000 RA SCT020 OVC040 \n  BECMG 1022/1024 34012KT",
      "metarHtml": null,
      "tafHtml": "TAF LWSK 100230Z 1003/1103 VRB02KT 9999 SCT040 BKN060 \n  TEMPO 1003/1006 5000 -<span class=\"hl\">FZRA</span> <span class=\"hl\">BR</span> SCT030 BKN040 \n  TEMPO 1006/1015 5000 <span class=\"hl\">RA</span> SCT020 OVC040 \n  BECMG 1022/1024 34012KT"
    },
    {
      "icao": "EDDN",
      "iata": "NUE",
      "name": "Nuremberg Airport",
      "updatedAt": "100220Z",
      "visibility_m": 10000,
      "taf_visibility_m": 800,
      "worst_visibility_m": 800,
      "ceiling_ft": 4500,
      "hazards": [
        "RA",
        "SN"
      ],
      "severityScore": 55,
      "metarRaw": "METAR EDDN 100220Z AUTO 21005KT 9999 -RA FEW015 SCT034 BKN045 01/00 Q0997 RESHSN",
      "tafRaw": "TAF EDDN 092300Z 1000/1024 19007KT 9999 SCT012 BKN040 \n  TEMPO 1000/1004 4000 -SNRA BKN012 \n  TEMPO 1004/1006 2500 -SN BKN008 \n  BECMG 1006/1008 25005KT 3500 -SN BKN008 \n  PROB40 \n  TEMPO 1010/1015 0800 SN BKN002 \n  BECMG 1013/1015 34005KT \n  BECMG 1016/1018 6000 BKN020",
      "metarHtml": "METAR EDDN 100220Z AUTO 21005KT 9999 -<span class=\"hl\">RA</span> FEW015 SCT034 BKN045 01/00 Q0997 RESHSN",
      "tafHtml": "TAF EDDN 092300Z 1000/1024 19007KT 9999 SCT012 BKN040 \n  TEMPO 1000/1004 4000 -SNRA BKN012 \n  TEMPO 1004/1006 2500 -<span class=\"hl\">SN</span> BKN008 \n  BECMG 1006/1008 25005KT 3500 -<span class=\"hl\">SN</span> BKN008 \n  PROB40 \n  TEMPO 1010/1015 <span class=\"hl-vis\">0800</span> <span class=\"hl\">SN</span> BKN002 \n  BECMG 1013/1015 34005KT \n  BECMG 1016/1018 6000 BKN020"
    },
    {
      "icao": "EHBK",
      "iata": "MST",
      "name": "Maastricht Aachen Airport",
      "updatedAt": "100225Z",
      "visibility_m": 2000,
      "taf_visibility_m": 800,
      "worst_visibility_m": 800,
      "ceiling_ft": null,
      "hazards": [
        "SN",
        "BR"
      ],
      "severityScore": 53,
      "metarRaw": "METAR EHBK 100225Z AUTO 31008KT 270V350 2000 -SN SCT002/// BKN004/// OVC005/// M01/M01 Q0996",
      "tafRaw": "TAF EHBK 092318Z 1000/1106 32007KT 2000 -SN BR BKN004 \n  PROB40 \n  TEMPO 1000/1006 0800 SN VV001 \n  BECMG 1006/1009 5000 -SG BKN008 \n  BECMG 1009/1012 9999 NSW BKN012 \n  BECMG 1014/1017 VRB02KT BKN018",
      "metarHtml": "METAR EHBK 100225Z AUTO 31008KT 270V350 2000 -<span class=\"hl\">SN</span> SCT002/// BKN004/// OVC005/// M01/M01 Q0996",
      "tafHtml": "TAF EHBK 092318Z 1000/1106 32007KT 2000 -<span class=\"hl\">SN</span> <span class=\"hl\">BR</span> BKN004 \n  PROB40 \n  TEMPO 1000/1006 <span class=\"hl-vis\">0800</span> <span class=\"hl\">SN</span> VV001 \n  BECMG 1006/1009 5000 -SG BKN008 \n  BECMG 1009/1012 9999 NSW BKN012 \n  BECMG 1014/1017 VRB02KT BKN018"
    },
    {
      "icao": "EPLB",
      "iata": "LUZ",
      "name": "Lublin Airport",
      "updatedAt": "100230Z",
      "visibility_m": 9000,
      "taf_visibility_m": 600,
      "worst_visibility_m": 600,
      "ceiling_ft": null,
      "hazards": [
        "SN",
        "BR"
      ],
      "severityScore": 53,
      "metarRaw": "METAR EPLB 100230Z 28007KT 9000 3300W -SN SCT003 M16/M17 Q1000",
      "tafRaw": "TAF EPLB 092330Z 1000/1024 29008KT 9999 SCT014 BKN018 \n  TEMPO 1000/1011 BKN010 \n  PROB40 1000/1010 2000 -SG BR BKN004 \n  PROB40 1010/1014 2000 -SG BKN006 \n  TEMPO 1014/1024 2000 SN BKN006 \n  PROB40 \n  TEMPO 1015/1024 0600 +SN BKN002",
      "metarHtml": "METAR EPLB 100230Z 28007KT 9000 3300W -<span class=\"hl\">SN</span> SCT003 M16/M17 Q1000",
      "tafHtml": "TAF EPLB 092330Z 1000/1024 29008KT 9999 SCT014 BKN018 \n  TEMPO 1000/1011 BKN010 \n  PROB40 1000/1010 2000 -SG <span class=\"hl\">BR</span> BKN004 \n  PROB40 1010/1014 2000 -SG BKN006 \n  TEMPO 1014/1024 2000 <span class=\"hl\">SN</span> BKN006 \n  PROB40 \n  TEMPO 1015/1024 <span class=\"hl-vis\">0600</span> +<span class=\"hl\">SN</span> BKN002"
    },
    {
      "icao": "EPMO",
      "iata": "WMI",
      "name": "Modlin Airport",
      "updatedAt": "100230Z",
      "visibility_m": 10000,
      "taf_visibility_m": 800,
      "worst_visibility_m": 800,
      "ceiling_ft": null,
      "hazards": [
        "BR",
        "SN"
      ],
      "severityScore": 53,
      "metarRaw": "METAR EPMO 100230Z 27006KT CAVOK M18/M19 Q1002",
      "tafRaw": "TAF EPMO 092330Z 1000/1024 33008KT CAVOK \n  PROB40 1000/1011 3000 -SG BR BKN004 \n  PROB40 1011/1013 3000 -SG BKN008 \n  BECMG 1013/1016 2000 SN BR BKN010 \n  PROB40 \n  TEMPO 1014/1024 0800 SN BKN002",
      "metarHtml": "METAR EPMO 100230Z 27006KT <span class=\"hl-vis\">CAVOK</span> M18/M19 Q1002",
      "tafHtml": "TAF EPMO 092330Z 1000/1024 33008KT <span class=\"hl-vis\">CAVOK</span> \n  PROB40 1000/1011 3000 -SG <span class=\"hl\">BR</span> BKN004 \n  PROB40 1011/1013 3000 -SG BKN008 \n  BECMG 1013/1016 2000 <span class=\"hl\">SN</span> <span class=\"hl\">BR</span> BKN010 \n  PROB40 \n  TEMPO 1014/1024 <span class=\"hl-vis\">0800</span> <span class=\"hl\">SN</span> BKN002"
    },
    {
      "icao": "LQBK",
      "iata": "BNX",
      "name": "Banja Luka International Airport",
      "updatedAt": "100230Z",
      "visibility_m": 2500,
      "taf_visibility_m": null,
      "worst_visibility_m": 2500,
      "ceiling_ft": 400,
      "hazards": [
        "BR"
      ],
      "severityScore": 50,
      "metarRaw": "METAR LQBK 100230Z 14007KT 2500 BR BKN004 01/01 Q1000 NOSIG",
      "tafRaw": null,
      "metarHtml": "METAR LQBK 100230Z 14007KT 2500 <span class=\"hl\">BR</span> BKN004 01/01 Q1000 NOSIG",
      "tafHtml": null
    },
    {
      "icao": "LFOB",
      "iata": "BVA",
      "name": "Beauvais Tillé airport",
      "updatedAt": "100230Z",
      "visibility_m": 10000,
      "taf_visibility_m": 4000,
      "worst_visibility_m": 4000,
      "ceiling_ft": 1400,
      "hazards": [
        "RA",
        "BR",
        "SHRA"
      ],
      "severityScore": 48,
      "metarRaw": "METAR LFOB 100230Z AUTO 30020KT 9999 -RA FEW013 BKN022 BKN032 02/01 Q1005 TEMPO BKN014 BECMG 28015G25KT",
      "tafRaw": "TAF LFOB 092300Z 1000/1024 28015G25KT 9999 BKN025 \n  TEMPO 1000/1003 4000 -SHRA BKN011TCU \n  PROB40 \n  TEMPO 1000/1003 BKN008 \n  TEMPO 1003/1011 BKN014 \n  BECMG 1016/1018 32010KT \n  TEMPO 1021/1024 4000 BR",
      "metarHtml": "METAR LFOB 100230Z AUTO 30020KT 9999 -<span class=\"hl\">RA</span> FEW013 BKN022 BKN032 02/01 Q1005 TEMPO BKN014 BECMG 28015G25KT",
      "tafHtml": "TAF LFOB 092300Z 1000/1024 28015G25KT 9999 BKN025 \n  TEMPO 1000/1003 4000 -<span class=\"hl\">SHRA</span> BKN011TCU \n  PROB40 \n  TEMPO 1000/1003 BKN008 \n  TEMPO 1003/1011 BKN014 \n  BECMG 1016/1018 32010KT \n  TEMPO 1021/1024 4000 <span class=\"hl\">BR</span>"
    },
    {
      "icao": "EGPD",
      "iata": "ABZ",
      "name": "Aberdeen International Airport",
      "updatedAt": "100220Z",
      "visibility_m": 4000,
      "taf_visibility_m": 1500,
      "worst_visibility_m": 1500,
      "ceiling_ft": 800,
      "hazards": [
        "RA"
      ],
      "severityScore": 47,
      "metarRaw": "METAR EGPD 100220Z AUTO 17010KT 9999 -RA FEW019/// BKN024/// BKN028/// //////CB 02/M00 Q1012 TEMPO 4000 SHRASN BKN008",
      "tafRaw": "TAF EGPD 092254Z 1000/1024 12007KT 9999 FEW015 SCT025 \n  TEMPO 1000/1006 6000 -SHRASN BKN012 \n  PROB30 \n  TEMPO 1000/1003 2000 SHRASN BKN006 \n  BECMG 1003/1006 18010KT \n  TEMPO 1006/1015 4000 -SHRASN BKN008 \n  PROB30 \n  TEMPO 1006/1015 1500 SHRASN BKN004 \n  PROB30 \n  TEMPO 1019/1024 19015G25KT",
      "metarHtml": "METAR EGPD 100220Z AUTO 17010KT 9999 -<span class=\"hl\">RA</span> FEW019/// BKN024/// BKN028/// //////CB 02/M00 Q1012 TEMPO 4000 SHRASN BKN008",
      "tafHtml": "TAF EGPD 092254Z 1000/1024 12007KT 9999 FEW015 SCT025 \n  TEMPO 1000/1006 6000 -SHRASN BKN012 \n  PROB30 \n  TEMPO 1000/1003 2000 SHRASN BKN006 \n  BECMG 1003/1006 18010KT \n  TEMPO 1006/1015 4000 -SHRASN BKN008 \n  PROB30 \n  TEMPO 1006/1015 1500 SHRASN BKN004 \n  PROB30 \n  TEMPO 1019/1024 19015G25KT"
    },
    {
      "icao": "LYPG",
      "iata": "TGD",
      "name": "Podgorica Airport / Podgorica Golubovci Airbase",
      "updatedAt": "100230Z",
      "visibility_m": 4000,
      "taf_visibility_m": 2000,
      "worst_visibility_m": 2000,
      "ceiling_ft": 4000,
      "hazards": [
        "BR",
        "RA",
        "TSRA"
      ],
      "severityScore": 47,
      "metarRaw": "METAR LYPG 100230Z 08003KT 320V100 4000 -RA BR FEW020 BKN040 BKN080 03/03 Q1001 RERA NOSIG",
      "tafRaw": "TAF LYPG 092300Z 1000/1024 35005KT 7000 RA FEW010 BKN030 OVC070 TX08/1012Z TN02/1005Z \n  PROB40 \n  TEMPO 1000/1016 VRB15G25KT 2000 TSRA FEW010 SCT025CB BKN030 \n  BECMG 1017/1019 36015G25KT",
      "metarHtml": "METAR LYPG 100230Z 08003KT 320V100 4000 -<span class=\"hl\">RA</span> <span class=\"hl\">BR</span> FEW020 BKN040 BKN080 03/03 Q1001 RERA NOSIG",
      "tafHtml": "TAF LYPG 092300Z 1000/1024 35005KT 7000 <span class=\"hl\">RA</span> FEW010 BKN030 OVC070 TX08/1012Z TN02/1005Z \n  PROB40 \n  TEMPO 1000/1016 VRB15G25KT 2000 <span class=\"hl\">TSRA</span> FEW010 SCT025CB BKN030 \n  BECMG 1017/1019 36015G25KT"
    },
    {
      "icao": "LZIB",
      "iata": "BTS",
      "name": "M. R. Štefánik Airport",
      "updatedAt": "100230Z",
      "visibility_m": 10000,
      "taf_visibility_m": 3500,
      "worst_visibility_m": 3500,
      "ceiling_ft": 900,
      "hazards": [
        "SN"
      ],
      "severityScore": 43,
      "metarRaw": "METAR LZIB 100230Z 09002KT 9999 BKN009 OVC010 M05/M06 Q1001 NOSIG",
      "tafRaw": "TAF LZIB 092315Z 1000/1100 06004KT 9999 BKN016 \n  PROB30 \n  TEMPO 1000/1006 BKN009 \n  BECMG 1006/1008 SCT010 SCT030 \n  PROB30 \n  TEMPO 1013/1016 3500 -SN BKN012 OVC025 \n  BECMG 1015/1017 01011KT \n  TEMPO 1019/1100 33018G28KT",
      "metarHtml": "METAR LZIB 100230Z 09002KT 9999 BKN009 OVC010 M05/M06 Q1001 NOSIG",
      "tafHtml": "TAF LZIB 092315Z 1000/1100 06004KT 9999 BKN016 \n  PROB30 \n  TEMPO 1000/1006 BKN009 \n  BECMG 1006/1008 SCT010 SCT030 \n  PROB30 \n  TEMPO 1013/1016 3500 -<span class=\"hl\">SN</span> BKN012 OVC025 \n  BECMG 1015/1017 01011KT \n  TEMPO 1019/1100 33018G28KT"
    },
    {
      "icao": "LFSB",
      "iata": "BSL",
      "name": "EuroAirport Basel–Mulhouse–Freiburg",
      "updatedAt": "100230Z",
      "visibility_m": 4000,
      "taf_visibility_m": 1200,
      "worst_visibility_m": 1200,
      "ceiling_ft": 3000,
      "hazards": [
        "SN",
        "SHRA"
      ],
      "severityScore": 42,
      "metarRaw": "METAR LFSB 100230Z AUTO 23011KT 9999 SCT015 BKN030 BKN050 02/01 Q1003 TEMPO 4000 -SHRASN SCT025TCU BECMG 25017G30KT",
      "tafRaw": "TAF LFSB 092300Z 1000/1024 25017G30KT 9999 BKN030 \n  TEMPO 1000/1006 -SHRA SCT025TCU \n  PROB30 \n  TEMPO 1000/1006 4000 -SHRASN \n  PROB40 \n  TEMPO 1000/1003 25020G35KT \n  TEMPO 1006/1016 3000 -SHRASN SCT020TCU \n  BECMG 1016/1018 28012KT \n  TEMPO 1016/1024 2000 -SHSNRA SCT020TCU \n  PROB40 \n  TEMPO 1018/1024 1200 -SN BKN005",
      "metarHtml": "METAR LFSB 100230Z AUTO 23011KT 9999 SCT015 BKN030 BKN050 02/01 Q1003 TEMPO 4000 -SHRASN SCT025TCU BECMG 25017G30KT",
      "tafHtml": "TAF LFSB 092300Z 1000/1024 25017G30KT 9999 BKN030 \n  TEMPO 1000/1006 -<span class=\"hl\">SHRA</span> SCT025TCU \n  PROB30 \n  TEMPO 1000/1006 4000 -SHRASN \n  PROB40 \n  TEMPO 1000/1003 25020G35KT \n  TEMPO 1006/1016 3000 -SHRASN SCT020TCU \n  BECMG 1016/1018 28012KT \n  TEMPO 1016/1024 2000 -SHSNRA SCT020TCU \n  PROB40 \n  TEMPO 1018/1024 1200 -<span class=\"hl\">SN</span> BKN005"
    },
    {
      "icao": "BKPR",
      "iata": "PRN",
      "name": "Priština Adem Jashari International Airport",
      "updatedAt": "100230Z",
      "visibility_m": 10000,
      "taf_visibility_m": 1200,
      "worst_visibility_m": 1200,
      "ceiling_ft": 3500,
      "hazards": [
        "RA",
        "SN"
      ],
      "severityScore": 40,
      "metarRaw": "METAR BKPR 100230Z 13006KT 9999 -RA FEW012 SCT025 BKN035 01/01 Q1001 NOSIG",
      "tafRaw": "TAF BKPR 092330Z 1000/1024 18008KT 9999 SCT020 BKN040 \n  TEMPO 1000/1012 4500 -RA \n  TEMPO 1012/1015 3000 RASN BKN010 OVC020 \n  BECMG 1012/1014 35012KT \n  TEMPO 1015/1022 1200 -SN BKN007 OVC015",
      "metarHtml": "METAR BKPR 100230Z 13006KT 9999 -<span class=\"hl\">RA</span> FEW012 SCT025 BKN035 01/01 Q1001 NOSIG",
      "tafHtml": "TAF BKPR 092330Z 1000/1024 18008KT 9999 SCT020 BKN040 \n  TEMPO 1000/1012 4500 -<span class=\"hl\">RA</span> \n  TEMPO 1012/1015 3000 RASN BKN010 OVC020 \n  BECMG 1012/1014 35012KT \n  TEMPO 1015/1022 1200 -<span class=\"hl\">SN</span> BKN007 OVC015"
    },
    {
      "icao": "EDLW",
      "iata": "DTM",
      "name": "Dortmund Airport",
      "updatedAt": "100220Z",
      "visibility_m": 2300,
      "taf_visibility_m": 1200,
      "worst_visibility_m": 1200,
      "ceiling_ft": null,
      "hazards": [
        "SN",
        "RA"
      ],
      "severityScore": 40,
      "metarRaw": "METAR EDLW 100220Z AUTO 04008KT 2300 // SCT001/// OVC003/// M00/M01 Q0995",
      "tafRaw": "TAF EDLW 091700Z 0918/1018 17007KT 9999 BKN015 \n  TEMPO 0918/0922 RA \n  BECMG 0920/0923 09004KT BKN012 \n  TEMPO 0922/0924 4000 RASN BKN003 \n  BECMG 1000/1003 07009KT OVC008 \n  TEMPO 1000/1006 1200 SN BKN003 \n  TEMPO 1006/1012 2000 -SN BKN004 \n  BECMG 1010/1012 SCT008 BKN012 \n  BECMG 1012/1014 SCT012",
      "metarHtml": "METAR EDLW 100220Z AUTO 04008KT 2300 // SCT001/// OVC003/// M00/M01 Q0995",
      "tafHtml": "TAF EDLW 091700Z 0918/1018 17007KT 9999 BKN015 \n  TEMPO 0918/0922 <span class=\"hl\">RA</span> \n  BECMG 0920/0923 09004KT BKN012 \n  TEMPO 0922/0924 4000 RASN BKN003 \n  BECMG 1000/1003 07009KT OVC008 \n  TEMPO 1000/1006 1200 <span class=\"hl\">SN</span> BKN003 \n  TEMPO 1006/1012 2000 -<span class=\"hl\">SN</span> BKN004 \n  BECMG 1010/1012 SCT008 BKN012 \n  BECMG 1012/1014 SCT012"
    },
    {
      "icao": "EPRZ",
      "iata": "RZE",
      "name": "Rzeszów-Jasionka Airport",
      "updatedAt": "100230Z",
      "visibility_m": 9000,
      "taf_visibility_m": 2500,
      "worst_visibility_m": 2500,
      "ceiling_ft": 1100,
      "hazards": [
        "SN",
        "BR"
      ],
      "severityScore": 40,
      "metarRaw": "METAR EPRZ 100230Z 31005KT 9000 -SN OVC011 M11/M13 Q1001",
      "tafRaw": "TAF EPRZ 092330Z 1000/1024 VRB02KT 6000 BKN010 \n  TEMPO 1000/1011 2500 -SN BR BKN009 \n  BECMG 1011/1013 29010KT BKN020 \n  BECMG 1021/1024 27015G25KT 2500 -SN BR BKN007",
      "metarHtml": "METAR EPRZ 100230Z 31005KT 9000 -<span class=\"hl\">SN</span> OVC011 M11/M13 Q1001",
      "tafHtml": "TAF EPRZ 092330Z 1000/1024 VRB02KT 6000 BKN010 \n  TEMPO 1000/1011 2500 -<span class=\"hl\">SN</span> <span class=\"hl\">BR</span> BKN009 \n  BECMG 1011/1013 29010KT BKN020 \n  BECMG 1021/1024 27015G25KT 2500 -<span class=\"hl\">SN</span> <span class=\"hl\">BR</span> BKN007"
    },
    {
      "icao": "LYNI",
      "iata": "INI",
      "name": "Niš Constantine the Great Airport",
      "updatedAt": "100230Z",
      "visibility_m": 10000,
      "taf_visibility_m": 2000,
      "worst_visibility_m": 2000,
      "ceiling_ft": 8000,
      "hazards": [
        "BR",
        "SN",
        "RA"
      ],
      "severityScore": 40,
      "metarRaw": "METAR LYNI 100230Z 09003KT 9999 SCT033 OVC080 02/02 Q1001 NOSIG",
      "tafRaw": "TAF LYNI 092300Z 1000/1024 07004KT 8000 SCT015 BKN030 TX01/1000Z TNM02/1024Z \n  TEMPO 1003/1006 4000 -RA BR \n  TEMPO 1010/1015 4000 RASN BKN015 BKN025 \n  TEMPO 1015/1024 2000 SN BKN008 BKN025",
      "metarHtml": "METAR LYNI 100230Z 09003KT 9999 SCT033 OVC080 02/02 Q1001 NOSIG",
      "tafHtml": "TAF LYNI 092300Z 1000/1024 07004KT 8000 SCT015 BKN030 TX01/1000Z TNM02/1024Z \n  TEMPO 1003/1006 4000 -<span class=\"hl\">RA</span> <span class=\"hl\">BR</span> \n  TEMPO 1010/1015 4000 RASN BKN015 BKN025 \n  TEMPO 1015/1024 2000 <span class=\"hl\">SN</span> BKN008 BKN025"
    },
    {
      "icao": "LATI",
      "iata": "TIA",
      "name": "Tirana International Airport Mother Teresa",
      "updatedAt": "100220Z",
      "visibility_m": 10000,
      "taf_visibility_m": 3000,
      "worst_visibility_m": 3000,
      "ceiling_ft": 10000,
      "hazards": [
        "TSRA",
        "SHRA"
      ],
      "severityScore": 39,
      "metarRaw": "METAR LATI 100220Z 22006KT 9999 SCT061 BKN100 14/08 Q1003 NOSIG",
      "tafRaw": "TAF LATI 092300Z 1000/1024 20013KT 9999 SCT030 BKN080 TX14/1001Z TN06/1100Z \n  TEMPO 1000/1008 SHRA FEW025CB BKN040 \n  TEMPO 1008/1020 VRB15G25KT 3000 TSRA SCT020CB OVC040",
      "metarHtml": "METAR LATI 100220Z 22006KT 9999 SCT061 BKN100 14/08 Q1003 NOSIG",
      "tafHtml": "TAF LATI 092300Z 1000/1024 20013KT 9999 SCT030 BKN080 TX14/1001Z TN06/1100Z \n  TEMPO 1000/1008 <span class=\"hl\">SHRA</span> FEW025CB BKN040 \n  TEMPO 1008/1020 VRB15G25KT 3000 <span class=\"hl\">TSRA</span> SCT020CB OVC040"
    },
    {
      "icao": "LICJ",
      "iata": "PMO",
      "name": "Falcone–Borsellino Airport",
      "updatedAt": "100220Z",
      "visibility_m": 10000,
      "taf_visibility_m": 4000,
      "worst_visibility_m": 4000,
      "ceiling_ft": null,
      "hazards": [
        "TSRA",
        "SHRA"
      ],
      "severityScore": 39,
      "metarRaw": "METAR LICJ 100220Z 26025KT 9999 FEW030 SCT050 15/10 Q1009",
      "tafRaw": "TAF LICJ 092300Z 1000/1024 23020G30KT 9999 SCT030 \n  TEMPO 1000/1006 4000 TSRA \n  BECMG 1004/1006 29030G40KT \n  TEMPO 1006/1018 4000 SHRA",
      "metarHtml": "METAR LICJ 100220Z 26025KT 9999 FEW030 SCT050 15/10 Q1009",
      "tafHtml": "TAF LICJ 092300Z 1000/1024 23020G30KT 9999 SCT030 \n  TEMPO 1000/1006 4000 <span class=\"hl\">TSRA</span> \n  BECMG 1004/1006 29030G40KT \n  TEMPO 1006/1018 4000 <span class=\"hl\">SHRA</span>"
    },
    {
      "icao": "LTFM",
      "iata": "IST",
      "name": "İstanbul Airport",
      "updatedAt": "100220Z",
      "visibility_m": 10000,
      "taf_visibility_m": 4000,
      "worst_visibility_m": 4000,
      "ceiling_ft": 9000,
      "hazards": [
        "TSRA",
        "SHRA"
      ],
      "severityScore": 39,
      "metarRaw": "METAR LTFM 100220Z 20018KT 9999 SCT035 BKN090 09/04 Q1004 NOSIG RMK RWY17L 20017KT RWY34L 18015KT RWY16R 19013KT RWY36 20019KT RWY18 21020KT",
      "tafRaw": "TAF LTFM 092240Z 1000/1106 21020G32KT 9999 SCT028 BKN090 \n  BECMG 1007/1009 21026G44KT \n  BECMG 1009/1011 -SHRA BKN025 BKN090 \n  PROB40 \n  TEMPO 1011/1013 4000 SHRA FEW018CB BKN025 \n  BECMG 1012/1014 21022G34KT \n  TEMPO 1015/1019 4000 -TSRA FEW018CB BKN025 \n  BECMG 1103/1106 35016KT BKN008 BKN022 \n  TEMPO 1103/1106 29016G26KT 4000 -TSRA FEW018CB BKN022",
      "metarHtml": "METAR LTFM 100220Z 20018KT 9999 SCT035 BKN090 09/04 Q1004 NOSIG RMK RWY17L 20017KT RWY34L 18015KT RWY16R 19013KT RWY36 20019KT RWY18 21020KT",
      "tafHtml": "TAF LTFM 092240Z 1000/1106 21020G32KT 9999 SCT028 BKN090 \n  BECMG 1007/1009 21026G44KT \n  BECMG 1009/1011 -<span class=\"hl\">SHRA</span> BKN025 BKN090 \n  PROB40 \n  TEMPO 1011/1013 4000 <span class=\"hl\">SHRA</span> FEW018CB BKN025 \n  BECMG 1012/1014 21022G34KT \n  TEMPO 1015/1019 4000 -<span class=\"hl\">TSRA</span> FEW018CB BKN025 \n  BECMG 1103/1106 35016KT BKN008 BKN022 \n  TEMPO 1103/1106 29016G26KT 4000 -<span class=\"hl\">TSRA</span> FEW018CB BKN022"
    },
    {
      "icao": "LKMT",
      "iata": "OSR",
      "name": "Ostrava Leos Janáček Airport",
      "updatedAt": "100230Z",
      "visibility_m": 2500,
      "taf_visibility_m": 1400,
      "worst_visibility_m": 1400,
      "ceiling_ft": 3600,
      "hazards": [
        "BR",
        "SN"
      ],
      "severityScore": 38,
      "metarRaw": "METAR LKMT 100230Z 00000KT 2500 -SN BR SCT026 OVC036 M04/M05 Q1000 NOSIG",
      "tafRaw": "TAF LKMT 092300Z 1000/1024 VRB02KT 9999 BKN035 \n  TEMPO 1000/1015 4500 -SN BR BKN015 OVC025 \n  PROB30 \n  TEMPO 1000/1008 1400 SN OVC005 \n  BECMG 1006/1008 02010KT",
      "metarHtml": "METAR LKMT 100230Z 00000KT 2500 -<span class=\"hl\">SN</span> <span class=\"hl\">BR</span> SCT026 OVC036 M04/M05 Q1000 NOSIG",
      "tafHtml": "TAF LKMT 092300Z 1000/1024 VRB02KT 9999 BKN035 \n  TEMPO 1000/1015 4500 -<span class=\"hl\">SN</span> <span class=\"hl\">BR</span> BKN015 OVC025 \n  PROB30 \n  TEMPO 1000/1008 1400 <span class=\"hl\">SN</span> OVC005 \n  BECMG 1006/1008 02010KT"
    },
    {
      "icao": "LRSB",
      "iata": "SBZ",
      "name": "Sibiu International Airport",
      "updatedAt": "100230Z",
      "visibility_m": 10000,
      "taf_visibility_m": 1500,
      "worst_visibility_m": 1500,
      "ceiling_ft": 2000,
      "hazards": [
        "BR",
        "SN"
      ],
      "severityScore": 38,
      "metarRaw": "METAR LRSB 100230Z VRB02KT 9999 BKN020 SCT035 M04/M05 Q0999",
      "tafRaw": "TAF LRSB 092300Z 1000/1024 VRB04KT 9999 OVC040 \n  TEMPO 1000/1006 5000 -SN BR BKN010 OVC030 \n  BECMG 1016/1018 3000 BR BKN010 BKN030 \n  TEMPO 1020/1023 1500 BR BKN005",
      "metarHtml": "METAR LRSB 100230Z VRB02KT 9999 BKN020 SCT035 M04/M05 Q0999",
      "tafHtml": "TAF LRSB 092300Z 1000/1024 VRB04KT 9999 OVC040 \n  TEMPO 1000/1006 5000 -<span class=\"hl\">SN</span> <span class=\"hl\">BR</span> BKN010 OVC030 \n  BECMG 1016/1018 3000 <span class=\"hl\">BR</span> BKN010 BKN030 \n  TEMPO 1020/1023 1500 <span class=\"hl\">BR</span> BKN005"
    },
    {
      "icao": "LBWN",
      "iata": "VAR",
      "name": "Varna Airport",
      "updatedAt": "100230Z",
      "visibility_m": 10000,
      "taf_visibility_m": 4000,
      "worst_visibility_m": 4000,
      "ceiling_ft": null,
      "hazards": [
        "TSRA",
        "RA"
      ],
      "severityScore": 37,
      "metarRaw": "METAR LBWN 100230Z AUTO VRB02KT 9999 NSC 01/M03 Q1001 NOSIG",
      "tafRaw": "TAF LBWN 092300Z 1000/1024 VRB04KT 9999 BKN040 \n  TEMPO 1005/1009 5000 RA \n  BECMG 1012/1014 5000 RA BKN020 OVC040 \n  PROB40 \n  TEMPO 1016/1020 4000 TSRA FEW030CB BKN040 \n  BECMG 1021/1023 01015G25KT",
      "metarHtml": "METAR LBWN 100230Z AUTO VRB02KT 9999 NSC 01/M03 Q1001 NOSIG",
      "tafHtml": "TAF LBWN 092300Z 1000/1024 VRB04KT 9999 BKN040 \n  TEMPO 1005/1009 5000 <span class=\"hl\">RA</span> \n  BECMG 1012/1014 5000 <span class=\"hl\">RA</span> BKN020 OVC040 \n  PROB40 \n  TEMPO 1016/1020 4000 <span class=\"hl\">TSRA</span> FEW030CB BKN040 \n  BECMG 1021/1023 01015G25KT"
    },
    {
      "icao": "LIRN",
      "iata": "NAP",
      "name": "Naples International Airport",
      "updatedAt": "100220Z",
      "visibility_m": 7000,
      "taf_visibility_m": 4000,
      "worst_visibility_m": 4000,
      "ceiling_ft": 4000,
      "hazards": [
        "RA",
        "TSRA"
      ],
      "severityScore": 37,
      "metarRaw": "METAR LIRN 100220Z 23007KT 7000 RA BKN040 11/07 Q1002 NOSIG",
      "tafRaw": "TAF LIRN 092300Z 1000/1024 26018G28KT 9999 SCT040 \n  TEMPO 1000/1012 4000 TSRA",
      "metarHtml": "METAR LIRN 100220Z 23007KT 7000 <span class=\"hl\">RA</span> BKN040 11/07 Q1002 NOSIG",
      "tafHtml": "TAF LIRN 092300Z 1000/1024 26018G28KT 9999 SCT040 \n  TEMPO 1000/1012 4000 <span class=\"hl\">TSRA</span>"
    },
    {
      "icao": "LIRZ",
      "iata": "PEG",
      "name": "Perugia San Francesco d'Assisi – Umbria International Airport",
      "updatedAt": "100220Z",
      "visibility_m": 10000,
      "taf_visibility_m": 4000,
      "worst_visibility_m": 4000,
      "ceiling_ft": null,
      "hazards": [
        "RA",
        "TSRA"
      ],
      "severityScore": 37,
      "metarRaw": "METAR LIRZ 100220Z AUTO 28005KT 9999 -RA SCT038/// BKN100/// 06/05 Q0999",
      "tafRaw": "TAF LIRZ 092300Z 1000/1024 VRB05KT 9999 BKN040 \n  TEMPO 1000/1006 4000 TSRA \n  BECMG 1009/1011 35012KT",
      "metarHtml": "METAR LIRZ 100220Z AUTO 28005KT 9999 -<span class=\"hl\">RA</span> SCT038/// BKN100/// 06/05 Q0999",
      "tafHtml": "TAF LIRZ 092300Z 1000/1024 VRB05KT 9999 BKN040 \n  TEMPO 1000/1006 4000 <span class=\"hl\">TSRA</span> \n  BECMG 1009/1011 35012KT"
    },
    {
      "icao": "LIPY",
      "iata": "AOI",
      "name": "Marche Airport",
      "updatedAt": "100220Z",
      "visibility_m": 5000,
      "taf_visibility_m": 10000,
      "worst_visibility_m": 5000,
      "ceiling_ft": null,
      "hazards": [
        "BR",
        "RA",
        "SHRA"
      ],
      "severityScore": 36,
      "metarRaw": "METAR LIPY 100220Z AUTO VRB02KT 5000 BR BKN048/// 04/03 Q0999",
      "tafRaw": "TAF LIPY 092300Z 1000/1024 24012KT 9999 SCT050 \n  TEMPO 1002/1008 RA \n  BECMG 1004/1006 32012KT \n  TEMPO 1008/1016 32015G25KT SHRA \n  BECMG 1018/1020 25005KT",
      "metarHtml": "METAR LIPY 100220Z AUTO VRB02KT 5000 <span class=\"hl\">BR</span> BKN048/// 04/03 Q0999",
      "tafHtml": "TAF LIPY 092300Z 1000/1024 24012KT 9999 SCT050 \n  TEMPO 1002/1008 <span class=\"hl\">RA</span> \n  BECMG 1004/1006 32012KT \n  TEMPO 1008/1016 32015G25KT <span class=\"hl\">SHRA</span> \n  BECMG 1018/1020 25005KT"
    },
    {
      "icao": "LFLS",
      "iata": "GNB",
      "name": "Grenoble Alpes Isère Airport",
      "updatedAt": "100230Z",
      "visibility_m": 2000,
      "taf_visibility_m": 2000,
      "worst_visibility_m": 2000,
      "ceiling_ft": 800,
      "hazards": [
        "SHSN"
      ],
      "severityScore": 35,
      "metarRaw": "METAR LFLS 100230Z AUTO 19004KT 9999 FEW041 OVC056 01/01 Q1009 TEMPO 2000 -SHSN BKN008 BKN030TCU",
      "tafRaw": "TAF LFLS 100200Z 1003/1103 VRB03KT 9999 BKN030 \n  PROB40 \n  TEMPO 1003/1103 2000 -SHSN BKN008 BKN030TCU",
      "metarHtml": "METAR LFLS 100230Z AUTO 19004KT 9999 FEW041 OVC056 01/01 Q1009 TEMPO 2000 -<span class=\"hl\">SHSN</span> BKN008 BKN030TCU",
      "tafHtml": "TAF LFLS 100200Z 1003/1103 VRB03KT 9999 BKN030 \n  PROB40 \n  TEMPO 1003/1103 2000 -<span class=\"hl\">SHSN</span> BKN008 BKN030TCU"
    },
    {
      "icao": "LPPR",
      "iata": "OPO",
      "name": "Francisco de Sá Carneiro Airport",
      "updatedAt": "100230Z",
      "visibility_m": 8000,
      "taf_visibility_m": 5000,
      "worst_visibility_m": 5000,
      "ceiling_ft": null,
      "hazards": [
        "SHRA",
        "BR",
        "DZ"
      ],
      "severityScore": 34,
      "metarRaw": "METAR LPPR 100230Z 13003KT 090V160 8000 -SHRA SCT020 SCT025 07/07 Q1028",
      "tafRaw": "TAF LPPR 092300Z 1000/1024 VRB02KT 9999 BKN025 \n  BECMG 1012/1015 19010KT SCT008 BKN017 \n  TEMPO 1015/1024 5000 DZ BR SCT004 BKN008",
      "metarHtml": "METAR LPPR 100230Z 13003KT 090V160 8000 -<span class=\"hl\">SHRA</span> SCT020 SCT025 07/07 Q1028",
      "tafHtml": "TAF LPPR 092300Z 1000/1024 VRB02KT 9999 BKN025 \n  BECMG 1012/1015 19010KT SCT008 BKN017 \n  TEMPO 1015/1024 5000 <span class=\"hl\">DZ</span> <span class=\"hl\">BR</span> SCT004 BKN008"
    },
    {
      "icao": "EDDS",
      "iata": "STR",
      "name": "Stuttgart Airport",
      "updatedAt": "100220Z",
      "visibility_m": 10000,
      "taf_visibility_m": 2000,
      "worst_visibility_m": 2000,
      "ceiling_ft": 1200,
      "hazards": [
        "SN"
      ],
      "severityScore": 30,
      "metarRaw": "METAR EDDS 100220Z AUTO 21006KT 160V230 9999 -RADZ BKN012 BKN032 BKN040 02/00 Q0997",
      "tafRaw": "TAF EDDS 092300Z 1000/1024 21009KT 9999 BKN015 \n  TEMPO 1000/1004 3000 SNRA BKN014 \n  TEMPO 1004/1019 3000 -SN BKN014 \n  BECMG 1013/1015 29007KT \n  BECMG 1016/1019 BKN010 \n  TEMPO 1019/1024 2000 -SN BKN005",
      "metarHtml": "METAR EDDS 100220Z AUTO 21006KT 160V230 9999 -RADZ BKN012 BKN032 BKN040 02/00 Q0997",
      "tafHtml": "TAF EDDS 092300Z 1000/1024 21009KT 9999 BKN015 \n  TEMPO 1000/1004 3000 SNRA BKN014 \n  TEMPO 1004/1019 3000 -<span class=\"hl\">SN</span> BKN014 \n  BECMG 1013/1015 29007KT \n  BECMG 1016/1019 BKN010 \n  TEMPO 1019/1024 2000 -<span class=\"hl\">SN</span> BKN005"
    },
    {
      "icao": "EPWR",
      "iata": "WRO",
      "name": "Copernicus Wrocław Airport",
      "updatedAt": "100230Z",
      "visibility_m": 8000,
      "taf_visibility_m": 3000,
      "worst_visibility_m": 3000,
      "ceiling_ft": null,
      "hazards": [
        "BR",
        "SN"
      ],
      "severityScore": 28,
      "metarRaw": "METAR EPWR 100230Z 05007KT 8000 SCT010 M09/M11 Q1003",
      "tafRaw": "TAF EPWR 100230Z 1003/1103 08008KT 7000 NSC \n  TEMPO 1003/1008 4000 -SN BR BKN008 BKN013 \n  BECMG 1012/1015 33010KT \n  BECMG 1017/1019 BKN012 \n  TEMPO 1019/1021 BKN006 BKN012 \n  BECMG 1021/1024 3000 -SN BKN006 BKN012 \n  PROB40 \n  TEMPO 1021/1103 30016G28KT",
      "metarHtml": "METAR EPWR 100230Z 05007KT 8000 SCT010 M09/M11 Q1003",
      "tafHtml": "TAF EPWR 100230Z 1003/1103 08008KT 7000 NSC \n  TEMPO 1003/1008 4000 -<span class=\"hl\">SN</span> <span class=\"hl\">BR</span> BKN008 BKN013 \n  BECMG 1012/1015 33010KT \n  BECMG 1017/1019 BKN012 \n  TEMPO 1019/1021 BKN006 BKN012 \n  BECMG 1021/1024 3000 -<span class=\"hl\">SN</span> BKN006 BKN012 \n  PROB40 \n  TEMPO 1021/1103 30016G28KT"
    },
    {
      "icao": "ESMS",
      "iata": "MMX",
      "name": "Malmö Sturup Airport",
      "updatedAt": "100220Z",
      "visibility_m": 10000,
      "taf_visibility_m": 10000,
      "worst_visibility_m": 10000,
      "ceiling_ft": 3500,
      "hazards": [
        "FZDZ"
      ],
      "severityScore": 28,
      "metarRaw": "METAR ESMS 100220Z 04012KT 9999 -FZDZ BKN035 M02/M06 Q1010",
      "tafRaw": "TAF ESMS 100227Z 1003/1103 05012KT 9999 BKN040 \n  BECMG 1010/1012 35008KT",
      "metarHtml": "METAR ESMS 100220Z 04012KT 9999 -<span class=\"hl\">FZDZ</span> BKN035 M02/M06 Q1010",
      "tafHtml": "TAF ESMS 100227Z 1003/1103 05012KT 9999 BKN040 \n  BECMG 1010/1012 35008KT"
    },
    {
      "icao": "LRBV",
      "iata": "GHV",
      "name": "Brașov-Ghimbav International Airport",
      "updatedAt": "100230Z",
      "visibility_m": 9000,
      "taf_visibility_m": 5000,
      "worst_visibility_m": 5000,
      "ceiling_ft": null,
      "hazards": [
        "BR",
        "SN"
      ],
      "severityScore": 28,
      "metarRaw": "METAR LRBV 100230Z AUTO 12003KT 9000 BKN033/// OVC045/// M05/M08 Q0998",
      "tafRaw": "TAF LRBV 100200Z 1003/1012 VRB04KT 9999 BKN025 BKN050 \n  TEMPO 1003/1008 5000 -SN BR BKN010 OVC035",
      "metarHtml": "METAR LRBV 100230Z AUTO 12003KT 9000 BKN033/// OVC045/// M05/M08 Q0998",
      "tafHtml": "TAF LRBV 100200Z 1003/1012 VRB04KT 9999 BKN025 BKN050 \n  TEMPO 1003/1008 5000 -<span class=\"hl\">SN</span> <span class=\"hl\">BR</span> BKN010 OVC035"
    },
    {
      "icao": "LRTM",
      "iata": "TGM",
      "name": "Târgu Mureş Transilvania International Airport",
      "updatedAt": "100230Z",
      "visibility_m": 3100,
      "taf_visibility_m": 5000,
      "worst_visibility_m": 3100,
      "ceiling_ft": null,
      "hazards": [
        "SN",
        "BR"
      ],
      "severityScore": 28,
      "metarRaw": "METAR LRTM 100230Z AUTO 06002KT 3100 -SN FEW017/// SCT020/// BKN024/// M06/M07 Q1000",
      "tafRaw": "TAF LRTM 100200Z 1003/1012 VRB04KT 9999 OVC040 \n  PROB30 \n  TEMPO 1003/1006 5000 -SN BR BKN010 OVC035",
      "metarHtml": "METAR LRTM 100230Z AUTO 06002KT 3100 -<span class=\"hl\">SN</span> FEW017/// SCT020/// BKN024/// M06/M07 Q1000",
      "tafHtml": "TAF LRTM 100200Z 1003/1012 VRB04KT 9999 OVC040 \n  PROB30 \n  TEMPO 1003/1006 5000 -<span class=\"hl\">SN</span> <span class=\"hl\">BR</span> BKN010 OVC035"
    },
    {
      "icao": "LUKK",
      "iata": "RMO",
      "name": "Chişinău International Airport",
      "updatedAt": "100230Z",
      "visibility_m": 10000,
      "taf_visibility_m": 4000,
      "worst_visibility_m": 4000,
      "ceiling_ft": null,
      "hazards": [
        "BR",
        "SN"
      ],
      "severityScore": 28,
      "metarRaw": "METAR LUKK 100230Z VRB02KT CAVOK M07/M09 Q1001 NOSIG",
      "tafRaw": "TAF LUKK 092317Z 1000/1024 VRB04KT 9999 SCT045 \n  PROB40 \n  TEMPO 1003/1007 4000 BR \n  BECMG 1007/1009 01008KT BKN020 \n  TEMPO 1008/1012 5000 -SN BKN010",
      "metarHtml": "METAR LUKK 100230Z VRB02KT <span class=\"hl-vis\">CAVOK</span> M07/M09 Q1001 NOSIG",
      "tafHtml": "TAF LUKK 092317Z 1000/1024 VRB04KT 9999 SCT045 \n  PROB40 \n  TEMPO 1003/1007 4000 <span class=\"hl\">BR</span> \n  BECMG 1007/1009 01008KT BKN020 \n  TEMPO 1008/1012 5000 -<span class=\"hl\">SN</span> BKN010"
    },
    {
      "icao": "LEBB",
      "iata": "BIO",
      "name": "Bilbao Airport",
      "updatedAt": "100230Z",
      "visibility_m": 8000,
      "taf_visibility_m": 3000,
      "worst_visibility_m": 3000,
      "ceiling_ft": 4300,
      "hazards": [
        "RA",
        "SHRA"
      ],
      "severityScore": 26,
      "metarRaw": "METAR LEBB 100230Z AUTO 28011G22KT 230V310 8000 -RA SCT022 SCT032 BKN043 09/05 Q1023",
      "tafRaw": "TAF LEBB 092300Z 1000/1024 28010KT 9999 FEW020 BKN040 TX10/1014Z TN08/1000Z \n  TEMPO 1000/1006 29018G30KT \n  TEMPO 1000/1020 3000 SHRA SCT025TCU \n  BECMG 1018/1020 VRB03KT",
      "metarHtml": "METAR LEBB 100230Z AUTO 28011G22KT 230V310 8000 -<span class=\"hl\">RA</span> SCT022 SCT032 BKN043 09/05 Q1023",
      "tafHtml": "TAF LEBB 092300Z 1000/1024 28010KT 9999 FEW020 BKN040 TX10/1014Z TN08/1000Z \n  TEMPO 1000/1006 29018G30KT \n  TEMPO 1000/1020 3000 <span class=\"hl\">SHRA</span> SCT025TCU \n  BECMG 1018/1020 VRB03KT"
    },
    {
      "icao": "LIBD",
      "iata": "BRI",
      "name": "Bari Karol Wojtyła International Airport",
      "updatedAt": "100220Z",
      "visibility_m": 10000,
      "taf_visibility_m": 4000,
      "worst_visibility_m": 4000,
      "ceiling_ft": null,
      "hazards": [
        "RA",
        "SHRA"
      ],
      "severityScore": 26,
      "metarRaw": "METAR LIBD 100220Z 21011KT 9999 -RA NSC 12/05 Q1002",
      "tafRaw": "TAF LIBD 092300Z 1000/1024 23012KT 9999 SCT040 \n  TEMPO 1004/1010 4000 RA \n  BECMG 1008/1010 31018G30KT \n  TEMPO 1014/1022 SHRA",
      "metarHtml": "METAR LIBD 100220Z 21011KT 9999 -<span class=\"hl\">RA</span> NSC 12/05 Q1002",
      "tafHtml": "TAF LIBD 092300Z 1000/1024 23012KT 9999 SCT040 \n  TEMPO 1004/1010 4000 <span class=\"hl\">RA</span> \n  BECMG 1008/1010 31018G30KT \n  TEMPO 1014/1022 <span class=\"hl\">SHRA</span>"
    },
    {
      "icao": "LIBP",
      "iata": "PSR",
      "name": "Abruzzo Airport",
      "updatedAt": "100220Z",
      "visibility_m": 10000,
      "taf_visibility_m": 10000,
      "worst_visibility_m": 10000,
      "ceiling_ft": null,
      "hazards": [
        "RA",
        "SHRA"
      ],
      "severityScore": 26,
      "metarRaw": "METAR LIBP 100220Z AUTO 23008KT 9999 BKN100/// 12/04 Q0998",
      "tafRaw": "TAF LIBP 092300Z 1000/1024 24015KT 9999 SCT040 \n  BECMG 1002/1004 24005KT \n  TEMPO 1002/1010 RA \n  BECMG 1010/1012 35015KT \n  TEMPO 1010/1016 SHRA \n  BECMG 1020/1022 25005KT",
      "metarHtml": "METAR LIBP 100220Z AUTO 23008KT 9999 BKN100/// 12/04 Q0998",
      "tafHtml": "TAF LIBP 092300Z 1000/1024 24015KT 9999 SCT040 \n  BECMG 1002/1004 24005KT \n  TEMPO 1002/1010 <span class=\"hl\">RA</span> \n  BECMG 1010/1012 35015KT \n  TEMPO 1010/1016 <span class=\"hl\">SHRA</span> \n  BECMG 1020/1022 25005KT"
    },
    {
      "icao": "LIBR",
      "iata": "BDS",
      "name": "Brindisi Airport",
      "updatedAt": "100220Z",
      "visibility_m": 10000,
      "taf_visibility_m": 10000,
      "worst_visibility_m": 10000,
      "ceiling_ft": null,
      "hazards": [
        "RA",
        "SHRA"
      ],
      "severityScore": 26,
      "metarRaw": "METAR LIBR 100220Z 24005KT CAVOK 11/07 Q1003",
      "tafRaw": "TAF LIBR 092300Z 1000/1024 21012KT 9999 SCT040 \n  TEMPO 1006/1012 24018G30KT RA \n  BECMG 1012/1014 30018G30KT \n  TEMPO 1018/1024 SHRA",
      "metarHtml": "METAR LIBR 100220Z 24005KT <span class=\"hl-vis\">CAVOK</span> 11/07 Q1003",
      "tafHtml": "TAF LIBR 092300Z 1000/1024 21012KT 9999 SCT040 \n  TEMPO 1006/1012 24018G30KT <span class=\"hl\">RA</span> \n  BECMG 1012/1014 30018G30KT \n  TEMPO 1018/1024 <span class=\"hl\">SHRA</span>"
    },
    {
      "icao": "LICA",
      "iata": "SUF",
      "name": "Lamezia Terme Sant'Eufemia International Airport",
      "updatedAt": "100220Z",
      "visibility_m": 10000,
      "taf_visibility_m": 4000,
      "worst_visibility_m": 4000,
      "ceiling_ft": null,
      "hazards": [
        "TSRA"
      ],
      "severityScore": 25,
      "metarRaw": "METAR LICA 100220Z AUTO 25021KT 9999 VCTS FEW048/// SCT089/// BKN100/// 16/11 Q1006",
      "tafRaw": "TAF LICA 092300Z 1000/1024 27025G35KT 9999 BKN020 \n  TEMPO 1000/1018 4000 TSRA",
      "metarHtml": "METAR LICA 100220Z AUTO 25021KT 9999 VCTS FEW048/// SCT089/// BKN100/// 16/11 Q1006",
      "tafHtml": "TAF LICA 092300Z 1000/1024 27025G35KT 9999 BKN020 \n  TEMPO 1000/1018 4000 <span class=\"hl\">TSRA</span>"
    },
    {
      "icao": "LIRF",
      "iata": "FCO",
      "name": "Rome–Fiumicino Leonardo da Vinci International Airport",
      "updatedAt": "100220Z",
      "visibility_m": 10000,
      "taf_visibility_m": 3000,
      "worst_visibility_m": 3000,
      "ceiling_ft": null,
      "hazards": [
        "TSRA"
      ],
      "severityScore": 25,
      "metarRaw": "METAR LIRF 100220Z 25023KT CAVOK 12/07 Q1000 NOSIG",
      "tafRaw": "TAF LIRF 092300Z 1000/1106 25023G35KT 9999 SCT025 \n  TEMPO 1000/1010 3000 TSRA \n  BECMG 1004/1006 30020G30KT \n  BECMG 1012/1014 32015KT \n  BECMG 1014/1016 02008KT",
      "metarHtml": "METAR LIRF 100220Z 25023KT <span class=\"hl-vis\">CAVOK</span> 12/07 Q1000 NOSIG",
      "tafHtml": "TAF LIRF 092300Z 1000/1106 25023G35KT 9999 SCT025 \n  TEMPO 1000/1010 3000 <span class=\"hl\">TSRA</span> \n  BECMG 1004/1006 30020G30KT \n  BECMG 1012/1014 32015KT \n  BECMG 1014/1016 02008KT"
    },
    {
      "icao": "EGKK",
      "iata": "LGW",
      "name": "London Gatwick Airport",
      "updatedAt": "100220Z",
      "visibility_m": 10000,
      "taf_visibility_m": 4500,
      "worst_visibility_m": 4500,
      "ceiling_ft": 2100,
      "hazards": [
        "BR",
        "SHRA"
      ],
      "severityScore": 24,
      "metarRaw": "METAR EGKK 100220Z 32015KT 9999 BKN021 03/M01 Q1007",
      "tafRaw": "TAF EGKK 092254Z 1000/1106 32012KT 9999 SCT020 \n  PROB30 \n  TEMPO 1000/1003 32015G25KT 8000 -SHRA \n  PROB40 \n  TEMPO 1006/1012 BKN010 \n  BECMG 1016/1019 VRB03KT \n  TEMPO 1018/1104 8000 \n  PROB30 1023/1103 4500 BR \n  BECMG 1104/1106 14010KT",
      "metarHtml": "METAR EGKK 100220Z 32015KT 9999 BKN021 03/M01 Q1007",
      "tafHtml": "TAF EGKK 092254Z 1000/1106 32012KT 9999 SCT020 \n  PROB30 \n  TEMPO 1000/1003 32015G25KT 8000 -<span class=\"hl\">SHRA</span> \n  PROB40 \n  TEMPO 1006/1012 BKN010 \n  BECMG 1016/1019 VRB03KT \n  TEMPO 1018/1104 8000 \n  PROB30 1023/1103 4500 <span class=\"hl\">BR</span> \n  BECMG 1104/1106 14010KT"
    },
    {
      "icao": "LBSF",
      "iata": "SOF",
      "name": "Sofia Airport",
      "updatedAt": "100230Z",
      "visibility_m": 4500,
      "taf_visibility_m": 3000,
      "worst_visibility_m": 3000,
      "ceiling_ft": null,
      "hazards": [
        "BR",
        "RA"
      ],
      "severityScore": 22,
      "metarRaw": "METAR LBSF 100230Z AUTO VRB02KT 4500 -RA BR FEW024/// SCT036/// OVC042/// 00/M00 Q1002 NOSIG",
      "tafRaw": "TAF LBSF 092300Z 1000/1024 VRB03KT 9999 SCT030 BKN050 \n  TEMPO 1000/1005 3000 SNRA BKN010 OVC030 \n  TEMPO 1008/1015 5000 RA SCT015 BKN030 OVC050 \n  BECMG 1018/1020 30014KT \n  TEMPO 1020/1024 5000 RA SCT015 BKN030 OVC050",
      "metarHtml": "METAR LBSF 100230Z AUTO VRB02KT 4500 -<span class=\"hl\">RA</span> <span class=\"hl\">BR</span> FEW024/// SCT036/// OVC042/// 00/M00 Q1002 NOSIG",
      "tafHtml": "TAF LBSF 092300Z 1000/1024 VRB03KT 9999 SCT030 BKN050 \n  TEMPO 1000/1005 3000 SNRA BKN010 OVC030 \n  TEMPO 1008/1015 5000 <span class=\"hl\">RA</span> SCT015 BKN030 OVC050 \n  BECMG 1018/1020 30014KT \n  TEMPO 1020/1024 5000 <span class=\"hl\">RA</span> SCT015 BKN030 OVC050"
    },
    {
      "icao": "GMMN",
      "iata": "CMN",
      "name": "Mohammed V International Airport",
      "updatedAt": "100230Z",
      "visibility_m": 10000,
      "taf_visibility_m": 1200,
      "worst_visibility_m": 1200,
      "ceiling_ft": null,
      "hazards": [
        "BR"
      ],
      "severityScore": 20,
      "metarRaw": "METAR GMMN 100230Z VRB02KT 9999 FEW023 06/04 Q1030 NOSIG",
      "tafRaw": "TAF GMMN 092300Z 1000/1106 12004KT 9999 FEW020 \n  PROB40 \n  TEMPO 1000/1009 1200 BR BKN010 \n  BECMG 1012/1014 02010KT \n  BECMG 1018/1020 06004KT",
      "metarHtml": "METAR GMMN 100230Z VRB02KT 9999 FEW023 06/04 Q1030 NOSIG",
      "tafHtml": "TAF GMMN 092300Z 1000/1106 12004KT 9999 FEW020 \n  PROB40 \n  TEMPO 1000/1009 1200 <span class=\"hl\">BR</span> BKN010 \n  BECMG 1012/1014 02010KT \n  BECMG 1018/1020 06004KT"
    },
    {
      "icao": "LIPQ",
      "iata": "TRS",
      "name": "Trieste–Friuli Venezia Giulia Airport",
      "updatedAt": "100220Z",
      "visibility_m": 2200,
      "taf_visibility_m": 1500,
      "worst_visibility_m": 1500,
      "ceiling_ft": null,
      "hazards": [
        "BR"
      ],
      "severityScore": 20,
      "metarRaw": "METAR LIPQ 100220Z AUTO 31002KT 2200 BR FEW076/// BKN210/// 02/02 Q1000",
      "tafRaw": "TAF LIPQ 092300Z 1000/1024 VRB05KT 9999 BKN030 \n  TEMPO 1000/1007 1500 BCFG BKN010",
      "metarHtml": "METAR LIPQ 100220Z AUTO 31002KT 2200 <span class=\"hl\">BR</span> FEW076/// BKN210/// 02/02 Q1000",
      "tafHtml": "TAF LIPQ 092300Z 1000/1024 VRB05KT 9999 BKN030 \n  TEMPO 1000/1007 1500 BCFG BKN010"
    },
    {
      "icao": "LPFR",
      "iata": "FAO",
      "name": "Faro Airport",
      "updatedAt": "100230Z",
      "visibility_m": 10000,
      "taf_visibility_m": 5000,
      "worst_visibility_m": 5000,
      "ceiling_ft": null,
      "hazards": [
        "BR",
        "DZ"
      ],
      "severityScore": 20,
      "metarRaw": "METAR LPFR 100230Z VRB02KT CAVOK 07/06 Q1029",
      "tafRaw": "TAF LPFR 092300Z 1000/1024 32005KT 9999 FEW035 \n  PROB30 \n  TEMPO 1003/1006 5000 DZ BR BKN008 \n  BECMG 1012/1014 25012KT SCT025 \n  BECMG 1018/1021 36005KT CAVOK",
      "metarHtml": "METAR LPFR 100230Z VRB02KT <span class=\"hl-vis\">CAVOK</span> 07/06 Q1029",
      "tafHtml": "TAF LPFR 092300Z 1000/1024 32005KT 9999 FEW035 \n  PROB30 \n  TEMPO 1003/1006 5000 <span class=\"hl\">DZ</span> <span class=\"hl\">BR</span> BKN008 \n  BECMG 1012/1014 25012KT SCT025 \n  BECMG 1018/1021 36005KT <span class=\"hl-vis\">CAVOK</span>"
    },
    {
      "icao": "LPPT",
      "iata": "LIS",
      "name": "Lisbon Humberto Delgado Airport",
      "updatedAt": "100230Z",
      "visibility_m": 10000,
      "taf_visibility_m": 5000,
      "worst_visibility_m": 5000,
      "ceiling_ft": 3600,
      "hazards": [
        "BR",
        "DZ"
      ],
      "severityScore": 20,
      "metarRaw": "METAR LPPT 100230Z 28002KT 9999 FEW014 BKN036 10/09 Q1029",
      "tafRaw": "TAF LPPT 092300Z 1000/1106 VRB02KT 9999 FEW030 \n  PROB30 1003/1008 5000 BR NSC \n  TEMPO 1006/1024 BKN020 \n  BECMG 1100/1103 20008KT SCT012 BKN020 \n  TEMPO 1103/1106 5000 DZ BR SCT005 BKN012",
      "metarHtml": "METAR LPPT 100230Z 28002KT 9999 FEW014 BKN036 10/09 Q1029",
      "tafHtml": "TAF LPPT 092300Z 1000/1106 VRB02KT 9999 FEW030 \n  PROB30 1003/1008 5000 <span class=\"hl\">BR</span> NSC \n  TEMPO 1006/1024 BKN020 \n  BECMG 1100/1103 20008KT SCT012 BKN020 \n  TEMPO 1103/1106 5000 <span class=\"hl\">DZ</span> <span class=\"hl\">BR</span> SCT005 BKN012"
    },
    {
      "icao": "EDJA",
      "iata": "FMM",
      "name": "Memmingen Allgau Airport",
      "updatedAt": "100220Z",
      "visibility_m": 10000,
      "taf_visibility_m": 2500,
      "worst_visibility_m": 2500,
      "ceiling_ft": null,
      "hazards": [
        "SN"
      ],
      "severityScore": 18,
      "metarRaw": "METAR EDJA 100220Z AUTO 24019G32KT 9999 // SCT016/// BKN021/// OVC088/// 01/M02 Q0999",
      "tafRaw": "TAF EDJA 100200Z 1003/1012 24015G25KT 9999 BKN015 OVC025 \n  TEMPO 1003/1012 24020G30KT 2500 -SN BKN012",
      "metarHtml": "METAR EDJA 100220Z AUTO 24019G32KT 9999 // SCT016/// BKN021/// OVC088/// 01/M02 Q0999",
      "tafHtml": "TAF EDJA 100200Z 1003/1012 24015G25KT 9999 BKN015 OVC025 \n  TEMPO 1003/1012 24020G30KT 2500 -<span class=\"hl\">SN</span> BKN012"
    },
    {
      "icao": "EKBI",
      "iata": "BLL",
      "name": "Billund Airport",
      "updatedAt": "100220Z",
      "visibility_m": 10000,
      "taf_visibility_m": 9000,
      "worst_visibility_m": 9000,
      "ceiling_ft": null,
      "hazards": [
        "SN"
      ],
      "severityScore": 18,
      "metarRaw": "METAR EKBI 100220Z AUTO 08018KT 9999 -SN OVC034/// M01/M06 Q1011",
      "tafRaw": "TAF EKBI 100227Z 1003/1103 07015KT 9000 BKN025 \n  TEMPO 1003/1006 07018G28KT DRSN \n  BECMG 1014/1017 01006KT",
      "metarHtml": "METAR EKBI 100220Z AUTO 08018KT 9999 -<span class=\"hl\">SN</span> OVC034/// M01/M06 Q1011",
      "tafHtml": "TAF EKBI 100227Z 1003/1103 07015KT 9000 BKN025 \n  TEMPO 1003/1006 07018G28KT DRSN \n  BECMG 1014/1017 01006KT"
    },
    {
      "icao": "EKCH",
      "iata": "CPH",
      "name": "Copenhagen Kastrup Airport",
      "updatedAt": "100220Z",
      "visibility_m": 10000,
      "taf_visibility_m": 10000,
      "worst_visibility_m": 10000,
      "ceiling_ft": null,
      "hazards": [
        "SN"
      ],
      "severityScore": 18,
      "metarRaw": "METAR EKCH 100220Z AUTO 05018KT 9999 -SN OVC037/// M01/M06 Q1012 TEMPO 06018G30KT",
      "tafRaw": "TAF EKCH 100227Z 1003/1103 05015KT 9999 BKN030 \n  TEMPO 1003/1010 06018G28KT DRSN \n  BECMG 1014/1016 35016KT \n  TEMPO 1016/1023 35016G26KT",
      "metarHtml": "METAR EKCH 100220Z AUTO 05018KT 9999 -<span class=\"hl\">SN</span> OVC037/// M01/M06 Q1012 TEMPO 06018G30KT",
      "tafHtml": "TAF EKCH 100227Z 1003/1103 05015KT 9999 BKN030 \n  TEMPO 1003/1010 06018G28KT DRSN \n  BECMG 1014/1016 35016KT \n  TEMPO 1016/1023 35016G26KT"
    },
    {
      "icao": "ENGM",
      "iata": "OSL",
      "name": "Oslo-Gardermoen International Airport",
      "updatedAt": "100220Z",
      "visibility_m": 10000,
      "taf_visibility_m": 2000,
      "worst_visibility_m": 2000,
      "ceiling_ft": null,
      "hazards": [
        "SN"
      ],
      "severityScore": 18,
      "metarRaw": "METAR ENGM 100220Z 02005KT CAVOK M09/M10 Q1022",
      "tafRaw": "TAF ENGM 092300Z 1000/1024 03005KT 9999 -SN FEW020 BKN030 \n  PROB30 1005/1024 2000 BCFG BKN002",
      "metarHtml": "METAR ENGM 100220Z 02005KT <span class=\"hl-vis\">CAVOK</span> M09/M10 Q1022",
      "tafHtml": "TAF ENGM 092300Z 1000/1024 03005KT 9999 -<span class=\"hl\">SN</span> FEW020 BKN030 \n  PROB30 1005/1024 2000 BCFG BKN002"
    },
    {
      "icao": "ENTO",
      "iata": "TRF",
      "name": "Sandefjord Airport, Torp",
      "updatedAt": "100220Z",
      "visibility_m": 10000,
      "taf_visibility_m": 10000,
      "worst_visibility_m": 10000,
      "ceiling_ft": null,
      "hazards": [
        "SN"
      ],
      "severityScore": 18,
      "metarRaw": "METAR ENTO 100220Z AUTO 03006KT 9999 FEW029/// M06/M11 Q1022",
      "tafRaw": "TAF ENTO 092300Z 1000/1024 04010KT 9999 -SN FEW020 BKN030 \n  BECMG 1005/1007 34008KT",
      "metarHtml": "METAR ENTO 100220Z AUTO 03006KT 9999 FEW029/// M06/M11 Q1022",
      "tafHtml": "TAF ENTO 092300Z 1000/1024 04010KT 9999 -<span class=\"hl\">SN</span> FEW020 BKN030 \n  BECMG 1005/1007 34008KT"
    },
    {
      "icao": "EPRA",
      "iata": "RDO",
      "name": "Warsaw Radom Airport",
      "updatedAt": "100230Z",
      "visibility_m": 10000,
      "taf_visibility_m": 4000,
      "worst_visibility_m": 4000,
      "ceiling_ft": null,
      "hazards": [
        "SN"
      ],
      "severityScore": 18,
      "metarRaw": "METAR EPRA 100230Z 32007KT 9999 FEW016 M14/M16 Q1001",
      "tafRaw": "TAF EPRA 100230Z 1003/1012 30008KT 8000 NSC \n  PROB30 \n  TEMPO 1003/1012 4000 -SN BKN005 BKN012",
      "metarHtml": "METAR EPRA 100230Z 32007KT 9999 FEW016 M14/M16 Q1001",
      "tafHtml": "TAF EPRA 100230Z 1003/1012 30008KT 8000 NSC \n  PROB30 \n  TEMPO 1003/1012 4000 -<span class=\"hl\">SN</span> BKN005 BKN012"
    },
    {
      "icao": "EPSY",
      "iata": "SZY",
      "name": "Olsztyn-Mazury Airport",
      "updatedAt": "100230Z",
      "visibility_m": 5000,
      "taf_visibility_m": 4000,
      "worst_visibility_m": 4000,
      "ceiling_ft": 3200,
      "hazards": [
        "SN"
      ],
      "severityScore": 18,
      "metarRaw": "METAR EPSY 100230Z 32007KT 5000 -SN SCT021 BKN032 M11/M13 Q1001",
      "tafRaw": "TAF EPSY 100230Z 1003/1012 34008KT 9999 SCT016 \n  TEMPO 1003/1012 4000 -SN BKN007",
      "metarHtml": "METAR EPSY 100230Z 32007KT 5000 -<span class=\"hl\">SN</span> SCT021 BKN032 M11/M13 Q1001",
      "tafHtml": "TAF EPSY 100230Z 1003/1012 34008KT 9999 SCT016 \n  TEMPO 1003/1012 4000 -<span class=\"hl\">SN</span> BKN007"
    },
    {
      "icao": "LRCL",
      "iata": "CLJ",
      "name": "Cluj Avram Iancu International Airport",
      "updatedAt": "100230Z",
      "visibility_m": 7000,
      "taf_visibility_m": 10000,
      "worst_visibility_m": 7000,
      "ceiling_ft": 4600,
      "hazards": [
        "SN"
      ],
      "severityScore": 18,
      "metarRaw": "METAR LRCL 100230Z VRB02KT 7000 -SN FEW035 OVC046 M05/M08 Q1000",
      "tafRaw": "TAF LRCL 100200Z 1003/1012 VRB04KT 9999 OVC035",
      "metarHtml": "METAR LRCL 100230Z VRB02KT 7000 -<span class=\"hl\">SN</span> FEW035 OVC046 M05/M08 Q1000",
      "tafHtml": "TAF LRCL 100200Z 1003/1012 VRB04KT 9999 OVC035"
    },
    {
      "icao": "EGPF",
      "iata": "GLA",
      "name": "Glasgow Airport",
      "updatedAt": "100220Z",
      "visibility_m": 2600,
      "taf_visibility_m": null,
      "worst_visibility_m": 2600,
      "ceiling_ft": 1600,
      "hazards": [],
      "severityScore": 17,
      "metarRaw": "METAR EGPF 100220Z AUTO 05002KT 2600 RADZ FEW005 OVC016 01/01 Q1011",
      "tafRaw": null,
      "metarHtml": "METAR EGPF 100220Z AUTO 05002KT 2600 RADZ FEW005 OVC016 01/01 Q1011",
      "tafHtml": null
    },
    {
      "icao": "LHDC",
      "iata": "DEB",
      "name": "Debrecen International Airport",
      "updatedAt": "100215Z",
      "visibility_m": 8000,
      "taf_visibility_m": null,
      "worst_visibility_m": 8000,
      "ceiling_ft": 1800,
      "hazards": [],
      "severityScore": 17,
      "metarRaw": "METAR LHDC 100215Z AUTO 06004KT 8000 OVC018 M05/M07 Q1001",
      "tafRaw": null,
      "metarHtml": "METAR LHDC 100215Z AUTO 06004KT 8000 OVC018 M05/M07 Q1001",
      "tafHtml": null
    },
    {
      "icao": "LZKZ",
      "iata": "KSC",
      "name": "Košice International Airport",
      "updatedAt": "100230Z",
      "visibility_m": 7000,
      "taf_visibility_m": null,
      "worst_visibility_m": 7000,
      "ceiling_ft": 1000,
      "hazards": [],
      "severityScore": 17,
      "metarRaw": "METAR LZKZ 100230Z 36006KT 7000 OVC010 M09/M11 Q1001 NOSIG",
      "tafRaw": null,
      "metarHtml": "METAR LZKZ 100230Z 36006KT 7000 OVC010 M09/M11 Q1001 NOSIG",
      "tafHtml": null
    },
    {
      "icao": "LCLK",
      "iata": "LCA",
      "name": "Larnaca International Airport",
      "updatedAt": "100230Z",
      "visibility_m": 10000,
      "taf_visibility_m": 5000,
      "worst_visibility_m": 5000,
      "ceiling_ft": null,
      "hazards": [
        "SHRA"
      ],
      "severityScore": 14,
      "metarRaw": "METAR LCLK 100230Z 33005KT CAVOK 09/06 Q1016 NOSIG",
      "tafRaw": "TAF LCLK 092330Z 1000/1100 26007KT 9999 FEW020 SCT040 \n  BECMG 1007/1009 22017KT \n  PROB30 \n  TEMPO 1011/1019 5000 SHRA SCT020TCU \n  BECMG 1017/1019 26007KT",
      "metarHtml": "METAR LCLK 100230Z 33005KT <span class=\"hl-vis\">CAVOK</span> 09/06 Q1016 NOSIG",
      "tafHtml": "TAF LCLK 092330Z 1000/1100 26007KT 9999 FEW020 SCT040 \n  BECMG 1007/1009 22017KT \n  PROB30 \n  TEMPO 1011/1019 5000 <span class=\"hl\">SHRA</span> SCT020TCU \n  BECMG 1017/1019 26007KT"
    },
    {
      "icao": "LCPH",
      "iata": "PFO",
      "name": "Paphos International Airport",
      "updatedAt": "100230Z",
      "visibility_m": 4500,
      "taf_visibility_m": 4000,
      "worst_visibility_m": 4000,
      "ceiling_ft": null,
      "hazards": [
        "SHRA"
      ],
      "severityScore": 14,
      "metarRaw": "METAR LCPH 100230Z AUTO 02006KT 350V080 4500 SCT037 SCT044 15/08 Q1016 NOSIG",
      "tafRaw": "TAF LCPH 092330Z 1000/1100 31012KT 9999 FEW025 SCT040 \n  PROB40 \n  TEMPO 1004/1022 4000 SHRA SCT020TCU \n  BECMG 1007/1009 26014KT",
      "metarHtml": "METAR LCPH 100230Z AUTO 02006KT 350V080 4500 SCT037 SCT044 15/08 Q1016 NOSIG",
      "tafHtml": "TAF LCPH 092330Z 1000/1100 31012KT 9999 FEW025 SCT040 \n  PROB40 \n  TEMPO 1004/1022 4000 <span class=\"hl\">SHRA</span> SCT020TCU \n  BECMG 1007/1009 26014KT"
    },
    {
      "icao": "LEXJ",
      "iata": "SDR",
      "name": "Seve Ballesteros-Santander Airport",
      "updatedAt": "100230Z",
      "visibility_m": 10000,
      "taf_visibility_m": 3000,
      "worst_visibility_m": 3000,
      "ceiling_ft": 3900,
      "hazards": [
        "SHRA"
      ],
      "severityScore": 14,
      "metarRaw": "METAR LEXJ 100230Z AUTO 28013KT 250V310 9999 1900E SCT032 BKN039 BKN060 09/05 Q1024",
      "tafRaw": "TAF LEXJ 100200Z 1003/1103 27015KT 9999 SCT025 BKN040 TX11/1015Z TN08/1007Z \n  TEMPO 1003/1008 28017G27KT \n  TEMPO 1003/1017 3000 SHRA SCT025TCU \n  BECMG 1019/1021 20008KT",
      "metarHtml": "METAR LEXJ 100230Z AUTO 28013KT 250V310 9999 1900E SCT032 BKN039 BKN060 09/05 Q1024",
      "tafHtml": "TAF LEXJ 100200Z 1003/1103 27015KT 9999 SCT025 BKN040 TX11/1015Z TN08/1007Z \n  TEMPO 1003/1008 28017G27KT \n  TEMPO 1003/1017 3000 <span class=\"hl\">SHRA</span> SCT025TCU \n  BECMG 1019/1021 20008KT"
    },
    {
      "icao": "LFLL",
      "iata": "LYS",
      "name": "Lyon Saint-Exupéry Airport",
      "updatedAt": "100230Z",
      "visibility_m": 10000,
      "taf_visibility_m": 4000,
      "worst_visibility_m": 4000,
      "ceiling_ft": 3100,
      "hazards": [
        "SHRA"
      ],
      "severityScore": 14,
      "metarRaw": "METAR LFLL 100230Z 20005KT 9999 BKN031 BKN051 04/00 Q1009 NOSIG",
      "tafRaw": "TAF LFLL 092300Z 1000/1106 25008KT 9999 BKN025 \n  PROB30 \n  TEMPO 1000/1003 -SHRA FEW020TCU \n  PROB30 \n  TEMPO 1003/1010 4500 -SHRASN BKN014 FEW018TCU BKN020 \n  BECMG 1004/1007 31010KT \n  PROB30 \n  TEMPO 1010/1016 -SHRA FEW025TCU BKN030 \n  PROB40 \n  TEMPO 1016/1023 4000 -SHSNRA BKN012 SCT018TCU BKN020 \n  BECMG 1104/1106 BKN013",
      "metarHtml": "METAR LFLL 100230Z 20005KT 9999 BKN031 BKN051 04/00 Q1009 NOSIG",
      "tafHtml": "TAF LFLL 092300Z 1000/1106 25008KT 9999 BKN025 \n  PROB30 \n  TEMPO 1000/1003 -<span class=\"hl\">SHRA</span> FEW020TCU \n  PROB30 \n  TEMPO 1003/1010 4500 -SHRASN BKN014 FEW018TCU BKN020 \n  BECMG 1004/1007 31010KT \n  PROB30 \n  TEMPO 1010/1016 -<span class=\"hl\">SHRA</span> FEW025TCU BKN030 \n  PROB40 \n  TEMPO 1016/1023 4000 -SHSNRA BKN012 SCT018TCU BKN020 \n  BECMG 1104/1106 BKN013"
    },
    {
      "icao": "LFPO",
      "iata": "ORY",
      "name": "Paris-Orly Airport",
      "updatedAt": "100230Z",
      "visibility_m": 10000,
      "taf_visibility_m": 4500,
      "worst_visibility_m": 4500,
      "ceiling_ft": 6200,
      "hazards": [
        "SHRA"
      ],
      "severityScore": 14,
      "metarRaw": "METAR LFPO 100230Z AUTO 29013KT 9999 FEW023 SCT032 BKN062 04/01 Q1006 TEMPO 28015G30KT",
      "tafRaw": "TAF LFPO 092300Z 1000/1106 28015KT 9999 SCT020 SCT040 \n  PROB40 \n  TEMPO 1000/1005 28015G30KT \n  PROB30 \n  TEMPO 1000/1001 4500 -SHRA SCT014TCU \n  BECMG 1019/1021 31005KT",
      "metarHtml": "METAR LFPO 100230Z AUTO 29013KT 9999 FEW023 SCT032 BKN062 04/01 Q1006 TEMPO 28015G30KT",
      "tafHtml": "TAF LFPO 092300Z 1000/1106 28015KT 9999 SCT020 SCT040 \n  PROB40 \n  TEMPO 1000/1005 28015G30KT \n  PROB30 \n  TEMPO 1000/1001 4500 -<span class=\"hl\">SHRA</span> SCT014TCU \n  BECMG 1019/1021 31005KT"
    },
    {
      "icao": "LIRP",
      "iata": "PSA",
      "name": "Pisa International Airport",
      "updatedAt": "100215Z",
      "visibility_m": 10000,
      "taf_visibility_m": 7000,
      "worst_visibility_m": 7000,
      "ceiling_ft": null,
      "hazards": [
        "SHRA"
      ],
      "severityScore": 14,
      "metarRaw": "METAR LIRP 100215Z 30005KT 9999 SCT030 SCT060 09/05 Q0998 NOSIG",
      "tafRaw": "TAF LIRP 092300Z 1000/1024 26015KT 9999 SCT020 SCT040 \n  TEMPO 1000/1004 7000 SHRA FEW015TCU BKN020 \n  BECMG 1002/1004 12007KT \n  BECMG 1008/1010 CAVOK",
      "metarHtml": "METAR LIRP 100215Z 30005KT 9999 SCT030 SCT060 09/05 Q0998 NOSIG",
      "tafHtml": "TAF LIRP 092300Z 1000/1024 26015KT 9999 SCT020 SCT040 \n  TEMPO 1000/1004 7000 <span class=\"hl\">SHRA</span> FEW015TCU BKN020 \n  BECMG 1002/1004 12007KT \n  BECMG 1008/1010 <span class=\"hl-vis\">CAVOK</span>"
    },
    {
      "icao": "LMML",
      "iata": "MLA",
      "name": "Malta International Airport",
      "updatedAt": "100245Z",
      "visibility_m": 10000,
      "taf_visibility_m": 5000,
      "worst_visibility_m": 5000,
      "ceiling_ft": null,
      "hazards": [
        "SHRA"
      ],
      "severityScore": 14,
      "metarRaw": "METAR LMML 100245Z 25011KT 9999 FEW019 14/11 Q1013 NOSIG",
      "tafRaw": "TAF LMML 092300Z 1000/1024 25018KT 9999 SCT017 \n  PROB30 \n  TEMPO 1000/1005 BKN015 \n  BECMG 1002/1005 27020G30KT \n  TEMPO 1007/1024 5000 SHRA SHGS BKN015TCU \n  BECMG 1009/1012 29027G40KT",
      "metarHtml": "METAR LMML 100245Z 25011KT 9999 FEW019 14/11 Q1013 NOSIG",
      "tafHtml": "TAF LMML 092300Z 1000/1024 25018KT 9999 SCT017 \n  PROB30 \n  TEMPO 1000/1005 BKN015 \n  BECMG 1002/1005 27020G30KT \n  TEMPO 1007/1024 5000 <span class=\"hl\">SHRA</span> SHGS BKN015TCU \n  BECMG 1009/1012 29027G40KT"
    },
    {
      "icao": "UBBB",
      "iata": "GYD",
      "name": "Heydar Aliyev International Airport",
      "updatedAt": "100230Z",
      "visibility_m": 10000,
      "taf_visibility_m": 5000,
      "worst_visibility_m": 5000,
      "ceiling_ft": null,
      "hazards": [
        "SHRA"
      ],
      "severityScore": 14,
      "metarRaw": "METAR UBBB 100230Z 33018KT 9999 SCT018 08/05 Q1008 NOSIG",
      "tafRaw": "TAF UBBB 092304Z 1000/1024 32020G30KT 9999 SCT010 BKN025 TX10/1010Z TN06/1000Z \n  TEMPO 1000/1010 34024G34KT BKN005 BKN020 \n  BECMG 1010/1012 35014KT \n  TEMPO 1012/1020 33010KT 5000 -SHRA SCT010 SCT030CB",
      "metarHtml": "METAR UBBB 100230Z 33018KT 9999 SCT018 08/05 Q1008 NOSIG",
      "tafHtml": "TAF UBBB 092304Z 1000/1024 32020G30KT 9999 SCT010 BKN025 TX10/1010Z TN06/1000Z \n  TEMPO 1000/1010 34024G34KT BKN005 BKN020 \n  BECMG 1010/1012 35014KT \n  TEMPO 1012/1020 33010KT 5000 -<span class=\"hl\">SHRA</span> SCT010 SCT030CB"
    },
    {
      "icao": "UGKO",
      "iata": "KUT",
      "name": "David the Builder Kutaisi International Airport",
      "updatedAt": "100230Z",
      "visibility_m": 10000,
      "taf_visibility_m": 2000,
      "worst_visibility_m": 2000,
      "ceiling_ft": 5000,
      "hazards": [
        "SHRA"
      ],
      "severityScore": 14,
      "metarRaw": "METAR UGKO 100230Z 25016KT 9999 BKN018CB OVC050 05/03 Q1011 NOSIG",
      "tafRaw": "TAF UGKO 092300Z 1000/1024 25010KT 9999 OVC050 TX09/1012Z TN04/1003Z \n  TEMPO 1000/1008 26020G30KT 2000 SHRA BKN015CB OVC030 \n  BECMG 1010/1013 CAVOK \n  BECMG 1012/1015 08010KT \n  TEMPO 1018/1024 08020G30KT",
      "metarHtml": "METAR UGKO 100230Z 25016KT 9999 BKN018CB OVC050 05/03 Q1011 NOSIG",
      "tafHtml": "TAF UGKO 092300Z 1000/1024 25010KT 9999 OVC050 TX09/1012Z TN04/1003Z \n  TEMPO 1000/1008 26020G30KT 2000 <span class=\"hl\">SHRA</span> BKN015CB OVC030 \n  BECMG 1010/1013 <span class=\"hl-vis\">CAVOK</span> \n  BECMG 1012/1015 08010KT \n  TEMPO 1018/1024 08020G30KT"
    },
    {
      "icao": "GCLP",
      "iata": "LPA",
      "name": "Gran Canaria Airport",
      "updatedAt": "100230Z",
      "visibility_m": 10000,
      "taf_visibility_m": 4500,
      "worst_visibility_m": 4500,
      "ceiling_ft": 5000,
      "hazards": [
        "RA"
      ],
      "severityScore": 12,
      "metarRaw": "METAR GCLP 100230Z 02013KT 9999 FEW030 BKN050 18/12 Q1028 NOSIG",
      "tafRaw": "TAF GCLP 100200Z 1003/1103 03013KT 9999 BKN030 TX19/1014Z TN15/1006Z \n  PROB30 \n  TEMPO 1006/1018 4500 RA \n  PROB30 \n  TEMPO 1015/1021 03015G25KT",
      "metarHtml": "METAR GCLP 100230Z 02013KT 9999 FEW030 BKN050 18/12 Q1028 NOSIG",
      "tafHtml": "TAF GCLP 100200Z 1003/1103 03013KT 9999 BKN030 TX19/1014Z TN15/1006Z \n  PROB30 \n  TEMPO 1006/1018 4500 <span class=\"hl\">RA</span> \n  PROB30 \n  TEMPO 1015/1021 03015G25KT"
    },
    {
      "icao": "EDSB",
      "iata": "FKB",
      "name": "Karlsruhe Baden-Baden Airport",
      "updatedAt": "100220Z",
      "visibility_m": 10000,
      "taf_visibility_m": 3000,
      "worst_visibility_m": 3000,
      "ceiling_ft": null,
      "hazards": [
        "RA"
      ],
      "severityScore": 12,
      "metarRaw": "METAR EDSB 100220Z AUTO 20014KT 9999 BKN017/// BKN021/// OVC030/// 03/02 Q0999",
      "tafRaw": "TAF EDSB 092300Z 1000/1024 21015G25KT 9999 BKN020 \n  TEMPO 1000/1008 4500 RA \n  BECMG 1008/1010 21009KT BKN010 \n  TEMPO 1008/1012 3500 SNRA BKN009 \n  TEMPO 1012/1018 3000 -SNRA BKN005",
      "metarHtml": "METAR EDSB 100220Z AUTO 20014KT 9999 BKN017/// BKN021/// OVC030/// 03/02 Q0999",
      "tafHtml": "TAF EDSB 092300Z 1000/1024 21015G25KT 9999 BKN020 \n  TEMPO 1000/1008 4500 <span class=\"hl\">RA</span> \n  BECMG 1008/1010 21009KT BKN010 \n  TEMPO 1008/1012 3500 SNRA BKN009 \n  TEMPO 1012/1018 3000 -SNRA BKN005"
    },
    {
      "icao": "HESX",
      "iata": "SPX",
      "name": "Sphinx International Airport",
      "updatedAt": null,
      "visibility_m": null,
      "taf_visibility_m": 3000,
      "worst_visibility_m": 3000,
      "ceiling_ft": null,
      "hazards": [
        "RA"
      ],
      "severityScore": 12,
      "metarRaw": null,
      "tafRaw": "TAF HESX 092300Z 1000/1106 23007KT CAVOK \n  TEMPO 1000/1008 3000 HZ SCT020 \n  PROB30 \n  TEMPO 1009/1018 8000 -RA BKN020",
      "metarHtml": null,
      "tafHtml": "TAF HESX 092300Z 1000/1106 23007KT <span class=\"hl-vis\">CAVOK</span> \n  TEMPO 1000/1008 3000 HZ SCT020 \n  PROB30 \n  TEMPO 1009/1018 8000 -<span class=\"hl\">RA</span> BKN020"
    },
    {
      "icao": "LBPD",
      "iata": "PDV",
      "name": "Plovdiv International Airport",
      "updatedAt": "100230Z",
      "visibility_m": 10000,
      "taf_visibility_m": 5000,
      "worst_visibility_m": 5000,
      "ceiling_ft": null,
      "hazards": [
        "RA"
      ],
      "severityScore": 12,
      "metarRaw": "METAR LBPD 100230Z AUTO 29005KT 9999 BKN066/// OVC110/// 01/00 Q1003",
      "tafRaw": "TAF LBPD 092300Z 1000/1024 VRB03KT 9999 SCT050 \n  TEMPO 1012/1017 5000 RA BKN015 OVC030 \n  BECMG 1019/1021 28012KT",
      "metarHtml": "METAR LBPD 100230Z AUTO 29005KT 9999 BKN066/// OVC110/// 01/00 Q1003",
      "tafHtml": "TAF LBPD 092300Z 1000/1024 VRB03KT 9999 SCT050 \n  TEMPO 1012/1017 5000 <span class=\"hl\">RA</span> BKN015 OVC030 \n  BECMG 1019/1021 28012KT"
    },
    {
      "icao": "LGAV",
      "iata": "ATH",
      "name": "Athens Eleftherios Venizelos International Airport",
      "updatedAt": "100220Z",
      "visibility_m": 10000,
      "taf_visibility_m": 10000,
      "worst_visibility_m": 10000,
      "ceiling_ft": null,
      "hazards": [
        "RA"
      ],
      "severityScore": 12,
      "metarRaw": "METAR LGAV 100220Z 23009KT 9999 FEW030 14/08 Q1007 NOSIG",
      "tafRaw": "TAF LGAV 092300Z 1000/1024 24012KT 9999 FEW025 \n  BECMG 1006/1008 24015G25KT \n  BECMG 1004/1006 SCT025 \n  PROB30 \n  TEMPO 1010/1015 RA SCT020 SCT070",
      "metarHtml": "METAR LGAV 100220Z 23009KT 9999 FEW030 14/08 Q1007 NOSIG",
      "tafHtml": "TAF LGAV 092300Z 1000/1024 24012KT 9999 FEW025 \n  BECMG 1006/1008 24015G25KT \n  BECMG 1004/1006 SCT025 \n  PROB30 \n  TEMPO 1010/1015 <span class=\"hl\">RA</span> SCT020 SCT070"
    },
    {
      "icao": "LGTS",
      "iata": "SKG",
      "name": "Thessaloniki Macedonia International Airport",
      "updatedAt": "100220Z",
      "visibility_m": 7000,
      "taf_visibility_m": 5000,
      "worst_visibility_m": 5000,
      "ceiling_ft": null,
      "hazards": [
        "RA"
      ],
      "severityScore": 12,
      "metarRaw": "METAR LGTS 100220Z 09003KT 7000 FEW025 00/00 Q1004 NOSIG",
      "tafRaw": "TAF LGTS 092300Z 1000/1024 VRB03KT 9999 FEW030 \n  BECMG 1003/1005 SCT030 \n  PROB40 \n  TEMPO 1005/1015 5000 RA FEW010 BKN025 \n  BECMG 1012/1014 22015KT",
      "metarHtml": "METAR LGTS 100220Z 09003KT 7000 FEW025 00/00 Q1004 NOSIG",
      "tafHtml": "TAF LGTS 092300Z 1000/1024 VRB03KT 9999 FEW030 \n  BECMG 1003/1005 SCT030 \n  PROB40 \n  TEMPO 1005/1015 5000 <span class=\"hl\">RA</span> FEW010 BKN025 \n  BECMG 1012/1014 22015KT"
    },
    {
      "icao": "LLBG",
      "iata": "TLV",
      "name": "Ben Gurion International Airport",
      "updatedAt": "100220Z",
      "visibility_m": 10000,
      "taf_visibility_m": 10000,
      "worst_visibility_m": 10000,
      "ceiling_ft": null,
      "hazards": [
        "RA"
      ],
      "severityScore": 12,
      "metarRaw": "METAR LLBG 100220Z 29011KT 9999 SCT045 15/08 Q1018 NOSIG",
      "tafRaw": "TAF LLBG 092311Z 1000/1024 28012KT 9999 SCT035 \n  PROB40 \n  TEMPO 1000/1004 30015G25KT RA BKN030 \n  BECMG 1004/1006 21012KT \n  PROB30 \n  TEMPO 1006/1014 RA BKN030 \n  BECMG 1014/1017 16005KT FEW045 TX19/1011Z TN14/1004Z",
      "metarHtml": "METAR LLBG 100220Z 29011KT 9999 SCT045 15/08 Q1018 NOSIG",
      "tafHtml": "TAF LLBG 092311Z 1000/1024 28012KT 9999 SCT035 \n  PROB40 \n  TEMPO 1000/1004 30015G25KT <span class=\"hl\">RA</span> BKN030 \n  BECMG 1004/1006 21012KT \n  PROB30 \n  TEMPO 1006/1014 <span class=\"hl\">RA</span> BKN030 \n  BECMG 1014/1017 16005KT FEW045 TX19/1011Z TN14/1004Z"
    },
    {
      "icao": "LWOH",
      "iata": "OHD",
      "name": "Ohrid St. Paul the Apostle Airport",
      "updatedAt": null,
      "visibility_m": null,
      "taf_visibility_m": 5000,
      "worst_visibility_m": 5000,
      "ceiling_ft": null,
      "hazards": [
        "RA"
      ],
      "severityScore": 12,
      "metarRaw": null,
      "tafRaw": "TAF LWOH 100230Z 1003/1103 16010KT 9999 -RA FEW005 BKN020 OVC040 \n  TEMPO 1006/1015 5000 RA SCT005 OVC020",
      "metarHtml": null,
      "tafHtml": "TAF LWOH 100230Z 1003/1103 16010KT 9999 -<span class=\"hl\">RA</span> FEW005 BKN020 OVC040 \n  TEMPO 1006/1015 5000 <span class=\"hl\">RA</span> SCT005 OVC020"
    },
    {
      "icao": "OEJN",
      "iata": "JED",
      "name": "King Abdulaziz International Airport",
      "updatedAt": "100200Z",
      "visibility_m": 10000,
      "taf_visibility_m": 3000,
      "worst_visibility_m": 3000,
      "ceiling_ft": null,
      "hazards": [
        "RA"
      ],
      "severityScore": 12,
      "metarRaw": "METAR OEJN 100200Z 00000KT CAVOK 22/17 Q1013 NOSIG",
      "tafRaw": "TAF OEJN 092300Z 1000/1106 VRB03KT 7000 SCT040 \n  TEMPO 1000/1010 3000 HZ RA FEW035CB BKN040 \n  BECMG 1010/1012 29016KT \n  BECMG 1018/1020 VRB03KT",
      "metarHtml": "METAR OEJN 100200Z 00000KT <span class=\"hl-vis\">CAVOK</span> 22/17 Q1013 NOSIG",
      "tafHtml": "TAF OEJN 092300Z 1000/1106 VRB03KT 7000 SCT040 \n  TEMPO 1000/1010 3000 HZ <span class=\"hl\">RA</span> FEW035CB BKN040 \n  BECMG 1010/1012 29016KT \n  BECMG 1018/1020 VRB03KT"
    },
    {
      "icao": "GMMX",
      "iata": "RAK",
      "name": "Menara Airport",
      "updatedAt": "100230Z",
      "visibility_m": 8000,
      "taf_visibility_m": 3000,
      "worst_visibility_m": 3000,
      "ceiling_ft": null,
      "hazards": [
        "BR"
      ],
      "severityScore": 10,
      "metarRaw": "METAR GMMX 100230Z 08003KT 8000 NSC 07/06 Q1028 NOSIG",
      "tafRaw": "TAF GMMX 092300Z 1000/1106 06006KT 8000 NSC \n  TEMPO 1005/1010 3000 BR BKN006 \n  TEMPO 1015/1020 36016KT",
      "metarHtml": "METAR GMMX 100230Z 08003KT 8000 NSC 07/06 Q1028 NOSIG",
      "tafHtml": "TAF GMMX 092300Z 1000/1106 06006KT 8000 NSC \n  TEMPO 1005/1010 3000 <span class=\"hl\">BR</span> BKN006 \n  TEMPO 1015/1020 36016KT"
    },
    {
      "icao": "EDDB",
      "iata": "BER",
      "name": "Berlin Brandenburg Airport",
      "updatedAt": "100220Z",
      "visibility_m": 10000,
      "taf_visibility_m": 2000,
      "worst_visibility_m": 2000,
      "ceiling_ft": null,
      "hazards": [
        "SHSN"
      ],
      "severityScore": 10,
      "metarRaw": "METAR EDDB 100220Z AUTO 08015KT 9999 FEW042 SCT048 M06/M10 Q1004 NOSIG",
      "tafRaw": "TAF EDDB 092300Z 1000/1024 07013KT 9999 BKN030 \n  BECMG 1007/1010 07007KT \n  BECMG 1012/1015 33007KT \n  PROB30 \n  TEMPO 1016/1019 2000 SHSN BKN008 BKN015TCU",
      "metarHtml": "METAR EDDB 100220Z AUTO 08015KT 9999 FEW042 SCT048 M06/M10 Q1004 NOSIG",
      "tafHtml": "TAF EDDB 092300Z 1000/1024 07013KT 9999 BKN030 \n  BECMG 1007/1010 07007KT \n  BECMG 1012/1015 33007KT \n  PROB30 \n  TEMPO 1016/1019 2000 <span class=\"hl\">SHSN</span> BKN008 BKN015TCU"
    },
    {
      "icao": "EGBB",
      "iata": "BHX",
      "name": "Birmingham Airport",
      "updatedAt": "100220Z",
      "visibility_m": 10000,
      "taf_visibility_m": 2000,
      "worst_visibility_m": 2000,
      "ceiling_ft": null,
      "hazards": [
        "BR"
      ],
      "severityScore": 10,
      "metarRaw": "METAR EGBB 100220Z 33005KT CAVOK 00/M01 Q1010",
      "tafRaw": "TAF EGBB 092257Z 1000/1024 32006KT 9999 SCT018 \n  TEMPO 1000/1012 6000 \n  PROB30 \n  TEMPO 1000/1003 BKN013 \n  PROB30 1004/1011 3000 BR MIFG \n  PROB30 \n  TEMPO 1012/1016 8000 \n  PROB40 1016/1024 2000 BR MIFG",
      "metarHtml": "METAR EGBB 100220Z 33005KT <span class=\"hl-vis\">CAVOK</span> 00/M01 Q1010",
      "tafHtml": "TAF EGBB 092257Z 1000/1024 32006KT 9999 SCT018 \n  TEMPO 1000/1012 6000 \n  PROB30 \n  TEMPO 1000/1003 BKN013 \n  PROB30 1004/1011 3000 <span class=\"hl\">BR</span> MIFG \n  PROB30 \n  TEMPO 1012/1016 8000 \n  PROB40 1016/1024 2000 <span class=\"hl\">BR</span> MIFG"
    },
    {
      "icao": "EPPO",
      "iata": "POZ",
      "name": "Poznań-Ławica Airport",
      "updatedAt": "100230Z",
      "visibility_m": 10000,
      "taf_visibility_m": 3000,
      "worst_visibility_m": 3000,
      "ceiling_ft": 2700,
      "hazards": [
        "SHSN"
      ],
      "severityScore": 10,
      "metarRaw": "METAR EPPO 100230Z 04005KT 9999 OVC027 M10/M13 Q1005",
      "tafRaw": "TAF EPPO 092330Z 1000/1024 06006KT CAVOK \n  BECMG 1009/1012 33010KT \n  TEMPO 1016/1021 BKN013 \n  TEMPO 1021/1024 33015G25KT 3000 -SHSN BKN013CB",
      "metarHtml": "METAR EPPO 100230Z 04005KT 9999 OVC027 M10/M13 Q1005",
      "tafHtml": "TAF EPPO 092330Z 1000/1024 06006KT <span class=\"hl-vis\">CAVOK</span> \n  BECMG 1009/1012 33010KT \n  TEMPO 1016/1021 BKN013 \n  TEMPO 1021/1024 33015G25KT 3000 -<span class=\"hl\">SHSN</span> BKN013CB"
    },
    {
      "icao": "LEZL",
      "iata": "SVQ",
      "name": "Sevilla Airport",
      "updatedAt": "100230Z",
      "visibility_m": 7000,
      "taf_visibility_m": 4000,
      "worst_visibility_m": 4000,
      "ceiling_ft": null,
      "hazards": [
        "BR"
      ],
      "severityScore": 10,
      "metarRaw": "METAR LEZL 100230Z AUTO VRB02KT 7000 NCD 06/06 Q1028",
      "tafRaw": "TAF LEZL 100200Z 1003/1103 VRB03KT CAVOK TX15/1015Z TN06/1007Z \n  PROB30 \n  TEMPO 1005/1009 4000 BR BKN012",
      "metarHtml": "METAR LEZL 100230Z AUTO VRB02KT 7000 NCD 06/06 Q1028",
      "tafHtml": "TAF LEZL 100200Z 1003/1103 VRB03KT <span class=\"hl-vis\">CAVOK</span> TX15/1015Z TN06/1007Z \n  PROB30 \n  TEMPO 1005/1009 4000 <span class=\"hl\">BR</span> BKN012"
    },
    {
      "icao": "LIMC",
      "iata": "MXP",
      "name": "Milan Malpensa International Airport",
      "updatedAt": "100220Z",
      "visibility_m": 4000,
      "taf_visibility_m": 3000,
      "worst_visibility_m": 3000,
      "ceiling_ft": null,
      "hazards": [
        "BR"
      ],
      "severityScore": 10,
      "metarRaw": "METAR LIMC 100220Z 33004KT 4000 BR NSC M04/M04 Q0999 NOSIG",
      "tafRaw": "TAF LIMC 092300Z 1000/1106 VRB04KT 6000 NSC \n  TEMPO 1000/1006 3000 BR \n  BECMG 1021/1023 01010KT",
      "metarHtml": "METAR LIMC 100220Z 33004KT 4000 <span class=\"hl\">BR</span> NSC M04/M04 Q0999 NOSIG",
      "tafHtml": "TAF LIMC 092300Z 1000/1106 VRB04KT 6000 NSC \n  TEMPO 1000/1006 3000 <span class=\"hl\">BR</span> \n  BECMG 1021/1023 01010KT"
    },
    {
      "icao": "LIMF",
      "iata": "TRN",
      "name": "Turin Airport",
      "updatedAt": "100220Z",
      "visibility_m": 2000,
      "taf_visibility_m": 6000,
      "worst_visibility_m": 2000,
      "ceiling_ft": null,
      "hazards": [
        "BR"
      ],
      "severityScore": 10,
      "metarRaw": "METAR LIMF 100220Z VRB03KT 2000 BR NSC M03/M05 Q1000",
      "tafRaw": "TAF LIMF 092300Z 1000/1024 VRB05KT 6000 NSC \n  BECMG 1001/1003 30010KT \n  TEMPO 1006/1016 30016G26KT \n  BECMG 1020/1022 VRB05KT",
      "metarHtml": "METAR LIMF 100220Z VRB03KT 2000 <span class=\"hl\">BR</span> NSC M03/M05 Q1000",
      "tafHtml": "TAF LIMF 092300Z 1000/1024 VRB05KT 6000 NSC \n  BECMG 1001/1003 30010KT \n  TEMPO 1006/1016 30016G26KT \n  BECMG 1020/1022 VRB05KT"
    },
    {
      "icao": "LIPE",
      "iata": "BLQ",
      "name": "Bologna Guglielmo Marconi Airport",
      "updatedAt": "100220Z",
      "visibility_m": 7000,
      "taf_visibility_m": 1500,
      "worst_visibility_m": 1500,
      "ceiling_ft": 4600,
      "hazards": [],
      "severityScore": 10,
      "metarRaw": "METAR LIPE 100220Z 29003KT 270V340 7000 BKN046 M00/M02 Q1001",
      "tafRaw": "TAF LIPE 092300Z 1000/1024 VRB05KT 6000 NSC \n  PROB40 \n  TEMPO 1000/1006 1500 MIFG BKN010",
      "metarHtml": "METAR LIPE 100220Z 29003KT 270V340 7000 BKN046 M00/M02 Q1001",
      "tafHtml": "TAF LIPE 092300Z 1000/1024 VRB05KT 6000 NSC \n  PROB40 \n  TEMPO 1000/1006 1500 MIFG BKN010"
    },
    {
      "icao": "LIPH",
      "iata": "TSF",
      "name": "Treviso Antonio Canova Airport",
      "updatedAt": "100220Z",
      "visibility_m": 9000,
      "taf_visibility_m": 3000,
      "worst_visibility_m": 3000,
      "ceiling_ft": null,
      "hazards": [
        "BR"
      ],
      "severityScore": 10,
      "metarRaw": "METAR LIPH 100220Z AUTO VRB01KT 9000 BKN220/// M02/M03 Q1000",
      "tafRaw": "TAF LIPH 092300Z 1000/1024 VRB05KT 9999 SCT040 \n  PROB30 \n  TEMPO 1000/1004 3000 BR",
      "metarHtml": "METAR LIPH 100220Z AUTO VRB01KT 9000 BKN220/// M02/M03 Q1000",
      "tafHtml": "TAF LIPH 092300Z 1000/1024 VRB05KT 9999 SCT040 \n  PROB30 \n  TEMPO 1000/1004 3000 <span class=\"hl\">BR</span>"
    },
    {
      "icao": "LIPR",
      "iata": "RMI",
      "name": "Federico Fellini International Airport",
      "updatedAt": "100220Z",
      "visibility_m": 2500,
      "taf_visibility_m": 7000,
      "worst_visibility_m": 2500,
      "ceiling_ft": null,
      "hazards": [
        "BR"
      ],
      "severityScore": 10,
      "metarRaw": "METAR LIPR 100220Z AUTO VRB01KT 2500 BR OVC054/// 01/00 Q0999",
      "tafRaw": "TAF LIPR 092300Z 1000/1024 VRB05KT 7000 SCT040 \n  BECMG 1004/1006 30010KT \n  BECMG 1018/1020 24005KT",
      "metarHtml": "METAR LIPR 100220Z AUTO VRB01KT 2500 <span class=\"hl\">BR</span> OVC054/// 01/00 Q0999",
      "tafHtml": "TAF LIPR 092300Z 1000/1024 VRB05KT 7000 SCT040 \n  BECMG 1004/1006 30010KT \n  BECMG 1018/1020 24005KT"
    },
    {
      "icao": "LIPZ",
      "iata": "VCE",
      "name": "Venice Marco Polo Airport",
      "updatedAt": "100220Z",
      "visibility_m": 10000,
      "taf_visibility_m": 3000,
      "worst_visibility_m": 3000,
      "ceiling_ft": null,
      "hazards": [
        "BR"
      ],
      "severityScore": 10,
      "metarRaw": "METAR LIPZ 100220Z 36009KT CAVOK M01/M03 Q1000 NOSIG",
      "tafRaw": "TAF LIPZ 092300Z 1000/1106 VRB05KT CAVOK \n  PROB30 \n  TEMPO 1000/1004 3000 BR",
      "metarHtml": "METAR LIPZ 100220Z 36009KT <span class=\"hl-vis\">CAVOK</span> M01/M03 Q1000 NOSIG",
      "tafHtml": "TAF LIPZ 092300Z 1000/1106 VRB05KT <span class=\"hl-vis\">CAVOK</span> \n  PROB30 \n  TEMPO 1000/1004 3000 <span class=\"hl\">BR</span>"
    },
    {
      "icao": "OEMA",
      "iata": "MED",
      "name": "Prince Mohammad Bin Abdulaziz Airport",
      "updatedAt": "100200Z",
      "visibility_m": 10000,
      "taf_visibility_m": 2000,
      "worst_visibility_m": 2000,
      "ceiling_ft": null,
      "hazards": [
        "BR"
      ],
      "severityScore": 10,
      "metarRaw": "METAR OEMA 100200Z 31005KT CAVOK 18/10 Q1017 NOSIG",
      "tafRaw": "TAF OEMA 092300Z 1000/1106 VRB03KT 7000 NSC \n  PROB40 \n  TEMPO 1000/1006 3000 BR \n  BECMG 1008/1012 06015KT \n  TEMPO 1008/1016 2000 BLDU \n  BECMG 1018/1020 09008KT",
      "metarHtml": "METAR OEMA 100200Z 31005KT <span class=\"hl-vis\">CAVOK</span> 18/10 Q1017 NOSIG",
      "tafHtml": "TAF OEMA 092300Z 1000/1106 VRB03KT 7000 NSC \n  PROB40 \n  TEMPO 1000/1006 3000 <span class=\"hl\">BR</span> \n  BECMG 1008/1012 06015KT \n  TEMPO 1008/1016 2000 BLDU \n  BECMG 1018/1020 09008KT"
    },
    {
      "icao": "OMDB",
      "iata": "DXB",
      "name": "Dubai International Airport",
      "updatedAt": "100230Z",
      "visibility_m": 10000,
      "taf_visibility_m": 3000,
      "worst_visibility_m": 3000,
      "ceiling_ft": null,
      "hazards": [
        "BR"
      ],
      "severityScore": 10,
      "metarRaw": "METAR OMDB 100230Z 17005KT CAVOK 17/12 Q1018 NOSIG",
      "tafRaw": "TAF OMDB 092300Z 1000/1106 12005KT 8000 NSC \n  PROB30 1001/1005 3000 BR \n  BECMG 1009/1011 29010KT \n  BECMG 1016/1018 14005KT \n  PROB30 1101/1105 4000 HZ",
      "metarHtml": "METAR OMDB 100230Z 17005KT <span class=\"hl-vis\">CAVOK</span> 17/12 Q1018 NOSIG",
      "tafHtml": "TAF OMDB 092300Z 1000/1106 12005KT 8000 NSC \n  PROB30 1001/1005 3000 <span class=\"hl\">BR</span> \n  BECMG 1009/1011 29010KT \n  BECMG 1016/1018 14005KT \n  PROB30 1101/1105 4000 HZ"
    },
    {
      "icao": "EDDH",
      "iata": "HAM",
      "name": "Hamburg Helmut Schmidt Airport",
      "updatedAt": "100220Z",
      "visibility_m": 10000,
      "taf_visibility_m": null,
      "worst_visibility_m": 10000,
      "ceiling_ft": null,
      "hazards": [],
      "severityScore": 5,
      "metarRaw": "METAR EDDH 100220Z AUTO 08020G34KT CAVOK M02/M07 Q1005 NOSIG",
      "tafRaw": null,
      "metarHtml": "METAR EDDH 100220Z AUTO 08020G34KT <span class=\"hl-vis\">CAVOK</span> M02/M07 Q1005 NOSIG",
      "tafHtml": null
    },
    {
      "icao": "LEBL",
      "iata": "BCN",
      "name": "Josep Tarradellas Barcelona-El Prat Airport",
      "updatedAt": "100230Z",
      "visibility_m": 10000,
      "taf_visibility_m": null,
      "worst_visibility_m": 10000,
      "ceiling_ft": null,
      "hazards": [],
      "severityScore": 5,
      "metarRaw": "METAR LEBL 100230Z 31019KT 9999 FEW040 08/01 Q1016 NOSIG",
      "tafRaw": null,
      "metarHtml": "METAR LEBL 100230Z 31019KT 9999 FEW040 08/01 Q1016 NOSIG",
      "tafHtml": null
    },
    {
      "icao": "LECH",
      "iata": "CDT",
      "name": "Castellón-Costa Azahar Airport",
      "updatedAt": "100230Z",
      "visibility_m": 10000,
      "taf_visibility_m": null,
      "worst_visibility_m": 10000,
      "ceiling_ft": null,
      "hazards": [],
      "severityScore": 5,
      "metarRaw": "METAR LECH 100230Z AUTO 30006KT 240V020 CAVOK 08/M03 Q1020",
      "tafRaw": null,
      "metarHtml": "METAR LECH 100230Z AUTO 30006KT 240V020 <span class=\"hl-vis\">CAVOK</span> 08/M03 Q1020",
      "tafHtml": null
    },
    {
      "icao": "LFBD",
      "iata": "BOD",
      "name": "Bordeaux–Mérignac Airport",
      "updatedAt": "100230Z",
      "visibility_m": 10000,
      "taf_visibility_m": null,
      "worst_visibility_m": 10000,
      "ceiling_ft": null,
      "hazards": [],
      "severityScore": 5,
      "metarRaw": "METAR LFBD 100230Z AUTO 26006KT 9999 ///CB 04/03 Q1018",
      "tafRaw": null,
      "metarHtml": "METAR LFBD 100230Z AUTO 26006KT 9999 ///CB 04/03 Q1018",
      "tafHtml": null
    },
    {
      "icao": "LRSM",
      "iata": "SUJ",
      "name": "Satu Mare International Airport",
      "updatedAt": "100230Z",
      "visibility_m": 10000,
      "taf_visibility_m": null,
      "worst_visibility_m": 10000,
      "ceiling_ft": null,
      "hazards": [],
      "severityScore": 5,
      "metarRaw": "METAR LRSM 100230Z AUTO 06002KT 9999 SCT023/// BKN030/// OVC043/// M05/M07 Q1001",
      "tafRaw": null,
      "metarHtml": "METAR LRSM 100230Z AUTO 06002KT 9999 SCT023/// BKN030/// OVC043/// M05/M07 Q1001",
      "tafHtml": null
    },
    {
      "icao": "OJAI",
      "iata": "AMM",
      "name": "Queen Alia International Airport",
      "updatedAt": "100200Z",
      "visibility_m": 2500,
      "taf_visibility_m": null,
      "worst_visibility_m": 2500,
      "ceiling_ft": 3500,
      "hazards": [],
      "severityScore": 5,
      "metarRaw": "METAR OJAI 100200Z 27015KT 2500 BLDU FEW025 BKN035 09/06 Q1018 NOSIG",
      "tafRaw": null,
      "metarHtml": "METAR OJAI 100200Z 27015KT 2500 BLDU FEW025 BKN035 09/06 Q1018 NOSIG",
      "tafHtml": null
    },
    {
      "icao": "BIKF",
      "iata": "KEF",
      "name": "Keflavik International Airport",
      "updatedAt": "100230Z",
      "visibility_m": 10000,
      "taf_visibility_m": 10000,
      "worst_visibility_m": 10000,
      "ceiling_ft": null,
      "hazards": [],
      "severityScore": 0,
      "metarRaw": "METAR BIKF 100230Z 02011KT CAVOK M02/M07 Q1012",
      "tafRaw": "TAF BIKF 100105Z 1003/1103 03009KT 9999 FEW025 TXM02/1021Z TNM07/1010Z",
      "metarHtml": "METAR BIKF 100230Z 02011KT <span class=\"hl-vis\">CAVOK</span> M02/M07 Q1012",
      "tafHtml": "TAF BIKF 100105Z 1003/1103 03009KT 9999 FEW025 TXM02/1021Z TNM07/1010Z"
    },
    {
      "icao": "GCFV",
      "iata": "FUE",
      "name": "Fuerteventura Airport",
      "updatedAt": "100230Z",
      "visibility_m": 10000,
      "taf_visibility_m": 10000,
      "worst_visibility_m": 10000,
      "ceiling_ft": 4800,
      "hazards": [],
      "severityScore": 0,
      "metarRaw": "METAR GCFV 100230Z AUTO 36012KT 9999 OVC048 17/10 Q1028",
      "tafRaw": "TAF GCFV 100200Z 1003/1103 05015KT 9999 BKN025 TX20/1014Z TN15/1006Z \n  TEMPO 1003/1006 02005KT \n  PROB30 \n  TEMPO 1012/1024 05015G25KT \n  BECMG 1019/1021 02005KT",
      "metarHtml": "METAR GCFV 100230Z AUTO 36012KT 9999 OVC048 17/10 Q1028",
      "tafHtml": "TAF GCFV 100200Z 1003/1103 05015KT 9999 BKN025 TX20/1014Z TN15/1006Z \n  TEMPO 1003/1006 02005KT \n  PROB30 \n  TEMPO 1012/1024 05015G25KT \n  BECMG 1019/1021 02005KT"
    },
    {
      "icao": "GCTS",
      "iata": "TFS",
      "name": "Tenerife Sur Airport",
      "updatedAt": "100230Z",
      "visibility_m": 10000,
      "taf_visibility_m": 10000,
      "worst_visibility_m": 10000,
      "ceiling_ft": null,
      "hazards": [],
      "severityScore": 0,
      "metarRaw": "METAR GCTS 100230Z 05008KT 360V090 9999 FEW040 17/10 Q1028 NOSIG",
      "tafRaw": "TAF GCTS 100200Z 1003/1103 04009KT 9999 SCT030 TX23/1014Z TN15/1006Z \n  BECMG 1009/1011 10015KT \n  PROB30 \n  TEMPO 1009/1018 10015G25KT \n  BECMG 1019/1021 04010KT",
      "metarHtml": "METAR GCTS 100230Z 05008KT 360V090 9999 FEW040 17/10 Q1028 NOSIG",
      "tafHtml": "TAF GCTS 100200Z 1003/1103 04009KT 9999 SCT030 TX23/1014Z TN15/1006Z \n  BECMG 1009/1011 10015KT \n  PROB30 \n  TEMPO 1009/1018 10015G25KT \n  BECMG 1019/1021 04010KT"
    },
    {
      "icao": "GMAD",
      "iata": "AGA",
      "name": "Al Massira Airport",
      "updatedAt": "100230Z",
      "visibility_m": 10000,
      "taf_visibility_m": 10000,
      "worst_visibility_m": 10000,
      "ceiling_ft": null,
      "hazards": [],
      "severityScore": 0,
      "metarRaw": "METAR GMAD 100230Z 05007KT CAVOK 07/07 Q1026 NOSIG",
      "tafRaw": "TAF GMAD 092300Z 1000/1106 06008KT CAVOK",
      "metarHtml": "METAR GMAD 100230Z 05007KT <span class=\"hl-vis\">CAVOK</span> 07/07 Q1026 NOSIG",
      "tafHtml": "TAF GMAD 092300Z 1000/1106 06008KT <span class=\"hl-vis\">CAVOK</span>"
    },
    {
      "icao": "EDNY",
      "iata": "FDH",
      "name": "Friedrichshafen Airport",
      "updatedAt": "100220Z",
      "visibility_m": 10000,
      "taf_visibility_m": 4000,
      "worst_visibility_m": 4000,
      "ceiling_ft": null,
      "hazards": [],
      "severityScore": 0,
      "metarRaw": "METAR EDNY 100220Z AUTO 24017KT 9999 // FEW017/// SCT020/// OVC041/// 03/00 Q1001",
      "tafRaw": "TAF EDNY 100200Z 1003/1012 24012KT 9999 SCT010 BKN030 \n  TEMPO 1003/1012 24015G25KT 4000 -SNRA BKN012",
      "metarHtml": "METAR EDNY 100220Z AUTO 24017KT 9999 // FEW017/// SCT020/// OVC041/// 03/00 Q1001",
      "tafHtml": "TAF EDNY 100200Z 1003/1012 24012KT 9999 SCT010 BKN030 \n  TEMPO 1003/1012 24015G25KT 4000 -SNRA BKN012"
    },
    {
      "icao": "EFTU",
      "iata": "TKU",
      "name": "Turku Airport",
      "updatedAt": "100220Z",
      "visibility_m": 10000,
      "taf_visibility_m": 10000,
      "worst_visibility_m": 10000,
      "ceiling_ft": null,
      "hazards": [],
      "severityScore": 0,
      "metarRaw": "METAR EFTU 100220Z AUTO 04010KT CAVOK M14/M18 Q1017",
      "tafRaw": "TAF EFTU 100225Z 1003/1103 04010KT CAVOK \n  TEMPO 1007/1011 DRSN \n  TEMPO 1011/1103 02015G25KT DRSN",
      "metarHtml": "METAR EFTU 100220Z AUTO 04010KT <span class=\"hl-vis\">CAVOK</span> M14/M18 Q1017",
      "tafHtml": "TAF EFTU 100225Z 1003/1103 04010KT <span class=\"hl-vis\">CAVOK</span> \n  TEMPO 1007/1011 DRSN \n  TEMPO 1011/1103 02015G25KT DRSN"
    },
    {
      "icao": "EGGP",
      "iata": "LPL",
      "name": "Liverpool John Lennon Airport",
      "updatedAt": "100220Z",
      "visibility_m": 10000,
      "taf_visibility_m": 6000,
      "worst_visibility_m": 6000,
      "ceiling_ft": null,
      "hazards": [],
      "severityScore": 0,
      "metarRaw": "METAR EGGP 100220Z AUTO 36004KT 9999 NCD 01/M01 Q1011",
      "tafRaw": "TAF EGGP 092304Z 1000/1024 02010KT 9999 SCT040 \n  BECMG 1000/1003 VRB03KT \n  PROB30 1000/1009 6000 \n  BECMG 1015/1018 16010KT",
      "metarHtml": "METAR EGGP 100220Z AUTO 36004KT 9999 NCD 01/M01 Q1011",
      "tafHtml": "TAF EGGP 092304Z 1000/1024 02010KT 9999 SCT040 \n  BECMG 1000/1003 VRB03KT \n  PROB30 1000/1009 6000 \n  BECMG 1015/1018 16010KT"
    },
    {
      "icao": "EGGW",
      "iata": "LTN",
      "name": "London Luton Airport",
      "updatedAt": "100220Z",
      "visibility_m": 10000,
      "taf_visibility_m": 6000,
      "worst_visibility_m": 6000,
      "ceiling_ft": null,
      "hazards": [],
      "severityScore": 0,
      "metarRaw": "METAR EGGW 100220Z AUTO 32012KT 9999 SCT015 M00/M01 Q1007",
      "tafRaw": "TAF EGGW 092255Z 1000/1024 33013KT 9999 SCT010 BKN016 \n  TEMPO 1000/1012 BKN006 \n  PROB30 \n  TEMPO 1000/1003 6000 -SHRASN BKN004 \n  PROB30 \n  TEMPO 1003/1010 BKN004 \n  BECMG 1015/1018 VRB04KT",
      "metarHtml": "METAR EGGW 100220Z AUTO 32012KT 9999 SCT015 M00/M01 Q1007",
      "tafHtml": "TAF EGGW 092255Z 1000/1024 33013KT 9999 SCT010 BKN016 \n  TEMPO 1000/1012 BKN006 \n  PROB30 \n  TEMPO 1000/1003 6000 -SHRASN BKN004 \n  PROB30 \n  TEMPO 1003/1010 BKN004 \n  BECMG 1015/1018 VRB04KT"
    },
    {
      "icao": "EGNM",
      "iata": "LBA",
      "name": "Leeds Bradford Airport",
      "updatedAt": null,
      "visibility_m": null,
      "taf_visibility_m": 7000,
      "worst_visibility_m": 7000,
      "ceiling_ft": null,
      "hazards": [],
      "severityScore": 0,
      "metarRaw": null,
      "tafRaw": "TAF EGNM 092301Z 1000/1024 01010KT 9999 FEW030 \n  TEMPO 1003/1011 7000 \n  BECMG 1009/1012 10004KT",
      "metarHtml": null,
      "tafHtml": "TAF EGNM 092301Z 1000/1024 01010KT 9999 FEW030 \n  TEMPO 1003/1011 7000 \n  BECMG 1009/1012 10004KT"
    },
    {
      "icao": "ENAL",
      "iata": "AES",
      "name": "Ålesund Airport, Vigra",
      "updatedAt": "100220Z",
      "visibility_m": 10000,
      "taf_visibility_m": 10000,
      "worst_visibility_m": 10000,
      "ceiling_ft": null,
      "hazards": [],
      "severityScore": 0,
      "metarRaw": "METAR ENAL 100220Z AUTO 22005KT 9999 NCD M01/M12 Q1018",
      "tafRaw": "TAF ENAL 100200Z 1003/1012 23008KT CAVOK",
      "metarHtml": "METAR ENAL 100220Z AUTO 22005KT 9999 NCD M01/M12 Q1018",
      "tafHtml": "TAF ENAL 100200Z 1003/1012 23008KT <span class=\"hl-vis\">CAVOK</span>"
    },
    {
      "icao": "ENBR",
      "iata": "BGO",
      "name": "Bergen Airport, Flesland",
      "updatedAt": "100220Z",
      "visibility_m": 10000,
      "taf_visibility_m": 10000,
      "worst_visibility_m": 10000,
      "ceiling_ft": null,
      "hazards": [],
      "severityScore": 0,
      "metarRaw": "METAR ENBR 100220Z AUTO 08002KT 9999 NCD M08/M13 Q1019 RMK WIND 1200FT 22006KT",
      "tafRaw": "TAF ENBR 092300Z 1000/1024 08005KT CAVOK",
      "metarHtml": "METAR ENBR 100220Z AUTO 08002KT 9999 NCD M08/M13 Q1019 RMK WIND 1200FT 22006KT",
      "tafHtml": "TAF ENBR 092300Z 1000/1024 08005KT <span class=\"hl-vis\">CAVOK</span>"
    },
    {
      "icao": "ENHD",
      "iata": "HAU",
      "name": "Haugesund Airport, Karmøy",
      "updatedAt": "100220Z",
      "visibility_m": 10000,
      "taf_visibility_m": 10000,
      "worst_visibility_m": 10000,
      "ceiling_ft": null,
      "hazards": [],
      "severityScore": 0,
      "metarRaw": "METAR ENHD 100220Z AUTO 09004KT 9999 NCD M04/M12 Q1019",
      "tafRaw": "TAF ENHD 100200Z 1003/1012 10008KT CAVOK",
      "metarHtml": "METAR ENHD 100220Z AUTO 09004KT 9999 NCD M04/M12 Q1019",
      "tafHtml": "TAF ENHD 100200Z 1003/1012 10008KT <span class=\"hl-vis\">CAVOK</span>"
    },
    {
      "icao": "ENTC",
      "iata": "TOS",
      "name": "Tromsø Airport, Langnes",
      "updatedAt": "100220Z",
      "visibility_m": 10000,
      "taf_visibility_m": 10000,
      "worst_visibility_m": 10000,
      "ceiling_ft": null,
      "hazards": [],
      "severityScore": 0,
      "metarRaw": "METAR ENTC 100220Z AUTO 17003KT 120V220 9999 NCD M10/M13 Q1022 RMK WIND 2600FT 18008KT",
      "tafRaw": "TAF ENTC 092300Z 1000/1024 22008KT CAVOK",
      "metarHtml": "METAR ENTC 100220Z AUTO 17003KT 120V220 9999 NCD M10/M13 Q1022 RMK WIND 2600FT 18008KT",
      "tafHtml": "TAF ENTC 092300Z 1000/1024 22008KT <span class=\"hl-vis\">CAVOK</span>"
    },
    {
      "icao": "ENVA",
      "iata": "TRD",
      "name": "Trondheim Airport, Værnes",
      "updatedAt": "100220Z",
      "visibility_m": 10000,
      "taf_visibility_m": 10000,
      "worst_visibility_m": 10000,
      "ceiling_ft": null,
      "hazards": [],
      "severityScore": 0,
      "metarRaw": "METAR ENVA 100220Z AUTO 11007KT 9999 NCD M02/M11 Q1019 RMK WIND 670FT 13008KT",
      "tafRaw": "TAF ENVA 092300Z 1000/1024 10008KT CAVOK \n  TEMPO 1000/1002 16015G25KT",
      "metarHtml": "METAR ENVA 100220Z AUTO 11007KT 9999 NCD M02/M11 Q1019 RMK WIND 670FT 13008KT",
      "tafHtml": "TAF ENVA 092300Z 1000/1024 10008KT <span class=\"hl-vis\">CAVOK</span> \n  TEMPO 1000/1002 16015G25KT"
    },
    {
      "icao": "ENZV",
      "iata": "SVG",
      "name": "Stavanger Airport, Sola",
      "updatedAt": "100220Z",
      "visibility_m": 10000,
      "taf_visibility_m": 10000,
      "worst_visibility_m": 10000,
      "ceiling_ft": null,
      "hazards": [],
      "severityScore": 0,
      "metarRaw": "METAR ENZV 100220Z AUTO 10006KT 9999 NCD M03/M11 Q1019",
      "tafRaw": "TAF ENZV 092300Z 1000/1024 08008KT CAVOK \n  BECMG 1012/1014 14010KT",
      "metarHtml": "METAR ENZV 100220Z AUTO 10006KT 9999 NCD M03/M11 Q1019",
      "tafHtml": "TAF ENZV 092300Z 1000/1024 08008KT <span class=\"hl-vis\">CAVOK</span> \n  BECMG 1012/1014 14010KT"
    },
    {
      "icao": "ESGG",
      "iata": "GOT",
      "name": "Göteborg Landvetter Airport",
      "updatedAt": "100220Z",
      "visibility_m": 10000,
      "taf_visibility_m": 10000,
      "worst_visibility_m": 10000,
      "ceiling_ft": null,
      "hazards": [],
      "severityScore": 0,
      "metarRaw": "METAR ESGG 100220Z 04012KT 9999 FEW015 M06/M08 Q1016",
      "tafRaw": "TAF ESGG 100230Z 1003/1103 03010KT 9999 FEW015 \n  PROB40 1013/1103 BKN009",
      "metarHtml": "METAR ESGG 100220Z 04012KT 9999 FEW015 M06/M08 Q1016",
      "tafHtml": "TAF ESGG 100230Z 1003/1103 03010KT 9999 FEW015 \n  PROB40 1013/1103 BKN009"
    },
    {
      "icao": "ESKN",
      "iata": "NYO",
      "name": "Stockholm Skavsta Airport",
      "updatedAt": "100220Z",
      "visibility_m": 10000,
      "taf_visibility_m": 10000,
      "worst_visibility_m": 10000,
      "ceiling_ft": null,
      "hazards": [],
      "severityScore": 0,
      "metarRaw": "METAR ESKN 100220Z 35006KT CAVOK M09/M10 Q1018",
      "tafRaw": "TAF ESKN 100230Z 1003/1103 36010KT CAVOK \n  BECMG 1010/1012 01015G25KT",
      "metarHtml": "METAR ESKN 100220Z 35006KT <span class=\"hl-vis\">CAVOK</span> M09/M10 Q1018",
      "tafHtml": "TAF ESKN 100230Z 1003/1103 36010KT <span class=\"hl-vis\">CAVOK</span> \n  BECMG 1010/1012 01015G25KT"
    },
    {
      "icao": "ESSA",
      "iata": "ARN",
      "name": "Stockholm-Arlanda Airport",
      "updatedAt": "100220Z",
      "visibility_m": 10000,
      "taf_visibility_m": 10000,
      "worst_visibility_m": 10000,
      "ceiling_ft": null,
      "hazards": [],
      "severityScore": 0,
      "metarRaw": "METAR ESSA 100220Z 35008KT CAVOK M10/M12 Q1019 NOSIG",
      "tafRaw": "TAF ESSA 100230Z 1003/1103 36010KT CAVOK \n  BECMG 1010/1012 01015G25KT",
      "metarHtml": "METAR ESSA 100220Z 35008KT <span class=\"hl-vis\">CAVOK</span> M10/M12 Q1019 NOSIG",
      "tafHtml": "TAF ESSA 100230Z 1003/1103 36010KT <span class=\"hl-vis\">CAVOK</span> \n  BECMG 1010/1012 01015G25KT"
    },
    {
      "icao": "HEGN",
      "iata": "HRG",
      "name": "Hurghada International Airport",
      "updatedAt": null,
      "visibility_m": null,
      "taf_visibility_m": 4000,
      "worst_visibility_m": 4000,
      "ceiling_ft": null,
      "hazards": [],
      "severityScore": 0,
      "metarRaw": null,
      "tafRaw": "TAF HEGN 092300Z 1000/1106 29008G20KT CAVOK \n  TEMPO 1006/1018 4000 SA NSC",
      "metarHtml": null,
      "tafHtml": "TAF HEGN 092300Z 1000/1106 29008G20KT <span class=\"hl-vis\">CAVOK</span> \n  TEMPO 1006/1018 4000 SA NSC"
    },
    {
      "icao": "HEMA",
      "iata": "RMF",
      "name": "Marsa Alam International Airport",
      "updatedAt": null,
      "visibility_m": null,
      "taf_visibility_m": 4000,
      "worst_visibility_m": 4000,
      "ceiling_ft": null,
      "hazards": [],
      "severityScore": 0,
      "metarRaw": null,
      "tafRaw": "TAF HEMA 092300Z 1000/1106 28008G20KT CAVOK \n  TEMPO 1000/1009 4000 SA NSC",
      "metarHtml": null,
      "tafHtml": "TAF HEMA 092300Z 1000/1106 28008G20KT <span class=\"hl-vis\">CAVOK</span> \n  TEMPO 1000/1009 4000 SA NSC"
    },
    {
      "icao": "HESH",
      "iata": "SSH",
      "name": "Sharm El Sheikh International Airport",
      "updatedAt": null,
      "visibility_m": null,
      "taf_visibility_m": 10000,
      "worst_visibility_m": 10000,
      "ceiling_ft": null,
      "hazards": [],
      "severityScore": 0,
      "metarRaw": null,
      "tafRaw": "TAF HESH 092300Z 1000/1106 31013KT CAVOK",
      "metarHtml": null,
      "tafHtml": "TAF HESH 092300Z 1000/1106 31013KT <span class=\"hl-vis\">CAVOK</span>"
    },
    {
      "icao": "LEAL",
      "iata": "ALC",
      "name": "Alicante-Elche Miguel Hernández Airport",
      "updatedAt": "100230Z",
      "visibility_m": 10000,
      "taf_visibility_m": 10000,
      "worst_visibility_m": 10000,
      "ceiling_ft": null,
      "hazards": [],
      "severityScore": 0,
      "metarRaw": "METAR LEAL 100230Z 11003KT 070V160 9999 FEW055 11/04 Q1023 NOSIG",
      "tafRaw": "TAF LEAL 092300Z 1000/1024 27009KT 9999 FEW040 TX16/1014Z TN08/1006Z \n  BECMG 1005/1008 29017KT \n  TEMPO 1006/1014 31022G35KT \n  BECMG 1013/1016 28007KT",
      "metarHtml": "METAR LEAL 100230Z 11003KT 070V160 9999 FEW055 11/04 Q1023 NOSIG",
      "tafHtml": "TAF LEAL 092300Z 1000/1024 27009KT 9999 FEW040 TX16/1014Z TN08/1006Z \n  BECMG 1005/1008 29017KT \n  TEMPO 1006/1014 31022G35KT \n  BECMG 1013/1016 28007KT"
    },
    {
      "icao": "LEMD",
      "iata": "MAD",
      "name": "Adolfo Suárez Madrid–Barajas Airport",
      "updatedAt": "100230Z",
      "visibility_m": 10000,
      "taf_visibility_m": 10000,
      "worst_visibility_m": 10000,
      "ceiling_ft": null,
      "hazards": [],
      "severityScore": 0,
      "metarRaw": "METAR LEMD 100230Z 27009KT 9999 SCT050 SCT060 06/M01 Q1024 NOSIG",
      "tafRaw": "TAF LEMD 092300Z 1000/1106 27006KT 9999 SCT030 TX10/1014Z TN01/1006Z \n  BECMG 1003/1005 VRB03KT",
      "metarHtml": "METAR LEMD 100230Z 27009KT 9999 SCT050 SCT060 06/M01 Q1024 NOSIG",
      "tafHtml": "TAF LEMD 092300Z 1000/1106 27006KT 9999 SCT030 TX10/1014Z TN01/1006Z \n  BECMG 1003/1005 VRB03KT"
    },
    {
      "icao": "LEMG",
      "iata": "AGP",
      "name": "Málaga-Costa del Sol Airport",
      "updatedAt": "100230Z",
      "visibility_m": 10000,
      "taf_visibility_m": 10000,
      "worst_visibility_m": 10000,
      "ceiling_ft": null,
      "hazards": [],
      "severityScore": 0,
      "metarRaw": "METAR LEMG 100230Z 29015KT 9999 FEW030 12/06 Q1026 NOSIG",
      "tafRaw": "TAF LEMG 092300Z 1000/1024 29012KT 9999 FEW030 TX18/1014Z TN10/1006Z \n  PROB30 \n  TEMPO 1006/1020 30015G28KT",
      "metarHtml": "METAR LEMG 100230Z 29015KT 9999 FEW030 12/06 Q1026 NOSIG",
      "tafHtml": "TAF LEMG 092300Z 1000/1024 29012KT 9999 FEW030 TX18/1014Z TN10/1006Z \n  PROB30 \n  TEMPO 1006/1020 30015G28KT"
    },
    {
      "icao": "LEVC",
      "iata": "VLC",
      "name": "Valencia Airport",
      "updatedAt": "100230Z",
      "visibility_m": 10000,
      "taf_visibility_m": 10000,
      "worst_visibility_m": 10000,
      "ceiling_ft": null,
      "hazards": [],
      "severityScore": 0,
      "metarRaw": "METAR LEVC 100230Z 25010KT CAVOK 09/02 Q1022 NOSIG",
      "tafRaw": "TAF LEVC 092300Z 1000/1024 26008KT 9999 FEW040 TX16/1014Z TN07/1006Z \n  TEMPO 1010/1016 29015G25KT",
      "metarHtml": "METAR LEVC 100230Z 25010KT <span class=\"hl-vis\">CAVOK</span> 09/02 Q1022 NOSIG",
      "tafHtml": "TAF LEVC 092300Z 1000/1024 26008KT 9999 FEW040 TX16/1014Z TN07/1006Z \n  TEMPO 1010/1016 29015G25KT"
    },
    {
      "icao": "LEZG",
      "iata": "ZAZ",
      "name": "Zaragoza Airport",
      "updatedAt": "100230Z",
      "visibility_m": 10000,
      "taf_visibility_m": 10000,
      "worst_visibility_m": 10000,
      "ceiling_ft": null,
      "hazards": [],
      "severityScore": 0,
      "metarRaw": "METAR LEZG 100230Z 28010KT 9999 SCT060 06/00 Q1022 NOSIG",
      "tafRaw": "TAF LEZG 092300Z 1000/1024 27010KT 9999 FEW040 TX11/1015Z TN05/1006Z \n  TEMPO 1000/1002 29015G25KT \n  TEMPO 1011/1017 31020G30KT",
      "metarHtml": "METAR LEZG 100230Z 28010KT 9999 SCT060 06/00 Q1022 NOSIG",
      "tafHtml": "TAF LEZG 092300Z 1000/1024 27010KT 9999 FEW040 TX11/1015Z TN05/1006Z \n  TEMPO 1000/1002 29015G25KT \n  TEMPO 1011/1017 31020G30KT"
    },
    {
      "icao": "LFMN",
      "iata": "NCE",
      "name": "Nice-Côte d'Azur Airport",
      "updatedAt": "100230Z",
      "visibility_m": 10000,
      "taf_visibility_m": 10000,
      "worst_visibility_m": 10000,
      "ceiling_ft": null,
      "hazards": [],
      "severityScore": 0,
      "metarRaw": "METAR LFMN 100230Z 36010KT CAVOK 08/M07 Q1001 TEMPO 29015G35KT",
      "tafRaw": "TAF LFMN 100200Z 1003/1109 34015KT CAVOK \n  TEMPO 1004/1005 29015G35KT \n  BECMG 1006/1008 33015G30KT \n  BECMG 1016/1018 34010KT \n  BECMG 1104/1106 VRB02KT",
      "metarHtml": "METAR LFMN 100230Z 36010KT <span class=\"hl-vis\">CAVOK</span> 08/M07 Q1001 TEMPO 29015G35KT",
      "tafHtml": "TAF LFMN 100200Z 1003/1109 34015KT <span class=\"hl-vis\">CAVOK</span> \n  TEMPO 1004/1005 29015G35KT \n  BECMG 1006/1008 33015G30KT \n  BECMG 1016/1018 34010KT \n  BECMG 1104/1106 VRB02KT"
    },
    {
      "icao": "LIBG",
      "iata": "TAR",
      "name": "Taranto-Grottaglie Marcello Arlotta Airport",
      "updatedAt": null,
      "visibility_m": null,
      "taf_visibility_m": 10000,
      "worst_visibility_m": 10000,
      "ceiling_ft": null,
      "hazards": [],
      "severityScore": 0,
      "metarRaw": null,
      "tafRaw": "TAF LIBG 091700Z 0918/1003 21010KT 9999 SCT040",
      "metarHtml": null,
      "tafHtml": "TAF LIBG 091700Z 0918/1003 21010KT 9999 SCT040"
    },
    {
      "icao": "LICC",
      "iata": "CTA",
      "name": "Catania-Fontanarossa Airport",
      "updatedAt": "100220Z",
      "visibility_m": 10000,
      "taf_visibility_m": 10000,
      "worst_visibility_m": 10000,
      "ceiling_ft": null,
      "hazards": [],
      "severityScore": 0,
      "metarRaw": "METAR LICC 100220Z 24015KT 9999 SCT050 15/10 Q1008",
      "tafRaw": "TAF LICC 092300Z 1000/1024 26018G30KT 9999 FEW050 \n  BECMG 1004/1006 26018G30KT",
      "metarHtml": "METAR LICC 100220Z 24015KT 9999 SCT050 15/10 Q1008",
      "tafHtml": "TAF LICC 092300Z 1000/1024 26018G30KT 9999 FEW050 \n  BECMG 1004/1006 26018G30KT"
    },
    {
      "icao": "LIME",
      "iata": "BGY",
      "name": "Milan Bergamo Airport / Antonio Locatelli Air Base",
      "updatedAt": "100220Z",
      "visibility_m": 7000,
      "taf_visibility_m": 8000,
      "worst_visibility_m": 7000,
      "ceiling_ft": null,
      "hazards": [],
      "severityScore": 0,
      "metarRaw": "METAR LIME 100220Z VRB02KT 7000 NSC M03/M04 Q0999 NOSIG",
      "tafRaw": "TAF LIME 092300Z 1000/1024 VRB04KT 8000 SCT040 \n  BECMG 1020/1022 33010KT",
      "metarHtml": "METAR LIME 100220Z VRB02KT 7000 NSC M03/M04 Q0999 NOSIG",
      "tafHtml": "TAF LIME 092300Z 1000/1024 VRB04KT 8000 SCT040 \n  BECMG 1020/1022 33010KT"
    },
    {
      "icao": "LIMJ",
      "iata": "GOA",
      "name": "Genoa Cristoforo Colombo Airport",
      "updatedAt": "100220Z",
      "visibility_m": 10000,
      "taf_visibility_m": 10000,
      "worst_visibility_m": 10000,
      "ceiling_ft": null,
      "hazards": [],
      "severityScore": 0,
      "metarRaw": "METAR LIMJ 100220Z 05010KT CAVOK 09/M04 Q0999",
      "tafRaw": "TAF LIMJ 092300Z 1000/1024 04008KT CAVOK",
      "metarHtml": "METAR LIMJ 100220Z 05010KT <span class=\"hl-vis\">CAVOK</span> 09/M04 Q0999",
      "tafHtml": "TAF LIMJ 092300Z 1000/1024 04008KT <span class=\"hl-vis\">CAVOK</span>"
    },
    {
      "icao": "LIPX",
      "iata": "VRN",
      "name": "Verona Villafranca Valerio Catullo Airport",
      "updatedAt": "100220Z",
      "visibility_m": 10000,
      "taf_visibility_m": 2000,
      "worst_visibility_m": 2000,
      "ceiling_ft": null,
      "hazards": [],
      "severityScore": 0,
      "metarRaw": "METAR LIPX 100220Z 17004KT 130V190 CAVOK M03/M05 Q1000",
      "tafRaw": "TAF LIPX 092300Z 1000/1024 VRB05KT 8000 NSC \n  TEMPO 1000/1006 2000 BCFG",
      "metarHtml": "METAR LIPX 100220Z 17004KT 130V190 <span class=\"hl-vis\">CAVOK</span> M03/M05 Q1000",
      "tafHtml": "TAF LIPX 092300Z 1000/1024 VRB05KT 8000 NSC \n  TEMPO 1000/1006 2000 BCFG"
    },
    {
      "icao": "LPMA",
      "iata": "FNC",
      "name": "Madeira International Airport Cristiano Ronaldo",
      "updatedAt": "100230Z",
      "visibility_m": 10000,
      "taf_visibility_m": 10000,
      "worst_visibility_m": 10000,
      "ceiling_ft": null,
      "hazards": [],
      "severityScore": 0,
      "metarRaw": "METAR LPMA 100230Z 35004KT 9999 SCT015 14/10 Q1031",
      "tafRaw": "TAF LPMA 092300Z 1000/1024 03008KT 9999 SCT016 \n  TEMPO 1000/1006 BKN014 \n  BECMG 1010/1012 VRB05KT",
      "metarHtml": "METAR LPMA 100230Z 35004KT 9999 SCT015 14/10 Q1031",
      "tafHtml": "TAF LPMA 092300Z 1000/1024 03008KT 9999 SCT016 \n  TEMPO 1000/1006 BKN014 \n  BECMG 1010/1012 VRB05KT"
    },
    {
      "icao": "LPPS",
      "iata": "PXO",
      "name": "Porto Santo Airport",
      "updatedAt": "100230Z",
      "visibility_m": 10000,
      "taf_visibility_m": 10000,
      "worst_visibility_m": 10000,
      "ceiling_ft": null,
      "hazards": [],
      "severityScore": 0,
      "metarRaw": "METAR LPPS 100230Z 03004KT 360V060 9999 FEW014 13/11 Q1031",
      "tafRaw": "TAF LPPS 092300Z 1000/1106 06008KT 9999 SCT015 SCT030 \n  BECMG 1009/1012 10010KT",
      "metarHtml": "METAR LPPS 100230Z 03004KT 360V060 9999 FEW014 13/11 Q1031",
      "tafHtml": "TAF LPPS 092300Z 1000/1106 06008KT 9999 SCT015 SCT030 \n  BECMG 1009/1012 10010KT"
    },
    {
      "icao": "LRIA",
      "iata": "IAS",
      "name": "Iaşi Airport",
      "updatedAt": "100230Z",
      "visibility_m": 10000,
      "taf_visibility_m": 10000,
      "worst_visibility_m": 10000,
      "ceiling_ft": null,
      "hazards": [],
      "severityScore": 0,
      "metarRaw": "METAR LRIA 100230Z 10008KT CAVOK M06/M08 Q1000",
      "tafRaw": "TAF LRIA 100200Z 1003/1012 VRB04KT CAVOK",
      "metarHtml": "METAR LRIA 100230Z 10008KT <span class=\"hl-vis\">CAVOK</span> M06/M08 Q1000",
      "tafHtml": "TAF LRIA 100200Z 1003/1012 VRB04KT <span class=\"hl-vis\">CAVOK</span>"
    },
    {
      "icao": "LRBC",
      "iata": "BCM",
      "name": "Bacău George Enescu International  Airport",
      "updatedAt": "100230Z",
      "visibility_m": 10000,
      "taf_visibility_m": 10000,
      "worst_visibility_m": 10000,
      "ceiling_ft": null,
      "hazards": [],
      "severityScore": 0,
      "metarRaw": "METAR LRBC 100230Z AUTO 12002KT 9999 OVC049/// M05/M08 Q1000",
      "tafRaw": "TAF LRBC 100200Z 1003/1012 VRB04KT CAVOK \n  BECMG 1010/1012 01010KT",
      "metarHtml": "METAR LRBC 100230Z AUTO 12002KT 9999 OVC049/// M05/M08 Q1000",
      "tafHtml": "TAF LRBC 100200Z 1003/1012 VRB04KT <span class=\"hl-vis\">CAVOK</span> \n  BECMG 1010/1012 01010KT"
    },
    {
      "icao": "LRCV",
      "iata": "CRA",
      "name": "Craiova International Airport",
      "updatedAt": "100230Z",
      "visibility_m": 10000,
      "taf_visibility_m": 10000,
      "worst_visibility_m": 10000,
      "ceiling_ft": 2500,
      "hazards": [],
      "severityScore": 0,
      "metarRaw": "METAR LRCV 100230Z 15002KT 9999 BKN025 M00/M01 Q1000",
      "tafRaw": "TAF LRCV 100200Z 1003/1012 VRB04KT 9999 BKN040",
      "metarHtml": "METAR LRCV 100230Z 15002KT 9999 BKN025 M00/M01 Q1000",
      "tafHtml": "TAF LRCV 100200Z 1003/1012 VRB04KT 9999 BKN040"
    },
    {
      "icao": "LRSV",
      "iata": "SCV",
      "name": "Suceava Stefan cel Mare Airport",
      "updatedAt": "100230Z",
      "visibility_m": 10000,
      "taf_visibility_m": 10000,
      "worst_visibility_m": 10000,
      "ceiling_ft": null,
      "hazards": [],
      "severityScore": 0,
      "metarRaw": "METAR LRSV 100230Z 24005KT CAVOK M06/M12 Q0998",
      "tafRaw": "TAF LRSV 100200Z 1003/1012 VRB04KT CAVOK",
      "metarHtml": "METAR LRSV 100230Z 24005KT <span class=\"hl-vis\">CAVOK</span> M06/M12 Q0998",
      "tafHtml": "TAF LRSV 100200Z 1003/1012 VRB04KT <span class=\"hl-vis\">CAVOK</span>"
    },
    {
      "icao": "LTAC",
      "iata": "ESB",
      "name": "Esenboğa International Airport",
      "updatedAt": "100220Z",
      "visibility_m": 10000,
      "taf_visibility_m": 10000,
      "worst_visibility_m": 10000,
      "ceiling_ft": null,
      "hazards": [],
      "severityScore": 0,
      "metarRaw": "METAR LTAC 100220Z VRB02KT CAVOK M04/M08 Q1011 NOSIG RMK RWY21C VRB01KT RWY03L VRB02KT RWY21R VRB01KT RWY03R 14003KT 100V200 RWY21L 19005KT",
      "tafRaw": "TAF LTAC 092240Z 1000/1024 VRB02KT CAVOK \n  BECMG 1002/1004 SCT040 BKN100 \n  BECMG 1014/1016 18012KT \n  TEMPO 1016/1020 18015G25KT -SHRASN FEW025CB BKN030 BKN080",
      "metarHtml": "METAR LTAC 100220Z VRB02KT <span class=\"hl-vis\">CAVOK</span> M04/M08 Q1011 NOSIG RMK RWY21C VRB01KT RWY03L VRB02KT RWY21R VRB01KT RWY03R 14003KT 100V200 RWY21L 19005KT",
      "tafHtml": "TAF LTAC 092240Z 1000/1024 VRB02KT <span class=\"hl-vis\">CAVOK</span> \n  BECMG 1002/1004 SCT040 BKN100 \n  BECMG 1014/1016 18012KT \n  TEMPO 1016/1020 18015G25KT -SHRASN FEW025CB BKN030 BKN080"
    },
    {
      "icao": "LZTT",
      "iata": "TAT",
      "name": "Poprad-Tatry Airport",
      "updatedAt": "100230Z",
      "visibility_m": 10000,
      "taf_visibility_m": 10000,
      "worst_visibility_m": 10000,
      "ceiling_ft": 6300,
      "hazards": [],
      "severityScore": 0,
      "metarRaw": "METAR LZTT 100230Z VRB03KT 9999 SCT026 BKN063 M13/M14 Q0996",
      "tafRaw": "TAF LZTT 092315Z 1000/1100 VRB02KT 9999 SCT030 BKN050",
      "metarHtml": "METAR LZTT 100230Z VRB03KT 9999 SCT026 BKN063 M13/M14 Q0996",
      "tafHtml": "TAF LZTT 092315Z 1000/1100 VRB02KT 9999 SCT030 BKN050"
    },
    {
      "icao": "OMAA",
      "iata": "AUH",
      "name": "Zayed International Airport",
      "updatedAt": "100200Z",
      "visibility_m": 7000,
      "taf_visibility_m": 4000,
      "worst_visibility_m": 4000,
      "ceiling_ft": null,
      "hazards": [],
      "severityScore": 0,
      "metarRaw": "METAR OMAA 100200Z 13001KT 7000 NSC 16/12 Q1018 NOSIG",
      "tafRaw": "TAF OMAA 092300Z 1000/1106 VRB02KT 8000 NSC \n  PROB30 1001/1005 4000 HZ \n  BECMG 1010/1012 33011KT \n  BECMG 1016/1018 07005KT",
      "metarHtml": "METAR OMAA 100200Z 13001KT 7000 NSC 16/12 Q1018 NOSIG",
      "tafHtml": "TAF OMAA 092300Z 1000/1106 VRB02KT 8000 NSC \n  PROB30 1001/1005 4000 HZ \n  BECMG 1010/1012 33011KT \n  BECMG 1016/1018 07005KT"
    }
  ],
  "stats": {
    "icaoCount": 159,
    "metarReturned": 151,
    "tafReturned": 147,
    "stationsWritten": 159,
    "missingMetar": 8,
    "missingTaf": 12
  },
  "errors": []
}