{
  "generatedAt": "2026-01-08T19:40:01.487Z",
  "stations": [
    {
      "icao": "EDDN",
      "iata": "NUE",
      "name": "Nuremberg Airport",
      "updatedAt": "081920Z",
      "visibility_m": 10000,
      "taf_visibility_m": 800,
      "worst_visibility_m": 800,
      "ceiling_ft": 1000,
      "hazards": [
        "FZRA",
        "SN",
        "RA"
      ],
      "severityScore": 100,
      "metarRaw": "METAR EDDN 081920Z AUTO 13008KT 9999 BKN010 BKN015 M00/M02 Q1006 REFZDZ NOSIG",
      "tafRaw": "TAF EDDN 081700Z 0818/0918 14006KT 9999 BKN015 \n  BECMG 0818/0820 3500 -SN BKN007 OVC010 \n  TEMPO 0820/0901 0800 SN BKN004 OVC007 \n  PROB40 \n  TEMPO 0900/0903 FZRA \n  BECMG 0903/0905 8000 SCT008 BKN020 \n  BECMG 0908/0911 20012KT \n  TEMPO 0916/0918 RA",
      "metarHtml": "METAR EDDN 081920Z AUTO 13008KT 9999 BKN010 BKN015 M00/M02 Q1006 REFZDZ NOSIG",
      "tafHtml": "TAF EDDN 081700Z 0818/0918 14006KT 9999 BKN015 \n  BECMG 0818/0820 3500 -<span class=\"hl\">SN</span> BKN007 OVC010 \n  TEMPO 0820/0901 <span class=\"hl-vis\">0800</span> <span class=\"hl\">SN</span> BKN004 OVC007 \n  PROB40 \n  TEMPO 0900/0903 <span class=\"hl\">FZRA</span> \n  BECMG 0903/0905 8000 SCT008 BKN020 \n  BECMG 0908/0911 20012KT \n  TEMPO 0916/0918 <span class=\"hl\">RA</span>"
    },
    {
      "icao": "EDFH",
      "iata": "HHN",
      "name": "Frankfurt-Hahn Airport",
      "updatedAt": "081920Z",
      "visibility_m": 3800,
      "taf_visibility_m": 1000,
      "worst_visibility_m": 1000,
      "ceiling_ft": 1300,
      "hazards": [
        "BR",
        "FZRA",
        "SN",
        "RA",
        "SHRA"
      ],
      "severityScore": 100,
      "metarRaw": "METAR EDFH 081920Z 14008KT 3800 -FZRA BR SCT001 BKN013 00/M00 Q1001",
      "tafRaw": "TAF EDFH 081700Z 0818/0918 17010KT 3000 BR BKN002 \n  TEMPO 0818/0821 2000 -SN OVC001 \n  PROB40 \n  TEMPO 0818/0821 1000 SN \n  BECMG 0821/0823 17015G25KT \n  TEMPO 0821/0903 2000 RA OVC001 \n  BECMG 0901/0903 21020G35KT 6000 BKN010 \n  TEMPO 0903/0915 21030G45KT SHRA BKN009CB \n  PROB30 \n  TEMPO 0909/0913 21035G50KT \n  TEMPO 0915/0918 2000 -SN BKN004 \n  PROB40 \n  TEMPO 0916/0918 1000 SN OVC001",
      "metarHtml": "METAR EDFH 081920Z 14008KT 3800 -<span class=\"hl\">FZRA</span> <span class=\"hl\">BR</span> SCT001 BKN013 00/M00 Q1001",
      "tafHtml": "TAF EDFH 081700Z 0818/0918 17010KT 3000 <span class=\"hl\">BR</span> BKN002 \n  TEMPO 0818/0821 2000 -<span class=\"hl\">SN</span> OVC001 \n  PROB40 \n  TEMPO 0818/0821 1000 <span class=\"hl\">SN</span> \n  BECMG 0821/0823 17015G25KT \n  TEMPO 0821/0903 2000 <span class=\"hl\">RA</span> OVC001 \n  BECMG 0901/0903 21020G35KT 6000 BKN010 \n  TEMPO 0903/0915 21030G45KT <span class=\"hl\">SHRA</span> BKN009CB \n  PROB30 \n  TEMPO 0909/0913 21035G50KT \n  TEMPO 0915/0918 2000 -<span class=\"hl\">SN</span> BKN004 \n  PROB40 \n  TEMPO 0916/0918 1000 <span class=\"hl\">SN</span> OVC001"
    },
    {
      "icao": "EDJA",
      "iata": "FMM",
      "name": "Memmingen Allgau Airport",
      "updatedAt": "081920Z",
      "visibility_m": 10000,
      "taf_visibility_m": 1200,
      "worst_visibility_m": 1200,
      "ceiling_ft": 600,
      "hazards": [
        "FZRA",
        "SN",
        "RA"
      ],
      "severityScore": 100,
      "metarRaw": "METAR EDJA 081920Z 23019G29KT 9999 OVC006 01/00 Q1006",
      "tafRaw": "TAF EDJA 081700Z 0818/0903 23015G25KT 9999 SCT007 BKN015 \n  TEMPO 0818/0822 1200 SN BKN002 \n  PROB30 \n  TEMPO 0818/0822 FZRA BKN005 \n  TEMPO 0822/0903 3500 RA",
      "metarHtml": "METAR EDJA 081920Z 23019G29KT 9999 OVC006 01/00 Q1006",
      "tafHtml": "TAF EDJA 081700Z 0818/0903 23015G25KT 9999 SCT007 BKN015 \n  TEMPO 0818/0822 1200 <span class=\"hl\">SN</span> BKN002 \n  PROB30 \n  TEMPO 0818/0822 <span class=\"hl\">FZRA</span> BKN005 \n  TEMPO 0822/0903 3500 <span class=\"hl\">RA</span>"
    },
    {
      "icao": "EPPO",
      "iata": "POZ",
      "name": "Poznań-Ławica Airport",
      "updatedAt": "081930Z",
      "visibility_m": 2800,
      "taf_visibility_m": 400,
      "worst_visibility_m": 400,
      "ceiling_ft": 300,
      "hazards": [
        "BR",
        "FZFG",
        "SN"
      ],
      "severityScore": 100,
      "metarRaw": "METAR EPPO 081930Z 05004KT 2800 -SG BR OVC003 M11/M12 Q1012",
      "tafRaw": "TAF EPPO 081730Z 0818/0918 07003KT 3300 BR OVC005 \n  TEMPO 0818/0908 1200 -SN -SG BR OVC002 \n  PROB40 \n  TEMPO 0818/0908 0400 FZFG OVC001 \n  BECMG 0908/0911 10013KT 7000 BKN012 \n  PROB40 \n  TEMPO 0911/0918 SCT020",
      "metarHtml": "METAR EPPO 081930Z 05004KT 2800 -SG <span class=\"hl\">BR</span> OVC003 M11/M12 Q1012",
      "tafHtml": "TAF EPPO 081730Z 0818/0918 07003KT 3300 <span class=\"hl\">BR</span> OVC005 \n  TEMPO 0818/0908 1200 -<span class=\"hl\">SN</span> -SG <span class=\"hl\">BR</span> OVC002 \n  PROB40 \n  TEMPO 0818/0908 <span class=\"hl-vis\">0400</span> <span class=\"hl\">FZFG</span> OVC001 \n  BECMG 0908/0911 10013KT 7000 BKN012 \n  PROB40 \n  TEMPO 0911/0918 SCT020"
    },
    {
      "icao": "LEMD",
      "iata": "MAD",
      "name": "Adolfo Suárez Madrid–Barajas Airport",
      "updatedAt": "081930Z",
      "visibility_m": 10000,
      "taf_visibility_m": 200,
      "worst_visibility_m": 200,
      "ceiling_ft": 1000,
      "hazards": [
        "FG",
        "BR",
        "DZ"
      ],
      "severityScore": 100,
      "metarRaw": "METAR LEMD 081930Z 21010G24KT 170V240 9999 OVC010 05/03 Q1027 NOSIG",
      "tafRaw": "TAF LEMD 081700Z 0818/0924 23010KT 6000 BKN005 TX11/0915Z TN05/0906Z \n  TEMPO 0820/0909 3000 DZ BR BCFG \n  PROB40 \n  TEMPO 0823/0908 0200 FG VV001 \n  TEMPO 0900/0907 23015G25KT \n  TEMPO 0907/0912 VRB05KT \n  TEMPO 0911/0917 27020G30KT \n  BECMG 0910/0912 CAVOK",
      "metarHtml": "METAR LEMD 081930Z 21010G24KT 170V240 9999 OVC010 05/03 Q1027 NOSIG",
      "tafHtml": "TAF LEMD 081700Z 0818/0924 23010KT 6000 BKN005 TX11/0915Z TN05/0906Z \n  TEMPO 0820/0909 3000 <span class=\"hl\">DZ</span> <span class=\"hl\">BR</span> BCFG \n  PROB40 \n  TEMPO 0823/0908 <span class=\"hl-vis\">0200</span> <span class=\"hl\">FG</span> VV001 \n  TEMPO 0900/0907 23015G25KT \n  TEMPO 0907/0912 VRB05KT \n  TEMPO 0911/0917 27020G30KT \n  BECMG 0910/0912 <span class=\"hl-vis\">CAVOK</span>"
    },
    {
      "icao": "LJLJ",
      "iata": "LJU",
      "name": "Ljubljana Jože Pučnik Airport",
      "updatedAt": "081930Z",
      "visibility_m": 10000,
      "taf_visibility_m": 300,
      "worst_visibility_m": 300,
      "ceiling_ft": null,
      "hazards": [
        "FZFG",
        "BR",
        "FZRA",
        "SN"
      ],
      "severityScore": 100,
      "metarRaw": "METAR LJLJ 081930Z VRB01KT CAVOK M10/M12 Q1011 NOSIG",
      "tafRaw": "TAF LJLJ 081700Z 0818/0918 VRB02KT CAVOK \n  TEMPO 0818/0908 3000 BCFG BR \n  PROB40 \n  TEMPO 0820/0908 0300 FZFG VV001 \n  TEMPO 0909/0918 4000 -FZRA BR \n  PROB40 \n  TEMPO 0909/0911 3000 -SN BR",
      "metarHtml": "METAR LJLJ 081930Z VRB01KT <span class=\"hl-vis\">CAVOK</span> M10/M12 Q1011 NOSIG",
      "tafHtml": "TAF LJLJ 081700Z 0818/0918 VRB02KT <span class=\"hl-vis\">CAVOK</span> \n  TEMPO 0818/0908 3000 BCFG <span class=\"hl\">BR</span> \n  PROB40 \n  TEMPO 0820/0908 <span class=\"hl-vis\">0300</span> <span class=\"hl\">FZFG</span> VV001 \n  TEMPO 0909/0918 4000 -<span class=\"hl\">FZRA</span> <span class=\"hl\">BR</span> \n  PROB40 \n  TEMPO 0909/0911 3000 -<span class=\"hl\">SN</span> <span class=\"hl\">BR</span>"
    },
    {
      "icao": "LQSA",
      "iata": "SJJ",
      "name": "Sarajevo International Airport",
      "updatedAt": "081930Z",
      "visibility_m": 8000,
      "taf_visibility_m": 500,
      "worst_visibility_m": 500,
      "ceiling_ft": null,
      "hazards": [
        "FZFG",
        "FZRA",
        "RA"
      ],
      "severityScore": 100,
      "metarRaw": "METAR LQSA 081930Z VRB02KT 8000 NSC M11/M12 Q1013 NOSIG",
      "tafRaw": "TAF LQSA 081700Z 0818/0918 VRB02KT 9999 SCT050 TX01/0913Z TNM11/0902Z \n  PROB30 0903/0907 0500 FZFG BKN004 \n  PROB30 \n  TEMPO 0908/0911 FZRA \n  PROB40 \n  TEMPO 0912/0918 15012KT RA",
      "metarHtml": "METAR LQSA 081930Z VRB02KT 8000 NSC M11/M12 Q1013 NOSIG",
      "tafHtml": "TAF LQSA 081700Z 0818/0918 VRB02KT 9999 SCT050 TX01/0913Z TNM11/0902Z \n  PROB30 0903/0907 <span class=\"hl-vis\">0500</span> <span class=\"hl\">FZFG</span> BKN004 \n  PROB30 \n  TEMPO 0908/0911 <span class=\"hl\">FZRA</span> \n  PROB40 \n  TEMPO 0912/0918 15012KT <span class=\"hl\">RA</span>"
    },
    {
      "icao": "UAAA",
      "iata": "ALA",
      "name": "Almaty International Airport",
      "updatedAt": "081930Z",
      "visibility_m": 2500,
      "taf_visibility_m": 200,
      "worst_visibility_m": 200,
      "ceiling_ft": 800,
      "hazards": [
        "BR",
        "FZFG"
      ],
      "severityScore": 100,
      "metarRaw": "METAR UAAA 081930Z VRB01MPS 2500 BR OVC008 M04/M06 Q1027 NOSIG",
      "tafRaw": "TAF UAAA 081714Z 0818/0918 33003MPS 1500 BR BKN011 OVC100 TXM01/0909Z TNM07/0901Z \n  TEMPO 0818/0905 VRB01MPS 0200 FZFG VV001 \n  TEMPO 0905/0907 03003MPS 3100 BKN004 OVC011 \n  FM090700 03002G07MPS 3100 BR FU SCT011 BKN100 \n  TEMPO 0912/0915 1500 \n  TEMPO 0915/0918 VRB01MPS 0500 FZFG VV003",
      "metarHtml": "METAR UAAA 081930Z VRB01MPS 2500 <span class=\"hl\">BR</span> OVC008 M04/M06 Q1027 NOSIG",
      "tafHtml": "TAF UAAA 081714Z 0818/0918 33003MPS 1500 <span class=\"hl\">BR</span> BKN011 OVC100 TXM01/0909Z TNM07/0901Z \n  TEMPO 0818/0905 VRB01MPS <span class=\"hl-vis\">0200</span> <span class=\"hl\">FZFG</span> VV001 \n  TEMPO 0905/0907 03003MPS 3100 BKN004 OVC011 \n  FM090700 03002G07MPS 3100 <span class=\"hl\">BR</span> FU SCT011 BKN100 \n  TEMPO 0912/0915 1500 \n  TEMPO 0915/0918 VRB01MPS <span class=\"hl-vis\">0500</span> <span class=\"hl\">FZFG</span> VV003"
    },
    {
      "icao": "UBBB",
      "iata": "GYD",
      "name": "Heydar Aliyev International Airport",
      "updatedAt": "081930Z",
      "visibility_m": 100,
      "taf_visibility_m": 200,
      "worst_visibility_m": 100,
      "ceiling_ft": 100,
      "hazards": [
        "FG",
        "BR"
      ],
      "severityScore": 100,
      "metarRaw": "METAR UBBB 081930Z 13006KT 0100 R16/0300 R17/P2000 FG VV001 05/04 Q1013 NOSIG",
      "tafRaw": "TAF UBBB 081707Z 0818/0918 VRB04KT 0200 FG VV001 TX05/0910Z TN04/0903Z \n  TEMPO 0818/0822 19005KT 0800 VV003 \n  BECMG 0822/0824 18016KT 0400 VV002 \n  TEMPO 0900/0906 20020G30KT 1500 BR BKN004 \n  BECMG 0906/0908 17022G32KT 6000 NSW BKN010 \n  TEMPO 0912/0918 21010KT 3000 BR BCFG BKN004",
      "metarHtml": "METAR UBBB 081930Z 13006KT <span class=\"hl-vis\">0100</span> R16/0300 R17/P2000 <span class=\"hl\">FG</span> VV001 05/04 Q1013 NOSIG",
      "tafHtml": "TAF UBBB 081707Z 0818/0918 VRB04KT <span class=\"hl-vis\">0200</span> <span class=\"hl\">FG</span> VV001 TX05/0910Z TN04/0903Z \n  TEMPO 0818/0822 19005KT <span class=\"hl-vis\">0800</span> VV003 \n  BECMG 0822/0824 18016KT <span class=\"hl-vis\">0400</span> VV002 \n  TEMPO 0900/0906 20020G30KT 1500 <span class=\"hl\">BR</span> BKN004 \n  BECMG 0906/0908 17022G32KT 6000 NSW BKN010 \n  TEMPO 0912/0918 21010KT 3000 <span class=\"hl\">BR</span> BCFG BKN004"
    },
    {
      "icao": "UDSG",
      "iata": "LWN",
      "name": "Shirak International Airport",
      "updatedAt": "081930Z",
      "visibility_m": 1400,
      "taf_visibility_m": 800,
      "worst_visibility_m": 800,
      "ceiling_ft": 1000,
      "hazards": [
        "BR",
        "SN",
        "FZFG"
      ],
      "severityScore": 95,
      "metarRaw": "METAR UDSG 081930Z 28006KT 1400 R02/P2000D SN BR OVC010 M07/M07 Q1020 NOSIG",
      "tafRaw": "TAF UDSG 081658Z 0818/0918 VRB06KT 3000 BR BKN030 \n  TEMPO 0818/0820 1000 BR OVC020 \n  TEMPO 0820/0906 35016KT 0800 SN FZFG OVC008",
      "metarHtml": "METAR UDSG 081930Z 28006KT 1400 R02/P2000D <span class=\"hl\">SN</span> <span class=\"hl\">BR</span> OVC010 M07/M07 Q1020 NOSIG",
      "tafHtml": "TAF UDSG 081658Z 0818/0918 VRB06KT 3000 <span class=\"hl\">BR</span> BKN030 \n  TEMPO 0818/0820 1000 <span class=\"hl\">BR</span> OVC020 \n  TEMPO 0820/0906 35016KT <span class=\"hl-vis\">0800</span> <span class=\"hl\">SN</span> <span class=\"hl\">FZFG</span> OVC008"
    },
    {
      "icao": "UDYZ",
      "iata": "EVN",
      "name": "Zvartnots International Airport",
      "updatedAt": "081930Z",
      "visibility_m": 1900,
      "taf_visibility_m": 200,
      "worst_visibility_m": 200,
      "ceiling_ft": null,
      "hazards": [
        "BR",
        "FZFG"
      ],
      "severityScore": 95,
      "metarRaw": "METAR UDYZ 081930Z 08001KT 1900 R08/P2000U BR SCT046 M03/M05 Q1021 NOSIG",
      "tafRaw": "TAF UDYZ 081700Z 0818/0918 28006KT 1500 BR FEW040 \n  TEMPO 0818/0824 0600 FZFG OVC003 \n  TEMPO 0900/0906 0200 FZFG VV001",
      "metarHtml": "METAR UDYZ 081930Z 08001KT 1900 R08/P2000U <span class=\"hl\">BR</span> SCT046 M03/M05 Q1021 NOSIG",
      "tafHtml": "TAF UDYZ 081700Z 0818/0918 28006KT 1500 <span class=\"hl\">BR</span> FEW040 \n  TEMPO 0818/0824 <span class=\"hl-vis\">0600</span> <span class=\"hl\">FZFG</span> OVC003 \n  TEMPO 0900/0906 <span class=\"hl-vis\">0200</span> <span class=\"hl\">FZFG</span> VV001"
    },
    {
      "icao": "EGBB",
      "iata": "BHX",
      "name": "Birmingham Airport",
      "updatedAt": "081920Z",
      "visibility_m": 500,
      "taf_visibility_m": null,
      "worst_visibility_m": 500,
      "ceiling_ft": 300,
      "hazards": [
        "SN"
      ],
      "severityScore": 93,
      "metarRaw": "METAR EGBB 081920Z 07010KT 0500 R15/1200U SN OVC003 00/M00 Q0985 RESN",
      "tafRaw": null,
      "metarHtml": "METAR EGBB 081920Z 07010KT <span class=\"hl-vis\">0500</span> R15/1200U <span class=\"hl\">SN</span> OVC003 00/M00 Q0985 RESN",
      "tafHtml": null
    },
    {
      "icao": "EHBK",
      "iata": "MST",
      "name": "Maastricht Aachen Airport",
      "updatedAt": "081925Z",
      "visibility_m": 7000,
      "taf_visibility_m": 800,
      "worst_visibility_m": 800,
      "ceiling_ft": 1200,
      "hazards": [
        "SHRA",
        "SN",
        "RA",
        "DZ"
      ],
      "severityScore": 91,
      "metarRaw": "METAR EHBK 081925Z AUTO 17009KT 9999 -SHRA BKN028 OVC032 03/02 Q0999 TEMPO 7000 BKN012",
      "tafRaw": "TAF EHBK 081721Z 0818/0924 15008KT 9999 -RA OVC014 \n  TEMPO 0818/0824 4000 RA BKN008 \n  BECMG 0821/0824 18015KT SCT025 \n  TEMPO 0900/0908 7000 RA SHRA FEW020TCU \n  BECMG 0906/0909 20018G28KT 7000 RA BKN012 \n  TEMPO 0912/0918 22020G30KT 4000 -DZ BKN006 \n  BECMG 0916/0919 23015KT 4000 SNRA BKN003 \n  BECMG 0921/0924 29008KT 0800 SN \n  TEMPO 0921/0924 BKN001",
      "metarHtml": "METAR EHBK 081925Z AUTO 17009KT 9999 -<span class=\"hl\">SHRA</span> BKN028 OVC032 03/02 Q0999 TEMPO 7000 BKN012",
      "tafHtml": "TAF EHBK 081721Z 0818/0924 15008KT 9999 -<span class=\"hl\">RA</span> OVC014 \n  TEMPO 0818/0824 4000 <span class=\"hl\">RA</span> BKN008 \n  BECMG 0821/0824 18015KT SCT025 \n  TEMPO 0900/0908 7000 <span class=\"hl\">RA</span> <span class=\"hl\">SHRA</span> FEW020TCU \n  BECMG 0906/0909 20018G28KT 7000 <span class=\"hl\">RA</span> BKN012 \n  TEMPO 0912/0918 22020G30KT 4000 -<span class=\"hl\">DZ</span> BKN006 \n  BECMG 0916/0919 23015KT 4000 SNRA BKN003 \n  BECMG 0921/0924 29008KT <span class=\"hl-vis\">0800</span> <span class=\"hl\">SN</span> \n  TEMPO 0921/0924 BKN001"
    },
    {
      "icao": "ENAL",
      "iata": "AES",
      "name": "Ålesund Airport, Vigra",
      "updatedAt": "081920Z",
      "visibility_m": 350,
      "taf_visibility_m": 1200,
      "worst_visibility_m": 350,
      "ceiling_ft": 600,
      "hazards": [
        "SN",
        "SHSN"
      ],
      "severityScore": 88,
      "metarRaw": "METAR ENAL 081920Z 20011KT 0350 R24/1000N +SN VV006 M02/M03 Q1005",
      "tafRaw": "TAF ENAL 081700Z 0818/0903 20010KT 9999 -SN SCT010 BKN020 \n  TEMPO 0818/0821 21018G28KT 1200 SHSN BKN007 SCT015CB",
      "metarHtml": "METAR ENAL 081920Z 20011KT <span class=\"hl-vis\">0350</span> R24/1000N +<span class=\"hl\">SN</span> VV006 M02/M03 Q1005",
      "tafHtml": "TAF ENAL 081700Z 0818/0903 20010KT 9999 -<span class=\"hl\">SN</span> SCT010 BKN020 \n  TEMPO 0818/0821 21018G28KT 1200 <span class=\"hl\">SHSN</span> BKN007 SCT015CB"
    },
    {
      "icao": "EHEH",
      "iata": "EIN",
      "name": "Eindhoven Airport",
      "updatedAt": "081925Z",
      "visibility_m": 1500,
      "taf_visibility_m": 1000,
      "worst_visibility_m": 1000,
      "ceiling_ft": 300,
      "hazards": [
        "DZ",
        "SN",
        "RA"
      ],
      "severityScore": 85,
      "metarRaw": "METAR EHEH 081925Z AUTO 13008KT 110V170 6000 DZRA BKN003 BKN004 OVC007 03/02 Q0998 YLO TEMPO 1500 DZ SCT002 BKN003",
      "tafRaw": "TAF EHEH 081728Z 0818/0924 13006KT 1500 DZ SCT002 BKN003 \n  TEMPO 0821/0902 13012G25KT \n  BECMG 0902/0904 BKN020 \n  BECMG 0904/0906 15015KT 3000 -RA SCT012 BKN015 \n  TEMPO 0904/0915 1500 SNRA SCT005 BKN006 \n  TEMPO 0915/0924 1000 SN SCT002 BKN003",
      "metarHtml": "METAR EHEH 081925Z AUTO 13008KT 110V170 6000 DZRA BKN003 BKN004 OVC007 03/02 Q0998 YLO TEMPO 1500 <span class=\"hl\">DZ</span> SCT002 BKN003",
      "tafHtml": "TAF EHEH 081728Z 0818/0924 13006KT 1500 <span class=\"hl\">DZ</span> SCT002 BKN003 \n  TEMPO 0821/0902 13012G25KT \n  BECMG 0902/0904 BKN020 \n  BECMG 0904/0906 15015KT 3000 -<span class=\"hl\">RA</span> SCT012 BKN015 \n  TEMPO 0904/0915 1500 SNRA SCT005 BKN006 \n  TEMPO 0915/0924 1000 <span class=\"hl\">SN</span> SCT002 BKN003"
    },
    {
      "icao": "EDDB",
      "iata": "BER",
      "name": "Berlin Brandenburg Airport",
      "updatedAt": "081920Z",
      "visibility_m": 10000,
      "taf_visibility_m": 700,
      "worst_visibility_m": 700,
      "ceiling_ft": 1800,
      "hazards": [
        "SN",
        "BLSN"
      ],
      "severityScore": 77,
      "metarRaw": "METAR EDDB 081920Z AUTO 11006KT 9999 BKN018 M04/M07 Q1009 NOSIG",
      "tafRaw": "TAF EDDB 081700Z 0818/0918 11009KT 9999 SCT015 BKN025 \n  BECMG 0901/0903 10014KT BKN014 \n  PROB30 \n  TEMPO 0903/0906 09015G25KT \n  BECMG 0906/0909 10015G25KT 4000 -SN BKN008 \n  TEMPO 0909/0918 0700 BLSN BKN004 \n  PROB30 \n  TEMPO 0912/0918 10020G30KT +SN",
      "metarHtml": "METAR EDDB 081920Z AUTO 11006KT 9999 BKN018 M04/M07 Q1009 NOSIG",
      "tafHtml": "TAF EDDB 081700Z 0818/0918 11009KT 9999 SCT015 BKN025 \n  BECMG 0901/0903 10014KT BKN014 \n  PROB30 \n  TEMPO 0903/0906 09015G25KT \n  BECMG 0906/0909 10015G25KT 4000 -<span class=\"hl\">SN</span> BKN008 \n  TEMPO 0909/0918 <span class=\"hl-vis\">0700</span> <span class=\"hl\">BLSN</span> BKN004 \n  PROB30 \n  TEMPO 0912/0918 10020G30KT +<span class=\"hl\">SN</span>"
    },
    {
      "icao": "EDDH",
      "iata": "HAM",
      "name": "Hamburg Helmut Schmidt Airport",
      "updatedAt": "081920Z",
      "visibility_m": 6000,
      "taf_visibility_m": 1200,
      "worst_visibility_m": 1200,
      "ceiling_ft": 500,
      "hazards": [
        "SN",
        "BLSN"
      ],
      "severityScore": 75,
      "metarRaw": "METAR EDDH 081920Z AUTO 13008KT 6000 -SN BKN005 OVC016 M00/M01 Q1005",
      "tafRaw": "TAF EDDH 081700Z 0818/0924 14008KT 3000 -SN OVC004 \n  BECMG 0818/0821 9999 BKN008 \n  PROB30 \n  TEMPO 0821/0906 SCT010 BKN020 \n  BECMG 0822/0824 11013KT \n  BECMG 0903/0905 09015G25KT \n  TEMPO 0907/0919 08020G35KT 3000 -SN BLSN \n  PROB40 \n  TEMPO 0909/0913 1200 SN BKN004",
      "metarHtml": "METAR EDDH 081920Z AUTO 13008KT 6000 -<span class=\"hl\">SN</span> BKN005 OVC016 M00/M01 Q1005",
      "tafHtml": "TAF EDDH 081700Z 0818/0924 14008KT 3000 -<span class=\"hl\">SN</span> OVC004 \n  BECMG 0818/0821 9999 BKN008 \n  PROB30 \n  TEMPO 0821/0906 SCT010 BKN020 \n  BECMG 0822/0824 11013KT \n  BECMG 0903/0905 09015G25KT \n  TEMPO 0907/0919 08020G35KT 3000 -<span class=\"hl\">SN</span> <span class=\"hl\">BLSN</span> \n  PROB40 \n  TEMPO 0909/0913 1200 <span class=\"hl\">SN</span> BKN004"
    },
    {
      "icao": "LOWW",
      "iata": "VIE",
      "name": "Vienna International Airport",
      "updatedAt": "081920Z",
      "visibility_m": 10000,
      "taf_visibility_m": 800,
      "worst_visibility_m": 800,
      "ceiling_ft": 3600,
      "hazards": [
        "FG",
        "BR",
        "SN"
      ],
      "severityScore": 73,
      "metarRaw": "METAR LOWW 081920Z 08003KT 9999 FEW034 BKN036 M03/M08 Q1011 NOSIG",
      "tafRaw": "TAF LOWW 081715Z 0818/0924 VRB03KT 9999 SCT030 TXM04/0818Z TNM06/0908Z \n  BECMG 0901/0903 12008KT \n  FM090600 12008KT 6000 -SN VV015 \n  TEMPO 0907/0911 0800 SN VV003 \n  FM091100 13008KT 6000 BKN007 \n  TEMPO 0911/0918 SCT012 \n  TEMPO 0918/0924 2000 BR BKN003 \n  PROB30 \n  TEMPO 0922/0924 0800 FG",
      "metarHtml": "METAR LOWW 081920Z 08003KT 9999 FEW034 BKN036 M03/M08 Q1011 NOSIG",
      "tafHtml": "TAF LOWW 081715Z 0818/0924 VRB03KT 9999 SCT030 TXM04/0818Z TNM06/0908Z \n  BECMG 0901/0903 12008KT \n  FM090600 12008KT 6000 -<span class=\"hl\">SN</span> VV015 \n  TEMPO 0907/0911 <span class=\"hl-vis\">0800</span> <span class=\"hl\">SN</span> VV003 \n  FM091100 13008KT 6000 BKN007 \n  TEMPO 0911/0918 SCT012 \n  TEMPO 0918/0924 2000 <span class=\"hl\">BR</span> BKN003 \n  PROB30 \n  TEMPO 0922/0924 <span class=\"hl-vis\">0800</span> <span class=\"hl\">FG</span>"
    },
    {
      "icao": "EBCI",
      "iata": "CRL",
      "name": "Brussels South Charleroi Airport",
      "updatedAt": "081920Z",
      "visibility_m": 3000,
      "taf_visibility_m": 1200,
      "worst_visibility_m": 1200,
      "ceiling_ft": 400,
      "hazards": [
        "RA",
        "SHRA"
      ],
      "severityScore": 71,
      "metarRaw": "METAR EBCI 081920Z 15007KT 4000 RA SCT005 BKN008 03/03 Q0996 TEMPO 3000 RA BKN004",
      "tafRaw": "TAF EBCI 081715Z 0818/0924 15010KT 7000 SCT006 BKN016 \n  TEMPO 0818/0824 2500 RA RADZ BKN004 \n  BECMG 0900/0903 20022G35KT \n  PROB30 \n  TEMPO 0900/0903 3500 SHRA SCT005 BKN014TCU \n  TEMPO 0903/0913 22028G45KT \n  BECMG 0903/0906 SCT004 BKN007 \n  PROB30 \n  TEMPO 0903/0906 4500 -RA \n  TEMPO 0906/0924 2500 RA RADZ BKN004 \n  PROB40 \n  TEMPO 0909/0924 2000 RASN BKN003 \n  BECMG 0916/0919 26014KT \n  PROB30 \n  TEMPO 0918/0924 1200 SNRA BKN002",
      "metarHtml": "METAR EBCI 081920Z 15007KT 4000 <span class=\"hl\">RA</span> SCT005 BKN008 03/03 Q0996 TEMPO 3000 <span class=\"hl\">RA</span> BKN004",
      "tafHtml": "TAF EBCI 081715Z 0818/0924 15010KT 7000 SCT006 BKN016 \n  TEMPO 0818/0824 2500 <span class=\"hl\">RA</span> RADZ BKN004 \n  BECMG 0900/0903 20022G35KT \n  PROB30 \n  TEMPO 0900/0903 3500 <span class=\"hl\">SHRA</span> SCT005 BKN014TCU \n  TEMPO 0903/0913 22028G45KT \n  BECMG 0903/0906 SCT004 BKN007 \n  PROB30 \n  TEMPO 0903/0906 4500 -<span class=\"hl\">RA</span> \n  TEMPO 0906/0924 2500 <span class=\"hl\">RA</span> RADZ BKN004 \n  PROB40 \n  TEMPO 0909/0924 2000 RASN BKN003 \n  BECMG 0916/0919 26014KT \n  PROB30 \n  TEMPO 0918/0924 1200 SNRA BKN002"
    },
    {
      "icao": "EGNM",
      "iata": "LBA",
      "name": "Leeds Bradford Airport",
      "updatedAt": "081920Z",
      "visibility_m": 10000,
      "taf_visibility_m": 800,
      "worst_visibility_m": 800,
      "ceiling_ft": 3900,
      "hazards": [
        "SN",
        "RA",
        "SHRA"
      ],
      "severityScore": 69,
      "metarRaw": "METAR EGNM 081920Z 03007KT 020V090 9999 SCT013 BKN039 M01/M02 Q0992",
      "tafRaw": "TAF EGNM 081659Z 0818/0918 VRB04KT 9999 FEW010 \n  BECMG 0818/0821 03012KT BKN009 \n  TEMPO 0818/0903 3000 RASN -SN BKN004 \n  PROB30 \n  TEMPO 0820/0903 04015G25KT 0800 SN BKN001 \n  TEMPO 0903/0909 02015G25KT 6000 RA -RADZ \n  PROB30 \n  TEMPO 0903/0909 4000 RADZ RASN BKN004 \n  BECMG 0907/0910 SCT020 \n  PROB30 \n  TEMPO 0910/0916 6000 SHRA BKN012",
      "metarHtml": "METAR EGNM 081920Z 03007KT 020V090 9999 SCT013 BKN039 M01/M02 Q0992",
      "tafHtml": "TAF EGNM 081659Z 0818/0918 VRB04KT 9999 FEW010 \n  BECMG 0818/0821 03012KT BKN009 \n  TEMPO 0818/0903 3000 RASN -<span class=\"hl\">SN</span> BKN004 \n  PROB30 \n  TEMPO 0820/0903 04015G25KT <span class=\"hl-vis\">0800</span> <span class=\"hl\">SN</span> BKN001 \n  TEMPO 0903/0909 02015G25KT 6000 <span class=\"hl\">RA</span> -RADZ \n  PROB30 \n  TEMPO 0903/0909 4000 RADZ RASN BKN004 \n  BECMG 0907/0910 SCT020 \n  PROB30 \n  TEMPO 0910/0916 6000 <span class=\"hl\">SHRA</span> BKN012"
    },
    {
      "icao": "LKMT",
      "iata": "OSR",
      "name": "Ostrava Leos Janáček Airport",
      "updatedAt": "081930Z",
      "visibility_m": 9000,
      "taf_visibility_m": 900,
      "worst_visibility_m": 900,
      "ceiling_ft": 2600,
      "hazards": [
        "FZFG",
        "BR",
        "SN"
      ],
      "severityScore": 68,
      "metarRaw": "METAR LKMT 081930Z 22004KT 9000 BKN026 M05/M07 Q1010 NOSIG",
      "tafRaw": "TAF LKMT 081700Z 0818/0918 VRB02KT 9999 BKN025 \n  BECMG 0823/0901 4500 BR SCT003 BKN015 \n  TEMPO 0903/0908 0900 FZFG BKN002 \n  BECMG 0909/0911 9999 NSW SCT030 \n  PROB40 \n  TEMPO 0912/0917 -SN BKN020",
      "metarHtml": "METAR LKMT 081930Z 22004KT 9000 BKN026 M05/M07 Q1010 NOSIG",
      "tafHtml": "TAF LKMT 081700Z 0818/0918 VRB02KT 9999 BKN025 \n  BECMG 0823/0901 4500 <span class=\"hl\">BR</span> SCT003 BKN015 \n  TEMPO 0903/0908 0900 <span class=\"hl\">FZFG</span> BKN002 \n  BECMG 0909/0911 9999 NSW SCT030 \n  PROB40 \n  TEMPO 0912/0917 -<span class=\"hl\">SN</span> BKN020"
    },
    {
      "icao": "EGGP",
      "iata": "LPL",
      "name": "Liverpool John Lennon Airport",
      "updatedAt": "081920Z",
      "visibility_m": 9000,
      "taf_visibility_m": 1200,
      "worst_visibility_m": 1200,
      "ceiling_ft": 1000,
      "hazards": [
        "RA",
        "SN",
        "SHRA"
      ],
      "severityScore": 66,
      "metarRaw": "METAR EGGP 081920Z 05012KT 020V080 9000 -RA OVC010 02/00 Q0990",
      "tafRaw": "TAF EGGP 081700Z 0818/0918 06012KT 9999 FEW010 \n  TEMPO 0818/0819 6000 RA -RADZ BKN009 \n  PROB30 \n  TEMPO 0818/0819 4000 RADZ BKN004 \n  BECMG 0819/0822 36012KT \n  TEMPO 0819/0823 35016G28KT 4000 RADZ RASN BKN008 \n  PROB30 \n  TEMPO 0819/0823 1200 +RASN SN BKN002 \n  TEMPO 0823/0909 35016G28KT 6000 RA BKN012 \n  PROB30 \n  TEMPO 0823/0904 4000 RADZ BKN008 \n  PROB30 \n  TEMPO 0909/0918 7000 SHRA BKN012",
      "metarHtml": "METAR EGGP 081920Z 05012KT 020V080 9000 -<span class=\"hl\">RA</span> OVC010 02/00 Q0990",
      "tafHtml": "TAF EGGP 081700Z 0818/0918 06012KT 9999 FEW010 \n  TEMPO 0818/0819 6000 <span class=\"hl\">RA</span> -RADZ BKN009 \n  PROB30 \n  TEMPO 0818/0819 4000 RADZ BKN004 \n  BECMG 0819/0822 36012KT \n  TEMPO 0819/0823 35016G28KT 4000 RADZ RASN BKN008 \n  PROB30 \n  TEMPO 0819/0823 1200 +RASN <span class=\"hl\">SN</span> BKN002 \n  TEMPO 0823/0909 35016G28KT 6000 <span class=\"hl\">RA</span> BKN012 \n  PROB30 \n  TEMPO 0823/0904 4000 RADZ BKN008 \n  PROB30 \n  TEMPO 0909/0918 7000 <span class=\"hl\">SHRA</span> BKN012"
    },
    {
      "icao": "EYKA",
      "iata": "KUN",
      "name": "Kaunas International Airport",
      "updatedAt": "081920Z",
      "visibility_m": 10000,
      "taf_visibility_m": 600,
      "worst_visibility_m": 600,
      "ceiling_ft": null,
      "hazards": [
        "SN",
        "BLSN"
      ],
      "severityScore": 65,
      "metarRaw": "METAR EYKA 081920Z 36010KT 320V030 CAVOK M09/M12 Q1011",
      "tafRaw": "TAF EYKA 081725Z 0818/0918 02010KT 9000 SCT010 \n  TEMPO 0818/0905 BKN015 \n  BECMG 0905/0907 3000 SN BKN015 \n  TEMPO 0907/0918 02015G25KT 0600 +SN BLSN BKN005",
      "metarHtml": "METAR EYKA 081920Z 36010KT 320V030 <span class=\"hl-vis\">CAVOK</span> M09/M12 Q1011",
      "tafHtml": "TAF EYKA 081725Z 0818/0918 02010KT 9000 SCT010 \n  TEMPO 0818/0905 BKN015 \n  BECMG 0905/0907 3000 <span class=\"hl\">SN</span> BKN015 \n  TEMPO 0907/0918 02015G25KT <span class=\"hl-vis\">0600</span> +<span class=\"hl\">SN</span> <span class=\"hl\">BLSN</span> BKN005"
    },
    {
      "icao": "EYVI",
      "iata": "VNO",
      "name": "Vilnius International Airport",
      "updatedAt": "081920Z",
      "visibility_m": 10000,
      "taf_visibility_m": 600,
      "worst_visibility_m": 600,
      "ceiling_ft": null,
      "hazards": [
        "SN",
        "BLSN"
      ],
      "severityScore": 65,
      "metarRaw": "METAR EYVI 081920Z 01014KT 9999 FEW013 M10/M12 Q1007 NOSIG",
      "tafRaw": "TAF EYVI 081725Z 0818/0918 02015KT 9000 BKN010 \n  TEMPO 0818/0822 BKN005 \n  BECMG 0822/0824 02015G25KT 3000 SN BLSN \n  TEMPO 0900/0918 0600 +SN BKN005",
      "metarHtml": "METAR EYVI 081920Z 01014KT 9999 FEW013 M10/M12 Q1007 NOSIG",
      "tafHtml": "TAF EYVI 081725Z 0818/0918 02015KT 9000 BKN010 \n  TEMPO 0818/0822 BKN005 \n  BECMG 0822/0824 02015G25KT 3000 <span class=\"hl\">SN</span> <span class=\"hl\">BLSN</span> \n  TEMPO 0900/0918 <span class=\"hl-vis\">0600</span> +<span class=\"hl\">SN</span> BKN005"
    },
    {
      "icao": "LZTT",
      "iata": "TAT",
      "name": "Poprad-Tatry Airport",
      "updatedAt": "081930Z",
      "visibility_m": 10000,
      "taf_visibility_m": 500,
      "worst_visibility_m": 500,
      "ceiling_ft": null,
      "hazards": [
        "FZFG"
      ],
      "severityScore": 65,
      "metarRaw": "METAR LZTT 081930Z 30005KT 9999 FEW020 M11/M14 Q1004",
      "tafRaw": "TAF LZTT 081715Z 0818/0918 27009KT CAVOK \n  BECMG 0903/0905 VRB02KT \n  PROB30 \n  TEMPO 0904/0908 0500 FZFG BKN002 \n  BECMG 0913/0915 BKN030",
      "metarHtml": "METAR LZTT 081930Z 30005KT 9999 FEW020 M11/M14 Q1004",
      "tafHtml": "TAF LZTT 081715Z 0818/0918 27009KT <span class=\"hl-vis\">CAVOK</span> \n  BECMG 0903/0905 VRB02KT \n  PROB30 \n  TEMPO 0904/0908 <span class=\"hl-vis\">0500</span> <span class=\"hl\">FZFG</span> BKN002 \n  BECMG 0913/0915 BKN030"
    },
    {
      "icao": "EPKT",
      "iata": "KTW",
      "name": "Katowice Wojciech Korfanty International Airport",
      "updatedAt": "081930Z",
      "visibility_m": 9000,
      "taf_visibility_m": 1200,
      "worst_visibility_m": 1200,
      "ceiling_ft": 600,
      "hazards": [
        "BR",
        "SN"
      ],
      "severityScore": 63,
      "metarRaw": "METAR EPKT 081930Z 30006KT 9000 OVC006 M07/M08 Q1009",
      "tafRaw": "TAF EPKT 081730Z 0818/0918 32004KT 7000 OVC005 \n  TEMPO 0818/0908 3000 -SN BR OVC004 \n  PROB40 0900/0908 1200 BR \n  BECMG 0908/0910 CAVOK",
      "metarHtml": "METAR EPKT 081930Z 30006KT 9000 OVC006 M07/M08 Q1009",
      "tafHtml": "TAF EPKT 081730Z 0818/0918 32004KT 7000 OVC005 \n  TEMPO 0818/0908 3000 -<span class=\"hl\">SN</span> <span class=\"hl\">BR</span> OVC004 \n  PROB40 0900/0908 1200 <span class=\"hl\">BR</span> \n  BECMG 0908/0910 <span class=\"hl-vis\">CAVOK</span>"
    },
    {
      "icao": "EGPF",
      "iata": "GLA",
      "name": "Glasgow Airport",
      "updatedAt": "081920Z",
      "visibility_m": 4000,
      "taf_visibility_m": 4000,
      "worst_visibility_m": 4000,
      "ceiling_ft": 900,
      "hazards": [
        "BR",
        "RA",
        "SHRA"
      ],
      "severityScore": 61,
      "metarRaw": "METAR EGPF 081920Z VRB02KT 4000 BR BKN009 OVC013 00/00 Q0996",
      "tafRaw": "TAF EGPF 081659Z 0818/0918 VRB03KT 9999 SCT025 \n  TEMPO 0818/0821 4000 RADZ BR BKN009 \n  PROB30 0821/0911 4000 BR MIFG \n  TEMPO 0911/0918 6000 RA SHRA BKN009 \n  PROB30 \n  TEMPO 0911/0918 4000 -SHRASN BR BKN004",
      "metarHtml": "METAR EGPF 081920Z VRB02KT 4000 <span class=\"hl\">BR</span> BKN009 OVC013 00/00 Q0996",
      "tafHtml": "TAF EGPF 081659Z 0818/0918 VRB03KT 9999 SCT025 \n  TEMPO 0818/0821 4000 RADZ <span class=\"hl\">BR</span> BKN009 \n  PROB30 0821/0911 4000 <span class=\"hl\">BR</span> MIFG \n  TEMPO 0911/0918 6000 <span class=\"hl\">RA</span> <span class=\"hl\">SHRA</span> BKN009 \n  PROB30 \n  TEMPO 0911/0918 4000 -SHRASN <span class=\"hl\">BR</span> BKN004"
    },
    {
      "icao": "ENGM",
      "iata": "OSL",
      "name": "Oslo-Gardermoen International Airport",
      "updatedAt": "081920Z",
      "visibility_m": 10000,
      "taf_visibility_m": null,
      "worst_visibility_m": 10000,
      "ceiling_ft": 400,
      "hazards": [
        "SN"
      ],
      "severityScore": 58,
      "metarRaw": "METAR ENGM 081920Z 34005KT 9999 -SN FEW002 BKN004 M16/M18 Q1010 NOSIG",
      "tafRaw": null,
      "metarHtml": "METAR ENGM 081920Z 34005KT 9999 -<span class=\"hl\">SN</span> FEW002 BKN004 M16/M18 Q1010 NOSIG",
      "tafHtml": null
    },
    {
      "icao": "EPMO",
      "iata": "WMI",
      "name": "Modlin Airport",
      "updatedAt": "081930Z",
      "visibility_m": 8000,
      "taf_visibility_m": 2000,
      "worst_visibility_m": 2000,
      "ceiling_ft": 800,
      "hazards": [
        "BR",
        "SN"
      ],
      "severityScore": 53,
      "metarRaw": "METAR EPMO 081930Z 36006KT 330V030 8000 OVC008 M08/M08 Q1009",
      "tafRaw": "TAF EPMO 081730Z 0818/0918 33006KT 5000 BR BKN008 \n  BECMG 0818/0820 3500 BR \n  TEMPO 0820/0910 2000 -SN BR BKN003 \n  BECMG 0909/0912 BKN010 \n  PROB40 \n  TEMPO 0910/0916 6000 SCT012 \n  TEMPO 0916/0918 2500 -SN BR BKN006",
      "metarHtml": "METAR EPMO 081930Z 36006KT 330V030 8000 OVC008 M08/M08 Q1009",
      "tafHtml": "TAF EPMO 081730Z 0818/0918 33006KT 5000 <span class=\"hl\">BR</span> BKN008 \n  BECMG 0818/0820 3500 <span class=\"hl\">BR</span> \n  TEMPO 0820/0910 2000 -<span class=\"hl\">SN</span> <span class=\"hl\">BR</span> BKN003 \n  BECMG 0909/0912 BKN010 \n  PROB40 \n  TEMPO 0910/0916 6000 SCT012 \n  TEMPO 0916/0918 2500 -<span class=\"hl\">SN</span> <span class=\"hl\">BR</span> BKN006"
    },
    {
      "icao": "EPRA",
      "iata": "RDO",
      "name": "Warsaw Radom Airport",
      "updatedAt": "081930Z",
      "visibility_m": 7000,
      "taf_visibility_m": 3000,
      "worst_visibility_m": 3000,
      "ceiling_ft": 700,
      "hazards": [
        "BR",
        "SN"
      ],
      "severityScore": 53,
      "metarRaw": "METAR EPRA 081930Z 33010KT 7000 OVC007 M09/M10 Q1007",
      "tafRaw": "TAF EPRA 081730Z 0818/0903 33010KT 6000 OVC008 \n  PROB40 \n  TEMPO 0818/0822 3000 -SN BR BKN005 OVC010 \n  BECMG 0901/0903 OVC014",
      "metarHtml": "METAR EPRA 081930Z 33010KT 7000 OVC007 M09/M10 Q1007",
      "tafHtml": "TAF EPRA 081730Z 0818/0903 33010KT 6000 OVC008 \n  PROB40 \n  TEMPO 0818/0822 3000 -<span class=\"hl\">SN</span> <span class=\"hl\">BR</span> BKN005 OVC010 \n  BECMG 0901/0903 OVC014"
    },
    {
      "icao": "EPWA",
      "iata": "WAW",
      "name": "Warsaw Chopin Airport",
      "updatedAt": "081930Z",
      "visibility_m": 10000,
      "taf_visibility_m": 2500,
      "worst_visibility_m": 2500,
      "ceiling_ft": 900,
      "hazards": [
        "BR",
        "SN"
      ],
      "severityScore": 53,
      "metarRaw": "METAR EPWA 081930Z 34011KT 300V360 9999 OVC009 M08/M09 Q1009 NOSIG",
      "tafRaw": "TAF EPWA 081730Z 0818/0918 33007KT 6000 BKN008 \n  BECMG 0818/0820 4000 BR \n  TEMPO 0818/0912 2500 -SN BR \n  PROB40 \n  TEMPO 0822/0909 BKN003 \n  BECMG 0909/0912 BKN010 \n  PROB40 \n  TEMPO 0910/0916 7000 SCT012 \n  TEMPO 0916/0918 3000 -SN BR BKN006",
      "metarHtml": "METAR EPWA 081930Z 34011KT 300V360 9999 OVC009 M08/M09 Q1009 NOSIG",
      "tafHtml": "TAF EPWA 081730Z 0818/0918 33007KT 6000 BKN008 \n  BECMG 0818/0820 4000 <span class=\"hl\">BR</span> \n  TEMPO 0818/0912 2500 -<span class=\"hl\">SN</span> <span class=\"hl\">BR</span> \n  PROB40 \n  TEMPO 0822/0909 BKN003 \n  BECMG 0909/0912 BKN010 \n  PROB40 \n  TEMPO 0910/0916 7000 SCT012 \n  TEMPO 0916/0918 3000 -<span class=\"hl\">SN</span> <span class=\"hl\">BR</span> BKN006"
    },
    {
      "icao": "LTAC",
      "iata": "ESB",
      "name": "Esenboğa International Airport",
      "updatedAt": "081926Z",
      "visibility_m": 6000,
      "taf_visibility_m": 2500,
      "worst_visibility_m": 2500,
      "ceiling_ft": 3000,
      "hazards": [
        "BR",
        "SN",
        "SHRA",
        "SHSN"
      ],
      "severityScore": 52,
      "metarRaw": "SPECI LTAC 081926Z 20011KT 6000 FEW015 BKN030 BKN080 05/03 Q1003 RESHRA NOSIG",
      "tafRaw": "TAF LTAC 081640Z 0818/0918 25015KT 6000 BKN030 BKN080 \n  TEMPO 0818/0822 4000 -SHRA BR \n  TEMPO 0822/0902 4000 -RASN BR \n  TEMPO 0903/0907 2500 -SN BR \n  TEMPO 0913/0917 25015G25KT 2500 -SHSN BR",
      "metarHtml": "SPECI LTAC 081926Z 20011KT 6000 FEW015 BKN030 BKN080 05/03 Q1003 RESHRA NOSIG",
      "tafHtml": "TAF LTAC 081640Z 0818/0918 25015KT 6000 BKN030 BKN080 \n  TEMPO 0818/0822 4000 -<span class=\"hl\">SHRA</span> <span class=\"hl\">BR</span> \n  TEMPO 0822/0902 4000 -RASN <span class=\"hl\">BR</span> \n  TEMPO 0903/0907 2500 -<span class=\"hl\">SN</span> <span class=\"hl\">BR</span> \n  TEMPO 0913/0917 25015G25KT 2500 -<span class=\"hl\">SHSN</span> <span class=\"hl\">BR</span>"
    },
    {
      "icao": "EGKK",
      "iata": "LGW",
      "name": "London Gatwick Airport",
      "updatedAt": "081920Z",
      "visibility_m": 6000,
      "taf_visibility_m": 2000,
      "worst_visibility_m": 2000,
      "ceiling_ft": 700,
      "hazards": [
        "RA",
        "SHRA"
      ],
      "severityScore": 51,
      "metarRaw": "METAR EGKK 081920Z 19010KT 150V220 6000 RA FEW004 BKN007 09/09 Q0984",
      "tafRaw": "TAF EGKK 081704Z 0818/0924 10011KT 9999 SCT010 BKN020 \n  BECMG 0818/0820 19012KT \n  TEMPO 0818/0904 6000 RA BKN010 \n  PROB40 \n  TEMPO 0818/0904 4000 +RA RADZ BKN006 \n  PROB30 \n  TEMPO 0818/0819 12015G25KT \n  TEMPO 0819/0823 20016G27KT \n  BECMG 0823/0902 32016G26KT \n  TEMPO 0904/0912 6000 -RASN BKN008 \n  PROB30 \n  TEMPO 0904/0911 32019G36KT 2000 RASN BKN004 \n  TEMPO 0912/0921 6000 RA SHRA BKN008",
      "metarHtml": "METAR EGKK 081920Z 19010KT 150V220 6000 <span class=\"hl\">RA</span> FEW004 BKN007 09/09 Q0984",
      "tafHtml": "TAF EGKK 081704Z 0818/0924 10011KT 9999 SCT010 BKN020 \n  BECMG 0818/0820 19012KT \n  TEMPO 0818/0904 6000 <span class=\"hl\">RA</span> BKN010 \n  PROB40 \n  TEMPO 0818/0904 4000 +<span class=\"hl\">RA</span> RADZ BKN006 \n  PROB30 \n  TEMPO 0818/0819 12015G25KT \n  TEMPO 0819/0823 20016G27KT \n  BECMG 0823/0902 32016G26KT \n  TEMPO 0904/0912 6000 -RASN BKN008 \n  PROB30 \n  TEMPO 0904/0911 32019G36KT 2000 RASN BKN004 \n  TEMPO 0912/0921 6000 <span class=\"hl\">RA</span> <span class=\"hl\">SHRA</span> BKN008"
    },
    {
      "icao": "EPKK",
      "iata": "KRK",
      "name": "Kraków John Paul II International Airport",
      "updatedAt": "081930Z",
      "visibility_m": 10000,
      "taf_visibility_m": 1200,
      "worst_visibility_m": 1200,
      "ceiling_ft": 1100,
      "hazards": [
        "BR",
        "SN"
      ],
      "severityScore": 50,
      "metarRaw": "METAR EPKK 081930Z 28008KT 9999 BKN011 M05/M08 Q1009",
      "tafRaw": "TAF EPKK 081730Z 0818/0918 27010KT 9999 BKN020 \n  TEMPO 0818/0906 4000 -SN BR BKN012 \n  BECMG 0902/0904 VRB02KT \n  PROB30 0904/0908 1200 BR \n  BECMG 0912/0915 07010KT",
      "metarHtml": "METAR EPKK 081930Z 28008KT 9999 BKN011 M05/M08 Q1009",
      "tafHtml": "TAF EPKK 081730Z 0818/0918 27010KT 9999 BKN020 \n  TEMPO 0818/0906 4000 -<span class=\"hl\">SN</span> <span class=\"hl\">BR</span> BKN012 \n  BECMG 0902/0904 VRB02KT \n  PROB30 0904/0908 1200 <span class=\"hl\">BR</span> \n  BECMG 0912/0915 07010KT"
    },
    {
      "icao": "LIRP",
      "iata": "PSA",
      "name": "Pisa International Airport",
      "updatedAt": "081915Z",
      "visibility_m": 10000,
      "taf_visibility_m": 800,
      "worst_visibility_m": 800,
      "ceiling_ft": null,
      "hazards": [
        "RA",
        "BR"
      ],
      "severityScore": 47,
      "metarRaw": "METAR LIRP 081915Z COR 10005KT 9999 -RA SCT015 SCT030 05/04 Q1013 NOSIG",
      "tafRaw": "TAF LIRP 081700Z 0818/0918 11010KT 9999 SCT030 BKN040 \n  PROB40 \n  TEMPO 0821/0905 3000 BR SCT015 BKN030 \n  PROB30 \n  TEMPO 0900/0904 0800 \n  BECMG 0906/0908 27015KT RA \n  BECMG 0911/0913 27015G25KT NSW",
      "metarHtml": "METAR LIRP 081915Z COR 10005KT 9999 -<span class=\"hl\">RA</span> SCT015 SCT030 05/04 Q1013 NOSIG",
      "tafHtml": "TAF LIRP 081700Z 0818/0918 11010KT 9999 SCT030 BKN040 \n  PROB40 \n  TEMPO 0821/0905 3000 <span class=\"hl\">BR</span> SCT015 BKN030 \n  PROB30 \n  TEMPO 0900/0904 <span class=\"hl-vis\">0800</span> \n  BECMG 0906/0908 27015KT <span class=\"hl\">RA</span> \n  BECMG 0911/0913 27015G25KT NSW"
    },
    {
      "icao": "EPLB",
      "iata": "LUZ",
      "name": "Lublin Airport",
      "updatedAt": "081930Z",
      "visibility_m": 4400,
      "taf_visibility_m": null,
      "worst_visibility_m": 4400,
      "ceiling_ft": 1100,
      "hazards": [
        "BR",
        "SN"
      ],
      "severityScore": 45,
      "metarRaw": "METAR EPLB 081930Z 32012KT 4400 -SN DRSN BR BKN011 OVC013 M08/M09 Q1004",
      "tafRaw": null,
      "metarHtml": "METAR EPLB 081930Z 32012KT 4400 -<span class=\"hl\">SN</span> DRSN <span class=\"hl\">BR</span> BKN011 OVC013 M08/M09 Q1004",
      "tafHtml": null
    },
    {
      "icao": "LPPT",
      "iata": "LIS",
      "name": "Lisbon Humberto Delgado Airport",
      "updatedAt": "081930Z",
      "visibility_m": 5000,
      "taf_visibility_m": 3000,
      "worst_visibility_m": 3000,
      "ceiling_ft": 600,
      "hazards": [
        "BR",
        "DZ"
      ],
      "severityScore": 45,
      "metarRaw": "METAR LPPT 081930Z 23008KT 200V260 5000 -DZ BR FEW002 SCT004 BKN006 13/12 Q1030",
      "tafRaw": "TAF LPPT 081700Z 0818/0924 25008KT 9999 SCT012 BKN018 \n  TEMPO 0818/0906 3000 RADZ BR SCT003 BKN005 \n  BECMG 0906/0909 32010KT SCT020 \n  BECMG 0919/0921 29005KT",
      "metarHtml": "METAR LPPT 081930Z 23008KT 200V260 5000 -<span class=\"hl\">DZ</span> <span class=\"hl\">BR</span> FEW002 SCT004 BKN006 13/12 Q1030",
      "tafHtml": "TAF LPPT 081700Z 0818/0924 25008KT 9999 SCT012 BKN018 \n  TEMPO 0818/0906 3000 RADZ <span class=\"hl\">BR</span> SCT003 BKN005 \n  BECMG 0906/0909 32010KT SCT020 \n  BECMG 0919/0921 29005KT"
    },
    {
      "icao": "LRBV",
      "iata": "GHV",
      "name": "Brașov-Ghimbav International Airport",
      "updatedAt": "081930Z",
      "visibility_m": 2900,
      "taf_visibility_m": null,
      "worst_visibility_m": 2900,
      "ceiling_ft": 1700,
      "hazards": [
        "BR",
        "SN"
      ],
      "severityScore": 45,
      "metarRaw": "METAR LRBV 081930Z 29012G22KT 260V320 2900 SN BR FEW003 BKN017 OVC020 M07/M09 Q1003",
      "tafRaw": null,
      "metarHtml": "METAR LRBV 081930Z 29012G22KT 260V320 2900 <span class=\"hl\">SN</span> <span class=\"hl\">BR</span> FEW003 BKN017 OVC020 M07/M09 Q1003",
      "tafHtml": null
    },
    {
      "icao": "LFPO",
      "iata": "ORY",
      "name": "Paris-Orly Airport",
      "updatedAt": "081930Z",
      "visibility_m": 4000,
      "taf_visibility_m": null,
      "worst_visibility_m": 4000,
      "ceiling_ft": 900,
      "hazards": [
        "RA"
      ],
      "severityScore": 42,
      "metarRaw": "METAR LFPO 081930Z 20018KT 9999 -RA BKN009 09/09 Q0996 TEMPO 20020G35KT 4000 RA",
      "tafRaw": null,
      "metarHtml": "METAR LFPO 081930Z 20018KT 9999 -<span class=\"hl\">RA</span> BKN009 09/09 Q0996 TEMPO 20020G35KT 4000 <span class=\"hl\">RA</span>",
      "tafHtml": null
    },
    {
      "icao": "ENTO",
      "iata": "TRF",
      "name": "Sandefjord Airport, Torp",
      "updatedAt": "081920Z",
      "visibility_m": 10000,
      "taf_visibility_m": 1200,
      "worst_visibility_m": 1200,
      "ceiling_ft": 1200,
      "hazards": [
        "SN"
      ],
      "severityScore": 40,
      "metarRaw": "METAR ENTO 081920Z 34006KT 9999 -SN FEW011 BKN016 M09/M12 Q1010 TEMPO BKN012",
      "tafRaw": "TAF ENTO 081700Z 0818/0918 35010KT 9999 BKN015 \n  BECMG 0818/0820 BKN010 \n  TEMPO 0820/0901 1200 SN VV006 \n  BECMG 0902/0904 10008KT BKN020 \n  BECMG 0913/0915 03012KT",
      "metarHtml": "METAR ENTO 081920Z 34006KT 9999 -<span class=\"hl\">SN</span> FEW011 BKN016 M09/M12 Q1010 TEMPO BKN012",
      "tafHtml": "TAF ENTO 081700Z 0818/0918 35010KT 9999 BKN015 \n  BECMG 0818/0820 BKN010 \n  TEMPO 0820/0901 1200 <span class=\"hl\">SN</span> VV006 \n  BECMG 0902/0904 10008KT BKN020 \n  BECMG 0913/0915 03012KT"
    },
    {
      "icao": "EPRZ",
      "iata": "RZE",
      "name": "Rzeszów-Jasionka Airport",
      "updatedAt": "081930Z",
      "visibility_m": 4000,
      "taf_visibility_m": 2000,
      "worst_visibility_m": 2000,
      "ceiling_ft": 1500,
      "hazards": [
        "BR",
        "SN"
      ],
      "severityScore": 40,
      "metarRaw": "METAR EPRZ 081930Z 29009KT 4000 -SN BR OVC015 M06/M08 Q1006",
      "tafRaw": "TAF EPRZ 081730Z 0818/0918 31012KT 3000 -SN BR FEW010 BKN015 \n  TEMPO 0818/0906 30015G25KT 2000 SN DRSN BKN007 BKN012 \n  BECMG 0821/0824 7000",
      "metarHtml": "METAR EPRZ 081930Z 29009KT 4000 -<span class=\"hl\">SN</span> <span class=\"hl\">BR</span> OVC015 M06/M08 Q1006",
      "tafHtml": "TAF EPRZ 081730Z 0818/0918 31012KT 3000 -<span class=\"hl\">SN</span> <span class=\"hl\">BR</span> FEW010 BKN015 \n  TEMPO 0818/0906 30015G25KT 2000 <span class=\"hl\">SN</span> DRSN BKN007 BKN012 \n  BECMG 0821/0824 7000"
    },
    {
      "icao": "LUKK",
      "iata": "RMO",
      "name": "Chişinău International Airport",
      "updatedAt": "081930Z",
      "visibility_m": 5000,
      "taf_visibility_m": 4000,
      "worst_visibility_m": 4000,
      "ceiling_ft": null,
      "hazards": [
        "SN",
        "BLSN"
      ],
      "severityScore": 40,
      "metarRaw": "METAR LUKK 081930Z 32019KT 9999 -SN DRSN SCT025 M03/M08 Q0996 TEMPO 31018G30KT 5000 BLSN",
      "tafRaw": "TAF LUKK 081719Z 0818/0918 30016KT 9999 SCT010 BKN015 \n  TEMPO 0818/0820 31018G30KT 4000 -SN BLSN BKN010 \n  TEMPO 0820/0906 31018G28KT 5000 BLSN \n  BECMG 0910/0912 27009KT BKN030",
      "metarHtml": "METAR LUKK 081930Z 32019KT 9999 -<span class=\"hl\">SN</span> DRSN SCT025 M03/M08 Q0996 TEMPO 31018G30KT 5000 <span class=\"hl\">BLSN</span>",
      "tafHtml": "TAF LUKK 081719Z 0818/0918 30016KT 9999 SCT010 BKN015 \n  TEMPO 0818/0820 31018G30KT 4000 -<span class=\"hl\">SN</span> <span class=\"hl\">BLSN</span> BKN010 \n  TEMPO 0820/0906 31018G28KT 5000 <span class=\"hl\">BLSN</span> \n  BECMG 0910/0912 27009KT BKN030"
    },
    {
      "icao": "LCLK",
      "iata": "LCA",
      "name": "Larnaca International Airport",
      "updatedAt": "081930Z",
      "visibility_m": 10000,
      "taf_visibility_m": 2000,
      "worst_visibility_m": 2000,
      "ceiling_ft": null,
      "hazards": [
        "TSRA",
        "SHRA"
      ],
      "severityScore": 39,
      "metarRaw": "METAR LCLK 081930Z 23005KT 190V270 CAVOK 18/17 Q1010 NOSIG",
      "tafRaw": "TAF LCLK 081730Z 0818/0918 22009KT 9999 FEW025 \n  TEMPO 0820/0906 23019KT \n  PROB30 \n  TEMPO 0820/0902 VRB20G30KT 4000 SHRA SCT020TCU \n  PROB30 \n  TEMPO 0909/0913 4000 SHRA SCT020TCU \n  PROB30 \n  TEMPO 0909/0913 29030G40KT 2000 TSRA SCT020CB \n  BECMG 0909/0912 29025G35KT",
      "metarHtml": "METAR LCLK 081930Z 23005KT 190V270 <span class=\"hl-vis\">CAVOK</span> 18/17 Q1010 NOSIG",
      "tafHtml": "TAF LCLK 081730Z 0818/0918 22009KT 9999 FEW025 \n  TEMPO 0820/0906 23019KT \n  PROB30 \n  TEMPO 0820/0902 VRB20G30KT 4000 <span class=\"hl\">SHRA</span> SCT020TCU \n  PROB30 \n  TEMPO 0909/0913 4000 <span class=\"hl\">SHRA</span> SCT020TCU \n  PROB30 \n  TEMPO 0909/0913 29030G40KT 2000 <span class=\"hl\">TSRA</span> SCT020CB \n  BECMG 0909/0912 29025G35KT"
    },
    {
      "icao": "LCPH",
      "iata": "PFO",
      "name": "Paphos International Airport",
      "updatedAt": "081930Z",
      "visibility_m": 8000,
      "taf_visibility_m": 2000,
      "worst_visibility_m": 2000,
      "ceiling_ft": 5000,
      "hazards": [
        "TSRA",
        "SHRA"
      ],
      "severityScore": 39,
      "metarRaw": "METAR LCPH 081930Z 00000KT 8000 FEW035 BKN050 17/15 Q1010 NOSIG",
      "tafRaw": "TAF LCPH 081730Z 0818/0918 09007KT 9999 SCT020 BKN035 \n  PROB40 \n  TEMPO 0818/0914 30025G35KT 4000 SHRA SCT020TCU \n  BECMG 0818/0821 29025KT \n  PROB30 \n  TEMPO 0905/0914 2000 TSRA SCT020CB \n  BECMG 0907/0910 30032G42KT",
      "metarHtml": "METAR LCPH 081930Z 00000KT 8000 FEW035 BKN050 17/15 Q1010 NOSIG",
      "tafHtml": "TAF LCPH 081730Z 0818/0918 09007KT 9999 SCT020 BKN035 \n  PROB40 \n  TEMPO 0818/0914 30025G35KT 4000 <span class=\"hl\">SHRA</span> SCT020TCU \n  BECMG 0818/0821 29025KT \n  PROB30 \n  TEMPO 0905/0914 2000 <span class=\"hl\">TSRA</span> SCT020CB \n  BECMG 0907/0910 30032G42KT"
    },
    {
      "icao": "LRBS",
      "iata": "BBU",
      "name": "Bucharest Băneasa Aurel Vlaicu International Airport",
      "updatedAt": "081930Z",
      "visibility_m": 10000,
      "taf_visibility_m": 1500,
      "worst_visibility_m": 1500,
      "ceiling_ft": 4100,
      "hazards": [
        "BR",
        "SN"
      ],
      "severityScore": 38,
      "metarRaw": "METAR LRBS 081930Z 26012KT 9999 OVC041 M02/M03 Q1002 NOSIG",
      "tafRaw": "TAF LRBS 081700Z 0818/0918 24012KT 3000 -SN BR BKN010 OVC020 \n  TEMPO 0818/0820 1500 -SN BR BKN005 OVC015 \n  BECMG 0820/0822 9999 NSW BKN020",
      "metarHtml": "METAR LRBS 081930Z 26012KT 9999 OVC041 M02/M03 Q1002 NOSIG",
      "tafHtml": "TAF LRBS 081700Z 0818/0918 24012KT 3000 -<span class=\"hl\">SN</span> <span class=\"hl\">BR</span> BKN010 OVC020 \n  TEMPO 0818/0820 1500 -<span class=\"hl\">SN</span> <span class=\"hl\">BR</span> BKN005 OVC015 \n  BECMG 0820/0822 9999 NSW BKN020"
    },
    {
      "icao": "LRCL",
      "iata": "CLJ",
      "name": "Cluj Avram Iancu International Airport",
      "updatedAt": "081930Z",
      "visibility_m": 5000,
      "taf_visibility_m": 1500,
      "worst_visibility_m": 1500,
      "ceiling_ft": 7100,
      "hazards": [
        "BR",
        "SN"
      ],
      "severityScore": 38,
      "metarRaw": "METAR LRCL 081930Z 28012KT 5000 -SN BR SCT038 OVC071 M05/M08 Q1005",
      "tafRaw": "TAF LRCL 081700Z 0818/0903 30012KT 5000 -SN BR BKN015 BKN035 \n  TEMPO 0818/0823 1500 SN BKN005 OVC030",
      "metarHtml": "METAR LRCL 081930Z 28012KT 5000 -<span class=\"hl\">SN</span> <span class=\"hl\">BR</span> SCT038 OVC071 M05/M08 Q1005",
      "tafHtml": "TAF LRCL 081700Z 0818/0903 30012KT 5000 -<span class=\"hl\">SN</span> <span class=\"hl\">BR</span> BKN015 BKN035 \n  TEMPO 0818/0823 1500 <span class=\"hl\">SN</span> BKN005 OVC030"
    },
    {
      "icao": "LROP",
      "iata": "OTP",
      "name": "Bucharest Henri Coandă International Airport",
      "updatedAt": "081930Z",
      "visibility_m": 9000,
      "taf_visibility_m": 1500,
      "worst_visibility_m": 1500,
      "ceiling_ft": 4300,
      "hazards": [
        "BR",
        "SN"
      ],
      "severityScore": 38,
      "metarRaw": "METAR LROP 081930Z 25015KT 9000 OVC043 M02/M02 Q1001 NOSIG",
      "tafRaw": "TAF LROP 081700Z 0818/0918 24012KT 3000 -SN BR BKN010 OVC020 \n  TEMPO 0818/0820 1500 -SN BR BKN005 OVC015 \n  BECMG 0820/0822 9999 NSW BKN020",
      "metarHtml": "METAR LROP 081930Z 25015KT 9000 OVC043 M02/M02 Q1001 NOSIG",
      "tafHtml": "TAF LROP 081700Z 0818/0918 24012KT 3000 -<span class=\"hl\">SN</span> <span class=\"hl\">BR</span> BKN010 OVC020 \n  TEMPO 0818/0820 1500 -<span class=\"hl\">SN</span> <span class=\"hl\">BR</span> BKN005 OVC015 \n  BECMG 0820/0822 9999 NSW BKN020"
    },
    {
      "icao": "LRSM",
      "iata": "SUJ",
      "name": "Satu Mare International Airport",
      "updatedAt": "081930Z",
      "visibility_m": 6000,
      "taf_visibility_m": 1500,
      "worst_visibility_m": 1500,
      "ceiling_ft": null,
      "hazards": [
        "SN",
        "BR"
      ],
      "severityScore": 38,
      "metarRaw": "METAR LRSM 081930Z AUTO 26014KT 6000 -SN BKN028/// BKN032/// M06/M07 Q1007",
      "tafRaw": "TAF LRSM 081400Z 0815/0824 26012KT 1500 -SN BR BKN010 OVC025 \n  BECMG 0815/0817 5000 BKN015 BKN035 \n  BECMG 0818/0820 9999 NSW BKN025",
      "metarHtml": "METAR LRSM 081930Z AUTO 26014KT 6000 -<span class=\"hl\">SN</span> BKN028/// BKN032/// M06/M07 Q1007",
      "tafHtml": "TAF LRSM 081400Z 0815/0824 26012KT 1500 -<span class=\"hl\">SN</span> <span class=\"hl\">BR</span> BKN010 OVC025 \n  BECMG 0815/0817 5000 BKN015 BKN035 \n  BECMG 0818/0820 9999 NSW BKN025"
    },
    {
      "icao": "LRTR",
      "iata": "TSR",
      "name": "Timişoara Traian Vuia Airport",
      "updatedAt": "081930Z",
      "visibility_m": 10000,
      "taf_visibility_m": 1500,
      "worst_visibility_m": 1500,
      "ceiling_ft": null,
      "hazards": [
        "BR",
        "SN"
      ],
      "severityScore": 38,
      "metarRaw": "METAR LRTR 081930Z 24005KT 9999 FEW040 M09/M11 Q1011",
      "tafRaw": "TAF LRTR 081700Z 0818/0918 27010KT 9999 BKN030 \n  BECMG 0820/0822 VRB04KT \n  TEMPO 0823/0905 3000 BR BKN005 \n  BECMG 0910/0912 11010KT \n  BECMG 0913/0915 5000 -SN BR \n  TEMPO 0916/0918 1500 SN BR BKN010 OVC020",
      "metarHtml": "METAR LRTR 081930Z 24005KT 9999 FEW040 M09/M11 Q1011",
      "tafHtml": "TAF LRTR 081700Z 0818/0918 27010KT 9999 BKN030 \n  BECMG 0820/0822 VRB04KT \n  TEMPO 0823/0905 3000 <span class=\"hl\">BR</span> BKN005 \n  BECMG 0910/0912 11010KT \n  BECMG 0913/0915 5000 -<span class=\"hl\">SN</span> <span class=\"hl\">BR</span> \n  TEMPO 0916/0918 1500 <span class=\"hl\">SN</span> <span class=\"hl\">BR</span> BKN010 OVC020"
    },
    {
      "icao": "LLBG",
      "iata": "TLV",
      "name": "Ben Gurion International Airport",
      "updatedAt": "081920Z",
      "visibility_m": 10000,
      "taf_visibility_m": 5000,
      "worst_visibility_m": 5000,
      "ceiling_ft": null,
      "hazards": [
        "TSRA",
        "RA"
      ],
      "severityScore": 37,
      "metarRaw": "METAR LLBG 081920Z VRB03KT CAVOK 17/10 Q1015 NOSIG",
      "tafRaw": "TAF LLBG 081720Z 0818/0918 16006KT CAVOK \n  BECMG 0900/0902 22010KT 9999 SCT030 \n  TEMPO 0902/0907 27018G28KT 5000 TSRA FEW020CB BKN025 \n  FM090700 27020G30KT 9999 SCT030 \n  TEMPO 0907/0915 27025G40KT 5000 TSRA FEW020CB BKN025 \n  PROB40 \n  TEMPO 0915/0918 29022G35KT 7000 RA FEW020TCU BKN025 TX18/0911Z TN14/0903Z",
      "metarHtml": "METAR LLBG 081920Z VRB03KT <span class=\"hl-vis\">CAVOK</span> 17/10 Q1015 NOSIG",
      "tafHtml": "TAF LLBG 081720Z 0818/0918 16006KT <span class=\"hl-vis\">CAVOK</span> \n  BECMG 0900/0902 22010KT 9999 SCT030 \n  TEMPO 0902/0907 27018G28KT 5000 <span class=\"hl\">TSRA</span> FEW020CB BKN025 \n  FM090700 27020G30KT 9999 SCT030 \n  TEMPO 0907/0915 27025G40KT 5000 <span class=\"hl\">TSRA</span> FEW020CB BKN025 \n  PROB40 \n  TEMPO 0915/0918 29022G35KT 7000 <span class=\"hl\">RA</span> FEW020TCU BKN025 TX18/0911Z TN14/0903Z"
    },
    {
      "icao": "EDDS",
      "iata": "STR",
      "name": "Stuttgart Airport",
      "updatedAt": "081920Z",
      "visibility_m": 6000,
      "taf_visibility_m": 3000,
      "worst_visibility_m": 3000,
      "ceiling_ft": 3500,
      "hazards": [
        "RA",
        "BR",
        "SHRA"
      ],
      "severityScore": 36,
      "metarRaw": "METAR EDDS 081920Z AUTO VRB02KT 6000 -RADZ SCT020 BKN035 00/M00 Q1004 TEMPO RA",
      "tafRaw": "TAF EDDS 081700Z 0818/0918 15004KT 9999 BKN015 \n  TEMPO 0818/0902 3000 RA BR BKN010 \n  BECMG 0900/0902 20010KT \n  BECMG 0902/0904 20015G25KT \n  TEMPO 0902/0918 20020G35KT \n  PROB40 \n  TEMPO 0902/0907 SHRA BKN015CB \n  PROB40 \n  TEMPO 0913/0918 20025G40KT SHRA BKN015CB",
      "metarHtml": "METAR EDDS 081920Z AUTO VRB02KT 6000 -RADZ SCT020 BKN035 00/M00 Q1004 TEMPO <span class=\"hl\">RA</span>",
      "tafHtml": "TAF EDDS 081700Z 0818/0918 15004KT 9999 BKN015 \n  TEMPO 0818/0902 3000 <span class=\"hl\">RA</span> <span class=\"hl\">BR</span> BKN010 \n  BECMG 0900/0902 20010KT \n  BECMG 0902/0904 20015G25KT \n  TEMPO 0902/0918 20020G35KT \n  PROB40 \n  TEMPO 0902/0907 <span class=\"hl\">SHRA</span> BKN015CB \n  PROB40 \n  TEMPO 0913/0918 20025G40KT <span class=\"hl\">SHRA</span> BKN015CB"
    },
    {
      "icao": "EPSC",
      "iata": "SZZ",
      "name": "Solidarity Szczecin–Goleniów Airport",
      "updatedAt": "081930Z",
      "visibility_m": 5000,
      "taf_visibility_m": 4000,
      "worst_visibility_m": 4000,
      "ceiling_ft": 500,
      "hazards": [
        "BR"
      ],
      "severityScore": 35,
      "metarRaw": "METAR EPSC 081930Z 11007KT 5000 BR OVC005 M08/M09 Q1011",
      "tafRaw": "TAF EPSC 081730Z 0818/0918 11010KT 7000 NSC \n  PROB40 0818/0908 4000 BR BKN005",
      "metarHtml": "METAR EPSC 081930Z 11007KT 5000 <span class=\"hl\">BR</span> OVC005 M08/M09 Q1011",
      "tafHtml": "TAF EPSC 081730Z 0818/0918 11010KT 7000 NSC \n  PROB40 0818/0908 4000 <span class=\"hl\">BR</span> BKN005"
    },
    {
      "icao": "EPSY",
      "iata": "SZY",
      "name": "Olsztyn-Mazury Airport",
      "updatedAt": "081930Z",
      "visibility_m": 8000,
      "taf_visibility_m": 4000,
      "worst_visibility_m": 4000,
      "ceiling_ft": 600,
      "hazards": [
        "BR"
      ],
      "severityScore": 35,
      "metarRaw": "METAR EPSY 081930Z 36008KT 8000 OVC006 M09/M10 Q1010",
      "tafRaw": "TAF EPSY 081730Z 0818/0903 02008KT 8000 OVC006 \n  TEMPO 0818/0822 4000 BR BKN011",
      "metarHtml": "METAR EPSY 081930Z 36008KT 8000 OVC006 M09/M10 Q1010",
      "tafHtml": "TAF EPSY 081730Z 0818/0903 02008KT 8000 OVC006 \n  TEMPO 0818/0822 4000 <span class=\"hl\">BR</span> BKN011"
    },
    {
      "icao": "LYBE",
      "iata": "BEG",
      "name": "Belgrade Nikola Tesla Airport",
      "updatedAt": "081930Z",
      "visibility_m": 10000,
      "taf_visibility_m": 5000,
      "worst_visibility_m": 5000,
      "ceiling_ft": null,
      "hazards": [
        "FZRA"
      ],
      "severityScore": 35,
      "metarRaw": "METAR LYBE 081930Z 23006KT 9999 SCT045 M06/M08 Q1013 NOSIG",
      "tafRaw": "TAF LYBE 081700Z 0818/0918 24006KT CAVOK TX01/0914Z TNM12/0904Z \n  TEMPO 0915/0918 5000 -FZRA",
      "metarHtml": "METAR LYBE 081930Z 23006KT 9999 SCT045 M06/M08 Q1013 NOSIG",
      "tafHtml": "TAF LYBE 081700Z 0818/0918 24006KT <span class=\"hl-vis\">CAVOK</span> TX01/0914Z TNM12/0904Z \n  TEMPO 0915/0918 5000 -<span class=\"hl\">FZRA</span>"
    },
    {
      "icao": "LYNI",
      "iata": "INI",
      "name": "Niš Constantine the Great Airport",
      "updatedAt": "081930Z",
      "visibility_m": 10000,
      "taf_visibility_m": 5000,
      "worst_visibility_m": 5000,
      "ceiling_ft": null,
      "hazards": [
        "FZRA"
      ],
      "severityScore": 35,
      "metarRaw": "METAR LYNI 081930Z 00000KT 9999 SCT050 M06/M09 Q1013 NOSIG",
      "tafRaw": "TAF LYNI 081700Z 0818/0918 19004KT 9999 SCT040 TX02/0914Z TNM10/0905Z \n  TEMPO 0916/0918 5000 -FZRA",
      "metarHtml": "METAR LYNI 081930Z 00000KT 9999 SCT050 M06/M09 Q1013 NOSIG",
      "tafHtml": "TAF LYNI 081700Z 0818/0918 19004KT 9999 SCT040 TX02/0914Z TNM10/0905Z \n  TEMPO 0916/0918 5000 -<span class=\"hl\">FZRA</span>"
    },
    {
      "icao": "EDDK",
      "iata": "CGN",
      "name": "Cologne Bonn Airport",
      "updatedAt": "081920Z",
      "visibility_m": 10000,
      "taf_visibility_m": 2500,
      "worst_visibility_m": 2500,
      "ceiling_ft": 3000,
      "hazards": [
        "RA",
        "SN"
      ],
      "severityScore": 30,
      "metarRaw": "METAR EDDK 081920Z AUTO 13009KT 090V150 9999 -RA FEW014 BKN030 BKN039 02/01 Q1001 TEMPO RA",
      "tafRaw": "TAF EDDK 081700Z 0818/0924 13011KT 9999 BKN020 \n  TEMPO 0819/0902 RA BKN012 \n  PROB30 \n  TEMPO 0819/0821 4000 RASN \n  TEMPO 0900/0904 13015G25KT \n  BECMG 0904/0906 19015G25KT \n  TEMPO 0907/0915 19020G30KT RA \n  BECMG 0915/0918 26010KT \n  TEMPO 0915/0924 4000 RASN BKN008 \n  PROB30 \n  TEMPO 0921/0924 2500 SN",
      "metarHtml": "METAR EDDK 081920Z AUTO 13009KT 090V150 9999 -<span class=\"hl\">RA</span> FEW014 BKN030 BKN039 02/01 Q1001 TEMPO <span class=\"hl\">RA</span>",
      "tafHtml": "TAF EDDK 081700Z 0818/0924 13011KT 9999 BKN020 \n  TEMPO 0819/0902 <span class=\"hl\">RA</span> BKN012 \n  PROB30 \n  TEMPO 0819/0821 4000 RASN \n  TEMPO 0900/0904 13015G25KT \n  BECMG 0904/0906 19015G25KT \n  TEMPO 0907/0915 19020G30KT <span class=\"hl\">RA</span> \n  BECMG 0915/0918 26010KT \n  TEMPO 0915/0924 4000 RASN BKN008 \n  PROB30 \n  TEMPO 0921/0924 2500 <span class=\"hl\">SN</span>"
    },
    {
      "icao": "ENVA",
      "iata": "TRD",
      "name": "Trondheim Airport, Værnes",
      "updatedAt": "081920Z",
      "visibility_m": 3000,
      "taf_visibility_m": 3000,
      "worst_visibility_m": 3000,
      "ceiling_ft": 1400,
      "hazards": [
        "SN"
      ],
      "severityScore": 30,
      "metarRaw": "METAR ENVA 081920Z 13006KT 9999 VCSH FEW020 SCT036 BKN044 M06/M11 Q1005 TEMPO 3000 -SN VV014 RMK WIND 670FT 16009KT",
      "tafRaw": "TAF ENVA 081700Z 0818/0918 14010KT 9999 SCT050 \n  PROB30 \n  TEMPO 0819/0824 3000 -SN VV014 \n  BECMG 0909/0911 16018G28KT",
      "metarHtml": "METAR ENVA 081920Z 13006KT 9999 VCSH FEW020 SCT036 BKN044 M06/M11 Q1005 TEMPO 3000 -<span class=\"hl\">SN</span> VV014 RMK WIND 670FT 16009KT",
      "tafHtml": "TAF ENVA 081700Z 0818/0918 14010KT 9999 SCT050 \n  PROB30 \n  TEMPO 0819/0824 3000 -<span class=\"hl\">SN</span> VV014 \n  BECMG 0909/0911 16018G28KT"
    },
    {
      "icao": "LKPR",
      "iata": "PRG",
      "name": "Václav Havel Airport Prague",
      "updatedAt": "081930Z",
      "visibility_m": 10000,
      "taf_visibility_m": 2000,
      "worst_visibility_m": 2000,
      "ceiling_ft": 1800,
      "hazards": [
        "SN"
      ],
      "severityScore": 30,
      "metarRaw": "METAR LKPR 081930Z 00000KT 9999 OVC018 M04/M06 Q1008 NOSIG",
      "tafRaw": "TAF LKPR 081700Z 0818/0924 20006KT 9999 BKN017 \n  TEMPO 0818/0820 BKN012 \n  BECMG 0821/0823 12007KT \n  BECMG 0904/0906 BKN012 \n  TEMPO 0906/0911 4000 SN OVC006 \n  PROB30 \n  TEMPO 0906/0909 2000 SN OVC003",
      "metarHtml": "METAR LKPR 081930Z 00000KT 9999 OVC018 M04/M06 Q1008 NOSIG",
      "tafHtml": "TAF LKPR 081700Z 0818/0924 20006KT 9999 BKN017 \n  TEMPO 0818/0820 BKN012 \n  BECMG 0821/0823 12007KT \n  BECMG 0904/0906 BKN012 \n  TEMPO 0906/0911 4000 <span class=\"hl\">SN</span> OVC006 \n  PROB30 \n  TEMPO 0906/0909 2000 <span class=\"hl\">SN</span> OVC003"
    },
    {
      "icao": "LFOB",
      "iata": "BVA",
      "name": "Beauvais Tillé airport",
      "updatedAt": "081930Z",
      "visibility_m": 4000,
      "taf_visibility_m": null,
      "worst_visibility_m": 4000,
      "ceiling_ft": 1000,
      "hazards": [
        "RA"
      ],
      "severityScore": 29,
      "metarRaw": "METAR LFOB 081930Z AUTO 19014KT 9999 OVC010 09/08 Q0993 BECMG 21025G35KT 4000 RA OVC020",
      "tafRaw": null,
      "metarHtml": "METAR LFOB 081930Z AUTO 19014KT 9999 OVC010 09/08 Q0993 BECMG 21025G35KT 4000 <span class=\"hl\">RA</span> OVC020",
      "tafHtml": null
    },
    {
      "icao": "EKBI",
      "iata": "BLL",
      "name": "Billund Airport",
      "updatedAt": "081920Z",
      "visibility_m": 6000,
      "taf_visibility_m": 3000,
      "worst_visibility_m": 3000,
      "ceiling_ft": null,
      "hazards": [
        "BR",
        "SN"
      ],
      "severityScore": 28,
      "metarRaw": "METAR EKBI 081920Z AUTO 10010KT 6000 OVC006/// M01/M02 Q1006",
      "tafRaw": "TAF EKBI 081727Z 0818/0918 11008KT 6000 BKN008 \n  TEMPO 0818/0823 4000 BR BKN015 \n  TEMPO 0823/0905 3000 -SN DRSN BKN015 \n  BECMG 0901/0904 11018KT \n  FM090500 09022G36KT 9999 FEW020 \n  TEMPO 0905/0918 DRSN",
      "metarHtml": "METAR EKBI 081920Z AUTO 10010KT 6000 OVC006/// M01/M02 Q1006",
      "tafHtml": "TAF EKBI 081727Z 0818/0918 11008KT 6000 BKN008 \n  TEMPO 0818/0823 4000 <span class=\"hl\">BR</span> BKN015 \n  TEMPO 0823/0905 3000 -<span class=\"hl\">SN</span> DRSN BKN015 \n  BECMG 0901/0904 11018KT \n  FM090500 09022G36KT 9999 FEW020 \n  TEMPO 0905/0918 DRSN"
    },
    {
      "icao": "EPWR",
      "iata": "WRO",
      "name": "Copernicus Wrocław Airport",
      "updatedAt": "081930Z",
      "visibility_m": 4000,
      "taf_visibility_m": 2000,
      "worst_visibility_m": 2000,
      "ceiling_ft": null,
      "hazards": [
        "BR",
        "SN"
      ],
      "severityScore": 28,
      "metarRaw": "METAR EPWR 081930Z 11003KT 4000 BR NSC M10/M11 Q1011",
      "tafRaw": "TAF EPWR 081730Z 0818/0918 12003KT 6000 NSC \n  BECMG 0818/0820 4000 BR \n  TEMPO 0820/0907 2000 BR \n  BECMG 0904/0907 10013KT \n  PROB40 0904/0907 BKN008 \n  BECMG 0908/0911 CAVOK \n  BECMG 0915/0918 BKN013 \n  TEMPO 0915/0918 4000 -SN BR",
      "metarHtml": "METAR EPWR 081930Z 11003KT 4000 <span class=\"hl\">BR</span> NSC M10/M11 Q1011",
      "tafHtml": "TAF EPWR 081730Z 0818/0918 12003KT 6000 NSC \n  BECMG 0818/0820 4000 <span class=\"hl\">BR</span> \n  TEMPO 0820/0907 2000 <span class=\"hl\">BR</span> \n  BECMG 0904/0907 10013KT \n  PROB40 0904/0907 BKN008 \n  BECMG 0908/0911 <span class=\"hl-vis\">CAVOK</span> \n  BECMG 0915/0918 BKN013 \n  TEMPO 0915/0918 4000 -<span class=\"hl\">SN</span> <span class=\"hl\">BR</span>"
    },
    {
      "icao": "ESKN",
      "iata": "NYO",
      "name": "Stockholm Skavsta Airport",
      "updatedAt": "081920Z",
      "visibility_m": 10000,
      "taf_visibility_m": 2000,
      "worst_visibility_m": 2000,
      "ceiling_ft": 2900,
      "hazards": [
        "SN",
        "SHSN"
      ],
      "severityScore": 28,
      "metarRaw": "METAR ESKN 081920Z 04003KT 9999 -SN BKN029 BKN037 M03/M04 Q1015",
      "tafRaw": "TAF ESKN 081730Z 0818/0918 VRB03KT 9999 BKN030 \n  PROB40 0818/0904 2000 SHSN BKN012 BKN020TCU \n  BECMG 0905/0907 09012KT",
      "metarHtml": "METAR ESKN 081920Z 04003KT 9999 -<span class=\"hl\">SN</span> BKN029 BKN037 M03/M04 Q1015",
      "tafHtml": "TAF ESKN 081730Z 0818/0918 VRB03KT 9999 BKN030 \n  PROB40 0818/0904 2000 <span class=\"hl\">SHSN</span> BKN012 BKN020TCU \n  BECMG 0905/0907 09012KT"
    },
    {
      "icao": "ESSA",
      "iata": "ARN",
      "name": "Stockholm-Arlanda Airport",
      "updatedAt": "081920Z",
      "visibility_m": 2500,
      "taf_visibility_m": 2500,
      "worst_visibility_m": 2500,
      "ceiling_ft": 5100,
      "hazards": [
        "SN",
        "SHSN"
      ],
      "severityScore": 28,
      "metarRaw": "METAR ESSA 081920Z 14008KT 9999 -SN SCT038 OVC051 M02/M04 Q1016 TEMPO 2500 SHSN BKN025CB",
      "tafRaw": "TAF ESSA 081730Z 0818/0918 16010KT 9999 BKN040 \n  PROB40 0818/0902 2500 -SHSN BKN013 BKN025TCU \n  PROB40 0907/0909 4000 -SHSN BKN014 BKN030TCU \n  BECMG 0900/0902 10007KT",
      "metarHtml": "METAR ESSA 081920Z 14008KT 9999 -<span class=\"hl\">SN</span> SCT038 OVC051 M02/M04 Q1016 TEMPO 2500 <span class=\"hl\">SHSN</span> BKN025CB",
      "tafHtml": "TAF ESSA 081730Z 0818/0918 16010KT 9999 BKN040 \n  PROB40 0818/0902 2500 -<span class=\"hl\">SHSN</span> BKN013 BKN025TCU \n  PROB40 0907/0909 4000 -<span class=\"hl\">SHSN</span> BKN014 BKN030TCU \n  BECMG 0900/0902 10007KT"
    },
    {
      "icao": "LBWN",
      "iata": "VAR",
      "name": "Varna Airport",
      "updatedAt": "081930Z",
      "visibility_m": 10000,
      "taf_visibility_m": 2000,
      "worst_visibility_m": 2000,
      "ceiling_ft": null,
      "hazards": [
        "SHSN",
        "SN"
      ],
      "severityScore": 28,
      "metarRaw": "METAR LBWN 081930Z AUTO 28025KT 9999 -SHSN SCT024/// M01/M05 Q1002 TEMPO 28028G40KT",
      "tafRaw": "TAF LBWN 081700Z 0818/0918 28030G40KT 9999 BKN020 OVC040 \n  PROB40 \n  TEMPO 0818/0820 2000 SN SCT010 BKN015 OVC030 \n  BECMG 0906/0908 28018KT",
      "metarHtml": "METAR LBWN 081930Z AUTO 28025KT 9999 -<span class=\"hl\">SHSN</span> SCT024/// M01/M05 Q1002 TEMPO 28028G40KT",
      "tafHtml": "TAF LBWN 081700Z 0818/0918 28030G40KT 9999 BKN020 OVC040 \n  PROB40 \n  TEMPO 0818/0820 2000 <span class=\"hl\">SN</span> SCT010 BKN015 OVC030 \n  BECMG 0906/0908 28018KT"
    },
    {
      "icao": "LRIA",
      "iata": "IAS",
      "name": "Iaşi Airport",
      "updatedAt": "081930Z",
      "visibility_m": 10000,
      "taf_visibility_m": 3000,
      "worst_visibility_m": 3000,
      "ceiling_ft": 4000,
      "hazards": [
        "BR",
        "SN"
      ],
      "severityScore": 28,
      "metarRaw": "METAR LRIA 081930Z 30020G34KT 9999 OVC040 M03/M07 Q0998",
      "tafRaw": "TAF LRIA 081700Z 0818/0903 30017KT 9999 OVC040 \n  TEMPO 0818/0822 30018G28KT 3000 -SN BR BKN015 OVC040",
      "metarHtml": "METAR LRIA 081930Z 30020G34KT 9999 OVC040 M03/M07 Q0998",
      "tafHtml": "TAF LRIA 081700Z 0818/0903 30017KT 9999 OVC040 \n  TEMPO 0818/0822 30018G28KT 3000 -<span class=\"hl\">SN</span> <span class=\"hl\">BR</span> BKN015 OVC040"
    },
    {
      "icao": "LRBC",
      "iata": "BCM",
      "name": "Bacău George Enescu International  Airport",
      "updatedAt": "081930Z",
      "visibility_m": 7000,
      "taf_visibility_m": 3000,
      "worst_visibility_m": 3000,
      "ceiling_ft": 5500,
      "hazards": [
        "BR",
        "SN"
      ],
      "severityScore": 28,
      "metarRaw": "METAR LRBC 081930Z 03003KT 330V070 7000 OVC055 M04/M06 Q0999",
      "tafRaw": "TAF LRBC 081700Z 0818/0903 36007KT 3000 -SN BR OVC020 \n  BECMG 0818/0820 9999 NSW",
      "metarHtml": "METAR LRBC 081930Z 03003KT 330V070 7000 OVC055 M04/M06 Q0999",
      "tafHtml": "TAF LRBC 081700Z 0818/0903 36007KT 3000 -<span class=\"hl\">SN</span> <span class=\"hl\">BR</span> OVC020 \n  BECMG 0818/0820 9999 NSW"
    },
    {
      "icao": "LZIB",
      "iata": "BTS",
      "name": "M. R. Štefánik Airport",
      "updatedAt": "081930Z",
      "visibility_m": 10000,
      "taf_visibility_m": 1400,
      "worst_visibility_m": 1400,
      "ceiling_ft": 2800,
      "hazards": [
        "SN"
      ],
      "severityScore": 28,
      "metarRaw": "METAR LZIB 081930Z 21003KT 9999 BKN028 M02/M08 Q1011 NOSIG",
      "tafRaw": "TAF LZIB 081715Z 0818/0918 VRB02KT CAVOK \n  BECMG 0907/0909 SCT008 OVC014 \n  TEMPO 0907/0913 2500 -SN \n  PROB30 \n  TEMPO 0908/0911 1400 SN BKN005",
      "metarHtml": "METAR LZIB 081930Z 21003KT 9999 BKN028 M02/M08 Q1011 NOSIG",
      "tafHtml": "TAF LZIB 081715Z 0818/0918 VRB02KT <span class=\"hl-vis\">CAVOK</span> \n  BECMG 0907/0909 SCT008 OVC014 \n  TEMPO 0907/0913 2500 -<span class=\"hl\">SN</span> \n  PROB30 \n  TEMPO 0908/0911 1400 <span class=\"hl\">SN</span> BKN005"
    },
    {
      "icao": "LZKZ",
      "iata": "KSC",
      "name": "Košice International Airport",
      "updatedAt": "081930Z",
      "visibility_m": 10000,
      "taf_visibility_m": 2000,
      "worst_visibility_m": 2000,
      "ceiling_ft": 4300,
      "hazards": [
        "SN",
        "BR"
      ],
      "severityScore": 28,
      "metarRaw": "METAR LZKZ 081930Z 35009KT 9999 -SN FEW037 BKN043 M03/M09 Q1006 NOSIG",
      "tafRaw": "TAF LZKZ 081715Z 0818/0918 34007KT CAVOK \n  BECMG 0820/0822 VRB02KT \n  PROB30 \n  TEMPO 0903/0908 2000 BR SCT002 \n  BECMG 0912/0914 BKN020 \n  TEMPO 0914/0918 BKN012",
      "metarHtml": "METAR LZKZ 081930Z 35009KT 9999 -<span class=\"hl\">SN</span> FEW037 BKN043 M03/M09 Q1006 NOSIG",
      "tafHtml": "TAF LZKZ 081715Z 0818/0918 34007KT <span class=\"hl-vis\">CAVOK</span> \n  BECMG 0820/0822 VRB02KT \n  PROB30 \n  TEMPO 0903/0908 2000 <span class=\"hl\">BR</span> SCT002 \n  BECMG 0912/0914 BKN020 \n  TEMPO 0914/0918 BKN012"
    },
    {
      "icao": "EDSB",
      "iata": "FKB",
      "name": "Karlsruhe Baden-Baden Airport",
      "updatedAt": "081920Z",
      "visibility_m": 9000,
      "taf_visibility_m": 4000,
      "worst_visibility_m": 4000,
      "ceiling_ft": 3400,
      "hazards": [
        "RA",
        "SHRA"
      ],
      "severityScore": 26,
      "metarRaw": "METAR EDSB 081920Z 20006KT 9000 RA SCT026 BKN034 OVC039 04/03 Q1005",
      "tafRaw": "TAF EDSB 081700Z 0818/0918 20010KT 9999 BKN020 \n  TEMPO 0818/0901 4000 RA BKN010 \n  BECMG 0820/0822 20015G25KT \n  BECMG 0900/0902 21020G35KT \n  TEMPO 0901/0918 SHRA BKN020CB \n  PROB40 \n  TEMPO 0908/0915 21030G45KT",
      "metarHtml": "METAR EDSB 081920Z 20006KT 9000 <span class=\"hl\">RA</span> SCT026 BKN034 OVC039 04/03 Q1005",
      "tafHtml": "TAF EDSB 081700Z 0818/0918 20010KT 9999 BKN020 \n  TEMPO 0818/0901 4000 <span class=\"hl\">RA</span> BKN010 \n  BECMG 0820/0822 20015G25KT \n  BECMG 0900/0902 21020G35KT \n  TEMPO 0901/0918 <span class=\"hl\">SHRA</span> BKN020CB \n  PROB40 \n  TEMPO 0908/0915 21030G45KT"
    },
    {
      "icao": "LFLL",
      "iata": "LYS",
      "name": "Lyon Saint-Exupéry Airport",
      "updatedAt": "081930Z",
      "visibility_m": 10000,
      "taf_visibility_m": 3000,
      "worst_visibility_m": 3000,
      "ceiling_ft": 7000,
      "hazards": [
        "RA",
        "SHRA"
      ],
      "severityScore": 26,
      "metarRaw": "METAR LFLL 081930Z 18015KT 9999 SCT051 BKN070 07/04 Q1011 NOSIG",
      "tafRaw": "TAF LFLL 081700Z 0818/0924 18015G25KT 9999 BKN045 \n  PROB30 \n  TEMPO 0818/0820 RA \n  TEMPO 0822/0904 18020G35KT \n  PROB30 \n  TEMPO 0900/0909 4000 RA SCT030TCU \n  BECMG 0907/0909 21010KT \n  PROB40 \n  TEMPO 0914/0924 34010KT 3000 SHRA BKN025TCU",
      "metarHtml": "METAR LFLL 081930Z 18015KT 9999 SCT051 BKN070 07/04 Q1011 NOSIG",
      "tafHtml": "TAF LFLL 081700Z 0818/0924 18015G25KT 9999 BKN045 \n  PROB30 \n  TEMPO 0818/0820 <span class=\"hl\">RA</span> \n  TEMPO 0822/0904 18020G35KT \n  PROB30 \n  TEMPO 0900/0909 4000 <span class=\"hl\">RA</span> SCT030TCU \n  BECMG 0907/0909 21010KT \n  PROB40 \n  TEMPO 0914/0924 34010KT 3000 <span class=\"hl\">SHRA</span> BKN025TCU"
    },
    {
      "icao": "LFSB",
      "iata": "BSL",
      "name": "EuroAirport Basel–Mulhouse–Freiburg",
      "updatedAt": "081930Z",
      "visibility_m": 8000,
      "taf_visibility_m": 4000,
      "worst_visibility_m": 4000,
      "ceiling_ft": 3500,
      "hazards": [
        "RA",
        "SHRA"
      ],
      "severityScore": 26,
      "metarRaw": "METAR LFSB 081930Z AUTO 17007KT 8000 BKN027/// BKN035/// BKN054/// ///CB 03/03 Q1006 BECMG SCT020 BKN035",
      "tafRaw": "TAF LFSB 081700Z 0818/0918 21012KT 9999 SCT020 BKN035 \n  TEMPO 0818/0820 15005KT 4000 -RA BKN014 \n  BECMG 0823/0902 23020G30KT \n  TEMPO 0902/0918 -SHRA SCT030TCU \n  PROB40 \n  TEMPO 0902/0905 22025G40KT 4000 SHRA SCT025CB \n  PROB40 \n  TEMPO 0916/0918 4000 SHRA SCT025CB",
      "metarHtml": "METAR LFSB 081930Z AUTO 17007KT 8000 BKN027/// BKN035/// BKN054/// ///CB 03/03 Q1006 BECMG SCT020 BKN035",
      "tafHtml": "TAF LFSB 081700Z 0818/0918 21012KT 9999 SCT020 BKN035 \n  TEMPO 0818/0820 15005KT 4000 -<span class=\"hl\">RA</span> BKN014 \n  BECMG 0823/0902 23020G30KT \n  TEMPO 0902/0918 -<span class=\"hl\">SHRA</span> SCT030TCU \n  PROB40 \n  TEMPO 0902/0905 22025G40KT 4000 <span class=\"hl\">SHRA</span> SCT025CB \n  PROB40 \n  TEMPO 0916/0918 4000 <span class=\"hl\">SHRA</span> SCT025CB"
    },
    {
      "icao": "LIRN",
      "iata": "NAP",
      "name": "Naples International Airport",
      "updatedAt": "081920Z",
      "visibility_m": 10000,
      "taf_visibility_m": 4000,
      "worst_visibility_m": 4000,
      "ceiling_ft": null,
      "hazards": [
        "RA",
        "SHRA"
      ],
      "severityScore": 26,
      "metarRaw": "METAR LIRN 081920Z VRB02KT 9999 SCT060 07/02 Q1017 NOSIG",
      "tafRaw": "TAF LIRN 081700Z 0818/0918 VRB05KT 9999 SCT040 \n  TEMPO 0900/0906 RA \n  TEMPO 0906/0911 4000 SHRA \n  BECMG 0908/0910 24012KT",
      "metarHtml": "METAR LIRN 081920Z VRB02KT 9999 SCT060 07/02 Q1017 NOSIG",
      "tafHtml": "TAF LIRN 081700Z 0818/0918 VRB05KT 9999 SCT040 \n  TEMPO 0900/0906 <span class=\"hl\">RA</span> \n  TEMPO 0906/0911 4000 <span class=\"hl\">SHRA</span> \n  BECMG 0908/0910 24012KT"
    },
    {
      "icao": "UGKO",
      "iata": "KUT",
      "name": "David the Builder Kutaisi International Airport",
      "updatedAt": "081930Z",
      "visibility_m": 10000,
      "taf_visibility_m": 3000,
      "worst_visibility_m": 3000,
      "ceiling_ft": 4200,
      "hazards": [
        "RA",
        "SHRA"
      ],
      "severityScore": 26,
      "metarRaw": "METAR UGKO 081930Z 06007KT 9999 -RA BKN042 10/05 Q1010 NOSIG",
      "tafRaw": "TAF UGKO 081700Z 0818/0918 09012KT 9999 BKN080 TX13/0911Z TN09/0903Z \n  TEMPO 0818/0903 08023G37KT 4000 SHRA BKN020CB OVC040 \n  TEMPO 0908/0916 26010KT 3000 SHRA BKN017CB OVC035",
      "metarHtml": "METAR UGKO 081930Z 06007KT 9999 -<span class=\"hl\">RA</span> BKN042 10/05 Q1010 NOSIG",
      "tafHtml": "TAF UGKO 081700Z 0818/0918 09012KT 9999 BKN080 TX13/0911Z TN09/0903Z \n  TEMPO 0818/0903 08023G37KT 4000 <span class=\"hl\">SHRA</span> BKN020CB OVC040 \n  TEMPO 0908/0916 26010KT 3000 <span class=\"hl\">SHRA</span> BKN017CB OVC035"
    },
    {
      "icao": "EDNY",
      "iata": "FDH",
      "name": "Friedrichshafen Airport",
      "updatedAt": "081920Z",
      "visibility_m": 8000,
      "taf_visibility_m": 3500,
      "worst_visibility_m": 3500,
      "ceiling_ft": 1000,
      "hazards": [
        "RA"
      ],
      "severityScore": 24,
      "metarRaw": "METAR EDNY 081920Z 19005KT 160V220 8000 -RA BKN010 OVC013 02/02 Q1008",
      "tafRaw": "TAF EDNY 081700Z 0818/0903 VRB03KT 9999 OVC015 \n  TEMPO 0818/0820 22006KT 4000 RA BKN010 \n  TEMPO 0820/0903 3500 RA",
      "metarHtml": "METAR EDNY 081920Z 19005KT 160V220 8000 -<span class=\"hl\">RA</span> BKN010 OVC013 02/02 Q1008",
      "tafHtml": "TAF EDNY 081700Z 0818/0903 VRB03KT 9999 OVC015 \n  TEMPO 0818/0820 22006KT 4000 <span class=\"hl\">RA</span> BKN010 \n  TEMPO 0820/0903 3500 <span class=\"hl\">RA</span>"
    },
    {
      "icao": "EETN",
      "iata": "TLL",
      "name": "Lennart Meri Tallinn Airport",
      "updatedAt": "081920Z",
      "visibility_m": 10000,
      "taf_visibility_m": 5000,
      "worst_visibility_m": 5000,
      "ceiling_ft": 1600,
      "hazards": [
        "BR"
      ],
      "severityScore": 22,
      "metarRaw": "METAR EETN 081920Z 10010KT 9999 OVC016 M06/M08 Q1020 NOSIG",
      "tafRaw": "TAF EETN 081730Z 0818/0918 09012KT 9999 BKN015 \n  PROB40 \n  TEMPO 0818/0901 5000 BR BKN008 \n  BECMG 0901/0903 SCT020 \n  TEMPO 0909/0918 06016G30KT BKN015",
      "metarHtml": "METAR EETN 081920Z 10010KT 9999 OVC016 M06/M08 Q1020 NOSIG",
      "tafHtml": "TAF EETN 081730Z 0818/0918 09012KT 9999 BKN015 \n  PROB40 \n  TEMPO 0818/0901 5000 <span class=\"hl\">BR</span> BKN008 \n  BECMG 0901/0903 SCT020 \n  TEMPO 0909/0918 06016G30KT BKN015"
    },
    {
      "icao": "EPGD",
      "iata": "GDN",
      "name": "Gdańsk Lech Wałęsa Airport",
      "updatedAt": "081930Z",
      "visibility_m": 3700,
      "taf_visibility_m": 2500,
      "worst_visibility_m": 2500,
      "ceiling_ft": 1600,
      "hazards": [
        "BR"
      ],
      "severityScore": 22,
      "metarRaw": "METAR EPGD 081930Z 27003KT 3700 BR BKN016 M09/M10 Q1012",
      "tafRaw": "TAF EPGD 081730Z 0818/0918 VRB02KT CAVOK \n  TEMPO 0818/0909 BKN012 \n  PROB40 0818/0905 2500 BR BKN002 \n  BECMG 0905/0908 05012KT \n  TEMPO 0907/0918 04022G33KT",
      "metarHtml": "METAR EPGD 081930Z 27003KT 3700 <span class=\"hl\">BR</span> BKN016 M09/M10 Q1012",
      "tafHtml": "TAF EPGD 081730Z 0818/0918 VRB02KT <span class=\"hl-vis\">CAVOK</span> \n  TEMPO 0818/0909 BKN012 \n  PROB40 0818/0905 2500 <span class=\"hl\">BR</span> BKN002 \n  BECMG 0905/0908 05012KT \n  TEMPO 0907/0918 04022G33KT"
    },
    {
      "icao": "LPPR",
      "iata": "OPO",
      "name": "Francisco de Sá Carneiro Airport",
      "updatedAt": "081930Z",
      "visibility_m": 6000,
      "taf_visibility_m": 2000,
      "worst_visibility_m": 2000,
      "ceiling_ft": 1000,
      "hazards": [
        "BR"
      ],
      "severityScore": 22,
      "metarRaw": "METAR LPPR 081930Z 22010KT 180V250 6000 DZRA SCT008 BKN010 13/12 Q1026",
      "tafRaw": "TAF LPPR 081700Z 0818/0918 22015KT 9999 SCT004 BKN016 \n  TEMPO 0818/0823 2000 DZRA BR SCT002 BKN003 \n  PROB40 \n  TEMPO 0818/0823 23020G30KT \n  BECMG 0823/0901 30010KT SCT015",
      "metarHtml": "METAR LPPR 081930Z 22010KT 180V250 6000 DZRA SCT008 BKN010 13/12 Q1026",
      "tafHtml": "TAF LPPR 081700Z 0818/0918 22015KT 9999 SCT004 BKN016 \n  TEMPO 0818/0823 2000 DZRA <span class=\"hl\">BR</span> SCT002 BKN003 \n  PROB40 \n  TEMPO 0818/0823 23020G30KT \n  BECMG 0823/0901 30010KT SCT015"
    },
    {
      "icao": "LFBD",
      "iata": "BOD",
      "name": "Bordeaux–Mérignac Airport",
      "updatedAt": "081930Z",
      "visibility_m": 3500,
      "taf_visibility_m": null,
      "worst_visibility_m": 3500,
      "ceiling_ft": 4500,
      "hazards": [
        "SHRA"
      ],
      "severityScore": 19,
      "metarRaw": "METAR LFBD 081930Z AUTO 22014KT 9999 BKN045 BKN056 OVC074 11/08 Q1011 TEMPO 27020G35KT 3500 SHRA BKN015TCU SCT020CB",
      "tafRaw": null,
      "metarHtml": "METAR LFBD 081930Z AUTO 22014KT 9999 BKN045 BKN056 OVC074 11/08 Q1011 TEMPO 27020G35KT 3500 <span class=\"hl\">SHRA</span> BKN015TCU SCT020CB",
      "tafHtml": null
    },
    {
      "icao": "LHBP",
      "iata": "BUD",
      "name": "Budapest Liszt Ferenc International Airport",
      "updatedAt": "081930Z",
      "visibility_m": 10000,
      "taf_visibility_m": 5000,
      "worst_visibility_m": 5000,
      "ceiling_ft": null,
      "hazards": [
        "SN"
      ],
      "severityScore": 18,
      "metarRaw": "METAR LHBP 081930Z 30012KT CAVOK M05/M09 Q1010 NOSIG",
      "tafRaw": "TAF LHBP 081715Z 0818/0918 30012KT CAVOK \n  BECMG 0819/0822 30007KT \n  BECMG 0822/0901 VRB02KT \n  BECMG 0906/0909 11007KT \n  TEMPO 0907/0911 -SN \n  BECMG 0908/0911 SCT030 BKN045 \n  TEMPO 0911/0918 5000 SN BKN012 BKN040",
      "metarHtml": "METAR LHBP 081930Z 30012KT <span class=\"hl-vis\">CAVOK</span> M05/M09 Q1010 NOSIG",
      "tafHtml": "TAF LHBP 081715Z 0818/0918 30012KT <span class=\"hl-vis\">CAVOK</span> \n  BECMG 0819/0822 30007KT \n  BECMG 0822/0901 VRB02KT \n  BECMG 0906/0909 11007KT \n  TEMPO 0907/0911 -<span class=\"hl\">SN</span> \n  BECMG 0908/0911 SCT030 BKN045 \n  TEMPO 0911/0918 5000 <span class=\"hl\">SN</span> BKN012 BKN040"
    },
    {
      "icao": "LIMC",
      "iata": "MXP",
      "name": "Milan Malpensa International Airport",
      "updatedAt": "081920Z",
      "visibility_m": 10000,
      "taf_visibility_m": 4000,
      "worst_visibility_m": 4000,
      "ceiling_ft": null,
      "hazards": [
        "SN"
      ],
      "severityScore": 18,
      "metarRaw": "METAR LIMC 081920Z 03004KT CAVOK M03/M06 Q1011 NOSIG",
      "tafRaw": "TAF LIMC 081700Z 0818/0924 VRB04KT 9999 SCT050 \n  PROB40 \n  TEMPO 0905/0909 4000 -SN BKN010",
      "metarHtml": "METAR LIMC 081920Z 03004KT <span class=\"hl-vis\">CAVOK</span> M03/M06 Q1011 NOSIG",
      "tafHtml": "TAF LIMC 081700Z 0818/0924 VRB04KT 9999 SCT050 \n  PROB40 \n  TEMPO 0905/0909 4000 -<span class=\"hl\">SN</span> BKN010"
    },
    {
      "icao": "LIME",
      "iata": "BGY",
      "name": "Milan Bergamo Airport / Antonio Locatelli Air Base",
      "updatedAt": "081920Z",
      "visibility_m": 10000,
      "taf_visibility_m": 4000,
      "worst_visibility_m": 4000,
      "ceiling_ft": null,
      "hazards": [
        "SN"
      ],
      "severityScore": 18,
      "metarRaw": "METAR LIME 081920Z AUTO VRB02KT 9999 NCD M01/M03 Q1011",
      "tafRaw": "TAF LIME 081700Z 0818/0918 VRB04KT 9999 SCT050 \n  PROB40 \n  TEMPO 0905/0909 4000 -SN BKN010",
      "metarHtml": "METAR LIME 081920Z AUTO VRB02KT 9999 NCD M01/M03 Q1011",
      "tafHtml": "TAF LIME 081700Z 0818/0918 VRB04KT 9999 SCT050 \n  PROB40 \n  TEMPO 0905/0909 4000 -<span class=\"hl\">SN</span> BKN010"
    },
    {
      "icao": "LRSB",
      "iata": "SBZ",
      "name": "Sibiu International Airport",
      "updatedAt": "081930Z",
      "visibility_m": 10000,
      "taf_visibility_m": 5000,
      "worst_visibility_m": 5000,
      "ceiling_ft": 4900,
      "hazards": [
        "SN"
      ],
      "severityScore": 18,
      "metarRaw": "METAR LRSB 081930Z 30016KT 9999 OVC049 M05/M10 Q1004",
      "tafRaw": "TAF LRSB 081700Z 0818/0918 33017KT 9999 BKN020 OVC035 \n  TEMPO 0818/0820 5000 -SN BKN005 OVC020 \n  BECMG 0903/0905 VRB04KT",
      "metarHtml": "METAR LRSB 081930Z 30016KT 9999 OVC049 M05/M10 Q1004",
      "tafHtml": "TAF LRSB 081700Z 0818/0918 33017KT 9999 BKN020 OVC035 \n  TEMPO 0818/0820 5000 -<span class=\"hl\">SN</span> BKN005 OVC020 \n  BECMG 0903/0905 VRB04KT"
    },
    {
      "icao": "LRSV",
      "iata": "SCV",
      "name": "Suceava Stefan cel Mare Airport",
      "updatedAt": "081930Z",
      "visibility_m": 10000,
      "taf_visibility_m": 10000,
      "worst_visibility_m": 10000,
      "ceiling_ft": 4000,
      "hazards": [
        "SN"
      ],
      "severityScore": 18,
      "metarRaw": "METAR LRSV 081930Z 32020KT 9999 -SN DRSN BKN040 M05/M08 Q0996",
      "tafRaw": "TAF LRSV 081700Z 0818/0903 32020KT 9999 DRSN BKN045 \n  TEMPO 0818/0822 32020G30KT \n  BECMG 0900/0902 30010KT NSW",
      "metarHtml": "METAR LRSV 081930Z 32020KT 9999 -<span class=\"hl\">SN</span> DRSN BKN040 M05/M08 Q0996",
      "tafHtml": "TAF LRSV 081700Z 0818/0903 32020KT 9999 DRSN BKN045 \n  TEMPO 0818/0822 32020G30KT \n  BECMG 0900/0902 30010KT NSW"
    },
    {
      "icao": "LRTM",
      "iata": "TGM",
      "name": "Târgu Mureş Transilvania International Airport",
      "updatedAt": "081930Z",
      "visibility_m": 10000,
      "taf_visibility_m": 5000,
      "worst_visibility_m": 5000,
      "ceiling_ft": null,
      "hazards": [
        "SN"
      ],
      "severityScore": 18,
      "metarRaw": "METAR LRTM 081930Z AUTO 27010KT 9999 -SN FEW042/// OVC055/// M04/M08 Q1005",
      "tafRaw": "TAF LRTM 081400Z 0815/0824 30008KT 9999 BKN015 BKN030 \n  TEMPO 0815/0816 5000 -SN",
      "metarHtml": "METAR LRTM 081930Z AUTO 27010KT 9999 -<span class=\"hl\">SN</span> FEW042/// OVC055/// M04/M08 Q1005",
      "tafHtml": "TAF LRTM 081400Z 0815/0824 30008KT 9999 BKN015 BKN030 \n  TEMPO 0815/0816 5000 -<span class=\"hl\">SN</span>"
    },
    {
      "icao": "EGGW",
      "iata": "LTN",
      "name": "London Luton Airport",
      "updatedAt": "081920Z",
      "visibility_m": 4600,
      "taf_visibility_m": null,
      "worst_visibility_m": 4600,
      "ceiling_ft": null,
      "hazards": [
        "RA"
      ],
      "severityScore": 17,
      "metarRaw": "METAR EGGW 081920Z AUTO 10017KT 4600 -RA OVC005/// //////CB 02/02 Q0984 RERA",
      "tafRaw": null,
      "metarHtml": "METAR EGGW 081920Z AUTO 10017KT 4600 -<span class=\"hl\">RA</span> OVC005/// //////CB 02/02 Q0984 RERA",
      "tafHtml": null
    },
    {
      "icao": "LEXJ",
      "iata": "SDR",
      "name": "Seve Ballesteros-Santander Airport",
      "updatedAt": "081930Z",
      "visibility_m": 10000,
      "taf_visibility_m": null,
      "worst_visibility_m": 10000,
      "ceiling_ft": 7500,
      "hazards": [
        "RA"
      ],
      "severityScore": 17,
      "metarRaw": "METAR LEXJ 081930Z 23011KT 170V260 9999 -RA FEW050 BKN075 15/05 Q1014",
      "tafRaw": null,
      "metarHtml": "METAR LEXJ 081930Z 23011KT 170V260 9999 -<span class=\"hl\">RA</span> FEW050 BKN075 15/05 Q1014",
      "tafHtml": null
    },
    {
      "icao": "LICA",
      "iata": "SUF",
      "name": "Lamezia Terme Sant'Eufemia International Airport",
      "updatedAt": "081920Z",
      "visibility_m": 10000,
      "taf_visibility_m": 4000,
      "worst_visibility_m": 4000,
      "ceiling_ft": null,
      "hazards": [
        "SHRA"
      ],
      "severityScore": 14,
      "metarRaw": "METAR LICA 081920Z AUTO 27017KT 9999 FEW045/// 12/04 Q1018",
      "tafRaw": "TAF LICA 081700Z 0818/0918 28018G28KT 9999 BKN030 \n  TEMPO 0821/0918 4000 SHRA",
      "metarHtml": "METAR LICA 081920Z AUTO 27017KT 9999 FEW045/// 12/04 Q1018",
      "tafHtml": "TAF LICA 081700Z 0818/0918 28018G28KT 9999 BKN030 \n  TEMPO 0821/0918 4000 <span class=\"hl\">SHRA</span>"
    },
    {
      "icao": "LICJ",
      "iata": "PMO",
      "name": "Falcone–Borsellino Airport",
      "updatedAt": "081920Z",
      "visibility_m": 10000,
      "taf_visibility_m": 4000,
      "worst_visibility_m": 4000,
      "ceiling_ft": null,
      "hazards": [
        "SHRA"
      ],
      "severityScore": 14,
      "metarRaw": "METAR LICJ 081920Z 26022KT 9999 SCT050 16/11 Q1020 RERA",
      "tafRaw": "TAF LICJ 081700Z 0818/0918 29025G35KT 9999 BKN030 \n  BECMG 0907/0909 23018G33KT \n  TEMPO 0912/0918 4000 SHRA",
      "metarHtml": "METAR LICJ 081920Z 26022KT 9999 SCT050 16/11 Q1020 RERA",
      "tafHtml": "TAF LICJ 081700Z 0818/0918 29025G35KT 9999 BKN030 \n  BECMG 0907/0909 23018G33KT \n  TEMPO 0912/0918 4000 <span class=\"hl\">SHRA</span>"
    },
    {
      "icao": "LIRF",
      "iata": "FCO",
      "name": "Rome–Fiumicino Leonardo da Vinci International Airport",
      "updatedAt": "081850Z",
      "visibility_m": 10000,
      "taf_visibility_m": 4000,
      "worst_visibility_m": 4000,
      "ceiling_ft": null,
      "hazards": [
        "SHRA"
      ],
      "severityScore": 14,
      "metarRaw": "METAR LIRF 081850Z 09004KT 9999 SCT030 07/02 Q1016 NOSIG",
      "tafRaw": "TAF LIRF 081700Z 0818/0924 08006KT 9999 SCT045 \n  BECMG 0821/0823 15010KT \n  TEMPO 0903/0918 4000 SHRA \n  BECMG 0904/0906 26016KT \n  BECMG 0910/0912 26020G32KT",
      "metarHtml": "METAR LIRF 081850Z 09004KT 9999 SCT030 07/02 Q1016 NOSIG",
      "tafHtml": "TAF LIRF 081700Z 0818/0924 08006KT 9999 SCT045 \n  BECMG 0821/0823 15010KT \n  TEMPO 0903/0918 4000 <span class=\"hl\">SHRA</span> \n  BECMG 0904/0906 26016KT \n  BECMG 0910/0912 26020G32KT"
    },
    {
      "icao": "LIRZ",
      "iata": "PEG",
      "name": "Perugia San Francesco d'Assisi – Umbria International Airport",
      "updatedAt": "081920Z",
      "visibility_m": 10000,
      "taf_visibility_m": 4000,
      "worst_visibility_m": 4000,
      "ceiling_ft": null,
      "hazards": [
        "SHRA"
      ],
      "severityScore": 14,
      "metarRaw": "METAR LIRZ 081920Z AUTO 01004KT 9999 DZRA OVC030/// 02/00 Q1015",
      "tafRaw": "TAF LIRZ 081700Z 0818/0918 VRB05KT 9999 BKN025 \n  TEMPO 0900/0912 4000 SHRA \n  BECMG 0906/0908 19012KT",
      "metarHtml": "METAR LIRZ 081920Z AUTO 01004KT 9999 DZRA OVC030/// 02/00 Q1015",
      "tafHtml": "TAF LIRZ 081700Z 0818/0918 VRB05KT 9999 BKN025 \n  TEMPO 0900/0912 4000 <span class=\"hl\">SHRA</span> \n  BECMG 0906/0908 19012KT"
    },
    {
      "icao": "LMML",
      "iata": "MLA",
      "name": "Malta International Airport",
      "updatedAt": "081915Z",
      "visibility_m": 10000,
      "taf_visibility_m": 7000,
      "worst_visibility_m": 7000,
      "ceiling_ft": null,
      "hazards": [
        "SHRA"
      ],
      "severityScore": 14,
      "metarRaw": "METAR LMML 081915Z 29015KT 260V320 9999 FEW018 14/10 Q1023 NOSIG",
      "tafRaw": "TAF LMML 081700Z 0818/0918 28020KT 9999 SCT020 \n  TEMPO 0818/0917 27022G32KT \n  PROB40 \n  TEMPO 0818/0903 7000 SHRA BKN017TCU",
      "metarHtml": "METAR LMML 081915Z 29015KT 260V320 9999 FEW018 14/10 Q1023 NOSIG",
      "tafHtml": "TAF LMML 081700Z 0818/0918 28020KT 9999 SCT020 \n  TEMPO 0818/0917 27022G32KT \n  PROB40 \n  TEMPO 0818/0903 7000 <span class=\"hl\">SHRA</span> BKN017TCU"
    },
    {
      "icao": "LTFM",
      "iata": "IST",
      "name": "İstanbul Airport",
      "updatedAt": "081920Z",
      "visibility_m": 10000,
      "taf_visibility_m": 10000,
      "worst_visibility_m": 10000,
      "ceiling_ft": 2500,
      "hazards": [
        "SHRA"
      ],
      "severityScore": 14,
      "metarRaw": "METAR LTFM 081920Z 30008KT 9999 -SHRA SCT008 BKN025 06/04 Q1004 NOSIG RMK RWY17L 34008KT RWY34L 30005KT 260V320 RWY16R 30006KT 270V340 RWY36 31008KT 260V340 RWY18 34009KT",
      "tafRaw": "TAF LTFM 081640Z 0818/0924 VRB02KT 9999 -SHRA SCT032 BKN080 \n  BECMG 0818/0820 -SHRASN SCT010 BKN022 \n  BECMG 0901/0904 25012KT FEW035 \n  BECMG 0912/0915 19012KT \n  BECMG 0919/0922 18015G25KT",
      "metarHtml": "METAR LTFM 081920Z 30008KT 9999 -<span class=\"hl\">SHRA</span> SCT008 BKN025 06/04 Q1004 NOSIG RMK RWY17L 34008KT RWY34L 30005KT 260V320 RWY16R 30006KT 270V340 RWY36 31008KT 260V340 RWY18 34009KT",
      "tafHtml": "TAF LTFM 081640Z 0818/0924 VRB02KT 9999 -<span class=\"hl\">SHRA</span> SCT032 BKN080 \n  BECMG 0818/0820 -SHRASN SCT010 BKN022 \n  BECMG 0901/0904 25012KT FEW035 \n  BECMG 0912/0915 19012KT \n  BECMG 0919/0922 18015G25KT"
    },
    {
      "icao": "EDLW",
      "iata": "DTM",
      "name": "Dortmund Airport",
      "updatedAt": "081920Z",
      "visibility_m": 10000,
      "taf_visibility_m": 4000,
      "worst_visibility_m": 4000,
      "ceiling_ft": null,
      "hazards": [
        "RA"
      ],
      "severityScore": 12,
      "metarRaw": "METAR EDLW 081920Z 12007KT 100V160 9999 FEW038 02/M00 Q1001",
      "tafRaw": "TAF EDLW 081700Z 0818/0918 14007KT 9999 BKN025 \n  TEMPO 0820/0904 4000 RA BKN012 \n  BECMG 0822/0901 16012KT \n  PROB30 \n  TEMPO 0909/0915 16015G25KT RA \n  TEMPO 0915/0918 RA BKN012",
      "metarHtml": "METAR EDLW 081920Z 12007KT 100V160 9999 FEW038 02/M00 Q1001",
      "tafHtml": "TAF EDLW 081700Z 0818/0918 14007KT 9999 BKN025 \n  TEMPO 0820/0904 4000 <span class=\"hl\">RA</span> BKN012 \n  BECMG 0822/0901 16012KT \n  PROB30 \n  TEMPO 0909/0915 16015G25KT <span class=\"hl\">RA</span> \n  TEMPO 0915/0918 <span class=\"hl\">RA</span> BKN012"
    },
    {
      "icao": "ESMS",
      "iata": "MMX",
      "name": "Malmö Sturup Airport",
      "updatedAt": "081920Z",
      "visibility_m": 10000,
      "taf_visibility_m": 10000,
      "worst_visibility_m": 10000,
      "ceiling_ft": 1800,
      "hazards": [],
      "severityScore": 12,
      "metarRaw": "METAR ESMS 081920Z 11010KT 9999 BKN018 M02/M05 Q1010",
      "tafRaw": "TAF ESMS 081727Z 0818/0918 16010KT 9999 BKN020 \n  BECMG 0821/0824 10010KT \n  TEMPO 0912/0918 09015G30KT",
      "metarHtml": "METAR ESMS 081920Z 11010KT 9999 BKN018 M02/M05 Q1010",
      "tafHtml": "TAF ESMS 081727Z 0818/0918 16010KT 9999 BKN020 \n  BECMG 0821/0824 10010KT \n  TEMPO 0912/0918 09015G30KT"
    },
    {
      "icao": "HESX",
      "iata": "SPX",
      "name": "Sphinx International Airport",
      "updatedAt": "081900Z",
      "visibility_m": 10000,
      "taf_visibility_m": 4000,
      "worst_visibility_m": 4000,
      "ceiling_ft": null,
      "hazards": [
        "RA"
      ],
      "severityScore": 12,
      "metarRaw": "METAR HESX 081900Z 30004KT CAVOK 18/03 Q1017 NOSIG",
      "tafRaw": "TAF HESX 081700Z 0818/0924 27008KT 6000 SCT025 \n  TEMPO 0818/0908 29008G20KT 4000 RA SA SCT020 BKN022 \n  PROB40 \n  TEMPO 0910/0918 27018G30KT 4000 SA",
      "metarHtml": "METAR HESX 081900Z 30004KT <span class=\"hl-vis\">CAVOK</span> 18/03 Q1017 NOSIG",
      "tafHtml": "TAF HESX 081700Z 0818/0924 27008KT 6000 SCT025 \n  TEMPO 0818/0908 29008G20KT 4000 <span class=\"hl\">RA</span> SA SCT020 BKN022 \n  PROB40 \n  TEMPO 0910/0918 27018G30KT 4000 SA"
    },
    {
      "icao": "LEZG",
      "iata": "ZAZ",
      "name": "Zaragoza Airport",
      "updatedAt": "081930Z",
      "visibility_m": 10000,
      "taf_visibility_m": 10000,
      "worst_visibility_m": 10000,
      "ceiling_ft": null,
      "hazards": [
        "RA"
      ],
      "severityScore": 12,
      "metarRaw": "METAR LEZG 081930Z 24021G31KT CAVOK 11/04 Q1020 NOSIG",
      "tafRaw": "TAF LEZG 081700Z 0818/0918 24020KT CAVOK TX14/0915Z TN05/0906Z \n  TEMPO 0818/0914 24018G28KT \n  TEMPO 0818/0913 24025G38KT \n  PROB30 \n  TEMPO 0821/0824 RA \n  BECMG 0913/0915 31015KT \n  TEMPO 0913/0917 31018G28KT \n  TEMPO 0914/0916 31025G38KT \n  TEMPO 0914/0918 RA",
      "metarHtml": "METAR LEZG 081930Z 24021G31KT <span class=\"hl-vis\">CAVOK</span> 11/04 Q1020 NOSIG",
      "tafHtml": "TAF LEZG 081700Z 0818/0918 24020KT <span class=\"hl-vis\">CAVOK</span> TX14/0915Z TN05/0906Z \n  TEMPO 0818/0914 24018G28KT \n  TEMPO 0818/0913 24025G38KT \n  PROB30 \n  TEMPO 0821/0824 <span class=\"hl\">RA</span> \n  BECMG 0913/0915 31015KT \n  TEMPO 0913/0917 31018G28KT \n  TEMPO 0914/0916 31025G38KT \n  TEMPO 0914/0918 <span class=\"hl\">RA</span>"
    },
    {
      "icao": "LIPQ",
      "iata": "TRS",
      "name": "Trieste–Friuli Venezia Giulia Airport",
      "updatedAt": "081920Z",
      "visibility_m": 10000,
      "taf_visibility_m": 10000,
      "worst_visibility_m": 10000,
      "ceiling_ft": null,
      "hazards": [
        "RA"
      ],
      "severityScore": 12,
      "metarRaw": "METAR LIPQ 081920Z AUTO 04004KT 9999 BKN025/// M00/M04 Q1013",
      "tafRaw": "TAF LIPQ 081700Z 0818/0918 VRB05KT CAVOK \n  PROB30 \n  TEMPO 0908/0912 RA",
      "metarHtml": "METAR LIPQ 081920Z AUTO 04004KT 9999 BKN025/// M00/M04 Q1013",
      "tafHtml": "TAF LIPQ 081700Z 0818/0918 VRB05KT <span class=\"hl-vis\">CAVOK</span> \n  PROB30 \n  TEMPO 0908/0912 <span class=\"hl\">RA</span>"
    },
    {
      "icao": "LPFR",
      "iata": "FAO",
      "name": "Faro Airport",
      "updatedAt": "081930Z",
      "visibility_m": 10000,
      "taf_visibility_m": 5000,
      "worst_visibility_m": 5000,
      "ceiling_ft": 3000,
      "hazards": [
        "RA"
      ],
      "severityScore": 12,
      "metarRaw": "METAR LPFR 081930Z 03005KT 9999 BKN030 11/08 Q1032",
      "tafRaw": "TAF LPFR 081700Z 0818/0918 VRB05KT 9999 FEW018 \n  BECMG 0905/0907 SCT015 BKN035 \n  PROB30 \n  TEMPO 0910/0913 27007KT 5000 -RA BKN015",
      "metarHtml": "METAR LPFR 081930Z 03005KT 9999 BKN030 11/08 Q1032",
      "tafHtml": "TAF LPFR 081700Z 0818/0918 VRB05KT 9999 FEW018 \n  BECMG 0905/0907 SCT015 BKN035 \n  PROB30 \n  TEMPO 0910/0913 27007KT 5000 -<span class=\"hl\">RA</span> BKN015"
    },
    {
      "icao": "LPMA",
      "iata": "FNC",
      "name": "Madeira International Airport Cristiano Ronaldo",
      "updatedAt": "081930Z",
      "visibility_m": 10000,
      "taf_visibility_m": 10000,
      "worst_visibility_m": 10000,
      "ceiling_ft": 1300,
      "hazards": [],
      "severityScore": 12,
      "metarRaw": "METAR LPMA 081930Z 36006KT 9999 BKN013 16/12 Q1033",
      "tafRaw": "TAF LPMA 081700Z 0818/0918 02010KT 9999 SCT015 \n  TEMPO 0818/0912 BKN013",
      "metarHtml": "METAR LPMA 081930Z 36006KT 9999 BKN013 16/12 Q1033",
      "tafHtml": "TAF LPMA 081700Z 0818/0918 02010KT 9999 SCT015 \n  TEMPO 0818/0912 BKN013"
    },
    {
      "icao": "LPPS",
      "iata": "PXO",
      "name": "Porto Santo Airport",
      "updatedAt": "081930Z",
      "visibility_m": 10000,
      "taf_visibility_m": 5000,
      "worst_visibility_m": 5000,
      "ceiling_ft": 3000,
      "hazards": [
        "RA"
      ],
      "severityScore": 12,
      "metarRaw": "METAR LPPS 081930Z 05005KT 360V080 9999 SCT014 BKN030 16/11 Q1033",
      "tafRaw": "TAF LPPS 081700Z 0818/0924 03010KT 9999 SCT015 \n  TEMPO 0818/0924 FEW015 BKN030 \n  PROB30 \n  TEMPO 0818/0910 5000 -RA SCT006 BKN012",
      "metarHtml": "METAR LPPS 081930Z 05005KT 360V080 9999 SCT014 BKN030 16/11 Q1033",
      "tafHtml": "TAF LPPS 081700Z 0818/0924 03010KT 9999 SCT015 \n  TEMPO 0818/0924 FEW015 BKN030 \n  PROB30 \n  TEMPO 0818/0910 5000 -<span class=\"hl\">RA</span> SCT006 BKN012"
    },
    {
      "icao": "LWOH",
      "iata": "OHD",
      "name": "Ohrid St. Paul the Apostle Airport",
      "updatedAt": "081920Z",
      "visibility_m": 10000,
      "taf_visibility_m": 10000,
      "worst_visibility_m": 10000,
      "ceiling_ft": 3500,
      "hazards": [
        "RA"
      ],
      "severityScore": 12,
      "metarRaw": "METAR LWOH 081920Z 33005KT 270V010 9999 FEW015 BKN035 01/M02 Q1010",
      "tafRaw": "TAF LWOH 081735Z 0818/0918 20010KT 9999 FEW015 BKN035 \n  BECMG 0914/0916 RA BKN010 OVC025",
      "metarHtml": "METAR LWOH 081920Z 33005KT 270V010 9999 FEW015 BKN035 01/M02 Q1010",
      "tafHtml": "TAF LWOH 081735Z 0818/0918 20010KT 9999 FEW015 BKN035 \n  BECMG 0914/0916 <span class=\"hl\">RA</span> BKN010 OVC025"
    },
    {
      "icao": "LYPG",
      "iata": "TGD",
      "name": "Podgorica Airport / Podgorica Golubovci Airbase",
      "updatedAt": "081930Z",
      "visibility_m": 10000,
      "taf_visibility_m": 2000,
      "worst_visibility_m": 2000,
      "ceiling_ft": null,
      "hazards": [
        "RA"
      ],
      "severityScore": 12,
      "metarRaw": "METAR LYPG 081930Z 34011KT CAVOK 02/M11 Q1014 NOSIG",
      "tafRaw": "TAF LYPG 081700Z 0818/0918 36006KT CAVOK TX05/0912Z TNM02/0905Z \n  TEMPO 0818/0820 02016KT \n  PROB30 \n  TEMPO 0909/0912 2000 SNRA \n  BECMG 0911/0913 5000 RA",
      "metarHtml": "METAR LYPG 081930Z 34011KT <span class=\"hl-vis\">CAVOK</span> 02/M11 Q1014 NOSIG",
      "tafHtml": "TAF LYPG 081700Z 0818/0918 36006KT <span class=\"hl-vis\">CAVOK</span> TX05/0912Z TNM02/0905Z \n  TEMPO 0818/0820 02016KT \n  PROB30 \n  TEMPO 0909/0912 2000 SNRA \n  BECMG 0911/0913 5000 <span class=\"hl\">RA</span>"
    },
    {
      "icao": "BKPR",
      "iata": "PRN",
      "name": "Priština Adem Jashari International Airport",
      "updatedAt": "081930Z",
      "visibility_m": 10000,
      "taf_visibility_m": 3000,
      "worst_visibility_m": 3000,
      "ceiling_ft": null,
      "hazards": [
        "BR"
      ],
      "severityScore": 10,
      "metarRaw": "METAR BKPR 081930Z 32004KT 9999 FEW080 M06/M09 Q1012 NOSIG",
      "tafRaw": "TAF BKPR 081730Z 0818/0918 VRB05KT 9999 SCT080 \n  TEMPO 0902/0909 3000 BR \n  BECMG 0909/0911 22012KT \n  TEMPO 0911/0917 22015G25KT",
      "metarHtml": "METAR BKPR 081930Z 32004KT 9999 FEW080 M06/M09 Q1012 NOSIG",
      "tafHtml": "TAF BKPR 081730Z 0818/0918 VRB05KT 9999 SCT080 \n  TEMPO 0902/0909 3000 <span class=\"hl\">BR</span> \n  BECMG 0909/0911 22012KT \n  TEMPO 0911/0917 22015G25KT"
    },
    {
      "icao": "GMMX",
      "iata": "RAK",
      "name": "Menara Airport",
      "updatedAt": "081930Z",
      "visibility_m": 10000,
      "taf_visibility_m": 3000,
      "worst_visibility_m": 3000,
      "ceiling_ft": null,
      "hazards": [
        "BR"
      ],
      "severityScore": 10,
      "metarRaw": "METAR GMMX 081930Z 07003KT CAVOK 12/06 Q1031 NOSIG",
      "tafRaw": "TAF GMMX 081700Z 0818/0924 06006KT 8000 NSC \n  PROB30 \n  TEMPO 0905/0910 3000 BR BKN006",
      "metarHtml": "METAR GMMX 081930Z 07003KT <span class=\"hl-vis\">CAVOK</span> 12/06 Q1031 NOSIG",
      "tafHtml": "TAF GMMX 081700Z 0818/0924 06006KT 8000 NSC \n  PROB30 \n  TEMPO 0905/0910 3000 <span class=\"hl\">BR</span> BKN006"
    },
    {
      "icao": "EGPD",
      "iata": "ABZ",
      "name": "Aberdeen International Airport",
      "updatedAt": "081920Z",
      "visibility_m": 10000,
      "taf_visibility_m": 4000,
      "worst_visibility_m": 4000,
      "ceiling_ft": null,
      "hazards": [
        "BR"
      ],
      "severityScore": 10,
      "metarRaw": "METAR EGPD 081920Z COR VRB02KT CAVOK M07/M08 Q0997 NOSIG",
      "tafRaw": "TAF EGPD 081656Z 0818/0918 VRB03KT 9999 SCT020 \n  PROB30 \n  TEMPO 0818/0820 4000 BR \n  TEMPO 0820/0915 6000 -RADZ BKN014 \n  PROB30 \n  TEMPO 0820/0903 BKN008 \n  PROB40 \n  TEMPO 0903/0910 4000 RADZ BR BKN004 \n  BECMG 0907/0910 12010KT \n  PROB40 \n  TEMPO 0912/0918 4000 RASN BR BKN006",
      "metarHtml": "METAR EGPD 081920Z COR VRB02KT <span class=\"hl-vis\">CAVOK</span> M07/M08 Q0997 NOSIG",
      "tafHtml": "TAF EGPD 081656Z 0818/0918 VRB03KT 9999 SCT020 \n  PROB30 \n  TEMPO 0818/0820 4000 <span class=\"hl\">BR</span> \n  TEMPO 0820/0915 6000 -RADZ BKN014 \n  PROB30 \n  TEMPO 0820/0903 BKN008 \n  PROB40 \n  TEMPO 0903/0910 4000 RADZ <span class=\"hl\">BR</span> BKN004 \n  BECMG 0907/0910 12010KT \n  PROB40 \n  TEMPO 0912/0918 4000 RASN <span class=\"hl\">BR</span> BKN006"
    },
    {
      "icao": "EYPA",
      "iata": "PLQ",
      "name": "Palanga International Airport",
      "updatedAt": "081920Z",
      "visibility_m": 10000,
      "taf_visibility_m": 5000,
      "worst_visibility_m": 5000,
      "ceiling_ft": null,
      "hazards": [
        "BR"
      ],
      "severityScore": 10,
      "metarRaw": "METAR EYPA 081920Z 08010KT CAVOK M09/M10 Q1015",
      "tafRaw": "TAF EYPA 081725Z 0818/0918 07010KT 9000 BKN005 \n  TEMPO 0818/0908 5000 BR BKN002 \n  BECMG 0908/0909 SCT015 \n  TEMPO 0909/0914 06015G25KT BKN015",
      "metarHtml": "METAR EYPA 081920Z 08010KT <span class=\"hl-vis\">CAVOK</span> M09/M10 Q1015",
      "tafHtml": "TAF EYPA 081725Z 0818/0918 07010KT 9000 BKN005 \n  TEMPO 0818/0908 5000 <span class=\"hl\">BR</span> BKN002 \n  BECMG 0908/0909 SCT015 \n  TEMPO 0909/0914 06015G25KT BKN015"
    },
    {
      "icao": "LEZL",
      "iata": "SVQ",
      "name": "Sevilla Airport",
      "updatedAt": "081930Z",
      "visibility_m": 10000,
      "taf_visibility_m": 4000,
      "worst_visibility_m": 4000,
      "ceiling_ft": null,
      "hazards": [
        "BR"
      ],
      "severityScore": 10,
      "metarRaw": "METAR LEZL 081930Z 20003KT CAVOK 09/07 Q1032 NOSIG",
      "tafRaw": "TAF LEZL 081400Z 0815/0915 VRB03KT 9999 SCT020 TX14/0815Z TN09/0907Z \n  PROB30 \n  TEMPO 0900/0906 4000 BR",
      "metarHtml": "METAR LEZL 081930Z 20003KT <span class=\"hl-vis\">CAVOK</span> 09/07 Q1032 NOSIG",
      "tafHtml": "TAF LEZL 081400Z 0815/0915 VRB03KT 9999 SCT020 TX14/0815Z TN09/0907Z \n  PROB30 \n  TEMPO 0900/0906 4000 <span class=\"hl\">BR</span>"
    },
    {
      "icao": "LHDC",
      "iata": "DEB",
      "name": "Debrecen International Airport",
      "updatedAt": "081915Z",
      "visibility_m": 8000,
      "taf_visibility_m": 4000,
      "worst_visibility_m": 4000,
      "ceiling_ft": null,
      "hazards": [
        "BR"
      ],
      "severityScore": 10,
      "metarRaw": "METAR LHDC 081915Z AUTO VRB03KT 8000 FEW046 M08/M10 Q1008",
      "tafRaw": "TAF LHDC 081415Z 0815/0824 25005KT 7000 NSC \n  TEMPO 0815/0821 4000 BR",
      "metarHtml": "METAR LHDC 081915Z AUTO VRB03KT 8000 FEW046 M08/M10 Q1008",
      "tafHtml": "TAF LHDC 081415Z 0815/0824 25005KT 7000 NSC \n  TEMPO 0815/0821 4000 <span class=\"hl\">BR</span>"
    },
    {
      "icao": "OEJN",
      "iata": "JED",
      "name": "King Abdulaziz International Airport",
      "updatedAt": "081900Z",
      "visibility_m": 10000,
      "taf_visibility_m": 2000,
      "worst_visibility_m": 2000,
      "ceiling_ft": null,
      "hazards": [
        "BR"
      ],
      "severityScore": 10,
      "metarRaw": "METAR OEJN 081900Z 00000KT CAVOK 25/18 Q1016 NOSIG",
      "tafRaw": "TAF OEJN 081700Z 0818/0924 VRB03KT 6000 NSC \n  TEMPO 0818/0906 2000 BR \n  BECMG 0908/0910 24010KT 9999 FEW040 \n  BECMG 0918/0920 VRB03KT 6000",
      "metarHtml": "METAR OEJN 081900Z 00000KT <span class=\"hl-vis\">CAVOK</span> 25/18 Q1016 NOSIG",
      "tafHtml": "TAF OEJN 081700Z 0818/0924 VRB03KT 6000 NSC \n  TEMPO 0818/0906 2000 <span class=\"hl\">BR</span> \n  BECMG 0908/0910 24010KT 9999 FEW040 \n  BECMG 0918/0920 VRB03KT 6000"
    },
    {
      "icao": "LBSF",
      "iata": "SOF",
      "name": "Sofia Airport",
      "updatedAt": "081930Z",
      "visibility_m": 10000,
      "taf_visibility_m": null,
      "worst_visibility_m": 10000,
      "ceiling_ft": null,
      "hazards": [],
      "severityScore": 5,
      "metarRaw": "METAR LBSF 081930Z AUTO 30016KT 9999 FEW036/// M05/M10 Q1009 TEMPO 30018G28KT",
      "tafRaw": null,
      "metarHtml": "METAR LBSF 081930Z AUTO 30016KT 9999 FEW036/// M05/M10 Q1009 TEMPO 30018G28KT",
      "tafHtml": null
    },
    {
      "icao": "LEBB",
      "iata": "BIO",
      "name": "Bilbao Airport",
      "updatedAt": "081930Z",
      "visibility_m": 10000,
      "taf_visibility_m": null,
      "worst_visibility_m": 10000,
      "ceiling_ft": null,
      "hazards": [],
      "severityScore": 5,
      "metarRaw": "METAR LEBB 081930Z 21019G34KT 160V250 CAVOK 15/06 Q1015 WS ALL RWY NOSIG",
      "tafRaw": null,
      "metarHtml": "METAR LEBB 081930Z 21019G34KT 160V250 <span class=\"hl-vis\">CAVOK</span> 15/06 Q1015 WS ALL RWY NOSIG",
      "tafHtml": null
    },
    {
      "icao": "LECH",
      "iata": "CDT",
      "name": "Castellón-Costa Azahar Airport",
      "updatedAt": "081930Z",
      "visibility_m": 10000,
      "taf_visibility_m": null,
      "worst_visibility_m": 10000,
      "ceiling_ft": null,
      "hazards": [],
      "severityScore": 5,
      "metarRaw": "METAR LECH 081930Z AUTO VRB02KT CAVOK 10/05 Q1021",
      "tafRaw": null,
      "metarHtml": "METAR LECH 081930Z AUTO VRB02KT <span class=\"hl-vis\">CAVOK</span> 10/05 Q1021",
      "tafHtml": null
    },
    {
      "icao": "LFLS",
      "iata": "GNB",
      "name": "Grenoble Alpes Isère Airport",
      "updatedAt": "081930Z",
      "visibility_m": 10000,
      "taf_visibility_m": null,
      "worst_visibility_m": 10000,
      "ceiling_ft": 4600,
      "hazards": [],
      "severityScore": 5,
      "metarRaw": "METAR LFLS 081930Z AUTO 05008KT 9999 BKN046 BKN054 OVC068 03/02 Q1012",
      "tafRaw": null,
      "metarHtml": "METAR LFLS 081930Z AUTO 05008KT 9999 BKN046 BKN054 OVC068 03/02 Q1012",
      "tafHtml": null
    },
    {
      "icao": "LQBK",
      "iata": "BNX",
      "name": "Banja Luka International Airport",
      "updatedAt": "081930Z",
      "visibility_m": 10000,
      "taf_visibility_m": null,
      "worst_visibility_m": 10000,
      "ceiling_ft": null,
      "hazards": [],
      "severityScore": 5,
      "metarRaw": "METAR LQBK 081930Z 32001KT CAVOK M11/M11 Q1012 NOSIG",
      "tafRaw": null,
      "metarHtml": "METAR LQBK 081930Z 32001KT <span class=\"hl-vis\">CAVOK</span> M11/M11 Q1012 NOSIG",
      "tafHtml": null
    },
    {
      "icao": "LQTZ",
      "iata": "TZL",
      "name": "Tuzla International Airport",
      "updatedAt": "081930Z",
      "visibility_m": 6000,
      "taf_visibility_m": null,
      "worst_visibility_m": 6000,
      "ceiling_ft": null,
      "hazards": [],
      "severityScore": 5,
      "metarRaw": "METAR LQTZ 081930Z 33002KT 6000 NSC M09/M10 Q1013",
      "tafRaw": null,
      "metarHtml": "METAR LQTZ 081930Z 33002KT 6000 NSC M09/M10 Q1013",
      "tafHtml": null
    },
    {
      "icao": "OJAI",
      "iata": "AMM",
      "name": "Queen Alia International Airport",
      "updatedAt": "081900Z",
      "visibility_m": 3500,
      "taf_visibility_m": null,
      "worst_visibility_m": 3500,
      "ceiling_ft": null,
      "hazards": [],
      "severityScore": 5,
      "metarRaw": "METAR OJAI 081900Z 30002KT 3500 HZ NSC 14/06 Q1018 NOSIG",
      "tafRaw": null,
      "metarHtml": "METAR OJAI 081900Z 30002KT 3500 HZ NSC 14/06 Q1018 NOSIG",
      "tafHtml": null
    },
    {
      "icao": "BIKF",
      "iata": "KEF",
      "name": "Keflavik International Airport",
      "updatedAt": "081930Z",
      "visibility_m": 10000,
      "taf_visibility_m": 10000,
      "worst_visibility_m": 10000,
      "ceiling_ft": null,
      "hazards": [],
      "severityScore": 0,
      "metarRaw": "METAR BIKF 081930Z 03014KT CAVOK 01/M06 Q1002",
      "tafRaw": "TAF BIKF 081928Z 0821/0921 05015KT 9999 FEW045 TXM01/0821Z TNM05/0910Z \n  BECMG 0821/0823 05005KT",
      "metarHtml": "METAR BIKF 081930Z 03014KT <span class=\"hl-vis\">CAVOK</span> 01/M06 Q1002",
      "tafHtml": "TAF BIKF 081928Z 0821/0921 05015KT 9999 FEW045 TXM01/0821Z TNM05/0910Z \n  BECMG 0821/0823 05005KT"
    },
    {
      "icao": "GCFV",
      "iata": "FUE",
      "name": "Fuerteventura Airport",
      "updatedAt": "081930Z",
      "visibility_m": 10000,
      "taf_visibility_m": 10000,
      "worst_visibility_m": 10000,
      "ceiling_ft": null,
      "hazards": [],
      "severityScore": 0,
      "metarRaw": "METAR GCFV 081930Z 04003KT 9999 FEW035 17/09 Q1030",
      "tafRaw": "TAF GCFV 081400Z 0815/0915 05011KT 9999 FEW030 TX20/0914Z TN14/0906Z \n  PROB30 \n  TEMPO 0815/0819 14008KT \n  TEMPO 0819/0824 34005KT",
      "metarHtml": "METAR GCFV 081930Z 04003KT 9999 FEW035 17/09 Q1030",
      "tafHtml": "TAF GCFV 081400Z 0815/0915 05011KT 9999 FEW030 TX20/0914Z TN14/0906Z \n  PROB30 \n  TEMPO 0815/0819 14008KT \n  TEMPO 0819/0824 34005KT"
    },
    {
      "icao": "GCLP",
      "iata": "LPA",
      "name": "Gran Canaria Airport",
      "updatedAt": "081930Z",
      "visibility_m": 10000,
      "taf_visibility_m": 10000,
      "worst_visibility_m": 10000,
      "ceiling_ft": null,
      "hazards": [],
      "severityScore": 0,
      "metarRaw": "METAR GCLP 081930Z 35010KT 9999 SCT038 18/10 Q1030 NOSIG",
      "tafRaw": "TAF GCLP 081400Z 0815/0915 07010KT 9999 BKN035 TX20/0914Z TN14/0906Z \n  BECMG 0819/0821 33008KT \n  BECMG 0909/0911 05012KT",
      "metarHtml": "METAR GCLP 081930Z 35010KT 9999 SCT038 18/10 Q1030 NOSIG",
      "tafHtml": "TAF GCLP 081400Z 0815/0915 07010KT 9999 BKN035 TX20/0914Z TN14/0906Z \n  BECMG 0819/0821 33008KT \n  BECMG 0909/0911 05012KT"
    },
    {
      "icao": "GCTS",
      "iata": "TFS",
      "name": "Tenerife Sur Airport",
      "updatedAt": "081930Z",
      "visibility_m": 10000,
      "taf_visibility_m": 10000,
      "worst_visibility_m": 10000,
      "ceiling_ft": null,
      "hazards": [],
      "severityScore": 0,
      "metarRaw": "METAR GCTS 081930Z 08018KT 9999 FEW030 18/11 Q1029 NOSIG",
      "tafRaw": "TAF GCTS 081400Z 0815/0915 08020KT 9999 SCT035 TX22/0914Z TN15/0906Z \n  PROB30 \n  TEMPO 0815/0818 08020G30KT \n  TEMPO 0901/0911 03010KT",
      "metarHtml": "METAR GCTS 081930Z 08018KT 9999 FEW030 18/11 Q1029 NOSIG",
      "tafHtml": "TAF GCTS 081400Z 0815/0915 08020KT 9999 SCT035 TX22/0914Z TN15/0906Z \n  PROB30 \n  TEMPO 0815/0818 08020G30KT \n  TEMPO 0901/0911 03010KT"
    },
    {
      "icao": "GMAD",
      "iata": "AGA",
      "name": "Al Massira Airport",
      "updatedAt": "081930Z",
      "visibility_m": 10000,
      "taf_visibility_m": 10000,
      "worst_visibility_m": 10000,
      "ceiling_ft": null,
      "hazards": [],
      "severityScore": 0,
      "metarRaw": "METAR GMAD 081930Z 21005KT CAVOK 12/09 Q1030 NOSIG",
      "tafRaw": "TAF GMAD 081700Z 0818/0924 18006KT CAVOK \n  BECMG 0912/0914 28012KT",
      "metarHtml": "METAR GMAD 081930Z 21005KT <span class=\"hl-vis\">CAVOK</span> 12/09 Q1030 NOSIG",
      "tafHtml": "TAF GMAD 081700Z 0818/0924 18006KT <span class=\"hl-vis\">CAVOK</span> \n  BECMG 0912/0914 28012KT"
    },
    {
      "icao": "GMMN",
      "iata": "CMN",
      "name": "Mohammed V International Airport",
      "updatedAt": "081930Z",
      "visibility_m": 10000,
      "taf_visibility_m": 8000,
      "worst_visibility_m": 8000,
      "ceiling_ft": null,
      "hazards": [],
      "severityScore": 0,
      "metarRaw": "METAR GMMN 081930Z 01004KT CAVOK 11/08 Q1032 NOSIG",
      "tafRaw": "TAF GMMN 081700Z 0818/0924 02008KT CAVOK \n  BECMG 0822/0824 16006KT 8000 SCT016 \n  BECMG 0913/0915 36010KT CAVOK",
      "metarHtml": "METAR GMMN 081930Z 01004KT <span class=\"hl-vis\">CAVOK</span> 11/08 Q1032 NOSIG",
      "tafHtml": "TAF GMMN 081700Z 0818/0924 02008KT <span class=\"hl-vis\">CAVOK</span> \n  BECMG 0822/0824 16006KT 8000 SCT016 \n  BECMG 0913/0915 36010KT <span class=\"hl-vis\">CAVOK</span>"
    },
    {
      "icao": "EFTU",
      "iata": "TKU",
      "name": "Turku Airport",
      "updatedAt": "081920Z",
      "visibility_m": 10000,
      "taf_visibility_m": 6000,
      "worst_visibility_m": 6000,
      "ceiling_ft": null,
      "hazards": [],
      "severityScore": 0,
      "metarRaw": "METAR EFTU 081920Z AUTO 10008KT CAVOK M15/M17 Q1022",
      "tafRaw": "TAF EFTU 081733Z 0818/0918 10009KT 9999 BKN027 \n  PROB30 0903/0908 6000 BKN006 \n  BECMG 0911/0913 04010KT",
      "metarHtml": "METAR EFTU 081920Z AUTO 10008KT <span class=\"hl-vis\">CAVOK</span> M15/M17 Q1022",
      "tafHtml": "TAF EFTU 081733Z 0818/0918 10009KT 9999 BKN027 \n  PROB30 0903/0908 6000 BKN006 \n  BECMG 0911/0913 04010KT"
    },
    {
      "icao": "EKCH",
      "iata": "CPH",
      "name": "Copenhagen Kastrup Airport",
      "updatedAt": "081920Z",
      "visibility_m": 10000,
      "taf_visibility_m": 10000,
      "worst_visibility_m": 10000,
      "ceiling_ft": null,
      "hazards": [],
      "severityScore": 0,
      "metarRaw": "METAR EKCH 081920Z AUTO 12015KT 9999 BKN023/// M01/M05 Q1010 NOSIG",
      "tafRaw": "TAF EKCH 081727Z 0818/0918 12015KT 9999 BKN020 \n  TEMPO 0903/0908 10018G28KT \n  TEMPO 0912/0918 09020G30KT",
      "metarHtml": "METAR EKCH 081920Z AUTO 12015KT 9999 BKN023/// M01/M05 Q1010 NOSIG",
      "tafHtml": "TAF EKCH 081727Z 0818/0918 12015KT 9999 BKN020 \n  TEMPO 0903/0908 10018G28KT \n  TEMPO 0912/0918 09020G30KT"
    },
    {
      "icao": "ENBR",
      "iata": "BGO",
      "name": "Bergen Airport, Flesland",
      "updatedAt": "081920Z",
      "visibility_m": 10000,
      "taf_visibility_m": 10000,
      "worst_visibility_m": 10000,
      "ceiling_ft": null,
      "hazards": [],
      "severityScore": 0,
      "metarRaw": "METAR ENBR 081920Z 04003KT 350V050 CAVOK M10/M14 Q1005 NOSIG RMK WIND 1200FT 12014KT",
      "tafRaw": "TAF ENBR 081700Z 0818/0918 08005KT CAVOK",
      "metarHtml": "METAR ENBR 081920Z 04003KT 350V050 <span class=\"hl-vis\">CAVOK</span> M10/M14 Q1005 NOSIG RMK WIND 1200FT 12014KT",
      "tafHtml": "TAF ENBR 081700Z 0818/0918 08005KT <span class=\"hl-vis\">CAVOK</span>"
    },
    {
      "icao": "ENHD",
      "iata": "HAU",
      "name": "Haugesund Airport, Karmøy",
      "updatedAt": "081920Z",
      "visibility_m": 10000,
      "taf_visibility_m": 10000,
      "worst_visibility_m": 10000,
      "ceiling_ft": null,
      "hazards": [],
      "severityScore": 0,
      "metarRaw": "METAR ENHD 081920Z 10010KT CAVOK M04/M12 Q1005",
      "tafRaw": "TAF ENHD 081400Z 0815/0823 09007KT CAVOK \n  BECMG 0821/0823 13017KT",
      "metarHtml": "METAR ENHD 081920Z 10010KT <span class=\"hl-vis\">CAVOK</span> M04/M12 Q1005",
      "tafHtml": "TAF ENHD 081400Z 0815/0823 09007KT <span class=\"hl-vis\">CAVOK</span> \n  BECMG 0821/0823 13017KT"
    },
    {
      "icao": "ENTC",
      "iata": "TOS",
      "name": "Tromsø Airport, Langnes",
      "updatedAt": "081920Z",
      "visibility_m": 10000,
      "taf_visibility_m": 10000,
      "worst_visibility_m": 10000,
      "ceiling_ft": null,
      "hazards": [],
      "severityScore": 0,
      "metarRaw": "METAR ENTC 081920Z 02002KT CAVOK M11/M14 Q1023 NOSIG RMK WIND 2600FT 18030KT",
      "tafRaw": "TAF ENTC 081700Z 0818/0918 VRB03KT CAVOK \n  TEMPO 0818/0918 18012KT",
      "metarHtml": "METAR ENTC 081920Z 02002KT <span class=\"hl-vis\">CAVOK</span> M11/M14 Q1023 NOSIG RMK WIND 2600FT 18030KT",
      "tafHtml": "TAF ENTC 081700Z 0818/0918 VRB03KT <span class=\"hl-vis\">CAVOK</span> \n  TEMPO 0818/0918 18012KT"
    },
    {
      "icao": "ENZV",
      "iata": "SVG",
      "name": "Stavanger Airport, Sola",
      "updatedAt": "081920Z",
      "visibility_m": 10000,
      "taf_visibility_m": 10000,
      "worst_visibility_m": 10000,
      "ceiling_ft": 4100,
      "hazards": [],
      "severityScore": 0,
      "metarRaw": "METAR ENZV 081920Z VRB01KT 9999 BKN041 M04/M11 Q1005 NOSIG",
      "tafRaw": "TAF ENZV 081700Z 0818/0918 10008KT CAVOK \n  TEMPO 0819/0916 12015G25KT",
      "metarHtml": "METAR ENZV 081920Z VRB01KT 9999 BKN041 M04/M11 Q1005 NOSIG",
      "tafHtml": "TAF ENZV 081700Z 0818/0918 10008KT <span class=\"hl-vis\">CAVOK</span> \n  TEMPO 0819/0916 12015G25KT"
    },
    {
      "icao": "ESGG",
      "iata": "GOT",
      "name": "Göteborg Landvetter Airport",
      "updatedAt": "081920Z",
      "visibility_m": 10000,
      "taf_visibility_m": 10000,
      "worst_visibility_m": 10000,
      "ceiling_ft": null,
      "hazards": [],
      "severityScore": 0,
      "metarRaw": "METAR ESGG 081920Z 13004KT CAVOK M06/M07 Q1010",
      "tafRaw": "TAF ESGG 081730Z 0818/0918 13007KT 9999 SCT025 BKN030 \n  PROB40 0818/0819 BKN014 \n  PROB40 0909/0913 BKN012",
      "metarHtml": "METAR ESGG 081920Z 13004KT <span class=\"hl-vis\">CAVOK</span> M06/M07 Q1010",
      "tafHtml": "TAF ESGG 081730Z 0818/0918 13007KT 9999 SCT025 BKN030 \n  PROB40 0818/0819 BKN014 \n  PROB40 0909/0913 BKN012"
    },
    {
      "icao": "HEGN",
      "iata": "HRG",
      "name": "Hurghada International Airport",
      "updatedAt": "081900Z",
      "visibility_m": 10000,
      "taf_visibility_m": 3000,
      "worst_visibility_m": 3000,
      "ceiling_ft": null,
      "hazards": [],
      "severityScore": 0,
      "metarRaw": "METAR HEGN 081900Z 31005KT CAVOK 20/13 Q1017 NOSIG",
      "tafRaw": "TAF HEGN 081700Z 0818/0924 24008KT CAVOK \n  BECMG 0906/0908 35015G30KT \n  TEMPO 0907/0918 3000 SA NSC",
      "metarHtml": "METAR HEGN 081900Z 31005KT <span class=\"hl-vis\">CAVOK</span> 20/13 Q1017 NOSIG",
      "tafHtml": "TAF HEGN 081700Z 0818/0924 24008KT <span class=\"hl-vis\">CAVOK</span> \n  BECMG 0906/0908 35015G30KT \n  TEMPO 0907/0918 3000 SA NSC"
    },
    {
      "icao": "HEMA",
      "iata": "RMF",
      "name": "Marsa Alam International Airport",
      "updatedAt": "081900Z",
      "visibility_m": 6000,
      "taf_visibility_m": 4000,
      "worst_visibility_m": 4000,
      "ceiling_ft": null,
      "hazards": [],
      "severityScore": 0,
      "metarRaw": "METAR HEMA 081900Z 26002KT 6000 NSC 20/18 Q1016 NOSIG",
      "tafRaw": "TAF HEMA 081700Z 0818/0924 30009KT 6000 NSC \n  TEMPO 0818/0906 4000 HZ",
      "metarHtml": "METAR HEMA 081900Z 26002KT 6000 NSC 20/18 Q1016 NOSIG",
      "tafHtml": "TAF HEMA 081700Z 0818/0924 30009KT 6000 NSC \n  TEMPO 0818/0906 4000 HZ"
    },
    {
      "icao": "HESH",
      "iata": "SSH",
      "name": "Sharm El Sheikh International Airport",
      "updatedAt": "081900Z",
      "visibility_m": 10000,
      "taf_visibility_m": 3000,
      "worst_visibility_m": 3000,
      "ceiling_ft": null,
      "hazards": [],
      "severityScore": 0,
      "metarRaw": "METAR HESH 081900Z 00000KT CAVOK 22/07 Q1017 NOSIG",
      "tafRaw": "TAF HESH 081700Z 0818/0924 27007KT CAVOK \n  BECMG 0906/0908 36010G22KT \n  TEMPO 0907/0918 3000 SA NSC",
      "metarHtml": "METAR HESH 081900Z 00000KT <span class=\"hl-vis\">CAVOK</span> 22/07 Q1017 NOSIG",
      "tafHtml": "TAF HESH 081700Z 0818/0924 27007KT <span class=\"hl-vis\">CAVOK</span> \n  BECMG 0906/0908 36010G22KT \n  TEMPO 0907/0918 3000 SA NSC"
    },
    {
      "icao": "LATI",
      "iata": "TIA",
      "name": "Tirana International Airport Mother Teresa",
      "updatedAt": "081920Z",
      "visibility_m": 10000,
      "taf_visibility_m": 10000,
      "worst_visibility_m": 10000,
      "ceiling_ft": null,
      "hazards": [],
      "severityScore": 0,
      "metarRaw": "METAR LATI 081920Z 30005KT CAVOK 04/M00 Q1014 NOSIG",
      "tafRaw": "TAF LATI 081700Z 0818/0918 VRB05KT 9999 SCT050 BKN070 TX11/0918Z TN01/0902Z \n  BECMG 0908/0910 15010KT",
      "metarHtml": "METAR LATI 081920Z 30005KT <span class=\"hl-vis\">CAVOK</span> 04/M00 Q1014 NOSIG",
      "tafHtml": "TAF LATI 081700Z 0818/0918 VRB05KT 9999 SCT050 BKN070 TX11/0918Z TN01/0902Z \n  BECMG 0908/0910 15010KT"
    },
    {
      "icao": "LBPD",
      "iata": "PDV",
      "name": "Plovdiv International Airport",
      "updatedAt": "081930Z",
      "visibility_m": 10000,
      "taf_visibility_m": 10000,
      "worst_visibility_m": 10000,
      "ceiling_ft": null,
      "hazards": [],
      "severityScore": 0,
      "metarRaw": "METAR LBPD 081930Z AUTO 28023KT 9999 NCD M00/M07 Q1006 NOSIG",
      "tafRaw": "TAF LBPD 081700Z 0818/0918 29020G30KT 9999 SCT050 \n  BECMG 0904/0906 29010KT \n  BECMG 0910/0912 VRB03KT",
      "metarHtml": "METAR LBPD 081930Z AUTO 28023KT 9999 NCD M00/M07 Q1006 NOSIG",
      "tafHtml": "TAF LBPD 081700Z 0818/0918 29020G30KT 9999 SCT050 \n  BECMG 0904/0906 29010KT \n  BECMG 0910/0912 VRB03KT"
    },
    {
      "icao": "LEAL",
      "iata": "ALC",
      "name": "Alicante-Elche Miguel Hernández Airport",
      "updatedAt": "081930Z",
      "visibility_m": 10000,
      "taf_visibility_m": 10000,
      "worst_visibility_m": 10000,
      "ceiling_ft": null,
      "hazards": [],
      "severityScore": 0,
      "metarRaw": "METAR LEAL 081930Z 29010KT 260V320 CAVOK 14/05 Q1025 NOSIG",
      "tafRaw": "TAF LEAL 081700Z 0818/0918 27015KT CAVOK TX18/0914Z TN10/0906Z \n  TEMPO 0818/0820 24005KT \n  TEMPO 0822/0904 27020G30KT \n  PROB30 \n  TEMPO 0904/0910 24005KT \n  TEMPO 0912/0916 28015G25KT",
      "metarHtml": "METAR LEAL 081930Z 29010KT 260V320 <span class=\"hl-vis\">CAVOK</span> 14/05 Q1025 NOSIG",
      "tafHtml": "TAF LEAL 081700Z 0818/0918 27015KT <span class=\"hl-vis\">CAVOK</span> TX18/0914Z TN10/0906Z \n  TEMPO 0818/0820 24005KT \n  TEMPO 0822/0904 27020G30KT \n  PROB30 \n  TEMPO 0904/0910 24005KT \n  TEMPO 0912/0916 28015G25KT"
    },
    {
      "icao": "LEBL",
      "iata": "BCN",
      "name": "Josep Tarradellas Barcelona-El Prat Airport",
      "updatedAt": "081930Z",
      "visibility_m": 10000,
      "taf_visibility_m": 10000,
      "worst_visibility_m": 10000,
      "ceiling_ft": null,
      "hazards": [],
      "severityScore": 0,
      "metarRaw": "METAR LEBL 081930Z 29008G20KT 250V310 9999 FEW020 SCT060 15/05 Q1018 NOSIG",
      "tafRaw": "TAF LEBL 081700Z 0818/0918 33009KT 9999 FEW020 TX16/0913Z TN09/0906Z \n  BECMG 0818/0819 25009KT \n  BECMG 0902/0905 33006KT \n  BECMG 0908/0910 27010KT \n  TEMPO 0911/0918 27018G32KT",
      "metarHtml": "METAR LEBL 081930Z 29008G20KT 250V310 9999 FEW020 SCT060 15/05 Q1018 NOSIG",
      "tafHtml": "TAF LEBL 081700Z 0818/0918 33009KT 9999 FEW020 TX16/0913Z TN09/0906Z \n  BECMG 0818/0819 25009KT \n  BECMG 0902/0905 33006KT \n  BECMG 0908/0910 27010KT \n  TEMPO 0911/0918 27018G32KT"
    },
    {
      "icao": "LEMG",
      "iata": "AGP",
      "name": "Málaga-Costa del Sol Airport",
      "updatedAt": "081930Z",
      "visibility_m": 10000,
      "taf_visibility_m": 10000,
      "worst_visibility_m": 10000,
      "ceiling_ft": null,
      "hazards": [],
      "severityScore": 0,
      "metarRaw": "METAR LEMG 081930Z 27015KT CAVOK 12/06 Q1029 NOSIG",
      "tafRaw": "TAF LEMG 081700Z 0818/0918 29012KT CAVOK TX18/0914Z TN08/0906Z \n  PROB40 \n  TEMPO 0822/0906 29015G25KT",
      "metarHtml": "METAR LEMG 081930Z 27015KT <span class=\"hl-vis\">CAVOK</span> 12/06 Q1029 NOSIG",
      "tafHtml": "TAF LEMG 081700Z 0818/0918 29012KT <span class=\"hl-vis\">CAVOK</span> TX18/0914Z TN08/0906Z \n  PROB40 \n  TEMPO 0822/0906 29015G25KT"
    },
    {
      "icao": "LEVC",
      "iata": "VLC",
      "name": "Valencia Airport",
      "updatedAt": "081930Z",
      "visibility_m": 10000,
      "taf_visibility_m": 10000,
      "worst_visibility_m": 10000,
      "ceiling_ft": null,
      "hazards": [],
      "severityScore": 0,
      "metarRaw": "METAR LEVC 081930Z 20016KT CAVOK 12/02 Q1023 NOSIG",
      "tafRaw": "TAF LEVC 081700Z 0818/0918 26015KT CAVOK TX18/0914Z TN09/0906Z \n  TEMPO 0823/0904 27018G28KT \n  PROB30 \n  TEMPO 0900/0903 27030G40KT \n  TEMPO 0902/0909 VRB04KT \n  TEMPO 0909/0916 27020G30KT \n  PROB30 \n  TEMPO 0909/0913 27030G40KT",
      "metarHtml": "METAR LEVC 081930Z 20016KT <span class=\"hl-vis\">CAVOK</span> 12/02 Q1023 NOSIG",
      "tafHtml": "TAF LEVC 081700Z 0818/0918 26015KT <span class=\"hl-vis\">CAVOK</span> TX18/0914Z TN09/0906Z \n  TEMPO 0823/0904 27018G28KT \n  PROB30 \n  TEMPO 0900/0903 27030G40KT \n  TEMPO 0902/0909 VRB04KT \n  TEMPO 0909/0916 27020G30KT \n  PROB30 \n  TEMPO 0909/0913 27030G40KT"
    },
    {
      "icao": "LFMN",
      "iata": "NCE",
      "name": "Nice-Côte d'Azur Airport",
      "updatedAt": "081930Z",
      "visibility_m": 10000,
      "taf_visibility_m": 10000,
      "worst_visibility_m": 10000,
      "ceiling_ft": 26000,
      "hazards": [],
      "severityScore": 0,
      "metarRaw": "METAR LFMN 081930Z 33006KT 9999 FEW050 BKN260 07/02 Q1011 NOSIG",
      "tafRaw": "TAF LFMN 081400Z 0815/0921 08010KT 9999 FEW050 \n  BECMG 0816/0818 33010KT \n  TEMPO 0820/0823 24015KT \n  BECMG 0823/0901 24020KT \n  TEMPO 0906/0912 24025G35KT \n  PROB40 \n  TEMPO 0918/0921 30012KT",
      "metarHtml": "METAR LFMN 081930Z 33006KT 9999 FEW050 BKN260 07/02 Q1011 NOSIG",
      "tafHtml": "TAF LFMN 081400Z 0815/0921 08010KT 9999 FEW050 \n  BECMG 0816/0818 33010KT \n  TEMPO 0820/0823 24015KT \n  BECMG 0823/0901 24020KT \n  TEMPO 0906/0912 24025G35KT \n  PROB40 \n  TEMPO 0918/0921 30012KT"
    },
    {
      "icao": "LGAV",
      "iata": "ATH",
      "name": "Athens Eleftherios Venizelos International Airport",
      "updatedAt": "081920Z",
      "visibility_m": 10000,
      "taf_visibility_m": 10000,
      "worst_visibility_m": 10000,
      "ceiling_ft": null,
      "hazards": [],
      "severityScore": 0,
      "metarRaw": "METAR LGAV 081920Z 27020G39KT 250V320 9999 FEW025 11/M02 Q1010 NOSIG",
      "tafRaw": "TAF LGAV 081700Z 0818/0918 28020KT 9999 FEW025 \n  TEMPO 0818/0824 28020G30KT \n  BECMG 0902/0904 28012KT \n  BECMG 0909/0911 22010KT",
      "metarHtml": "METAR LGAV 081920Z 27020G39KT 250V320 9999 FEW025 11/M02 Q1010 NOSIG",
      "tafHtml": "TAF LGAV 081700Z 0818/0918 28020KT 9999 FEW025 \n  TEMPO 0818/0824 28020G30KT \n  BECMG 0902/0904 28012KT \n  BECMG 0909/0911 22010KT"
    },
    {
      "icao": "LGTS",
      "iata": "SKG",
      "name": "Thessaloniki Macedonia International Airport",
      "updatedAt": "081920Z",
      "visibility_m": 10000,
      "taf_visibility_m": 10000,
      "worst_visibility_m": 10000,
      "ceiling_ft": null,
      "hazards": [],
      "severityScore": 0,
      "metarRaw": "METAR LGTS 081920Z 34021G31KT 9999 FEW025 05/M04 Q1009 NOSIG",
      "tafRaw": "TAF LGTS 081700Z 0818/0918 31015KT 9999 FEW025 \n  TEMPO 0818/0903 31015G25KT \n  BECMG 0907/0909 VRB03KT",
      "metarHtml": "METAR LGTS 081920Z 34021G31KT 9999 FEW025 05/M04 Q1009 NOSIG",
      "tafHtml": "TAF LGTS 081700Z 0818/0918 31015KT 9999 FEW025 \n  TEMPO 0818/0903 31015G25KT \n  BECMG 0907/0909 VRB03KT"
    },
    {
      "icao": "LIBD",
      "iata": "BRI",
      "name": "Bari Karol Wojtyła International Airport",
      "updatedAt": "081920Z",
      "visibility_m": 10000,
      "taf_visibility_m": 10000,
      "worst_visibility_m": 10000,
      "ceiling_ft": null,
      "hazards": [],
      "severityScore": 0,
      "metarRaw": "METAR LIBD 081920Z 25008KT CAVOK 02/M03 Q1016",
      "tafRaw": "TAF LIBD 081700Z 0818/0918 28012KT 9999 FEW020 \n  BECMG 0818/0820 17008KT \n  BECMG 0908/0910 23013KT \n  TEMPO 0910/0915 23015G25KT",
      "metarHtml": "METAR LIBD 081920Z 25008KT <span class=\"hl-vis\">CAVOK</span> 02/M03 Q1016",
      "tafHtml": "TAF LIBD 081700Z 0818/0918 28012KT 9999 FEW020 \n  BECMG 0818/0820 17008KT \n  BECMG 0908/0910 23013KT \n  TEMPO 0910/0915 23015G25KT"
    },
    {
      "icao": "LIBG",
      "iata": "TAR",
      "name": "Taranto-Grottaglie Marcello Arlotta Airport",
      "updatedAt": "081850Z",
      "visibility_m": 10000,
      "taf_visibility_m": 10000,
      "worst_visibility_m": 10000,
      "ceiling_ft": null,
      "hazards": [],
      "severityScore": 0,
      "metarRaw": "METAR LIBG 081850Z 29004KT 260V320 CAVOK 04/01 Q1017",
      "tafRaw": "TAF LIBG 081700Z 0818/0903 32008KT 9999 FEW040",
      "metarHtml": "METAR LIBG 081850Z 29004KT 260V320 <span class=\"hl-vis\">CAVOK</span> 04/01 Q1017",
      "tafHtml": "TAF LIBG 081700Z 0818/0903 32008KT 9999 FEW040"
    },
    {
      "icao": "LIBP",
      "iata": "PSR",
      "name": "Abruzzo Airport",
      "updatedAt": "081920Z",
      "visibility_m": 10000,
      "taf_visibility_m": 10000,
      "worst_visibility_m": 10000,
      "ceiling_ft": null,
      "hazards": [],
      "severityScore": 0,
      "metarRaw": "METAR LIBP 081920Z AUTO 36003KT 330V080 9999 NCD 02/M03 Q1014",
      "tafRaw": "TAF LIBP 081700Z 0818/0918 VRB05KT 9999 FEW030 \n  BECMG 0904/0906 24010KT \n  TEMPO 0910/0918 24015G30KT",
      "metarHtml": "METAR LIBP 081920Z AUTO 36003KT 330V080 9999 NCD 02/M03 Q1014",
      "tafHtml": "TAF LIBP 081700Z 0818/0918 VRB05KT 9999 FEW030 \n  BECMG 0904/0906 24010KT \n  TEMPO 0910/0918 24015G30KT"
    },
    {
      "icao": "LIBR",
      "iata": "BDS",
      "name": "Brindisi Airport",
      "updatedAt": "081920Z",
      "visibility_m": 10000,
      "taf_visibility_m": 10000,
      "worst_visibility_m": 10000,
      "ceiling_ft": null,
      "hazards": [],
      "severityScore": 0,
      "metarRaw": "METAR LIBR 081920Z 28011KT CAVOK 06/M01 Q1016",
      "tafRaw": "TAF LIBR 081700Z 0818/0918 30018KT 9999 FEW040 \n  BECMG 0822/0824 16008KT \n  BECMG 0910/0912 22013KT",
      "metarHtml": "METAR LIBR 081920Z 28011KT <span class=\"hl-vis\">CAVOK</span> 06/M01 Q1016",
      "tafHtml": "TAF LIBR 081700Z 0818/0918 30018KT 9999 FEW040 \n  BECMG 0822/0824 16008KT \n  BECMG 0910/0912 22013KT"
    },
    {
      "icao": "LICC",
      "iata": "CTA",
      "name": "Catania-Fontanarossa Airport",
      "updatedAt": "081920Z",
      "visibility_m": 10000,
      "taf_visibility_m": 10000,
      "worst_visibility_m": 10000,
      "ceiling_ft": null,
      "hazards": [],
      "severityScore": 0,
      "metarRaw": "METAR LICC 081920Z 23012KT CAVOK 11/07 Q1019",
      "tafRaw": "TAF LICC 081700Z 0818/0918 28020G30KT 9999 SCT040",
      "metarHtml": "METAR LICC 081920Z 23012KT <span class=\"hl-vis\">CAVOK</span> 11/07 Q1019",
      "tafHtml": "TAF LICC 081700Z 0818/0918 28020G30KT 9999 SCT040"
    },
    {
      "icao": "LIMF",
      "iata": "TRN",
      "name": "Turin Airport",
      "updatedAt": "081920Z",
      "visibility_m": 8000,
      "taf_visibility_m": 9000,
      "worst_visibility_m": 8000,
      "ceiling_ft": null,
      "hazards": [],
      "severityScore": 0,
      "metarRaw": "METAR LIMF 081920Z 35003KT 8000 NSC 00/M06 Q1010",
      "tafRaw": "TAF LIMF 081700Z 0818/0918 VRB03KT 9000 FEW050",
      "metarHtml": "METAR LIMF 081920Z 35003KT 8000 NSC 00/M06 Q1010",
      "tafHtml": "TAF LIMF 081700Z 0818/0918 VRB03KT 9000 FEW050"
    },
    {
      "icao": "LIMJ",
      "iata": "GOA",
      "name": "Genoa Cristoforo Colombo Airport",
      "updatedAt": "081920Z",
      "visibility_m": 10000,
      "taf_visibility_m": 10000,
      "worst_visibility_m": 10000,
      "ceiling_ft": 3500,
      "hazards": [],
      "severityScore": 0,
      "metarRaw": "METAR LIMJ 081920Z 06005KT 9999 BKN035 09/02 Q1011",
      "tafRaw": "TAF LIMJ 081700Z 0818/0918 14010KT 9999 BKN030 \n  BECMG 0906/0908 03008KT",
      "metarHtml": "METAR LIMJ 081920Z 06005KT 9999 BKN035 09/02 Q1011",
      "tafHtml": "TAF LIMJ 081700Z 0818/0918 14010KT 9999 BKN030 \n  BECMG 0906/0908 03008KT"
    },
    {
      "icao": "LIPE",
      "iata": "BLQ",
      "name": "Bologna Guglielmo Marconi Airport",
      "updatedAt": "081920Z",
      "visibility_m": 10000,
      "taf_visibility_m": 10000,
      "worst_visibility_m": 10000,
      "ceiling_ft": null,
      "hazards": [],
      "severityScore": 0,
      "metarRaw": "METAR LIPE 081920Z VRB01KT CAVOK M02/M04 Q1013",
      "tafRaw": "TAF LIPE 081700Z 0818/0918 VRB05KT CAVOK",
      "metarHtml": "METAR LIPE 081920Z VRB01KT <span class=\"hl-vis\">CAVOK</span> M02/M04 Q1013",
      "tafHtml": "TAF LIPE 081700Z 0818/0918 VRB05KT <span class=\"hl-vis\">CAVOK</span>"
    },
    {
      "icao": "LIPH",
      "iata": "TSF",
      "name": "Treviso Antonio Canova Airport",
      "updatedAt": "081920Z",
      "visibility_m": 10000,
      "taf_visibility_m": 10000,
      "worst_visibility_m": 10000,
      "ceiling_ft": null,
      "hazards": [],
      "severityScore": 0,
      "metarRaw": "METAR LIPH 081920Z VRB01KT CAVOK M02/M05 Q1013",
      "tafRaw": "TAF LIPH 081700Z 0818/0918 VRB05KT CAVOK",
      "metarHtml": "METAR LIPH 081920Z VRB01KT <span class=\"hl-vis\">CAVOK</span> M02/M05 Q1013",
      "tafHtml": "TAF LIPH 081700Z 0818/0918 VRB05KT <span class=\"hl-vis\">CAVOK</span>"
    },
    {
      "icao": "LIPR",
      "iata": "RMI",
      "name": "Federico Fellini International Airport",
      "updatedAt": "081920Z",
      "visibility_m": 10000,
      "taf_visibility_m": 10000,
      "worst_visibility_m": 10000,
      "ceiling_ft": null,
      "hazards": [],
      "severityScore": 0,
      "metarRaw": "METAR LIPR 081920Z 20008KT CAVOK 04/01 Q1012",
      "tafRaw": "TAF LIPR 081700Z 0818/0918 VRB05KT CAVOK \n  BECMG 0908/0910 29010KT",
      "metarHtml": "METAR LIPR 081920Z 20008KT <span class=\"hl-vis\">CAVOK</span> 04/01 Q1012",
      "tafHtml": "TAF LIPR 081700Z 0818/0918 VRB05KT <span class=\"hl-vis\">CAVOK</span> \n  BECMG 0908/0910 29010KT"
    },
    {
      "icao": "LIPX",
      "iata": "VRN",
      "name": "Verona Villafranca Valerio Catullo Airport",
      "updatedAt": "081920Z",
      "visibility_m": 8000,
      "taf_visibility_m": 8000,
      "worst_visibility_m": 8000,
      "ceiling_ft": null,
      "hazards": [],
      "severityScore": 0,
      "metarRaw": "METAR LIPX 081920Z 04005KT 8000 FEW010 M02/M03 Q1013",
      "tafRaw": "TAF LIPX 081700Z 0818/0918 VRB05KT 8000 FEW020",
      "metarHtml": "METAR LIPX 081920Z 04005KT 8000 FEW010 M02/M03 Q1013",
      "tafHtml": "TAF LIPX 081700Z 0818/0918 VRB05KT 8000 FEW020"
    },
    {
      "icao": "LIPY",
      "iata": "AOI",
      "name": "Marche Airport",
      "updatedAt": "081920Z",
      "visibility_m": 10000,
      "taf_visibility_m": 10000,
      "worst_visibility_m": 10000,
      "ceiling_ft": null,
      "hazards": [],
      "severityScore": 0,
      "metarRaw": "METAR LIPY 081920Z AUTO VRB01KT 9999 FEW045/// SCT069/// 02/M00 Q1013",
      "tafRaw": "TAF LIPY 081700Z 0818/0918 VRB05KT 9999 SCT030 \n  BECMG 0911/0913 24010KT \n  TEMPO 0915/0918 24015G25KT",
      "metarHtml": "METAR LIPY 081920Z AUTO VRB01KT 9999 FEW045/// SCT069/// 02/M00 Q1013",
      "tafHtml": "TAF LIPY 081700Z 0818/0918 VRB05KT 9999 SCT030 \n  BECMG 0911/0913 24010KT \n  TEMPO 0915/0918 24015G25KT"
    },
    {
      "icao": "LIPZ",
      "iata": "VCE",
      "name": "Venice Marco Polo Airport",
      "updatedAt": "081920Z",
      "visibility_m": 8000,
      "taf_visibility_m": 10000,
      "worst_visibility_m": 8000,
      "ceiling_ft": null,
      "hazards": [],
      "severityScore": 0,
      "metarRaw": "METAR LIPZ 081920Z 31003KT 270V020 8000 NSC M01/M03 Q1013 NOSIG",
      "tafRaw": "TAF LIPZ 081700Z 0818/0924 VRB05KT CAVOK",
      "metarHtml": "METAR LIPZ 081920Z 31003KT 270V020 8000 NSC M01/M03 Q1013 NOSIG",
      "tafHtml": "TAF LIPZ 081700Z 0818/0924 VRB05KT <span class=\"hl-vis\">CAVOK</span>"
    },
    {
      "icao": "LRCV",
      "iata": "CRA",
      "name": "Craiova International Airport",
      "updatedAt": "081930Z",
      "visibility_m": 10000,
      "taf_visibility_m": 10000,
      "worst_visibility_m": 10000,
      "ceiling_ft": null,
      "hazards": [],
      "severityScore": 0,
      "metarRaw": "METAR LRCV 081930Z 29018KT CAVOK M05/M08 Q1005",
      "tafRaw": "TAF LRCV 081700Z 0818/0903 27018KT CAVOK \n  TEMPO 0818/0822 27020G35KT",
      "metarHtml": "METAR LRCV 081930Z 29018KT <span class=\"hl-vis\">CAVOK</span> M05/M08 Q1005",
      "tafHtml": "TAF LRCV 081700Z 0818/0903 27018KT <span class=\"hl-vis\">CAVOK</span> \n  TEMPO 0818/0822 27020G35KT"
    },
    {
      "icao": "LWSK",
      "iata": "SKP",
      "name": "Skopje International Airport",
      "updatedAt": "081920Z",
      "visibility_m": 10000,
      "taf_visibility_m": 10000,
      "worst_visibility_m": 10000,
      "ceiling_ft": null,
      "hazards": [],
      "severityScore": 0,
      "metarRaw": "METAR LWSK 081920Z 04003KT 340V100 9999 SCT090 M01/M06 Q1012 NOSIG",
      "tafRaw": "TAF LWSK 081735Z 0818/0918 VRB02KT 9999 SCT080 \n  TEMPO 0818/0822 02010KT",
      "metarHtml": "METAR LWSK 081920Z 04003KT 340V100 9999 SCT090 M01/M06 Q1012 NOSIG",
      "tafHtml": "TAF LWSK 081735Z 0818/0918 VRB02KT 9999 SCT080 \n  TEMPO 0818/0822 02010KT"
    },
    {
      "icao": "OEMA",
      "iata": "MED",
      "name": "Prince Mohammad Bin Abdulaziz Airport",
      "updatedAt": "081900Z",
      "visibility_m": 10000,
      "taf_visibility_m": 7000,
      "worst_visibility_m": 7000,
      "ceiling_ft": null,
      "hazards": [],
      "severityScore": 0,
      "metarRaw": "METAR OEMA 081900Z 06004KT CAVOK 22/M03 Q1021 NOSIG",
      "tafRaw": "TAF OEMA 081700Z 0818/0924 08006KT CAVOK \n  BECMG 0910/0912 22012KT 7000 FEW040",
      "metarHtml": "METAR OEMA 081900Z 06004KT <span class=\"hl-vis\">CAVOK</span> 22/M03 Q1021 NOSIG",
      "tafHtml": "TAF OEMA 081700Z 0818/0924 08006KT <span class=\"hl-vis\">CAVOK</span> \n  BECMG 0910/0912 22012KT 7000 FEW040"
    },
    {
      "icao": "OMAA",
      "iata": "AUH",
      "name": "Zayed International Airport",
      "updatedAt": "081900Z",
      "visibility_m": 10000,
      "taf_visibility_m": 10000,
      "worst_visibility_m": 10000,
      "ceiling_ft": null,
      "hazards": [],
      "severityScore": 0,
      "metarRaw": "METAR OMAA 081900Z 04002KT CAVOK 19/11 Q1019 NOSIG",
      "tafRaw": "TAF OMAA 081700Z 0818/1000 VRB02KT CAVOK \n  BECMG 0908/0910 33009KT \n  BECMG 0918/0920 VRB02KT",
      "metarHtml": "METAR OMAA 081900Z 04002KT <span class=\"hl-vis\">CAVOK</span> 19/11 Q1019 NOSIG",
      "tafHtml": "TAF OMAA 081700Z 0818/1000 VRB02KT <span class=\"hl-vis\">CAVOK</span> \n  BECMG 0908/0910 33009KT \n  BECMG 0918/0920 VRB02KT"
    },
    {
      "icao": "OMDB",
      "iata": "DXB",
      "name": "Dubai International Airport",
      "updatedAt": "081930Z",
      "visibility_m": 10000,
      "taf_visibility_m": 10000,
      "worst_visibility_m": 10000,
      "ceiling_ft": null,
      "hazards": [],
      "severityScore": 0,
      "metarRaw": "METAR OMDB 081930Z 08005KT 040V110 CAVOK 21/11 Q1019 NOSIG",
      "tafRaw": "TAF OMDB 081700Z 0818/1000 09005KT CAVOK \n  BECMG 0908/0910 33010KT \n  BECMG 0916/0918 08005KT",
      "metarHtml": "METAR OMDB 081930Z 08005KT 040V110 <span class=\"hl-vis\">CAVOK</span> 21/11 Q1019 NOSIG",
      "tafHtml": "TAF OMDB 081700Z 0818/1000 09005KT <span class=\"hl-vis\">CAVOK</span> \n  BECMG 0908/0910 33010KT \n  BECMG 0916/0918 08005KT"
    }
  ],
  "stats": {
    "icaoCount": 159,
    "metarReturned": 159,
    "tafReturned": 143,
    "stationsWritten": 159,
    "missingMetar": 0,
    "missingTaf": 16
  },
  "errors": []
}