{
  "generatedAt": "2026-01-07T02:52:48.478Z",
  "stations": [
    {
      "icao": "EPGD",
      "iata": "GDN",
      "name": "Gdańsk Lech Wałęsa Airport",
      "updatedAt": "070230Z",
      "visibility_m": 4700,
      "taf_visibility_m": 600,
      "worst_visibility_m": 600,
      "ceiling_ft": 200,
      "hazards": [
        "BR",
        "FZFG"
      ],
      "severityScore": 100,
      "metarRaw": "METAR EPGD 070230Z 25008KT 4700 BR OVC002 M06/M07 Q1014",
      "tafRaw": "TAF EPGD 062330Z 0700/0724 26005KT 4000 BR BKN002 \n  TEMPO 0700/0706 5000 BR BKN005 \n  PROB40 \n  TEMPO 0700/0706 0600 FZFG SCT002 \n  BECMG 0706/0709 9999 SCT016 \n  BECMG 0719/0721 BKN004 \n  TEMPO 0721/0724 2000 BR",
      "metarHtml": "METAR EPGD 070230Z 25008KT 4700 <span class=\"hl\">BR</span> OVC002 M06/M07 Q1014",
      "tafHtml": "TAF EPGD 062330Z 0700/0724 26005KT 4000 <span class=\"hl\">BR</span> BKN002 \n  TEMPO 0700/0706 5000 <span class=\"hl\">BR</span> BKN005 \n  PROB40 \n  TEMPO 0700/0706 <span class=\"hl-vis\">0600</span> <span class=\"hl\">FZFG</span> SCT002 \n  BECMG 0706/0709 9999 SCT016 \n  BECMG 0719/0721 BKN004 \n  TEMPO 0721/0724 2000 <span class=\"hl\">BR</span>"
    },
    {
      "icao": "EPPO",
      "iata": "POZ",
      "name": "Poznań-Ławica Airport",
      "updatedAt": "070230Z",
      "visibility_m": 5000,
      "taf_visibility_m": 100,
      "worst_visibility_m": 100,
      "ceiling_ft": 1000,
      "hazards": [
        "BR",
        "FZFG"
      ],
      "severityScore": 100,
      "metarRaw": "METAR EPPO 070230Z 00000KT 5000 BR BKN010 OVC036 M05/M06 Q1016",
      "tafRaw": "TAF EPPO 062330Z 0700/0724 28003KT 8000 BKN020 \n  TEMPO 0700/0708 3000 BR BKN008 \n  PROB30 \n  TEMPO 0700/0708 0100 FZFG BKN001 \n  BECMG 0709/0712 7000 \n  BECMG 0715/0718 4000 BR",
      "metarHtml": "METAR EPPO 070230Z 00000KT 5000 <span class=\"hl\">BR</span> BKN010 OVC036 M05/M06 Q1016",
      "tafHtml": "TAF EPPO 062330Z 0700/0724 28003KT 8000 BKN020 \n  TEMPO 0700/0708 3000 <span class=\"hl\">BR</span> BKN008 \n  PROB30 \n  TEMPO 0700/0708 <span class=\"hl-vis\">0100</span> <span class=\"hl\">FZFG</span> BKN001 \n  BECMG 0709/0712 7000 \n  BECMG 0715/0718 4000 <span class=\"hl\">BR</span>"
    },
    {
      "icao": "LFPO",
      "iata": "ORY",
      "name": "Paris-Orly Airport",
      "updatedAt": "070230Z",
      "visibility_m": 10000,
      "taf_visibility_m": 600,
      "worst_visibility_m": 600,
      "ceiling_ft": 500,
      "hazards": [
        "FZFG",
        "FG",
        "SN"
      ],
      "severityScore": 100,
      "metarRaw": "METAR LFPO 070230Z AUTO 20010KT 160V230 9999 OVC005 M02/M02 Q1015",
      "tafRaw": "TAF LFPO 061700Z 0618/0724 19005KT 8000 FEW030 \n  TEMPO 0618/0706 2500 BKN002 \n  PROB40 \n  TEMPO 0618/0706 0800 FZFG VV/// \n  BECMG 0705/0707 27012KT -SN \n  TEMPO 0706/0712 3500 BKN006 \n  PROB40 \n  TEMPO 0706/0712 20012G25KT 1500 BKN004 \n  PROB30 \n  TEMPO 0707/0710 0600 SN FG BKN002 \n  BECMG 0711/0713 NSW \n  TEMPO 0712/0715 BKN008",
      "metarHtml": "METAR LFPO 070230Z AUTO 20010KT 160V230 9999 OVC005 M02/M02 Q1015",
      "tafHtml": "TAF LFPO 061700Z 0618/0724 19005KT 8000 FEW030 \n  TEMPO 0618/0706 2500 BKN002 \n  PROB40 \n  TEMPO 0618/0706 <span class=\"hl-vis\">0800</span> <span class=\"hl\">FZFG</span> VV/// \n  BECMG 0705/0707 27012KT -<span class=\"hl\">SN</span> \n  TEMPO 0706/0712 3500 BKN006 \n  PROB40 \n  TEMPO 0706/0712 20012G25KT 1500 BKN004 \n  PROB30 \n  TEMPO 0707/0710 <span class=\"hl-vis\">0600</span> <span class=\"hl\">SN</span> <span class=\"hl\">FG</span> BKN002 \n  BECMG 0711/0713 NSW \n  TEMPO 0712/0715 BKN008"
    },
    {
      "icao": "LRIA",
      "iata": "IAS",
      "name": "Iaşi Airport",
      "updatedAt": "070230Z",
      "visibility_m": 200,
      "taf_visibility_m": 300,
      "worst_visibility_m": 200,
      "ceiling_ft": 100,
      "hazards": [
        "FG",
        "FZFG",
        "BR"
      ],
      "severityScore": 100,
      "metarRaw": "METAR LRIA 070230Z 29005KT 0200 R14/0600N FG VV001 00/00 Q1011",
      "tafRaw": "TAF LRIA 070200Z 0703/0712 30006KT 0300 FZFG VV001 \n  BECMG 0706/0708 0800 FG OVC002 \n  BECMG 0708/0710 3000 BR OVC005",
      "metarHtml": "METAR LRIA 070230Z 29005KT <span class=\"hl-vis\">0200</span> R14/0600N <span class=\"hl\">FG</span> VV001 00/00 Q1011",
      "tafHtml": "TAF LRIA 070200Z 0703/0712 30006KT <span class=\"hl-vis\">0300</span> <span class=\"hl\">FZFG</span> VV001 \n  BECMG 0706/0708 <span class=\"hl-vis\">0800</span> <span class=\"hl\">FG</span> OVC002 \n  BECMG 0708/0710 3000 <span class=\"hl\">BR</span> OVC005"
    },
    {
      "icao": "LRCL",
      "iata": "CLJ",
      "name": "Cluj Avram Iancu International Airport",
      "updatedAt": "070230Z",
      "visibility_m": 6000,
      "taf_visibility_m": 600,
      "worst_visibility_m": 600,
      "ceiling_ft": 400,
      "hazards": [
        "FG",
        "BR",
        "SN"
      ],
      "severityScore": 100,
      "metarRaw": "METAR LRCL 070230Z 06004KT 6000 BKN004 BKN015 01/01 Q1006",
      "tafRaw": "TAF LRCL 070200Z 0703/0712 VRB04KT 3000 BR BKN005 BKN045 \n  TEMPO 0703/0705 0600 FG OVC001 \n  BECMG 0705/0707 -RASN \n  BECMG 0707/0709 1500 SN BKN002 OVC020 \n  BECMG 0710/0712 5000 -SN BKN010 OVC025",
      "metarHtml": "METAR LRCL 070230Z 06004KT 6000 BKN004 BKN015 01/01 Q1006",
      "tafHtml": "TAF LRCL 070200Z 0703/0712 VRB04KT 3000 <span class=\"hl\">BR</span> BKN005 BKN045 \n  TEMPO 0703/0705 <span class=\"hl-vis\">0600</span> <span class=\"hl\">FG</span> OVC001 \n  BECMG 0705/0707 -RASN \n  BECMG 0707/0709 1500 <span class=\"hl\">SN</span> BKN002 OVC020 \n  BECMG 0710/0712 5000 -<span class=\"hl\">SN</span> BKN010 OVC025"
    },
    {
      "icao": "LRCV",
      "iata": "CRA",
      "name": "Craiova International Airport",
      "updatedAt": "070230Z",
      "visibility_m": 200,
      "taf_visibility_m": 300,
      "worst_visibility_m": 200,
      "ceiling_ft": 200,
      "hazards": [
        "FG",
        "BR",
        "DZ"
      ],
      "severityScore": 100,
      "metarRaw": "METAR LRCV 070230Z 11004KT 0200 R26/0400N FG VV002 02/02 Q1008",
      "tafRaw": "TAF LRCV 070200Z 0703/0712 VRB04KT 0300 FG OVC001 \n  BECMG 0704/0706 0800 -RADZ FG OVC005 \n  BECMG 0707/0709 1500 -DZ BR \n  BECMG 0709/0711 5000 BR BKN010",
      "metarHtml": "METAR LRCV 070230Z 11004KT <span class=\"hl-vis\">0200</span> R26/0400N <span class=\"hl\">FG</span> VV002 02/02 Q1008",
      "tafHtml": "TAF LRCV 070200Z 0703/0712 VRB04KT <span class=\"hl-vis\">0300</span> <span class=\"hl\">FG</span> OVC001 \n  BECMG 0704/0706 <span class=\"hl-vis\">0800</span> -RADZ <span class=\"hl\">FG</span> OVC005 \n  BECMG 0707/0709 1500 -<span class=\"hl\">DZ</span> <span class=\"hl\">BR</span> \n  BECMG 0709/0711 5000 <span class=\"hl\">BR</span> BKN010"
    },
    {
      "icao": "LRSB",
      "iata": "SBZ",
      "name": "Sibiu International Airport",
      "updatedAt": "070230Z",
      "visibility_m": 300,
      "taf_visibility_m": 300,
      "worst_visibility_m": 300,
      "ceiling_ft": 300,
      "hazards": [
        "FG",
        "FZFG",
        "BR"
      ],
      "severityScore": 100,
      "metarRaw": "METAR LRSB 070230Z 28003KT 0300 R27/0550N FG OVC003 00/00 Q1005",
      "tafRaw": "TAF LRSB 062300Z 0700/0724 VRB04KT 0300 FG OVC001 \n  BECMG 0703/0705 1000 BR OVC002 \n  BECMG 0707/0709 30010KT 5000 BKN010 \n  BECMG 0709/0711 9999 NSW BKN020 \n  BECMG 0713/0715 VRB04KT 3000 BR BKN010 \n  BECMG 0716/0718 0600 FG OVC002 \n  TEMPO 0720/0724 0300 FZFG OVC001",
      "metarHtml": "METAR LRSB 070230Z 28003KT <span class=\"hl-vis\">0300</span> R27/0550N <span class=\"hl\">FG</span> OVC003 00/00 Q1005",
      "tafHtml": "TAF LRSB 062300Z 0700/0724 VRB04KT <span class=\"hl-vis\">0300</span> <span class=\"hl\">FG</span> OVC001 \n  BECMG 0703/0705 1000 <span class=\"hl\">BR</span> OVC002 \n  BECMG 0707/0709 30010KT 5000 BKN010 \n  BECMG 0709/0711 9999 NSW BKN020 \n  BECMG 0713/0715 VRB04KT 3000 <span class=\"hl\">BR</span> BKN010 \n  BECMG 0716/0718 <span class=\"hl-vis\">0600</span> <span class=\"hl\">FG</span> OVC002 \n  TEMPO 0720/0724 <span class=\"hl-vis\">0300</span> <span class=\"hl\">FZFG</span> OVC001"
    },
    {
      "icao": "LRSV",
      "iata": "SCV",
      "name": "Suceava Stefan cel Mare Airport",
      "updatedAt": "070230Z",
      "visibility_m": 800,
      "taf_visibility_m": 300,
      "worst_visibility_m": 300,
      "ceiling_ft": 100,
      "hazards": [
        "FG",
        "FZFG",
        "BR"
      ],
      "severityScore": 100,
      "metarRaw": "METAR LRSV 070230Z 34008KT 0800 R34/1400U FG OVC001 M02/M02 Q1009",
      "tafRaw": "TAF LRSV 070200Z 0703/0712 34010KT 0800 FZFG OVC002 \n  TEMPO 0703/0707 0300 FZFG OVC001 \n  BECMG 0707/0709 3000 BR OVC005",
      "metarHtml": "METAR LRSV 070230Z 34008KT <span class=\"hl-vis\">0800</span> R34/1400U <span class=\"hl\">FG</span> OVC001 M02/M02 Q1009",
      "tafHtml": "TAF LRSV 070200Z 0703/0712 34010KT <span class=\"hl-vis\">0800</span> <span class=\"hl\">FZFG</span> OVC002 \n  TEMPO 0703/0707 <span class=\"hl-vis\">0300</span> <span class=\"hl\">FZFG</span> OVC001 \n  BECMG 0707/0709 3000 <span class=\"hl\">BR</span> OVC005"
    },
    {
      "icao": "LRTM",
      "iata": "TGM",
      "name": "Târgu Mureş Transilvania International Airport",
      "updatedAt": "070230Z",
      "visibility_m": 400,
      "taf_visibility_m": 300,
      "worst_visibility_m": 300,
      "ceiling_ft": 100,
      "hazards": [
        "FG",
        "FZFG",
        "BR",
        "SN",
        "FZDZ"
      ],
      "severityScore": 100,
      "metarRaw": "METAR LRTM 070230Z AUTO 11003KT 0400 R07/0450N FG VV001 00/00 Q1006",
      "tafRaw": "TAF LRTM 070200Z 0703/0712 VRB04KT 0300 FG OVC001 \n  PROB30 \n  TEMPO 0703/0706 0600 -FZDZ FZFG OVC002 \n  BECMG 0706/0708 0800 OVC002 \n  BECMG 0708/0710 1500 -RASN BR BKN005 OVC020 \n  BECMG 0710/0712 3000 -SN BR",
      "metarHtml": "METAR LRTM 070230Z AUTO 11003KT <span class=\"hl-vis\">0400</span> R07/0450N <span class=\"hl\">FG</span> VV001 00/00 Q1006",
      "tafHtml": "TAF LRTM 070200Z 0703/0712 VRB04KT <span class=\"hl-vis\">0300</span> <span class=\"hl\">FG</span> OVC001 \n  PROB30 \n  TEMPO 0703/0706 <span class=\"hl-vis\">0600</span> -<span class=\"hl\">FZDZ</span> <span class=\"hl\">FZFG</span> OVC002 \n  BECMG 0706/0708 <span class=\"hl-vis\">0800</span> OVC002 \n  BECMG 0708/0710 1500 -RASN <span class=\"hl\">BR</span> BKN005 OVC020 \n  BECMG 0710/0712 3000 -<span class=\"hl\">SN</span> <span class=\"hl\">BR</span>"
    },
    {
      "icao": "LRTR",
      "iata": "TSR",
      "name": "Timişoara Traian Vuia Airport",
      "updatedAt": "070230Z",
      "visibility_m": 4500,
      "taf_visibility_m": 800,
      "worst_visibility_m": 800,
      "ceiling_ft": 3000,
      "hazards": [
        "BR",
        "SN",
        "FZFG",
        "FZDZ"
      ],
      "severityScore": 100,
      "metarRaw": "METAR LRTR 070230Z 28006KT 4500 -SN BR SCT003 SCT010 OVC030 M01/M01 Q1010 REFZDZ",
      "tafRaw": "TAF LRTR 062300Z 0700/0724 VRB04KT 1500 -FZDZ BR BKN002 OVC010 \n  BECMG 0701/0703 3000 -SN BR BKN005 OVC015 \n  TEMPO 0703/0707 0800 SN FZFG BKN002 OVC010 \n  BECMG 0708/0710 5000 BR SCT005 BKN015 \n  BECMG 0716/0718 34010KT 3000 -SN BR BKN005 OVC015 \n  TEMPO 0721/0724 1500 SN BR BKN002 OVC010",
      "metarHtml": "METAR LRTR 070230Z 28006KT 4500 -<span class=\"hl\">SN</span> <span class=\"hl\">BR</span> SCT003 SCT010 OVC030 M01/M01 Q1010 REFZDZ",
      "tafHtml": "TAF LRTR 062300Z 0700/0724 VRB04KT 1500 -<span class=\"hl\">FZDZ</span> <span class=\"hl\">BR</span> BKN002 OVC010 \n  BECMG 0701/0703 3000 -<span class=\"hl\">SN</span> <span class=\"hl\">BR</span> BKN005 OVC015 \n  TEMPO 0703/0707 <span class=\"hl-vis\">0800</span> <span class=\"hl\">SN</span> <span class=\"hl\">FZFG</span> BKN002 OVC010 \n  BECMG 0708/0710 5000 <span class=\"hl\">BR</span> SCT005 BKN015 \n  BECMG 0716/0718 34010KT 3000 -<span class=\"hl\">SN</span> <span class=\"hl\">BR</span> BKN005 OVC015 \n  TEMPO 0721/0724 1500 <span class=\"hl\">SN</span> <span class=\"hl\">BR</span> BKN002 OVC010"
    },
    {
      "icao": "LYBE",
      "iata": "BEG",
      "name": "Belgrade Nikola Tesla Airport",
      "updatedAt": "070230Z",
      "visibility_m": 7000,
      "taf_visibility_m": 500,
      "worst_visibility_m": 500,
      "ceiling_ft": 600,
      "hazards": [
        "SN",
        "BR",
        "FZRA"
      ],
      "severityScore": 100,
      "metarRaw": "METAR LYBE 070230Z 26008KT 7000 SN BKN006 BKN030 M03/M04 Q1012 NOSIG",
      "tafRaw": "TAF LYBE 062300Z 0700/0724 27007KT 4000 BR BKN005 BKN025 TXM01/0713Z TNM04/0706Z \n  TEMPO 0700/0703 2500 -FZRA BKN002 OVC023 \n  BECMG 0702/0704 2500 -SN \n  TEMPO 0703/0706 1200 SN BKN002 OVC023 \n  TEMPO 0714/0720 0500 +SN BKN001 OVC021",
      "metarHtml": "METAR LYBE 070230Z 26008KT 7000 <span class=\"hl\">SN</span> BKN006 BKN030 M03/M04 Q1012 NOSIG",
      "tafHtml": "TAF LYBE 062300Z 0700/0724 27007KT 4000 <span class=\"hl\">BR</span> BKN005 BKN025 TXM01/0713Z TNM04/0706Z \n  TEMPO 0700/0703 2500 -<span class=\"hl\">FZRA</span> BKN002 OVC023 \n  BECMG 0702/0704 2500 -<span class=\"hl\">SN</span> \n  TEMPO 0703/0706 1200 <span class=\"hl\">SN</span> BKN002 OVC023 \n  TEMPO 0714/0720 <span class=\"hl-vis\">0500</span> +<span class=\"hl\">SN</span> BKN001 OVC021"
    },
    {
      "icao": "UAAA",
      "iata": "ALA",
      "name": "Almaty International Airport",
      "updatedAt": "070246Z",
      "visibility_m": 150,
      "taf_visibility_m": 300,
      "worst_visibility_m": 150,
      "ceiling_ft": 200,
      "hazards": [
        "FZFG",
        "BR"
      ],
      "severityScore": 100,
      "metarRaw": "SPECI UAAA 070246Z VRB01MPS 0150 R23L/0200 FZFG VV002 M08/M09 Q1032 NOSIG RMK QBB070",
      "tafRaw": "TAF UAAA 062305Z 0700/0724 22003MPS 2200 BR FU SCT011 BKN050 TX03/0709Z TNM06/0701Z \n  TEMPO 0700/0705 0400 FZFG VV002 \n  FM070600 04003G08MPS 6000 SCT020 BKN100 \n  FM071200 16003MPS 3100 BR FU SCT011 BKN100 \n  TEMPO 0715/0718 1500 \n  TEMPO 0718/0724 0300 FZFG VV002",
      "metarHtml": "SPECI UAAA 070246Z VRB01MPS <span class=\"hl-vis\">0150</span> R23L/0200 <span class=\"hl\">FZFG</span> VV002 M08/M09 Q1032 NOSIG RMK QBB070",
      "tafHtml": "TAF UAAA 062305Z 0700/0724 22003MPS 2200 <span class=\"hl\">BR</span> FU SCT011 BKN050 TX03/0709Z TNM06/0701Z \n  TEMPO 0700/0705 <span class=\"hl-vis\">0400</span> <span class=\"hl\">FZFG</span> VV002 \n  FM070600 04003G08MPS 6000 SCT020 BKN100 \n  FM071200 16003MPS 3100 <span class=\"hl\">BR</span> FU SCT011 BKN100 \n  TEMPO 0715/0718 1500 \n  TEMPO 0718/0724 <span class=\"hl-vis\">0300</span> <span class=\"hl\">FZFG</span> VV002"
    },
    {
      "icao": "UBBB",
      "iata": "GYD",
      "name": "Heydar Aliyev International Airport",
      "updatedAt": "070230Z",
      "visibility_m": 200,
      "taf_visibility_m": 200,
      "worst_visibility_m": 200,
      "ceiling_ft": 100,
      "hazards": [
        "FG"
      ],
      "severityScore": 100,
      "metarRaw": "METAR UBBB 070230Z 16010KT 0200 R16/0600 R17/0600 FG BKN001 07/07 Q1022 NOSIG",
      "tafRaw": "TAF UBBB 062300Z 0700/0724 16006KT 0200 FG VV002 TX12/0710Z TN04/0703Z \n  TEMPO 0700/0705 18012KT 0400 BKN004 \n  BECMG 0705/0707 19012KT 6000 NSW SCT008 \n  BECMG 0713/0715 29005KT \n  TEMPO 0715/0724 33008KT SCT030",
      "metarHtml": "METAR UBBB 070230Z 16010KT <span class=\"hl-vis\">0200</span> R16/0600 R17/0600 <span class=\"hl\">FG</span> BKN001 07/07 Q1022 NOSIG",
      "tafHtml": "TAF UBBB 062300Z 0700/0724 16006KT <span class=\"hl-vis\">0200</span> <span class=\"hl\">FG</span> VV002 TX12/0710Z TN04/0703Z \n  TEMPO 0700/0705 18012KT <span class=\"hl-vis\">0400</span> BKN004 \n  BECMG 0705/0707 19012KT 6000 NSW SCT008 \n  BECMG 0713/0715 29005KT \n  TEMPO 0715/0724 33008KT SCT030"
    },
    {
      "icao": "LRBS",
      "iata": "BBU",
      "name": "Bucharest Băneasa Aurel Vlaicu International Airport",
      "updatedAt": "070230Z",
      "visibility_m": 800,
      "taf_visibility_m": null,
      "worst_visibility_m": 800,
      "ceiling_ft": 100,
      "hazards": [
        "FG",
        "BR"
      ],
      "severityScore": 95,
      "metarRaw": "METAR LRBS 070230Z 06008KT 0800 R07/2000N FG VV001 03/03 Q1009 TEMPO 1500 BR OVC002",
      "tafRaw": null,
      "metarHtml": "METAR LRBS 070230Z 06008KT <span class=\"hl-vis\">0800</span> R07/2000N <span class=\"hl\">FG</span> VV001 03/03 Q1009 TEMPO 1500 <span class=\"hl\">BR</span> OVC002",
      "tafHtml": null
    },
    {
      "icao": "LYNI",
      "iata": "INI",
      "name": "Niš Constantine the Great Airport",
      "updatedAt": "070230Z",
      "visibility_m": 10000,
      "taf_visibility_m": 4000,
      "worst_visibility_m": 4000,
      "ceiling_ft": 1200,
      "hazards": [
        "FZRA",
        "SN",
        "FZDZ"
      ],
      "severityScore": 93,
      "metarRaw": "METAR LYNI 070230Z 33017KT 9999 SCT005 BKN012 OVC085 01/M00 Q1009 NOSIG",
      "tafRaw": "TAF LYNI 062300Z 0700/0724 32007KT 9999 BKN010 BKN030 TX01/0700Z TNM03/0724Z \n  TEMPO 0703/0708 5000 FZDZ BKN004 OVC020 \n  PROB30 \n  TEMPO 0703/0707 FZRA \n  TEMPO 0704/0708 33017KT \n  TEMPO 0714/0720 FZRA BKN005 BKN023 \n  TEMPO 0718/0723 33017G27KT \n  BECMG 0721/0723 4000 -SN BKN005 OVC022",
      "metarHtml": "METAR LYNI 070230Z 33017KT 9999 SCT005 BKN012 OVC085 01/M00 Q1009 NOSIG",
      "tafHtml": "TAF LYNI 062300Z 0700/0724 32007KT 9999 BKN010 BKN030 TX01/0700Z TNM03/0724Z \n  TEMPO 0703/0708 5000 <span class=\"hl\">FZDZ</span> BKN004 OVC020 \n  PROB30 \n  TEMPO 0703/0707 <span class=\"hl\">FZRA</span> \n  TEMPO 0704/0708 33017KT \n  TEMPO 0714/0720 <span class=\"hl\">FZRA</span> BKN005 BKN023 \n  TEMPO 0718/0723 33017G27KT \n  BECMG 0721/0723 4000 -<span class=\"hl\">SN</span> BKN005 OVC022"
    },
    {
      "icao": "EYVI",
      "iata": "VNO",
      "name": "Vilnius International Airport",
      "updatedAt": "070250Z",
      "visibility_m": 10000,
      "taf_visibility_m": 600,
      "worst_visibility_m": 600,
      "ceiling_ft": 600,
      "hazards": [
        "FZFG",
        "BR"
      ],
      "severityScore": 90,
      "metarRaw": "METAR EYVI 070250Z 26005KT 9999 OVC006 M05/M06 Q1013 NOSIG",
      "tafRaw": "TAF EYVI 062300Z 0700/0724 VRB05KT 5000 BR BKN005 \n  TEMPO 0701/0707 0600 FZFG BKN002 OVC015 \n  BECMG 0710/0712 9000 NSW \n  TEMPO 0712/0715 SCT005 BKN010 \n  TEMPO 0715/0721 3000 BR",
      "metarHtml": "METAR EYVI 070250Z 26005KT 9999 OVC006 M05/M06 Q1013 NOSIG",
      "tafHtml": "TAF EYVI 062300Z 0700/0724 VRB05KT 5000 <span class=\"hl\">BR</span> BKN005 \n  TEMPO 0701/0707 <span class=\"hl-vis\">0600</span> <span class=\"hl\">FZFG</span> BKN002 OVC015 \n  BECMG 0710/0712 9000 NSW \n  TEMPO 0712/0715 SCT005 BKN010 \n  TEMPO 0715/0721 3000 <span class=\"hl\">BR</span>"
    },
    {
      "icao": "LUKK",
      "iata": "RMO",
      "name": "Chişinău International Airport",
      "updatedAt": "070230Z",
      "visibility_m": 700,
      "taf_visibility_m": 800,
      "worst_visibility_m": 700,
      "ceiling_ft": 100,
      "hazards": [
        "FG",
        "BR"
      ],
      "severityScore": 90,
      "metarRaw": "METAR LUKK 070230Z 02004KT 0700 0500NE R08/0800N FG VV002 02/02 Q1010 TEMPO 0800 FG VV001",
      "tafRaw": "TAF LUKK 062303Z 0700/0724 VRB04KT 3000 BR OVC002 \n  TEMPO 0700/0704 0800 FG VV001 \n  BECMG 0704/0706 8000 NSW OVC004 \n  BECMG 0710/0712 BKN008",
      "metarHtml": "METAR LUKK 070230Z 02004KT <span class=\"hl-vis\">0700</span> 0500NE R08/0800N <span class=\"hl\">FG</span> VV002 02/02 Q1010 TEMPO <span class=\"hl-vis\">0800</span> <span class=\"hl\">FG</span> VV001",
      "tafHtml": "TAF LUKK 062303Z 0700/0724 VRB04KT 3000 <span class=\"hl\">BR</span> OVC002 \n  TEMPO 0700/0704 <span class=\"hl-vis\">0800</span> <span class=\"hl\">FG</span> VV001 \n  BECMG 0704/0706 8000 NSW OVC004 \n  BECMG 0710/0712 BKN008"
    },
    {
      "icao": "EPRZ",
      "iata": "RZE",
      "name": "Rzeszów-Jasionka Airport",
      "updatedAt": "070230Z",
      "visibility_m": 750,
      "taf_visibility_m": 400,
      "worst_visibility_m": 400,
      "ceiling_ft": 200,
      "hazards": [
        "SN"
      ],
      "severityScore": 88,
      "metarRaw": "METAR EPRZ 070230Z 35006KT 0750 R27/1900N +SN BKN002 OVC010 M05/M05 Q1014",
      "tafRaw": "TAF EPRZ 062330Z 0700/0724 02010KT 1400 SN BKN006 BKN013 \n  TEMPO 0700/0708 0400 +SN BKN002 BKN006",
      "metarHtml": "METAR EPRZ 070230Z 35006KT <span class=\"hl-vis\">0750</span> R27/1900N +<span class=\"hl\">SN</span> BKN002 OVC010 M05/M05 Q1014",
      "tafHtml": "TAF EPRZ 062330Z 0700/0724 02010KT 1400 <span class=\"hl\">SN</span> BKN006 BKN013 \n  TEMPO 0700/0708 <span class=\"hl-vis\">0400</span> +<span class=\"hl\">SN</span> BKN002 BKN006"
    },
    {
      "icao": "ESGG",
      "iata": "GOT",
      "name": "Göteborg Landvetter Airport",
      "updatedAt": "070220Z",
      "visibility_m": 450,
      "taf_visibility_m": 500,
      "worst_visibility_m": 450,
      "ceiling_ft": 900,
      "hazards": [
        "SN",
        "SHSN"
      ],
      "severityScore": 88,
      "metarRaw": "METAR ESGG 070220Z 10005KT 0450 R03/P2000N R21/1400U SN VV009 M07/M07 Q1008",
      "tafRaw": "TAF ESGG 070230Z 0703/0803 11006KT 5000 -SN BKN004 \n  TEMPO 0703/0711 0500 SHSN BKN010 BKN020CB \n  BECMG 0711/0713 17010KT BKN015 \n  TEMPO 0713/0724 1200 SHSN BKN010 BKN020CB",
      "metarHtml": "METAR ESGG 070220Z 10005KT <span class=\"hl-vis\">0450</span> R03/P2000N R21/1400U <span class=\"hl\">SN</span> VV009 M07/M07 Q1008",
      "tafHtml": "TAF ESGG 070230Z 0703/0803 11006KT 5000 -<span class=\"hl\">SN</span> BKN004 \n  TEMPO 0703/0711 <span class=\"hl-vis\">0500</span> <span class=\"hl\">SHSN</span> BKN010 BKN020CB \n  BECMG 0711/0713 17010KT BKN015 \n  TEMPO 0713/0724 1200 <span class=\"hl\">SHSN</span> BKN010 BKN020CB"
    },
    {
      "icao": "EBCI",
      "iata": "CRL",
      "name": "Brussels South Charleroi Airport",
      "updatedAt": "070220Z",
      "visibility_m": 9000,
      "taf_visibility_m": 800,
      "worst_visibility_m": 800,
      "ceiling_ft": 900,
      "hazards": [
        "SN",
        "SHSN"
      ],
      "severityScore": 78,
      "metarRaw": "METAR EBCI 070220Z 19016KT 9000 BKN009 M02/M04 Q1012 NOSIG",
      "tafRaw": "TAF EBCI 062337Z 0700/0806 19013KT 6000 SCT008 SCT040 \n  PROB30 \n  TEMPO 0700/0701 4500 -SHSN BKN007 \n  BECMG 0705/0708 19015G27KT 3000 -SN SCT003 BKN005 \n  PROB40 \n  TEMPO 0708/0712 0800 SN BKN002 BKN003 \n  BECMG 0712/0714 19012KT 6000 NSW \n  PROB40 \n  TEMPO 0712/0721 2000 SN SHSN BKN003 \n  BECMG 0720/0722 25010KT SCT035",
      "metarHtml": "METAR EBCI 070220Z 19016KT 9000 BKN009 M02/M04 Q1012 NOSIG",
      "tafHtml": "TAF EBCI 062337Z 0700/0806 19013KT 6000 SCT008 SCT040 \n  PROB30 \n  TEMPO 0700/0701 4500 -<span class=\"hl\">SHSN</span> BKN007 \n  BECMG 0705/0708 19015G27KT 3000 -<span class=\"hl\">SN</span> SCT003 BKN005 \n  PROB40 \n  TEMPO 0708/0712 <span class=\"hl-vis\">0800</span> <span class=\"hl\">SN</span> BKN002 BKN003 \n  BECMG 0712/0714 19012KT 6000 NSW \n  PROB40 \n  TEMPO 0712/0721 2000 <span class=\"hl\">SN</span> <span class=\"hl\">SHSN</span> BKN003 \n  BECMG 0720/0722 25010KT SCT035"
    },
    {
      "icao": "ESSA",
      "iata": "ARN",
      "name": "Stockholm-Arlanda Airport",
      "updatedAt": "070220Z",
      "visibility_m": 10000,
      "taf_visibility_m": 600,
      "worst_visibility_m": 600,
      "ceiling_ft": 500,
      "hazards": [
        "SN",
        "SHSN"
      ],
      "severityScore": 78,
      "metarRaw": "METAR ESSA 070220Z 25007KT 9999 BKN005 OVC016 M04/M05 Q1009 TEMPO BKN006",
      "tafRaw": "TAF ESSA 070230Z 0703/0803 24006KT 9999 BKN015 \n  TEMPO 0703/0706 BKN004 \n  TEMPO 0714/0719 2000 SN VV012 \n  TEMPO 0719/0801 0600 SHSN BKN009 BKN040CB",
      "metarHtml": "METAR ESSA 070220Z 25007KT 9999 BKN005 OVC016 M04/M05 Q1009 TEMPO BKN006",
      "tafHtml": "TAF ESSA 070230Z 0703/0803 24006KT 9999 BKN015 \n  TEMPO 0703/0706 BKN004 \n  TEMPO 0714/0719 2000 <span class=\"hl\">SN</span> VV012 \n  TEMPO 0719/0801 <span class=\"hl-vis\">0600</span> <span class=\"hl\">SHSN</span> BKN009 BKN040CB"
    },
    {
      "icao": "LQSA",
      "iata": "SJJ",
      "name": "Sarajevo International Airport",
      "updatedAt": "070230Z",
      "visibility_m": 5000,
      "taf_visibility_m": 500,
      "worst_visibility_m": 500,
      "ceiling_ft": 800,
      "hazards": [
        "SN"
      ],
      "severityScore": 78,
      "metarRaw": "METAR LQSA 070230Z 32005KT 5000 -SN BKN008 OVC025 M04/M05 Q1010",
      "tafRaw": "TAF LQSA 062300Z 0700/0724 29005KT 7000 SCT010 OVC030 TXM02/0713Z TNM06/0705Z \n  TEMPO 0700/0709 1200 SN BKN004 OVC015 \n  PROB40 \n  TEMPO 0700/0703 35012KT 0500 +SN \n  PROB40 \n  TEMPO 0712/0722 1200 SN BKN004 OVC015 \n  PROB30 \n  TEMPO 0714/0718 35010KT 0700 +SN",
      "metarHtml": "METAR LQSA 070230Z 32005KT 5000 -<span class=\"hl\">SN</span> BKN008 OVC025 M04/M05 Q1010",
      "tafHtml": "TAF LQSA 062300Z <span class=\"hl-vis\">0700</span>/0724 29005KT 7000 SCT010 OVC030 TXM02/0713Z TNM06/0705Z \n  TEMPO <span class=\"hl-vis\">0700</span>/0709 1200 <span class=\"hl\">SN</span> BKN004 OVC015 \n  PROB40 \n  TEMPO <span class=\"hl-vis\">0700</span>/0703 35012KT <span class=\"hl-vis\">0500</span> +<span class=\"hl\">SN</span> \n  PROB40 \n  TEMPO 0712/0722 1200 <span class=\"hl\">SN</span> BKN004 OVC015 \n  PROB30 \n  TEMPO 0714/0718 35010KT <span class=\"hl-vis\">0700</span> +<span class=\"hl\">SN</span>"
    },
    {
      "icao": "EPMO",
      "iata": "WMI",
      "name": "Modlin Airport",
      "updatedAt": "070230Z",
      "visibility_m": 900,
      "taf_visibility_m": 400,
      "worst_visibility_m": 400,
      "ceiling_ft": null,
      "hazards": [
        "FZFG",
        "BR"
      ],
      "severityScore": 75,
      "metarRaw": "METAR EPMO 070230Z 24002KT 0900 R08/0800U FZFG NSC M11/M11 Q1016",
      "tafRaw": "TAF EPMO 062330Z 0700/0724 VRB03KT 2000 BR NSC \n  TEMPO 0701/0708 0400 FZFG BKN001 \n  BECMG 0708/0710 4000 BR \n  PROB40 \n  TEMPO 0708/0718 BKN004 \n  TEMPO 0720/0724 0400 FZFG",
      "metarHtml": "METAR EPMO 070230Z 24002KT 0900 R08/0800U <span class=\"hl\">FZFG</span> NSC M11/M11 Q1016",
      "tafHtml": "TAF EPMO 062330Z 0700/0724 VRB03KT 2000 <span class=\"hl\">BR</span> NSC \n  TEMPO 0701/0708 <span class=\"hl-vis\">0400</span> <span class=\"hl\">FZFG</span> BKN001 \n  BECMG 0708/0710 4000 <span class=\"hl\">BR</span> \n  PROB40 \n  TEMPO 0708/0718 BKN004 \n  TEMPO 0720/0724 <span class=\"hl-vis\">0400</span> <span class=\"hl\">FZFG</span>"
    },
    {
      "icao": "EPSY",
      "iata": "SZY",
      "name": "Olsztyn-Mazury Airport",
      "updatedAt": "070230Z",
      "visibility_m": 4200,
      "taf_visibility_m": 500,
      "worst_visibility_m": 500,
      "ceiling_ft": null,
      "hazards": [
        "BR",
        "FZFG"
      ],
      "severityScore": 75,
      "metarRaw": "METAR EPSY 070230Z 00000KT 4200 BR NSC M16/M18 Q1015",
      "tafRaw": "TAF EPSY 070230Z 0703/0712 22002KT 4000 BR NSC \n  TEMPO 0703/0708 2000 BR \n  PROB40 \n  TEMPO 0703/0708 0500 FZFG BKN002 \n  BECMG 0708/0710 6000",
      "metarHtml": "METAR EPSY 070230Z 00000KT 4200 <span class=\"hl\">BR</span> NSC M16/M18 Q1015",
      "tafHtml": "TAF EPSY 070230Z 0703/0712 22002KT 4000 <span class=\"hl\">BR</span> NSC \n  TEMPO 0703/0708 2000 <span class=\"hl\">BR</span> \n  PROB40 \n  TEMPO 0703/0708 <span class=\"hl-vis\">0500</span> <span class=\"hl\">FZFG</span> BKN002 \n  BECMG 0708/0710 6000"
    },
    {
      "icao": "LZKZ",
      "iata": "KSC",
      "name": "Košice International Airport",
      "updatedAt": "070230Z",
      "visibility_m": 1000,
      "taf_visibility_m": 1400,
      "worst_visibility_m": 1000,
      "ceiling_ft": 600,
      "hazards": [
        "SN",
        "BLSN"
      ],
      "severityScore": 75,
      "metarRaw": "METAR LZKZ 070230Z 36023KT 1000 R01/1700D +SN BLSN VV006 M04/M05 Q1010 NOSIG",
      "tafRaw": "TAF LZKZ 062315Z 0700/0800 01020KT 4000 -SN OVC020 \n  TEMPO 0700/0706 02025G35KT 1400 +SN BLSN BKN004 OVC014 \n  BECMG 0706/0708 9999 NSW SCT040 \n  TEMPO 0706/0713 02025G35KT 2500 BLSN",
      "metarHtml": "METAR LZKZ 070230Z 36023KT 1000 R01/1700D +<span class=\"hl\">SN</span> <span class=\"hl\">BLSN</span> VV006 M04/M05 Q1010 NOSIG",
      "tafHtml": "TAF LZKZ 062315Z 0700/0800 01020KT 4000 -<span class=\"hl\">SN</span> OVC020 \n  TEMPO 0700/0706 02025G35KT 1400 +<span class=\"hl\">SN</span> <span class=\"hl\">BLSN</span> BKN004 OVC014 \n  BECMG 0706/0708 9999 NSW SCT040 \n  TEMPO 0706/0713 02025G35KT 2500 <span class=\"hl\">BLSN</span>"
    },
    {
      "icao": "LGTS",
      "iata": "SKG",
      "name": "Thessaloniki Macedonia International Airport",
      "updatedAt": "070220Z",
      "visibility_m": 8000,
      "taf_visibility_m": 3000,
      "worst_visibility_m": 3000,
      "ceiling_ft": null,
      "hazards": [
        "DZ",
        "BR",
        "TSRA",
        "RA",
        "SHRA"
      ],
      "severityScore": 71,
      "metarRaw": "METAR LGTS 070220Z 30004KT 8000 DZ FEW020 11/11 Q1009 NOSIG",
      "tafRaw": "TAF LGTS 062300Z 0700/0724 VRB03KT 9999 SCT025 \n  PROB40 \n  TEMPO 0700/0704 5000 SHRA FEW020TCU BKN025 \n  PROB30 0703/0707 4000 BR SCT008 SCT020 \n  BECMG 0712/0714 16013KT \n  TEMPO 0714/0724 16015G25KT \n  PROB30 \n  TEMPO 0715/0724 5000 RA \n  PROB30 \n  TEMPO 0718/0724 3000 TSRA FEW008 FEW018CB BKN020",
      "metarHtml": "METAR LGTS 070220Z 30004KT 8000 <span class=\"hl\">DZ</span> FEW020 11/11 Q1009 NOSIG",
      "tafHtml": "TAF LGTS 062300Z 0700/0724 VRB03KT 9999 SCT025 \n  PROB40 \n  TEMPO 0700/0704 5000 <span class=\"hl\">SHRA</span> FEW020TCU BKN025 \n  PROB30 0703/0707 4000 <span class=\"hl\">BR</span> SCT008 SCT020 \n  BECMG 0712/0714 16013KT \n  TEMPO 0714/0724 16015G25KT \n  PROB30 \n  TEMPO 0715/0724 5000 <span class=\"hl\">RA</span> \n  PROB30 \n  TEMPO 0718/0724 3000 <span class=\"hl\">TSRA</span> FEW008 FEW018CB BKN020"
    },
    {
      "icao": "LHDC",
      "iata": "DEB",
      "name": "Debrecen International Airport",
      "updatedAt": "070215Z",
      "visibility_m": 3100,
      "taf_visibility_m": null,
      "worst_visibility_m": 3100,
      "ceiling_ft": 800,
      "hazards": [
        "BR",
        "FZDZ"
      ],
      "severityScore": 68,
      "metarRaw": "METAR LHDC 070215Z AUTO 36005KT 330V030 3100 -FZDZ BR OVC008 M03/M03 Q1010 NOSIG",
      "tafRaw": null,
      "metarHtml": "METAR LHDC 070215Z AUTO 36005KT 330V030 3100 -<span class=\"hl\">FZDZ</span> <span class=\"hl\">BR</span> OVC008 M03/M03 Q1010 NOSIG",
      "tafHtml": null
    },
    {
      "icao": "EDDB",
      "iata": "BER",
      "name": "Berlin Brandenburg Airport",
      "updatedAt": "070220Z",
      "visibility_m": 4000,
      "taf_visibility_m": 700,
      "worst_visibility_m": 700,
      "ceiling_ft": null,
      "hazards": [
        "BR",
        "FZFG"
      ],
      "severityScore": 65,
      "metarRaw": "METAR EDDB 070220Z AUTO 19006KT 6000 NCD M08/M09 Q1015 TEMPO 4000 BR",
      "tafRaw": "TAF EDDB 062300Z 0700/0724 20004KT 6000 NSC \n  TEMPO 0700/0708 2500 BCFG \n  PROB30 \n  TEMPO 0700/0706 0700 FZFG \n  BECMG 0714/0716 14006KT",
      "metarHtml": "METAR EDDB 070220Z AUTO 19006KT 6000 NCD M08/M09 Q1015 TEMPO 4000 <span class=\"hl\">BR</span>",
      "tafHtml": "TAF EDDB 062300Z <span class=\"hl-vis\">0700</span>/0724 20004KT 6000 NSC \n  TEMPO <span class=\"hl-vis\">0700</span>/0708 2500 BCFG \n  PROB30 \n  TEMPO <span class=\"hl-vis\">0700</span>/0706 <span class=\"hl-vis\">0700</span> <span class=\"hl\">FZFG</span> \n  BECMG 0714/0716 14006KT"
    },
    {
      "icao": "ENGM",
      "iata": "OSL",
      "name": "Oslo-Gardermoen International Airport",
      "updatedAt": "070220Z",
      "visibility_m": 10000,
      "taf_visibility_m": 500,
      "worst_visibility_m": 500,
      "ceiling_ft": 1900,
      "hazards": [
        "SN"
      ],
      "severityScore": 65,
      "metarRaw": "METAR ENGM 070220Z 34003KT 320V020 9999 FEW015 BKN019 M11/M14 Q1010",
      "tafRaw": "TAF ENGM 062300Z 0700/0724 34003KT 9999 FEW015 BKN020 \n  TEMPO 0700/0711 BKN013 \n  BECMG 0718/0720 02013KT 4000 -SN OVC014 \n  TEMPO 0720/0724 0500 SN VV003",
      "metarHtml": "METAR ENGM 070220Z 34003KT 320V020 9999 FEW015 BKN019 M11/M14 Q1010",
      "tafHtml": "TAF ENGM 062300Z 0700/0724 34003KT 9999 FEW015 BKN020 \n  TEMPO 0700/0711 BKN013 \n  BECMG 0718/0720 02013KT 4000 -<span class=\"hl\">SN</span> OVC014 \n  TEMPO 0720/0724 <span class=\"hl-vis\">0500</span> <span class=\"hl\">SN</span> VV003"
    },
    {
      "icao": "EPWA",
      "iata": "WAW",
      "name": "Warsaw Chopin Airport",
      "updatedAt": "070230Z",
      "visibility_m": 4200,
      "taf_visibility_m": 600,
      "worst_visibility_m": 600,
      "ceiling_ft": null,
      "hazards": [
        "BR",
        "FZFG"
      ],
      "severityScore": 65,
      "metarRaw": "METAR EPWA 070230Z 30002KT 4200 BR NSC M10/M10 Q1016 NOSIG",
      "tafRaw": "TAF EPWA 070230Z 0703/0803 VRB03KT 4000 BR NSC \n  TEMPO 0703/0709 2000 BR \n  PROB40 0704/0708 0600 FZFG \n  PROB40 \n  TEMPO 0708/0712 BKN004 \n  BECMG 0708/0710 6000 \n  PROB40 0720/0803 2500 BR BKN004",
      "metarHtml": "METAR EPWA 070230Z 30002KT 4200 <span class=\"hl\">BR</span> NSC M10/M10 Q1016 NOSIG",
      "tafHtml": "TAF EPWA 070230Z 0703/0803 VRB03KT 4000 <span class=\"hl\">BR</span> NSC \n  TEMPO 0703/0709 2000 <span class=\"hl\">BR</span> \n  PROB40 0704/0708 <span class=\"hl-vis\">0600</span> <span class=\"hl\">FZFG</span> \n  PROB40 \n  TEMPO 0708/0712 BKN004 \n  BECMG 0708/0710 6000 \n  PROB40 0720/0803 2500 <span class=\"hl\">BR</span> BKN004"
    },
    {
      "icao": "EYPA",
      "iata": "PLQ",
      "name": "Palanga International Airport",
      "updatedAt": "070250Z",
      "visibility_m": 8000,
      "taf_visibility_m": 500,
      "worst_visibility_m": 500,
      "ceiling_ft": 4700,
      "hazards": [
        "FZFG"
      ],
      "severityScore": 65,
      "metarRaw": "METAR EYPA 070250Z 13003KT 080V160 8000 FEW036 BKN047 M07/M08 Q1013",
      "tafRaw": "TAF EYPA 062300Z 0700/0724 VRB04KT 6000 BKN030 \n  TEMPO 0700/0706 30010KT SCT005 SCT020CB \n  BECMG 0706/0708 SCT030 \n  BECMG 0713/0715 0500 FZFG VV002 \n  BECMG 0718/0721 6000 NSW BKN005",
      "metarHtml": "METAR EYPA 070250Z 13003KT 080V160 8000 FEW036 BKN047 M07/M08 Q1013",
      "tafHtml": "TAF EYPA 062300Z 0700/0724 VRB04KT 6000 BKN030 \n  TEMPO 0700/0706 30010KT SCT005 SCT020CB \n  BECMG 0706/0708 SCT030 \n  BECMG 0713/0715 <span class=\"hl-vis\">0500</span> <span class=\"hl\">FZFG</span> VV002 \n  BECMG 0718/0721 6000 NSW BKN005"
    },
    {
      "icao": "UDYZ",
      "iata": "EVN",
      "name": "Zvartnots International Airport",
      "updatedAt": "070230Z",
      "visibility_m": 2900,
      "taf_visibility_m": 600,
      "worst_visibility_m": 600,
      "ceiling_ft": null,
      "hazards": [
        "BR",
        "FZFG"
      ],
      "severityScore": 65,
      "metarRaw": "METAR UDYZ 070230Z VRB01KT 2900 BR NSC M14/M15 Q1029 NOSIG",
      "tafRaw": "TAF UDYZ 062300Z 0700/0724 VRB04KT 2300 BR FEW040 \n  TEMPO 0700/0706 0600 FZFG VV004",
      "metarHtml": "METAR UDYZ 070230Z VRB01KT 2900 <span class=\"hl\">BR</span> NSC M14/M15 Q1029 NOSIG",
      "tafHtml": "TAF UDYZ 062300Z 0700/0724 VRB04KT 2300 <span class=\"hl\">BR</span> FEW040 \n  TEMPO 0700/0706 <span class=\"hl-vis\">0600</span> <span class=\"hl\">FZFG</span> VV004"
    },
    {
      "icao": "EPSC",
      "iata": "SZZ",
      "name": "Solidarity Szczecin–Goleniów Airport",
      "updatedAt": "070230Z",
      "visibility_m": 3500,
      "taf_visibility_m": 2000,
      "worst_visibility_m": 2000,
      "ceiling_ft": 200,
      "hazards": [
        "BR",
        "SN"
      ],
      "severityScore": 63,
      "metarRaw": "METAR EPSC 070230Z 14007KT 3500 BR OVC002 M06/M06 Q1015",
      "tafRaw": "TAF EPSC 062330Z 0700/0724 15007KT 5000 BR SCT020 \n  TEMPO 0700/0702 2000 BR BKN004 OVC005 \n  TEMPO 0702/0708 -SN BKN008 OVC012",
      "metarHtml": "METAR EPSC 070230Z 14007KT 3500 <span class=\"hl\">BR</span> OVC002 M06/M06 Q1015",
      "tafHtml": "TAF EPSC 062330Z 0700/0724 15007KT 5000 <span class=\"hl\">BR</span> SCT020 \n  TEMPO 0700/0702 2000 <span class=\"hl\">BR</span> BKN004 OVC005 \n  TEMPO 0702/0708 -<span class=\"hl\">SN</span> BKN008 OVC012"
    },
    {
      "icao": "ESKN",
      "iata": "NYO",
      "name": "Stockholm Skavsta Airport",
      "updatedAt": "070220Z",
      "visibility_m": 10000,
      "taf_visibility_m": 1200,
      "worst_visibility_m": 1200,
      "ceiling_ft": 300,
      "hazards": [
        "SN"
      ],
      "severityScore": 63,
      "metarRaw": "METAR ESKN 070220Z 25009KT 9999 BKN003 M07/M07 Q1011",
      "tafRaw": "TAF ESKN 070230Z 0703/0803 24008KT 9999 BKN003 \n  PROB40 0703/0710 FEW003 BKN015 \n  BECMG 0710/0712 3000 -SN VV020 \n  TEMPO 0712/0715 1200 SN VV009 \n  PROB40 0715/0718 9999 BKN015 \n  BECMG 0718/0720 CAVOK",
      "metarHtml": "METAR ESKN 070220Z 25009KT 9999 BKN003 M07/M07 Q1011",
      "tafHtml": "TAF ESKN 070230Z 0703/0803 24008KT 9999 BKN003 \n  PROB40 0703/0710 FEW003 BKN015 \n  BECMG 0710/0712 3000 -<span class=\"hl\">SN</span> VV020 \n  TEMPO 0712/0715 1200 <span class=\"hl\">SN</span> VV009 \n  PROB40 0715/0718 9999 BKN015 \n  BECMG 0718/0720 <span class=\"hl-vis\">CAVOK</span>"
    },
    {
      "icao": "LIBR",
      "iata": "BDS",
      "name": "Brindisi Airport",
      "updatedAt": "070220Z",
      "visibility_m": 7000,
      "taf_visibility_m": 3000,
      "worst_visibility_m": 3000,
      "ceiling_ft": 700,
      "hazards": [
        "TSRA",
        "RA"
      ],
      "severityScore": 62,
      "metarRaw": "METAR LIBR 070220Z 33011KT 7000 BKN007 12/11 Q1005",
      "tafRaw": "TAF LIBR 062300Z 0700/0724 21013KT 6000 BKN010 \n  BECMG 0701/0703 33008KT \n  BECMG 0708/0710 RA \n  TEMPO 0710/0718 3000 TSRA \n  BECMG 0712/0714 33018KT",
      "metarHtml": "METAR LIBR 070220Z 33011KT 7000 BKN007 12/11 Q1005",
      "tafHtml": "TAF LIBR 062300Z 0700/0724 21013KT 6000 BKN010 \n  BECMG 0701/0703 33008KT \n  BECMG 0708/0710 <span class=\"hl\">RA</span> \n  TEMPO 0710/0718 3000 <span class=\"hl\">TSRA</span> \n  BECMG 0712/0714 33018KT"
    },
    {
      "icao": "LFBD",
      "iata": "BOD",
      "name": "Bordeaux–Mérignac Airport",
      "updatedAt": "070230Z",
      "visibility_m": 3000,
      "taf_visibility_m": 2500,
      "worst_visibility_m": 2500,
      "ceiling_ft": null,
      "hazards": [
        "BR",
        "FZRA",
        "SHRA"
      ],
      "severityScore": 59,
      "metarRaw": "METAR LFBD 070230Z AUTO 19004KT CAVOK M03/M04 Q1020 TEMPO 3000 BR",
      "tafRaw": "TAF LFBD 062300Z 0700/0806 15004KT CAVOK TX10/0800Z TNM03/0700Z \n  TEMPO 0700/0706 3000 BR NSC \n  PROB30 \n  TEMPO 0706/0709 FZRA \n  BECMG 0707/0709 20010KT CAVOK \n  TEMPO 0710/0719 4500 -SHRA FEW025TCU \n  PROB40 \n  TEMPO 0712/0713 2500 SHRA BKN030TCU",
      "metarHtml": "METAR LFBD 070230Z AUTO 19004KT <span class=\"hl-vis\">CAVOK</span> M03/M04 Q1020 TEMPO 3000 <span class=\"hl\">BR</span>",
      "tafHtml": "TAF LFBD 062300Z 0700/0806 15004KT <span class=\"hl-vis\">CAVOK</span> TX10/0800Z TNM03/0700Z \n  TEMPO 0700/0706 3000 <span class=\"hl\">BR</span> NSC \n  PROB30 \n  TEMPO 0706/0709 <span class=\"hl\">FZRA</span> \n  BECMG 0707/0709 20010KT <span class=\"hl-vis\">CAVOK</span> \n  TEMPO 0710/0719 4500 -<span class=\"hl\">SHRA</span> FEW025TCU \n  PROB40 \n  TEMPO 0712/0713 2500 <span class=\"hl\">SHRA</span> BKN030TCU"
    },
    {
      "icao": "LRBC",
      "iata": "BCM",
      "name": "Bacău George Enescu International  Airport",
      "updatedAt": "070230Z",
      "visibility_m": 4000,
      "taf_visibility_m": 1500,
      "worst_visibility_m": 1500,
      "ceiling_ft": 500,
      "hazards": [
        "BR",
        "DZ"
      ],
      "severityScore": 55,
      "metarRaw": "METAR LRBC 070230Z 34006KT 4000 BR OVC005 01/M01 Q1010",
      "tafRaw": "TAF LRBC 070200Z 0703/0712 35007KT 5000 BR OVC005 \n  TEMPO 0703/0706 1500 -DZ BR OVC002 \n  BECMG 0706/0708 9999 NSW OVC010",
      "metarHtml": "METAR LRBC 070230Z 34006KT 4000 <span class=\"hl\">BR</span> OVC005 01/M01 Q1010",
      "tafHtml": "TAF LRBC 070200Z 0703/0712 35007KT 5000 <span class=\"hl\">BR</span> OVC005 \n  TEMPO 0703/0706 1500 -<span class=\"hl\">DZ</span> <span class=\"hl\">BR</span> OVC002 \n  BECMG 0706/0708 9999 NSW OVC010"
    },
    {
      "icao": "EPKT",
      "iata": "KTW",
      "name": "Katowice Wojciech Korfanty International Airport",
      "updatedAt": "070230Z",
      "visibility_m": 8000,
      "taf_visibility_m": 4000,
      "worst_visibility_m": 4000,
      "ceiling_ft": 900,
      "hazards": [
        "BR",
        "SN"
      ],
      "severityScore": 53,
      "metarRaw": "METAR EPKT 070230Z VRB01KT 8000 BKN009 M08/M10 Q1015",
      "tafRaw": "TAF EPKT 062330Z 0700/0724 VRB02KT 6000 NSC \n  PROB40 \n  TEMPO 0703/0710 4000 -SG BR BKN008 \n  BECMG 0706/0708 03010KT \n  BECMG 0716/0718 BKN013 \n  TEMPO 0718/0724 4000 -SN BKN006 BKN013",
      "metarHtml": "METAR EPKT 070230Z VRB01KT 8000 BKN009 M08/M10 Q1015",
      "tafHtml": "TAF EPKT 062330Z 0700/0724 VRB02KT 6000 NSC \n  PROB40 \n  TEMPO 0703/0710 4000 -SG <span class=\"hl\">BR</span> BKN008 \n  BECMG 0706/0708 03010KT \n  BECMG 0716/0718 BKN013 \n  TEMPO 0718/0724 4000 -<span class=\"hl\">SN</span> BKN006 BKN013"
    },
    {
      "icao": "LFSB",
      "iata": "BSL",
      "name": "EuroAirport Basel–Mulhouse–Freiburg",
      "updatedAt": "070230Z",
      "visibility_m": 4000,
      "taf_visibility_m": 3000,
      "worst_visibility_m": 3000,
      "ceiling_ft": 900,
      "hazards": [
        "BR",
        "SN"
      ],
      "severityScore": 53,
      "metarRaw": "METAR LFSB 070230Z AUTO 17003KT 9999 FEW047 M05/M07 Q1017 TEMPO 4000 BR BKN009",
      "tafRaw": "TAF LFSB 062320Z 0700/0724 17003KT 8000 FEW010 BKN025 \n  PROB40 \n  TEMPO 0700/0709 4000 BR BKN009 \n  TEMPO 0718/0724 24010KT -SN FEW008 OVC015 \n  PROB30 \n  TEMPO 0718/0722 3000 -SN BKN008",
      "metarHtml": "METAR LFSB 070230Z AUTO 17003KT 9999 FEW047 M05/M07 Q1017 TEMPO 4000 <span class=\"hl\">BR</span> BKN009",
      "tafHtml": "TAF LFSB 062320Z 0700/0724 17003KT 8000 FEW010 BKN025 \n  PROB40 \n  TEMPO 0700/0709 4000 <span class=\"hl\">BR</span> BKN009 \n  TEMPO 0718/0724 24010KT -<span class=\"hl\">SN</span> FEW008 OVC015 \n  PROB30 \n  TEMPO 0718/0722 3000 -<span class=\"hl\">SN</span> BKN008"
    },
    {
      "icao": "LHBP",
      "iata": "BUD",
      "name": "Budapest Liszt Ferenc International Airport",
      "updatedAt": "070230Z",
      "visibility_m": 10000,
      "taf_visibility_m": 500,
      "worst_visibility_m": 500,
      "ceiling_ft": 3200,
      "hazards": [
        "SN"
      ],
      "severityScore": 53,
      "metarRaw": "METAR LHBP 070230Z 33003KT 290V360 9999 FEW009 BKN032 OVC042 M02/M03 Q1011 NOSIG",
      "tafRaw": "TAF LHBP 062315Z 0700/0724 32007KT 5000 -SN BKN018 OVC050 \n  TEMPO 0700/0703 0500 +SN VV003 \n  TEMPO 0703/0706 1200 SN BKN004 OVC015 \n  BECMG 0706/0709 8000 NSW SCT030 BKN050 \n  PROB40 \n  TEMPO 0706/0709 BKN006 OVC025 \n  PROB40 \n  TEMPO 0715/0724 4000 -SN BKN008 OVC030",
      "metarHtml": "METAR LHBP 070230Z 33003KT 290V360 9999 FEW009 BKN032 OVC042 M02/M03 Q1011 NOSIG",
      "tafHtml": "TAF LHBP 062315Z 0700/0724 32007KT 5000 -<span class=\"hl\">SN</span> BKN018 OVC050 \n  TEMPO 0700/0703 <span class=\"hl-vis\">0500</span> +<span class=\"hl\">SN</span> VV003 \n  TEMPO 0703/0706 1200 <span class=\"hl\">SN</span> BKN004 OVC015 \n  BECMG 0706/0709 8000 NSW SCT030 BKN050 \n  PROB40 \n  TEMPO 0706/0709 BKN006 OVC025 \n  PROB40 \n  TEMPO 0715/0724 4000 -<span class=\"hl\">SN</span> BKN008 OVC030"
    },
    {
      "icao": "LQTZ",
      "iata": "TZL",
      "name": "Tuzla International Airport",
      "updatedAt": "070230Z",
      "visibility_m": 4000,
      "taf_visibility_m": 800,
      "worst_visibility_m": 800,
      "ceiling_ft": 2500,
      "hazards": [
        "BR",
        "SN"
      ],
      "severityScore": 53,
      "metarRaw": "METAR LQTZ 070230Z 30005KT 4000 -SN BR OVC025 M04/M04 Q1012",
      "tafRaw": "TAF LQTZ 062300Z 0700/0724 30005KT 6000 -SN BKN010 OVC025 TXM01/0713Z TNM06/0705Z \n  TEMPO 0700/0706 2000 SN BR BKN004 OVC010 \n  PROB40 \n  TEMPO 0700/0705 0800 +SN BKN002 OVC007 \n  TEMPO 0714/0722 2000 SN BR BKN004 OVC015",
      "metarHtml": "METAR LQTZ 070230Z 30005KT 4000 -<span class=\"hl\">SN</span> <span class=\"hl\">BR</span> OVC025 M04/M04 Q1012",
      "tafHtml": "TAF LQTZ 062300Z 0700/0724 30005KT 6000 -<span class=\"hl\">SN</span> BKN010 OVC025 TXM01/0713Z TNM06/0705Z \n  TEMPO 0700/0706 2000 <span class=\"hl\">SN</span> <span class=\"hl\">BR</span> BKN004 OVC010 \n  PROB40 \n  TEMPO 0700/0705 <span class=\"hl-vis\">0800</span> +<span class=\"hl\">SN</span> BKN002 OVC007 \n  TEMPO 0714/0722 2000 <span class=\"hl\">SN</span> <span class=\"hl\">BR</span> BKN004 OVC015"
    },
    {
      "icao": "LATI",
      "iata": "TIA",
      "name": "Tirana International Airport Mother Teresa",
      "updatedAt": "070250Z",
      "visibility_m": 10000,
      "taf_visibility_m": 3000,
      "worst_visibility_m": 3000,
      "ceiling_ft": 3500,
      "hazards": [
        "TSRA",
        "RA",
        "SHRA"
      ],
      "severityScore": 51,
      "metarRaw": "METAR LATI 070250Z 12009KT 9999 SCT020 OVC035 13/10 Q1005 NOSIG",
      "tafRaw": "TAF LATI 062300Z 0700/0724 16010KT 9999 -RA SCT050 BKN080 TX16/0712Z TN11/0705Z \n  TEMPO 0701/0706 RA \n  TEMPO 0712/0719 18015G25KT 3000 TSRA FEW010 SCT020CB OVC040 \n  TEMPO 0719/0724 5000 SHRA FEW020CB BKN025",
      "metarHtml": "METAR LATI 070250Z 12009KT 9999 SCT020 OVC035 13/10 Q1005 NOSIG",
      "tafHtml": "TAF LATI 062300Z 0700/0724 16010KT 9999 -<span class=\"hl\">RA</span> SCT050 BKN080 TX16/0712Z TN11/0705Z \n  TEMPO 0701/0706 <span class=\"hl\">RA</span> \n  TEMPO 0712/0719 18015G25KT 3000 <span class=\"hl\">TSRA</span> FEW010 SCT020CB OVC040 \n  TEMPO 0719/0724 5000 <span class=\"hl\">SHRA</span> FEW020CB BKN025"
    },
    {
      "icao": "BKPR",
      "iata": "PRN",
      "name": "Priština Adem Jashari International Airport",
      "updatedAt": "070230Z",
      "visibility_m": 10000,
      "taf_visibility_m": 1200,
      "worst_visibility_m": 1200,
      "ceiling_ft": 5000,
      "hazards": [
        "RA",
        "BR",
        "SN"
      ],
      "severityScore": 50,
      "metarRaw": "METAR BKPR 070230Z 14007KT 9999 -RA BKN050 07/07 Q1005 NOSIG",
      "tafRaw": "TAF BKPR 062330Z 0700/0724 18007KT 9999 SCT020 BKN040 \n  TEMPO 0700/0719 4500 -RA BR BKN012 \n  BECMG 0711/0713 36012KT \n  TEMPO 0719/0722 2000 RASN BKN010 \n  TEMPO 0722/0724 1200 SN BKN008",
      "metarHtml": "METAR BKPR 070230Z 14007KT 9999 -<span class=\"hl\">RA</span> BKN050 07/07 Q1005 NOSIG",
      "tafHtml": "TAF BKPR 062330Z 0700/0724 18007KT 9999 SCT020 BKN040 \n  TEMPO 0700/0719 4500 -<span class=\"hl\">RA</span> <span class=\"hl\">BR</span> BKN012 \n  BECMG 0711/0713 36012KT \n  TEMPO 0719/0722 2000 RASN BKN010 \n  TEMPO 0722/0724 1200 <span class=\"hl\">SN</span> BKN008"
    },
    {
      "icao": "EPLB",
      "iata": "LUZ",
      "name": "Lublin Airport",
      "updatedAt": "070230Z",
      "visibility_m": 1600,
      "taf_visibility_m": 1200,
      "worst_visibility_m": 1200,
      "ceiling_ft": 1800,
      "hazards": [
        "BR",
        "SN"
      ],
      "severityScore": 50,
      "metarRaw": "METAR EPLB 070230Z 32004KT 1600 -SN BR BKN018 OVC022 M06/M06 Q1015",
      "tafRaw": "TAF EPLB 062330Z 0700/0724 33005KT 4000 -SN BR BKN020 \n  TEMPO 0700/0709 1200 SN BR BKN006 \n  TEMPO 0720/0724 BKN006",
      "metarHtml": "METAR EPLB 070230Z 32004KT 1600 -<span class=\"hl\">SN</span> <span class=\"hl\">BR</span> BKN018 OVC022 M06/M06 Q1015",
      "tafHtml": "TAF EPLB 062330Z 0700/0724 33005KT 4000 -<span class=\"hl\">SN</span> <span class=\"hl\">BR</span> BKN020 \n  TEMPO 0700/0709 1200 <span class=\"hl\">SN</span> <span class=\"hl\">BR</span> BKN006 \n  TEMPO 0720/0724 BKN006"
    },
    {
      "icao": "EETN",
      "iata": "TLL",
      "name": "Lennart Meri Tallinn Airport",
      "updatedAt": "070250Z",
      "visibility_m": 3100,
      "taf_visibility_m": 1000,
      "worst_visibility_m": 1000,
      "ceiling_ft": 2700,
      "hazards": [
        "SN",
        "BR",
        "SHSN"
      ],
      "severityScore": 48,
      "metarRaw": "METAR EETN 070250Z 10008KT 3100 SN OVC027 M06/M07 Q1014",
      "tafRaw": "TAF EETN 062330Z 0700/0724 11010KT 6000 SCT010 BKN020 \n  TEMPO 0700/0706 1000 +SN VV005 \n  PROB40 \n  TEMPO 0706/0712 2000 BR BKN003 \n  BECMG 0707/0709 VRB02KT \n  PROB40 \n  TEMPO 0716/0724 3000 SHSN SCT006 SCT012CB",
      "metarHtml": "METAR EETN 070250Z 10008KT 3100 <span class=\"hl\">SN</span> OVC027 M06/M07 Q1014",
      "tafHtml": "TAF EETN 062330Z 0700/0724 11010KT 6000 SCT010 BKN020 \n  TEMPO 0700/0706 1000 +<span class=\"hl\">SN</span> VV005 \n  PROB40 \n  TEMPO 0706/0712 2000 <span class=\"hl\">BR</span> BKN003 \n  BECMG 0707/0709 VRB02KT \n  PROB40 \n  TEMPO 0716/0724 3000 <span class=\"hl\">SHSN</span> SCT006 SCT012CB"
    },
    {
      "icao": "EKBI",
      "iata": "BLL",
      "name": "Billund Airport",
      "updatedAt": "070220Z",
      "visibility_m": 10000,
      "taf_visibility_m": 1200,
      "worst_visibility_m": 1200,
      "ceiling_ft": null,
      "hazards": [
        "BR",
        "SN",
        "SHSN"
      ],
      "severityScore": 48,
      "metarRaw": "METAR EKBI 070220Z AUTO 18008KT 160V220 9999 OVC006/// 00/00 Q1007",
      "tafRaw": "TAF EKBI 070227Z 0703/0803 17009KT 9999 BKN020 \n  TEMPO 0703/0704 1200 SHSN BKN002 SCT020CB \n  TEMPO 0704/0710 2000 BR BCFG VV003 \n  BECMG 0710/0712 1200 SN BKN008 \n  TEMPO 0712/0802 17015G25KT 5000 NSW BKN012 \n  TEMPO 0802/0803 BKN012",
      "metarHtml": "METAR EKBI 070220Z AUTO 18008KT 160V220 9999 OVC006/// 00/00 Q1007",
      "tafHtml": "TAF EKBI 070227Z 0703/0803 17009KT 9999 BKN020 \n  TEMPO 0703/0704 1200 <span class=\"hl\">SHSN</span> BKN002 SCT020CB \n  TEMPO 0704/0710 2000 <span class=\"hl\">BR</span> BCFG VV003 \n  BECMG 0710/0712 1200 <span class=\"hl\">SN</span> BKN008 \n  TEMPO 0712/0802 17015G25KT 5000 NSW BKN012 \n  TEMPO 0802/0803 BKN012"
    },
    {
      "icao": "EDFH",
      "iata": "HHN",
      "name": "Frankfurt-Hahn Airport",
      "updatedAt": "070220Z",
      "visibility_m": 10000,
      "taf_visibility_m": 2000,
      "worst_visibility_m": 2000,
      "ceiling_ft": 800,
      "hazards": [
        "SN"
      ],
      "severityScore": 43,
      "metarRaw": "METAR EDFH 070220Z 23008KT 200V260 9999 OVC008 M05/M07 Q1013",
      "tafRaw": "TAF EDFH 062300Z 0700/0724 23008KT 9999 BKN012 \n  TEMPO 0700/0708 BKN006 \n  TEMPO 0708/0712 BKN015 \n  TEMPO 0712/0716 20015G25KT 4000 -SN \n  PROB30 \n  TEMPO 0713/0716 2000 SN BKN008 \n  BECMG 0716/0718 BKN008 \n  TEMPO 0716/0724 4000 -SN BKN004",
      "metarHtml": "METAR EDFH 070220Z 23008KT 200V260 9999 OVC008 M05/M07 Q1013",
      "tafHtml": "TAF EDFH 062300Z 0700/0724 23008KT 9999 BKN012 \n  TEMPO 0700/0708 BKN006 \n  TEMPO 0708/0712 BKN015 \n  TEMPO 0712/0716 20015G25KT 4000 -<span class=\"hl\">SN</span> \n  PROB30 \n  TEMPO 0713/0716 2000 <span class=\"hl\">SN</span> BKN008 \n  BECMG 0716/0718 BKN008 \n  TEMPO 0716/0724 4000 -<span class=\"hl\">SN</span> BKN004"
    },
    {
      "icao": "LFLS",
      "iata": "GNB",
      "name": "Grenoble Alpes Isère Airport",
      "updatedAt": "070230Z",
      "visibility_m": 10000,
      "taf_visibility_m": 4000,
      "worst_visibility_m": 4000,
      "ceiling_ft": 600,
      "hazards": [
        "SN"
      ],
      "severityScore": 43,
      "metarRaw": "METAR LFLS 070230Z AUTO 36006KT 9999 BKN035 M04/M07 Q1016 TEMPO BKN006",
      "tafRaw": "TAF LFLS 070200Z 0703/0803 36005KT 9999 BKN030 \n  PROB40 \n  TEMPO 0704/0707 BKN006 \n  BECMG 0707/0709 VRB02KT CAVOK \n  BECMG 0714/0716 OVC025 \n  TEMPO 0715/0722 4000 -SN OVC005",
      "metarHtml": "METAR LFLS 070230Z AUTO 36006KT 9999 BKN035 M04/M07 Q1016 TEMPO BKN006",
      "tafHtml": "TAF LFLS 070200Z 0703/0803 36005KT 9999 BKN030 \n  PROB40 \n  TEMPO 0704/0707 BKN006 \n  BECMG 0707/0709 VRB02KT <span class=\"hl-vis\">CAVOK</span> \n  BECMG 0714/0716 OVC025 \n  TEMPO 0715/0722 4000 -<span class=\"hl\">SN</span> OVC005"
    },
    {
      "icao": "EDDH",
      "iata": "HAM",
      "name": "Hamburg Helmut Schmidt Airport",
      "updatedAt": "070220Z",
      "visibility_m": 10000,
      "taf_visibility_m": 1000,
      "worst_visibility_m": 1000,
      "ceiling_ft": 1300,
      "hazards": [
        "SN"
      ],
      "severityScore": 40,
      "metarRaw": "METAR EDDH 070220Z AUTO 20010KT 9999 OVC015 00/M02 Q1011 TEMPO BKN013",
      "tafRaw": "TAF EDDH 062300Z 0700/0806 22007KT 9999 BKN012 \n  BECMG 0700/0704 SCT020 \n  BECMG 0706/0709 16011KT \n  BECMG 0718/0721 BKN008 \n  TEMPO 0718/0806 1000 -SN BKN003 \n  PROB30 \n  TEMPO 0721/0806 BKN015",
      "metarHtml": "METAR EDDH 070220Z AUTO 20010KT 9999 OVC015 00/M02 Q1011 TEMPO BKN013",
      "tafHtml": "TAF EDDH 062300Z 0700/0806 22007KT 9999 BKN012 \n  BECMG 0700/0704 SCT020 \n  BECMG 0706/0709 16011KT \n  BECMG 0718/0721 BKN008 \n  TEMPO 0718/0806 1000 -<span class=\"hl\">SN</span> BKN003 \n  PROB30 \n  TEMPO 0721/0806 BKN015"
    },
    {
      "icao": "EDDN",
      "iata": "NUE",
      "name": "Nuremberg Airport",
      "updatedAt": "070220Z",
      "visibility_m": 7000,
      "taf_visibility_m": 4000,
      "worst_visibility_m": 4000,
      "ceiling_ft": 1100,
      "hazards": [
        "BR",
        "SN"
      ],
      "severityScore": 40,
      "metarRaw": "METAR EDDN 070220Z AUTO 17002KT 7000 OVC011 M04/M07 Q1016",
      "tafRaw": "TAF EDDN 062300Z 0700/0724 20005KT 8000 BKN015 \n  TEMPO 0700/0706 4000 BR BKN012 \n  BECMG 0705/0708 14005KT \n  TEMPO 0722/0724 4000 -SN BKN009",
      "metarHtml": "METAR EDDN 070220Z AUTO 17002KT 7000 OVC011 M04/M07 Q1016",
      "tafHtml": "TAF EDDN 062300Z 0700/0724 20005KT 8000 BKN015 \n  TEMPO 0700/0706 4000 <span class=\"hl\">BR</span> BKN012 \n  BECMG 0705/0708 14005KT \n  TEMPO 0722/0724 4000 -<span class=\"hl\">SN</span> BKN009"
    },
    {
      "icao": "EHEH",
      "iata": "EIN",
      "name": "Eindhoven Airport",
      "updatedAt": "070225Z",
      "visibility_m": 10000,
      "taf_visibility_m": 1000,
      "worst_visibility_m": 1000,
      "ceiling_ft": 1400,
      "hazards": [
        "SN"
      ],
      "severityScore": 40,
      "metarRaw": "METAR EHEH 070225Z AUTO 19011KT 160V220 9999 SCT011 BKN014 OVC120 M01/M03 Q1011 GRN RMK TREND REMOTE BY EHWX",
      "tafRaw": "TAF EHEH 062359Z 0700/0806 19008KT 7000 SCT005 BKN006 \n  BECMG 0704/0706 BKN015 \n  BECMG 0707/0709 19015G25KT 2000 -SN SCT005 BKN010 \n  TEMPO 0708/0712 1000 SN SCT002 BKN005 \n  BECMG 0712/0714 6000 NSW BKN012 \n  PROB30 \n  TEMPO 0712/0721 2000 -SN BKN006 OVC010 \n  BECMG 0722/0724 20007KT SCT020 BKN030",
      "metarHtml": "METAR EHEH 070225Z AUTO 19011KT 160V220 9999 SCT011 BKN014 OVC120 M01/M03 Q1011 GRN RMK TREND REMOTE BY EHWX",
      "tafHtml": "TAF EHEH 062359Z 0700/0806 19008KT 7000 SCT005 BKN006 \n  BECMG 0704/0706 BKN015 \n  BECMG 0707/0709 19015G25KT 2000 -<span class=\"hl\">SN</span> SCT005 BKN010 \n  TEMPO 0708/0712 1000 <span class=\"hl\">SN</span> SCT002 BKN005 \n  BECMG 0712/0714 6000 NSW BKN012 \n  PROB30 \n  TEMPO 0712/0721 2000 -<span class=\"hl\">SN</span> BKN006 OVC010 \n  BECMG 0722/0724 20007KT SCT020 BKN030"
    },
    {
      "icao": "LQBK",
      "iata": "BNX",
      "name": "Banja Luka International Airport",
      "updatedAt": "070230Z",
      "visibility_m": 6000,
      "taf_visibility_m": 2000,
      "worst_visibility_m": 2000,
      "ceiling_ft": 1700,
      "hazards": [
        "SN",
        "BR"
      ],
      "severityScore": 40,
      "metarRaw": "METAR LQBK 070230Z 25004KT 210V280 6000 -SN OVC017 M03/M05 Q1013 NOSIG",
      "tafRaw": "TAF LQBK 062300Z 0700/0724 33007KT 6000 -SN BKN012 OVC025 TXM01/0713Z TNM05/0705Z \n  TEMPO 0700/0703 2000 SN BR BKN004 OVC015 \n  TEMPO 0709/0715 3000 SN BR BKN007 OVC015",
      "metarHtml": "METAR LQBK 070230Z 25004KT 210V280 6000 -<span class=\"hl\">SN</span> OVC017 M03/M05 Q1013 NOSIG",
      "tafHtml": "TAF LQBK 062300Z 0700/0724 33007KT 6000 -<span class=\"hl\">SN</span> BKN012 OVC025 TXM01/0713Z TNM05/0705Z \n  TEMPO 0700/0703 2000 <span class=\"hl\">SN</span> <span class=\"hl\">BR</span> BKN004 OVC015 \n  TEMPO 0709/0715 3000 <span class=\"hl\">SN</span> <span class=\"hl\">BR</span> BKN007 OVC015"
    },
    {
      "icao": "LROP",
      "iata": "OTP",
      "name": "Bucharest Henri Coandă International Airport",
      "updatedAt": "070230Z",
      "visibility_m": 6000,
      "taf_visibility_m": null,
      "worst_visibility_m": 6000,
      "ceiling_ft": 400,
      "hazards": [],
      "severityScore": 40,
      "metarRaw": "METAR LROP 070230Z 07008KT 6000 OVC004 03/03 Q1009 NOSIG",
      "tafRaw": null,
      "metarHtml": "METAR LROP 070230Z 07008KT 6000 OVC004 03/03 Q1009 NOSIG",
      "tafHtml": null
    },
    {
      "icao": "LTFM",
      "iata": "IST",
      "name": "İstanbul Airport",
      "updatedAt": "070220Z",
      "visibility_m": 10000,
      "taf_visibility_m": 4000,
      "worst_visibility_m": 4000,
      "ceiling_ft": 8000,
      "hazards": [
        "TSRA",
        "SHRA"
      ],
      "severityScore": 39,
      "metarRaw": "METAR LTFM 070220Z 21011KT 9999 FEW040 BKN080 14/08 Q1013 NOSIG RMK RWY17L 20014KT RWY34L 19011KT RWY16R 19015KT RWY36 20013KT RWY18 21016KT",
      "tafRaw": "TAF LTFM 062240Z 0700/0806 19015KT CAVOK \n  BECMG 0700/0702 SCT040 BKN080 \n  TEMPO 0702/0706 20019G30KT -SHRA BKN028 BKN070 \n  TEMPO 0708/0712 21020G34KT \n  TEMPO 0717/0721 19017G33KT -SHRA BKN028 BKN070 \n  BECMG 0722/0724 20028G48KT \n  BECMG 0800/0803 -SHRA FEW020TCU BKN028 \n  TEMPO 0803/0806 4000 TSRA SCT017CB BKN025",
      "metarHtml": "METAR LTFM 070220Z 21011KT 9999 FEW040 BKN080 14/08 Q1013 NOSIG RMK RWY17L 20014KT RWY34L 19011KT RWY16R 19015KT RWY36 20013KT RWY18 21016KT",
      "tafHtml": "TAF LTFM 062240Z 0700/0806 19015KT <span class=\"hl-vis\">CAVOK</span> \n  BECMG 0700/0702 SCT040 BKN080 \n  TEMPO 0702/0706 20019G30KT -<span class=\"hl\">SHRA</span> BKN028 BKN070 \n  TEMPO 0708/0712 21020G34KT \n  TEMPO 0717/0721 19017G33KT -<span class=\"hl\">SHRA</span> BKN028 BKN070 \n  BECMG 0722/0724 20028G48KT \n  BECMG 0800/0803 -<span class=\"hl\">SHRA</span> FEW020TCU BKN028 \n  TEMPO 0803/0806 4000 <span class=\"hl\">TSRA</span> SCT017CB BKN025"
    },
    {
      "icao": "EHBK",
      "iata": "MST",
      "name": "Maastricht Aachen Airport",
      "updatedAt": "070225Z",
      "visibility_m": 10000,
      "taf_visibility_m": 1000,
      "worst_visibility_m": 1000,
      "ceiling_ft": null,
      "hazards": [
        "SN",
        "SHSN"
      ],
      "severityScore": 38,
      "metarRaw": "METAR EHBK 070225Z AUTO 20015KT 9999 NSC M02/M04 Q1012",
      "tafRaw": "TAF EHBK 062322Z 0700/0806 19011KT CAVOK \n  PROB30 \n  TEMPO 0700/0703 BKN008 \n  BECMG 0703/0706 19015G25KT \n  BECMG 0708/0711 2000 -SN \n  TEMPO 0710/0714 1000 SN BKN014 \n  BECMG 0713/0715 9999 NSW BKN016 \n  TEMPO 0714/0803 3000 -SHSN SCT008 BKN012 FEW018CB \n  BECMG 0715/0718 20014KT \n  BECMG 0803/0806 21008KT",
      "metarHtml": "METAR EHBK 070225Z AUTO 20015KT 9999 NSC M02/M04 Q1012",
      "tafHtml": "TAF EHBK 062322Z 0700/0806 19011KT <span class=\"hl-vis\">CAVOK</span> \n  PROB30 \n  TEMPO 0700/0703 BKN008 \n  BECMG 0703/0706 19015G25KT \n  BECMG 0708/0711 2000 -<span class=\"hl\">SN</span> \n  TEMPO 0710/0714 1000 <span class=\"hl\">SN</span> BKN014 \n  BECMG 0713/0715 9999 NSW BKN016 \n  TEMPO 0714/0803 3000 -<span class=\"hl\">SHSN</span> SCT008 BKN012 FEW018CB \n  BECMG 0715/0718 20014KT \n  BECMG 0803/0806 21008KT"
    },
    {
      "icao": "EPKK",
      "iata": "KRK",
      "name": "Kraków John Paul II International Airport",
      "updatedAt": "070230Z",
      "visibility_m": 6000,
      "taf_visibility_m": 1300,
      "worst_visibility_m": 1300,
      "ceiling_ft": 2500,
      "hazards": [
        "BR",
        "SN"
      ],
      "severityScore": 38,
      "metarRaw": "METAR EPKK 070230Z 01002KT 6000 BKN025 M05/M07 Q1015",
      "tafRaw": "TAF EPKK 070230Z 0703/0803 VRB02KT 6000 BKN026 \n  TEMPO 0703/0706 4000 BR \n  BECMG 0706/0709 04010KT BKN012 \n  TEMPO 0709/0715 4000 -SN BR BKN006 BKN012 \n  BECMG 0715/0717 1300 SN BR BKN004 BKN008",
      "metarHtml": "METAR EPKK 070230Z 01002KT 6000 BKN025 M05/M07 Q1015",
      "tafHtml": "TAF EPKK 070230Z 0703/0803 VRB02KT 6000 BKN026 \n  TEMPO 0703/0706 4000 <span class=\"hl\">BR</span> \n  BECMG 0706/0709 04010KT BKN012 \n  TEMPO 0709/0715 4000 -<span class=\"hl\">SN</span> <span class=\"hl\">BR</span> BKN006 BKN012 \n  BECMG 0715/0717 1300 <span class=\"hl\">SN</span> <span class=\"hl\">BR</span> BKN004 BKN008"
    },
    {
      "icao": "LRSM",
      "iata": "SUJ",
      "name": "Satu Mare International Airport",
      "updatedAt": "070230Z",
      "visibility_m": 4500,
      "taf_visibility_m": 1500,
      "worst_visibility_m": 1500,
      "ceiling_ft": null,
      "hazards": [
        "SN",
        "BR"
      ],
      "severityScore": 38,
      "metarRaw": "METAR LRSM 070230Z AUTO 00000KT 4500 -SN FEW002/// BKN004/// BKN009/// M01/M01 Q1008",
      "tafRaw": "TAF LRSM 070200Z 0703/0712 VRB04KT 3000 -SN BR BKN005 OVC020 \n  TEMPO 0703/0707 1500 SN BR BKN002 OVC010 \n  BECMG 0709/0711 7000 NSW BKN010 OVC030",
      "metarHtml": "METAR LRSM 070230Z AUTO 00000KT 4500 -<span class=\"hl\">SN</span> FEW002/// BKN004/// BKN009/// M01/M01 Q1008",
      "tafHtml": "TAF LRSM 070200Z 0703/0712 VRB04KT 3000 -<span class=\"hl\">SN</span> <span class=\"hl\">BR</span> BKN005 OVC020 \n  TEMPO 0703/0707 1500 <span class=\"hl\">SN</span> <span class=\"hl\">BR</span> BKN002 OVC010 \n  BECMG 0709/0711 7000 NSW BKN010 OVC030"
    },
    {
      "icao": "EGKK",
      "iata": "LGW",
      "name": "London Gatwick Airport",
      "updatedAt": "070220Z",
      "visibility_m": 3800,
      "taf_visibility_m": 4000,
      "worst_visibility_m": 3800,
      "ceiling_ft": 700,
      "hazards": [
        "RA"
      ],
      "severityScore": 37,
      "metarRaw": "METAR EGKK 070220Z 22015G27KT 3800 -RA BKN007 06/05 Q1003 RERA",
      "tafRaw": "TAF EGKK 062310Z 0700/0806 22010KT 9999 SCT025 \n  TEMPO 0700/0705 22015G25KT 7000 -RA BKN012 \n  PROB30 \n  TEMPO 0700/0704 4000 +RA BKN006 \n  BECMG 0701/0704 29010KT \n  PROB30 \n  TEMPO 0709/0716 25015G25KT \n  PROB30 \n  TEMPO 0800/0803 6000 -RADZ BKN012 \n  PROB30 \n  TEMPO 0803/0806 4000 RADZ BKN006",
      "metarHtml": "METAR EGKK 070220Z 22015G27KT 3800 -<span class=\"hl\">RA</span> BKN007 06/05 Q1003 RERA",
      "tafHtml": "TAF EGKK 062310Z 0700/0806 22010KT 9999 SCT025 \n  TEMPO 0700/0705 22015G25KT 7000 -<span class=\"hl\">RA</span> BKN012 \n  PROB30 \n  TEMPO 0700/0704 4000 +<span class=\"hl\">RA</span> BKN006 \n  BECMG 0701/0704 29010KT \n  PROB30 \n  TEMPO 0709/0716 25015G25KT \n  PROB30 \n  TEMPO 0800/0803 6000 -RADZ BKN012 \n  PROB30 \n  TEMPO 0803/0806 4000 RADZ BKN006"
    },
    {
      "icao": "EGPD",
      "iata": "ABZ",
      "name": "Aberdeen International Airport",
      "updatedAt": "070220Z",
      "visibility_m": 4900,
      "taf_visibility_m": 2500,
      "worst_visibility_m": 2500,
      "ceiling_ft": 600,
      "hazards": [
        "RA"
      ],
      "severityScore": 37,
      "metarRaw": "METAR EGPD 070220Z COR AUTO 36014KT 4900 RADZ OVC006 02/01 Q0995 NOSIG",
      "tafRaw": "TAF EGPD 062303Z 0700/0724 32012KT 9999 BKN015 \n  BECMG 0700/0702 02012KT \n  TEMPO 0700/0715 5000 -RADZ BKN008 \n  TEMPO 0700/0709 03015G25KT \n  PROB40 \n  TEMPO 0700/0709 2500 RADZ -RASN BKN004 \n  BECMG 0712/0715 29005KT \n  PROB30 \n  TEMPO 0715/0718 6000 -RA",
      "metarHtml": "METAR EGPD 070220Z COR AUTO 36014KT 4900 RADZ OVC006 02/01 Q0995 NOSIG",
      "tafHtml": "TAF EGPD 062303Z 0700/0724 32012KT 9999 BKN015 \n  BECMG 0700/0702 02012KT \n  TEMPO 0700/0715 5000 -RADZ BKN008 \n  TEMPO 0700/0709 03015G25KT \n  PROB40 \n  TEMPO 0700/0709 2500 RADZ -RASN BKN004 \n  BECMG 0712/0715 29005KT \n  PROB30 \n  TEMPO 0715/0718 6000 -<span class=\"hl\">RA</span>"
    },
    {
      "icao": "LYPG",
      "iata": "TGD",
      "name": "Podgorica Airport / Podgorica Golubovci Airbase",
      "updatedAt": "070230Z",
      "visibility_m": 10000,
      "taf_visibility_m": 2000,
      "worst_visibility_m": 2000,
      "ceiling_ft": 7000,
      "hazards": [
        "RA",
        "TSRA"
      ],
      "severityScore": 37,
      "metarRaw": "METAR LYPG 070230Z 12006KT 090V160 9999 -RA FEW020 SCT040 OVC070 14/12 Q1004 RETSRA NOSIG",
      "tafRaw": "TAF LYPG 062300Z 0700/0724 15009KT 8000 RA FEW020 BKN034 OVC070 TX15/0700Z TN06/0724Z \n  TEMPO 0700/0704 16015G25KT 3000 TSRA FEW015 SCT027CB BKN034 \n  TEMPO 0713/0719 2000 TSRA FEW010 SCT025CB BKN030 \n  BECMG 0717/0719 36010KT",
      "metarHtml": "METAR LYPG 070230Z 12006KT 090V160 9999 -<span class=\"hl\">RA</span> FEW020 SCT040 OVC070 14/12 Q1004 RETSRA NOSIG",
      "tafHtml": "TAF LYPG 062300Z 0700/0724 15009KT 8000 <span class=\"hl\">RA</span> FEW020 BKN034 OVC070 TX15/0700Z TN06/0724Z \n  TEMPO 0700/0704 16015G25KT 3000 <span class=\"hl\">TSRA</span> FEW015 SCT027CB BKN034 \n  TEMPO 0713/0719 2000 <span class=\"hl\">TSRA</span> FEW010 SCT025CB BKN030 \n  BECMG 0717/0719 36010KT"
    },
    {
      "icao": "LTAC",
      "iata": "ESB",
      "name": "Esenboğa International Airport",
      "updatedAt": "070220Z",
      "visibility_m": 4500,
      "taf_visibility_m": 1000,
      "worst_visibility_m": 1000,
      "ceiling_ft": null,
      "hazards": [
        "BR",
        "SHRA"
      ],
      "severityScore": 34,
      "metarRaw": "METAR LTAC 070220Z VRB02KT 4500 BR SCT040 SCT100 02/00 Q1020 NOSIG RMK RWY21C 15003KT RWY03L 12004KT RWY21R VRB02KT RWY03R VRB01KT RWY21L 14004KT",
      "tafRaw": "TAF LTAC 062240Z 0700/0724 VRB02KT 4000 BR SCT040 SCT100 \n  PROB30 \n  TEMPO 0703/0707 1000 BCFG BKN002 \n  BECMG 0707/0709 9999 NSW \n  TEMPO 0710/0714 -SHRA BKN025 BKN080",
      "metarHtml": "METAR LTAC 070220Z VRB02KT 4500 <span class=\"hl\">BR</span> SCT040 SCT100 02/00 Q1020 NOSIG RMK RWY21C 15003KT RWY03L 12004KT RWY21R VRB02KT RWY03R VRB01KT RWY21L 14004KT",
      "tafHtml": "TAF LTAC 062240Z 0700/0724 VRB02KT 4000 <span class=\"hl\">BR</span> SCT040 SCT100 \n  PROB30 \n  TEMPO 0703/0707 1000 BCFG BKN002 \n  BECMG 0707/0709 9999 NSW \n  TEMPO 0710/0714 -<span class=\"hl\">SHRA</span> BKN025 BKN080"
    },
    {
      "icao": "LBPD",
      "iata": "PDV",
      "name": "Plovdiv International Airport",
      "updatedAt": "070230Z",
      "visibility_m": 10000,
      "taf_visibility_m": 1200,
      "worst_visibility_m": 1200,
      "ceiling_ft": null,
      "hazards": [
        "BR",
        "RA"
      ],
      "severityScore": 32,
      "metarRaw": "METAR LBPD 070230Z AUTO 13008KT 9999 FEW170/// 10/10 Q1008",
      "tafRaw": "TAF LBPD 062300Z 0700/0724 VRB03KT 9999 BKN050 \n  TEMPO 0700/0707 3000 BR SCT015 \n  PROB40 0702/0707 1200 BR SCT005 BKN010 \n  TEMPO 0720/0724 5000 RA SCT010 BKN020",
      "metarHtml": "METAR LBPD 070230Z AUTO 13008KT 9999 FEW170/// 10/10 Q1008",
      "tafHtml": "TAF LBPD 062300Z 0700/0724 VRB03KT 9999 BKN050 \n  TEMPO 0700/0707 3000 <span class=\"hl\">BR</span> SCT015 \n  PROB40 0702/0707 1200 <span class=\"hl\">BR</span> SCT005 BKN010 \n  TEMPO 0720/0724 5000 <span class=\"hl\">RA</span> SCT010 BKN020"
    },
    {
      "icao": "LIBD",
      "iata": "BRI",
      "name": "Bari Karol Wojtyła International Airport",
      "updatedAt": "070220Z",
      "visibility_m": 10000,
      "taf_visibility_m": 1500,
      "worst_visibility_m": 1500,
      "ceiling_ft": null,
      "hazards": [
        "BR",
        "RA"
      ],
      "severityScore": 32,
      "metarRaw": "METAR LIBD 070220Z 28006KT 240V320 CAVOK 07/05 Q1005",
      "tafRaw": "TAF LIBD 062300Z 0700/0724 28012KT 6000 BKN010 \n  TEMPO 0700/0708 1500 BR BKN003 \n  BECMG 0708/0710 RA",
      "metarHtml": "METAR LIBD 070220Z 28006KT 240V320 <span class=\"hl-vis\">CAVOK</span> 07/05 Q1005",
      "tafHtml": "TAF LIBD 062300Z 0700/0724 28012KT 6000 BKN010 \n  TEMPO 0700/0708 1500 <span class=\"hl\">BR</span> BKN003 \n  BECMG 0708/0710 <span class=\"hl\">RA</span>"
    },
    {
      "icao": "LFOB",
      "iata": "BVA",
      "name": "Beauvais Tillé airport",
      "updatedAt": "070230Z",
      "visibility_m": 10000,
      "taf_visibility_m": null,
      "worst_visibility_m": 10000,
      "ceiling_ft": 900,
      "hazards": [],
      "severityScore": 30,
      "metarRaw": "METAR LFOB 070230Z AUTO 20011KT 9999 BKN009 OVC110 M01/M02 Q1013 BECMG 19015G25KT",
      "tafRaw": null,
      "metarHtml": "METAR LFOB 070230Z AUTO 20011KT 9999 BKN009 OVC110 M01/M02 Q1013 BECMG 19015G25KT",
      "tafHtml": null
    },
    {
      "icao": "EDDK",
      "iata": "CGN",
      "name": "Cologne Bonn Airport",
      "updatedAt": "070220Z",
      "visibility_m": 10000,
      "taf_visibility_m": 1200,
      "worst_visibility_m": 1200,
      "ceiling_ft": null,
      "hazards": [
        "SN"
      ],
      "severityScore": 28,
      "metarRaw": "METAR EDDK 070220Z AUTO 14008KT CAVOK M04/M07 Q1014 NOSIG",
      "tafRaw": "TAF EDDK 062300Z 0700/0806 14007KT 9999 BKN020 \n  BECMG 0707/0710 15012KT \n  TEMPO 0711/0715 1200 SN BKN010 \n  TEMPO 0715/0803 3000 -SN BKN013 \n  BECMG 0719/0722 17007KT \n  PROB30 \n  TEMPO 0721/0801 1200 SN BKN008",
      "metarHtml": "METAR EDDK 070220Z AUTO 14008KT <span class=\"hl-vis\">CAVOK</span> M04/M07 Q1014 NOSIG",
      "tafHtml": "TAF EDDK 062300Z 0700/0806 14007KT 9999 BKN020 \n  BECMG 0707/0710 15012KT \n  TEMPO 0711/0715 1200 <span class=\"hl\">SN</span> BKN010 \n  TEMPO 0715/0803 3000 -<span class=\"hl\">SN</span> BKN013 \n  BECMG 0719/0722 17007KT \n  PROB30 \n  TEMPO 0721/0801 1200 <span class=\"hl\">SN</span> BKN008"
    },
    {
      "icao": "EFTU",
      "iata": "TKU",
      "name": "Turku Airport",
      "updatedAt": "070250Z",
      "visibility_m": 10000,
      "taf_visibility_m": 3000,
      "worst_visibility_m": 3000,
      "ceiling_ft": null,
      "hazards": [
        "SHSN",
        "SN"
      ],
      "severityScore": 28,
      "metarRaw": "METAR EFTU 070250Z AUTO 09008KT 9999 -SHSN SCT014 M05/M06 Q1013",
      "tafRaw": "TAF EFTU 070223Z 0703/0803 11010KT 9999 -SN FEW006 BKN020 \n  TEMPO 0703/0706 4000 BKN009 \n  PROB30 \n  TEMPO 0712/0718 3000 -SHSN BKN012",
      "metarHtml": "METAR EFTU 070250Z AUTO 09008KT 9999 -<span class=\"hl\">SHSN</span> SCT014 M05/M06 Q1013",
      "tafHtml": "TAF EFTU 070223Z 0703/0803 11010KT 9999 -<span class=\"hl\">SN</span> FEW006 BKN020 \n  TEMPO 0703/0706 4000 BKN009 \n  PROB30 \n  TEMPO 0712/0718 3000 -<span class=\"hl\">SHSN</span> BKN012"
    },
    {
      "icao": "EPWR",
      "iata": "WRO",
      "name": "Copernicus Wrocław Airport",
      "updatedAt": "070230Z",
      "visibility_m": 10000,
      "taf_visibility_m": 4000,
      "worst_visibility_m": 4000,
      "ceiling_ft": 3500,
      "hazards": [
        "BR",
        "SN"
      ],
      "severityScore": 28,
      "metarRaw": "METAR EPWR 070230Z VRB02KT 9999 FEW026 BKN035 M04/M07 Q1016",
      "tafRaw": "TAF EPWR 070230Z 0703/0803 24003KT 9999 BKN030 \n  PROB30 \n  TEMPO 0703/0708 4500 -SN BR BKN012 \n  PROB40 \n  TEMPO 0714/0718 4000 -SN BR BKN008 \n  TEMPO 0718/0723 BKN008",
      "metarHtml": "METAR EPWR 070230Z VRB02KT 9999 FEW026 BKN035 M04/M07 Q1016",
      "tafHtml": "TAF EPWR 070230Z 0703/0803 24003KT 9999 BKN030 \n  PROB30 \n  TEMPO 0703/0708 4500 -<span class=\"hl\">SN</span> <span class=\"hl\">BR</span> BKN012 \n  PROB40 \n  TEMPO 0714/0718 4000 -<span class=\"hl\">SN</span> <span class=\"hl\">BR</span> BKN008 \n  TEMPO 0718/0723 BKN008"
    },
    {
      "icao": "LFLL",
      "iata": "LYS",
      "name": "Lyon Saint-Exupéry Airport",
      "updatedAt": "070230Z",
      "visibility_m": 10000,
      "taf_visibility_m": 2000,
      "worst_visibility_m": 2000,
      "ceiling_ft": null,
      "hazards": [
        "BR",
        "SN"
      ],
      "severityScore": 28,
      "metarRaw": "METAR LFLL 070230Z 34007KT 9999 SCT033 M03/M05 Q1018 NOSIG",
      "tafRaw": "TAF LFLL 062300Z 0700/0806 35010KT 9999 BKN019 \n  PROB40 \n  TEMPO 0700/0711 BKN012 \n  PROB30 \n  TEMPO 0703/0709 VRB02KT 2000 BR BKN002 \n  BECMG 0709/0712 14005KT \n  TEMPO 0714/0720 2000 -SN OVC004 \n  PROB40 \n  TEMPO 0720/0804 3000 BR BKN012 \n  PROB40 \n  TEMPO 0804/0806 2000 -SN BR OVC004",
      "metarHtml": "METAR LFLL 070230Z 34007KT 9999 SCT033 M03/M05 Q1018 NOSIG",
      "tafHtml": "TAF LFLL 062300Z 0700/0806 35010KT 9999 BKN019 \n  PROB40 \n  TEMPO 0700/0711 BKN012 \n  PROB30 \n  TEMPO 0703/0709 VRB02KT 2000 <span class=\"hl\">BR</span> BKN002 \n  BECMG 0709/0712 14005KT \n  TEMPO 0714/0720 2000 -<span class=\"hl\">SN</span> OVC004 \n  PROB40 \n  TEMPO 0720/0804 3000 <span class=\"hl\">BR</span> BKN012 \n  PROB40 \n  TEMPO 0804/0806 2000 -<span class=\"hl\">SN</span> <span class=\"hl\">BR</span> OVC004"
    },
    {
      "icao": "EGBB",
      "iata": "BHX",
      "name": "Birmingham Airport",
      "updatedAt": "070220Z",
      "visibility_m": 10000,
      "taf_visibility_m": 4000,
      "worst_visibility_m": 4000,
      "ceiling_ft": null,
      "hazards": [
        "RA",
        "SHRA"
      ],
      "severityScore": 26,
      "metarRaw": "METAR EGBB 070220Z 28007KT CAVOK 03/01 Q1003",
      "tafRaw": "TAF EGBB 062303Z 0700/0724 21009KT 9999 SCT035 \n  BECMG 0700/0702 27012KT \n  TEMPO 0700/0702 7000 RA BKN007 \n  PROB30 \n  TEMPO 0700/0702 23015G25KT 4000 +RA \n  TEMPO 0702/0710 29015G25KT 8000 -SHRA \n  PROB30 \n  TEMPO 0702/0708 4000 SHRASN BKN008 \n  TEMPO 0710/0716 29015G25KT \n  BECMG 0716/0719 VRB04KT \n  TEMPO 0721/0724 7000 -RA -RASN",
      "metarHtml": "METAR EGBB 070220Z 28007KT <span class=\"hl-vis\">CAVOK</span> 03/01 Q1003",
      "tafHtml": "TAF EGBB 062303Z 0700/0724 21009KT 9999 SCT035 \n  BECMG 0700/0702 27012KT \n  TEMPO 0700/0702 7000 <span class=\"hl\">RA</span> BKN007 \n  PROB30 \n  TEMPO 0700/0702 23015G25KT 4000 +<span class=\"hl\">RA</span> \n  TEMPO 0702/0710 29015G25KT 8000 -<span class=\"hl\">SHRA</span> \n  PROB30 \n  TEMPO 0702/0708 4000 SHRASN BKN008 \n  TEMPO 0710/0716 29015G25KT \n  BECMG 0716/0719 VRB04KT \n  TEMPO 0721/0724 7000 -<span class=\"hl\">RA</span> -RASN"
    },
    {
      "icao": "EGGP",
      "iata": "LPL",
      "name": "Liverpool John Lennon Airport",
      "updatedAt": "070220Z",
      "visibility_m": 9000,
      "taf_visibility_m": 7000,
      "worst_visibility_m": 7000,
      "ceiling_ft": 2700,
      "hazards": [
        "RA",
        "SHRA"
      ],
      "severityScore": 26,
      "metarRaw": "METAR EGGP 070220Z 28018KT 9000 -RA BKN027 05/01 Q1002",
      "tafRaw": "TAF EGGP 062304Z 0700/0724 29015KT 9999 FEW015 SCT025 \n  TEMPO 0700/0714 30020G32KT \n  PROB30 \n  TEMPO 0700/0709 7000 SHRA BKN012 \n  BECMG 0718/0721 23007KT",
      "metarHtml": "METAR EGGP 070220Z 28018KT 9000 -<span class=\"hl\">RA</span> BKN027 05/01 Q1002",
      "tafHtml": "TAF EGGP 062304Z 0700/0724 29015KT 9999 FEW015 SCT025 \n  TEMPO 0700/0714 30020G32KT \n  PROB30 \n  TEMPO 0700/0709 7000 <span class=\"hl\">SHRA</span> BKN012 \n  BECMG 0718/0721 23007KT"
    },
    {
      "icao": "LICA",
      "iata": "SUF",
      "name": "Lamezia Terme Sant'Eufemia International Airport",
      "updatedAt": "070220Z",
      "visibility_m": 10000,
      "taf_visibility_m": 4000,
      "worst_visibility_m": 4000,
      "ceiling_ft": null,
      "hazards": [
        "RA",
        "SHRA"
      ],
      "severityScore": 26,
      "metarRaw": "METAR LICA 070220Z AUTO 24004KT 9999 BKN018/// BKN045/// 15/13 Q1006",
      "tafRaw": "TAF LICA 062300Z 0700/0724 27013KT 9999 SCT050 \n  TEMPO 0707/0719 4000 SHRA \n  TEMPO 0712/0718 27015G25KT \n  TEMPO 0718/0724 27025G35KT \n  TEMPO 0719/0724 RA",
      "metarHtml": "METAR LICA 070220Z AUTO 24004KT 9999 BKN018/// BKN045/// 15/13 Q1006",
      "tafHtml": "TAF LICA 062300Z 0700/0724 27013KT 9999 SCT050 \n  TEMPO 0707/0719 4000 <span class=\"hl\">SHRA</span> \n  TEMPO 0712/0718 27015G25KT \n  TEMPO 0718/0724 27025G35KT \n  TEMPO 0719/0724 <span class=\"hl\">RA</span>"
    },
    {
      "icao": "LICJ",
      "iata": "PMO",
      "name": "Falcone–Borsellino Airport",
      "updatedAt": "070220Z",
      "visibility_m": 10000,
      "taf_visibility_m": 4000,
      "worst_visibility_m": 4000,
      "ceiling_ft": null,
      "hazards": [
        "RA",
        "SHRA"
      ],
      "severityScore": 26,
      "metarRaw": "METAR LICJ 070220Z 19011KT 9999 -RA SCT050 13/10 Q1007",
      "tafRaw": "TAF LICJ 062300Z 0700/0724 22014KT 9999 SCT030 \n  TEMPO 0703/0718 4000 SHRA \n  TEMPO 0712/0724 27025G38KT",
      "metarHtml": "METAR LICJ 070220Z 19011KT 9999 -<span class=\"hl\">RA</span> SCT050 13/10 Q1007",
      "tafHtml": "TAF LICJ 062300Z 0700/0724 22014KT 9999 SCT030 \n  TEMPO 0703/0718 4000 <span class=\"hl\">SHRA</span> \n  TEMPO 0712/0724 27025G38KT"
    },
    {
      "icao": "EKCH",
      "iata": "CPH",
      "name": "Copenhagen Kastrup Airport",
      "updatedAt": "070220Z",
      "visibility_m": 10000,
      "taf_visibility_m": 2000,
      "worst_visibility_m": 2000,
      "ceiling_ft": 1200,
      "hazards": [
        "SHSN"
      ],
      "severityScore": 22,
      "metarRaw": "METAR EKCH 070220Z AUTO 21006KT 9999 OVC018/// 00/M02 Q1011 TEMPO BKN012",
      "tafRaw": "TAF EKCH 070227Z 0703/0803 17012KT 9000 BKN020 \n  TEMPO 0703/0707 2000 -SHSN BKN008 BKN020CB \n  TEMPO 0707/0710 BKN008 \n  TEMPO 0712/0803 18018G30KT",
      "metarHtml": "METAR EKCH 070220Z AUTO 21006KT 9999 OVC018/// 00/M02 Q1011 TEMPO BKN012",
      "tafHtml": "TAF EKCH 070227Z 0703/0803 17012KT 9000 BKN020 \n  TEMPO 0703/0707 2000 -<span class=\"hl\">SHSN</span> BKN008 BKN020CB \n  TEMPO 0707/0710 BKN008 \n  TEMPO 0712/0803 18018G30KT"
    },
    {
      "icao": "LBSF",
      "iata": "SOF",
      "name": "Sofia Airport",
      "updatedAt": "070230Z",
      "visibility_m": 10000,
      "taf_visibility_m": 3000,
      "worst_visibility_m": 3000,
      "ceiling_ft": null,
      "hazards": [
        "BR",
        "RA"
      ],
      "severityScore": 22,
      "metarRaw": "METAR LBSF 070230Z AUTO 30003KT 240V030 9999 FEW044/// 07/06 Q1007 NOSIG",
      "tafRaw": "TAF LBSF 062300Z 0700/0724 VRB03KT 9999 SCT040 BKN060 \n  TEMPO 0700/0705 3000 BR SCT005 BKN010 \n  BECMG 0705/0707 10010KT \n  TEMPO 0718/0724 5000 RA SCT010 BKN020",
      "metarHtml": "METAR LBSF 070230Z AUTO 30003KT 240V030 9999 FEW044/// 07/06 Q1007 NOSIG",
      "tafHtml": "TAF LBSF 062300Z 0700/0724 VRB03KT 9999 SCT040 BKN060 \n  TEMPO 0700/0705 3000 <span class=\"hl\">BR</span> SCT005 BKN010 \n  BECMG 0705/0707 10010KT \n  TEMPO 0718/0724 5000 <span class=\"hl\">RA</span> SCT010 BKN020"
    },
    {
      "icao": "LEBB",
      "iata": "BIO",
      "name": "Bilbao Airport",
      "updatedAt": "070230Z",
      "visibility_m": 10000,
      "taf_visibility_m": 1500,
      "worst_visibility_m": 1500,
      "ceiling_ft": 6000,
      "hazards": [
        "RA"
      ],
      "severityScore": 22,
      "metarRaw": "METAR LEBB 070230Z AUTO 10004KT 9999 OVC060 01/00 Q1020",
      "tafRaw": "TAF LEBB 062300Z 0700/0724 15008KT 9999 SCT020 BKN040 TX11/0714Z TN01/0703Z \n  PROB40 \n  TEMPO 0700/0713 21010KT \n  TEMPO 0708/0724 3000 RA \n  TEMPO 0710/0718 29011KT \n  PROB40 \n  TEMPO 0711/0717 29018G30KT 1500 +RA BKN010",
      "metarHtml": "METAR LEBB 070230Z AUTO 10004KT 9999 OVC060 01/00 Q1020",
      "tafHtml": "TAF LEBB 062300Z 0700/0724 15008KT 9999 SCT020 BKN040 TX11/0714Z TN01/0703Z \n  PROB40 \n  TEMPO 0700/0713 21010KT \n  TEMPO 0708/0724 3000 <span class=\"hl\">RA</span> \n  TEMPO 0710/0718 29011KT \n  PROB40 \n  TEMPO 0711/0717 29018G30KT 1500 +<span class=\"hl\">RA</span> BKN010"
    },
    {
      "icao": "LEXJ",
      "iata": "SDR",
      "name": "Seve Ballesteros-Santander Airport",
      "updatedAt": "070230Z",
      "visibility_m": 6000,
      "taf_visibility_m": 1500,
      "worst_visibility_m": 1500,
      "ceiling_ft": null,
      "hazards": [
        "RA"
      ],
      "severityScore": 22,
      "metarRaw": "METAR LEXJ 070230Z AUTO 23006KT 6000 NSC 05/M01 Q1019",
      "tafRaw": "TAF LEXJ 070200Z 0703/0803 22009KT 9999 SCT040 BKN050 TX12/0713Z TN05/0703Z \n  TEMPO 0705/0721 3000 RA \n  TEMPO 0708/0718 30015KT \n  TEMPO 0708/0718 28018G30KT \n  PROB40 \n  TEMPO 0709/0712 1500 +RA BKN010",
      "metarHtml": "METAR LEXJ 070230Z AUTO 23006KT 6000 NSC 05/M01 Q1019",
      "tafHtml": "TAF LEXJ 070200Z 0703/0803 22009KT 9999 SCT040 BKN050 TX12/0713Z TN05/0703Z \n  TEMPO 0705/0721 3000 <span class=\"hl\">RA</span> \n  TEMPO 0708/0718 30015KT \n  TEMPO 0708/0718 28018G30KT \n  PROB40 \n  TEMPO 0709/0712 1500 +<span class=\"hl\">RA</span> BKN010"
    },
    {
      "icao": "LEZL",
      "iata": "SVQ",
      "name": "Sevilla Airport",
      "updatedAt": "070230Z",
      "visibility_m": 10000,
      "taf_visibility_m": 4000,
      "worst_visibility_m": 4000,
      "ceiling_ft": null,
      "hazards": [
        "BR",
        "RA"
      ],
      "severityScore": 22,
      "metarRaw": "METAR LEZL 070230Z AUTO 00000KT CAVOK 02/00 Q1024",
      "tafRaw": "TAF LEZL 070200Z 0703/0803 VRB02KT CAVOK TX12/0715Z TN00/0707Z \n  PROB30 \n  TEMPO 0704/0709 4000 BR \n  PROB30 \n  TEMPO 0714/0719 RA",
      "metarHtml": "METAR LEZL 070230Z AUTO 00000KT <span class=\"hl-vis\">CAVOK</span> 02/00 Q1024",
      "tafHtml": "TAF LEZL 070200Z 0703/0803 VRB02KT <span class=\"hl-vis\">CAVOK</span> TX12/0715Z TN00/0707Z \n  PROB30 \n  TEMPO 0704/0709 4000 <span class=\"hl\">BR</span> \n  PROB30 \n  TEMPO 0714/0719 <span class=\"hl\">RA</span>"
    },
    {
      "icao": "LPPR",
      "iata": "OPO",
      "name": "Francisco de Sá Carneiro Airport",
      "updatedAt": "070230Z",
      "visibility_m": 9000,
      "taf_visibility_m": 3000,
      "worst_visibility_m": 3000,
      "ceiling_ft": 2000,
      "hazards": [
        "RA",
        "BR"
      ],
      "severityScore": 22,
      "metarRaw": "METAR LPPR 070230Z 14011KT 9000 -RA SCT010 OVC020 06/05 Q1022",
      "tafRaw": "TAF LPPR 062300Z 0700/0724 VRB02KT 9999 SCT015 BKN035 \n  BECMG 0700/0702 13007KT 6000 -RA SCT012 BKN025 \n  TEMPO 0702/0710 3000 RA BR SCT004 BKN008 \n  BECMG 0710/0712 32005KT 9999 NSW SCT015 \n  BECMG 0720/0722 VRB02KT",
      "metarHtml": "METAR LPPR 070230Z 14011KT 9000 -<span class=\"hl\">RA</span> SCT010 OVC020 06/05 Q1022",
      "tafHtml": "TAF LPPR 062300Z 0700/0724 VRB02KT 9999 SCT015 BKN035 \n  BECMG 0700/0702 13007KT 6000 -<span class=\"hl\">RA</span> SCT012 BKN025 \n  TEMPO 0702/0710 3000 <span class=\"hl\">RA</span> <span class=\"hl\">BR</span> SCT004 BKN008 \n  BECMG 0710/0712 32005KT 9999 NSW SCT015 \n  BECMG 0720/0722 VRB02KT"
    },
    {
      "icao": "LPPT",
      "iata": "LIS",
      "name": "Lisbon Humberto Delgado Airport",
      "updatedAt": "070230Z",
      "visibility_m": 10000,
      "taf_visibility_m": 3000,
      "worst_visibility_m": 3000,
      "ceiling_ft": 3200,
      "hazards": [
        "BR",
        "RA"
      ],
      "severityScore": 22,
      "metarRaw": "METAR LPPT 070230Z 24004KT 9999 BKN032 08/06 Q1025",
      "tafRaw": "TAF LPPT 062300Z 0700/0806 VRB02KT 9999 FEW015 BKN035 \n  TEMPO 0700/0709 5000 RA SCT008 BKN015 \n  BECMG 0709/0711 36010KT SCT025 \n  BECMG 0713/0715 06007KT FEW030 \n  BECMG 0720/0722 VRB02KT \n  PROB30 \n  TEMPO 0804/0806 3000 BR BKN004",
      "metarHtml": "METAR LPPT 070230Z 24004KT 9999 BKN032 08/06 Q1025",
      "tafHtml": "TAF LPPT 062300Z 0700/0806 VRB02KT 9999 FEW015 BKN035 \n  TEMPO 0700/0709 5000 <span class=\"hl\">RA</span> SCT008 BKN015 \n  BECMG 0709/0711 36010KT SCT025 \n  BECMG 0713/0715 06007KT FEW030 \n  BECMG 0720/0722 VRB02KT \n  PROB30 \n  TEMPO 0804/0806 3000 <span class=\"hl\">BR</span> BKN004"
    },
    {
      "icao": "LWSK",
      "iata": "SKP",
      "name": "Skopje International Airport",
      "updatedAt": "070250Z",
      "visibility_m": 4000,
      "taf_visibility_m": 3000,
      "worst_visibility_m": 3000,
      "ceiling_ft": 7500,
      "hazards": [
        "BR",
        "RA"
      ],
      "severityScore": 22,
      "metarRaw": "METAR LWSK 070250Z VRB02KT 4000 BR SCT003 BKN075 05/04 Q1007 NOSIG",
      "tafRaw": "TAF LWSK 070235Z 0703/0803 VRB02KT 6000 SCT015 \n  TEMPO 0703/0706 3000 BR BKN010 \n  BECMG 0708/0711 13010KT \n  PROB40 \n  TEMPO 0713/0721 14020KT \n  BECMG 0717/0719 RA BKN010 OVC025",
      "metarHtml": "METAR LWSK 070250Z VRB02KT 4000 <span class=\"hl\">BR</span> SCT003 BKN075 05/04 Q1007 NOSIG",
      "tafHtml": "TAF LWSK 070235Z 0703/0803 VRB02KT 6000 SCT015 \n  TEMPO 0703/0706 3000 <span class=\"hl\">BR</span> BKN010 \n  BECMG 0708/0711 13010KT \n  PROB40 \n  TEMPO 0713/0721 14020KT \n  BECMG 0717/0719 <span class=\"hl\">RA</span> BKN010 OVC025"
    },
    {
      "icao": "LBWN",
      "iata": "VAR",
      "name": "Varna Airport",
      "updatedAt": "070230Z",
      "visibility_m": 10000,
      "taf_visibility_m": 4000,
      "worst_visibility_m": 4000,
      "ceiling_ft": null,
      "hazards": [
        "BR",
        "DZ"
      ],
      "severityScore": 20,
      "metarRaw": "METAR LBWN 070230Z AUTO 14007KT 9999 BKN025/// 13/10 Q1009 NOSIG",
      "tafRaw": "TAF LBWN 062300Z 0700/0724 19012KT 9999 SCT015 SCT030 \n  TEMPO 0700/0712 21016G26KT \n  PROB40 0702/0706 4000 DZ BR BKN012 OVC025 \n  TEMPO 0720/0724 20016G26KT",
      "metarHtml": "METAR LBWN 070230Z AUTO 14007KT 9999 BKN025/// 13/10 Q1009 NOSIG",
      "tafHtml": "TAF LBWN 062300Z 0700/0724 19012KT 9999 SCT015 SCT030 \n  TEMPO 0700/0712 21016G26KT \n  PROB40 0702/0706 4000 <span class=\"hl\">DZ</span> <span class=\"hl\">BR</span> BKN012 OVC025 \n  TEMPO 0720/0724 20016G26KT"
    },
    {
      "icao": "UDSG",
      "iata": "LWN",
      "name": "Shirak International Airport",
      "updatedAt": "070230Z",
      "visibility_m": 7000,
      "taf_visibility_m": 1000,
      "worst_visibility_m": 1000,
      "ceiling_ft": null,
      "hazards": [
        "BR"
      ],
      "severityScore": 20,
      "metarRaw": "METAR UDSG 070230Z 04002KT 7000 FEW049 M20/M22 Q1027 NOSIG",
      "tafRaw": "TAF UDSG 062258Z 0700/0724 VRB06KT 5000 BR FEW040 \n  TEMPO 0700/0706 1000 BR",
      "metarHtml": "METAR UDSG 070230Z 04002KT 7000 FEW049 M20/M22 Q1027 NOSIG",
      "tafHtml": "TAF UDSG 062258Z 0700/0724 VRB06KT 5000 <span class=\"hl\">BR</span> FEW040 \n  TEMPO 0700/0706 1000 <span class=\"hl\">BR</span>"
    },
    {
      "icao": "EDDS",
      "iata": "STR",
      "name": "Stuttgart Airport",
      "updatedAt": "070220Z",
      "visibility_m": 10000,
      "taf_visibility_m": 4500,
      "worst_visibility_m": 4500,
      "ceiling_ft": 3700,
      "hazards": [
        "SN"
      ],
      "severityScore": 18,
      "metarRaw": "METAR EDDS 070220Z AUTO VRB01KT 9999 FEW029 OVC037 M06/M07 Q1015",
      "tafRaw": "TAF EDDS 062300Z 0700/0724 VRB03KT 9999 BKN030 \n  TEMPO 0718/0724 4500 -SN BKN014",
      "metarHtml": "METAR EDDS 070220Z AUTO VRB01KT 9999 FEW029 OVC037 M06/M07 Q1015",
      "tafHtml": "TAF EDDS 062300Z 0700/0724 VRB03KT 9999 BKN030 \n  TEMPO 0718/0724 4500 -<span class=\"hl\">SN</span> BKN014"
    },
    {
      "icao": "EDLW",
      "iata": "DTM",
      "name": "Dortmund Airport",
      "updatedAt": "070220Z",
      "visibility_m": 10000,
      "taf_visibility_m": 4500,
      "worst_visibility_m": 4500,
      "ceiling_ft": null,
      "hazards": [
        "SN"
      ],
      "severityScore": 18,
      "metarRaw": "METAR EDLW 070220Z AUTO 19015KT 9999 // NCD M03/M06 Q1012",
      "tafRaw": "TAF EDLW 061700Z 0618/0718 21008KT 9999 BKN010 \n  BECMG 0618/0620 SCT020 \n  BECMG 0623/0701 18013KT \n  TEMPO 0708/0716 18015G25KT \n  PROB30 \n  TEMPO 0713/0716 4500 -SN BKN012 \n  TEMPO 0716/0718 BKN012",
      "metarHtml": "METAR EDLW 070220Z AUTO 19015KT 9999 // NCD M03/M06 Q1012",
      "tafHtml": "TAF EDLW 061700Z 0618/0718 21008KT 9999 BKN010 \n  BECMG 0618/0620 SCT020 \n  BECMG 0623/0701 18013KT \n  TEMPO 0708/0716 18015G25KT \n  PROB30 \n  TEMPO 0713/0716 4500 -<span class=\"hl\">SN</span> BKN012 \n  TEMPO 0716/0718 BKN012"
    },
    {
      "icao": "EDNY",
      "iata": "FDH",
      "name": "Friedrichshafen Airport",
      "updatedAt": "070220Z",
      "visibility_m": 9000,
      "taf_visibility_m": 10000,
      "worst_visibility_m": 9000,
      "ceiling_ft": null,
      "hazards": [
        "SN"
      ],
      "severityScore": 18,
      "metarRaw": "METAR EDNY 070220Z AUTO 05002KT 9000 -SN SCT022/// OVC052/// M05/M07 Q1016",
      "tafRaw": "TAF EDNY 070200Z 0703/0712 VRB02KT 9999 BKN020 \n  TEMPO 0709/0712 24005KT",
      "metarHtml": "METAR EDNY 070220Z AUTO 05002KT 9000 -<span class=\"hl\">SN</span> SCT022/// OVC052/// M05/M07 Q1016",
      "tafHtml": "TAF EDNY 070200Z 0703/0712 VRB02KT 9999 BKN020 \n  TEMPO 0709/0712 24005KT"
    },
    {
      "icao": "ENTO",
      "iata": "TRF",
      "name": "Sandefjord Airport, Torp",
      "updatedAt": "070220Z",
      "visibility_m": 10000,
      "taf_visibility_m": 2000,
      "worst_visibility_m": 2000,
      "ceiling_ft": null,
      "hazards": [
        "SN"
      ],
      "severityScore": 18,
      "metarRaw": "METAR ENTO 070220Z AUTO 36007KT 9999 NCD M13/M15 Q1011",
      "tafRaw": "TAF ENTO 062300Z 0700/0724 02006KT CAVOK \n  BECMG 0716/0718 4000 -SN OVC014 \n  TEMPO 0719/0724 01015G25KT 2000 SN VV010",
      "metarHtml": "METAR ENTO 070220Z AUTO 36007KT 9999 NCD M13/M15 Q1011",
      "tafHtml": "TAF ENTO 062300Z 0700/0724 02006KT <span class=\"hl-vis\">CAVOK</span> \n  BECMG 0716/0718 4000 -<span class=\"hl\">SN</span> OVC014 \n  TEMPO 0719/0724 01015G25KT 2000 <span class=\"hl\">SN</span> VV010"
    },
    {
      "icao": "LJLJ",
      "iata": "LJU",
      "name": "Ljubljana Jože Pučnik Airport",
      "updatedAt": "070230Z",
      "visibility_m": 10000,
      "taf_visibility_m": 7000,
      "worst_visibility_m": 7000,
      "ceiling_ft": 9000,
      "hazards": [
        "SN"
      ],
      "severityScore": 18,
      "metarRaw": "METAR LJLJ 070230Z 28004KT 9999 FEW007 SCT078 BKN090 M07/M08 Q1012 NOSIG",
      "tafRaw": "TAF LJLJ 062300Z 0700/0800 13005KT 7000 -SN FEW005 BKN070 \n  BECMG 0700/0702 NSW \n  PROB40 \n  TEMPO 0702/0800 -SN",
      "metarHtml": "METAR LJLJ 070230Z 28004KT 9999 FEW007 SCT078 BKN090 M07/M08 Q1012 NOSIG",
      "tafHtml": "TAF LJLJ 062300Z 0700/0800 13005KT 7000 -<span class=\"hl\">SN</span> FEW005 BKN070 \n  BECMG 0700/0702 NSW \n  PROB40 \n  TEMPO 0702/0800 -<span class=\"hl\">SN</span>"
    },
    {
      "icao": "LZTT",
      "iata": "TAT",
      "name": "Poprad-Tatry Airport",
      "updatedAt": "070230Z",
      "visibility_m": 10000,
      "taf_visibility_m": 2000,
      "worst_visibility_m": 2000,
      "ceiling_ft": 5300,
      "hazards": [
        "SN"
      ],
      "severityScore": 18,
      "metarRaw": "METAR LZTT 070230Z 28003KT 9999 FEW013 BKN053 BKN080 M07/M08 Q1009",
      "tafRaw": "TAF LZTT 062315Z 0700/0800 09009KT 9999 SCT016 BKN045 \n  TEMPO 0700/0707 2000 SN OVC008",
      "metarHtml": "METAR LZTT 070230Z 28003KT 9999 FEW013 BKN053 BKN080 M07/M08 Q1009",
      "tafHtml": "TAF LZTT 062315Z 0700/0800 09009KT 9999 SCT016 BKN045 \n  TEMPO 0700/0707 2000 <span class=\"hl\">SN</span> OVC008"
    },
    {
      "icao": "EYKA",
      "iata": "KUN",
      "name": "Kaunas International Airport",
      "updatedAt": "070250Z",
      "visibility_m": 3400,
      "taf_visibility_m": null,
      "worst_visibility_m": 3400,
      "ceiling_ft": null,
      "hazards": [
        "BR"
      ],
      "severityScore": 15,
      "metarRaw": "METAR EYKA 070250Z 20003KT 160V240 3400 BR NSC M09/M10 Q1014",
      "tafRaw": null,
      "metarHtml": "METAR EYKA 070250Z 20003KT 160V240 3400 <span class=\"hl\">BR</span> NSC M09/M10 Q1014",
      "tafHtml": null
    },
    {
      "icao": "LMML",
      "iata": "MLA",
      "name": "Malta International Airport",
      "updatedAt": "070245Z",
      "visibility_m": 10000,
      "taf_visibility_m": 8000,
      "worst_visibility_m": 8000,
      "ceiling_ft": null,
      "hazards": [
        "SHRA"
      ],
      "severityScore": 14,
      "metarRaw": "METAR LMML 070245Z 15003KT 120V180 CAVOK 12/12 Q1007 NOSIG",
      "tafRaw": "TAF LMML 062300Z 0700/0724 19008KT 9999 FEW015 \n  BECMG 0706/0709 29022KT \n  TEMPO 0712/0724 29022G32KT \n  PROB40 \n  TEMPO 0712/0718 8000 SHRA BKN015TCU",
      "metarHtml": "METAR LMML 070245Z 15003KT 120V180 <span class=\"hl-vis\">CAVOK</span> 12/12 Q1007 NOSIG",
      "tafHtml": "TAF LMML 062300Z 0700/0724 19008KT 9999 FEW015 \n  BECMG 0706/0709 29022KT \n  TEMPO 0712/0724 29022G32KT \n  PROB40 \n  TEMPO 0712/0718 8000 <span class=\"hl\">SHRA</span> BKN015TCU"
    },
    {
      "icao": "EGGW",
      "iata": "LTN",
      "name": "London Luton Airport",
      "updatedAt": "070220Z",
      "visibility_m": 10000,
      "taf_visibility_m": 3000,
      "worst_visibility_m": 3000,
      "ceiling_ft": null,
      "hazards": [
        "RA"
      ],
      "severityScore": 12,
      "metarRaw": "METAR EGGW 070220Z AUTO 24010KT 200V270 9999 -RA OVC011/// //////TCU 04/03 Q1003",
      "tafRaw": "TAF EGGW 062302Z 0700/0724 22017G27KT 9999 SCT030 \n  BECMG 0700/0703 28010KT \n  TEMPO 0700/0703 5000 RA BKN012 \n  PROB40 \n  TEMPO 0700/0703 3000 +RA BKN004 \n  PROB30 0703/0706 8000 \n  PROB30 \n  TEMPO 0706/0711 28016G26KT 4000 -SHRASN BKN008 \n  TEMPO 0711/0718 29016G26KT",
      "metarHtml": "METAR EGGW 070220Z AUTO 24010KT 200V270 9999 -<span class=\"hl\">RA</span> OVC011/// //////TCU 04/03 Q1003",
      "tafHtml": "TAF EGGW 062302Z 0700/0724 22017G27KT 9999 SCT030 \n  BECMG 0700/0703 28010KT \n  TEMPO 0700/0703 5000 <span class=\"hl\">RA</span> BKN012 \n  PROB40 \n  TEMPO 0700/0703 3000 +<span class=\"hl\">RA</span> BKN004 \n  PROB30 0703/0706 8000 \n  PROB30 \n  TEMPO 0706/0711 28016G26KT 4000 -SHRASN BKN008 \n  TEMPO 0711/0718 29016G26KT"
    },
    {
      "icao": "EGNM",
      "iata": "LBA",
      "name": "Leeds Bradford Airport",
      "updatedAt": null,
      "visibility_m": null,
      "taf_visibility_m": 3000,
      "worst_visibility_m": 3000,
      "ceiling_ft": null,
      "hazards": [
        "RA"
      ],
      "severityScore": 12,
      "metarRaw": null,
      "tafRaw": "TAF EGNM 061655Z 0618/0718 21009KT 9999 SCT018 \n  TEMPO 0618/0623 6000 -RASN RA BKN008 \n  PROB30 \n  TEMPO 0618/0622 21015G25KT 3000 RASN +RA BKN004 \n  BECMG 0621/0624 28010KT \n  TEMPO 0700/0712 27015G25KT \n  PROB30 \n  TEMPO 0700/0703 6000 SHRASN BKN010",
      "metarHtml": null,
      "tafHtml": "TAF EGNM 061655Z 0618/0718 21009KT 9999 SCT018 \n  TEMPO 0618/0623 6000 -RASN <span class=\"hl\">RA</span> BKN008 \n  PROB30 \n  TEMPO 0618/0622 21015G25KT 3000 RASN +<span class=\"hl\">RA</span> BKN004 \n  BECMG 0621/0624 28010KT \n  TEMPO 0700/0712 27015G25KT \n  PROB30 \n  TEMPO 0700/0703 6000 SHRASN BKN010"
    },
    {
      "icao": "LGAV",
      "iata": "ATH",
      "name": "Athens Eleftherios Venizelos International Airport",
      "updatedAt": "070220Z",
      "visibility_m": 10000,
      "taf_visibility_m": 5000,
      "worst_visibility_m": 5000,
      "ceiling_ft": null,
      "hazards": [
        "RA"
      ],
      "severityScore": 12,
      "metarRaw": "METAR LGAV 070220Z 23005KT 190V340 9999 FEW020 SCT030 16/10 Q1012 NOSIG",
      "tafRaw": "TAF LGAV 062300Z 0700/0724 14009KT 9999 FEW020 SCT030 \n  PROB30 \n  TEMPO 0700/0709 5000 RA FEW018TCU SCT020 BKN030 \n  BECMG 0710/0712 19019KT \n  BECMG 0718/0720 20020G30KT",
      "metarHtml": "METAR LGAV 070220Z 23005KT 190V340 9999 FEW020 SCT030 16/10 Q1012 NOSIG",
      "tafHtml": "TAF LGAV 062300Z 0700/0724 14009KT 9999 FEW020 SCT030 \n  PROB30 \n  TEMPO 0700/0709 5000 <span class=\"hl\">RA</span> FEW018TCU SCT020 BKN030 \n  BECMG 0710/0712 19019KT \n  BECMG 0718/0720 20020G30KT"
    },
    {
      "icao": "LICC",
      "iata": "CTA",
      "name": "Catania-Fontanarossa Airport",
      "updatedAt": "070220Z",
      "visibility_m": 10000,
      "taf_visibility_m": 7000,
      "worst_visibility_m": 7000,
      "ceiling_ft": null,
      "hazards": [
        "RA"
      ],
      "severityScore": 12,
      "metarRaw": "METAR LICC 070220Z 22005KT CAVOK 09/06 Q1007",
      "tafRaw": "TAF LICC 062300Z 0700/0724 26013KT 7000 FEW060 \n  TEMPO 0705/0708 RA \n  TEMPO 0712/0718 26018G28KT",
      "metarHtml": "METAR LICC 070220Z 22005KT <span class=\"hl-vis\">CAVOK</span> 09/06 Q1007",
      "tafHtml": "TAF LICC 062300Z 0700/0724 26013KT 7000 FEW060 \n  TEMPO 0705/0708 <span class=\"hl\">RA</span> \n  TEMPO 0712/0718 26018G28KT"
    },
    {
      "icao": "LIPY",
      "iata": "AOI",
      "name": "Marche Airport",
      "updatedAt": "070220Z",
      "visibility_m": 10000,
      "taf_visibility_m": 6000,
      "worst_visibility_m": 6000,
      "ceiling_ft": null,
      "hazards": [
        "RA"
      ],
      "severityScore": 12,
      "metarRaw": "METAR LIPY 070220Z AUTO 29007KT 9999 -RA OVC026/// 03/02 Q1008",
      "tafRaw": "TAF LIPY 062300Z 0700/0724 33013KT 6000 BKN020 \n  TEMPO 0700/0718 RA",
      "metarHtml": "METAR LIPY 070220Z AUTO 29007KT 9999 -<span class=\"hl\">RA</span> OVC026/// 03/02 Q1008",
      "tafHtml": "TAF LIPY 062300Z 0700/0724 33013KT 6000 BKN020 \n  TEMPO 0700/0718 <span class=\"hl\">RA</span>"
    },
    {
      "icao": "LIRN",
      "iata": "NAP",
      "name": "Naples International Airport",
      "updatedAt": "070220Z",
      "visibility_m": 10000,
      "taf_visibility_m": 10000,
      "worst_visibility_m": 10000,
      "ceiling_ft": null,
      "hazards": [
        "RA"
      ],
      "severityScore": 12,
      "metarRaw": "METAR LIRN 070220Z 23005KT 9999 SCT045 11/06 Q1005 NOSIG",
      "tafRaw": "TAF LIRN 062300Z 0700/0724 VRB06KT 9999 SCT030 \n  BECMG 0710/0712 26012KT \n  TEMPO 0714/0720 RA",
      "metarHtml": "METAR LIRN 070220Z 23005KT 9999 SCT045 11/06 Q1005 NOSIG",
      "tafHtml": "TAF LIRN 062300Z 0700/0724 VRB06KT 9999 SCT030 \n  BECMG 0710/0712 26012KT \n  TEMPO 0714/0720 <span class=\"hl\">RA</span>"
    },
    {
      "icao": "LKMT",
      "iata": "OSR",
      "name": "Ostrava Leos Janáček Airport",
      "updatedAt": "070230Z",
      "visibility_m": 10000,
      "taf_visibility_m": 10000,
      "worst_visibility_m": 10000,
      "ceiling_ft": 1500,
      "hazards": [],
      "severityScore": 12,
      "metarRaw": "METAR LKMT 070230Z 03005KT 9999 OVC020 M06/M08 Q1015 BECMG BKN015",
      "tafRaw": "TAF LKMT 062300Z 0700/0724 03007KT CAVOK \n  BECMG 0703/0705 9999 BKN018 \n  PROB30 \n  TEMPO 0712/0724 BKN010",
      "metarHtml": "METAR LKMT 070230Z 03005KT 9999 OVC020 M06/M08 Q1015 BECMG BKN015",
      "tafHtml": "TAF LKMT 062300Z 0700/0724 03007KT <span class=\"hl-vis\">CAVOK</span> \n  BECMG 0703/0705 9999 BKN018 \n  PROB30 \n  TEMPO 0712/0724 BKN010"
    },
    {
      "icao": "LPFR",
      "iata": "FAO",
      "name": "Faro Airport",
      "updatedAt": "070230Z",
      "visibility_m": 10000,
      "taf_visibility_m": 6000,
      "worst_visibility_m": 6000,
      "ceiling_ft": null,
      "hazards": [
        "RA"
      ],
      "severityScore": 12,
      "metarRaw": "METAR LPFR 070230Z 28005KT CAVOK 06/01 Q1025",
      "tafRaw": "TAF LPFR 062300Z 0700/0724 VRB05KT CAVOK \n  BECMG 0705/0707 9999 FEW015 SCT035 \n  TEMPO 0707/0716 6000 -RA SCT012 BKN020 \n  BECMG 0712/0714 25007KT \n  BECMG 0720/0722 VRB02KT",
      "metarHtml": "METAR LPFR 070230Z 28005KT <span class=\"hl-vis\">CAVOK</span> 06/01 Q1025",
      "tafHtml": "TAF LPFR 062300Z 0700/0724 VRB05KT <span class=\"hl-vis\">CAVOK</span> \n  BECMG 0705/0707 9999 FEW015 SCT035 \n  TEMPO 0707/0716 6000 -<span class=\"hl\">RA</span> SCT012 BKN020 \n  BECMG 0712/0714 25007KT \n  BECMG 0720/0722 VRB02KT"
    },
    {
      "icao": "LWOH",
      "iata": "OHD",
      "name": "Ohrid St. Paul the Apostle Airport",
      "updatedAt": null,
      "visibility_m": null,
      "taf_visibility_m": 5000,
      "worst_visibility_m": 5000,
      "ceiling_ft": null,
      "hazards": [
        "RA"
      ],
      "severityScore": 12,
      "metarRaw": null,
      "tafRaw": "TAF LWOH 070235Z 0703/0803 14006KT 9999 RA SCT015 OVC035 \n  TEMPO 0712/0718 18015G25KT \n  TEMPO 0718/0802 5000 +RA BKN010 OVC025",
      "metarHtml": null,
      "tafHtml": "TAF LWOH 070235Z 0703/0803 14006KT 9999 <span class=\"hl\">RA</span> SCT015 OVC035 \n  TEMPO 0712/0718 18015G25KT \n  TEMPO 0718/0802 5000 +<span class=\"hl\">RA</span> BKN010 OVC025"
    },
    {
      "icao": "EGPF",
      "iata": "GLA",
      "name": "Glasgow Airport",
      "updatedAt": "070220Z",
      "visibility_m": 10000,
      "taf_visibility_m": 4000,
      "worst_visibility_m": 4000,
      "ceiling_ft": null,
      "hazards": [
        "BR"
      ],
      "severityScore": 10,
      "metarRaw": "METAR EGPF 070220Z AUTO 29005KT 190V330 9999 SCT023 SCT034 04/01 Q1000",
      "tafRaw": "TAF EGPF 062256Z 0700/0724 28010KT 9999 SCT025 \n  PROB30 \n  TEMPO 0700/0708 30015G27KT \n  PROB30 \n  TEMPO 0700/0703 BKN014 \n  BECMG 0715/0718 VRB04KT \n  PROB30 \n  TEMPO 0720/0724 4000 BR BKN009",
      "metarHtml": "METAR EGPF 070220Z AUTO 29005KT 190V330 9999 SCT023 SCT034 04/01 Q1000",
      "tafHtml": "TAF EGPF 062256Z 0700/0724 28010KT 9999 SCT025 \n  PROB30 \n  TEMPO 0700/0708 30015G27KT \n  PROB30 \n  TEMPO 0700/0703 BKN014 \n  BECMG 0715/0718 VRB04KT \n  PROB30 \n  TEMPO 0720/0724 4000 <span class=\"hl\">BR</span> BKN009"
    },
    {
      "icao": "EPRA",
      "iata": "RDO",
      "name": "Warsaw Radom Airport",
      "updatedAt": "070230Z",
      "visibility_m": 8000,
      "taf_visibility_m": 4000,
      "worst_visibility_m": 4000,
      "ceiling_ft": null,
      "hazards": [
        "BR"
      ],
      "severityScore": 10,
      "metarRaw": "METAR EPRA 070230Z 36002KT 8000 NSC M07/M09 Q1015",
      "tafRaw": "TAF EPRA 070230Z 0703/0712 34004KT 8000 NSC \n  PROB40 0704/0708 4000 BR",
      "metarHtml": "METAR EPRA 070230Z 36002KT 8000 NSC M07/M09 Q1015",
      "tafHtml": "TAF EPRA 070230Z 0703/0712 34004KT 8000 NSC \n  PROB40 0704/0708 4000 <span class=\"hl\">BR</span>"
    },
    {
      "icao": "ESMS",
      "iata": "MMX",
      "name": "Malmö Sturup Airport",
      "updatedAt": "070220Z",
      "visibility_m": 8000,
      "taf_visibility_m": 2000,
      "worst_visibility_m": 2000,
      "ceiling_ft": 4200,
      "hazards": [
        "SHSN"
      ],
      "severityScore": 10,
      "metarRaw": "METAR ESMS 070220Z 16004KT 8000 FEW033 OVC042 M01/M01 Q1010",
      "tafRaw": "TAF ESMS 070227Z 0703/0803 VRB03KT 5000 BKN020 \n  TEMPO 0703/0710 2000 -SHSN BKN008 SCT020CB \n  TEMPO 0710/0713 BKN008 \n  BECMG 0710/0712 18012KT \n  TEMPO 0713/0803 18012G22KT",
      "metarHtml": "METAR ESMS 070220Z 16004KT 8000 FEW033 OVC042 M01/M01 Q1010",
      "tafHtml": "TAF ESMS 070227Z 0703/0803 VRB03KT 5000 BKN020 \n  TEMPO 0703/0710 2000 -<span class=\"hl\">SHSN</span> BKN008 SCT020CB \n  TEMPO 0710/0713 BKN008 \n  BECMG 0710/0712 18012KT \n  TEMPO 0713/0803 18012G22KT"
    },
    {
      "icao": "HESX",
      "iata": "SPX",
      "name": "Sphinx International Airport",
      "updatedAt": "070200Z",
      "visibility_m": 10000,
      "taf_visibility_m": 1000,
      "worst_visibility_m": 1000,
      "ceiling_ft": null,
      "hazards": [],
      "severityScore": 10,
      "metarRaw": "METAR HESX 070200Z 09008KT CAVOK 11/06 Q1020 NOSIG",
      "tafRaw": "TAF HESX 062300Z 0700/0806 08009KT 6000 NSC \n  TEMPO 0700/0709 3000 HZ \n  PROB30 0702/0707 1000",
      "metarHtml": "METAR HESX 070200Z 09008KT <span class=\"hl-vis\">CAVOK</span> 11/06 Q1020 NOSIG",
      "tafHtml": "TAF HESX 062300Z 0700/0806 08009KT 6000 NSC \n  TEMPO 0700/0709 3000 HZ \n  PROB30 0702/0707 1000"
    },
    {
      "icao": "LEMD",
      "iata": "MAD",
      "name": "Adolfo Suárez Madrid–Barajas Airport",
      "updatedAt": "070230Z",
      "visibility_m": 10000,
      "taf_visibility_m": 1500,
      "worst_visibility_m": 1500,
      "ceiling_ft": null,
      "hazards": [],
      "severityScore": 10,
      "metarRaw": "METAR LEMD 070230Z VRB02KT CAVOK M04/M07 Q1020 NOSIG",
      "tafRaw": "TAF LEMD 062300Z 0700/0806 VRB04KT CAVOK TX08/0715Z TNM04/0707Z \n  BECMG 0722/0724 BKN005 \n  PROB40 \n  TEMPO 0723/0806 1500 BCFG BKN002",
      "metarHtml": "METAR LEMD 070230Z VRB02KT <span class=\"hl-vis\">CAVOK</span> M04/M07 Q1020 NOSIG",
      "tafHtml": "TAF LEMD 062300Z 0700/0806 VRB04KT <span class=\"hl-vis\">CAVOK</span> TX08/0715Z TNM04/0707Z \n  BECMG 0722/0724 BKN005 \n  PROB40 \n  TEMPO 0723/0806 1500 BCFG BKN002"
    },
    {
      "icao": "LIBP",
      "iata": "PSR",
      "name": "Abruzzo Airport",
      "updatedAt": "070220Z",
      "visibility_m": 10000,
      "taf_visibility_m": 6000,
      "worst_visibility_m": 6000,
      "ceiling_ft": null,
      "hazards": [
        "DZ"
      ],
      "severityScore": 10,
      "metarRaw": "METAR LIBP 070220Z AUTO 28005KT 240V010 9999 -DZ OVC031/// 05/02 Q1008",
      "tafRaw": "TAF LIBP 062300Z 0700/0724 30009KT 6000 BKN020",
      "metarHtml": "METAR LIBP 070220Z AUTO 28005KT 240V010 9999 -<span class=\"hl\">DZ</span> OVC031/// 05/02 Q1008",
      "tafHtml": "TAF LIBP 062300Z 0700/0724 30009KT 6000 BKN020"
    },
    {
      "icao": "LIMC",
      "iata": "MXP",
      "name": "Milan Malpensa International Airport",
      "updatedAt": "070220Z",
      "visibility_m": 10000,
      "taf_visibility_m": 1500,
      "worst_visibility_m": 1500,
      "ceiling_ft": null,
      "hazards": [],
      "severityScore": 10,
      "metarRaw": "METAR LIMC 070220Z 02006KT CAVOK M07/M08 Q1011 NOSIG",
      "tafRaw": "TAF LIMC 062300Z 0700/0806 VRB04KT CAVOK \n  PROB30 \n  TEMPO 0700/0708 2000 BCFG \n  TEMPO 0720/0803 1500 BCFG",
      "metarHtml": "METAR LIMC 070220Z 02006KT <span class=\"hl-vis\">CAVOK</span> M07/M08 Q1011 NOSIG",
      "tafHtml": "TAF LIMC 062300Z 0700/0806 VRB04KT <span class=\"hl-vis\">CAVOK</span> \n  PROB30 \n  TEMPO 0700/0708 2000 BCFG \n  TEMPO 0720/0803 1500 BCFG"
    },
    {
      "icao": "LIPX",
      "iata": "VRN",
      "name": "Verona Villafranca Valerio Catullo Airport",
      "updatedAt": "070220Z",
      "visibility_m": 10000,
      "taf_visibility_m": 4000,
      "worst_visibility_m": 4000,
      "ceiling_ft": null,
      "hazards": [
        "BR"
      ],
      "severityScore": 10,
      "metarRaw": "METAR LIPX 070220Z 32005KT CAVOK M02/M04 Q1011",
      "tafRaw": "TAF LIPX 062300Z 0700/0724 VRB05KT 9999 FEW030 \n  PROB40 \n  TEMPO 0700/0707 4000 BR",
      "metarHtml": "METAR LIPX 070220Z 32005KT <span class=\"hl-vis\">CAVOK</span> M02/M04 Q1011",
      "tafHtml": "TAF LIPX 062300Z 0700/0724 VRB05KT 9999 FEW030 \n  PROB40 \n  TEMPO 0700/0707 4000 <span class=\"hl\">BR</span>"
    },
    {
      "icao": "LRBV",
      "iata": "GHV",
      "name": "Brașov-Ghimbav International Airport",
      "updatedAt": "070230Z",
      "visibility_m": 5000,
      "taf_visibility_m": 3000,
      "worst_visibility_m": 3000,
      "ceiling_ft": null,
      "hazards": [
        "BR"
      ],
      "severityScore": 10,
      "metarRaw": "METAR LRBV 070230Z AUTO VRB03KT 5000 BR SCT058/// BKN170/// 01/00 Q1006",
      "tafRaw": "TAF LRBV 070200Z 0703/0712 15007KT 5000 BR BKN035 \n  TEMPO 0703/0706 3000 BR BKN005 BKN030 \n  BECMG 0708/0710 9999 NSW \n  BECMG 0710/0712 31010KT",
      "metarHtml": "METAR LRBV 070230Z AUTO VRB03KT 5000 <span class=\"hl\">BR</span> SCT058/// BKN170/// 01/00 Q1006",
      "tafHtml": "TAF LRBV 070200Z 0703/0712 15007KT 5000 <span class=\"hl\">BR</span> BKN035 \n  TEMPO 0703/0706 3000 <span class=\"hl\">BR</span> BKN005 BKN030 \n  BECMG 0708/0710 9999 NSW \n  BECMG 0710/0712 31010KT"
    },
    {
      "icao": "EDSB",
      "iata": "FKB",
      "name": "Karlsruhe Baden-Baden Airport",
      "updatedAt": "070220Z",
      "visibility_m": 5000,
      "taf_visibility_m": null,
      "worst_visibility_m": 5000,
      "ceiling_ft": null,
      "hazards": [],
      "severityScore": 5,
      "metarRaw": "METAR EDSB 070220Z AUTO 19003KT 5000 BKN043/// M05/M06 Q1017",
      "tafRaw": null,
      "metarHtml": "METAR EDSB 070220Z AUTO 19003KT 5000 BKN043/// M05/M06 Q1017",
      "tafHtml": null
    },
    {
      "icao": "LECH",
      "iata": "CDT",
      "name": "Castellón-Costa Azahar Airport",
      "updatedAt": "070230Z",
      "visibility_m": 10000,
      "taf_visibility_m": null,
      "worst_visibility_m": 10000,
      "ceiling_ft": null,
      "hazards": [],
      "severityScore": 5,
      "metarRaw": "METAR LECH 070230Z AUTO 05005KT 010V100 CAVOK 03/M13 Q1017",
      "tafRaw": null,
      "metarHtml": "METAR LECH 070230Z AUTO 05005KT 010V100 <span class=\"hl-vis\">CAVOK</span> 03/M13 Q1017",
      "tafHtml": null
    },
    {
      "icao": "BIKF",
      "iata": "KEF",
      "name": "Keflavik International Airport",
      "updatedAt": "070230Z",
      "visibility_m": 10000,
      "taf_visibility_m": 10000,
      "worst_visibility_m": 10000,
      "ceiling_ft": null,
      "hazards": [],
      "severityScore": 0,
      "metarRaw": "METAR BIKF 070230Z 09014KT CAVOK M02/M07 Q1012",
      "tafRaw": "TAF BIKF 070107Z 0703/0803 08017KT CAVOK TXM01/0803Z TNM03/0703Z",
      "metarHtml": "METAR BIKF 070230Z 09014KT <span class=\"hl-vis\">CAVOK</span> M02/M07 Q1012",
      "tafHtml": "TAF BIKF 070107Z 0703/0803 08017KT <span class=\"hl-vis\">CAVOK</span> TXM01/0803Z TNM03/0703Z"
    },
    {
      "icao": "GCFV",
      "iata": "FUE",
      "name": "Fuerteventura Airport",
      "updatedAt": "070230Z",
      "visibility_m": 10000,
      "taf_visibility_m": 10000,
      "worst_visibility_m": 10000,
      "ceiling_ft": null,
      "hazards": [],
      "severityScore": 0,
      "metarRaw": "METAR GCFV 070230Z AUTO 35017KT CAVOK 16/05 Q1025",
      "tafRaw": "TAF GCFV 070200Z 0703/0803 02022KT 9999 SCT035 TX20/0714Z TN14/0706Z \n  PROB40 \n  TEMPO 0709/0718 04022G32KT",
      "metarHtml": "METAR GCFV 070230Z AUTO 35017KT <span class=\"hl-vis\">CAVOK</span> 16/05 Q1025",
      "tafHtml": "TAF GCFV 070200Z 0703/0803 02022KT 9999 SCT035 TX20/0714Z TN14/0706Z \n  PROB40 \n  TEMPO 0709/0718 04022G32KT"
    },
    {
      "icao": "GCLP",
      "iata": "LPA",
      "name": "Gran Canaria Airport",
      "updatedAt": "070230Z",
      "visibility_m": 10000,
      "taf_visibility_m": 10000,
      "worst_visibility_m": 10000,
      "ceiling_ft": 6500,
      "hazards": [],
      "severityScore": 0,
      "metarRaw": "METAR GCLP 070230Z 03021KT 9999 SCT037 BKN065 17/10 Q1025 NOSIG",
      "tafRaw": "TAF GCLP 070200Z 0703/0803 02023KT 9999 SCT045 TX18/0714Z TN15/0706Z \n  PROB40 \n  TEMPO 0703/0719 36023G33KT",
      "metarHtml": "METAR GCLP 070230Z 03021KT 9999 SCT037 BKN065 17/10 Q1025 NOSIG",
      "tafHtml": "TAF GCLP 070200Z 0703/0803 02023KT 9999 SCT045 TX18/0714Z TN15/0706Z \n  PROB40 \n  TEMPO 0703/0719 36023G33KT"
    },
    {
      "icao": "GCTS",
      "iata": "TFS",
      "name": "Tenerife Sur Airport",
      "updatedAt": "070230Z",
      "visibility_m": 10000,
      "taf_visibility_m": 10000,
      "worst_visibility_m": 10000,
      "ceiling_ft": null,
      "hazards": [],
      "severityScore": 0,
      "metarRaw": "METAR GCTS 070230Z 07016KT 9999 FEW050 16/05 Q1025 NOSIG",
      "tafRaw": "TAF GCTS 070200Z 0703/0803 04015KT 9999 SCT035 TX22/0714Z TN15/0706Z \n  BECMG 0708/0710 08025KT \n  TEMPO 0709/0721 09025G37KT",
      "metarHtml": "METAR GCTS 070230Z 07016KT 9999 FEW050 16/05 Q1025 NOSIG",
      "tafHtml": "TAF GCTS 070200Z 0703/0803 04015KT 9999 SCT035 TX22/0714Z TN15/0706Z \n  BECMG 0708/0710 08025KT \n  TEMPO 0709/0721 09025G37KT"
    },
    {
      "icao": "GMAD",
      "iata": "AGA",
      "name": "Al Massira Airport",
      "updatedAt": "070230Z",
      "visibility_m": 10000,
      "taf_visibility_m": 6000,
      "worst_visibility_m": 6000,
      "ceiling_ft": null,
      "hazards": [],
      "severityScore": 0,
      "metarRaw": "METAR GMAD 070230Z 11007KT CAVOK 08/07 Q1020 NOSIG",
      "tafRaw": "TAF GMAD 062300Z 0700/0806 12006KT 6000 SCT020",
      "metarHtml": "METAR GMAD 070230Z 11007KT <span class=\"hl-vis\">CAVOK</span> 08/07 Q1020 NOSIG",
      "tafHtml": "TAF GMAD 062300Z 0700/0806 12006KT 6000 SCT020"
    },
    {
      "icao": "GMMN",
      "iata": "CMN",
      "name": "Mohammed V International Airport",
      "updatedAt": "070230Z",
      "visibility_m": 10000,
      "taf_visibility_m": 10000,
      "worst_visibility_m": 10000,
      "ceiling_ft": null,
      "hazards": [],
      "severityScore": 0,
      "metarRaw": "METAR GMMN 070230Z 21006KT CAVOK 04/03 Q1026 NOSIG",
      "tafRaw": "TAF GMMN 061700Z 0618/0724 36006KT 9999 BKN030 \n  BECMG 0620/0622 18006KT \n  BECMG 0711/0715 24012KT",
      "metarHtml": "METAR GMMN 070230Z 21006KT <span class=\"hl-vis\">CAVOK</span> 04/03 Q1026 NOSIG",
      "tafHtml": "TAF GMMN 061700Z 0618/0724 36006KT 9999 BKN030 \n  BECMG 0620/0622 18006KT \n  BECMG 0711/0715 24012KT"
    },
    {
      "icao": "GMMX",
      "iata": "RAK",
      "name": "Menara Airport",
      "updatedAt": "070230Z",
      "visibility_m": 10000,
      "taf_visibility_m": 8000,
      "worst_visibility_m": 8000,
      "ceiling_ft": null,
      "hazards": [],
      "severityScore": 0,
      "metarRaw": "METAR GMMX 070230Z 11004KT CAVOK 05/03 Q1025 NOSIG",
      "tafRaw": "TAF GMMX 062300Z 0700/0806 06006KT 8000 NSC",
      "metarHtml": "METAR GMMX 070230Z 11004KT <span class=\"hl-vis\">CAVOK</span> 05/03 Q1025 NOSIG",
      "tafHtml": "TAF GMMX 062300Z 0700/0806 06006KT 8000 NSC"
    },
    {
      "icao": "EDJA",
      "iata": "FMM",
      "name": "Memmingen Allgau Airport",
      "updatedAt": "070220Z",
      "visibility_m": 10000,
      "taf_visibility_m": 10000,
      "worst_visibility_m": 10000,
      "ceiling_ft": null,
      "hazards": [],
      "severityScore": 0,
      "metarRaw": "METAR EDJA 070220Z AUTO 17003KT 9999 // OVC045/// M08/M10 Q1014",
      "tafRaw": "TAF EDJA 070200Z 0703/0712 21004KT 9999 SCT012 BKN040 \n  PROB30 \n  TEMPO 0703/0706 BKN012",
      "metarHtml": "METAR EDJA 070220Z AUTO 17003KT 9999 // OVC045/// M08/M10 Q1014",
      "tafHtml": "TAF EDJA 070200Z 0703/0712 21004KT 9999 SCT012 BKN040 \n  PROB30 \n  TEMPO 0703/0706 BKN012"
    },
    {
      "icao": "ENAL",
      "iata": "AES",
      "name": "Ålesund Airport, Vigra",
      "updatedAt": "070220Z",
      "visibility_m": 10000,
      "taf_visibility_m": 10000,
      "worst_visibility_m": 10000,
      "ceiling_ft": null,
      "hazards": [],
      "severityScore": 0,
      "metarRaw": "METAR ENAL 070220Z AUTO 14010KT 9999 NCD M04/M11 Q1010",
      "tafRaw": "TAF ENAL 070200Z 0703/0712 13009KT CAVOK",
      "metarHtml": "METAR ENAL 070220Z AUTO 14010KT 9999 NCD M04/M11 Q1010",
      "tafHtml": "TAF ENAL 070200Z 0703/0712 13009KT <span class=\"hl-vis\">CAVOK</span>"
    },
    {
      "icao": "ENBR",
      "iata": "BGO",
      "name": "Bergen Airport, Flesland",
      "updatedAt": "070220Z",
      "visibility_m": 10000,
      "taf_visibility_m": 10000,
      "worst_visibility_m": 10000,
      "ceiling_ft": null,
      "hazards": [],
      "severityScore": 0,
      "metarRaw": "METAR ENBR 070220Z 08003KT CAVOK M09/M15 Q1009 RMK WIND 1200FT 11006KT",
      "tafRaw": "TAF ENBR 062300Z 0700/0724 08005KT CAVOK",
      "metarHtml": "METAR ENBR 070220Z 08003KT <span class=\"hl-vis\">CAVOK</span> M09/M15 Q1009 RMK WIND 1200FT 11006KT",
      "tafHtml": "TAF ENBR 062300Z 0700/0724 08005KT <span class=\"hl-vis\">CAVOK</span>"
    },
    {
      "icao": "ENHD",
      "iata": "HAU",
      "name": "Haugesund Airport, Karmøy",
      "updatedAt": "070220Z",
      "visibility_m": 10000,
      "taf_visibility_m": 10000,
      "worst_visibility_m": 10000,
      "ceiling_ft": null,
      "hazards": [],
      "severityScore": 0,
      "metarRaw": "METAR ENHD 070220Z AUTO 09011KT 9999 NCD M04/M10 Q1007",
      "tafRaw": "TAF ENHD 070200Z 0703/0712 09009KT CAVOK",
      "metarHtml": "METAR ENHD 070220Z AUTO 09011KT 9999 NCD M04/M10 Q1007",
      "tafHtml": "TAF ENHD 070200Z 0703/0712 09009KT <span class=\"hl-vis\">CAVOK</span>"
    },
    {
      "icao": "ENTC",
      "iata": "TOS",
      "name": "Tromsø Airport, Langnes",
      "updatedAt": "070220Z",
      "visibility_m": 10000,
      "taf_visibility_m": 10000,
      "worst_visibility_m": 10000,
      "ceiling_ft": null,
      "hazards": [],
      "severityScore": 0,
      "metarRaw": "METAR ENTC 070220Z AUTO 11003KT 9999 NCD M13/M16 Q1023 RMK WIND 2600FT 17014KT",
      "tafRaw": "TAF ENTC 062300Z 0700/0724 VRB03KT CAVOK",
      "metarHtml": "METAR ENTC 070220Z AUTO 11003KT 9999 NCD M13/M16 Q1023 RMK WIND 2600FT 17014KT",
      "tafHtml": "TAF ENTC 062300Z 0700/0724 VRB03KT <span class=\"hl-vis\">CAVOK</span>"
    },
    {
      "icao": "ENVA",
      "iata": "TRD",
      "name": "Trondheim Airport, Værnes",
      "updatedAt": "070220Z",
      "visibility_m": 10000,
      "taf_visibility_m": 10000,
      "worst_visibility_m": 10000,
      "ceiling_ft": null,
      "hazards": [],
      "severityScore": 0,
      "metarRaw": "METAR ENVA 070220Z AUTO 08003KT 020V130 9999 NCD M15/M17 Q1016 RMK WIND 670FT 09009KT",
      "tafRaw": "TAF ENVA 062300Z 0700/0724 11008KT CAVOK",
      "metarHtml": "METAR ENVA 070220Z AUTO 08003KT 020V130 9999 NCD M15/M17 Q1016 RMK WIND 670FT 09009KT",
      "tafHtml": "TAF ENVA 062300Z 0700/0724 11008KT <span class=\"hl-vis\">CAVOK</span>"
    },
    {
      "icao": "ENZV",
      "iata": "SVG",
      "name": "Stavanger Airport, Sola",
      "updatedAt": "070220Z",
      "visibility_m": 10000,
      "taf_visibility_m": 10000,
      "worst_visibility_m": 10000,
      "ceiling_ft": null,
      "hazards": [],
      "severityScore": 0,
      "metarRaw": "METAR ENZV 070220Z AUTO 09008KT 9999 NCD M04/M09 Q1007",
      "tafRaw": "TAF ENZV 062300Z 0700/0724 10005KT 9999 FEW035",
      "metarHtml": "METAR ENZV 070220Z AUTO 09008KT 9999 NCD M04/M09 Q1007",
      "tafHtml": "TAF ENZV 062300Z 0700/0724 10005KT 9999 FEW035"
    },
    {
      "icao": "HEGN",
      "iata": "HRG",
      "name": "Hurghada International Airport",
      "updatedAt": "070200Z",
      "visibility_m": 10000,
      "taf_visibility_m": 10000,
      "worst_visibility_m": 10000,
      "ceiling_ft": null,
      "hazards": [],
      "severityScore": 0,
      "metarRaw": "METAR HEGN 070200Z 31006KT CAVOK 16/06 Q1020 NOSIG",
      "tafRaw": "TAF HEGN 062300Z 0700/0806 29010KT CAVOK",
      "metarHtml": "METAR HEGN 070200Z 31006KT <span class=\"hl-vis\">CAVOK</span> 16/06 Q1020 NOSIG",
      "tafHtml": "TAF HEGN 062300Z 0700/0806 29010KT <span class=\"hl-vis\">CAVOK</span>"
    },
    {
      "icao": "HEMA",
      "iata": "RMF",
      "name": "Marsa Alam International Airport",
      "updatedAt": "070200Z",
      "visibility_m": 6000,
      "taf_visibility_m": 4000,
      "worst_visibility_m": 4000,
      "ceiling_ft": null,
      "hazards": [],
      "severityScore": 0,
      "metarRaw": "METAR HEMA 070200Z 28007KT 6000 NSC 18/06 Q1018 NOSIG",
      "tafRaw": "TAF HEMA 062300Z 0700/0806 28011KT CAVOK \n  TEMPO 0709/0718 4000 SA NSC",
      "metarHtml": "METAR HEMA 070200Z 28007KT 6000 NSC 18/06 Q1018 NOSIG",
      "tafHtml": "TAF HEMA 062300Z 0700/0806 28011KT <span class=\"hl-vis\">CAVOK</span> \n  TEMPO 0709/0718 4000 SA NSC"
    },
    {
      "icao": "HESH",
      "iata": "SSH",
      "name": "Sharm El Sheikh International Airport",
      "updatedAt": "070200Z",
      "visibility_m": 10000,
      "taf_visibility_m": 10000,
      "worst_visibility_m": 10000,
      "ceiling_ft": null,
      "hazards": [],
      "severityScore": 0,
      "metarRaw": "METAR HESH 070200Z 35008KT CAVOK 19/12 Q1019 NOSIG",
      "tafRaw": "TAF HESH 062300Z 0700/0806 32009KT CAVOK",
      "metarHtml": "METAR HESH 070200Z 35008KT <span class=\"hl-vis\">CAVOK</span> 19/12 Q1019 NOSIG",
      "tafHtml": "TAF HESH 062300Z 0700/0806 32009KT <span class=\"hl-vis\">CAVOK</span>"
    },
    {
      "icao": "LCLK",
      "iata": "LCA",
      "name": "Larnaca International Airport",
      "updatedAt": "070230Z",
      "visibility_m": 10000,
      "taf_visibility_m": 10000,
      "worst_visibility_m": 10000,
      "ceiling_ft": null,
      "hazards": [],
      "severityScore": 0,
      "metarRaw": "METAR LCLK 070230Z 32005KT CAVOK 11/11 Q1022 NOSIG",
      "tafRaw": "TAF LCLK 062330Z 0700/0800 34006KT 9999 FEW035 \n  BECMG 0709/0711 10010KT \n  BECMG 0716/0718 35006KT",
      "metarHtml": "METAR LCLK 070230Z 32005KT <span class=\"hl-vis\">CAVOK</span> 11/11 Q1022 NOSIG",
      "tafHtml": "TAF LCLK 062330Z 0700/0800 34006KT 9999 FEW035 \n  BECMG 0709/0711 10010KT \n  BECMG 0716/0718 35006KT"
    },
    {
      "icao": "LCPH",
      "iata": "PFO",
      "name": "Paphos International Airport",
      "updatedAt": "070230Z",
      "visibility_m": 10000,
      "taf_visibility_m": 10000,
      "worst_visibility_m": 10000,
      "ceiling_ft": null,
      "hazards": [],
      "severityScore": 0,
      "metarRaw": "METAR LCPH 070230Z AUTO 06007KT 010V080 9999 NCD 12/09 Q1021 NOSIG",
      "tafRaw": "TAF LCPH 062330Z 0700/0800 06009KT 9999 FEW030 \n  BECMG 0708/0710 16015KT \n  BECMG 0716/0718 07008KT",
      "metarHtml": "METAR LCPH 070230Z AUTO 06007KT 010V080 9999 NCD 12/09 Q1021 NOSIG",
      "tafHtml": "TAF LCPH 062330Z 0700/0800 06009KT 9999 FEW030 \n  BECMG 0708/0710 16015KT \n  BECMG 0716/0718 07008KT"
    },
    {
      "icao": "LEAL",
      "iata": "ALC",
      "name": "Alicante-Elche Miguel Hernández Airport",
      "updatedAt": "070230Z",
      "visibility_m": 10000,
      "taf_visibility_m": 10000,
      "worst_visibility_m": 10000,
      "ceiling_ft": null,
      "hazards": [],
      "severityScore": 0,
      "metarRaw": "METAR LEAL 070230Z 30012KT 260V320 9999 FEW030 07/M04 Q1019 NOSIG",
      "tafRaw": "TAF LEAL 062300Z 0700/0724 30012KT 9999 FEW030 TX13/0714Z TN04/0706Z \n  TEMPO 0718/0721 VRB03KT \n  TEMPO 0721/0724 30015G25KT",
      "metarHtml": "METAR LEAL 070230Z 30012KT 260V320 9999 FEW030 07/M04 Q1019 NOSIG",
      "tafHtml": "TAF LEAL 062300Z 0700/0724 30012KT 9999 FEW030 TX13/0714Z TN04/0706Z \n  TEMPO 0718/0721 VRB03KT \n  TEMPO 0721/0724 30015G25KT"
    },
    {
      "icao": "LEBL",
      "iata": "BCN",
      "name": "Josep Tarradellas Barcelona-El Prat Airport",
      "updatedAt": "070230Z",
      "visibility_m": 10000,
      "taf_visibility_m": 10000,
      "worst_visibility_m": 10000,
      "ceiling_ft": null,
      "hazards": [],
      "severityScore": 0,
      "metarRaw": "METAR LEBL 070230Z 32015G25KT CAVOK 02/M04 Q1016 NOSIG",
      "tafRaw": "TAF LEBL 062300Z 0700/0724 34013KT CAVOK TX10/0713Z TN01/0706Z \n  PROB30 \n  TEMPO 0700/0710 36017G27KT \n  TEMPO 0713/0722 27007KT \n  PROB30 \n  TEMPO 0718/0724 33020G30KT",
      "metarHtml": "METAR LEBL 070230Z 32015G25KT <span class=\"hl-vis\">CAVOK</span> 02/M04 Q1016 NOSIG",
      "tafHtml": "TAF LEBL 062300Z 0700/0724 34013KT <span class=\"hl-vis\">CAVOK</span> TX10/0713Z TN01/0706Z \n  PROB30 \n  TEMPO 0700/0710 36017G27KT \n  TEMPO 0713/0722 27007KT \n  PROB30 \n  TEMPO 0718/0724 33020G30KT"
    },
    {
      "icao": "LEMG",
      "iata": "AGP",
      "name": "Málaga-Costa del Sol Airport",
      "updatedAt": "070230Z",
      "visibility_m": 10000,
      "taf_visibility_m": 10000,
      "worst_visibility_m": 10000,
      "ceiling_ft": null,
      "hazards": [],
      "severityScore": 0,
      "metarRaw": "METAR LEMG 070230Z 27011KT CAVOK 05/M05 Q1023 NOSIG",
      "tafRaw": "TAF LEMG 062300Z 0700/0724 29012KT 9999 FEW040 TX13/0714Z TN04/0706Z",
      "metarHtml": "METAR LEMG 070230Z 27011KT <span class=\"hl-vis\">CAVOK</span> 05/M05 Q1023 NOSIG",
      "tafHtml": "TAF LEMG 062300Z 0700/0724 29012KT 9999 FEW040 TX13/0714Z TN04/0706Z"
    },
    {
      "icao": "LEVC",
      "iata": "VLC",
      "name": "Valencia Airport",
      "updatedAt": "070230Z",
      "visibility_m": 10000,
      "taf_visibility_m": 10000,
      "worst_visibility_m": 10000,
      "ceiling_ft": null,
      "hazards": [],
      "severityScore": 0,
      "metarRaw": "METAR LEVC 070230Z 28003KT CAVOK M00/M03 Q1019 NOSIG",
      "tafRaw": "TAF LEVC 062300Z 0700/0724 31008KT CAVOK TX13/0714Z TNM01/0706Z \n  BECMG 0700/0702 26006KT \n  PROB30 \n  TEMPO 0712/0715 27015G25KT",
      "metarHtml": "METAR LEVC 070230Z 28003KT <span class=\"hl-vis\">CAVOK</span> M00/M03 Q1019 NOSIG",
      "tafHtml": "TAF LEVC 062300Z 0700/0724 31008KT <span class=\"hl-vis\">CAVOK</span> TX13/0714Z TNM01/0706Z \n  BECMG 0700/0702 26006KT \n  PROB30 \n  TEMPO 0712/0715 27015G25KT"
    },
    {
      "icao": "LEZG",
      "iata": "ZAZ",
      "name": "Zaragoza Airport",
      "updatedAt": "070230Z",
      "visibility_m": 10000,
      "taf_visibility_m": 10000,
      "worst_visibility_m": 10000,
      "ceiling_ft": null,
      "hazards": [],
      "severityScore": 0,
      "metarRaw": "METAR LEZG 070230Z 27006KT 240V300 CAVOK 01/M04 Q1019 NOSIG",
      "tafRaw": "TAF LEZG 062300Z 0700/0724 30012KT 9999 FEW030 TX09/0715Z TNM01/0706Z \n  BECMG 0702/0704 26009KT \n  TEMPO 0710/0713 24015G25KT",
      "metarHtml": "METAR LEZG 070230Z 27006KT 240V300 <span class=\"hl-vis\">CAVOK</span> 01/M04 Q1019 NOSIG",
      "tafHtml": "TAF LEZG 062300Z 0700/0724 30012KT 9999 FEW030 TX09/0715Z TNM01/0706Z \n  BECMG 0702/0704 26009KT \n  TEMPO 0710/0713 24015G25KT"
    },
    {
      "icao": "LFMN",
      "iata": "NCE",
      "name": "Nice-Côte d'Azur Airport",
      "updatedAt": "070230Z",
      "visibility_m": 10000,
      "taf_visibility_m": 10000,
      "worst_visibility_m": 10000,
      "ceiling_ft": null,
      "hazards": [],
      "severityScore": 0,
      "metarRaw": "METAR LFMN 070230Z 34009KT CAVOK 04/M02 Q1007 NOSIG",
      "tafRaw": "TAF LFMN 070200Z 0703/0809 34015KT CAVOK \n  BECMG 0709/0712 24013KT \n  BECMG 0717/0719 32012KT",
      "metarHtml": "METAR LFMN 070230Z 34009KT <span class=\"hl-vis\">CAVOK</span> 04/M02 Q1007 NOSIG",
      "tafHtml": "TAF LFMN 070200Z 0703/0809 34015KT <span class=\"hl-vis\">CAVOK</span> \n  BECMG 0709/0712 24013KT \n  BECMG 0717/0719 32012KT"
    },
    {
      "icao": "LIBG",
      "iata": "TAR",
      "name": "Taranto-Grottaglie Marcello Arlotta Airport",
      "updatedAt": null,
      "visibility_m": null,
      "taf_visibility_m": 10000,
      "worst_visibility_m": 10000,
      "ceiling_ft": null,
      "hazards": [],
      "severityScore": 0,
      "metarRaw": null,
      "tafRaw": "TAF LIBG 061700Z 0618/0703 15009KT 9999 SCT015",
      "metarHtml": null,
      "tafHtml": "TAF LIBG 061700Z 0618/0703 15009KT 9999 SCT015"
    },
    {
      "icao": "LIME",
      "iata": "BGY",
      "name": "Milan Bergamo Airport / Antonio Locatelli Air Base",
      "updatedAt": "070220Z",
      "visibility_m": 10000,
      "taf_visibility_m": 10000,
      "worst_visibility_m": 10000,
      "ceiling_ft": null,
      "hazards": [],
      "severityScore": 0,
      "metarRaw": "METAR LIME 070220Z 02004KT CAVOK M02/M06 Q1011 NOSIG",
      "tafRaw": "TAF LIME 062300Z 0700/0724 VRB04KT 9999 FEW025",
      "metarHtml": "METAR LIME 070220Z 02004KT <span class=\"hl-vis\">CAVOK</span> M02/M06 Q1011 NOSIG",
      "tafHtml": "TAF LIME 062300Z 0700/0724 VRB04KT 9999 FEW025"
    },
    {
      "icao": "LIMF",
      "iata": "TRN",
      "name": "Turin Airport",
      "updatedAt": "070220Z",
      "visibility_m": 10000,
      "taf_visibility_m": 10000,
      "worst_visibility_m": 10000,
      "ceiling_ft": null,
      "hazards": [],
      "severityScore": 0,
      "metarRaw": "METAR LIMF 070220Z 31005KT CAVOK M03/M09 Q1011",
      "tafRaw": "TAF LIMF 062300Z 0700/0724 VRB03KT CAVOK",
      "metarHtml": "METAR LIMF 070220Z 31005KT <span class=\"hl-vis\">CAVOK</span> M03/M09 Q1011",
      "tafHtml": "TAF LIMF 062300Z 0700/0724 VRB03KT <span class=\"hl-vis\">CAVOK</span>"
    },
    {
      "icao": "LIMJ",
      "iata": "GOA",
      "name": "Genoa Cristoforo Colombo Airport",
      "updatedAt": "070220Z",
      "visibility_m": 10000,
      "taf_visibility_m": 10000,
      "worst_visibility_m": 10000,
      "ceiling_ft": null,
      "hazards": [],
      "severityScore": 0,
      "metarRaw": "METAR LIMJ 070220Z 06015KT CAVOK 01/M04 Q1009",
      "tafRaw": "TAF LIMJ 062300Z 0700/0724 04015KT CAVOK \n  BECMG 0716/0718 06005KT",
      "metarHtml": "METAR LIMJ 070220Z 06015KT <span class=\"hl-vis\">CAVOK</span> 01/M04 Q1009",
      "tafHtml": "TAF LIMJ 062300Z 0700/0724 04015KT <span class=\"hl-vis\">CAVOK</span> \n  BECMG 0716/0718 06005KT"
    },
    {
      "icao": "LIPE",
      "iata": "BLQ",
      "name": "Bologna Guglielmo Marconi Airport",
      "updatedAt": "070220Z",
      "visibility_m": 6000,
      "taf_visibility_m": 6000,
      "worst_visibility_m": 6000,
      "ceiling_ft": 3500,
      "hazards": [],
      "severityScore": 0,
      "metarRaw": "METAR LIPE 070220Z 25004KT 6000 BKN035 00/00 Q1011",
      "tafRaw": "TAF LIPE 062300Z 0700/0724 26007KT 6000 BKN030",
      "metarHtml": "METAR LIPE 070220Z 25004KT 6000 BKN035 00/00 Q1011",
      "tafHtml": "TAF LIPE 062300Z 0700/0724 26007KT 6000 BKN030"
    },
    {
      "icao": "LIPH",
      "iata": "TSF",
      "name": "Treviso Antonio Canova Airport",
      "updatedAt": "070220Z",
      "visibility_m": 10000,
      "taf_visibility_m": 10000,
      "worst_visibility_m": 10000,
      "ceiling_ft": null,
      "hazards": [],
      "severityScore": 0,
      "metarRaw": "METAR LIPH 070220Z AUTO 33002KT 9999 OVC096/// M00/M03 Q1011",
      "tafRaw": "TAF LIPH 062300Z 0700/0724 VRB05KT CAVOK",
      "metarHtml": "METAR LIPH 070220Z AUTO 33002KT 9999 OVC096/// M00/M03 Q1011",
      "tafHtml": "TAF LIPH 062300Z 0700/0724 VRB05KT <span class=\"hl-vis\">CAVOK</span>"
    },
    {
      "icao": "LIPQ",
      "iata": "TRS",
      "name": "Trieste–Friuli Venezia Giulia Airport",
      "updatedAt": "070220Z",
      "visibility_m": 10000,
      "taf_visibility_m": 10000,
      "worst_visibility_m": 10000,
      "ceiling_ft": null,
      "hazards": [],
      "severityScore": 0,
      "metarRaw": "METAR LIPQ 070220Z AUTO VRB01KT 9999 OVC088/// M02/M03 Q1011",
      "tafRaw": "TAF LIPQ 062300Z 0700/0724 08006KT 9999 SCT070",
      "metarHtml": "METAR LIPQ 070220Z AUTO VRB01KT 9999 OVC088/// M02/M03 Q1011",
      "tafHtml": "TAF LIPQ 062300Z 0700/0724 08006KT 9999 SCT070"
    },
    {
      "icao": "LIPR",
      "iata": "RMI",
      "name": "Federico Fellini International Airport",
      "updatedAt": "070220Z",
      "visibility_m": 10000,
      "taf_visibility_m": 3000,
      "worst_visibility_m": 3000,
      "ceiling_ft": null,
      "hazards": [],
      "severityScore": 0,
      "metarRaw": "METAR LIPR 070220Z AUTO 28012KT 9999 BKN033/// BKN046/// 01/M01 Q1010",
      "tafRaw": "TAF LIPR 062300Z 0700/0724 29012KT 6000 BKN015 \n  TEMPO 0700/0714 3000 -RASN BKN004",
      "metarHtml": "METAR LIPR 070220Z AUTO 28012KT 9999 BKN033/// BKN046/// 01/M01 Q1010",
      "tafHtml": "TAF LIPR 062300Z 0700/0724 29012KT 6000 BKN015 \n  TEMPO 0700/0714 3000 -RASN BKN004"
    },
    {
      "icao": "LIPZ",
      "iata": "VCE",
      "name": "Venice Marco Polo Airport",
      "updatedAt": "070220Z",
      "visibility_m": 10000,
      "taf_visibility_m": 10000,
      "worst_visibility_m": 10000,
      "ceiling_ft": null,
      "hazards": [],
      "severityScore": 0,
      "metarRaw": "METAR LIPZ 070220Z 34005KT CAVOK 00/M03 Q1011 NOSIG",
      "tafRaw": "TAF LIPZ 062300Z 0700/0806 34006KT CAVOK",
      "metarHtml": "METAR LIPZ 070220Z 34005KT <span class=\"hl-vis\">CAVOK</span> 00/M03 Q1011 NOSIG",
      "tafHtml": "TAF LIPZ 062300Z 0700/0806 34006KT <span class=\"hl-vis\">CAVOK</span>"
    },
    {
      "icao": "LIRF",
      "iata": "FCO",
      "name": "Rome–Fiumicino Leonardo da Vinci International Airport",
      "updatedAt": "070220Z",
      "visibility_m": 10000,
      "taf_visibility_m": 10000,
      "worst_visibility_m": 10000,
      "ceiling_ft": null,
      "hazards": [],
      "severityScore": 0,
      "metarRaw": "METAR LIRF 070220Z 05005KT CAVOK 05/03 Q1006 NOSIG",
      "tafRaw": "TAF LIRF 062300Z 0700/0806 04010KT 9999 SCT020 \n  BECMG 0711/0713 34013KT \n  BECMG 0800/0802 04010KT",
      "metarHtml": "METAR LIRF 070220Z 05005KT <span class=\"hl-vis\">CAVOK</span> 05/03 Q1006 NOSIG",
      "tafHtml": "TAF LIRF 062300Z 0700/0806 04010KT 9999 SCT020 \n  BECMG 0711/0713 34013KT \n  BECMG 0800/0802 04010KT"
    },
    {
      "icao": "LIRP",
      "iata": "PSA",
      "name": "Pisa International Airport",
      "updatedAt": "070215Z",
      "visibility_m": 10000,
      "taf_visibility_m": 10000,
      "worst_visibility_m": 10000,
      "ceiling_ft": null,
      "hazards": [],
      "severityScore": 0,
      "metarRaw": "METAR LIRP 070215Z 11007KT 9999 SCT080 03/M01 Q1008 NOSIG",
      "tafRaw": "TAF LIRP 062300Z 0700/0724 12007KT 9999 SCT080 \n  BECMG 0711/0713 13005KT CAVOK",
      "metarHtml": "METAR LIRP 070215Z 11007KT 9999 SCT080 03/M01 Q1008 NOSIG",
      "tafHtml": "TAF LIRP 062300Z 0700/0724 12007KT 9999 SCT080 \n  BECMG 0711/0713 13005KT <span class=\"hl-vis\">CAVOK</span>"
    },
    {
      "icao": "LIRZ",
      "iata": "PEG",
      "name": "Perugia San Francesco d'Assisi – Umbria International Airport",
      "updatedAt": "070220Z",
      "visibility_m": 10000,
      "taf_visibility_m": 10000,
      "worst_visibility_m": 10000,
      "ceiling_ft": null,
      "hazards": [],
      "severityScore": 0,
      "metarRaw": "METAR LIRZ 070220Z AUTO 36009KT 9999 OVC047/// 03/00 Q1007",
      "tafRaw": "TAF LIRZ 062300Z 0700/0724 01013KT 9999 BKN020 \n  BECMG 0718/0720 VRB05KT",
      "metarHtml": "METAR LIRZ 070220Z AUTO 36009KT 9999 OVC047/// 03/00 Q1007",
      "tafHtml": "TAF LIRZ 062300Z 0700/0724 01013KT 9999 BKN020 \n  BECMG 0718/0720 VRB05KT"
    },
    {
      "icao": "LKPR",
      "iata": "PRG",
      "name": "Václav Havel Airport Prague",
      "updatedAt": "070230Z",
      "visibility_m": 10000,
      "taf_visibility_m": 10000,
      "worst_visibility_m": 10000,
      "ceiling_ft": 3200,
      "hazards": [],
      "severityScore": 0,
      "metarRaw": "METAR LKPR 070230Z 19005KT 9999 BKN032 M06/M07 Q1015 NOSIG",
      "tafRaw": "TAF LKPR 070200Z 0703/0809 22005KT 9999 BKN030 \n  TEMPO 0800/0808 CAVOK",
      "metarHtml": "METAR LKPR 070230Z 19005KT 9999 BKN032 M06/M07 Q1015 NOSIG",
      "tafHtml": "TAF LKPR 070200Z 0703/0809 22005KT 9999 BKN030 \n  TEMPO 0800/0808 <span class=\"hl-vis\">CAVOK</span>"
    },
    {
      "icao": "LLBG",
      "iata": "TLV",
      "name": "Ben Gurion International Airport",
      "updatedAt": "070220Z",
      "visibility_m": 3000,
      "taf_visibility_m": 3000,
      "worst_visibility_m": 3000,
      "ceiling_ft": null,
      "hazards": [],
      "severityScore": 0,
      "metarRaw": "METAR LLBG 070220Z VRB01KT CAVOK 10/08 Q1021 TEMPO 3000 BCFG SCT005",
      "tafRaw": "TAF LLBG 062303Z 0700/0724 VRB03KT 8000 NSC \n  PROB40 \n  TEMPO 0700/0706 13004KT 3000 BCFG SCT005 \n  BECMG 0707/0709 33010KT CAVOK \n  BECMG 0715/0717 VRB04KT TX22/0712Z TN10/0704Z",
      "metarHtml": "METAR LLBG 070220Z VRB01KT <span class=\"hl-vis\">CAVOK</span> 10/08 Q1021 TEMPO 3000 BCFG SCT005",
      "tafHtml": "TAF LLBG 062303Z 0700/0724 VRB03KT 8000 NSC \n  PROB40 \n  TEMPO 0700/0706 13004KT 3000 BCFG SCT005 \n  BECMG 0707/0709 33010KT <span class=\"hl-vis\">CAVOK</span> \n  BECMG 0715/0717 VRB04KT TX22/0712Z TN10/0704Z"
    },
    {
      "icao": "LOWW",
      "iata": "VIE",
      "name": "Vienna International Airport",
      "updatedAt": "070220Z",
      "visibility_m": 10000,
      "taf_visibility_m": 10000,
      "worst_visibility_m": 10000,
      "ceiling_ft": null,
      "hazards": [],
      "severityScore": 0,
      "metarRaw": "METAR LOWW 070220Z 33012KT 9999 FEW038 M03/M08 Q1015 NOSIG",
      "tafRaw": "TAF LOWW 070215Z 0703/0809 32012KT 9999 FEW050 TXM02/0712Z TNM06/0805Z \n  TEMPO 0703/0715 33015G25KT \n  BECMG 0717/0719 32007KT",
      "metarHtml": "METAR LOWW 070220Z 33012KT 9999 FEW038 M03/M08 Q1015 NOSIG",
      "tafHtml": "TAF LOWW 070215Z 0703/0809 32012KT 9999 FEW050 TXM02/0712Z TNM06/0805Z \n  TEMPO 0703/0715 33015G25KT \n  BECMG 0717/0719 32007KT"
    },
    {
      "icao": "LPMA",
      "iata": "FNC",
      "name": "Madeira International Airport Cristiano Ronaldo",
      "updatedAt": "070230Z",
      "visibility_m": 10000,
      "taf_visibility_m": 10000,
      "worst_visibility_m": 10000,
      "ceiling_ft": null,
      "hazards": [],
      "severityScore": 0,
      "metarRaw": "METAR LPMA 070230Z 03017KT 9999 SCT016 14/08 Q1030",
      "tafRaw": "TAF LPMA 062300Z 0700/0724 02013KT 9999 SCT015 \n  TEMPO 0700/0718 02017G27KT",
      "metarHtml": "METAR LPMA 070230Z 03017KT 9999 SCT016 14/08 Q1030",
      "tafHtml": "TAF LPMA 062300Z 0700/0724 02013KT 9999 SCT015 \n  TEMPO 0700/0718 02017G27KT"
    },
    {
      "icao": "LPPS",
      "iata": "PXO",
      "name": "Porto Santo Airport",
      "updatedAt": "070230Z",
      "visibility_m": 10000,
      "taf_visibility_m": 10000,
      "worst_visibility_m": 10000,
      "ceiling_ft": null,
      "hazards": [],
      "severityScore": 0,
      "metarRaw": "METAR LPPS 070230Z 04009KT 010V080 9999 SCT015 14/08 Q1030",
      "tafRaw": "TAF LPPS 062300Z 0700/0806 04010KT 9999 SCT015 \n  BECMG 0803/0806 SCT012 BKN030",
      "metarHtml": "METAR LPPS 070230Z 04009KT 010V080 9999 SCT015 14/08 Q1030",
      "tafHtml": "TAF LPPS 062300Z 0700/0806 04010KT 9999 SCT015 \n  BECMG 0803/0806 SCT012 BKN030"
    },
    {
      "icao": "LZIB",
      "iata": "BTS",
      "name": "M. R. Štefánik Airport",
      "updatedAt": "070230Z",
      "visibility_m": 10000,
      "taf_visibility_m": 10000,
      "worst_visibility_m": 10000,
      "ceiling_ft": null,
      "hazards": [],
      "severityScore": 0,
      "metarRaw": "METAR LZIB 070230Z 34007KT 300V030 CAVOK M03/M08 Q1014 NOSIG",
      "tafRaw": "TAF LZIB 062315Z 0700/0800 33009KT CAVOK",
      "metarHtml": "METAR LZIB 070230Z 34007KT 300V030 <span class=\"hl-vis\">CAVOK</span> M03/M08 Q1014 NOSIG",
      "tafHtml": "TAF LZIB 062315Z 0700/0800 33009KT <span class=\"hl-vis\">CAVOK</span>"
    },
    {
      "icao": "OEJN",
      "iata": "JED",
      "name": "King Abdulaziz International Airport",
      "updatedAt": "070200Z",
      "visibility_m": 10000,
      "taf_visibility_m": 7000,
      "worst_visibility_m": 7000,
      "ceiling_ft": null,
      "hazards": [],
      "severityScore": 0,
      "metarRaw": "METAR OEJN 070200Z 33003KT CAVOK 23/13 Q1015 NOSIG",
      "tafRaw": "TAF OEJN 062300Z 0700/0806 36006KT CAVOK \n  BECMG 0706/0708 19006KT 7000 NSC \n  BECMG 0712/0714 24010KT 9999 FEW040",
      "metarHtml": "METAR OEJN 070200Z 33003KT <span class=\"hl-vis\">CAVOK</span> 23/13 Q1015 NOSIG",
      "tafHtml": "TAF OEJN 062300Z 0700/0806 36006KT <span class=\"hl-vis\">CAVOK</span> \n  BECMG 0706/0708 19006KT 7000 NSC \n  BECMG 0712/0714 24010KT 9999 FEW040"
    },
    {
      "icao": "OEMA",
      "iata": "MED",
      "name": "Prince Mohammad Bin Abdulaziz Airport",
      "updatedAt": "070200Z",
      "visibility_m": 10000,
      "taf_visibility_m": 10000,
      "worst_visibility_m": 10000,
      "ceiling_ft": null,
      "hazards": [],
      "severityScore": 0,
      "metarRaw": "METAR OEMA 070200Z 01004KT CAVOK 15/M01 Q1023 NOSIG",
      "tafRaw": "TAF OEMA 062300Z 0700/0806 08006KT CAVOK \n  BECMG 0710/0712 11010KT",
      "metarHtml": "METAR OEMA 070200Z 01004KT <span class=\"hl-vis\">CAVOK</span> 15/M01 Q1023 NOSIG",
      "tafHtml": "TAF OEMA 062300Z 0700/0806 08006KT <span class=\"hl-vis\">CAVOK</span> \n  BECMG 0710/0712 11010KT"
    },
    {
      "icao": "OJAI",
      "iata": "AMM",
      "name": "Queen Alia International Airport",
      "updatedAt": "070200Z",
      "visibility_m": 5000,
      "taf_visibility_m": 5000,
      "worst_visibility_m": 5000,
      "ceiling_ft": null,
      "hazards": [],
      "severityScore": 0,
      "metarRaw": "METAR OJAI 070200Z 07006KT 5000 HZ NSC 06/M01 Q1024 NOSIG",
      "tafRaw": "TAF OJAI 062225Z 0700/0806 VRB02KT 5000 HZ NSC \n  BECMG 0708/0710 10008KT",
      "metarHtml": "METAR OJAI 070200Z 07006KT 5000 HZ NSC 06/M01 Q1024 NOSIG",
      "tafHtml": "TAF OJAI 062225Z 0700/0806 VRB02KT 5000 HZ NSC \n  BECMG 0708/0710 10008KT"
    },
    {
      "icao": "OMAA",
      "iata": "AUH",
      "name": "Zayed International Airport",
      "updatedAt": "070200Z",
      "visibility_m": 10000,
      "taf_visibility_m": 4000,
      "worst_visibility_m": 4000,
      "ceiling_ft": null,
      "hazards": [],
      "severityScore": 0,
      "metarRaw": "METAR OMAA 070200Z 33004KT CAVOK 19/11 Q1020 NOSIG",
      "tafRaw": "TAF OMAA 062300Z 0700/0806 VRB02KT 8000 NSC \n  PROB30 0700/0705 4000 HZ \n  BECMG 0708/0710 34011KT \n  BECMG 0718/0720 VRB02KT",
      "metarHtml": "METAR OMAA 070200Z 33004KT <span class=\"hl-vis\">CAVOK</span> 19/11 Q1020 NOSIG",
      "tafHtml": "TAF OMAA 062300Z 0700/0806 VRB02KT 8000 NSC \n  PROB30 0700/0705 4000 HZ \n  BECMG 0708/0710 34011KT \n  BECMG 0718/0720 VRB02KT"
    },
    {
      "icao": "OMDB",
      "iata": "DXB",
      "name": "Dubai International Airport",
      "updatedAt": "070230Z",
      "visibility_m": 10000,
      "taf_visibility_m": 8000,
      "worst_visibility_m": 8000,
      "ceiling_ft": null,
      "hazards": [],
      "severityScore": 0,
      "metarRaw": "METAR OMDB 070230Z 07003KT 360V110 CAVOK 20/10 Q1020 NOSIG",
      "tafRaw": "TAF OMDB 062300Z 0700/0806 07005KT 8000 NSC \n  BECMG 0708/0710 34010KT \n  BECMG 0716/0718 12005KT",
      "metarHtml": "METAR OMDB 070230Z 07003KT 360V110 <span class=\"hl-vis\">CAVOK</span> 20/10 Q1020 NOSIG",
      "tafHtml": "TAF OMDB 062300Z 0700/0806 07005KT 8000 NSC \n  BECMG 0708/0710 34010KT \n  BECMG 0716/0718 12005KT"
    },
    {
      "icao": "UGKO",
      "iata": "KUT",
      "name": "David the Builder Kutaisi International Airport",
      "updatedAt": "070230Z",
      "visibility_m": 10000,
      "taf_visibility_m": 10000,
      "worst_visibility_m": 10000,
      "ceiling_ft": null,
      "hazards": [],
      "severityScore": 0,
      "metarRaw": "METAR UGKO 070230Z 08004KT CAVOK 02/M03 Q1021 NOSIG",
      "tafRaw": "TAF UGKO 062300Z 0700/0724 09007KT CAVOK TX16/0712Z TN01/0703Z",
      "metarHtml": "METAR UGKO 070230Z 08004KT <span class=\"hl-vis\">CAVOK</span> 02/M03 Q1021 NOSIG",
      "tafHtml": "TAF UGKO 062300Z 0700/0724 09007KT <span class=\"hl-vis\">CAVOK</span> TX16/0712Z TN01/0703Z"
    }
  ],
  "stats": {
    "icaoCount": 159,
    "metarReturned": 156,
    "tafReturned": 152,
    "stationsWritten": 159,
    "missingMetar": 3,
    "missingTaf": 7
  },
  "errors": []
}