{
  "generatedAt": "2026-01-05T11:37:05.361Z",
  "stations": [
    {
      "icao": "EBCI",
      "iata": "CRL",
      "name": "Brussels South Charleroi Airport",
      "updatedAt": "051120Z",
      "visibility_m": 2000,
      "taf_visibility_m": 400,
      "worst_visibility_m": 400,
      "ceiling_ft": 500,
      "hazards": [
        "SN",
        "SHSN",
        "FZFG",
        "BR"
      ],
      "severityScore": 100,
      "metarRaw": "METAR EBCI 051120Z 20012KT 6000 -SN SCT006 BKN008 M03/M05 Q1011 TEMPO 2000 -SHSN BKN005",
      "tafRaw": "TAF EBCI 051116Z 0512/0618 22009KT 9999 SCT005 BKN011 \n  TEMPO 0512/0515 1800 SHSN SN BKN003 BKN010CB \n  PROB30 \n  TEMPO 0522/0601 1800 SHSN BKN004 BKN010TCU \n  TEMPO 0600/0609 3000 BR BKN003 \n  PROB30 \n  TEMPO 0603/0608 0400 FZFG BKN002 \n  BECMG 0609/0612 SCT010 BKN018",
      "metarHtml": "METAR EBCI 051120Z 20012KT 6000 -<span class=\"hl\">SN</span> SCT006 BKN008 M03/M05 Q1011 TEMPO 2000 -<span class=\"hl\">SHSN</span> BKN005",
      "tafHtml": "TAF EBCI 051116Z 0512/0618 22009KT 9999 SCT005 BKN011 \n  TEMPO 0512/0515 1800 <span class=\"hl\">SHSN</span> <span class=\"hl\">SN</span> BKN003 BKN010CB \n  PROB30 \n  TEMPO 0522/0601 1800 <span class=\"hl\">SHSN</span> BKN004 BKN010TCU \n  TEMPO 0600/0609 3000 <span class=\"hl\">BR</span> BKN003 \n  PROB30 \n  TEMPO 0603/0608 <span class=\"hl-vis\">0400</span> <span class=\"hl\">FZFG</span> BKN002 \n  BECMG 0609/0612 SCT010 BKN018"
    },
    {
      "icao": "LFBD",
      "iata": "BOD",
      "name": "Bordeaux–Mérignac Airport",
      "updatedAt": "051130Z",
      "visibility_m": 10000,
      "taf_visibility_m": 500,
      "worst_visibility_m": 500,
      "ceiling_ft": null,
      "hazards": [
        "FZFG",
        "FG",
        "BR",
        "SN"
      ],
      "severityScore": 100,
      "metarRaw": "METAR LFBD 051130Z AUTO VRB02KT CAVOK 03/M03 Q1016 NOSIG",
      "tafRaw": "TAF LFBD 050500Z 0506/0612 VRB03KT CAVOK TX05/0514Z TNM07/0506Z \n  TEMPO 0506/0510 2000 BR \n  PROB30 \n  TEMPO 0506/0508 0800 FZFG VV/// \n  BECMG 0519/0521 19010KT \n  TEMPO 0601/0611 33010KT BKN010 \n  PROB40 \n  TEMPO 0602/0608 1500 -SN BKN004 \n  PROB30 \n  TEMPO 0604/0608 0500 FG VV///",
      "metarHtml": "METAR LFBD 051130Z AUTO VRB02KT <span class=\"hl-vis\">CAVOK</span> 03/M03 Q1016 NOSIG",
      "tafHtml": "TAF LFBD 050500Z 0506/0612 VRB03KT <span class=\"hl-vis\">CAVOK</span> TX05/0514Z TNM07/0506Z \n  TEMPO 0506/0510 2000 <span class=\"hl\">BR</span> \n  PROB30 \n  TEMPO 0506/0508 <span class=\"hl-vis\">0800</span> <span class=\"hl\">FZFG</span> VV/// \n  BECMG 0519/0521 19010KT \n  TEMPO 0601/0611 33010KT BKN010 \n  PROB40 \n  TEMPO 0602/0608 1500 -<span class=\"hl\">SN</span> BKN004 \n  PROB30 \n  TEMPO 0604/0608 <span class=\"hl-vis\">0500</span> <span class=\"hl\">FG</span> VV///"
    },
    {
      "icao": "LFOB",
      "iata": "BVA",
      "name": "Beauvais Tillé airport",
      "updatedAt": "051130Z",
      "visibility_m": 1500,
      "taf_visibility_m": 600,
      "worst_visibility_m": 600,
      "ceiling_ft": 700,
      "hazards": [
        "BR",
        "SN",
        "SHSN",
        "FZFG"
      ],
      "severityScore": 100,
      "metarRaw": "METAR LFOB 051130Z AUTO 20005KT 3800 1500 -SN BR BKN008 BKN020 BKN029 M01/M02 Q1012 TEMPO 2000 SHSN BKN007 BKN014TCU",
      "tafRaw": "TAF LFOB 051100Z 0512/0612 19006KT 9999 FEW009 \n  TEMPO 0512/0517 2000 SHSN BKN007 BKN014TCU \n  BECMG 0523/0603 4000 BR OVC002 \n  PROB30 \n  TEMPO 0604/0609 0600 FZFG VV/// \n  BECMG 0609/0611 9999 NSW SCT020",
      "metarHtml": "METAR LFOB 051130Z AUTO 20005KT 3800 1500 -<span class=\"hl\">SN</span> <span class=\"hl\">BR</span> BKN008 BKN020 BKN029 M01/M02 Q1012 TEMPO 2000 <span class=\"hl\">SHSN</span> BKN007 BKN014TCU",
      "tafHtml": "TAF LFOB 051100Z 0512/0612 19006KT 9999 FEW009 \n  TEMPO 0512/0517 2000 <span class=\"hl\">SHSN</span> BKN007 BKN014TCU \n  BECMG 0523/0603 4000 <span class=\"hl\">BR</span> OVC002 \n  PROB30 \n  TEMPO 0604/0609 <span class=\"hl-vis\">0600</span> <span class=\"hl\">FZFG</span> VV/// \n  BECMG 0609/0611 9999 NSW SCT020"
    },
    {
      "icao": "LFPO",
      "iata": "ORY",
      "name": "Paris-Orly Airport",
      "updatedAt": "051130Z",
      "visibility_m": 4000,
      "taf_visibility_m": 500,
      "worst_visibility_m": 500,
      "ceiling_ft": 300,
      "hazards": [
        "BR",
        "FG",
        "SN"
      ],
      "severityScore": 100,
      "metarRaw": "METAR LFPO 051130Z AUTO 22008KT 7000 OVC003 M02/M03 Q1014 TEMPO BKN006 BECMG 4000 BR",
      "tafRaw": "TAF LFPO 051100Z 0512/0618 22005KT 4000 BR OVC003 \n  TEMPO 0513/0519 -SN BKN006 \n  PROB40 \n  TEMPO 0514/0517 1500 SN BKN004 \n  PROB30 \n  TEMPO 0514/0517 0500 FG BKN002 \n  BECMG 0519/0521 6000 NSW BKN006 \n  PROB40 \n  TEMPO 0520/0602 4000 BR BKN003 \n  TEMPO 0602/0610 SCT012 \n  BECMG 0610/0612 CAVOK",
      "metarHtml": "METAR LFPO 051130Z AUTO 22008KT 7000 OVC003 M02/M03 Q1014 TEMPO BKN006 BECMG 4000 <span class=\"hl\">BR</span>",
      "tafHtml": "TAF LFPO 051100Z 0512/0618 22005KT 4000 <span class=\"hl\">BR</span> OVC003 \n  TEMPO 0513/0519 -<span class=\"hl\">SN</span> BKN006 \n  PROB40 \n  TEMPO 0514/0517 1500 <span class=\"hl\">SN</span> BKN004 \n  PROB30 \n  TEMPO 0514/0517 <span class=\"hl-vis\">0500</span> <span class=\"hl\">FG</span> BKN002 \n  BECMG 0519/0521 6000 NSW BKN006 \n  PROB40 \n  TEMPO 0520/0602 4000 <span class=\"hl\">BR</span> BKN003 \n  TEMPO 0602/0610 SCT012 \n  BECMG 0610/0612 <span class=\"hl-vis\">CAVOK</span>"
    },
    {
      "icao": "LHDC",
      "iata": "DEB",
      "name": "Debrecen International Airport",
      "updatedAt": "051115Z",
      "visibility_m": 2000,
      "taf_visibility_m": 800,
      "worst_visibility_m": 800,
      "ceiling_ft": 500,
      "hazards": [
        "BR",
        "SN",
        "FZRA"
      ],
      "severityScore": 100,
      "metarRaw": "METAR LHDC 051115Z AUTO 06009KT 2600 -SN BR OVC017 M00/M02 Q1013 TEMPO 2000 -SN BKN005 OVC020",
      "tafRaw": "TAF LHDC 051115Z 0512/0521 06010KT 6000 -SN SCT008 OVC025 \n  TEMPO 0512/0521 0800 SN BKN002 OVC015 \n  PROB30 \n  TEMPO 0514/0521 2500 FZRA BKN005 OVC020",
      "metarHtml": "METAR LHDC 051115Z AUTO 06009KT 2600 -<span class=\"hl\">SN</span> <span class=\"hl\">BR</span> OVC017 M00/M02 Q1013 TEMPO 2000 -<span class=\"hl\">SN</span> BKN005 OVC020",
      "tafHtml": "TAF LHDC 051115Z 0512/0521 06010KT 6000 -<span class=\"hl\">SN</span> SCT008 OVC025 \n  TEMPO 0512/0521 <span class=\"hl-vis\">0800</span> <span class=\"hl\">SN</span> BKN002 OVC015 \n  PROB30 \n  TEMPO 0514/0521 2500 <span class=\"hl\">FZRA</span> BKN005 OVC020"
    },
    {
      "icao": "LQBK",
      "iata": "BNX",
      "name": "Banja Luka International Airport",
      "updatedAt": "051130Z",
      "visibility_m": 7000,
      "taf_visibility_m": 1200,
      "worst_visibility_m": 1200,
      "ceiling_ft": 400,
      "hazards": [
        "FZRA",
        "BR",
        "SN"
      ],
      "severityScore": 100,
      "metarRaw": "METAR LQBK 051130Z 33004KT 7000 -FZRA BKN004 OVC008 M01/M01 Q1011 NOSIG",
      "tafRaw": "TAF LQBK 051100Z 0512/0612 33005KT 7000 BKN007 OVC013 TXM00/0513Z TNM03/0605Z \n  TEMPO 0512/0523 3000 -SN BR BKN004 OVC010 \n  PROB40 \n  TEMPO 0605/0612 1200 SN BKN002 OVC007",
      "metarHtml": "METAR LQBK 051130Z 33004KT 7000 -<span class=\"hl\">FZRA</span> BKN004 OVC008 M01/M01 Q1011 NOSIG",
      "tafHtml": "TAF LQBK 051100Z 0512/0612 33005KT 7000 BKN007 OVC013 TXM00/0513Z TNM03/0605Z \n  TEMPO 0512/0523 3000 -<span class=\"hl\">SN</span> <span class=\"hl\">BR</span> BKN004 OVC010 \n  PROB40 \n  TEMPO 0605/0612 1200 <span class=\"hl\">SN</span> BKN002 OVC007"
    },
    {
      "icao": "LRBS",
      "iata": "BBU",
      "name": "Bucharest Băneasa Aurel Vlaicu International Airport",
      "updatedAt": "051130Z",
      "visibility_m": 1200,
      "taf_visibility_m": 300,
      "worst_visibility_m": 300,
      "ceiling_ft": 300,
      "hazards": [
        "BR",
        "RA",
        "FZFG",
        "FG",
        "FZDZ"
      ],
      "severityScore": 100,
      "metarRaw": "METAR LRBS 051130Z 05011KT 010V070 1200 R07/1400D -RA BR OVC003 00/M00 Q1017 NOSIG",
      "tafRaw": "TAF LRBS 051100Z 0512/0612 05010KT 1500 -RA BR OVC002 \n  PROB30 \n  TEMPO 0512/0514 3000 BKN005 OVC020 \n  BECMG 0514/0516 0600 FG OVC001 \n  BECMG 0518/0520 VRB04KT 0300 FG \n  PROB30 \n  TEMPO 0603/0606 0600 -FZDZ FZFG OVC002 \n  BECMG 0607/0609 0800 OVC002 \n  BECMG 0610/0612 3000 BR OVC005",
      "metarHtml": "METAR LRBS 051130Z 05011KT 010V070 1200 R07/1400D -<span class=\"hl\">RA</span> <span class=\"hl\">BR</span> OVC003 00/M00 Q1017 NOSIG",
      "tafHtml": "TAF LRBS 051100Z 0512/0612 05010KT 1500 -<span class=\"hl\">RA</span> <span class=\"hl\">BR</span> OVC002 \n  PROB30 \n  TEMPO 0512/0514 3000 BKN005 OVC020 \n  BECMG 0514/0516 <span class=\"hl-vis\">0600</span> <span class=\"hl\">FG</span> OVC001 \n  BECMG 0518/0520 VRB04KT <span class=\"hl-vis\">0300</span> <span class=\"hl\">FG</span> \n  PROB30 \n  TEMPO 0603/0606 <span class=\"hl-vis\">0600</span> -<span class=\"hl\">FZDZ</span> <span class=\"hl\">FZFG</span> OVC002 \n  BECMG 0607/0609 <span class=\"hl-vis\">0800</span> OVC002 \n  BECMG 0610/0612 3000 <span class=\"hl\">BR</span> OVC005"
    },
    {
      "icao": "LRCV",
      "iata": "CRA",
      "name": "Craiova International Airport",
      "updatedAt": "051130Z",
      "visibility_m": 7000,
      "taf_visibility_m": 600,
      "worst_visibility_m": 600,
      "ceiling_ft": 500,
      "hazards": [
        "RA",
        "FG",
        "BR",
        "DZ"
      ],
      "severityScore": 100,
      "metarRaw": "METAR LRCV 051130Z 09011KT 7000 RA BKN005 OVC008 01/00 Q1016",
      "tafRaw": "TAF LRCV 051100Z 0512/0521 08010KT 7000 -RA BKN005 OVC020 \n  TEMPO 0512/0514 3000 RA BR \n  BECMG 0514/0516 3000 -DZ BR \n  BECMG 0516/0518 1500 BR OVC002 \n  BECMG 0519/0521 0600 FG OVC001",
      "metarHtml": "METAR LRCV 051130Z 09011KT 7000 <span class=\"hl\">RA</span> BKN005 OVC008 01/00 Q1016",
      "tafHtml": "TAF LRCV 051100Z 0512/0521 08010KT 7000 -<span class=\"hl\">RA</span> BKN005 OVC020 \n  TEMPO 0512/0514 3000 <span class=\"hl\">RA</span> <span class=\"hl\">BR</span> \n  BECMG 0514/0516 3000 -<span class=\"hl\">DZ</span> <span class=\"hl\">BR</span> \n  BECMG 0516/0518 1500 <span class=\"hl\">BR</span> OVC002 \n  BECMG 0519/0521 <span class=\"hl-vis\">0600</span> <span class=\"hl\">FG</span> OVC001"
    },
    {
      "icao": "LROP",
      "iata": "OTP",
      "name": "Bucharest Henri Coandă International Airport",
      "updatedAt": "051130Z",
      "visibility_m": 3500,
      "taf_visibility_m": 300,
      "worst_visibility_m": 300,
      "ceiling_ft": 400,
      "hazards": [
        "BR",
        "RA",
        "FZFG",
        "FG",
        "FZDZ",
        "DZ"
      ],
      "severityScore": 100,
      "metarRaw": "METAR LROP 051130Z 05015KT 3500 -RA BR OVC004 01/01 Q1017 NOSIG",
      "tafRaw": "TAF LROP 051100Z 0512/0612 05010KT 3000 -RA BR OVC005 \n  PROB40 \n  TEMPO 0512/0515 5000 \n  BECMG 0515/0517 1500 -DZ BR OVC002 \n  BECMG 0519/0521 VRB04KT 0600 FG OVC001 \n  BECMG 0521/0523 0300 FG \n  PROB30 \n  TEMPO 0603/0606 0600 -FZDZ FZFG OVC002 \n  BECMG 0607/0609 0800 OVC002 \n  BECMG 0610/0612 3000 BR OVC005",
      "metarHtml": "METAR LROP 051130Z 05015KT 3500 -<span class=\"hl\">RA</span> <span class=\"hl\">BR</span> OVC004 01/01 Q1017 NOSIG",
      "tafHtml": "TAF LROP 051100Z 0512/0612 05010KT 3000 -<span class=\"hl\">RA</span> <span class=\"hl\">BR</span> OVC005 \n  PROB40 \n  TEMPO 0512/0515 5000 \n  BECMG 0515/0517 1500 -<span class=\"hl\">DZ</span> <span class=\"hl\">BR</span> OVC002 \n  BECMG 0519/0521 VRB04KT <span class=\"hl-vis\">0600</span> <span class=\"hl\">FG</span> OVC001 \n  BECMG 0521/0523 <span class=\"hl-vis\">0300</span> <span class=\"hl\">FG</span> \n  PROB30 \n  TEMPO 0603/0606 <span class=\"hl-vis\">0600</span> -<span class=\"hl\">FZDZ</span> <span class=\"hl\">FZFG</span> OVC002 \n  BECMG 0607/0609 <span class=\"hl-vis\">0800</span> OVC002 \n  BECMG 0610/0612 3000 <span class=\"hl\">BR</span> OVC005"
    },
    {
      "icao": "LRSB",
      "iata": "SBZ",
      "name": "Sibiu International Airport",
      "updatedAt": "051130Z",
      "visibility_m": 8000,
      "taf_visibility_m": 600,
      "worst_visibility_m": 600,
      "ceiling_ft": 600,
      "hazards": [
        "FZFG",
        "BR",
        "FZDZ"
      ],
      "severityScore": 100,
      "metarRaw": "METAR LRSB 051130Z 24003KT 8000 OVC006 M01/M02 Q1012",
      "tafRaw": "TAF LRSB 051100Z 0512/0612 VRB04KT 9999 BKN005 BKN025 \n  BECMG 0517/0519 1500 BR BKN005 BKN025 \n  TEMPO 0521/0523 0600 FZFG VV001 \n  PROB30 \n  TEMPO 0600/0605 -FZDZ \n  BECMG 0607/0609 5000 BKN010 BKN030",
      "metarHtml": "METAR LRSB 051130Z 24003KT 8000 OVC006 M01/M02 Q1012",
      "tafHtml": "TAF LRSB 051100Z 0512/0612 VRB04KT 9999 BKN005 BKN025 \n  BECMG 0517/0519 1500 <span class=\"hl\">BR</span> BKN005 BKN025 \n  TEMPO 0521/0523 <span class=\"hl-vis\">0600</span> <span class=\"hl\">FZFG</span> VV001 \n  PROB30 \n  TEMPO <span class=\"hl-vis\">0600</span>/0605 -<span class=\"hl\">FZDZ</span> \n  BECMG 0607/0609 5000 BKN010 BKN030"
    },
    {
      "icao": "LRTR",
      "iata": "TSR",
      "name": "Timişoara Traian Vuia Airport",
      "updatedAt": "051130Z",
      "visibility_m": 5000,
      "taf_visibility_m": 800,
      "worst_visibility_m": 800,
      "ceiling_ft": 2600,
      "hazards": [
        "BR",
        "RA",
        "FZFG",
        "FZDZ",
        "DZ"
      ],
      "severityScore": 100,
      "metarRaw": "METAR LRTR 051130Z 33002KT 5000 -RA BR SCT004 OVC026 01/01 Q1011",
      "tafRaw": "TAF LRTR 051100Z 0512/0612 03008KT 5000 -RA BR BKN005 OVC025 \n  TEMPO 0514/0522 7000 -RA SCT010 OVC035 \n  BECMG 0522/0524 1500 -DZ BR \n  PROB40 \n  TEMPO 0602/0606 0800 -FZDZ FZFG BKN002 OVC020 \n  BECMG 0607/0609 26010KT 3000 BKN010 OVC040 \n  PROB40 \n  TEMPO 0609/0612 -FZDZ",
      "metarHtml": "METAR LRTR 051130Z 33002KT 5000 -<span class=\"hl\">RA</span> <span class=\"hl\">BR</span> SCT004 OVC026 01/01 Q1011",
      "tafHtml": "TAF LRTR 051100Z 0512/0612 03008KT 5000 -<span class=\"hl\">RA</span> <span class=\"hl\">BR</span> BKN005 OVC025 \n  TEMPO 0514/0522 7000 -<span class=\"hl\">RA</span> SCT010 OVC035 \n  BECMG 0522/0524 1500 -<span class=\"hl\">DZ</span> <span class=\"hl\">BR</span> \n  PROB40 \n  TEMPO 0602/0606 <span class=\"hl-vis\">0800</span> -<span class=\"hl\">FZDZ</span> <span class=\"hl\">FZFG</span> BKN002 OVC020 \n  BECMG 0607/0609 26010KT 3000 BKN010 OVC040 \n  PROB40 \n  TEMPO 0609/0612 -<span class=\"hl\">FZDZ</span>"
    },
    {
      "icao": "LUKK",
      "iata": "RMO",
      "name": "Chişinău International Airport",
      "updatedAt": "051130Z",
      "visibility_m": 1500,
      "taf_visibility_m": 300,
      "worst_visibility_m": 300,
      "ceiling_ft": 900,
      "hazards": [
        "SN",
        "FG",
        "BR",
        "FZRA",
        "DZ"
      ],
      "severityScore": 100,
      "metarRaw": "METAR LUKK 051130Z 08006KT 3600 SN BKN024 OVC029 M01/M02 Q1021 TEMPO 1500 SN BKN009",
      "tafRaw": "TAF LUKK 051110Z 0512/0612 11008KT 4000 SN BKN012 \n  TEMPO 0512/0517 1000 BKN005 \n  BECMG 0517/0519 5000 -FZRA BR BKN009 \n  TEMPO 0519/0523 2000 FZRA BR BKN005 \n  BECMG 0523/0601 0300 DZ FG VV///",
      "metarHtml": "METAR LUKK 051130Z 08006KT 3600 <span class=\"hl\">SN</span> BKN024 OVC029 M01/M02 Q1021 TEMPO 1500 <span class=\"hl\">SN</span> BKN009",
      "tafHtml": "TAF LUKK 051110Z 0512/0612 11008KT 4000 <span class=\"hl\">SN</span> BKN012 \n  TEMPO 0512/0517 1000 BKN005 \n  BECMG 0517/0519 5000 -<span class=\"hl\">FZRA</span> <span class=\"hl\">BR</span> BKN009 \n  TEMPO 0519/0523 2000 <span class=\"hl\">FZRA</span> <span class=\"hl\">BR</span> BKN005 \n  BECMG 0523/0601 <span class=\"hl-vis\">0300</span> <span class=\"hl\">DZ</span> <span class=\"hl\">FG</span> VV///"
    },
    {
      "icao": "UAAA",
      "iata": "ALA",
      "name": "Almaty International Airport",
      "updatedAt": "051130Z",
      "visibility_m": 5000,
      "taf_visibility_m": 300,
      "worst_visibility_m": 300,
      "ceiling_ft": 800,
      "hazards": [
        "BR",
        "FZFG"
      ],
      "severityScore": 100,
      "metarRaw": "METAR UAAA 051130Z 09002MPS 020V130 5000 BR OVC008 00/M01 Q1038 NOSIG",
      "tafRaw": "TAF UAAA 051108Z 0512/0612 22002MPS 1200 BR FU BKN011 OVC030 TX01/0609Z TNM03/0602Z \n  TEMPO 0512/0514 3100 BKN005 OVC020 \n  TEMPO 0514/0602 0300 FZFG VV002 \n  FM060400 04003MPS 6000 SCT030 BKN100",
      "metarHtml": "METAR UAAA 051130Z 09002MPS 020V130 5000 <span class=\"hl\">BR</span> OVC008 00/M01 Q1038 NOSIG",
      "tafHtml": "TAF UAAA 051108Z 0512/0612 22002MPS 1200 <span class=\"hl\">BR</span> FU BKN011 OVC030 TX01/0609Z TNM03/0602Z \n  TEMPO 0512/0514 3100 BKN005 OVC020 \n  TEMPO 0514/0602 <span class=\"hl-vis\">0300</span> <span class=\"hl\">FZFG</span> VV002 \n  FM060400 04003MPS 6000 SCT030 BKN100"
    },
    {
      "icao": "EPMO",
      "iata": "WMI",
      "name": "Modlin Airport",
      "updatedAt": "051130Z",
      "visibility_m": 10000,
      "taf_visibility_m": 100,
      "worst_visibility_m": 100,
      "ceiling_ft": null,
      "hazards": [
        "FZFG",
        "BR"
      ],
      "severityScore": 95,
      "metarRaw": "METAR EPMO 051130Z 17007KT 130V190 CAVOK M01/M05 Q1016",
      "tafRaw": "TAF EPMO 051130Z 0512/0612 14005KT CAVOK \n  TEMPO 0518/0521 3000 BR \n  BECMG 0521/0524 0400 FZFG \n  TEMPO 0523/0610 0100 FZFG BKN001 \n  BECMG 0610/0612 2000 BR BKN003",
      "metarHtml": "METAR EPMO 051130Z 17007KT 130V190 <span class=\"hl-vis\">CAVOK</span> M01/M05 Q1016",
      "tafHtml": "TAF EPMO 051130Z 0512/0612 14005KT <span class=\"hl-vis\">CAVOK</span> \n  TEMPO 0518/0521 3000 <span class=\"hl\">BR</span> \n  BECMG 0521/0524 <span class=\"hl-vis\">0400</span> <span class=\"hl\">FZFG</span> \n  TEMPO 0523/0610 <span class=\"hl-vis\">0100</span> <span class=\"hl\">FZFG</span> BKN001 \n  BECMG 0610/0612 2000 <span class=\"hl\">BR</span> BKN003"
    },
    {
      "icao": "EPPO",
      "iata": "POZ",
      "name": "Poznań-Ławica Airport",
      "updatedAt": "051130Z",
      "visibility_m": 10000,
      "taf_visibility_m": 100,
      "worst_visibility_m": 100,
      "ceiling_ft": null,
      "hazards": [
        "FZFG",
        "BR"
      ],
      "severityScore": 95,
      "metarRaw": "METAR EPPO 051130Z 21005KT CAVOK M00/M06 Q1014",
      "tafRaw": "TAF EPPO 051130Z 0512/0612 20006KT CAVOK \n  BECMG 0516/0518 3000 BR \n  BECMG 0521/0524 0400 FZFG OVC001 \n  TEMPO 0600/0607 0100 FZFG \n  BECMG 0607/0610 CAVOK",
      "metarHtml": "METAR EPPO 051130Z 21005KT <span class=\"hl-vis\">CAVOK</span> M00/M06 Q1014",
      "tafHtml": "TAF EPPO 051130Z 0512/0612 20006KT <span class=\"hl-vis\">CAVOK</span> \n  BECMG 0516/0518 3000 <span class=\"hl\">BR</span> \n  BECMG 0521/0524 <span class=\"hl-vis\">0400</span> <span class=\"hl\">FZFG</span> OVC001 \n  TEMPO 0600/0607 <span class=\"hl-vis\">0100</span> <span class=\"hl\">FZFG</span> \n  BECMG 0607/0610 <span class=\"hl-vis\">CAVOK</span>"
    },
    {
      "icao": "EPWA",
      "iata": "WAW",
      "name": "Warsaw Chopin Airport",
      "updatedAt": "051130Z",
      "visibility_m": 10000,
      "taf_visibility_m": 100,
      "worst_visibility_m": 100,
      "ceiling_ft": null,
      "hazards": [
        "FZFG",
        "BR"
      ],
      "severityScore": 95,
      "metarRaw": "METAR EPWA 051130Z 17004KT CAVOK M02/M07 Q1016 NOSIG",
      "tafRaw": "TAF EPWA 051130Z 0512/0612 14005KT CAVOK \n  TEMPO 0520/0524 3000 BR \n  BECMG 0600/0603 0400 FZFG \n  TEMPO 0600/0609 0100 FZFG BKN001 \n  BECMG 0609/0612 28010KT 6000 BKN004",
      "metarHtml": "METAR EPWA 051130Z 17004KT <span class=\"hl-vis\">CAVOK</span> M02/M07 Q1016 NOSIG",
      "tafHtml": "TAF EPWA 051130Z 0512/0612 14005KT <span class=\"hl-vis\">CAVOK</span> \n  TEMPO 0520/0524 3000 <span class=\"hl\">BR</span> \n  BECMG 0600/0603 <span class=\"hl-vis\">0400</span> <span class=\"hl\">FZFG</span> \n  TEMPO 0600/0609 <span class=\"hl-vis\">0100</span> <span class=\"hl\">FZFG</span> BKN001 \n  BECMG 0609/0612 28010KT 6000 BKN004"
    },
    {
      "icao": "EGPD",
      "iata": "ABZ",
      "name": "Aberdeen International Airport",
      "updatedAt": "051120Z",
      "visibility_m": 500,
      "taf_visibility_m": 500,
      "worst_visibility_m": 500,
      "ceiling_ft": 600,
      "hazards": [
        "SHSN",
        "SN"
      ],
      "severityScore": 88,
      "metarRaw": "METAR EGPD 051120Z 30012KT 0500 R34/0550N +SHSN BKN006 M00/M01 Q1014 RESHSN TEMPO 4000 SHSN",
      "tafRaw": "TAF EGPD 051054Z 0512/0612 30010KT 9999 FEW012 \n  TEMPO 0512/0516 1800 SHSN BKN009CB \n  PROB30 \n  TEMPO 0512/0516 32015G25KT 0500 +SHSN SHGS VV/// \n  PROB30 \n  TEMPO 0516/0518 4000 -SHSN BKN014 \n  BECMG 0603/0606 19004KT \n  TEMPO 0603/0612 4000 -SN BKN012 \n  PROB30 \n  TEMPO 0604/0611 1400 SN BKN004",
      "metarHtml": "METAR EGPD 051120Z 30012KT <span class=\"hl-vis\">0500</span> R34/0550N +<span class=\"hl\">SHSN</span> BKN006 M00/M01 Q1014 RESHSN TEMPO 4000 <span class=\"hl\">SHSN</span>",
      "tafHtml": "TAF EGPD 051054Z 0512/0612 30010KT 9999 FEW012 \n  TEMPO 0512/0516 1800 <span class=\"hl\">SHSN</span> BKN009CB \n  PROB30 \n  TEMPO 0512/0516 32015G25KT <span class=\"hl-vis\">0500</span> +<span class=\"hl\">SHSN</span> SHGS VV/// \n  PROB30 \n  TEMPO 0516/0518 4000 -<span class=\"hl\">SHSN</span> BKN014 \n  BECMG 0603/0606 19004KT \n  TEMPO 0603/0612 4000 -<span class=\"hl\">SN</span> BKN012 \n  PROB30 \n  TEMPO 0604/0611 1400 <span class=\"hl\">SN</span> BKN004"
    },
    {
      "icao": "LQTZ",
      "iata": "TZL",
      "name": "Tuzla International Airport",
      "updatedAt": "051130Z",
      "visibility_m": 10000,
      "taf_visibility_m": 1200,
      "worst_visibility_m": 1200,
      "ceiling_ft": 1500,
      "hazards": [
        "BR",
        "FZRA",
        "SN"
      ],
      "severityScore": 85,
      "metarRaw": "METAR LQTZ 051130Z VRB03KT 9999 BKN015 00/M00 Q1009",
      "tafRaw": "TAF LQTZ 051100Z 0512/0612 30006KT 9999 SCT005 BKN015 OVC025 TX00/0513Z TNM03/0605Z \n  PROB30 \n  TEMPO 0516/0520 3000 -FZRA BR \n  PROB40 \n  TEMPO 0520/0609 2000 -SN BR BKN007 OVC015 \n  BECMG 0609/0612 1200 SN BKN004 OVC012",
      "metarHtml": "METAR LQTZ 051130Z VRB03KT 9999 BKN015 00/M00 Q1009",
      "tafHtml": "TAF LQTZ 051100Z 0512/0612 30006KT 9999 SCT005 BKN015 OVC025 TX00/0513Z TNM03/0605Z \n  PROB30 \n  TEMPO 0516/0520 3000 -<span class=\"hl\">FZRA</span> <span class=\"hl\">BR</span> \n  PROB40 \n  TEMPO 0520/0609 2000 -<span class=\"hl\">SN</span> <span class=\"hl\">BR</span> BKN007 OVC015 \n  BECMG 0609/0612 1200 <span class=\"hl\">SN</span> BKN004 OVC012"
    },
    {
      "icao": "EDFH",
      "iata": "HHN",
      "name": "Frankfurt-Hahn Airport",
      "updatedAt": "051120Z",
      "visibility_m": 10000,
      "taf_visibility_m": 400,
      "worst_visibility_m": 400,
      "ceiling_ft": 700,
      "hazards": [
        "SN"
      ],
      "severityScore": 78,
      "metarRaw": "METAR EDFH 051120Z 23006KT 200V260 9999 BKN007 M05/M06 Q1011",
      "tafRaw": "TAF EDFH 051100Z 0512/0612 26010KT 9999 BKN005 \n  TEMPO 0512/0517 BKN002 \n  TEMPO 0517/0609 1200 -SN BKN002 \n  PROB30 \n  TEMPO 0518/0603 0400 SN BKN001 \n  TEMPO 0610/0612 BKN010",
      "metarHtml": "METAR EDFH 051120Z 23006KT 200V260 9999 BKN007 M05/M06 Q1011",
      "tafHtml": "TAF EDFH 051100Z 0512/0612 26010KT 9999 BKN005 \n  TEMPO 0512/0517 BKN002 \n  TEMPO 0517/0609 1200 -<span class=\"hl\">SN</span> BKN002 \n  PROB30 \n  TEMPO 0518/0603 <span class=\"hl-vis\">0400</span> <span class=\"hl\">SN</span> BKN001 \n  TEMPO 0610/0612 BKN010"
    },
    {
      "icao": "LYBE",
      "iata": "BEG",
      "name": "Belgrade Nikola Tesla Airport",
      "updatedAt": "051130Z",
      "visibility_m": 3000,
      "taf_visibility_m": 2500,
      "worst_visibility_m": 2500,
      "ceiling_ft": null,
      "hazards": [
        "BR",
        "RA",
        "FZRA",
        "SN"
      ],
      "severityScore": 75,
      "metarRaw": "METAR LYBE 051130Z 06004KT 3000 -RA BR SCT025 01/M00 Q1010 NOSIG",
      "tafRaw": "TAF LYBE 051100Z 0512/0612 27005KT 5000 BR SCT010 BKN025 TX01/0512Z TNM02/0606Z \n  TEMPO 0513/0518 3000 BKN005 BKN020 \n  TEMPO 0518/0601 3000 FZRA BKN004 BKN022 \n  TEMPO 0603/0612 2500 -SN BKN003 OVC020",
      "metarHtml": "METAR LYBE 051130Z 06004KT 3000 -<span class=\"hl\">RA</span> <span class=\"hl\">BR</span> SCT025 01/M00 Q1010 NOSIG",
      "tafHtml": "TAF LYBE 051100Z 0512/0612 27005KT 5000 <span class=\"hl\">BR</span> SCT010 BKN025 TX01/0512Z TNM02/0606Z \n  TEMPO 0513/0518 3000 BKN005 BKN020 \n  TEMPO 0518/0601 3000 <span class=\"hl\">FZRA</span> BKN004 BKN022 \n  TEMPO 0603/0612 2500 -<span class=\"hl\">SN</span> BKN003 OVC020"
    },
    {
      "icao": "EYPA",
      "iata": "PLQ",
      "name": "Palanga International Airport",
      "updatedAt": "051120Z",
      "visibility_m": 10000,
      "taf_visibility_m": 800,
      "worst_visibility_m": 800,
      "ceiling_ft": 1200,
      "hazards": [
        "TS",
        "SHSN"
      ],
      "severityScore": 72,
      "metarRaw": "METAR EYPA 051120Z 06004KT 9999 FEW006 OVC012 M03/M04 Q1011",
      "tafRaw": "TAF EYPA 051107Z 0512/0612 VRB04KT 9000 SCT005 OVC015 \n  TEMPO 0512/0515 BKN012CB \n  TEMPO 0515/0521 0800 +SHSN BKN005 BKN012CB \n  PROB40 \n  TEMPO 0515/0518 TS \n  BECMG 0521/0522 16012KT \n  TEMPO 0523/0606 SCT010 SCT020 \n  TEMPO 0609/0612 BKN015CB",
      "metarHtml": "METAR EYPA 051120Z 06004KT 9999 FEW006 OVC012 M03/M04 Q1011",
      "tafHtml": "TAF EYPA 051107Z 0512/0612 VRB04KT 9000 SCT005 OVC015 \n  TEMPO 0512/0515 BKN012CB \n  TEMPO 0515/0521 <span class=\"hl-vis\">0800</span> +<span class=\"hl\">SHSN</span> BKN005 BKN012CB \n  PROB40 \n  TEMPO 0515/0518 <span class=\"hl\">TS</span> \n  BECMG 0521/0522 16012KT \n  TEMPO 0523/0606 SCT010 SCT020 \n  TEMPO 0609/0612 BKN015CB"
    },
    {
      "icao": "HESX",
      "iata": "SPX",
      "name": "Sphinx International Airport",
      "updatedAt": "051100Z",
      "visibility_m": 10000,
      "taf_visibility_m": 300,
      "worst_visibility_m": 300,
      "ceiling_ft": null,
      "hazards": [
        "FG"
      ],
      "severityScore": 65,
      "metarRaw": "METAR HESX 051100Z 27005KT CAVOK 19/05 Q1020 NOSIG",
      "tafRaw": "TAF HESX 051100Z 0512/0618 26006KT CAVOK \n  TEMPO 0600/0608 VRB03KT 2000 HZ NSC \n  PROB40 \n  TEMPO 0602/0606 0300 FG \n  BECMG 0612/0614 03007KT 9999 SCT025",
      "metarHtml": "METAR HESX 051100Z 27005KT <span class=\"hl-vis\">CAVOK</span> 19/05 Q1020 NOSIG",
      "tafHtml": "TAF HESX 051100Z 0512/0618 26006KT <span class=\"hl-vis\">CAVOK</span> \n  TEMPO 0600/0608 VRB03KT 2000 HZ NSC \n  PROB40 \n  TEMPO 0602/0606 <span class=\"hl-vis\">0300</span> <span class=\"hl\">FG</span> \n  BECMG 0612/0614 03007KT 9999 SCT025"
    },
    {
      "icao": "LRCL",
      "iata": "CLJ",
      "name": "Cluj Avram Iancu International Airport",
      "updatedAt": "051130Z",
      "visibility_m": 8000,
      "taf_visibility_m": 3000,
      "worst_visibility_m": 3000,
      "ceiling_ft": 3200,
      "hazards": [
        "SN",
        "BR",
        "FZRA"
      ],
      "severityScore": 63,
      "metarRaw": "METAR LRCL 051130Z 06004KT 030V090 8000 -SN SCT020 BKN032 OVC044 M01/M02 Q1013",
      "tafRaw": "TAF LRCL 051100Z 0512/0521 VRB04KT 3000 -SN SCT010 OVC025 \n  BECMG 0513/0515 5000 -RASN BR BKN010 OVC030 \n  PROB40 \n  TEMPO 0514/0519 -FZRA BR",
      "metarHtml": "METAR LRCL 051130Z 06004KT 030V090 8000 -<span class=\"hl\">SN</span> SCT020 BKN032 OVC044 M01/M02 Q1013",
      "tafHtml": "TAF LRCL 051100Z 0512/0521 VRB04KT 3000 -<span class=\"hl\">SN</span> SCT010 OVC025 \n  BECMG 0513/0515 5000 -RASN <span class=\"hl\">BR</span> BKN010 OVC030 \n  PROB40 \n  TEMPO 0514/0519 -<span class=\"hl\">FZRA</span> <span class=\"hl\">BR</span>"
    },
    {
      "icao": "LRTM",
      "iata": "TGM",
      "name": "Târgu Mureş Transilvania International Airport",
      "updatedAt": "051130Z",
      "visibility_m": 2000,
      "taf_visibility_m": 3000,
      "worst_visibility_m": 2000,
      "ceiling_ft": 2800,
      "hazards": [
        "BR",
        "SN",
        "FZRA"
      ],
      "severityScore": 63,
      "metarRaw": "METAR LRTM 051130Z 05001KT 2000 -SN BR FEW006 SCT016 BKN028 M01/M02 Q1013",
      "tafRaw": "TAF LRTM 051100Z 0512/0521 VRB04KT 3000 -SN SCT010 OVC025 \n  BECMG 0512/0514 5000 -SNRA BR BKN010 BKN030 \n  PROB40 \n  TEMPO 0513/0520 -FZRA BR",
      "metarHtml": "METAR LRTM 051130Z 05001KT 2000 -<span class=\"hl\">SN</span> <span class=\"hl\">BR</span> FEW006 SCT016 BKN028 M01/M02 Q1013",
      "tafHtml": "TAF LRTM 051100Z 0512/0521 VRB04KT 3000 -<span class=\"hl\">SN</span> SCT010 OVC025 \n  BECMG 0512/0514 5000 -SNRA <span class=\"hl\">BR</span> BKN010 BKN030 \n  PROB40 \n  TEMPO 0513/0520 -<span class=\"hl\">FZRA</span> <span class=\"hl\">BR</span>"
    },
    {
      "icao": "EYVI",
      "iata": "VNO",
      "name": "Vilnius International Airport",
      "updatedAt": "051120Z",
      "visibility_m": 10000,
      "taf_visibility_m": 1500,
      "worst_visibility_m": 1500,
      "ceiling_ft": 1500,
      "hazards": [
        "SN",
        "BR",
        "SHSN"
      ],
      "severityScore": 60,
      "metarRaw": "METAR EYVI 051120Z 20012KT 9999 -SN OVC015 M04/M06 Q1013 NOSIG",
      "tafRaw": "TAF EYVI 051100Z 0512/0612 20010KT 8000 BKN015 \n  TEMPO 0512/0516 3000 SHSN BKN010 BKN020CB \n  TEMPO 0516/0518 VRB04KT SCT015 \n  BECMG 0518/0519 VRB04KT SCT015 \n  TEMPO 0519/0605 3000 BR SCT005 BKN010 \n  BECMG 0605/0607 12010KT \n  BECMG 0607/0609 5000 SN BR \n  TEMPO 0609/0612 1500 BKN005",
      "metarHtml": "METAR EYVI 051120Z 20012KT 9999 -<span class=\"hl\">SN</span> OVC015 M04/M06 Q1013 NOSIG",
      "tafHtml": "TAF EYVI 051100Z 0512/0612 20010KT 8000 BKN015 \n  TEMPO 0512/0516 3000 <span class=\"hl\">SHSN</span> BKN010 BKN020CB \n  TEMPO 0516/0518 VRB04KT SCT015 \n  BECMG 0518/0519 VRB04KT SCT015 \n  TEMPO 0519/0605 3000 <span class=\"hl\">BR</span> SCT005 BKN010 \n  BECMG 0605/0607 12010KT \n  BECMG 0607/0609 5000 <span class=\"hl\">SN</span> <span class=\"hl\">BR</span> \n  TEMPO 0609/0612 1500 BKN005"
    },
    {
      "icao": "LIBG",
      "iata": "TAR",
      "name": "Taranto-Grottaglie Marcello Arlotta Airport",
      "updatedAt": "051050Z",
      "visibility_m": 8000,
      "taf_visibility_m": 4000,
      "worst_visibility_m": 4000,
      "ceiling_ft": 1000,
      "hazards": [
        "TSRA",
        "SHRA"
      ],
      "severityScore": 51,
      "metarRaw": "METAR LIBG 051050Z 16018KT 8000 BKN010 16/16 Q1006",
      "tafRaw": "TAF LIBG 051100Z 0512/0521 17015KT 9999 SCT030 \n  TEMPO 0512/0515 17018G30KT 4000 TSRA BKN010 \n  TEMPO 0515/0521 4000 SHRA BKN010",
      "metarHtml": "METAR LIBG 051050Z 16018KT 8000 BKN010 16/16 Q1006",
      "tafHtml": "TAF LIBG 051100Z 0512/0521 17015KT 9999 SCT030 \n  TEMPO 0512/0515 17018G30KT 4000 <span class=\"hl\">TSRA</span> BKN010 \n  TEMPO 0515/0521 4000 <span class=\"hl\">SHRA</span> BKN010"
    },
    {
      "icao": "LIBR",
      "iata": "BDS",
      "name": "Brindisi Airport",
      "updatedAt": "051120Z",
      "visibility_m": 4000,
      "taf_visibility_m": 4000,
      "worst_visibility_m": 4000,
      "ceiling_ft": 2000,
      "hazards": [
        "RA",
        "TSRA",
        "SHRA"
      ],
      "severityScore": 51,
      "metarRaw": "METAR LIBR 051120Z 18014KT 4000 RA BKN020 15/13 Q1007 RETS",
      "tafRaw": "TAF LIBR 051100Z 0512/0612 17015KT 9999 SCT020 \n  TEMPO 0512/0517 18018G28KT 4000 TSRA BKN010 \n  TEMPO 0517/0521 4000 SHRA BKN010 \n  BECMG 0521/0523 35007KT",
      "metarHtml": "METAR LIBR 051120Z 18014KT 4000 <span class=\"hl\">RA</span> BKN020 15/13 Q1007 RETS",
      "tafHtml": "TAF LIBR 051100Z 0512/0612 17015KT 9999 SCT020 \n  TEMPO 0512/0517 18018G28KT 4000 <span class=\"hl\">TSRA</span> BKN010 \n  TEMPO 0517/0521 4000 <span class=\"hl\">SHRA</span> BKN010 \n  BECMG 0521/0523 35007KT"
    },
    {
      "icao": "LYPG",
      "iata": "TGD",
      "name": "Podgorica Airport / Podgorica Golubovci Airbase",
      "updatedAt": "051130Z",
      "visibility_m": 5000,
      "taf_visibility_m": 2000,
      "worst_visibility_m": 2000,
      "ceiling_ft": 4000,
      "hazards": [
        "SHRA",
        "TSRA",
        "RA"
      ],
      "severityScore": 51,
      "metarRaw": "METAR LYPG 051130Z 13014G29KT 9999 4000S -SHRA FEW023TCU BKN040 13/12 Q1007 RETS TEMPO 5000",
      "tafRaw": "TAF LYPG 051100Z 0512/0612 14009KT 6000 RA FEW015 BKN034 OVC070 TX13/0513Z TN11/0605Z \n  TEMPO 0512/0515 14015G25KT 3000 TSRA FEW010 SCT025CB BKN040 \n  TEMPO 0518/0612 15015G25KT 2000 TSRA FEW010 SCT025CB BKN040",
      "metarHtml": "METAR LYPG 051130Z 13014G29KT 9999 4000S -<span class=\"hl\">SHRA</span> FEW023TCU BKN040 13/12 Q1007 RETS TEMPO 5000",
      "tafHtml": "TAF LYPG 051100Z 0512/0612 14009KT 6000 <span class=\"hl\">RA</span> FEW015 BKN034 OVC070 TX13/0513Z TN11/0605Z \n  TEMPO 0512/0515 14015G25KT 3000 <span class=\"hl\">TSRA</span> FEW010 SCT025CB BKN040 \n  TEMPO 0518/0612 15015G25KT 2000 <span class=\"hl\">TSRA</span> FEW010 SCT025CB BKN040"
    },
    {
      "icao": "ESMS",
      "iata": "MMX",
      "name": "Malmö Sturup Airport",
      "updatedAt": "051120Z",
      "visibility_m": 1000,
      "taf_visibility_m": 1000,
      "worst_visibility_m": 1000,
      "ceiling_ft": 1500,
      "hazards": [
        "SN",
        "SHSN"
      ],
      "severityScore": 50,
      "metarRaw": "METAR ESMS 051120Z 19007KT 1000 R17/P1200N R35/P2000N SN VV015 M00/M01 Q1009",
      "tafRaw": "TAF ESMS 051127Z 0512/0612 10004KT 9999 BKN030 \n  TEMPO 0512/0612 1000 SHSN BKN006 SCT020CB",
      "metarHtml": "METAR ESMS 051120Z 19007KT 1000 R17/P1200N R35/P2000N <span class=\"hl\">SN</span> VV015 M00/M01 Q1009",
      "tafHtml": "TAF ESMS 051127Z 0512/0612 10004KT 9999 BKN030 \n  TEMPO 0512/0612 1000 <span class=\"hl\">SHSN</span> BKN006 SCT020CB"
    },
    {
      "icao": "GMMN",
      "iata": "CMN",
      "name": "Mohammed V International Airport",
      "updatedAt": "051130Z",
      "visibility_m": 10000,
      "taf_visibility_m": 3000,
      "worst_visibility_m": 3000,
      "ceiling_ft": 300,
      "hazards": [
        "RA"
      ],
      "severityScore": 47,
      "metarRaw": "METAR GMMN 051130Z 32006KT 9999 BKN003 BKN020 15/14 Q1012 NOSIG",
      "tafRaw": "TAF GMMN 051100Z 0512/0618 32009KT 9999 SCT006 BKN030 \n  TEMPO 0512/0524 3000 RA BKN005 BKN020TCU \n  TEMPO 0607/0612 3101 \n  PROB40 \n  TEMPO 0516/0522 5000 RA BKN010 SCT020",
      "metarHtml": "METAR GMMN 051130Z 32006KT 9999 BKN003 BKN020 15/14 Q1012 NOSIG",
      "tafHtml": "TAF GMMN 051100Z 0512/0618 32009KT 9999 SCT006 BKN030 \n  TEMPO 0512/0524 3000 <span class=\"hl\">RA</span> BKN005 BKN020TCU \n  TEMPO 0607/0612 3101 \n  PROB40 \n  TEMPO 0516/0522 5000 <span class=\"hl\">RA</span> BKN010 SCT020"
    },
    {
      "icao": "EHEH",
      "iata": "EIN",
      "name": "Eindhoven Airport",
      "updatedAt": "051125Z",
      "visibility_m": 10000,
      "taf_visibility_m": 600,
      "worst_visibility_m": 600,
      "ceiling_ft": 1100,
      "hazards": [
        "SHSN"
      ],
      "severityScore": 47,
      "metarRaw": "METAR EHEH 051125Z AUTO 21013KT 9999 BKN011 BKN047 OVC054 M00/M03 Q1010 GRN NOSIG RMK TREND REMOTE BY EHWX",
      "tafRaw": "TAF EHEH 050538Z 0506/0612 20008KT CAVOK \n  TEMPO 0510/0514 0600 SHSN SCT003 BKN005 SCT015CB \n  PROB40 \n  TEMPO 0518/0601 0600 SHSN SCT003 BKN005 SCT015CB",
      "metarHtml": "METAR EHEH 051125Z AUTO 21013KT 9999 BKN011 BKN047 OVC054 M00/M03 Q1010 GRN NOSIG RMK TREND REMOTE BY EHWX",
      "tafHtml": "TAF EHEH 050538Z 0506/0612 20008KT <span class=\"hl-vis\">CAVOK</span> \n  TEMPO 0510/0514 <span class=\"hl-vis\">0600</span> <span class=\"hl\">SHSN</span> SCT003 BKN005 SCT015CB \n  PROB40 \n  TEMPO 0518/0601 <span class=\"hl-vis\">0600</span> <span class=\"hl\">SHSN</span> SCT003 BKN005 SCT015CB"
    },
    {
      "icao": "LQSA",
      "iata": "SJJ",
      "name": "Sarajevo International Airport",
      "updatedAt": "051130Z",
      "visibility_m": 7000,
      "taf_visibility_m": 2500,
      "worst_visibility_m": 2500,
      "ceiling_ft": 5500,
      "hazards": [
        "FZRA",
        "RA"
      ],
      "severityScore": 47,
      "metarRaw": "METAR LQSA 051130Z VRB02KT 7000 -FZRA FEW008 SCT015 BKN055 M00/M00 Q1007 NOSIG",
      "tafRaw": "TAF LQSA 051100Z 0512/0612 VRB02KT 9999 SCT008 BKN035 TX02/0514Z TNM01/0606Z \n  PROB40 \n  TEMPO 0512/0522 5000 RA BKN010 OVC025 \n  PROB30 \n  TEMPO 0518/0606 FZRA \n  PROB40 \n  TEMPO 0522/0612 2500 SNRA BKN008 OVC020",
      "metarHtml": "METAR LQSA 051130Z VRB02KT 7000 -<span class=\"hl\">FZRA</span> FEW008 SCT015 BKN055 M00/M00 Q1007 NOSIG",
      "tafHtml": "TAF LQSA 051100Z 0512/0612 VRB02KT 9999 SCT008 BKN035 TX02/0514Z TNM01/0606Z \n  PROB40 \n  TEMPO 0512/0522 5000 <span class=\"hl\">RA</span> BKN010 OVC025 \n  PROB30 \n  TEMPO 0518/0606 <span class=\"hl\">FZRA</span> \n  PROB40 \n  TEMPO 0522/0612 2500 SNRA BKN008 OVC020"
    },
    {
      "icao": "EKCH",
      "iata": "CPH",
      "name": "Copenhagen Kastrup Airport",
      "updatedAt": "051120Z",
      "visibility_m": 1200,
      "taf_visibility_m": 1000,
      "worst_visibility_m": 1000,
      "ceiling_ft": 600,
      "hazards": [
        "SHSN"
      ],
      "severityScore": 45,
      "metarRaw": "METAR EKCH 051120Z 03002KT 9999 FEW005 BKN050 M02/M03 Q1009 TEMPO 1200 SHSN BKN006 SCT020CB",
      "tafRaw": "TAF EKCH 051127Z 0512/0612 12010KT 9999 BKN030 \n  TEMPO 0512/0522 1000 SHSN BKN006 SCT020CB \n  BECMG 0512/0513 20006KT",
      "metarHtml": "METAR EKCH 051120Z 03002KT 9999 FEW005 BKN050 M02/M03 Q1009 TEMPO 1200 <span class=\"hl\">SHSN</span> BKN006 SCT020CB",
      "tafHtml": "TAF EKCH 051127Z 0512/0612 12010KT 9999 BKN030 \n  TEMPO 0512/0522 1000 <span class=\"hl\">SHSN</span> BKN006 SCT020CB \n  BECMG 0512/0513 20006KT"
    },
    {
      "icao": "ESGG",
      "iata": "GOT",
      "name": "Göteborg Landvetter Airport",
      "updatedAt": "051120Z",
      "visibility_m": 5000,
      "taf_visibility_m": 4000,
      "worst_visibility_m": 4000,
      "ceiling_ft": 900,
      "hazards": [
        "SN"
      ],
      "severityScore": 43,
      "metarRaw": "METAR ESGG 051120Z 11006KT 5000 -SN BKN009 OVC013 M05/M07 Q1010",
      "tafRaw": "TAF ESGG 051130Z 0512/0612 09006KT 9999 -SN FEW015 BKN040 \n  TEMPO 0512/0515 4000 BKN010",
      "metarHtml": "METAR ESGG 051120Z 11006KT 5000 -<span class=\"hl\">SN</span> BKN009 OVC013 M05/M07 Q1010",
      "tafHtml": "TAF ESGG 051130Z 0512/0612 09006KT 9999 -<span class=\"hl\">SN</span> FEW015 BKN040 \n  TEMPO 0512/0515 4000 BKN010"
    },
    {
      "icao": "EHBK",
      "iata": "MST",
      "name": "Maastricht Aachen Airport",
      "updatedAt": "051125Z",
      "visibility_m": 10000,
      "taf_visibility_m": 1200,
      "worst_visibility_m": 1200,
      "ceiling_ft": 1500,
      "hazards": [
        "BR",
        "SHSN"
      ],
      "severityScore": 42,
      "metarRaw": "METAR EHBK 051125Z AUTO 21014KT 9999 OVC015 M01/M04 Q1011 NOSIG",
      "tafRaw": "TAF EHBK 051119Z 0512/0618 21012KT 9999 BKN025 \n  PROB40 \n  TEMPO 0514/0517 2500 -SHSN BKN005 SCT015CB \n  PROB30 \n  TEMPO 0521/0604 2500 -SHSN BKN005 SCT015CB \n  BECMG 0522/0601 25005KT 4000 BR BKN004 \n  PROB30 0602/0608 1200 BKN002 \n  BECMG 0608/0611 CAVOK \n  BECMG 0615/0618 21010KT",
      "metarHtml": "METAR EHBK 051125Z AUTO 21014KT 9999 OVC015 M01/M04 Q1011 NOSIG",
      "tafHtml": "TAF EHBK 051119Z 0512/0618 21012KT 9999 BKN025 \n  PROB40 \n  TEMPO 0514/0517 2500 -<span class=\"hl\">SHSN</span> BKN005 SCT015CB \n  PROB30 \n  TEMPO 0521/0604 2500 -<span class=\"hl\">SHSN</span> BKN005 SCT015CB \n  BECMG 0522/0601 25005KT 4000 <span class=\"hl\">BR</span> BKN004 \n  PROB30 0602/0608 1200 BKN002 \n  BECMG 0608/0611 <span class=\"hl-vis\">CAVOK</span> \n  BECMG 0615/0618 21010KT"
    },
    {
      "icao": "LEVC",
      "iata": "VLC",
      "name": "Valencia Airport",
      "updatedAt": "051130Z",
      "visibility_m": 10000,
      "taf_visibility_m": 3000,
      "worst_visibility_m": 3000,
      "ceiling_ft": 700,
      "hazards": [
        "SHRA"
      ],
      "severityScore": 39,
      "metarRaw": "METAR LEVC 051130Z 33007KT 300V360 9999 BKN007 07/06 Q1010 NOSIG",
      "tafRaw": "TAF LEVC 051100Z 0512/0612 VRB04KT 9999 BKN015 TX10/0514Z TN00/0606Z \n  TEMPO 0514/0522 3000 SHRA FEW020TCU",
      "metarHtml": "METAR LEVC 051130Z 33007KT 300V360 9999 BKN007 07/06 Q1010 NOSIG",
      "tafHtml": "TAF LEVC 051100Z 0512/0612 VRB04KT 9999 BKN015 TX10/0514Z TN00/0606Z \n  TEMPO 0514/0522 3000 <span class=\"hl\">SHRA</span> FEW020TCU"
    },
    {
      "icao": "LIBD",
      "iata": "BRI",
      "name": "Bari Karol Wojtyła International Airport",
      "updatedAt": "051120Z",
      "visibility_m": 10000,
      "taf_visibility_m": 4000,
      "worst_visibility_m": 4000,
      "ceiling_ft": null,
      "hazards": [
        "TSRA",
        "SHRA"
      ],
      "severityScore": 39,
      "metarRaw": "METAR LIBD 051120Z 17006KT 9999 FEW030 17/13 Q1004",
      "tafRaw": "TAF LIBD 051100Z 0512/0612 15008KT 9999 FEW040 \n  PROB30 \n  TEMPO 0512/0516 4000 TSRA BKN010 \n  BECMG 0515/0517 29010KT \n  PROB30 \n  TEMPO 0516/0520 4000 SHRA \n  BECMG 0522/0524 VRB05KT \n  BECMG 0608/0610 10010KT",
      "metarHtml": "METAR LIBD 051120Z 17006KT 9999 FEW030 17/13 Q1004",
      "tafHtml": "TAF LIBD 051100Z 0512/0612 15008KT 9999 FEW040 \n  PROB30 \n  TEMPO 0512/0516 4000 <span class=\"hl\">TSRA</span> BKN010 \n  BECMG 0515/0517 29010KT \n  PROB30 \n  TEMPO 0516/0520 4000 <span class=\"hl\">SHRA</span> \n  BECMG 0522/0524 VRB05KT \n  BECMG 0608/0610 10010KT"
    },
    {
      "icao": "EDDK",
      "iata": "CGN",
      "name": "Cologne Bonn Airport",
      "updatedAt": "051120Z",
      "visibility_m": 10000,
      "taf_visibility_m": 3000,
      "worst_visibility_m": 3000,
      "ceiling_ft": null,
      "hazards": [
        "BR",
        "SN",
        "SHSN"
      ],
      "severityScore": 38,
      "metarRaw": "METAR EDDK 051120Z AUTO 16011KT 9999 FEW046 M01/M05 Q1012 NOSIG",
      "tafRaw": "TAF EDDK 050500Z 0506/0612 16005KT 9999 SCT025 \n  TEMPO 0512/0519 3000 -SHSN BKN010TCU \n  TEMPO 0523/0611 BKN010 \n  PROB30 \n  TEMPO 0523/0605 3000 -SN BKN006 \n  BECMG 0601/0604 25004KT \n  PROB30 \n  TEMPO 0605/0610 3000 BR BKN006",
      "metarHtml": "METAR EDDK 051120Z AUTO 16011KT 9999 FEW046 M01/M05 Q1012 NOSIG",
      "tafHtml": "TAF EDDK 050500Z 0506/0612 16005KT 9999 SCT025 \n  TEMPO 0512/0519 3000 -<span class=\"hl\">SHSN</span> BKN010TCU \n  TEMPO 0523/0611 BKN010 \n  PROB30 \n  TEMPO 0523/0605 3000 -<span class=\"hl\">SN</span> BKN006 \n  BECMG 0601/0604 25004KT \n  PROB30 \n  TEMPO 0605/0610 3000 <span class=\"hl\">BR</span> BKN006"
    },
    {
      "icao": "EDLW",
      "iata": "DTM",
      "name": "Dortmund Airport",
      "updatedAt": "051120Z",
      "visibility_m": 10000,
      "taf_visibility_m": 3000,
      "worst_visibility_m": 3000,
      "ceiling_ft": null,
      "hazards": [
        "BR",
        "SN",
        "SHSN"
      ],
      "severityScore": 38,
      "metarRaw": "METAR EDLW 051120Z 18014KT CAVOK M02/M06 Q1010",
      "tafRaw": "TAF EDLW 050500Z 0506/0606 19009KT 9999 SCT020 \n  TEMPO 0513/0519 3000 -SHSN BKN010TCU \n  TEMPO 0522/0606 BKN010 \n  PROB30 \n  TEMPO 0522/0603 3000 -SN BR BKN006 \n  BECMG 0600/0603 25007KT \n  PROB40 \n  TEMPO 0603/0606 3000 -SN BR BKN004",
      "metarHtml": "METAR EDLW 051120Z 18014KT <span class=\"hl-vis\">CAVOK</span> M02/M06 Q1010",
      "tafHtml": "TAF EDLW 050500Z 0506/0606 19009KT 9999 SCT020 \n  TEMPO 0513/0519 3000 -<span class=\"hl\">SHSN</span> BKN010TCU \n  TEMPO 0522/0606 BKN010 \n  PROB30 \n  TEMPO 0522/0603 3000 -<span class=\"hl\">SN</span> <span class=\"hl\">BR</span> BKN006 \n  BECMG 0600/0603 25007KT \n  PROB40 \n  TEMPO 0603/0606 3000 -<span class=\"hl\">SN</span> <span class=\"hl\">BR</span> BKN004"
    },
    {
      "icao": "EKBI",
      "iata": "BLL",
      "name": "Billund Airport",
      "updatedAt": "051120Z",
      "visibility_m": 2400,
      "taf_visibility_m": 1400,
      "worst_visibility_m": 1400,
      "ceiling_ft": null,
      "hazards": [
        "SN",
        "SHSN"
      ],
      "severityScore": 38,
      "metarRaw": "METAR EKBI 051120Z AUTO 06008KT 2400 -SN OVC007/// M02/M03 Q1007",
      "tafRaw": "TAF EKBI 051127Z 0512/0612 05008KT 9999 BKN008 \n  TEMPO 0512/0524 1400 SHSN SCT015CB \n  BECMG 0600/0602 FEW020 \n  TEMPO 0602/0612 BKN004",
      "metarHtml": "METAR EKBI 051120Z AUTO 06008KT 2400 -<span class=\"hl\">SN</span> OVC007/// M02/M03 Q1007",
      "tafHtml": "TAF EKBI 051127Z 0512/0612 05008KT 9999 BKN008 \n  TEMPO 0512/0524 1400 <span class=\"hl\">SHSN</span> SCT015CB \n  BECMG 0600/0602 FEW020 \n  TEMPO 0602/0612 BKN004"
    },
    {
      "icao": "EPGD",
      "iata": "GDN",
      "name": "Gdańsk Lech Wałęsa Airport",
      "updatedAt": "051130Z",
      "visibility_m": 8000,
      "taf_visibility_m": 1200,
      "worst_visibility_m": 1200,
      "ceiling_ft": null,
      "hazards": [
        "BR",
        "SN"
      ],
      "severityScore": 38,
      "metarRaw": "METAR EPGD 051130Z 22009KT 8000 FEW002 M06/M07 Q1013",
      "tafRaw": "TAF EPGD 051130Z 0512/0612 20007KT CAVOK \n  TEMPO 0512/0516 1200 BR BKN003 \n  TEMPO 0516/0610 4000 -SN BR BKN006",
      "metarHtml": "METAR EPGD 051130Z 22009KT 8000 FEW002 M06/M07 Q1013",
      "tafHtml": "TAF EPGD 051130Z 0512/0612 20007KT <span class=\"hl-vis\">CAVOK</span> \n  TEMPO 0512/0516 1200 <span class=\"hl\">BR</span> BKN003 \n  TEMPO 0516/0610 4000 -<span class=\"hl\">SN</span> <span class=\"hl\">BR</span> BKN006"
    },
    {
      "icao": "LEXJ",
      "iata": "SDR",
      "name": "Seve Ballesteros-Santander Airport",
      "updatedAt": "051130Z",
      "visibility_m": 10000,
      "taf_visibility_m": 1500,
      "worst_visibility_m": 1500,
      "ceiling_ft": null,
      "hazards": [
        "RA",
        "SHRA"
      ],
      "severityScore": 36,
      "metarRaw": "METAR LEXJ 051130Z 14005KT 110V170 9999 FEW040 08/00 Q1016",
      "tafRaw": "TAF LEXJ 050800Z 0509/0609 22005KT 9999 SCT040 TX08/0514Z TN03/0520Z \n  PROB40 \n  TEMPO 0600/0609 3000 RA BKN010 \n  PROB30 \n  TEMPO 0600/0609 1500 SHRA SCT025TCU \n  BECMG 0602/0604 01010KT \n  PROB40 \n  TEMPO 0603/0609 01020G32KT",
      "metarHtml": "METAR LEXJ 051130Z 14005KT 110V170 9999 FEW040 08/00 Q1016",
      "tafHtml": "TAF LEXJ 050800Z 0509/0609 22005KT 9999 SCT040 TX08/0514Z TN03/0520Z \n  PROB40 \n  TEMPO 0600/0609 3000 <span class=\"hl\">RA</span> BKN010 \n  PROB30 \n  TEMPO 0600/0609 1500 <span class=\"hl\">SHRA</span> SCT025TCU \n  BECMG 0602/0604 01010KT \n  PROB40 \n  TEMPO 0603/0609 01020G32KT"
    },
    {
      "icao": "EDSB",
      "iata": "FKB",
      "name": "Karlsruhe Baden-Baden Airport",
      "updatedAt": "051120Z",
      "visibility_m": 10000,
      "taf_visibility_m": 3000,
      "worst_visibility_m": 3000,
      "ceiling_ft": 600,
      "hazards": [
        "BR"
      ],
      "severityScore": 35,
      "metarRaw": "METAR EDSB 051120Z 17003KT 140V200 9999 BKN006 M04/M05 Q1015",
      "tafRaw": "TAF EDSB 051100Z 0512/0612 19004KT 3000 BR BKN002 \n  BECMG 0513/0516 8000 SCT005",
      "metarHtml": "METAR EDSB 051120Z 17003KT 140V200 9999 BKN006 M04/M05 Q1015",
      "tafHtml": "TAF EDSB 051100Z 0512/0612 19004KT 3000 <span class=\"hl\">BR</span> BKN002 \n  BECMG 0513/0516 8000 SCT005"
    },
    {
      "icao": "EPSY",
      "iata": "SZY",
      "name": "Olsztyn-Mazury Airport",
      "updatedAt": "051130Z",
      "visibility_m": 9000,
      "taf_visibility_m": 2000,
      "worst_visibility_m": 2000,
      "ceiling_ft": 600,
      "hazards": [
        "BR"
      ],
      "severityScore": 35,
      "metarRaw": "METAR EPSY 051130Z 21005KT 9000 BKN006 M03/M04 Q1014",
      "tafRaw": "TAF EPSY 051130Z 0512/0521 20008KT 7000 SCT010 \n  TEMPO 0512/0514 BKN005 \n  PROB40 0515/0521 2000 BR BKN003",
      "metarHtml": "METAR EPSY 051130Z 21005KT 9000 BKN006 M03/M04 Q1014",
      "tafHtml": "TAF EPSY 051130Z 0512/0521 20008KT 7000 SCT010 \n  TEMPO 0512/0514 BKN005 \n  PROB40 0515/0521 2000 <span class=\"hl\">BR</span> BKN003"
    },
    {
      "icao": "ESKN",
      "iata": "NYO",
      "name": "Stockholm Skavsta Airport",
      "updatedAt": "051120Z",
      "visibility_m": 10000,
      "taf_visibility_m": 700,
      "worst_visibility_m": 700,
      "ceiling_ft": null,
      "hazards": [
        "SHSN"
      ],
      "severityScore": 35,
      "metarRaw": "METAR ESKN 051120Z 05010KT 9999 SCT037 M05/M08 Q1013",
      "tafRaw": "TAF ESKN 051130Z 0512/0612 06009KT 9999 BKN035 \n  TEMPO 0517/0524 0700 SHSN BKN007 BKN025CB \n  TEMPO 0600/0608 1400 SHSN BKN009 BKN025CB",
      "metarHtml": "METAR ESKN 051120Z 05010KT 9999 SCT037 M05/M08 Q1013",
      "tafHtml": "TAF ESKN 051130Z 0512/0612 06009KT 9999 BKN035 \n  TEMPO 0517/0524 <span class=\"hl-vis\">0700</span> <span class=\"hl\">SHSN</span> BKN007 BKN025CB \n  TEMPO 0600/0608 1400 <span class=\"hl\">SHSN</span> BKN009 BKN025CB"
    },
    {
      "icao": "ENZV",
      "iata": "SVG",
      "name": "Stavanger Airport, Sola",
      "updatedAt": "051120Z",
      "visibility_m": 1500,
      "taf_visibility_m": 1200,
      "worst_visibility_m": 1200,
      "ceiling_ft": 1200,
      "hazards": [
        "SHSN"
      ],
      "severityScore": 32,
      "metarRaw": "METAR ENZV 051120Z 11006KT 9999 VCSH FEW034 SCT041 M02/M09 Q1010 TEMPO 1500 -SHSN VV012",
      "tafRaw": "TAF ENZV 051100Z 0512/0612 12008KT 9999 FEW020 BKN040 \n  TEMPO 0512/0612 1200 SHSNGS VV008 \n  TEMPO 0512/0612 SCT030CB",
      "metarHtml": "METAR ENZV 051120Z 11006KT 9999 VCSH FEW034 SCT041 M02/M09 Q1010 TEMPO 1500 -<span class=\"hl\">SHSN</span> VV012",
      "tafHtml": "TAF ENZV 051100Z 0512/0612 12008KT 9999 FEW020 BKN040 \n  TEMPO 0512/0612 1200 SHSNGS VV008 \n  TEMPO 0512/0612 SCT030CB"
    },
    {
      "icao": "ENTO",
      "iata": "TRF",
      "name": "Sandefjord Airport, Torp",
      "updatedAt": "051120Z",
      "visibility_m": 4000,
      "taf_visibility_m": 2500,
      "worst_visibility_m": 2500,
      "ceiling_ft": 1900,
      "hazards": [
        "SN"
      ],
      "severityScore": 30,
      "metarRaw": "METAR ENTO 051120Z 35006KT 9000 -SN SCT012 BKN019 OVC027 M07/M08 Q1013 TEMPO 4000",
      "tafRaw": "TAF ENTO 051100Z 0512/0612 02008KT 9999 BKN025 \n  TEMPO 0512/0518 2500 -SN VV012",
      "metarHtml": "METAR ENTO 051120Z 35006KT 9000 -<span class=\"hl\">SN</span> SCT012 BKN019 OVC027 M07/M08 Q1013 TEMPO 4000",
      "tafHtml": "TAF ENTO 051100Z 0512/0612 02008KT 9999 BKN025 \n  TEMPO 0512/0518 2500 -<span class=\"hl\">SN</span> VV012"
    },
    {
      "icao": "EYKA",
      "iata": "KUN",
      "name": "Kaunas International Airport",
      "updatedAt": "051120Z",
      "visibility_m": 9000,
      "taf_visibility_m": 1500,
      "worst_visibility_m": 1500,
      "ceiling_ft": 2200,
      "hazards": [
        "SHSN",
        "BR"
      ],
      "severityScore": 30,
      "metarRaw": "METAR EYKA 051120Z 20006KT 150V240 9000 2100W SHSN FEW004 SCT013CB OVC022 M03/M06 Q1013",
      "tafRaw": "TAF EYKA 051108Z 0512/0612 21012KT 9000 SCT010 OVC015 \n  TEMPO 0512/0518 BKN012CB \n  BECMG 0518/0520 VRB04KT SCT010 SCT020 \n  TEMPO 0600/0608 1500 BR BKN005 \n  BECMG 0608/0610 09014KT",
      "metarHtml": "METAR EYKA 051120Z 20006KT 150V240 9000 2100W <span class=\"hl\">SHSN</span> FEW004 SCT013CB OVC022 M03/M06 Q1013",
      "tafHtml": "TAF EYKA 051108Z 0512/0612 21012KT 9000 SCT010 OVC015 \n  TEMPO 0512/0518 BKN012CB \n  BECMG 0518/0520 VRB04KT SCT010 SCT020 \n  TEMPO 0600/0608 1500 <span class=\"hl\">BR</span> BKN005 \n  BECMG 0608/0610 09014KT"
    },
    {
      "icao": "EGNM",
      "iata": "LBA",
      "name": "Leeds Bradford Airport",
      "updatedAt": "051120Z",
      "visibility_m": 10000,
      "taf_visibility_m": 4000,
      "worst_visibility_m": 4000,
      "ceiling_ft": null,
      "hazards": [
        "SN",
        "SHSN"
      ],
      "severityScore": 28,
      "metarRaw": "METAR EGNM 051120Z 31011KT CAVOK M01/M05 Q1013",
      "tafRaw": "TAF EGNM 051101Z 0512/0612 31012KT 9999 FEW020 \n  PROB30 \n  TEMPO 0512/0515 4000 -SHSN BKN009 \n  TEMPO 0607/0612 BKN010 \n  PROB30 \n  TEMPO 0607/0611 6000 -SN BKN007",
      "metarHtml": "METAR EGNM 051120Z 31011KT <span class=\"hl-vis\">CAVOK</span> M01/M05 Q1013",
      "tafHtml": "TAF EGNM 051101Z 0512/0612 31012KT 9999 FEW020 \n  PROB30 \n  TEMPO 0512/0515 4000 -<span class=\"hl\">SHSN</span> BKN009 \n  TEMPO 0607/0612 BKN010 \n  PROB30 \n  TEMPO 0607/0611 6000 -<span class=\"hl\">SN</span> BKN007"
    },
    {
      "icao": "EPSC",
      "iata": "SZZ",
      "name": "Solidarity Szczecin–Goleniów Airport",
      "updatedAt": "051130Z",
      "visibility_m": 10000,
      "taf_visibility_m": 4000,
      "worst_visibility_m": 4000,
      "ceiling_ft": null,
      "hazards": [
        "BR",
        "SN"
      ],
      "severityScore": 28,
      "metarRaw": "METAR EPSC 051130Z 16005KT 9999 FEW029 M01/M02 Q1012",
      "tafRaw": "TAF EPSC 051130Z 0512/0612 16007KT 9999 BKN025 \n  TEMPO 0512/0612 4000 -SN BR BKN006 BKN012",
      "metarHtml": "METAR EPSC 051130Z 16005KT 9999 FEW029 M01/M02 Q1012",
      "tafHtml": "TAF EPSC 051130Z 0512/0612 16007KT 9999 BKN025 \n  TEMPO 0512/0612 4000 -<span class=\"hl\">SN</span> <span class=\"hl\">BR</span> BKN006 BKN012"
    },
    {
      "icao": "LHBP",
      "iata": "BUD",
      "name": "Budapest Liszt Ferenc International Airport",
      "updatedAt": "051130Z",
      "visibility_m": 6000,
      "taf_visibility_m": 1200,
      "worst_visibility_m": 1200,
      "ceiling_ft": 5500,
      "hazards": [
        "SN"
      ],
      "severityScore": 28,
      "metarRaw": "METAR LHBP 051130Z 04007KT CAVOK 00/M05 Q1013 BECMG 6000 -SN SCT015 OVC055",
      "tafRaw": "TAF LHBP 051115Z 0512/0612 06007KT CAVOK \n  BECMG 0512/0514 5000 -SN BKN015 OVC030 \n  TEMPO 0514/0601 1200 SN BKN004 OVC020 \n  BECMG 0517/0520 34006KT \n  BECMG 0603/0606 9999 NSW BKN030 \n  BECMG 0606/0609 CAVOK",
      "metarHtml": "METAR LHBP 051130Z 04007KT <span class=\"hl-vis\">CAVOK</span> 00/M05 Q1013 BECMG 6000 -<span class=\"hl\">SN</span> SCT015 OVC055",
      "tafHtml": "TAF LHBP 051115Z 0512/0612 06007KT <span class=\"hl-vis\">CAVOK</span> \n  BECMG 0512/0514 5000 -<span class=\"hl\">SN</span> BKN015 OVC030 \n  TEMPO 0514/0601 1200 <span class=\"hl\">SN</span> BKN004 OVC020 \n  BECMG 0517/0520 34006KT \n  BECMG 0603/0606 9999 NSW BKN030 \n  BECMG 0606/0609 <span class=\"hl-vis\">CAVOK</span>"
    },
    {
      "icao": "LJLJ",
      "iata": "LJU",
      "name": "Ljubljana Jože Pučnik Airport",
      "updatedAt": "051130Z",
      "visibility_m": 8000,
      "taf_visibility_m": 2000,
      "worst_visibility_m": 2000,
      "ceiling_ft": 4500,
      "hazards": [
        "SN",
        "BR"
      ],
      "severityScore": 28,
      "metarRaw": "METAR LJLJ 051130Z VRB01KT 8000 -SN FEW010 BKN045 OVC060 M01/M04 Q1010 NOSIG",
      "tafRaw": "TAF LJLJ 051100Z 0512/0612 10004KT 7000 SCT025 OVC040 \n  TEMPO 0512/0612 3500 -SN BR \n  PROB30 \n  TEMPO 0608/0612 2000 SN",
      "metarHtml": "METAR LJLJ 051130Z VRB01KT 8000 -<span class=\"hl\">SN</span> FEW010 BKN045 OVC060 M01/M04 Q1010 NOSIG",
      "tafHtml": "TAF LJLJ 051100Z 0512/0612 10004KT 7000 SCT025 OVC040 \n  TEMPO 0512/0612 3500 -<span class=\"hl\">SN</span> <span class=\"hl\">BR</span> \n  PROB30 \n  TEMPO 0608/0612 2000 <span class=\"hl\">SN</span>"
    },
    {
      "icao": "LRIA",
      "iata": "IAS",
      "name": "Iaşi Airport",
      "updatedAt": "051130Z",
      "visibility_m": 3800,
      "taf_visibility_m": 1500,
      "worst_visibility_m": 1500,
      "ceiling_ft": 3800,
      "hazards": [
        "SN"
      ],
      "severityScore": 28,
      "metarRaw": "METAR LRIA 051130Z 10008KT 3800 -SN OVC038 M01/M02 Q1020",
      "tafRaw": "TAF LRIA 051100Z 0512/0521 11008KT 7000 -SN BKN025 \n  BECMG 0512/0513 5000 -SN \n  BECMG 0513/0515 3000 SN BKN015 OVC025 \n  BECMG 0515/0517 BKN007 OVC015 \n  TEMPO 0515/0520 1500 SN",
      "metarHtml": "METAR LRIA 051130Z 10008KT 3800 -<span class=\"hl\">SN</span> OVC038 M01/M02 Q1020",
      "tafHtml": "TAF LRIA 051100Z 0512/0521 11008KT 7000 -<span class=\"hl\">SN</span> BKN025 \n  BECMG 0512/0513 5000 -<span class=\"hl\">SN</span> \n  BECMG 0513/0515 3000 <span class=\"hl\">SN</span> BKN015 OVC025 \n  BECMG 0515/0517 BKN007 OVC015 \n  TEMPO 0515/0520 1500 <span class=\"hl\">SN</span>"
    },
    {
      "icao": "LRSV",
      "iata": "SCV",
      "name": "Suceava Stefan cel Mare Airport",
      "updatedAt": "051130Z",
      "visibility_m": 6000,
      "taf_visibility_m": 1500,
      "worst_visibility_m": 1500,
      "ceiling_ft": null,
      "hazards": [
        "SN"
      ],
      "severityScore": 28,
      "metarRaw": "METAR LRSV 051130Z 14014KT 6000 -SN SCT011 M02/M03 Q1017",
      "tafRaw": "TAF LRSV 051100Z 0512/0521 14012KT 5000 -SN SCT015 BKN045 \n  BECMG 0514/0516 3000 SN BKN010 OVC020 \n  PROB40 \n  TEMPO 0517/0520 1500 SN BKN005 OVC010",
      "metarHtml": "METAR LRSV 051130Z 14014KT 6000 -<span class=\"hl\">SN</span> SCT011 M02/M03 Q1017",
      "tafHtml": "TAF LRSV 051100Z 0512/0521 14012KT 5000 -<span class=\"hl\">SN</span> SCT015 BKN045 \n  BECMG 0514/0516 3000 <span class=\"hl\">SN</span> BKN010 OVC020 \n  PROB40 \n  TEMPO 0517/0520 1500 <span class=\"hl\">SN</span> BKN005 OVC010"
    },
    {
      "icao": "LZKZ",
      "iata": "KSC",
      "name": "Košice International Airport",
      "updatedAt": "051130Z",
      "visibility_m": 10000,
      "taf_visibility_m": 1200,
      "worst_visibility_m": 1200,
      "ceiling_ft": null,
      "hazards": [
        "SN"
      ],
      "severityScore": 28,
      "metarRaw": "METAR LZKZ 051130Z 02011KT 9999 FEW018 M02/M06 Q1014 NOSIG",
      "tafRaw": "TAF LZKZ 051115Z 0512/0612 02009KT CAVOK \n  BECMG 0514/0516 7000 -SN FEW018 BKN025 \n  TEMPO 0518/0601 1200 SN BKN008 OVC020 \n  BECMG 0603/0605 CAVOK",
      "metarHtml": "METAR LZKZ 051130Z 02011KT 9999 FEW018 M02/M06 Q1014 NOSIG",
      "tafHtml": "TAF LZKZ 051115Z 0512/0612 02009KT <span class=\"hl-vis\">CAVOK</span> \n  BECMG 0514/0516 7000 -<span class=\"hl\">SN</span> FEW018 BKN025 \n  TEMPO 0518/0601 1200 <span class=\"hl\">SN</span> BKN008 OVC020 \n  BECMG 0603/0605 <span class=\"hl-vis\">CAVOK</span>"
    },
    {
      "icao": "GMMX",
      "iata": "RAK",
      "name": "Menara Airport",
      "updatedAt": "051130Z",
      "visibility_m": 3000,
      "taf_visibility_m": 3000,
      "worst_visibility_m": 3000,
      "ceiling_ft": 2300,
      "hazards": [
        "RA",
        "SHRA"
      ],
      "severityScore": 26,
      "metarRaw": "METAR GMMX 051130Z 25009KT 200V290 6000 SCT006 BKN023 14/13 Q1012 TEMPO 3000 RA",
      "tafRaw": "TAF GMMX 051100Z 0512/0618 26008KT 8000 SCT023 BKN080 \n  TEMPO 0512/0522 34020KT 3000 SHRA SCT006 BKN020 FEW030TCU",
      "metarHtml": "METAR GMMX 051130Z 25009KT 200V290 6000 SCT006 BKN023 14/13 Q1012 TEMPO 3000 <span class=\"hl\">RA</span>",
      "tafHtml": "TAF GMMX 051100Z 0512/0618 26008KT 8000 SCT023 BKN080 \n  TEMPO 0512/0522 34020KT 3000 <span class=\"hl\">SHRA</span> SCT006 BKN020 FEW030TCU"
    },
    {
      "icao": "LATI",
      "iata": "TIA",
      "name": "Tirana International Airport Mother Teresa",
      "updatedAt": "051120Z",
      "visibility_m": 10000,
      "taf_visibility_m": 5000,
      "worst_visibility_m": 5000,
      "ceiling_ft": 13000,
      "hazards": [
        "RA",
        "SHRA"
      ],
      "severityScore": 26,
      "metarRaw": "METAR LATI 051120Z 18015KT 9999 BKN130 18/07 Q1009 NOSIG",
      "tafRaw": "TAF LATI 051100Z 0512/0612 16012KT 9999 SCT035 BKN080 TX18/0512Z TN11/0604Z \n  TEMPO 0513/0517 16012G25KT \n  TEMPO 0523/0606 RA BKN025 OVC050 \n  PROB40 \n  TEMPO 0601/0604 VRB10G25KT 5000 SHRA FEW025CB",
      "metarHtml": "METAR LATI 051120Z 18015KT 9999 BKN130 18/07 Q1009 NOSIG",
      "tafHtml": "TAF LATI 051100Z 0512/0612 16012KT 9999 SCT035 BKN080 TX18/0512Z TN11/0604Z \n  TEMPO 0513/0517 16012G25KT \n  TEMPO 0523/0606 <span class=\"hl\">RA</span> BKN025 OVC050 \n  PROB40 \n  TEMPO 0601/0604 VRB10G25KT 5000 <span class=\"hl\">SHRA</span> FEW025CB"
    },
    {
      "icao": "LEAL",
      "iata": "ALC",
      "name": "Alicante-Elche Miguel Hernández Airport",
      "updatedAt": "051130Z",
      "visibility_m": 10000,
      "taf_visibility_m": 3000,
      "worst_visibility_m": 3000,
      "ceiling_ft": 4700,
      "hazards": [
        "RA",
        "SHRA"
      ],
      "severityScore": 26,
      "metarRaw": "METAR LEAL 051130Z 03006KT 350V060 9999 SCT020 OVC047 11/08 Q1008 NOSIG",
      "tafRaw": "TAF LEAL 051100Z 0512/0612 VRB04KT 9999 SCT020 TX13/0514Z TN04/0606Z \n  TEMPO 0512/0608 3000 RA SHRA BKN015 FEW020TCU \n  TEMPO 0515/0520 06010KT",
      "metarHtml": "METAR LEAL 051130Z 03006KT 350V060 9999 SCT020 OVC047 11/08 Q1008 NOSIG",
      "tafHtml": "TAF LEAL 051100Z 0512/0612 VRB04KT 9999 SCT020 TX13/0514Z TN04/0606Z \n  TEMPO 0512/0608 3000 <span class=\"hl\">RA</span> <span class=\"hl\">SHRA</span> BKN015 FEW020TCU \n  TEMPO 0515/0520 06010KT"
    },
    {
      "icao": "LIRF",
      "iata": "FCO",
      "name": "Rome–Fiumicino Leonardo da Vinci International Airport",
      "updatedAt": "051120Z",
      "visibility_m": 8000,
      "taf_visibility_m": 3000,
      "worst_visibility_m": 3000,
      "ceiling_ft": null,
      "hazards": [
        "RA",
        "SHRA"
      ],
      "severityScore": 26,
      "metarRaw": "METAR LIRF 051120Z 34003KT 300V060 8000 RA FEW008 SCT015 12/12 Q1003 RESHRA NOSIG",
      "tafRaw": "TAF LIRF 051100Z 0512/0618 10010KT 8000 SCT020 \n  TEMPO 0512/0518 4000 SHRA \n  BECMG 0600/0602 03010KT \n  TEMPO 0600/0612 3000 SHRA",
      "metarHtml": "METAR LIRF 051120Z 34003KT 300V060 8000 <span class=\"hl\">RA</span> FEW008 SCT015 12/12 Q1003 RESHRA NOSIG",
      "tafHtml": "TAF LIRF 051100Z 0512/0618 10010KT 8000 SCT020 \n  TEMPO 0512/0518 4000 <span class=\"hl\">SHRA</span> \n  BECMG 0600/0602 03010KT \n  TEMPO 0600/0612 3000 <span class=\"hl\">SHRA</span>"
    },
    {
      "icao": "LIRN",
      "iata": "NAP",
      "name": "Naples International Airport",
      "updatedAt": "051120Z",
      "visibility_m": 10000,
      "taf_visibility_m": 4000,
      "worst_visibility_m": 4000,
      "ceiling_ft": null,
      "hazards": [
        "RA",
        "SHRA"
      ],
      "severityScore": 26,
      "metarRaw": "METAR LIRN 051120Z VRB02KT 9999 SCT080 16/10 Q1004 NOSIG",
      "tafRaw": "TAF LIRN 051100Z 0512/0612 VRB06KT 9999 SCT020 SCT050 \n  TEMPO 0600/0606 4000 SHRA \n  BECMG 0605/0607 18010KT \n  TEMPO 0606/0612 4000 RA",
      "metarHtml": "METAR LIRN 051120Z VRB02KT 9999 SCT080 16/10 Q1004 NOSIG",
      "tafHtml": "TAF LIRN 051100Z 0512/0612 VRB06KT 9999 SCT020 SCT050 \n  TEMPO 0600/0606 4000 <span class=\"hl\">SHRA</span> \n  BECMG 0605/0607 18010KT \n  TEMPO 0606/0612 4000 <span class=\"hl\">RA</span>"
    },
    {
      "icao": "LBWN",
      "iata": "VAR",
      "name": "Varna Airport",
      "updatedAt": "051130Z",
      "visibility_m": 10000,
      "taf_visibility_m": 10000,
      "worst_visibility_m": 10000,
      "ceiling_ft": 1500,
      "hazards": [
        "RA"
      ],
      "severityScore": 24,
      "metarRaw": "METAR LBWN 051130Z 12009KT 9999 -RA SCT014 BKN015 11/11 Q1015 NOSIG",
      "tafRaw": "TAF LBWN 051100Z 0512/0612 10010KT 9999 SCT010 OVC020 \n  PROB40 \n  TEMPO 0602/0605 RA OVC010 \n  BECMG 0607/0609 21012KT",
      "metarHtml": "METAR LBWN 051130Z 12009KT 9999 -<span class=\"hl\">RA</span> SCT014 BKN015 11/11 Q1015 NOSIG",
      "tafHtml": "TAF LBWN 051100Z 0512/0612 10010KT 9999 SCT010 OVC020 \n  PROB40 \n  TEMPO 0602/0605 <span class=\"hl\">RA</span> OVC010 \n  BECMG 0607/0609 21012KT"
    },
    {
      "icao": "EDDH",
      "iata": "HAM",
      "name": "Hamburg Helmut Schmidt Airport",
      "updatedAt": "051120Z",
      "visibility_m": 10000,
      "taf_visibility_m": 2000,
      "worst_visibility_m": 2000,
      "ceiling_ft": 1300,
      "hazards": [
        "SHSN"
      ],
      "severityScore": 22,
      "metarRaw": "METAR EDDH 051120Z AUTO 19009KT 9999 BKN013 BKN044 M00/M03 Q1009 BECMG BKN015",
      "tafRaw": "TAF EDDH 051100Z 0512/0618 19009KT 9999 BKN015 \n  PROB40 \n  TEMPO 0512/0614 BKN013 \n  TEMPO 0514/0611 3000 -SHSN BKN008 BKN013CB \n  BECMG 0520/0522 18004KT \n  PROB30 \n  TEMPO 0602/0609 BKN004 \n  BECMG 0612/0614 20009KT \n  PROB40 \n  TEMPO 0616/0618 2000 SHSN BKN007CB",
      "metarHtml": "METAR EDDH 051120Z AUTO 19009KT 9999 BKN013 BKN044 M00/M03 Q1009 BECMG BKN015",
      "tafHtml": "TAF EDDH 051100Z 0512/0618 19009KT 9999 BKN015 \n  PROB40 \n  TEMPO 0512/0614 BKN013 \n  TEMPO 0514/0611 3000 -<span class=\"hl\">SHSN</span> BKN008 BKN013CB \n  BECMG 0520/0522 18004KT \n  PROB30 \n  TEMPO 0602/0609 BKN004 \n  BECMG 0612/0614 20009KT \n  PROB40 \n  TEMPO 0616/0618 2000 <span class=\"hl\">SHSN</span> BKN007CB"
    },
    {
      "icao": "ENHD",
      "iata": "HAU",
      "name": "Haugesund Airport, Karmøy",
      "updatedAt": "051120Z",
      "visibility_m": 10000,
      "taf_visibility_m": 1200,
      "worst_visibility_m": 1200,
      "ceiling_ft": 1400,
      "hazards": [],
      "severityScore": 22,
      "metarRaw": "METAR ENHD 051120Z 11011KT 9999 VCSH SCT007 BKN014 M03/M04 Q1010",
      "tafRaw": "TAF ENHD 051100Z 0512/0521 12012KT 9999 FEW015CB BKN030 \n  TEMPO 0512/0521 1200 SHSNGS VV008",
      "metarHtml": "METAR ENHD 051120Z 11011KT 9999 VCSH SCT007 BKN014 M03/M04 Q1010",
      "tafHtml": "TAF ENHD 051100Z 0512/0521 12012KT 9999 FEW015CB BKN030 \n  TEMPO 0512/0521 1200 SHSNGS VV008"
    },
    {
      "icao": "LEBB",
      "iata": "BIO",
      "name": "Bilbao Airport",
      "updatedAt": "051130Z",
      "visibility_m": 10000,
      "taf_visibility_m": 1500,
      "worst_visibility_m": 1500,
      "ceiling_ft": null,
      "hazards": [
        "RA"
      ],
      "severityScore": 22,
      "metarRaw": "METAR LEBB 051130Z 16004KT 100V220 9999 FEW045 SCT062 06/M00 Q1017 NOSIG",
      "tafRaw": "TAF LEBB 051100Z 0512/0612 13005KT 9999 FEW030 TX07/0514Z TNM00/0521Z \n  PROB30 0513/0518 36010KT \n  PROB30 \n  TEMPO 0602/0609 1500 SNRA BKN005 \n  PROB40 \n  TEMPO 0605/0609 31010KT 3000 RA BKN010 \n  PROB40 0609/0612 05010KT",
      "metarHtml": "METAR LEBB 051130Z 16004KT 100V220 9999 FEW045 SCT062 06/M00 Q1017 NOSIG",
      "tafHtml": "TAF LEBB 051100Z 0512/0612 13005KT 9999 FEW030 TX07/0514Z TNM00/0521Z \n  PROB30 0513/0518 36010KT \n  PROB30 \n  TEMPO 0602/0609 1500 SNRA BKN005 \n  PROB40 \n  TEMPO 0605/0609 31010KT 3000 <span class=\"hl\">RA</span> BKN010 \n  PROB40 0609/0612 05010KT"
    },
    {
      "icao": "LIBP",
      "iata": "PSR",
      "name": "Abruzzo Airport",
      "updatedAt": "051120Z",
      "visibility_m": 3300,
      "taf_visibility_m": 2000,
      "worst_visibility_m": 2000,
      "ceiling_ft": null,
      "hazards": [
        "BR",
        "RA"
      ],
      "severityScore": 22,
      "metarRaw": "METAR LIBP 051120Z AUTO VRB02KT 3300 -RA BR OVC003/// 08/08 Q1006",
      "tafRaw": "TAF LIBP 051100Z 0512/0612 34006KT 2000 RA OVC004 \n  TEMPO 0516/0524 5000 NSW OVC015",
      "metarHtml": "METAR LIBP 051120Z AUTO VRB02KT 3300 -<span class=\"hl\">RA</span> <span class=\"hl\">BR</span> OVC003/// 08/08 Q1006",
      "tafHtml": "TAF LIBP 051100Z 0512/0612 34006KT 2000 <span class=\"hl\">RA</span> OVC004 \n  TEMPO 0516/0524 5000 NSW OVC015"
    },
    {
      "icao": "LRSM",
      "iata": "SUJ",
      "name": "Satu Mare International Airport",
      "updatedAt": "051130Z",
      "visibility_m": 10000,
      "taf_visibility_m": 3000,
      "worst_visibility_m": 3000,
      "ceiling_ft": 4200,
      "hazards": [
        "BR",
        "RA"
      ],
      "severityScore": 22,
      "metarRaw": "METAR LRSM 051130Z 08010KT 9999 FEW022 SCT035 BKN042 01/M04 Q1013",
      "tafRaw": "TAF LRSM 051100Z 0512/0521 06006KT 9999 BKN035 \n  TEMPO 0514/0518 3000 -RA BR BKN005 OVC030",
      "metarHtml": "METAR LRSM 051130Z 08010KT 9999 FEW022 SCT035 BKN042 01/M04 Q1013",
      "tafHtml": "TAF LRSM 051100Z 0512/0521 06006KT 9999 BKN035 \n  TEMPO 0514/0518 3000 -<span class=\"hl\">RA</span> <span class=\"hl\">BR</span> BKN005 OVC030"
    },
    {
      "icao": "EETN",
      "iata": "TLL",
      "name": "Lennart Meri Tallinn Airport",
      "updatedAt": "051120Z",
      "visibility_m": 10000,
      "taf_visibility_m": 1200,
      "worst_visibility_m": 1200,
      "ceiling_ft": null,
      "hazards": [
        "BR"
      ],
      "severityScore": 20,
      "metarRaw": "METAR EETN 051120Z VRB02KT CAVOK M09/M11 Q1015 NOSIG",
      "tafRaw": "TAF EETN 051130Z 0512/0612 17005KT CAVOK \n  PROB40 \n  TEMPO 0519/0606 1200 BR BCFG BKN002 \n  BECMG 0604/0606 11010KT",
      "metarHtml": "METAR EETN 051120Z VRB02KT <span class=\"hl-vis\">CAVOK</span> M09/M11 Q1015 NOSIG",
      "tafHtml": "TAF EETN 051130Z 0512/0612 17005KT <span class=\"hl-vis\">CAVOK</span> \n  PROB40 \n  TEMPO 0519/0606 1200 <span class=\"hl\">BR</span> BCFG BKN002 \n  BECMG 0604/0606 11010KT"
    },
    {
      "icao": "ESSA",
      "iata": "ARN",
      "name": "Stockholm-Arlanda Airport",
      "updatedAt": "051120Z",
      "visibility_m": 10000,
      "taf_visibility_m": 1400,
      "worst_visibility_m": 1400,
      "ceiling_ft": null,
      "hazards": [
        "SHSN"
      ],
      "severityScore": 20,
      "metarRaw": "METAR ESSA 051120Z 35007KT CAVOK M11/M12 Q1015 NOSIG",
      "tafRaw": "TAF ESSA 051130Z 0512/0612 05007KT CAVOK \n  TEMPO 0521/0612 1400 SHSN BKN009 BKN015CB",
      "metarHtml": "METAR ESSA 051120Z 35007KT <span class=\"hl-vis\">CAVOK</span> M11/M12 Q1015 NOSIG",
      "tafHtml": "TAF ESSA 051130Z 0512/0612 05007KT <span class=\"hl-vis\">CAVOK</span> \n  TEMPO 0521/0612 1400 <span class=\"hl\">SHSN</span> BKN009 BKN015CB"
    },
    {
      "icao": "LTAC",
      "iata": "ESB",
      "name": "Esenboğa International Airport",
      "updatedAt": "051120Z",
      "visibility_m": 10000,
      "taf_visibility_m": 1200,
      "worst_visibility_m": 1200,
      "ceiling_ft": 20000,
      "hazards": [
        "BR"
      ],
      "severityScore": 20,
      "metarRaw": "METAR LTAC 051120Z 03005KT 9999 FEW040 BKN200 07/01 Q1023 NOSIG RMK RWY21C 03006KT RWY03L 05006KT RWY21R 02006KT RWY03R 02004KT RWY21L 01005KT",
      "tafRaw": "TAF LTAC 051040Z 0512/0612 VRB02KT 9999 SCT040 BKN200 \n  BECMG 0516/0518 CAVOK \n  BECMG 0522/0601 4000 BR \n  PROB30 \n  TEMPO 0603/0607 1200 BCFG \n  BECMG 0607/0609 9999 NSW SCT040",
      "metarHtml": "METAR LTAC 051120Z 03005KT 9999 FEW040 BKN200 07/01 Q1023 NOSIG RMK RWY21C 03006KT RWY03L 05006KT RWY21R 02006KT RWY03R 02004KT RWY21L 01005KT",
      "tafHtml": "TAF LTAC 051040Z 0512/0612 VRB02KT 9999 SCT040 BKN200 \n  BECMG 0516/0518 <span class=\"hl-vis\">CAVOK</span> \n  BECMG 0522/0601 4000 <span class=\"hl\">BR</span> \n  PROB30 \n  TEMPO 0603/0607 1200 BCFG \n  BECMG 0607/0609 9999 NSW SCT040"
    },
    {
      "icao": "ENGM",
      "iata": "OSL",
      "name": "Oslo-Gardermoen International Airport",
      "updatedAt": "051120Z",
      "visibility_m": 10000,
      "taf_visibility_m": 2500,
      "worst_visibility_m": 2500,
      "ceiling_ft": null,
      "hazards": [
        "SN"
      ],
      "severityScore": 18,
      "metarRaw": "METAR ENGM 051120Z 03007KT 9999 FEW017 SCT024 M09/M13 Q1013 NOSIG",
      "tafRaw": "TAF ENGM 051100Z 0512/0612 02005KT 8000 -SN BKN025 \n  TEMPO 0512/0524 2500 -SN VV012",
      "metarHtml": "METAR ENGM 051120Z 03007KT 9999 FEW017 SCT024 M09/M13 Q1013 NOSIG",
      "tafHtml": "TAF ENGM 051100Z 0512/0612 02005KT 8000 -<span class=\"hl\">SN</span> BKN025 \n  TEMPO 0512/0524 2500 -<span class=\"hl\">SN</span> VV012"
    },
    {
      "icao": "EPKK",
      "iata": "KRK",
      "name": "Kraków John Paul II International Airport",
      "updatedAt": "051130Z",
      "visibility_m": 10000,
      "taf_visibility_m": 4000,
      "worst_visibility_m": 4000,
      "ceiling_ft": null,
      "hazards": [
        "SN"
      ],
      "severityScore": 18,
      "metarRaw": "METAR EPKK 051130Z 04004KT CAVOK M02/M08 Q1014",
      "tafRaw": "TAF EPKK 051130Z 0512/0612 06006KT CAVOK \n  TEMPO 0522/0608 4000 -SN BKN012 \n  BECMG 0600/0602 27010KT",
      "metarHtml": "METAR EPKK 051130Z 04004KT <span class=\"hl-vis\">CAVOK</span> M02/M08 Q1014",
      "tafHtml": "TAF EPKK 051130Z 0512/0612 06006KT <span class=\"hl-vis\">CAVOK</span> \n  TEMPO 0522/0608 4000 -<span class=\"hl\">SN</span> BKN012 \n  BECMG 0600/0602 27010KT"
    },
    {
      "icao": "EPLB",
      "iata": "LUZ",
      "name": "Lublin Airport",
      "updatedAt": "051130Z",
      "visibility_m": 10000,
      "taf_visibility_m": 4000,
      "worst_visibility_m": 4000,
      "ceiling_ft": null,
      "hazards": [
        "SN"
      ],
      "severityScore": 18,
      "metarRaw": "METAR EPLB 051130Z 18003KT CAVOK M02/M07 Q1017",
      "tafRaw": "TAF EPLB 051130Z 0512/0612 18010KT CAVOK \n  BECMG 0512/0515 09005KT \n  BECMG 0521/0524 BKN014 \n  TEMPO 0521/0612 4000 -SN BKN008 \n  BECMG 0609/0612 30010KT BKN018",
      "metarHtml": "METAR EPLB 051130Z 18003KT <span class=\"hl-vis\">CAVOK</span> M02/M07 Q1017",
      "tafHtml": "TAF EPLB 051130Z 0512/0612 18010KT <span class=\"hl-vis\">CAVOK</span> \n  BECMG 0512/0515 09005KT \n  BECMG 0521/0524 BKN014 \n  TEMPO 0521/0612 4000 -<span class=\"hl\">SN</span> BKN008 \n  BECMG 0609/0612 30010KT BKN018"
    },
    {
      "icao": "EPRZ",
      "iata": "RZE",
      "name": "Rzeszów-Jasionka Airport",
      "updatedAt": "051130Z",
      "visibility_m": 10000,
      "taf_visibility_m": 2000,
      "worst_visibility_m": 2000,
      "ceiling_ft": null,
      "hazards": [
        "SN"
      ],
      "severityScore": 18,
      "metarRaw": "METAR EPRZ 051130Z 05005KT CAVOK M01/M06 Q1015",
      "tafRaw": "TAF EPRZ 051130Z 0512/0612 06006KT CAVOK \n  BECMG 0516/0518 BKN012 \n  BECMG 0519/0521 4000 -SN BKN006 BKN013 \n  TEMPO 0600/0606 2000 SN BKN004 BKN008 \n  BECMG 0603/0606 27010KT \n  BECMG 0606/0609 6000 BKN013",
      "metarHtml": "METAR EPRZ 051130Z 05005KT <span class=\"hl-vis\">CAVOK</span> M01/M06 Q1015",
      "tafHtml": "TAF EPRZ 051130Z 0512/0612 06006KT <span class=\"hl-vis\">CAVOK</span> \n  BECMG 0516/0518 BKN012 \n  BECMG 0519/0521 4000 -<span class=\"hl\">SN</span> BKN006 BKN013 \n  TEMPO 0600/0606 2000 <span class=\"hl\">SN</span> BKN004 BKN008 \n  BECMG 0603/0606 27010KT \n  BECMG 0606/0609 6000 BKN013"
    },
    {
      "icao": "LKMT",
      "iata": "OSR",
      "name": "Ostrava Leos Janáček Airport",
      "updatedAt": "051130Z",
      "visibility_m": 10000,
      "taf_visibility_m": 6000,
      "worst_visibility_m": 6000,
      "ceiling_ft": null,
      "hazards": [
        "SN"
      ],
      "severityScore": 18,
      "metarRaw": "METAR LKMT 051130Z 27002KT CAVOK M04/M08 Q1014 NOSIG",
      "tafRaw": "TAF LKMT 051100Z 0512/0612 20005KT CAVOK \n  TEMPO 0512/0520 VRB02KT \n  PROB30 \n  TEMPO 0516/0522 6000 -SN BKN040",
      "metarHtml": "METAR LKMT 051130Z 27002KT <span class=\"hl-vis\">CAVOK</span> M04/M08 Q1014 NOSIG",
      "tafHtml": "TAF LKMT 051100Z 0512/0612 20005KT <span class=\"hl-vis\">CAVOK</span> \n  TEMPO 0512/0520 VRB02KT \n  PROB30 \n  TEMPO 0516/0522 6000 -<span class=\"hl\">SN</span> BKN040"
    },
    {
      "icao": "LOWW",
      "iata": "VIE",
      "name": "Vienna International Airport",
      "updatedAt": "051120Z",
      "visibility_m": 10000,
      "taf_visibility_m": 10000,
      "worst_visibility_m": 10000,
      "ceiling_ft": 4800,
      "hazards": [
        "SN"
      ],
      "severityScore": 18,
      "metarRaw": "METAR LOWW 051120Z 12003KT 090V150 9999 FEW044 BKN048 M03/M07 Q1014 NOSIG",
      "tafRaw": "TAF LOWW 051115Z 0512/0618 VRB05KT 9999 FEW050 TXM02/0613Z TNM04/0606Z \n  PROB30 \n  TEMPO 0512/0517 -SN \n  BECMG 0514/0516 30010KT \n  TEMPO 0610/0615 33015G25KT \n  PROB30 \n  TEMPO 0612/0615 -SN",
      "metarHtml": "METAR LOWW 051120Z 12003KT 090V150 9999 FEW044 BKN048 M03/M07 Q1014 NOSIG",
      "tafHtml": "TAF LOWW 051115Z 0512/0618 VRB05KT 9999 FEW050 TXM02/0613Z TNM04/0606Z \n  PROB30 \n  TEMPO 0512/0517 -<span class=\"hl\">SN</span> \n  BECMG 0514/0516 30010KT \n  TEMPO 0610/0615 33015G25KT \n  PROB30 \n  TEMPO 0612/0615 -<span class=\"hl\">SN</span>"
    },
    {
      "icao": "LRBC",
      "iata": "BCM",
      "name": "Bacău George Enescu International  Airport",
      "updatedAt": "051130Z",
      "visibility_m": 4000,
      "taf_visibility_m": 5000,
      "worst_visibility_m": 4000,
      "ceiling_ft": 3600,
      "hazards": [
        "SN"
      ],
      "severityScore": 18,
      "metarRaw": "METAR LRBC 051130Z 18005KT 160V250 4000 -SN OVC036 M01/M03 Q1019",
      "tafRaw": "TAF LRBC 051100Z 0512/0521 14006KT 5000 -SN SCT010 OVC025 \n  BECMG 0513/0515 BKN010 OVC020 \n  PROB30 \n  TEMPO 0519/0521 7000 NSW",
      "metarHtml": "METAR LRBC 051130Z 18005KT 160V250 4000 -<span class=\"hl\">SN</span> OVC036 M01/M03 Q1019",
      "tafHtml": "TAF LRBC 051100Z 0512/0521 14006KT 5000 -<span class=\"hl\">SN</span> SCT010 OVC025 \n  BECMG 0513/0515 BKN010 OVC020 \n  PROB30 \n  TEMPO 0519/0521 7000 NSW"
    },
    {
      "icao": "LZIB",
      "iata": "BTS",
      "name": "M. R. Štefánik Airport",
      "updatedAt": "051130Z",
      "visibility_m": 10000,
      "taf_visibility_m": 4000,
      "worst_visibility_m": 4000,
      "ceiling_ft": null,
      "hazards": [
        "SN"
      ],
      "severityScore": 18,
      "metarRaw": "METAR LZIB 051130Z 05006KT CAVOK M03/M08 Q1014 NOSIG",
      "tafRaw": "TAF LZIB 051115Z 0512/0612 05005KT CAVOK \n  TEMPO 0514/0600 31015KT 4000 -SN FEW014 BKN030 \n  BECMG 0516/0518 31009KT",
      "metarHtml": "METAR LZIB 051130Z 05006KT <span class=\"hl-vis\">CAVOK</span> M03/M08 Q1014 NOSIG",
      "tafHtml": "TAF LZIB 051115Z 0512/0612 05005KT <span class=\"hl-vis\">CAVOK</span> \n  TEMPO 0514/0600 31015KT 4000 -<span class=\"hl\">SN</span> FEW014 BKN030 \n  BECMG 0516/0518 31009KT"
    },
    {
      "icao": "LZTT",
      "iata": "TAT",
      "name": "Poprad-Tatry Airport",
      "updatedAt": "051130Z",
      "visibility_m": 10000,
      "taf_visibility_m": 4000,
      "worst_visibility_m": 4000,
      "ceiling_ft": null,
      "hazards": [
        "SN"
      ],
      "severityScore": 18,
      "metarRaw": "METAR LZTT 051130Z VRB02KT CAVOK M04/M10 Q1011 NOSIG",
      "tafRaw": "TAF LZTT 051115Z 0512/0612 VRB02KT CAVOK \n  TEMPO 0517/0601 4000 -SN SCT014 BKN030",
      "metarHtml": "METAR LZTT 051130Z VRB02KT <span class=\"hl-vis\">CAVOK</span> M04/M10 Q1011 NOSIG",
      "tafHtml": "TAF LZTT 051115Z 0512/0612 VRB02KT <span class=\"hl-vis\">CAVOK</span> \n  TEMPO 0517/0601 4000 -<span class=\"hl\">SN</span> SCT014 BKN030"
    },
    {
      "icao": "GCFV",
      "iata": "FUE",
      "name": "Fuerteventura Airport",
      "updatedAt": "051130Z",
      "visibility_m": 10000,
      "taf_visibility_m": 4000,
      "worst_visibility_m": 4000,
      "ceiling_ft": null,
      "hazards": [
        "SHRA"
      ],
      "severityScore": 14,
      "metarRaw": "METAR GCFV 051130Z 32010KT 9999 FEW022TCU SCT025 20/14 Q1016",
      "tafRaw": "TAF GCFV 050800Z 0509/0609 36014KT 9999 SCT030 TX21/0514Z TN15/0606Z \n  PROB30 \n  TEMPO 0509/0511 30008KT \n  PROB40 0509/0520 4000 SHRA FEW020TCU",
      "metarHtml": "METAR GCFV 051130Z 32010KT 9999 FEW022TCU SCT025 20/14 Q1016",
      "tafHtml": "TAF GCFV 050800Z 0509/0609 36014KT 9999 SCT030 TX21/0514Z TN15/0606Z \n  PROB30 \n  TEMPO 0509/0511 30008KT \n  PROB40 0509/0520 4000 <span class=\"hl\">SHRA</span> FEW020TCU"
    },
    {
      "icao": "GCLP",
      "iata": "LPA",
      "name": "Gran Canaria Airport",
      "updatedAt": "051130Z",
      "visibility_m": 10000,
      "taf_visibility_m": 4000,
      "worst_visibility_m": 4000,
      "ceiling_ft": 6000,
      "hazards": [
        "SHRA"
      ],
      "severityScore": 14,
      "metarRaw": "METAR GCLP 051130Z 36015KT 330V030 9999 FEW025 BKN060 19/16 Q1017 NOSIG",
      "tafRaw": "TAF GCLP 050800Z 0509/0609 35007KT 9999 SCT030 TX21/0514Z TN15/0606Z \n  BECMG 0511/0514 35017KT \n  PROB40 \n  TEMPO 0511/0609 36017G27KT \n  PROB40 \n  TEMPO 0509/0520 4000 SHRA FEW020TCU",
      "metarHtml": "METAR GCLP 051130Z 36015KT 330V030 9999 FEW025 BKN060 19/16 Q1017 NOSIG",
      "tafHtml": "TAF GCLP 050800Z 0509/0609 35007KT 9999 SCT030 TX21/0514Z TN15/0606Z \n  BECMG 0511/0514 35017KT \n  PROB40 \n  TEMPO 0511/0609 36017G27KT \n  PROB40 \n  TEMPO 0509/0520 4000 <span class=\"hl\">SHRA</span> FEW020TCU"
    },
    {
      "icao": "GCTS",
      "iata": "TFS",
      "name": "Tenerife Sur Airport",
      "updatedAt": "051130Z",
      "visibility_m": 10000,
      "taf_visibility_m": 4000,
      "worst_visibility_m": 4000,
      "ceiling_ft": null,
      "hazards": [
        "SHRA"
      ],
      "severityScore": 14,
      "metarRaw": "METAR GCTS 051130Z 19005KT 140V230 9999 SCT025 21/14 Q1017 NOSIG",
      "tafRaw": "TAF GCTS 050800Z 0509/0609 VRB07KT 9999 SCT030 TX22/0514Z TN16/0606Z \n  PROB40 \n  TEMPO 0510/0518 09010KT \n  PROB30 \n  TEMPO 0510/0518 17010KT \n  PROB30 \n  TEMPO 0512/0518 4000 SHRA FEW020TCU \n  BECMG 0516/0519 07014KT",
      "metarHtml": "METAR GCTS 051130Z 19005KT 140V230 9999 SCT025 21/14 Q1017 NOSIG",
      "tafHtml": "TAF GCTS 050800Z 0509/0609 VRB07KT 9999 SCT030 TX22/0514Z TN16/0606Z \n  PROB40 \n  TEMPO 0510/0518 09010KT \n  PROB30 \n  TEMPO 0510/0518 17010KT \n  PROB30 \n  TEMPO 0512/0518 4000 <span class=\"hl\">SHRA</span> FEW020TCU \n  BECMG 0516/0519 07014KT"
    },
    {
      "icao": "LEMG",
      "iata": "AGP",
      "name": "Málaga-Costa del Sol Airport",
      "updatedAt": "051130Z",
      "visibility_m": 10000,
      "taf_visibility_m": 4000,
      "worst_visibility_m": 4000,
      "ceiling_ft": null,
      "hazards": [
        "SHRA"
      ],
      "severityScore": 14,
      "metarRaw": "METAR LEMG 051130Z 27008KT 240V300 9999 FEW040 16/10 Q1007 NOSIG",
      "tafRaw": "TAF LEMG 051100Z 0512/0612 29007KT 9999 FEW050 TX18/0514Z TN04/0606Z \n  BECMG 0513/0515 09010KT \n  TEMPO 0515/0519 4000 SHRA FEW015CB \n  BECMG 0517/0520 28012KT \n  TEMPO 0521/0612 30015G25KT",
      "metarHtml": "METAR LEMG 051130Z 27008KT 240V300 9999 FEW040 16/10 Q1007 NOSIG",
      "tafHtml": "TAF LEMG 051100Z 0512/0612 29007KT 9999 FEW050 TX18/0514Z TN04/0606Z \n  BECMG 0513/0515 09010KT \n  TEMPO 0515/0519 4000 <span class=\"hl\">SHRA</span> FEW015CB \n  BECMG 0517/0520 28012KT \n  TEMPO 0521/0612 30015G25KT"
    },
    {
      "icao": "LFMN",
      "iata": "NCE",
      "name": "Nice-Côte d'Azur Airport",
      "updatedAt": "051130Z",
      "visibility_m": 10000,
      "taf_visibility_m": 10000,
      "worst_visibility_m": 10000,
      "ceiling_ft": null,
      "hazards": [
        "SHRA"
      ],
      "severityScore": 14,
      "metarRaw": "METAR LFMN 051130Z 32005KT CAVOK 10/M03 Q1005 NOSIG",
      "tafRaw": "TAF LFMN 050800Z 0509/0615 33010KT CAVOK \n  BECMG 0510/0512 24010KT \n  BECMG 0518/0520 33010KT \n  PROB30 \n  TEMPO 0523/0603 -SHRA BKN045TCU \n  BECMG 0609/0611 VRB04KT",
      "metarHtml": "METAR LFMN 051130Z 32005KT <span class=\"hl-vis\">CAVOK</span> 10/M03 Q1005 NOSIG",
      "tafHtml": "TAF LFMN 050800Z 0509/0615 33010KT <span class=\"hl-vis\">CAVOK</span> \n  BECMG 0510/0512 24010KT \n  BECMG 0518/0520 33010KT \n  PROB30 \n  TEMPO 0523/0603 -<span class=\"hl\">SHRA</span> BKN045TCU \n  BECMG 0609/0611 VRB04KT"
    },
    {
      "icao": "LPMA",
      "iata": "FNC",
      "name": "Madeira International Airport Cristiano Ronaldo",
      "updatedAt": "051130Z",
      "visibility_m": 10000,
      "taf_visibility_m": 8000,
      "worst_visibility_m": 8000,
      "ceiling_ft": null,
      "hazards": [
        "SHRA"
      ],
      "severityScore": 14,
      "metarRaw": "METAR LPMA 051130Z 01014KT 340V040 9999 SCT015 16/09 Q1020",
      "tafRaw": "TAF LPMA 051100Z 0512/0612 02017KT 9999 SCT015 \n  TEMPO 0512/0612 01022G35KT 8000 SHRA BKN013 FEW018CB",
      "metarHtml": "METAR LPMA 051130Z 01014KT 340V040 9999 SCT015 16/09 Q1020",
      "tafHtml": "TAF LPMA 051100Z 0512/0612 02017KT 9999 SCT015 \n  TEMPO 0512/0612 01022G35KT 8000 <span class=\"hl\">SHRA</span> BKN013 FEW018CB"
    },
    {
      "icao": "LPPS",
      "iata": "PXO",
      "name": "Porto Santo Airport",
      "updatedAt": "051130Z",
      "visibility_m": 10000,
      "taf_visibility_m": 8000,
      "worst_visibility_m": 8000,
      "ceiling_ft": null,
      "hazards": [
        "SHRA"
      ],
      "severityScore": 14,
      "metarRaw": "METAR LPPS 051130Z 03016KT 9999 FEW014 17/08 Q1020",
      "tafRaw": "TAF LPPS 051100Z 0512/0618 02017KT 9999 SCT015 \n  TEMPO 0512/0612 02022G35KT 8000 SHRA BKN013 FEW018CB",
      "metarHtml": "METAR LPPS 051130Z 03016KT 9999 FEW014 17/08 Q1020",
      "tafHtml": "TAF LPPS 051100Z 0512/0618 02017KT 9999 SCT015 \n  TEMPO 0512/0612 02022G35KT 8000 <span class=\"hl\">SHRA</span> BKN013 FEW018CB"
    },
    {
      "icao": "BKPR",
      "iata": "PRN",
      "name": "Priština Adem Jashari International Airport",
      "updatedAt": "051130Z",
      "visibility_m": 10000,
      "taf_visibility_m": 4000,
      "worst_visibility_m": 4000,
      "ceiling_ft": 5500,
      "hazards": [
        "RA"
      ],
      "severityScore": 12,
      "metarRaw": "METAR BKPR 051130Z 29002KT 9999 SCT035 BKN055 07/07 Q1009 NOSIG",
      "tafRaw": "TAF BKPR 051130Z 0512/0612 18008KT \n  PROB40 \n  TEMPO 0512/0518 18018KT \n  TEMPO 0601/0609 4000 RA",
      "metarHtml": "METAR BKPR 051130Z 29002KT 9999 SCT035 BKN055 07/07 Q1009 NOSIG",
      "tafHtml": "TAF BKPR 051130Z 0512/0612 18008KT \n  PROB40 \n  TEMPO 0512/0518 18018KT \n  TEMPO 0601/0609 4000 <span class=\"hl\">RA</span>"
    },
    {
      "icao": "EGPF",
      "iata": "GLA",
      "name": "Glasgow Airport",
      "updatedAt": "051120Z",
      "visibility_m": 10000,
      "taf_visibility_m": 3000,
      "worst_visibility_m": 3000,
      "ceiling_ft": null,
      "hazards": [
        "RA"
      ],
      "severityScore": 12,
      "metarRaw": "METAR EGPF 051120Z AUTO 25003KT 220V290 9999 NCD 00/M03 Q1016",
      "tafRaw": "TAF EGPF 051056Z 0512/0612 28005KT CAVOK \n  BECMG 0600/0603 BKN020 \n  TEMPO 0601/0612 6000 RA -RASN BKN005 \n  PROB30 \n  TEMPO 0602/0609 3000 RASN BKN003 \n  BECMG 0609/0612 21010KT",
      "metarHtml": "METAR EGPF 051120Z AUTO 25003KT 220V290 9999 NCD 00/M03 Q1016",
      "tafHtml": "TAF EGPF 051056Z 0512/0612 28005KT <span class=\"hl-vis\">CAVOK</span> \n  BECMG 0600/0603 BKN020 \n  TEMPO 0601/0612 6000 <span class=\"hl\">RA</span> -RASN BKN005 \n  PROB30 \n  TEMPO 0602/0609 3000 RASN BKN003 \n  BECMG 0609/0612 21010KT"
    },
    {
      "icao": "LGTS",
      "iata": "SKG",
      "name": "Thessaloniki Macedonia International Airport",
      "updatedAt": "051120Z",
      "visibility_m": 10000,
      "taf_visibility_m": 5000,
      "worst_visibility_m": 5000,
      "ceiling_ft": null,
      "hazards": [
        "RA"
      ],
      "severityScore": 12,
      "metarRaw": "METAR LGTS 051120Z 12005KT 9999 SCT035 16/10 Q1014 NOSIG",
      "tafRaw": "TAF LGTS 051100Z 0512/0612 14010KT 9999 SCT030 \n  PROB30 \n  TEMPO 0518/0524 5000 RA",
      "metarHtml": "METAR LGTS 051120Z 12005KT 9999 SCT035 16/10 Q1014 NOSIG",
      "tafHtml": "TAF LGTS 051100Z 0512/0612 14010KT 9999 SCT030 \n  PROB30 \n  TEMPO 0518/0524 5000 <span class=\"hl\">RA</span>"
    },
    {
      "icao": "LICA",
      "iata": "SUF",
      "name": "Lamezia Terme Sant'Eufemia International Airport",
      "updatedAt": "051120Z",
      "visibility_m": 10000,
      "taf_visibility_m": 10000,
      "worst_visibility_m": 10000,
      "ceiling_ft": null,
      "hazards": [
        "RA"
      ],
      "severityScore": 12,
      "metarRaw": "METAR LICA 051120Z AUTO 06011KT 9999 -RA OVC043/// 17/15 Q1004",
      "tafRaw": "TAF LICA 051100Z 0512/0612 08012KT 9999 SCT050 \n  BECMG 0516/0518 VRB05KT \n  BECMG 0605/0607 07010KT",
      "metarHtml": "METAR LICA 051120Z AUTO 06011KT 9999 -<span class=\"hl\">RA</span> OVC043/// 17/15 Q1004",
      "tafHtml": "TAF LICA 051100Z 0512/0612 08012KT 9999 SCT050 \n  BECMG 0516/0518 VRB05KT \n  BECMG 0605/0607 07010KT"
    },
    {
      "icao": "LICC",
      "iata": "CTA",
      "name": "Catania-Fontanarossa Airport",
      "updatedAt": "051120Z",
      "visibility_m": 10000,
      "taf_visibility_m": 4000,
      "worst_visibility_m": 4000,
      "ceiling_ft": null,
      "hazards": [
        "RA"
      ],
      "severityScore": 12,
      "metarRaw": "METAR LICC 051120Z 24009KT CAVOK 20/18 Q1004",
      "tafRaw": "TAF LICC 051100Z 0512/0612 26013KT 9999 SCT030 \n  TEMPO 0609/0612 4000 RA",
      "metarHtml": "METAR LICC 051120Z 24009KT <span class=\"hl-vis\">CAVOK</span> 20/18 Q1004",
      "tafHtml": "TAF LICC 051100Z 0512/0612 26013KT 9999 SCT030 \n  TEMPO 0609/0612 4000 <span class=\"hl\">RA</span>"
    },
    {
      "icao": "LIPR",
      "iata": "RMI",
      "name": "Federico Fellini International Airport",
      "updatedAt": "051120Z",
      "visibility_m": 10000,
      "taf_visibility_m": 2000,
      "worst_visibility_m": 2000,
      "ceiling_ft": 2000,
      "hazards": [
        "RA"
      ],
      "severityScore": 12,
      "metarRaw": "METAR LIPR 051120Z 29011KT 9999 BKN020 SCT040 03/01 Q1008",
      "tafRaw": "TAF LIPR 051100Z 0512/0612 29009KT 4000 -RA OVC020 \n  BECMG 0514/0516 8000 \n  BECMG 0600/0602 4000 RA \n  BECMG 0604/0606 2000 RASN OVC005",
      "metarHtml": "METAR LIPR 051120Z 29011KT 9999 BKN020 SCT040 03/01 Q1008",
      "tafHtml": "TAF LIPR 051100Z 0512/0612 29009KT 4000 -<span class=\"hl\">RA</span> OVC020 \n  BECMG 0514/0516 8000 \n  BECMG 0600/0602 4000 <span class=\"hl\">RA</span> \n  BECMG 0604/0606 2000 RASN OVC005"
    },
    {
      "icao": "LIPY",
      "iata": "AOI",
      "name": "Marche Airport",
      "updatedAt": "051120Z",
      "visibility_m": 10000,
      "taf_visibility_m": 4000,
      "worst_visibility_m": 4000,
      "ceiling_ft": null,
      "hazards": [
        "RA"
      ],
      "severityScore": 12,
      "metarRaw": "METAR LIPY 051120Z AUTO 30006KT 9999 -RA OVC007/// 04/04 Q1007",
      "tafRaw": "TAF LIPY 051100Z 0512/0612 32010KT 6000 OVC015 \n  TEMPO 0512/0518 4000 RA \n  BECMG 0521/0523 4000 RA",
      "metarHtml": "METAR LIPY 051120Z AUTO 30006KT 9999 -<span class=\"hl\">RA</span> OVC007/// 04/04 Q1007",
      "tafHtml": "TAF LIPY 051100Z 0512/0612 32010KT 6000 OVC015 \n  TEMPO 0512/0518 4000 <span class=\"hl\">RA</span> \n  BECMG 0521/0523 4000 <span class=\"hl\">RA</span>"
    },
    {
      "icao": "LIRP",
      "iata": "PSA",
      "name": "Pisa International Airport",
      "updatedAt": "051115Z",
      "visibility_m": 10000,
      "taf_visibility_m": 10000,
      "worst_visibility_m": 10000,
      "ceiling_ft": 4000,
      "hazards": [
        "RA"
      ],
      "severityScore": 12,
      "metarRaw": "METAR LIRP 051115Z 14007KT 9999 BKN040 BKN060 07/02 Q1006 NOSIG",
      "tafRaw": "TAF LIRP 051100Z 0512/0612 13010KT 9999 BKN040 BKN060 \n  TEMPO 0512/0514 RA \n  TEMPO 0515/0518 FEW010 \n  BECMG 0518/0520 NSC \n  TEMPO 0608/0610 RA BKN040",
      "metarHtml": "METAR LIRP 051115Z 14007KT 9999 BKN040 BKN060 07/02 Q1006 NOSIG",
      "tafHtml": "TAF LIRP 051100Z 0512/0612 13010KT 9999 BKN040 BKN060 \n  TEMPO 0512/0514 <span class=\"hl\">RA</span> \n  TEMPO 0515/0518 FEW010 \n  BECMG 0518/0520 NSC \n  TEMPO 0608/0610 <span class=\"hl\">RA</span> BKN040"
    },
    {
      "icao": "LIRZ",
      "iata": "PEG",
      "name": "Perugia San Francesco d'Assisi – Umbria International Airport",
      "updatedAt": "051120Z",
      "visibility_m": 10000,
      "taf_visibility_m": 6000,
      "worst_visibility_m": 6000,
      "ceiling_ft": null,
      "hazards": [
        "RA"
      ],
      "severityScore": 12,
      "metarRaw": "METAR LIRZ 051120Z AUTO 34011KT 9999 -RA OVC019/// 05/04 Q1004",
      "tafRaw": "TAF LIRZ 051100Z 0512/0612 01010KT 6000 RA BKN020 \n  BECMG 0520/0522 NSW \n  TEMPO 0606/0612 RA",
      "metarHtml": "METAR LIRZ 051120Z AUTO 34011KT 9999 -<span class=\"hl\">RA</span> OVC019/// 05/04 Q1004",
      "tafHtml": "TAF LIRZ 051100Z 0512/0612 01010KT 6000 <span class=\"hl\">RA</span> BKN020 \n  BECMG 0520/0522 NSW \n  TEMPO 0606/0612 <span class=\"hl\">RA</span>"
    },
    {
      "icao": "LWOH",
      "iata": "OHD",
      "name": "Ohrid St. Paul the Apostle Airport",
      "updatedAt": "051120Z",
      "visibility_m": 10000,
      "taf_visibility_m": 10000,
      "worst_visibility_m": 10000,
      "ceiling_ft": 4000,
      "hazards": [
        "RA"
      ],
      "severityScore": 12,
      "metarRaw": "METAR LWOH 051120Z VRB02KT 9999 -RA SCT010 OVC040 10/08 Q1012",
      "tafRaw": "TAF LWOH 051115Z 0512/0612 19010KT 9999 RA SCT010 OVC040 \n  TEMPO 0515/0522 16015G25KT",
      "metarHtml": "METAR LWOH 051120Z VRB02KT 9999 -<span class=\"hl\">RA</span> SCT010 OVC040 10/08 Q1012",
      "tafHtml": "TAF LWOH 051115Z 0512/0612 19010KT 9999 <span class=\"hl\">RA</span> SCT010 OVC040 \n  TEMPO 0515/0522 16015G25KT"
    },
    {
      "icao": "LWSK",
      "iata": "SKP",
      "name": "Skopje International Airport",
      "updatedAt": "051120Z",
      "visibility_m": 10000,
      "taf_visibility_m": 10000,
      "worst_visibility_m": 10000,
      "ceiling_ft": 10000,
      "hazards": [
        "RA"
      ],
      "severityScore": 12,
      "metarRaw": "METAR LWSK 051120Z 13017KT 9999 FEW050 BKN100 14/07 Q1011 NOSIG",
      "tafRaw": "TAF LWSK 051115Z 0512/0612 14012KT 9999 FEW050 BKN090 \n  TEMPO 0512/0520 16020KT \n  TEMPO 0515/0603 RA SCT020 OVC045",
      "metarHtml": "METAR LWSK 051120Z 13017KT 9999 FEW050 BKN100 14/07 Q1011 NOSIG",
      "tafHtml": "TAF LWSK 051115Z 0512/0612 14012KT 9999 FEW050 BKN090 \n  TEMPO 0512/0520 16020KT \n  TEMPO 0515/0603 <span class=\"hl\">RA</span> SCT020 OVC045"
    },
    {
      "icao": "LYNI",
      "iata": "INI",
      "name": "Niš Constantine the Great Airport",
      "updatedAt": "051130Z",
      "visibility_m": 10000,
      "taf_visibility_m": 10000,
      "worst_visibility_m": 10000,
      "ceiling_ft": 7000,
      "hazards": [
        "RA"
      ],
      "severityScore": 12,
      "metarRaw": "METAR LYNI 051130Z VRB01KT 9999 -RA FEW010 OVC070 02/01 Q1011 NOSIG",
      "tafRaw": "TAF LYNI 051100Z 0512/0612 06006KT 9999 BKN070 TX05/0513Z TN02/0606Z \n  BECMG 0604/0606 34010KT BKN010 BKN030 \n  TEMPO 0605/0610 RA",
      "metarHtml": "METAR LYNI 051130Z VRB01KT 9999 -<span class=\"hl\">RA</span> FEW010 OVC070 02/01 Q1011 NOSIG",
      "tafHtml": "TAF LYNI 051100Z 0512/0612 06006KT 9999 BKN070 TX05/0513Z TN02/0606Z \n  BECMG 0604/0606 34010KT BKN010 BKN030 \n  TEMPO 0605/0610 <span class=\"hl\">RA</span>"
    },
    {
      "icao": "EDJA",
      "iata": "FMM",
      "name": "Memmingen Allgau Airport",
      "updatedAt": "051120Z",
      "visibility_m": 10000,
      "taf_visibility_m": 1200,
      "worst_visibility_m": 1200,
      "ceiling_ft": 3100,
      "hazards": [],
      "severityScore": 10,
      "metarRaw": "METAR EDJA 051120Z 21004KT 180V250 9999 OVC031 M06/M09 Q1011",
      "tafRaw": "TAF EDJA 051100Z 0512/0521 22003KT 9999 OVC030 \n  BECMG 0519/0521 1200 BCFG",
      "metarHtml": "METAR EDJA 051120Z 21004KT 180V250 9999 OVC031 M06/M09 Q1011",
      "tafHtml": "TAF EDJA 051100Z 0512/0521 22003KT 9999 OVC030 \n  BECMG 0519/0521 1200 BCFG"
    },
    {
      "icao": "EGGW",
      "iata": "LTN",
      "name": "London Luton Airport",
      "updatedAt": "051120Z",
      "visibility_m": 10000,
      "taf_visibility_m": 3000,
      "worst_visibility_m": 3000,
      "ceiling_ft": null,
      "hazards": [
        "SHSN"
      ],
      "severityScore": 10,
      "metarRaw": "METAR EGGW 051120Z AUTO 31012KT 9999 NCD M01/M04 Q1012",
      "tafRaw": "TAF EGGW 051100Z 0512/0612 31009KT 9999 FEW030 \n  PROB30 \n  TEMPO 0513/0516 3000 -SHSN BKN006 \n  PROB30 \n  TEMPO 0521/0610 7000",
      "metarHtml": "METAR EGGW 051120Z AUTO 31012KT 9999 NCD M01/M04 Q1012",
      "tafHtml": "TAF EGGW 051100Z 0512/0612 31009KT 9999 FEW030 \n  PROB30 \n  TEMPO 0513/0516 3000 -<span class=\"hl\">SHSN</span> BKN006 \n  PROB30 \n  TEMPO 0521/0610 7000"
    },
    {
      "icao": "EGKK",
      "iata": "LGW",
      "name": "London Gatwick Airport",
      "updatedAt": "051120Z",
      "visibility_m": 10000,
      "taf_visibility_m": 4000,
      "worst_visibility_m": 4000,
      "ceiling_ft": null,
      "hazards": [
        "BR"
      ],
      "severityScore": 10,
      "metarRaw": "METAR EGKK 051120Z 31011KT CAVOK 01/M04 Q1013",
      "tafRaw": "TAF EGKK 051053Z 0512/0618 32006KT 9999 FEW035 \n  PROB40 0523/0610 4000 BR",
      "metarHtml": "METAR EGKK 051120Z 31011KT <span class=\"hl-vis\">CAVOK</span> 01/M04 Q1013",
      "tafHtml": "TAF EGKK 051053Z 0512/0618 32006KT 9999 FEW035 \n  PROB40 0523/0610 4000 <span class=\"hl\">BR</span>"
    },
    {
      "icao": "ENBR",
      "iata": "BGO",
      "name": "Bergen Airport, Flesland",
      "updatedAt": "051120Z",
      "visibility_m": 10000,
      "taf_visibility_m": 1200,
      "worst_visibility_m": 1200,
      "ceiling_ft": null,
      "hazards": [],
      "severityScore": 10,
      "metarRaw": "METAR ENBR 051120Z 11005KT CAVOK M05/M13 Q1010 NOSIG RMK WIND 1200FT 12013KT",
      "tafRaw": "TAF ENBR 051100Z 0512/0612 10008KT 9999 FEW040 \n  PROB40 \n  TEMPO 0512/0520 1200 SHSNGS VV008 \n  PROB40 \n  TEMPO 0512/0520 SCT030CB",
      "metarHtml": "METAR ENBR 051120Z 11005KT <span class=\"hl-vis\">CAVOK</span> M05/M13 Q1010 NOSIG RMK WIND 1200FT 12013KT",
      "tafHtml": "TAF ENBR 051100Z 0512/0612 10008KT 9999 FEW040 \n  PROB40 \n  TEMPO 0512/0520 1200 SHSNGS VV008 \n  PROB40 \n  TEMPO 0512/0520 SCT030CB"
    },
    {
      "icao": "EPKT",
      "iata": "KTW",
      "name": "Katowice Wojciech Korfanty International Airport",
      "updatedAt": "051130Z",
      "visibility_m": 10000,
      "taf_visibility_m": 4000,
      "worst_visibility_m": 4000,
      "ceiling_ft": null,
      "hazards": [
        "BR"
      ],
      "severityScore": 10,
      "metarRaw": "METAR EPKT 051130Z VRB01KT CAVOK M01/M08 Q1014",
      "tafRaw": "TAF EPKT 051130Z 0512/0612 VRB02KT CAVOK \n  PROB30 0600/0606 4000 BR",
      "metarHtml": "METAR EPKT 051130Z VRB01KT <span class=\"hl-vis\">CAVOK</span> M01/M08 Q1014",
      "tafHtml": "TAF EPKT 051130Z 0512/0612 VRB02KT <span class=\"hl-vis\">CAVOK</span> \n  PROB30 0600/0606 4000 <span class=\"hl\">BR</span>"
    },
    {
      "icao": "EPWR",
      "iata": "WRO",
      "name": "Copernicus Wrocław Airport",
      "updatedAt": "051130Z",
      "visibility_m": 10000,
      "taf_visibility_m": 2000,
      "worst_visibility_m": 2000,
      "ceiling_ft": null,
      "hazards": [
        "BR"
      ],
      "severityScore": 10,
      "metarRaw": "METAR EPWR 051130Z 10004KT CAVOK M02/M07 Q1014",
      "tafRaw": "TAF EPWR 051130Z 0512/0612 12005KT CAVOK \n  BECMG 0520/0523 4000 BR \n  TEMPO 0523/0606 2000 BR \n  BECMG 0606/0609 CAVOK",
      "metarHtml": "METAR EPWR 051130Z 10004KT <span class=\"hl-vis\">CAVOK</span> M02/M07 Q1014",
      "tafHtml": "TAF EPWR 051130Z 0512/0612 12005KT <span class=\"hl-vis\">CAVOK</span> \n  BECMG 0520/0523 4000 <span class=\"hl\">BR</span> \n  TEMPO 0523/0606 2000 <span class=\"hl\">BR</span> \n  BECMG 0606/0609 <span class=\"hl-vis\">CAVOK</span>"
    },
    {
      "icao": "LFSB",
      "iata": "BSL",
      "name": "EuroAirport Basel–Mulhouse–Freiburg",
      "updatedAt": "051130Z",
      "visibility_m": 10000,
      "taf_visibility_m": 4000,
      "worst_visibility_m": 4000,
      "ceiling_ft": null,
      "hazards": [
        "BR"
      ],
      "severityScore": 10,
      "metarRaw": "METAR LFSB 051130Z AUTO 13006KT 100V160 CAVOK M01/M08 Q1014 NOSIG",
      "tafRaw": "TAF LFSB 050500Z 0506/0606 VRB02KT 9999 SCT040 \n  PROB40 \n  TEMPO 0506/0508 4000 BR BKN012",
      "metarHtml": "METAR LFSB 051130Z AUTO 13006KT 100V160 <span class=\"hl-vis\">CAVOK</span> M01/M08 Q1014 NOSIG",
      "tafHtml": "TAF LFSB 050500Z 0506/0606 VRB02KT 9999 SCT040 \n  PROB40 \n  TEMPO 0506/0508 4000 <span class=\"hl\">BR</span> BKN012"
    },
    {
      "icao": "UBBB",
      "iata": "GYD",
      "name": "Heydar Aliyev International Airport",
      "updatedAt": "051130Z",
      "visibility_m": 10000,
      "taf_visibility_m": 3000,
      "worst_visibility_m": 3000,
      "ceiling_ft": null,
      "hazards": [
        "BR"
      ],
      "severityScore": 10,
      "metarRaw": "METAR UBBB 051130Z 17018G28KT CAVOK 12/02 Q1021 NOSIG",
      "tafRaw": "TAF UBBB 051054Z 0512/0612 18014G24KT CAVOK TX12/0512Z TN02/0300Z \n  TEMPO 0512/0515 20020G30KT \n  BECMG 0518/0520 26005KT \n  TEMPO 0600/0604 VRB04KT 3000 BR BCFG SCT006",
      "metarHtml": "METAR UBBB 051130Z 17018G28KT <span class=\"hl-vis\">CAVOK</span> 12/02 Q1021 NOSIG",
      "tafHtml": "TAF UBBB 051054Z 0512/0612 18014G24KT <span class=\"hl-vis\">CAVOK</span> TX12/0512Z TN02/0300Z \n  TEMPO 0512/0515 20020G30KT \n  BECMG 0518/0520 26005KT \n  TEMPO 0600/0604 VRB04KT 3000 <span class=\"hl\">BR</span> BCFG SCT006"
    },
    {
      "icao": "UDSG",
      "iata": "LWN",
      "name": "Shirak International Airport",
      "updatedAt": "051130Z",
      "visibility_m": 7000,
      "taf_visibility_m": 5000,
      "worst_visibility_m": 5000,
      "ceiling_ft": null,
      "hazards": [
        "BR"
      ],
      "severityScore": 10,
      "metarRaw": "METAR UDSG 051130Z 29002KT 7000 NSC M08/M13 Q1030 NOSIG",
      "tafRaw": "TAF UDSG 051100Z 0512/0612 VRB06KT 9999 FEW050 \n  TEMPO 0515/0524 5000 BR",
      "metarHtml": "METAR UDSG 051130Z 29002KT 7000 NSC M08/M13 Q1030 NOSIG",
      "tafHtml": "TAF UDSG 051100Z 0512/0612 VRB06KT 9999 FEW050 \n  TEMPO 0515/0524 5000 <span class=\"hl\">BR</span>"
    },
    {
      "icao": "UDYZ",
      "iata": "EVN",
      "name": "Zvartnots International Airport",
      "updatedAt": "051130Z",
      "visibility_m": 7000,
      "taf_visibility_m": 2300,
      "worst_visibility_m": 2300,
      "ceiling_ft": null,
      "hazards": [
        "BR"
      ],
      "severityScore": 10,
      "metarRaw": "METAR UDYZ 051130Z 28002KT 7000 NSC M03/M10 Q1033 NOSIG",
      "tafRaw": "TAF UDYZ 051100Z 0512/0612 VRB04KT 6000 NSC \n  TEMPO 0515/0524 2300 BR",
      "metarHtml": "METAR UDYZ 051130Z 28002KT 7000 NSC M03/M10 Q1033 NOSIG",
      "tafHtml": "TAF UDYZ 051100Z 0512/0612 VRB04KT 6000 NSC \n  TEMPO 0515/0524 2300 <span class=\"hl\">BR</span>"
    },
    {
      "icao": "LECH",
      "iata": "CDT",
      "name": "Castellón-Costa Azahar Airport",
      "updatedAt": "051130Z",
      "visibility_m": 10000,
      "taf_visibility_m": null,
      "worst_visibility_m": 10000,
      "ceiling_ft": 3000,
      "hazards": [],
      "severityScore": 5,
      "metarRaw": "METAR LECH 051130Z AUTO 03004KT 360V060 9999 OVC030 04/M02 Q1009",
      "tafRaw": null,
      "metarHtml": "METAR LECH 051130Z AUTO 03004KT 360V060 9999 OVC030 04/M02 Q1009",
      "tafHtml": null
    },
    {
      "icao": "BIKF",
      "iata": "KEF",
      "name": "Keflavik International Airport",
      "updatedAt": "051130Z",
      "visibility_m": 10000,
      "taf_visibility_m": 10000,
      "worst_visibility_m": 10000,
      "ceiling_ft": null,
      "hazards": [],
      "severityScore": 0,
      "metarRaw": "METAR BIKF 051130Z 12003KT 9999 FEW008 M01/M01 Q1018",
      "tafRaw": "TAF BIKF 051025Z 0512/0612 10006KT 9999 SCT010 TX00/0512Z TNM07/0610Z \n  BECMG 0515/0517 04010KT FEW022 \n  BECMG 0518/0520 CAVOK",
      "metarHtml": "METAR BIKF 051130Z 12003KT 9999 FEW008 M01/M01 Q1018",
      "tafHtml": "TAF BIKF 051025Z 0512/0612 10006KT 9999 SCT010 TX00/0512Z TNM07/0610Z \n  BECMG 0515/0517 04010KT FEW022 \n  BECMG 0518/0520 <span class=\"hl-vis\">CAVOK</span>"
    },
    {
      "icao": "GMAD",
      "iata": "AGA",
      "name": "Al Massira Airport",
      "updatedAt": "051130Z",
      "visibility_m": 10000,
      "taf_visibility_m": 8000,
      "worst_visibility_m": 8000,
      "ceiling_ft": null,
      "hazards": [],
      "severityScore": 0,
      "metarRaw": "METAR GMAD 051130Z 26015KT 9999 SCT026TCU FEW030 18/16 Q1012 NOSIG",
      "tafRaw": "TAF GMAD 051100Z 0512/0618 27010KT 8000 FEW010 SCT023TCU SCT080",
      "metarHtml": "METAR GMAD 051130Z 26015KT 9999 SCT026TCU FEW030 18/16 Q1012 NOSIG",
      "tafHtml": "TAF GMAD 051100Z 0512/0618 27010KT 8000 FEW010 SCT023TCU SCT080"
    },
    {
      "icao": "EDDB",
      "iata": "BER",
      "name": "Berlin Brandenburg Airport",
      "updatedAt": "051120Z",
      "visibility_m": 10000,
      "taf_visibility_m": 10000,
      "worst_visibility_m": 10000,
      "ceiling_ft": null,
      "hazards": [],
      "severityScore": 0,
      "metarRaw": "METAR EDDB 051120Z AUTO 20007KT CAVOK 00/M05 Q1012 NOSIG",
      "tafRaw": "TAF EDDB 051100Z 0512/0612 19006KT 9999 SCT045 \n  PROB30 \n  TEMPO 0607/0610 BKN007",
      "metarHtml": "METAR EDDB 051120Z AUTO 20007KT <span class=\"hl-vis\">CAVOK</span> 00/M05 Q1012 NOSIG",
      "tafHtml": "TAF EDDB 051100Z 0512/0612 19006KT 9999 SCT045 \n  PROB30 \n  TEMPO 0607/0610 BKN007"
    },
    {
      "icao": "EDDN",
      "iata": "NUE",
      "name": "Nuremberg Airport",
      "updatedAt": "051120Z",
      "visibility_m": 10000,
      "taf_visibility_m": 10000,
      "worst_visibility_m": 10000,
      "ceiling_ft": 3500,
      "hazards": [],
      "severityScore": 0,
      "metarRaw": "METAR EDDN 051120Z AUTO 24008KT 9999 OVC035 M02/M08 Q1013 NOSIG",
      "tafRaw": "TAF EDDN 051100Z 0512/0612 24005KT 9999 SCT035 \n  BECMG 0518/0520 14005KT \n  BECMG 0610/0612 25004KT",
      "metarHtml": "METAR EDDN 051120Z AUTO 24008KT 9999 OVC035 M02/M08 Q1013 NOSIG",
      "tafHtml": "TAF EDDN 051100Z 0512/0612 24005KT 9999 SCT035 \n  BECMG 0518/0520 14005KT \n  BECMG 0610/0612 25004KT"
    },
    {
      "icao": "EDDS",
      "iata": "STR",
      "name": "Stuttgart Airport",
      "updatedAt": "051120Z",
      "visibility_m": 10000,
      "taf_visibility_m": 10000,
      "worst_visibility_m": 10000,
      "ceiling_ft": null,
      "hazards": [],
      "severityScore": 0,
      "metarRaw": "METAR EDDS 051120Z AUTO 22004KT 160V270 CAVOK M02/M09 Q1012 NOSIG",
      "tafRaw": "TAF EDDS 051100Z 0512/0612 19003KT CAVOK",
      "metarHtml": "METAR EDDS 051120Z AUTO 22004KT 160V270 <span class=\"hl-vis\">CAVOK</span> M02/M09 Q1012 NOSIG",
      "tafHtml": "TAF EDDS 051100Z 0512/0612 19003KT <span class=\"hl-vis\">CAVOK</span>"
    },
    {
      "icao": "EDNY",
      "iata": "FDH",
      "name": "Friedrichshafen Airport",
      "updatedAt": "051120Z",
      "visibility_m": 10000,
      "taf_visibility_m": 10000,
      "worst_visibility_m": 10000,
      "ceiling_ft": 3300,
      "hazards": [],
      "severityScore": 0,
      "metarRaw": "METAR EDNY 051120Z 07002KT 9999 OVC033 M04/M07 Q1013",
      "tafRaw": "TAF EDNY 051100Z 0512/0521 03003KT 9999 OVC030",
      "metarHtml": "METAR EDNY 051120Z 07002KT 9999 OVC033 M04/M07 Q1013",
      "tafHtml": "TAF EDNY 051100Z 0512/0521 03003KT 9999 OVC030"
    },
    {
      "icao": "EFTU",
      "iata": "TKU",
      "name": "Turku Airport",
      "updatedAt": "051120Z",
      "visibility_m": 10000,
      "taf_visibility_m": 10000,
      "worst_visibility_m": 10000,
      "ceiling_ft": null,
      "hazards": [],
      "severityScore": 0,
      "metarRaw": "METAR EFTU 051120Z AUTO 09001KT CAVOK M17/M19 Q1015",
      "tafRaw": "TAF EFTU 050824Z 0509/0609 VRB02KT CAVOK \n  BECMG 0607/0609 08010KT",
      "metarHtml": "METAR EFTU 051120Z AUTO 09001KT <span class=\"hl-vis\">CAVOK</span> M17/M19 Q1015",
      "tafHtml": "TAF EFTU 050824Z 0509/0609 VRB02KT <span class=\"hl-vis\">CAVOK</span> \n  BECMG 0607/0609 08010KT"
    },
    {
      "icao": "EGBB",
      "iata": "BHX",
      "name": "Birmingham Airport",
      "updatedAt": "051120Z",
      "visibility_m": 10000,
      "taf_visibility_m": 6000,
      "worst_visibility_m": 6000,
      "ceiling_ft": null,
      "hazards": [],
      "severityScore": 0,
      "metarRaw": "METAR EGBB 051120Z 31009KT CAVOK M00/M05 Q1014",
      "tafRaw": "TAF EGBB 051059Z 0512/0612 31008KT 9999 FEW025 \n  PROB40 0603/0611 6000",
      "metarHtml": "METAR EGBB 051120Z 31009KT <span class=\"hl-vis\">CAVOK</span> M00/M05 Q1014",
      "tafHtml": "TAF EGBB 051059Z 0512/0612 31008KT 9999 FEW025 \n  PROB40 0603/0611 6000"
    },
    {
      "icao": "EGGP",
      "iata": "LPL",
      "name": "Liverpool John Lennon Airport",
      "updatedAt": "051120Z",
      "visibility_m": 10000,
      "taf_visibility_m": 6000,
      "worst_visibility_m": 6000,
      "ceiling_ft": null,
      "hazards": [],
      "severityScore": 0,
      "metarRaw": "METAR EGGP 051120Z 29005KT CAVOK 01/M05 Q1015",
      "tafRaw": "TAF EGGP 051053Z 0512/0612 31005KT 9999 FEW030 \n  PROB30 \n  TEMPO 0518/0607 9000 \n  PROB30 \n  TEMPO 0607/0612 6000 -RASN BKN012",
      "metarHtml": "METAR EGGP 051120Z 29005KT <span class=\"hl-vis\">CAVOK</span> 01/M05 Q1015",
      "tafHtml": "TAF EGGP 051053Z 0512/0612 31005KT 9999 FEW030 \n  PROB30 \n  TEMPO 0518/0607 9000 \n  PROB30 \n  TEMPO 0607/0612 6000 -RASN BKN012"
    },
    {
      "icao": "ENAL",
      "iata": "AES",
      "name": "Ålesund Airport, Vigra",
      "updatedAt": "051120Z",
      "visibility_m": 10000,
      "taf_visibility_m": 10000,
      "worst_visibility_m": 10000,
      "ceiling_ft": null,
      "hazards": [],
      "severityScore": 0,
      "metarRaw": "METAR ENAL 051120Z 14013KT CAVOK M03/M11 Q1011",
      "tafRaw": "TAF ENAL 051100Z 0512/0521 14012KT CAVOK",
      "metarHtml": "METAR ENAL 051120Z 14013KT <span class=\"hl-vis\">CAVOK</span> M03/M11 Q1011",
      "tafHtml": "TAF ENAL 051100Z 0512/0521 14012KT <span class=\"hl-vis\">CAVOK</span>"
    },
    {
      "icao": "ENTC",
      "iata": "TOS",
      "name": "Tromsø Airport, Langnes",
      "updatedAt": "051120Z",
      "visibility_m": 10000,
      "taf_visibility_m": 10000,
      "worst_visibility_m": 10000,
      "ceiling_ft": 3900,
      "hazards": [],
      "severityScore": 0,
      "metarRaw": "METAR ENTC 051120Z 06008KT 9999 SCT028 BKN039 M06/M11 Q1008 NOSIG RMK WIND 2600FT 02010KT",
      "tafRaw": "TAF ENTC 051100Z 0512/0612 04010KT 9999 FEW020 SCT035 \n  BECMG 0512/0514 24008KT",
      "metarHtml": "METAR ENTC 051120Z 06008KT 9999 SCT028 BKN039 M06/M11 Q1008 NOSIG RMK WIND 2600FT 02010KT",
      "tafHtml": "TAF ENTC 051100Z 0512/0612 04010KT 9999 FEW020 SCT035 \n  BECMG 0512/0514 24008KT"
    },
    {
      "icao": "ENVA",
      "iata": "TRD",
      "name": "Trondheim Airport, Værnes",
      "updatedAt": "051120Z",
      "visibility_m": 10000,
      "taf_visibility_m": 10000,
      "worst_visibility_m": 10000,
      "ceiling_ft": null,
      "hazards": [],
      "severityScore": 0,
      "metarRaw": "METAR ENVA 051120Z 10008KT CAVOK M15/M18 Q1014 NOSIG RMK WIND 670FT 14013KT",
      "tafRaw": "TAF ENVA 051100Z 0512/0612 11008KT CAVOK",
      "metarHtml": "METAR ENVA 051120Z 10008KT <span class=\"hl-vis\">CAVOK</span> M15/M18 Q1014 NOSIG RMK WIND 670FT 14013KT",
      "tafHtml": "TAF ENVA 051100Z 0512/0612 11008KT <span class=\"hl-vis\">CAVOK</span>"
    },
    {
      "icao": "EPRA",
      "iata": "RDO",
      "name": "Warsaw Radom Airport",
      "updatedAt": "051130Z",
      "visibility_m": 10000,
      "taf_visibility_m": 10000,
      "worst_visibility_m": 10000,
      "ceiling_ft": null,
      "hazards": [],
      "severityScore": 0,
      "metarRaw": "METAR EPRA 051130Z VRB02KT CAVOK M02/M08 Q1016",
      "tafRaw": "TAF EPRA 051130Z 0512/0521 14008KT CAVOK",
      "metarHtml": "METAR EPRA 051130Z VRB02KT <span class=\"hl-vis\">CAVOK</span> M02/M08 Q1016",
      "tafHtml": "TAF EPRA 051130Z 0512/0521 14008KT <span class=\"hl-vis\">CAVOK</span>"
    },
    {
      "icao": "HEGN",
      "iata": "HRG",
      "name": "Hurghada International Airport",
      "updatedAt": "051100Z",
      "visibility_m": 10000,
      "taf_visibility_m": 10000,
      "worst_visibility_m": 10000,
      "ceiling_ft": null,
      "hazards": [],
      "severityScore": 0,
      "metarRaw": "METAR HEGN 051100Z 35006KT CAVOK 23/04 Q1018 NOSIG",
      "tafRaw": "TAF HEGN 051100Z 0512/0618 36016KT CAVOK",
      "metarHtml": "METAR HEGN 051100Z 35006KT <span class=\"hl-vis\">CAVOK</span> 23/04 Q1018 NOSIG",
      "tafHtml": "TAF HEGN 051100Z 0512/0618 36016KT <span class=\"hl-vis\">CAVOK</span>"
    },
    {
      "icao": "HEMA",
      "iata": "RMF",
      "name": "Marsa Alam International Airport",
      "updatedAt": "051100Z",
      "visibility_m": 6000,
      "taf_visibility_m": 10000,
      "worst_visibility_m": 6000,
      "ceiling_ft": null,
      "hazards": [],
      "severityScore": 0,
      "metarRaw": "METAR HEMA 051100Z 01015KT 6000 NSC 24/12 Q1016 NOSIG",
      "tafRaw": "TAF HEMA 051100Z 0512/0618 35016KT CAVOK",
      "metarHtml": "METAR HEMA 051100Z 01015KT 6000 NSC 24/12 Q1016 NOSIG",
      "tafHtml": "TAF HEMA 051100Z 0512/0618 35016KT <span class=\"hl-vis\">CAVOK</span>"
    },
    {
      "icao": "HESH",
      "iata": "SSH",
      "name": "Sharm El Sheikh International Airport",
      "updatedAt": "051100Z",
      "visibility_m": 10000,
      "taf_visibility_m": 10000,
      "worst_visibility_m": 10000,
      "ceiling_ft": null,
      "hazards": [],
      "severityScore": 0,
      "metarRaw": "METAR HESH 051100Z 36010KT CAVOK 26/08 Q1018 NOSIG",
      "tafRaw": "TAF HESH 051100Z 0512/0618 01013KT CAVOK",
      "metarHtml": "METAR HESH 051100Z 36010KT <span class=\"hl-vis\">CAVOK</span> 26/08 Q1018 NOSIG",
      "tafHtml": "TAF HESH 051100Z 0512/0618 01013KT <span class=\"hl-vis\">CAVOK</span>"
    },
    {
      "icao": "LBPD",
      "iata": "PDV",
      "name": "Plovdiv International Airport",
      "updatedAt": "051130Z",
      "visibility_m": 10000,
      "taf_visibility_m": 10000,
      "worst_visibility_m": 10000,
      "ceiling_ft": null,
      "hazards": [],
      "severityScore": 0,
      "metarRaw": "METAR LBPD 051130Z AUTO 30005KT 9999 FEW066/// BKN110/// 12/10 Q1013 NOSIG",
      "tafRaw": "TAF LBPD 051100Z 0512/0612 VRB04KT 9999 SCT060 \n  BECMG 0514/0515 13010KT \n  PROB30 \n  TEMPO 0515/0519 15020G30KT \n  BECMG 0519/0521 VRB03KT",
      "metarHtml": "METAR LBPD 051130Z AUTO 30005KT 9999 FEW066/// BKN110/// 12/10 Q1013 NOSIG",
      "tafHtml": "TAF LBPD 051100Z 0512/0612 VRB04KT 9999 SCT060 \n  BECMG 0514/0515 13010KT \n  PROB30 \n  TEMPO 0515/0519 15020G30KT \n  BECMG 0519/0521 VRB03KT"
    },
    {
      "icao": "LBSF",
      "iata": "SOF",
      "name": "Sofia Airport",
      "updatedAt": "051130Z",
      "visibility_m": 10000,
      "taf_visibility_m": 10000,
      "worst_visibility_m": 10000,
      "ceiling_ft": 6800,
      "hazards": [],
      "severityScore": 0,
      "metarRaw": "METAR LBSF 051130Z 08008KT 9999 SCT045 BKN068 11/05 Q1012 WS ALL RWY NOSIG",
      "tafRaw": "TAF LBSF 051100Z 0512/0612 11010KT 9999 SCT040 BKN060 \n  PROB40 \n  TEMPO 0513/0520 21018G30KT \n  BECMG 0607/0609 VRB04KT",
      "metarHtml": "METAR LBSF 051130Z 08008KT 9999 SCT045 BKN068 11/05 Q1012 WS ALL RWY NOSIG",
      "tafHtml": "TAF LBSF 051100Z 0512/0612 11010KT 9999 SCT040 BKN060 \n  PROB40 \n  TEMPO 0513/0520 21018G30KT \n  BECMG 0607/0609 VRB04KT"
    },
    {
      "icao": "LCLK",
      "iata": "LCA",
      "name": "Larnaca International Airport",
      "updatedAt": "051130Z",
      "visibility_m": 10000,
      "taf_visibility_m": 10000,
      "worst_visibility_m": 10000,
      "ceiling_ft": null,
      "hazards": [],
      "severityScore": 0,
      "metarRaw": "METAR LCLK 051130Z 05013KT CAVOK 18/09 Q1022 NOSIG",
      "tafRaw": "TAF LCLK 051130Z 0512/0612 05014KT CAVOK \n  BECMG 0517/0519 34008KT \n  BECMG 0610/0612 07012KT",
      "metarHtml": "METAR LCLK 051130Z 05013KT <span class=\"hl-vis\">CAVOK</span> 18/09 Q1022 NOSIG",
      "tafHtml": "TAF LCLK 051130Z 0512/0612 05014KT <span class=\"hl-vis\">CAVOK</span> \n  BECMG 0517/0519 34008KT \n  BECMG 0610/0612 07012KT"
    },
    {
      "icao": "LCPH",
      "iata": "PFO",
      "name": "Paphos International Airport",
      "updatedAt": "051130Z",
      "visibility_m": 10000,
      "taf_visibility_m": 10000,
      "worst_visibility_m": 10000,
      "ceiling_ft": null,
      "hazards": [],
      "severityScore": 0,
      "metarRaw": "METAR LCPH 051130Z 16008KT CAVOK 20/09 Q1020 NOSIG",
      "tafRaw": "TAF LCPH 051130Z 0512/0612 14014KT 9999 FEW040 \n  BECMG 0514/0516 08008KT \n  BECMG 0610/0612 14012KT",
      "metarHtml": "METAR LCPH 051130Z 16008KT <span class=\"hl-vis\">CAVOK</span> 20/09 Q1020 NOSIG",
      "tafHtml": "TAF LCPH 051130Z 0512/0612 14014KT 9999 FEW040 \n  BECMG 0514/0516 08008KT \n  BECMG 0610/0612 14012KT"
    },
    {
      "icao": "LEBL",
      "iata": "BCN",
      "name": "Josep Tarradellas Barcelona-El Prat Airport",
      "updatedAt": "051130Z",
      "visibility_m": 10000,
      "taf_visibility_m": 10000,
      "worst_visibility_m": 10000,
      "ceiling_ft": null,
      "hazards": [],
      "severityScore": 0,
      "metarRaw": "METAR LEBL 051130Z 33014KT 300V010 9999 FEW030 SCT050 04/01 Q1009 NOSIG",
      "tafRaw": "TAF LEBL 051100Z 0512/0612 33013KT 9999 BKN045 TX08/0513Z TN01/0606Z \n  PROB40 \n  TEMPO 0512/0612 33016G30KT \n  PROB30 \n  TEMPO 0512/0524 RASN FEW030TCU BKN050",
      "metarHtml": "METAR LEBL 051130Z 33014KT 300V010 9999 FEW030 SCT050 04/01 Q1009 NOSIG",
      "tafHtml": "TAF LEBL 051100Z 0512/0612 33013KT 9999 BKN045 TX08/0513Z TN01/0606Z \n  PROB40 \n  TEMPO 0512/0612 33016G30KT \n  PROB30 \n  TEMPO 0512/0524 RASN FEW030TCU BKN050"
    },
    {
      "icao": "LEMD",
      "iata": "MAD",
      "name": "Adolfo Suárez Madrid–Barajas Airport",
      "updatedAt": "051130Z",
      "visibility_m": 10000,
      "taf_visibility_m": 10000,
      "worst_visibility_m": 10000,
      "ceiling_ft": null,
      "hazards": [],
      "severityScore": 0,
      "metarRaw": "METAR LEMD 051130Z 05003KT 340V120 CAVOK 02/M03 Q1010 NOSIG",
      "tafRaw": "TAF LEMD 051100Z 0512/0618 VRB03KT 9999 SCT025 TX06/0514Z TNM03/0608Z \n  BECMG 0516/0518 02010KT \n  BECMG 0600/0602 VRB05KT",
      "metarHtml": "METAR LEMD 051130Z 05003KT 340V120 <span class=\"hl-vis\">CAVOK</span> 02/M03 Q1010 NOSIG",
      "tafHtml": "TAF LEMD 051100Z 0512/0618 VRB03KT 9999 SCT025 TX06/0514Z TNM03/0608Z \n  BECMG 0516/0518 02010KT \n  BECMG 0600/0602 VRB05KT"
    },
    {
      "icao": "LEZG",
      "iata": "ZAZ",
      "name": "Zaragoza Airport",
      "updatedAt": "051130Z",
      "visibility_m": 10000,
      "taf_visibility_m": 10000,
      "worst_visibility_m": 10000,
      "ceiling_ft": null,
      "hazards": [],
      "severityScore": 0,
      "metarRaw": "METAR LEZG 051130Z 31023KT CAVOK 05/M10 Q1011 NOSIG",
      "tafRaw": "TAF LEZG 051100Z 0512/0612 31018KT 9999 FEW050 TX04/0515Z TN00/0606Z \n  TEMPO 0512/0522 31020G30KT \n  BECMG 0522/0524 31012KT",
      "metarHtml": "METAR LEZG 051130Z 31023KT <span class=\"hl-vis\">CAVOK</span> 05/M10 Q1011 NOSIG",
      "tafHtml": "TAF LEZG 051100Z 0512/0612 31018KT 9999 FEW050 TX04/0515Z TN00/0606Z \n  TEMPO 0512/0522 31020G30KT \n  BECMG 0522/0524 31012KT"
    },
    {
      "icao": "LEZL",
      "iata": "SVQ",
      "name": "Sevilla Airport",
      "updatedAt": "051130Z",
      "visibility_m": 10000,
      "taf_visibility_m": 10000,
      "worst_visibility_m": 10000,
      "ceiling_ft": null,
      "hazards": [],
      "severityScore": 0,
      "metarRaw": "METAR LEZL 051130Z 02004KT 320V070 CAVOK 14/09 Q1008 NOSIG",
      "tafRaw": "TAF LEZL 050800Z 0509/0609 VRB03KT CAVOK TX15/0515Z TN02/0607Z \n  BECMG 0514/0516 02010KT \n  BECMG 0519/0521 32005KT",
      "metarHtml": "METAR LEZL 051130Z 02004KT 320V070 <span class=\"hl-vis\">CAVOK</span> 14/09 Q1008 NOSIG",
      "tafHtml": "TAF LEZL 050800Z 0509/0609 VRB03KT <span class=\"hl-vis\">CAVOK</span> TX15/0515Z TN02/0607Z \n  BECMG 0514/0516 02010KT \n  BECMG 0519/0521 32005KT"
    },
    {
      "icao": "LFLL",
      "iata": "LYS",
      "name": "Lyon Saint-Exupéry Airport",
      "updatedAt": "051130Z",
      "visibility_m": 10000,
      "taf_visibility_m": 10000,
      "worst_visibility_m": 10000,
      "ceiling_ft": null,
      "hazards": [],
      "severityScore": 0,
      "metarRaw": "METAR LFLL 051130Z 35009KT 320V020 9999 SCT018 M01/M06 Q1014 NOSIG",
      "tafRaw": "TAF LFLL 051100Z 0512/0618 35010KT CAVOK \n  PROB40 \n  TEMPO 0612/0618 BKN012",
      "metarHtml": "METAR LFLL 051130Z 35009KT 320V020 9999 SCT018 M01/M06 Q1014 NOSIG",
      "tafHtml": "TAF LFLL 051100Z 0512/0618 35010KT <span class=\"hl-vis\">CAVOK</span> \n  PROB40 \n  TEMPO 0612/0618 BKN012"
    },
    {
      "icao": "LFLS",
      "iata": "GNB",
      "name": "Grenoble Alpes Isère Airport",
      "updatedAt": "051130Z",
      "visibility_m": 10000,
      "taf_visibility_m": 10000,
      "worst_visibility_m": 10000,
      "ceiling_ft": 2800,
      "hazards": [],
      "severityScore": 0,
      "metarRaw": "METAR LFLS 051130Z AUTO 34008KT 320V020 9999 OVC028 M02/M08 Q1012",
      "tafRaw": "TAF LFLS 050200Z 0503/0603 35008KT 9999 BKN025 \n  PROB40 \n  TEMPO 0503/0509 VRB02KT BKN006 \n  BECMG 0510/0513 SCT016",
      "metarHtml": "METAR LFLS 051130Z AUTO 34008KT 320V020 9999 OVC028 M02/M08 Q1012",
      "tafHtml": "TAF LFLS 050200Z 0503/0603 35008KT 9999 BKN025 \n  PROB40 \n  TEMPO 0503/0509 VRB02KT BKN006 \n  BECMG 0510/0513 SCT016"
    },
    {
      "icao": "LGAV",
      "iata": "ATH",
      "name": "Athens Eleftherios Venizelos International Airport",
      "updatedAt": "051120Z",
      "visibility_m": 10000,
      "taf_visibility_m": 10000,
      "worst_visibility_m": 10000,
      "ceiling_ft": 3000,
      "hazards": [],
      "severityScore": 0,
      "metarRaw": "METAR LGAV 051120Z 20012KT 9999 FEW018 BKN030 17/09 Q1017 NOSIG",
      "tafRaw": "TAF LGAV 051100Z 0512/0612 20014KT 9999 SCT025 SCT070 \n  BECMG 0518/0520 FEW025",
      "metarHtml": "METAR LGAV 051120Z 20012KT 9999 FEW018 BKN030 17/09 Q1017 NOSIG",
      "tafHtml": "TAF LGAV 051100Z 0512/0612 20014KT 9999 SCT025 SCT070 \n  BECMG 0518/0520 FEW025"
    },
    {
      "icao": "LICJ",
      "iata": "PMO",
      "name": "Falcone–Borsellino Airport",
      "updatedAt": "051120Z",
      "visibility_m": 10000,
      "taf_visibility_m": 10000,
      "worst_visibility_m": 10000,
      "ceiling_ft": null,
      "hazards": [],
      "severityScore": 0,
      "metarRaw": "METAR LICJ 051120Z 20013KT 9999 FEW035 20/12 Q1001 WS R20",
      "tafRaw": "TAF LICJ 051100Z 0512/0612 21016KT 9999 FEW030 \n  BECMG 0606/0608 21018G28KT",
      "metarHtml": "METAR LICJ 051120Z 20013KT 9999 FEW035 20/12 Q1001 WS R20",
      "tafHtml": "TAF LICJ 051100Z 0512/0612 21016KT 9999 FEW030 \n  BECMG 0606/0608 21018G28KT"
    },
    {
      "icao": "LIMC",
      "iata": "MXP",
      "name": "Milan Malpensa International Airport",
      "updatedAt": "051120Z",
      "visibility_m": 10000,
      "taf_visibility_m": 10000,
      "worst_visibility_m": 10000,
      "ceiling_ft": null,
      "hazards": [],
      "severityScore": 0,
      "metarRaw": "METAR LIMC 051120Z VRB02KT CAVOK 04/M05 Q1008 NOSIG",
      "tafRaw": "TAF LIMC 051100Z 0512/0618 VRB04KT CAVOK",
      "metarHtml": "METAR LIMC 051120Z VRB02KT <span class=\"hl-vis\">CAVOK</span> 04/M05 Q1008 NOSIG",
      "tafHtml": "TAF LIMC 051100Z 0512/0618 VRB04KT <span class=\"hl-vis\">CAVOK</span>"
    },
    {
      "icao": "LIME",
      "iata": "BGY",
      "name": "Milan Bergamo Airport / Antonio Locatelli Air Base",
      "updatedAt": "051120Z",
      "visibility_m": 10000,
      "taf_visibility_m": 10000,
      "worst_visibility_m": 10000,
      "ceiling_ft": null,
      "hazards": [],
      "severityScore": 0,
      "metarRaw": "METAR LIME 051120Z 29005KT CAVOK 03/M06 Q1008 NOSIG",
      "tafRaw": "TAF LIME 051100Z 0512/0612 VRB04KT CAVOK",
      "metarHtml": "METAR LIME 051120Z 29005KT <span class=\"hl-vis\">CAVOK</span> 03/M06 Q1008 NOSIG",
      "tafHtml": "TAF LIME 051100Z 0512/0612 VRB04KT <span class=\"hl-vis\">CAVOK</span>"
    },
    {
      "icao": "LIMF",
      "iata": "TRN",
      "name": "Turin Airport",
      "updatedAt": "051120Z",
      "visibility_m": 10000,
      "taf_visibility_m": 10000,
      "worst_visibility_m": 10000,
      "ceiling_ft": null,
      "hazards": [],
      "severityScore": 0,
      "metarRaw": "METAR LIMF 051120Z 08004KT 040V110 CAVOK 03/M07 Q1008",
      "tafRaw": "TAF LIMF 051100Z 0512/0612 VRB04KT CAVOK",
      "metarHtml": "METAR LIMF 051120Z 08004KT 040V110 <span class=\"hl-vis\">CAVOK</span> 03/M07 Q1008",
      "tafHtml": "TAF LIMF 051100Z 0512/0612 VRB04KT <span class=\"hl-vis\">CAVOK</span>"
    },
    {
      "icao": "LIMJ",
      "iata": "GOA",
      "name": "Genoa Cristoforo Colombo Airport",
      "updatedAt": "051120Z",
      "visibility_m": 10000,
      "taf_visibility_m": 10000,
      "worst_visibility_m": 10000,
      "ceiling_ft": null,
      "hazards": [],
      "severityScore": 0,
      "metarRaw": "METAR LIMJ 051120Z 04013KT CAVOK 06/M06 Q1006",
      "tafRaw": "TAF LIMJ 051100Z 0512/0612 04016KT CAVOK \n  TEMPO 0512/0516 04016G26KT",
      "metarHtml": "METAR LIMJ 051120Z 04013KT <span class=\"hl-vis\">CAVOK</span> 06/M06 Q1006",
      "tafHtml": "TAF LIMJ 051100Z 0512/0612 04016KT <span class=\"hl-vis\">CAVOK</span> \n  TEMPO 0512/0516 04016G26KT"
    },
    {
      "icao": "LIPE",
      "iata": "BLQ",
      "name": "Bologna Guglielmo Marconi Airport",
      "updatedAt": "051120Z",
      "visibility_m": 10000,
      "taf_visibility_m": 6000,
      "worst_visibility_m": 6000,
      "ceiling_ft": 6000,
      "hazards": [],
      "severityScore": 0,
      "metarRaw": "METAR LIPE 051120Z 28005KT 240V320 9999 BKN060 04/M04 Q1009",
      "tafRaw": "TAF LIPE 051100Z 0512/0612 28007KT 6000 SCT030 SCT060",
      "metarHtml": "METAR LIPE 051120Z 28005KT 240V320 9999 BKN060 04/M04 Q1009",
      "tafHtml": "TAF LIPE 051100Z 0512/0612 28007KT 6000 SCT030 SCT060"
    },
    {
      "icao": "LIPH",
      "iata": "TSF",
      "name": "Treviso Antonio Canova Airport",
      "updatedAt": "051120Z",
      "visibility_m": 10000,
      "taf_visibility_m": 10000,
      "worst_visibility_m": 10000,
      "ceiling_ft": 7000,
      "hazards": [],
      "severityScore": 0,
      "metarRaw": "METAR LIPH 051120Z 04005KT 010V100 9999 BKN070 05/M07 Q10",
      "tafRaw": "TAF LIPH 051100Z 0512/0612 02006KT CAVOK",
      "metarHtml": "METAR LIPH 051120Z 04005KT 010V100 9999 BKN070 05/M07 Q10",
      "tafHtml": "TAF LIPH 051100Z 0512/0612 02006KT <span class=\"hl-vis\">CAVOK</span>"
    },
    {
      "icao": "LIPQ",
      "iata": "TRS",
      "name": "Trieste–Friuli Venezia Giulia Airport",
      "updatedAt": "051120Z",
      "visibility_m": 10000,
      "taf_visibility_m": 10000,
      "worst_visibility_m": 10000,
      "ceiling_ft": null,
      "hazards": [],
      "severityScore": 0,
      "metarRaw": "METAR LIPQ 051120Z AUTO 11008KT 9999 OVC064/// 05/M03 Q1008",
      "tafRaw": "TAF LIPQ 051100Z 0512/0612 08008KT CAVOK",
      "metarHtml": "METAR LIPQ 051120Z AUTO 11008KT 9999 OVC064/// 05/M03 Q1008",
      "tafHtml": "TAF LIPQ 051100Z 0512/0612 08008KT <span class=\"hl-vis\">CAVOK</span>"
    },
    {
      "icao": "LIPX",
      "iata": "VRN",
      "name": "Verona Villafranca Valerio Catullo Airport",
      "updatedAt": "051120Z",
      "visibility_m": 10000,
      "taf_visibility_m": 10000,
      "worst_visibility_m": 10000,
      "ceiling_ft": null,
      "hazards": [],
      "severityScore": 0,
      "metarRaw": "METAR LIPX 051120Z VRB02KT 9999 SCT070 03/M04 Q1009",
      "tafRaw": "TAF LIPX 051100Z 0512/0612 VRB04KT CAVOK",
      "metarHtml": "METAR LIPX 051120Z VRB02KT 9999 SCT070 03/M04 Q1009",
      "tafHtml": "TAF LIPX 051100Z 0512/0612 VRB04KT <span class=\"hl-vis\">CAVOK</span>"
    },
    {
      "icao": "LIPZ",
      "iata": "VCE",
      "name": "Venice Marco Polo Airport",
      "updatedAt": "051120Z",
      "visibility_m": 10000,
      "taf_visibility_m": 10000,
      "worst_visibility_m": 10000,
      "ceiling_ft": 6000,
      "hazards": [],
      "severityScore": 0,
      "metarRaw": "METAR LIPZ 051120Z 03008KT 9999 BKN060 05/M04 Q1009 NOSIG",
      "tafRaw": "TAF LIPZ 051100Z 0512/0618 02008KT CAVOK \n  BECMG 0610/0612 08014KT \n  BECMG 0614/0616 02008KT",
      "metarHtml": "METAR LIPZ 051120Z 03008KT 9999 BKN060 05/M04 Q1009 NOSIG",
      "tafHtml": "TAF LIPZ 051100Z 0512/0618 02008KT <span class=\"hl-vis\">CAVOK</span> \n  BECMG 0610/0612 08014KT \n  BECMG 0614/0616 02008KT"
    },
    {
      "icao": "LKPR",
      "iata": "PRG",
      "name": "Václav Havel Airport Prague",
      "updatedAt": "051130Z",
      "visibility_m": 10000,
      "taf_visibility_m": 10000,
      "worst_visibility_m": 10000,
      "ceiling_ft": 3800,
      "hazards": [],
      "severityScore": 0,
      "metarRaw": "METAR LKPR 051130Z 20003KT 170V230 9999 BKN038 M02/M08 Q1012 NOSIG",
      "tafRaw": "TAF LKPR 051100Z 0512/0618 19004KT 9999 SCT040 \n  BECMG 0521/0523 23007KT CAVOK \n  BECMG 0613/0615 VRB02KT",
      "metarHtml": "METAR LKPR 051130Z 20003KT 170V230 9999 BKN038 M02/M08 Q1012 NOSIG",
      "tafHtml": "TAF LKPR 051100Z 0512/0618 19004KT 9999 SCT040 \n  BECMG 0521/0523 23007KT <span class=\"hl-vis\">CAVOK</span> \n  BECMG 0613/0615 VRB02KT"
    },
    {
      "icao": "LLBG",
      "iata": "TLV",
      "name": "Ben Gurion International Airport",
      "updatedAt": "051120Z",
      "visibility_m": 10000,
      "taf_visibility_m": 10000,
      "worst_visibility_m": 10000,
      "ceiling_ft": null,
      "hazards": [],
      "severityScore": 0,
      "metarRaw": "METAR LLBG 051120Z 14010KT CAVOK 23/04 Q1018 NOSIG",
      "tafRaw": "TAF LLBG 051107Z 0512/0612 13008KT CAVOK \n  TEMPO 0512/0608 VRB04KT \n  BECMG 0608/0610 31008KT TX24/0512Z TN11/0604Z",
      "metarHtml": "METAR LLBG 051120Z 14010KT <span class=\"hl-vis\">CAVOK</span> 23/04 Q1018 NOSIG",
      "tafHtml": "TAF LLBG 051107Z 0512/0612 13008KT <span class=\"hl-vis\">CAVOK</span> \n  TEMPO 0512/0608 VRB04KT \n  BECMG 0608/0610 31008KT TX24/0512Z TN11/0604Z"
    },
    {
      "icao": "LMML",
      "iata": "MLA",
      "name": "Malta International Airport",
      "updatedAt": "051115Z",
      "visibility_m": 8000,
      "taf_visibility_m": 5000,
      "worst_visibility_m": 5000,
      "ceiling_ft": null,
      "hazards": [],
      "severityScore": 0,
      "metarRaw": "METAR LMML 051115Z 21012KT 170V230 8000 NSC 19/14 Q1006 NOSIG",
      "tafRaw": "TAF LMML 051100Z 0512/0612 21015KT 8000 NSC \n  PROB40 \n  TEMPO 0518/0612 5000 DU",
      "metarHtml": "METAR LMML 051115Z 21012KT 170V230 8000 NSC 19/14 Q1006 NOSIG",
      "tafHtml": "TAF LMML 051100Z 0512/0612 21015KT 8000 NSC \n  PROB40 \n  TEMPO 0518/0612 5000 DU"
    },
    {
      "icao": "LPFR",
      "iata": "FAO",
      "name": "Faro Airport",
      "updatedAt": "051130Z",
      "visibility_m": 10000,
      "taf_visibility_m": 10000,
      "worst_visibility_m": 10000,
      "ceiling_ft": null,
      "hazards": [],
      "severityScore": 0,
      "metarRaw": "METAR LPFR 051130Z 33014KT CAVOK 13/01 Q1011",
      "tafRaw": "TAF LPFR 051100Z 0512/0612 34015KT CAVOK \n  BECMG 0521/0523 33008KT \n  BECMG 0610/0612 34015KT",
      "metarHtml": "METAR LPFR 051130Z 33014KT <span class=\"hl-vis\">CAVOK</span> 13/01 Q1011",
      "tafHtml": "TAF LPFR 051100Z 0512/0612 34015KT <span class=\"hl-vis\">CAVOK</span> \n  BECMG 0521/0523 33008KT \n  BECMG 0610/0612 34015KT"
    },
    {
      "icao": "LPPR",
      "iata": "OPO",
      "name": "Francisco de Sá Carneiro Airport",
      "updatedAt": "051130Z",
      "visibility_m": 10000,
      "taf_visibility_m": 10000,
      "worst_visibility_m": 10000,
      "ceiling_ft": null,
      "hazards": [],
      "severityScore": 0,
      "metarRaw": "METAR LPPR 051130Z 02006KT 360V060 CAVOK 07/M01 Q1017",
      "tafRaw": "TAF LPPR 051100Z 0512/0612 01008KT CAVOK",
      "metarHtml": "METAR LPPR 051130Z 02006KT 360V060 <span class=\"hl-vis\">CAVOK</span> 07/M01 Q1017",
      "tafHtml": "TAF LPPR 051100Z 0512/0612 01008KT <span class=\"hl-vis\">CAVOK</span>"
    },
    {
      "icao": "LPPT",
      "iata": "LIS",
      "name": "Lisbon Humberto Delgado Airport",
      "updatedAt": "051130Z",
      "visibility_m": 10000,
      "taf_visibility_m": 10000,
      "worst_visibility_m": 10000,
      "ceiling_ft": null,
      "hazards": [],
      "severityScore": 0,
      "metarRaw": "METAR LPPT 051130Z 36020KT 9999 FEW035 08/M02 Q1014",
      "tafRaw": "TAF LPPT 051100Z 0512/0618 35017KT CAVOK \n  TEMPO 0512/0518 35022G35KT \n  BECMG 0518/0520 34010KT 9999 SCT030 \n  BECMG 0611/0613 35015KT CAVOK \n  PROB30 \n  TEMPO 0613/0618 35022G35KT",
      "metarHtml": "METAR LPPT 051130Z 36020KT 9999 FEW035 08/M02 Q1014",
      "tafHtml": "TAF LPPT 051100Z 0512/0618 35017KT <span class=\"hl-vis\">CAVOK</span> \n  TEMPO 0512/0518 35022G35KT \n  BECMG 0518/0520 34010KT 9999 SCT030 \n  BECMG 0611/0613 35015KT <span class=\"hl-vis\">CAVOK</span> \n  PROB30 \n  TEMPO 0613/0618 35022G35KT"
    },
    {
      "icao": "LRBV",
      "iata": "GHV",
      "name": "Brașov-Ghimbav International Airport",
      "updatedAt": "051130Z",
      "visibility_m": 10000,
      "taf_visibility_m": 10000,
      "worst_visibility_m": 10000,
      "ceiling_ft": null,
      "hazards": [],
      "severityScore": 0,
      "metarRaw": "METAR LRBV 051130Z AUTO 04007KT 9999 BKN038/// OVC110/// 01/M02 Q1012",
      "tafRaw": "TAF LRBV 051100Z 0512/0521 VRB04KT 9999 SCT010 OVC040 \n  TEMPO 0512/0514 08010KT",
      "metarHtml": "METAR LRBV 051130Z AUTO 04007KT 9999 BKN038/// OVC110/// 01/M02 Q1012",
      "tafHtml": "TAF LRBV 051100Z 0512/0521 VRB04KT 9999 SCT010 OVC040 \n  TEMPO 0512/0514 08010KT"
    },
    {
      "icao": "LTFM",
      "iata": "IST",
      "name": "İstanbul Airport",
      "updatedAt": "051120Z",
      "visibility_m": 10000,
      "taf_visibility_m": 10000,
      "worst_visibility_m": 10000,
      "ceiling_ft": null,
      "hazards": [],
      "severityScore": 0,
      "metarRaw": "METAR LTFM 051120Z 21018KT CAVOK 16/06 Q1018 NOSIG RMK RWY17L 21014KT RWY34L 20016KT RWY16R 21016KT RWY36 22015KT RWY18 22018G28KT",
      "tafRaw": "TAF LTFM 051040Z 0512/0618 19014KT CAVOK \n  BECMG 0518/0521 SCT040 BKN090",
      "metarHtml": "METAR LTFM 051120Z 21018KT <span class=\"hl-vis\">CAVOK</span> 16/06 Q1018 NOSIG RMK RWY17L 21014KT RWY34L 20016KT RWY16R 21016KT RWY36 22015KT RWY18 22018G28KT",
      "tafHtml": "TAF LTFM 051040Z 0512/0618 19014KT <span class=\"hl-vis\">CAVOK</span> \n  BECMG 0518/0521 SCT040 BKN090"
    },
    {
      "icao": "OEJN",
      "iata": "JED",
      "name": "King Abdulaziz International Airport",
      "updatedAt": "051100Z",
      "visibility_m": 7000,
      "taf_visibility_m": 3000,
      "worst_visibility_m": 3000,
      "ceiling_ft": null,
      "hazards": [],
      "severityScore": 0,
      "metarRaw": "METAR OEJN 051100Z VRB03KT 7000 NSC 31/08 Q1014 NOSIG",
      "tafRaw": "TAF OEJN 051100Z 0512/0618 29010KT 7000 FEW040 \n  PROB30 \n  TEMPO 0512/0600 3000 BLDU FEW030CB \n  BECMG 0518/0520 VRB03KT \n  BECMG 0600/0602 08006KT",
      "metarHtml": "METAR OEJN 051100Z VRB03KT 7000 NSC 31/08 Q1014 NOSIG",
      "tafHtml": "TAF OEJN 051100Z 0512/0618 29010KT 7000 FEW040 \n  PROB30 \n  TEMPO 0512/0600 3000 BLDU FEW030CB \n  BECMG 0518/0520 VRB03KT \n  BECMG 0600/0602 08006KT"
    },
    {
      "icao": "OEMA",
      "iata": "MED",
      "name": "Prince Mohammad Bin Abdulaziz Airport",
      "updatedAt": "051100Z",
      "visibility_m": 10000,
      "taf_visibility_m": 3000,
      "worst_visibility_m": 3000,
      "ceiling_ft": null,
      "hazards": [],
      "severityScore": 0,
      "metarRaw": "METAR OEMA 051100Z 11010KT CAVOK 23/03 Q1021 NOSIG",
      "tafRaw": "TAF OEMA 051100Z 0512/0618 11015KT 7000 NSC \n  TEMPO 0512/0518 3000 BLDU \n  BECMG 0520/0522 05010KT",
      "metarHtml": "METAR OEMA 051100Z 11010KT <span class=\"hl-vis\">CAVOK</span> 23/03 Q1021 NOSIG",
      "tafHtml": "TAF OEMA 051100Z 0512/0618 11015KT 7000 NSC \n  TEMPO 0512/0518 3000 BLDU \n  BECMG 0520/0522 05010KT"
    },
    {
      "icao": "OJAI",
      "iata": "AMM",
      "name": "Queen Alia International Airport",
      "updatedAt": "051100Z",
      "visibility_m": 5000,
      "taf_visibility_m": 4000,
      "worst_visibility_m": 4000,
      "ceiling_ft": null,
      "hazards": [],
      "severityScore": 0,
      "metarRaw": "METAR OJAI 051100Z 09008KT 5000 HZ NSC 12/01 Q1024 NOSIG",
      "tafRaw": "TAF OJAI 051100Z 0512/0618 14010KT 5000 HZ NSC \n  PROB40 0512/0518 10016KT 4000 BLDU",
      "metarHtml": "METAR OJAI 051100Z 09008KT 5000 HZ NSC 12/01 Q1024 NOSIG",
      "tafHtml": "TAF OJAI 051100Z 0512/0618 14010KT 5000 HZ NSC \n  PROB40 0512/0518 10016KT 4000 BLDU"
    },
    {
      "icao": "OMAA",
      "iata": "AUH",
      "name": "Zayed International Airport",
      "updatedAt": "051100Z",
      "visibility_m": 10000,
      "taf_visibility_m": 8000,
      "worst_visibility_m": 8000,
      "ceiling_ft": null,
      "hazards": [],
      "severityScore": 0,
      "metarRaw": "METAR OMAA 051100Z 30011KT 280V340 9999 FEW040 24/14 Q1019 NOSIG",
      "tafRaw": "TAF OMAA 051100Z 0512/0618 33010KT 8000 FEW040 \n  BECMG 0518/0520 05005KT \n  BECMG 0610/0612 34010KT",
      "metarHtml": "METAR OMAA 051100Z 30011KT 280V340 9999 FEW040 24/14 Q1019 NOSIG",
      "tafHtml": "TAF OMAA 051100Z 0512/0618 33010KT 8000 FEW040 \n  BECMG 0518/0520 05005KT \n  BECMG 0610/0612 34010KT"
    },
    {
      "icao": "OMDB",
      "iata": "DXB",
      "name": "Dubai International Airport",
      "updatedAt": "051130Z",
      "visibility_m": 10000,
      "taf_visibility_m": 8000,
      "worst_visibility_m": 8000,
      "ceiling_ft": null,
      "hazards": [],
      "severityScore": 0,
      "metarRaw": "METAR OMDB 051130Z 33010KT 310V030 CAVOK 25/13 Q1019 NOSIG",
      "tafRaw": "TAF OMDB 051100Z 0512/0618 34010KT 8000 NSC \n  BECMG 0514/0516 05007KT \n  BECMG 0608/0610 35010KT \n  BECMG 0616/0618 08005KT",
      "metarHtml": "METAR OMDB 051130Z 33010KT 310V030 <span class=\"hl-vis\">CAVOK</span> 25/13 Q1019 NOSIG",
      "tafHtml": "TAF OMDB 051100Z 0512/0618 34010KT 8000 NSC \n  BECMG 0514/0516 05007KT \n  BECMG 0608/0610 35010KT \n  BECMG 0616/0618 08005KT"
    },
    {
      "icao": "UGKO",
      "iata": "KUT",
      "name": "David the Builder Kutaisi International Airport",
      "updatedAt": "051130Z",
      "visibility_m": 10000,
      "taf_visibility_m": 10000,
      "worst_visibility_m": 10000,
      "ceiling_ft": null,
      "hazards": [],
      "severityScore": 0,
      "metarRaw": "METAR UGKO 051130Z 09006KT CAVOK 15/03 Q1022 NOSIG",
      "tafRaw": "TAF UGKO 051100Z 0512/0612 08007KT CAVOK TX15/0512Z TN03/0523Z \n  TEMPO 0602/0612 08017KT \n  TEMPO 0606/0612 BKN080",
      "metarHtml": "METAR UGKO 051130Z 09006KT <span class=\"hl-vis\">CAVOK</span> 15/03 Q1022 NOSIG",
      "tafHtml": "TAF UGKO 051100Z 0512/0612 08007KT <span class=\"hl-vis\">CAVOK</span> TX15/0512Z TN03/0523Z \n  TEMPO 0602/0612 08017KT \n  TEMPO 0606/0612 BKN080"
    }
  ],
  "stats": {
    "icaoCount": 159,
    "metarReturned": 159,
    "tafReturned": 158,
    "stationsWritten": 159,
    "missingMetar": 0,
    "missingTaf": 1
  },
  "errors": []
}