{
  "generatedAt": "2026-01-08T04:36:29.380Z",
  "stations": [
    {
      "icao": "EBCI",
      "iata": "CRL",
      "name": "Brussels South Charleroi Airport",
      "updatedAt": "080420Z",
      "visibility_m": 500,
      "taf_visibility_m": 400,
      "worst_visibility_m": 400,
      "ceiling_ft": 100,
      "hazards": [
        "FG",
        "BR",
        "RA",
        "SHRA",
        "FZDZ",
        "DZ"
      ],
      "severityScore": 100,
      "metarRaw": "METAR EBCI 080420Z 21009KT 4000 BR BKN004 BKN006 01/00 Q1006 TEMPO 0500 -FZDZRA FG BKN001",
      "tafRaw": "TAF EBCI 072300Z 0800/0906 21007KT 9999 SCT030 \n  PROB40 \n  TEMPO 0800/0805 SCT004 BKN006 \n  BECMG 0804/0806 2500 BR SCT002 BKN003 \n  PROB30 \n  TEMPO 0805/0807 -FZDZ \n  PROB40 0806/0818 1200 -DZ -DZRA BR \n  PROB40 \n  TEMPO 0808/0818 0400 FG BKN001 \n  BECMG 0818/0820 6000 RA RADZ \n  PROB30 \n  TEMPO 0818/0823 BKN004 \n  BECMG 0823/0902 19020G30KT NSW SCT014 BKN020 \n  PROB40 \n  TEMPO 0902/0906 RA SHRA 18028G45KT \n  PROB40 \n  TEMPO 0904/0906 3500 SNRA BKN003",
      "metarHtml": "METAR EBCI 080420Z 21009KT 4000 <span class=\"hl\">BR</span> BKN004 BKN006 01/00 Q1006 TEMPO <span class=\"hl-vis\">0500</span> -FZDZRA <span class=\"hl\">FG</span> BKN001",
      "tafHtml": "TAF EBCI 072300Z 0800/0906 21007KT 9999 SCT030 \n  PROB40 \n  TEMPO 0800/0805 SCT004 BKN006 \n  BECMG 0804/0806 2500 <span class=\"hl\">BR</span> SCT002 BKN003 \n  PROB30 \n  TEMPO 0805/0807 -<span class=\"hl\">FZDZ</span> \n  PROB40 0806/0818 1200 -<span class=\"hl\">DZ</span> -DZRA <span class=\"hl\">BR</span> \n  PROB40 \n  TEMPO 0808/0818 <span class=\"hl-vis\">0400</span> <span class=\"hl\">FG</span> BKN001 \n  BECMG 0818/0820 6000 <span class=\"hl\">RA</span> RADZ \n  PROB30 \n  TEMPO 0818/0823 BKN004 \n  BECMG 0823/0902 19020G30KT NSW SCT014 BKN020 \n  PROB40 \n  TEMPO 0902/0906 <span class=\"hl\">RA</span> <span class=\"hl\">SHRA</span> 18028G45KT \n  PROB40 \n  TEMPO 0904/0906 3500 SNRA BKN003"
    },
    {
      "icao": "EGPD",
      "iata": "ABZ",
      "name": "Aberdeen International Airport",
      "updatedAt": "080420Z",
      "visibility_m": 250,
      "taf_visibility_m": null,
      "worst_visibility_m": 250,
      "ceiling_ft": 400,
      "hazards": [
        "FZFG"
      ],
      "severityScore": 100,
      "metarRaw": "METAR EGPD 080420Z COR AUTO 16002KT 0250 R34/0250N FZFG SCT001 BKN004 M02/M03 Q1002 NOSIG",
      "tafRaw": null,
      "metarHtml": "METAR EGPD 080420Z COR AUTO 16002KT <span class=\"hl-vis\">0250</span> R34/0250N <span class=\"hl\">FZFG</span> SCT001 BKN004 M02/M03 Q1002 NOSIG",
      "tafHtml": null
    },
    {
      "icao": "EPGD",
      "iata": "GDN",
      "name": "Gdańsk Lech Wałęsa Airport",
      "updatedAt": "080430Z",
      "visibility_m": 1300,
      "taf_visibility_m": 300,
      "worst_visibility_m": 300,
      "ceiling_ft": 100,
      "hazards": [
        "BR",
        "FZFG"
      ],
      "severityScore": 100,
      "metarRaw": "METAR EPGD 080430Z 22003KT 1300 R29/P2000N -SG BR BKN001 M10/M11 Q1013",
      "tafRaw": "TAF EPGD 072330Z 0800/0824 17005KT 6000 OVC002 \n  TEMPO 0800/0808 3500 -SG BR \n  PROB40 0800/0807 0300 FZFG BKN001 \n  BECMG 0807/0810 BKN005 \n  PROB40 0810/0815 SCT005",
      "metarHtml": "METAR EPGD 080430Z 22003KT 1300 R29/P2000N -SG <span class=\"hl\">BR</span> BKN001 M10/M11 Q1013",
      "tafHtml": "TAF EPGD 072330Z 0800/0824 17005KT 6000 OVC002 \n  TEMPO 0800/0808 3500 -SG <span class=\"hl\">BR</span> \n  PROB40 0800/0807 <span class=\"hl-vis\">0300</span> <span class=\"hl\">FZFG</span> BKN001 \n  BECMG 0807/0810 BKN005 \n  PROB40 0810/0815 SCT005"
    },
    {
      "icao": "EYVI",
      "iata": "VNO",
      "name": "Vilnius International Airport",
      "updatedAt": "080420Z",
      "visibility_m": 6000,
      "taf_visibility_m": 600,
      "worst_visibility_m": 600,
      "ceiling_ft": 400,
      "hazards": [
        "FZFG",
        "BR"
      ],
      "severityScore": 100,
      "metarRaw": "METAR EYVI 080420Z 03007KT 6000 OVC004 M08/M09 Q1013 NOSIG",
      "tafRaw": "TAF EYVI 072314Z 0800/0824 VRB03KT 5000 BR OVC002 \n  TEMPO 0800/0803 1500 OVC005 \n  PROB30 \n  TEMPO 0800/0803 0600 FZFG VV002 \n  BECMG 0803/0805 06010KT 9000 NSW OVC005 \n  TEMPO 0805/0808 3000 BR OVC002 \n  BECMG 0808/0811 OVC010",
      "metarHtml": "METAR EYVI 080420Z 03007KT 6000 OVC004 M08/M09 Q1013 NOSIG",
      "tafHtml": "TAF EYVI 072314Z 0800/0824 VRB03KT 5000 <span class=\"hl\">BR</span> OVC002 \n  TEMPO 0800/0803 1500 OVC005 \n  PROB30 \n  TEMPO 0800/0803 <span class=\"hl-vis\">0600</span> <span class=\"hl\">FZFG</span> VV002 \n  BECMG 0803/0805 06010KT 9000 NSW OVC005 \n  TEMPO 0805/0808 3000 <span class=\"hl\">BR</span> OVC002 \n  BECMG 0808/0811 OVC010"
    },
    {
      "icao": "LFOB",
      "iata": "BVA",
      "name": "Beauvais Tillé airport",
      "updatedAt": "080430Z",
      "visibility_m": 700,
      "taf_visibility_m": null,
      "worst_visibility_m": 700,
      "ceiling_ft": 300,
      "hazards": [
        "FG",
        "FZRA"
      ],
      "severityScore": 100,
      "metarRaw": "METAR LFOB 080430Z AUTO 11004KT 0750 0700 R30/0800N R12/0900U FG BKN003 OVC010 02/02 Q1006 TEMPO 2000 FZRA BKN005 OVC008",
      "tafRaw": null,
      "metarHtml": "METAR LFOB 080430Z AUTO 11004KT <span class=\"hl-vis\">0750</span> <span class=\"hl-vis\">0700</span> R30/0800N R12/0900U <span class=\"hl\">FG</span> BKN003 OVC010 02/02 Q1006 TEMPO 2000 <span class=\"hl\">FZRA</span> BKN005 OVC008",
      "tafHtml": null
    },
    {
      "icao": "LIPX",
      "iata": "VRN",
      "name": "Verona Villafranca Valerio Catullo Airport",
      "updatedAt": "080420Z",
      "visibility_m": 200,
      "taf_visibility_m": 100,
      "worst_visibility_m": 100,
      "ceiling_ft": 100,
      "hazards": [
        "FZFG",
        "BR"
      ],
      "severityScore": 100,
      "metarRaw": "METAR LIPX 080420Z VRB02KT 0200 R04/0500N FZFG VV001 M04/M05 Q1012",
      "tafRaw": "TAF LIPX 072300Z 0800/0824 VRB05KT 2000 BR NSC \n  TEMPO 0800/0808 0100 FZFG BKN001 \n  BECMG 0808/0810 8000",
      "metarHtml": "METAR LIPX 080420Z VRB02KT <span class=\"hl-vis\">0200</span> R04/0500N <span class=\"hl\">FZFG</span> VV001 M04/M05 Q1012",
      "tafHtml": "TAF LIPX 072300Z 0800/0824 VRB05KT 2000 <span class=\"hl\">BR</span> NSC \n  TEMPO 0800/0808 <span class=\"hl-vis\">0100</span> <span class=\"hl\">FZFG</span> BKN001 \n  BECMG 0808/0810 8000"
    },
    {
      "icao": "LRIA",
      "iata": "IAS",
      "name": "Iaşi Airport",
      "updatedAt": "080430Z",
      "visibility_m": 5000,
      "taf_visibility_m": 350,
      "worst_visibility_m": 350,
      "ceiling_ft": 200,
      "hazards": [
        "FZRA",
        "BR",
        "SN",
        "FZDZ"
      ],
      "severityScore": 100,
      "metarRaw": "METAR LRIA 080430Z 32006KT 5000 -FZRA OVC002 M01/M01 Q1000",
      "tafRaw": "TAF LRIA 080200Z 0803/0812 31006KT 5000 BR OVC005 \n  PROB40 \n  TEMPO 0803/0806 1500 -FZDZ BR OVC002 \n  BECMG 0806/0808 1500 SN OVC002 \n  TEMPO 0808/0812 0350 +SN OVC001",
      "metarHtml": "METAR LRIA 080430Z 32006KT 5000 -<span class=\"hl\">FZRA</span> OVC002 M01/M01 Q1000",
      "tafHtml": "TAF LRIA 080200Z 0803/0812 31006KT 5000 <span class=\"hl\">BR</span> OVC005 \n  PROB40 \n  TEMPO 0803/0806 1500 -<span class=\"hl\">FZDZ</span> <span class=\"hl\">BR</span> OVC002 \n  BECMG 0806/0808 1500 <span class=\"hl\">SN</span> OVC002 \n  TEMPO 0808/0812 <span class=\"hl-vis\">0350</span> +<span class=\"hl\">SN</span> OVC001"
    },
    {
      "icao": "LRCV",
      "iata": "CRA",
      "name": "Craiova International Airport",
      "updatedAt": "080430Z",
      "visibility_m": 2300,
      "taf_visibility_m": 1500,
      "worst_visibility_m": 1500,
      "ceiling_ft": 300,
      "hazards": [
        "BR",
        "SN",
        "FZDZ"
      ],
      "severityScore": 100,
      "metarRaw": "METAR LRCV 080430Z 27014KT 2300 SN BR BKN003 OVC005 M02/M02 Q1000 RESN",
      "tafRaw": "TAF LRCV 080200Z 0803/0812 VRB04KT 5000 -FZDZ BR BKN005 OVC015 \n  BECMG 0803/0805 28012KT 3000 -SN BKN002 OVC010 \n  PROB40 \n  TEMPO 0805/0807 1500 SN \n  BECMG 0807/0809 9999 NSW BKN035 \n  BECMG 0809/0811 28022KT",
      "metarHtml": "METAR LRCV 080430Z 27014KT 2300 <span class=\"hl\">SN</span> <span class=\"hl\">BR</span> BKN003 OVC005 M02/M02 Q1000 RESN",
      "tafHtml": "TAF LRCV 080200Z 0803/0812 VRB04KT 5000 -<span class=\"hl\">FZDZ</span> <span class=\"hl\">BR</span> BKN005 OVC015 \n  BECMG 0803/0805 28012KT 3000 -<span class=\"hl\">SN</span> BKN002 OVC010 \n  PROB40 \n  TEMPO 0805/0807 1500 <span class=\"hl\">SN</span> \n  BECMG 0807/0809 9999 NSW BKN035 \n  BECMG 0809/0811 28022KT"
    },
    {
      "icao": "LUKK",
      "iata": "RMO",
      "name": "Chişinău International Airport",
      "updatedAt": "080430Z",
      "visibility_m": 1000,
      "taf_visibility_m": 800,
      "worst_visibility_m": 800,
      "ceiling_ft": 200,
      "hazards": [
        "BR",
        "RA",
        "FG",
        "FZRA",
        "SN",
        "BLSN",
        "SHRA",
        "DZ"
      ],
      "severityScore": 100,
      "metarRaw": "METAR LUKK 080430Z 06006KT 2100 -RA BR OVC002 00/00 Q0999 TEMPO 1000 BR",
      "tafRaw": "TAF LUKK 072301Z 0800/0824 04005KT 4000 -DZ BR OVC003 \n  TEMPO 0802/0806 0800 -DZ FG VV/// \n  BECMG 0806/0808 31010KT 5000 -SHRA BR BKN008 BKN012CB \n  BECMG 0810/0812 29016G26KT 3000 -FZRA -SN OVC003 \n  TEMPO 0814/0819 32020G30KT 0800 +SN BLSN OVC001 \n  BECMG 0819/0821 4000 -SN BLSN BKN010",
      "metarHtml": "METAR LUKK 080430Z 06006KT 2100 -<span class=\"hl\">RA</span> <span class=\"hl\">BR</span> OVC002 00/00 Q0999 TEMPO 1000 <span class=\"hl\">BR</span>",
      "tafHtml": "TAF LUKK 072301Z <span class=\"hl-vis\">0800</span>/0824 04005KT 4000 -<span class=\"hl\">DZ</span> <span class=\"hl\">BR</span> OVC003 \n  TEMPO 0802/0806 <span class=\"hl-vis\">0800</span> -<span class=\"hl\">DZ</span> <span class=\"hl\">FG</span> VV/// \n  BECMG 0806/0808 31010KT 5000 -<span class=\"hl\">SHRA</span> <span class=\"hl\">BR</span> BKN008 BKN012CB \n  BECMG 0810/0812 29016G26KT 3000 -<span class=\"hl\">FZRA</span> -<span class=\"hl\">SN</span> OVC003 \n  TEMPO 0814/0819 32020G30KT <span class=\"hl-vis\">0800</span> +<span class=\"hl\">SN</span> <span class=\"hl\">BLSN</span> OVC001 \n  BECMG 0819/0821 4000 -<span class=\"hl\">SN</span> <span class=\"hl\">BLSN</span> BKN010"
    },
    {
      "icao": "UAAA",
      "iata": "ALA",
      "name": "Almaty International Airport",
      "updatedAt": "080430Z",
      "visibility_m": 1600,
      "taf_visibility_m": 200,
      "worst_visibility_m": 200,
      "ceiling_ft": 300,
      "hazards": [
        "BR",
        "FZFG"
      ],
      "severityScore": 100,
      "metarRaw": "METAR UAAA 080430Z VRB01MPS 1600 R23L/1600N BR OVC003 M06/M07 Q1033 NOSIG RMK QBB100",
      "tafRaw": "TAF UAAA 072305Z 0800/0824 24003MPS 1100 BR FU BKN003 OVC011 TXM00/0809Z TNM07/0801Z \n  TEMPO 0800/0806 0200 FZFG VV001 \n  FM080700 01003MPS 3100 BR SCT011 BKN100 \n  TEMPO 0807/0814 1200 BKN004 OVC011 \n  TEMPO 0814/0824 02003MPS 0500 FZFG VV002",
      "metarHtml": "METAR UAAA 080430Z VRB01MPS 1600 R23L/1600N <span class=\"hl\">BR</span> OVC003 M06/M07 Q1033 NOSIG RMK QBB100",
      "tafHtml": "TAF UAAA 072305Z 0800/0824 24003MPS 1100 <span class=\"hl\">BR</span> FU BKN003 OVC011 TXM00/0809Z TNM07/0801Z \n  TEMPO 0800/0806 <span class=\"hl-vis\">0200</span> <span class=\"hl\">FZFG</span> VV001 \n  FM080700 01003MPS 3100 <span class=\"hl\">BR</span> SCT011 BKN100 \n  TEMPO 0807/0814 1200 BKN004 OVC011 \n  TEMPO 0814/0824 02003MPS <span class=\"hl-vis\">0500</span> <span class=\"hl\">FZFG</span> VV002"
    },
    {
      "icao": "UBBB",
      "iata": "GYD",
      "name": "Heydar Aliyev International Airport",
      "updatedAt": "080430Z",
      "visibility_m": 650,
      "taf_visibility_m": 300,
      "worst_visibility_m": 300,
      "ceiling_ft": 200,
      "hazards": [
        "FG",
        "BR"
      ],
      "severityScore": 100,
      "metarRaw": "METAR UBBB 080430Z 19004KT 0650 R16/0650 R17/0800 FG VV002 05/05 Q1020 NOSIG",
      "tafRaw": "TAF UBBB 072259Z 0800/0824 17005KT 0300 FG VV002 TX09/0810Z TN04/0803Z \n  TEMPO 0800/0805 VRB04KT 0500 VV003 \n  BECMG 0805/0806 2000 BR BKN004 \n  BECMG 0806/0808 20006KT 8000 NSW SCT012 \n  TEMPO 0808/0814 21012KT \n  BECMG 0818/0820 19014KT",
      "metarHtml": "METAR UBBB 080430Z 19004KT <span class=\"hl-vis\">0650</span> R16/<span class=\"hl-vis\">0650</span> R17/0800 <span class=\"hl\">FG</span> VV002 05/05 Q1020 NOSIG",
      "tafHtml": "TAF UBBB 072259Z 0800/0824 17005KT <span class=\"hl-vis\">0300</span> <span class=\"hl\">FG</span> VV002 TX09/0810Z TN04/0803Z \n  TEMPO 0800/0805 VRB04KT <span class=\"hl-vis\">0500</span> VV003 \n  BECMG 0805/0806 2000 <span class=\"hl\">BR</span> BKN004 \n  BECMG 0806/0808 20006KT 8000 NSW SCT012 \n  TEMPO 0808/0814 21012KT \n  BECMG 0818/0820 19014KT"
    },
    {
      "icao": "LRBC",
      "iata": "BCM",
      "name": "Bacău George Enescu International  Airport",
      "updatedAt": "080430Z",
      "visibility_m": 3100,
      "taf_visibility_m": 350,
      "worst_visibility_m": 350,
      "ceiling_ft": 2300,
      "hazards": [
        "BR",
        "SN",
        "FZRA"
      ],
      "severityScore": 98,
      "metarRaw": "METAR LRBC 080430Z 36007KT 3100 -SN BR FEW012 OVC023 M01/M03 Q1000",
      "tafRaw": "TAF LRBC 080200Z 0803/0812 34008KT 5000 -FZRA BR BKN005 OVC020 \n  BECMG 0803/0805 3000 SN BR BKN002 OVC010 \n  TEMPO 0805/0808 1500 SN \n  TEMPO 0808/0811 35018KT 0350 +SN OVC001",
      "metarHtml": "METAR LRBC 080430Z 36007KT 3100 -<span class=\"hl\">SN</span> <span class=\"hl\">BR</span> FEW012 OVC023 M01/M03 Q1000",
      "tafHtml": "TAF LRBC 080200Z 0803/0812 34008KT 5000 -<span class=\"hl\">FZRA</span> <span class=\"hl\">BR</span> BKN005 OVC020 \n  BECMG 0803/0805 3000 <span class=\"hl\">SN</span> <span class=\"hl\">BR</span> BKN002 OVC010 \n  TEMPO 0805/0808 1500 <span class=\"hl\">SN</span> \n  TEMPO 0808/0811 35018KT <span class=\"hl-vis\">0350</span> +<span class=\"hl\">SN</span> OVC001"
    },
    {
      "icao": "LRSV",
      "iata": "SCV",
      "name": "Suceava Stefan cel Mare Airport",
      "updatedAt": "080430Z",
      "visibility_m": 2000,
      "taf_visibility_m": 350,
      "worst_visibility_m": 350,
      "ceiling_ft": 3200,
      "hazards": [
        "SN",
        "BR",
        "FZRA"
      ],
      "severityScore": 98,
      "metarRaw": "METAR LRSV 080430Z 32006KT 2000 SN SCT020 BKN032 M04/M05 Q1000",
      "tafRaw": "TAF LRSV 080200Z 0803/0812 34008KT 5000 -FZRA BR BKN005 OVC010 \n  BECMG 0803/0805 3000 SN BR BKN002 OVC010 \n  TEMPO 0805/0809 0350 +SN OVC001",
      "metarHtml": "METAR LRSV 080430Z 32006KT 2000 <span class=\"hl\">SN</span> SCT020 BKN032 M04/M05 Q1000",
      "tafHtml": "TAF LRSV 080200Z 0803/0812 34008KT 5000 -<span class=\"hl\">FZRA</span> <span class=\"hl\">BR</span> BKN005 OVC010 \n  BECMG 0803/0805 3000 <span class=\"hl\">SN</span> <span class=\"hl\">BR</span> BKN002 OVC010 \n  TEMPO 0805/0809 <span class=\"hl-vis\">0350</span> +<span class=\"hl\">SN</span> OVC001"
    },
    {
      "icao": "UDYZ",
      "iata": "EVN",
      "name": "Zvartnots International Airport",
      "updatedAt": "080430Z",
      "visibility_m": 2400,
      "taf_visibility_m": 200,
      "worst_visibility_m": 200,
      "ceiling_ft": null,
      "hazards": [
        "BR",
        "FZFG"
      ],
      "severityScore": 95,
      "metarRaw": "METAR UDYZ 080430Z VRB01KT 2400 BR NSC M10/M11 Q1027 NOSIG",
      "tafRaw": "TAF UDYZ 072300Z 0800/0824 VRB04KT 1200 BR FEW040 \n  TEMPO 0800/0806 0200 FZFG VV001",
      "metarHtml": "METAR UDYZ 080430Z VRB01KT 2400 <span class=\"hl\">BR</span> NSC M10/M11 Q1027 NOSIG",
      "tafHtml": "TAF UDYZ 072300Z 0800/0824 VRB04KT 1200 <span class=\"hl\">BR</span> FEW040 \n  TEMPO 0800/0806 <span class=\"hl-vis\">0200</span> <span class=\"hl\">FZFG</span> VV001"
    },
    {
      "icao": "EYKA",
      "iata": "KUN",
      "name": "Kaunas International Airport",
      "updatedAt": "080420Z",
      "visibility_m": 4200,
      "taf_visibility_m": 600,
      "worst_visibility_m": 600,
      "ceiling_ft": 500,
      "hazards": [
        "BR",
        "FZFG"
      ],
      "severityScore": 90,
      "metarRaw": "METAR EYKA 080420Z VRB02KT 4200 BR OVC005 M11/M12 Q1015",
      "tafRaw": "TAF EYKA 072316Z 0800/0824 VRB03KT 3000 BR OVC002 \n  TEMPO 0800/0802 1500 \n  PROB30 \n  TEMPO 0800/0802 0600 FZFG VV002 \n  BECMG 0802/0804 5000 OVC005 \n  BECMG 0804/0806 9000 NSW OVC010 \n  BECMG 0818/0821 SCT010",
      "metarHtml": "METAR EYKA 080420Z VRB02KT 4200 <span class=\"hl\">BR</span> OVC005 M11/M12 Q1015",
      "tafHtml": "TAF EYKA 072316Z 0800/0824 VRB03KT 3000 <span class=\"hl\">BR</span> OVC002 \n  TEMPO 0800/0802 1500 \n  PROB30 \n  TEMPO 0800/0802 <span class=\"hl-vis\">0600</span> <span class=\"hl\">FZFG</span> VV002 \n  BECMG 0802/0804 5000 OVC005 \n  BECMG 0804/0806 9000 NSW OVC010 \n  BECMG 0818/0821 SCT010"
    },
    {
      "icao": "LIPE",
      "iata": "BLQ",
      "name": "Bologna Guglielmo Marconi Airport",
      "updatedAt": "080420Z",
      "visibility_m": 10000,
      "taf_visibility_m": 200,
      "worst_visibility_m": 200,
      "ceiling_ft": null,
      "hazards": [
        "FZFG"
      ],
      "severityScore": 85,
      "metarRaw": "METAR LIPE 080420Z 21006KT CAVOK M04/M08 Q1012",
      "tafRaw": "TAF LIPE 072300Z 0800/0824 VRB05KT 9999 FEW030 \n  PROB30 \n  TEMPO 0802/0808 0200 FZFG",
      "metarHtml": "METAR LIPE 080420Z 21006KT <span class=\"hl-vis\">CAVOK</span> M04/M08 Q1012",
      "tafHtml": "TAF LIPE 072300Z 0800/0824 VRB05KT 9999 FEW030 \n  PROB30 \n  TEMPO 0802/0808 <span class=\"hl-vis\">0200</span> <span class=\"hl\">FZFG</span>"
    },
    {
      "icao": "LRTR",
      "iata": "TSR",
      "name": "Timişoara Traian Vuia Airport",
      "updatedAt": "080430Z",
      "visibility_m": 4000,
      "taf_visibility_m": 800,
      "worst_visibility_m": 800,
      "ceiling_ft": 3400,
      "hazards": [
        "BR",
        "SN",
        "FZFG"
      ],
      "severityScore": 83,
      "metarRaw": "METAR LRTR 080430Z 30007KT 4000 -SN BR SCT003 BKN034 M05/M05 Q1007",
      "tafRaw": "TAF LRTR 072300Z 0800/0824 32008KT 3000 -SN BR BKN010 OVC040 \n  PROB30 \n  TEMPO 0800/0803 0800 SN FZFG BKN002 OVC015 \n  BECMG 0807/0809 7000 NSW BKN015 \n  BECMG 0820/0822 3000 BR BKN010 \n  TEMPO 0822/0824 0800 FZFG VV002",
      "metarHtml": "METAR LRTR 080430Z 30007KT 4000 -<span class=\"hl\">SN</span> <span class=\"hl\">BR</span> SCT003 BKN034 M05/M05 Q1007",
      "tafHtml": "TAF LRTR 072300Z <span class=\"hl-vis\">0800</span>/0824 32008KT 3000 -<span class=\"hl\">SN</span> <span class=\"hl\">BR</span> BKN010 OVC040 \n  PROB30 \n  TEMPO <span class=\"hl-vis\">0800</span>/0803 <span class=\"hl-vis\">0800</span> <span class=\"hl\">SN</span> <span class=\"hl\">FZFG</span> BKN002 OVC015 \n  BECMG 0807/0809 7000 NSW BKN015 \n  BECMG 0820/0822 3000 <span class=\"hl\">BR</span> BKN010 \n  TEMPO 0822/0824 <span class=\"hl-vis\">0800</span> <span class=\"hl\">FZFG</span> VV002"
    },
    {
      "icao": "EDFH",
      "iata": "HHN",
      "name": "Frankfurt-Hahn Airport",
      "updatedAt": "080420Z",
      "visibility_m": 2600,
      "taf_visibility_m": null,
      "worst_visibility_m": 2600,
      "ceiling_ft": 100,
      "hazards": [
        "BR",
        "FZDZ"
      ],
      "severityScore": 78,
      "metarRaw": "METAR EDFH 080420Z 23007KT 200V260 2600 FZDZ BR OVC001 M02/M02 Q1007",
      "tafRaw": null,
      "metarHtml": "METAR EDFH 080420Z 23007KT 200V260 2600 <span class=\"hl\">FZDZ</span> <span class=\"hl\">BR</span> OVC001 M02/M02 Q1007",
      "tafHtml": null
    },
    {
      "icao": "LBSF",
      "iata": "SOF",
      "name": "Sofia Airport",
      "updatedAt": "080430Z",
      "visibility_m": 8000,
      "taf_visibility_m": 800,
      "worst_visibility_m": 800,
      "ceiling_ft": 3000,
      "hazards": [
        "FZRA",
        "SN"
      ],
      "severityScore": 78,
      "metarRaw": "METAR LBSF 080430Z 28019KT 8000 BKN030 OVC035 M02/M06 Q1000 NOSIG",
      "tafRaw": "TAF LBSF 072300Z 0800/0824 28014G30KT 3000 SNRA SCT005 BKN010 OVC015 \n  PROB40 \n  TEMPO 0800/0801 2000 FZRA \n  TEMPO 0802/0805 0800 +SN SCT002 OVC005 \n  BECMG 0805/0807 4000 -SN SCT010 BKN020 OVC030 \n  BECMG 0810/0812 9999 NSW SCT040 BKN060",
      "metarHtml": "METAR LBSF 080430Z 28019KT 8000 BKN030 OVC035 M02/M06 Q1000 NOSIG",
      "tafHtml": "TAF LBSF 072300Z <span class=\"hl-vis\">0800</span>/0824 28014G30KT 3000 SNRA SCT005 BKN010 OVC015 \n  PROB40 \n  TEMPO <span class=\"hl-vis\">0800</span>/0801 2000 <span class=\"hl\">FZRA</span> \n  TEMPO 0802/0805 <span class=\"hl-vis\">0800</span> +<span class=\"hl\">SN</span> SCT002 OVC005 \n  BECMG 0805/0807 4000 -<span class=\"hl\">SN</span> SCT010 BKN020 OVC030 \n  BECMG 0810/0812 9999 NSW SCT040 BKN060"
    },
    {
      "icao": "EPSY",
      "iata": "SZY",
      "name": "Olsztyn-Mazury Airport",
      "updatedAt": "080430Z",
      "visibility_m": 1400,
      "taf_visibility_m": 500,
      "worst_visibility_m": 500,
      "ceiling_ft": null,
      "hazards": [
        "BR",
        "FZFG"
      ],
      "severityScore": 75,
      "metarRaw": "METAR EPSY 080430Z 36002KT 1400 R01/1400N BR SCT002 M12/M13 Q1013",
      "tafRaw": "TAF EPSY 080230Z 0803/0812 VRB02KT 0500 FZFG OVC001 \n  TEMPO 0803/0806 1200 BR \n  BECMG 0806/0808 3000 BR BKN003",
      "metarHtml": "METAR EPSY 080430Z 36002KT 1400 R01/1400N <span class=\"hl\">BR</span> SCT002 M12/M13 Q1013",
      "tafHtml": "TAF EPSY 080230Z 0803/0812 VRB02KT <span class=\"hl-vis\">0500</span> <span class=\"hl\">FZFG</span> OVC001 \n  TEMPO 0803/0806 1200 <span class=\"hl\">BR</span> \n  BECMG 0806/0808 3000 <span class=\"hl\">BR</span> BKN003"
    },
    {
      "icao": "LFLS",
      "iata": "GNB",
      "name": "Grenoble Alpes Isère Airport",
      "updatedAt": "080430Z",
      "visibility_m": 1200,
      "taf_visibility_m": 1200,
      "worst_visibility_m": 1200,
      "ceiling_ft": 800,
      "hazards": [
        "SN",
        "BR",
        "RA"
      ],
      "severityScore": 75,
      "metarRaw": "METAR LFLS 080430Z AUTO 10007KT 8000 -SN SCT025/// BKN032/// OVC040/// ///TCU M01/M03 Q1015 TEMPO 1200 SN BKN008",
      "tafRaw": "TAF LFLS 080200Z 0803/0903 08005KT 9999 OVC050 \n  BECMG 0803/0805 -SN OVC030 \n  TEMPO 0803/0808 1200 SN BKN008 \n  FM080800 08006KT 9999 -RA OVC030 \n  TEMPO 0808/0815 4000 RA BKN012 \n  PROB30 \n  TEMPO 0815/0820 4000 -RA BR \n  BECMG 0819/0821 18012KT 9999 BKN060 \n  PROB40 \n  TEMPO 0821/0903 18020G30KT",
      "metarHtml": "METAR LFLS 080430Z AUTO 10007KT 8000 -<span class=\"hl\">SN</span> SCT025/// BKN032/// OVC040/// ///TCU M01/M03 Q1015 TEMPO 1200 <span class=\"hl\">SN</span> BKN008",
      "tafHtml": "TAF LFLS 080200Z 0803/0903 08005KT 9999 OVC050 \n  BECMG 0803/0805 -<span class=\"hl\">SN</span> OVC030 \n  TEMPO 0803/0808 1200 <span class=\"hl\">SN</span> BKN008 \n  FM080800 08006KT 9999 -<span class=\"hl\">RA</span> OVC030 \n  TEMPO 0808/0815 4000 <span class=\"hl\">RA</span> BKN012 \n  PROB30 \n  TEMPO 0815/0820 4000 -<span class=\"hl\">RA</span> <span class=\"hl\">BR</span> \n  BECMG 0819/0821 18012KT 9999 BKN060 \n  PROB40 \n  TEMPO 0821/0903 18020G30KT"
    },
    {
      "icao": "LJLJ",
      "iata": "LJU",
      "name": "Ljubljana Jože Pučnik Airport",
      "updatedAt": "080430Z",
      "visibility_m": 10000,
      "taf_visibility_m": 300,
      "worst_visibility_m": 300,
      "ceiling_ft": 2000,
      "hazards": [
        "FZFG"
      ],
      "severityScore": 75,
      "metarRaw": "METAR LJLJ 080430Z 31003KT 9999 BKN020 M11/M13 Q1010 NOSIG",
      "tafRaw": "TAF LJLJ 072300Z 0800/0900 VRB02KT 9999 SCT010 OVC030 \n  PROB30 \n  TEMPO 0802/0810 0300 FZFG VV001",
      "metarHtml": "METAR LJLJ 080430Z 31003KT 9999 BKN020 M11/M13 Q1010 NOSIG",
      "tafHtml": "TAF LJLJ 072300Z 0800/0900 VRB02KT 9999 SCT010 OVC030 \n  PROB30 \n  TEMPO 0802/0810 <span class=\"hl-vis\">0300</span> <span class=\"hl\">FZFG</span> VV001"
    },
    {
      "icao": "EPLB",
      "iata": "LUZ",
      "name": "Lublin Airport",
      "updatedAt": "080430Z",
      "visibility_m": 2200,
      "taf_visibility_m": 1200,
      "worst_visibility_m": 1200,
      "ceiling_ft": 1600,
      "hazards": [
        "BR",
        "SN",
        "BLSN"
      ],
      "severityScore": 72,
      "metarRaw": "METAR EPLB 080430Z 03009KT 2200 -SN BR BKN016 OVC019 M06/M06 Q1008 RESN",
      "tafRaw": "TAF EPLB 072330Z 0800/0824 03010KT 4000 -SN BR OVC030 \n  TEMPO 0800/0824 2000 SN BR BKN005 OVC010 \n  PROB40 \n  TEMPO 0812/0824 01017G27KT 1200 BLSN",
      "metarHtml": "METAR EPLB 080430Z 03009KT 2200 -<span class=\"hl\">SN</span> <span class=\"hl\">BR</span> BKN016 OVC019 M06/M06 Q1008 RESN",
      "tafHtml": "TAF EPLB 072330Z 0800/0824 03010KT 4000 -<span class=\"hl\">SN</span> <span class=\"hl\">BR</span> OVC030 \n  TEMPO 0800/0824 2000 <span class=\"hl\">SN</span> <span class=\"hl\">BR</span> BKN005 OVC010 \n  PROB40 \n  TEMPO 0812/0824 01017G27KT 1200 <span class=\"hl\">BLSN</span>"
    },
    {
      "icao": "EDDH",
      "iata": "HAM",
      "name": "Hamburg Helmut Schmidt Airport",
      "updatedAt": "080420Z",
      "visibility_m": 4000,
      "taf_visibility_m": 1200,
      "worst_visibility_m": 1200,
      "ceiling_ft": 400,
      "hazards": [
        "SN"
      ],
      "severityScore": 63,
      "metarRaw": "METAR EDDH 080420Z AUTO 14010KT 9999 -SN OVC009 M02/M04 Q1005 TEMPO 4000 -SN OVC004",
      "tafRaw": "TAF EDDH 072300Z 0800/0906 15012KT 9999 BKN020 \n  BECMG 0800/0803 BKN013 \n  TEMPO 0800/0808 3000 -SN \n  TEMPO 0800/0806 BKN007 \n  PROB30 \n  TEMPO 0800/0808 1200 SN BKN004 \n  BECMG 0806/0808 13007KT BKN007 \n  PROB40 \n  TEMPO 0808/0820 4000 -SG \n  PROB30 \n  TEMPO 0812/0818 2500 -SNRA \n  BECMG 0816/0818 BKN004 \n  BECMG 0821/0824 11012KT \n  BECMG 0902/0904 10015G25KT BKN007 \n  TEMPO 0904/0906 10020G30KT 1200 SN BKN004",
      "metarHtml": "METAR EDDH 080420Z AUTO 14010KT 9999 -<span class=\"hl\">SN</span> OVC009 M02/M04 Q1005 TEMPO 4000 -<span class=\"hl\">SN</span> OVC004",
      "tafHtml": "TAF EDDH 072300Z 0800/0906 15012KT 9999 BKN020 \n  BECMG 0800/0803 BKN013 \n  TEMPO 0800/0808 3000 -<span class=\"hl\">SN</span> \n  TEMPO 0800/0806 BKN007 \n  PROB30 \n  TEMPO 0800/0808 1200 <span class=\"hl\">SN</span> BKN004 \n  BECMG 0806/0808 13007KT BKN007 \n  PROB40 \n  TEMPO 0808/0820 4000 -SG \n  PROB30 \n  TEMPO 0812/0818 2500 -SNRA \n  BECMG 0816/0818 BKN004 \n  BECMG 0821/0824 11012KT \n  BECMG 0902/0904 10015G25KT BKN007 \n  TEMPO 0904/0906 10020G30KT 1200 <span class=\"hl\">SN</span> BKN004"
    },
    {
      "icao": "EPKK",
      "iata": "KRK",
      "name": "Kraków John Paul II International Airport",
      "updatedAt": "080430Z",
      "visibility_m": 2400,
      "taf_visibility_m": 500,
      "worst_visibility_m": 500,
      "ceiling_ft": 2000,
      "hazards": [
        "BR",
        "SN"
      ],
      "severityScore": 63,
      "metarRaw": "METAR EPKK 080430Z 26003KT 2400 SN BR BKN020 M06/M08 Q1009",
      "tafRaw": "TAF EPKK 080230Z 0803/0903 VRB02KT 5000 -SN BR FEW008 BKN030 \n  TEMPO 0803/0811 1400 SN BR BKN007 BKN012 \n  PROB30 \n  TEMPO 0803/0810 0500 +SN BKN004 \n  BECMG 0806/0809 35010KT \n  TEMPO 0811/0903 4500 -SN BR BKN012 \n  PROB40 \n  TEMPO 0822/0903 1200 BR BKN003",
      "metarHtml": "METAR EPKK 080430Z 26003KT 2400 <span class=\"hl\">SN</span> <span class=\"hl\">BR</span> BKN020 M06/M08 Q1009",
      "tafHtml": "TAF EPKK 080230Z 0803/0903 VRB02KT 5000 -<span class=\"hl\">SN</span> <span class=\"hl\">BR</span> FEW008 BKN030 \n  TEMPO 0803/0811 1400 <span class=\"hl\">SN</span> <span class=\"hl\">BR</span> BKN007 BKN012 \n  PROB30 \n  TEMPO 0803/0810 <span class=\"hl-vis\">0500</span> +<span class=\"hl\">SN</span> BKN004 \n  BECMG 0806/0809 35010KT \n  TEMPO 0811/0903 4500 -<span class=\"hl\">SN</span> <span class=\"hl\">BR</span> BKN012 \n  PROB40 \n  TEMPO 0822/0903 1200 <span class=\"hl\">BR</span> BKN003"
    },
    {
      "icao": "LRSB",
      "iata": "SBZ",
      "name": "Sibiu International Airport",
      "updatedAt": "080430Z",
      "visibility_m": 10000,
      "taf_visibility_m": 1500,
      "worst_visibility_m": 1500,
      "ceiling_ft": 3800,
      "hazards": [
        "FZRA",
        "SN"
      ],
      "severityScore": 63,
      "metarRaw": "METAR LRSB 080430Z 30009KT 9999 FEW020 BKN038 M02/M04 Q1000",
      "tafRaw": "TAF LRSB 072300Z 0800/0824 33004KT 5000 -FZRA OVC005 \n  PROB40 \n  TEMPO 0801/0804 1500 +SN VV002 \n  BECMG 0805/0807 30016KT 3000 SN BKN015 OVC025 \n  BECMG 0809/0811 9999 NSW BKN035",
      "metarHtml": "METAR LRSB 080430Z 30009KT 9999 FEW020 BKN038 M02/M04 Q1000",
      "tafHtml": "TAF LRSB 072300Z 0800/0824 33004KT 5000 -<span class=\"hl\">FZRA</span> OVC005 \n  PROB40 \n  TEMPO 0801/0804 1500 +<span class=\"hl\">SN</span> VV002 \n  BECMG 0805/0807 30016KT 3000 <span class=\"hl\">SN</span> BKN015 OVC025 \n  BECMG 0809/0811 9999 NSW BKN035"
    },
    {
      "icao": "LRSM",
      "iata": "SUJ",
      "name": "Satu Mare International Airport",
      "updatedAt": "080430Z",
      "visibility_m": 2400,
      "taf_visibility_m": 1500,
      "worst_visibility_m": 1500,
      "ceiling_ft": 700,
      "hazards": [
        "SN",
        "BR"
      ],
      "severityScore": 63,
      "metarRaw": "METAR LRSM 080430Z AUTO 28009KT 2400 -SN VV007 M04/M05 Q1003",
      "tafRaw": "TAF LRSM 080200Z 0803/0812 30006KT 3000 -SN BR BKN010 OVC030 \n  TEMPO 0803/0809 1500 SN BR BKN002 OVC010",
      "metarHtml": "METAR LRSM 080430Z AUTO 28009KT 2400 -<span class=\"hl\">SN</span> VV007 M04/M05 Q1003",
      "tafHtml": "TAF LRSM 080200Z 0803/0812 30006KT 3000 -<span class=\"hl\">SN</span> <span class=\"hl\">BR</span> BKN010 OVC030 \n  TEMPO 0803/0809 1500 <span class=\"hl\">SN</span> <span class=\"hl\">BR</span> BKN002 OVC010"
    },
    {
      "icao": "LTAC",
      "iata": "ESB",
      "name": "Esenboğa International Airport",
      "updatedAt": "080420Z",
      "visibility_m": 4400,
      "taf_visibility_m": 4000,
      "worst_visibility_m": 4000,
      "ceiling_ft": 3500,
      "hazards": [
        "BR",
        "TSRA",
        "RA",
        "SHRA"
      ],
      "severityScore": 61,
      "metarRaw": "METAR LTAC 080420Z VRB02KT 4400 BR BKN035 BKN080 02/02 Q1015 NOSIG RMK RWY21C VRB02KT RWY03L VRB01KT RWY21R 00000KT RWY03R VRB02KT RWY21L 24003KT 200V260",
      "tafRaw": "TAF LTAC 072240Z 0800/0824 VRB02KT 9999 SCT040 BKN100 \n  TEMPO 0800/0804 4000 -RA BR FEW010 BKN025 BKN080 \n  PROB30 \n  TEMPO 0804/0807 4000 BR SCT010 BKN025 \n  BECMG 0807/0810 21012KT \n  TEMPO 0810/0814 22015G25KT -SHRA FEW025CB BKN035 BKN080 \n  TEMPO 0814/0818 22020G30KT -TSRA SCT025CB BKN035 \n  TEMPO 0820/0824 4000 -RASN BR SCT008 BKN025",
      "metarHtml": "METAR LTAC 080420Z VRB02KT 4400 <span class=\"hl\">BR</span> BKN035 BKN080 02/02 Q1015 NOSIG RMK RWY21C VRB02KT RWY03L VRB01KT RWY21R 00000KT RWY03R VRB02KT RWY21L 24003KT 200V260",
      "tafHtml": "TAF LTAC 072240Z 0800/0824 VRB02KT 9999 SCT040 BKN100 \n  TEMPO 0800/0804 4000 -<span class=\"hl\">RA</span> <span class=\"hl\">BR</span> FEW010 BKN025 BKN080 \n  PROB30 \n  TEMPO 0804/0807 4000 <span class=\"hl\">BR</span> SCT010 BKN025 \n  BECMG 0807/0810 21012KT \n  TEMPO 0810/0814 22015G25KT -<span class=\"hl\">SHRA</span> FEW025CB BKN035 BKN080 \n  TEMPO 0814/0818 22020G30KT -<span class=\"hl\">TSRA</span> SCT025CB BKN035 \n  TEMPO 0820/0824 4000 -RASN <span class=\"hl\">BR</span> SCT008 BKN025"
    },
    {
      "icao": "LEMD",
      "iata": "MAD",
      "name": "Adolfo Suárez Madrid–Barajas Airport",
      "updatedAt": "080430Z",
      "visibility_m": 1300,
      "taf_visibility_m": null,
      "worst_visibility_m": 1300,
      "ceiling_ft": 400,
      "hazards": [
        "BR"
      ],
      "severityScore": 60,
      "metarRaw": "METAR LEMD 080430Z VRB01KT 3000 1300 BR BCFG OVC004 01/01 Q1028 NOSIG",
      "tafRaw": null,
      "metarHtml": "METAR LEMD 080430Z VRB01KT 3000 1300 <span class=\"hl\">BR</span> BCFG OVC004 01/01 Q1028 NOSIG",
      "tafHtml": null
    },
    {
      "icao": "LFPO",
      "iata": "ORY",
      "name": "Paris-Orly Airport",
      "updatedAt": "080430Z",
      "visibility_m": 2200,
      "taf_visibility_m": null,
      "worst_visibility_m": 2200,
      "ceiling_ft": 200,
      "hazards": [
        "BR",
        "DZ"
      ],
      "severityScore": 60,
      "metarRaw": "METAR LFPO 080430Z 20006KT 2200 -DZ BR OVC002 03/03 Q1007 BECMG BKN002",
      "tafRaw": null,
      "metarHtml": "METAR LFPO 080430Z 20006KT 2200 -<span class=\"hl\">DZ</span> <span class=\"hl\">BR</span> OVC002 03/03 Q1007 BECMG BKN002",
      "tafHtml": null
    },
    {
      "icao": "LFSB",
      "iata": "BSL",
      "name": "EuroAirport Basel–Mulhouse–Freiburg",
      "updatedAt": "080430Z",
      "visibility_m": 2000,
      "taf_visibility_m": null,
      "worst_visibility_m": 2000,
      "ceiling_ft": 300,
      "hazards": [
        "SN"
      ],
      "severityScore": 58,
      "metarRaw": "METAR LFSB 080430Z AUTO 19003KT 9999 OVC049 M02/M03 Q1012 TEMPO 2000 -SN BKN003",
      "tafRaw": null,
      "metarHtml": "METAR LFSB 080430Z AUTO 19003KT 9999 OVC049 M02/M03 Q1012 TEMPO 2000 -<span class=\"hl\">SN</span> BKN003",
      "tafHtml": null
    },
    {
      "icao": "LRBS",
      "iata": "BBU",
      "name": "Bucharest Băneasa Aurel Vlaicu International Airport",
      "updatedAt": "080430Z",
      "visibility_m": 6000,
      "taf_visibility_m": 5000,
      "worst_visibility_m": 5000,
      "ceiling_ft": 500,
      "hazards": [
        "RA",
        "SN"
      ],
      "severityScore": 55,
      "metarRaw": "METAR LRBS 080430Z VRB01KT 6000 -RA OVC005 02/01 Q0999 NOSIG",
      "tafRaw": "TAF LRBS 072300Z 0800/0824 07015KT 9999 OVC005 \n  PROB40 \n  TEMPO 0802/0808 5000 -SHRASN BKN010 SCT025CB \n  BECMG 0808/0810 25012KT 5000 -SN BKN010 OVC020 \n  BECMG 0811/0813 9999 NSW BKN020",
      "metarHtml": "METAR LRBS 080430Z VRB01KT 6000 -<span class=\"hl\">RA</span> OVC005 02/01 Q0999 NOSIG",
      "tafHtml": "TAF LRBS 072300Z 0800/0824 07015KT 9999 OVC005 \n  PROB40 \n  TEMPO 0802/0808 5000 -SHRASN BKN010 SCT025CB \n  BECMG 0808/0810 25012KT 5000 -<span class=\"hl\">SN</span> BKN010 OVC020 \n  BECMG 0811/0813 9999 NSW BKN020"
    },
    {
      "icao": "BKPR",
      "iata": "PRN",
      "name": "Priština Adem Jashari International Airport",
      "updatedAt": "080430Z",
      "visibility_m": 1200,
      "taf_visibility_m": 1200,
      "worst_visibility_m": 1200,
      "ceiling_ft": 800,
      "hazards": [
        "SN"
      ],
      "severityScore": 53,
      "metarRaw": "METAR BKPR 080430Z 35014KT 2500 SN BKN008 OVC025 M04/M05 Q1004 TEMPO 1200 SN",
      "tafRaw": "TAF BKPR 072330Z 0800/0824 34012KT 9999 SCT020 BKN040 \n  TEMPO 0800/0809 35023KT \n  TEMPO 0800/0812 1200 SN BKN008 OVC015",
      "metarHtml": "METAR BKPR 080430Z 35014KT 2500 <span class=\"hl\">SN</span> BKN008 OVC025 M04/M05 Q1004 TEMPO 1200 <span class=\"hl\">SN</span>",
      "tafHtml": "TAF BKPR 072330Z 0800/0824 34012KT 9999 SCT020 BKN040 \n  TEMPO 0800/0809 35023KT \n  TEMPO 0800/0812 1200 <span class=\"hl\">SN</span> BKN008 OVC015"
    },
    {
      "icao": "EDDS",
      "iata": "STR",
      "name": "Stuttgart Airport",
      "updatedAt": "080420Z",
      "visibility_m": 9000,
      "taf_visibility_m": 3000,
      "worst_visibility_m": 3000,
      "ceiling_ft": 3100,
      "hazards": [
        "FZRA",
        "SN"
      ],
      "severityScore": 53,
      "metarRaw": "METAR EDDS 080420Z AUTO 23008KT 170V270 9000 SCT020 BKN031 BKN041 M01/M04 Q1009",
      "tafRaw": "TAF EDDS 072300Z 0800/0824 18004KT 9999 OVC020 \n  PROB30 \n  TEMPO 0800/0806 4000 -SN BKN012 \n  TEMPO 0812/0816 4000 -SN OVC010 \n  PROB30 \n  TEMPO 0816/0819 -FZRA OVC012 \n  TEMPO 0819/0824 3000 RADZ BKN010",
      "metarHtml": "METAR EDDS 080420Z AUTO 23008KT 170V270 9000 SCT020 BKN031 BKN041 M01/M04 Q1009",
      "tafHtml": "TAF EDDS 072300Z 0800/0824 18004KT 9999 OVC020 \n  PROB30 \n  TEMPO 0800/0806 4000 -<span class=\"hl\">SN</span> BKN012 \n  TEMPO 0812/0816 4000 -<span class=\"hl\">SN</span> OVC010 \n  PROB30 \n  TEMPO 0816/0819 -<span class=\"hl\">FZRA</span> OVC012 \n  TEMPO 0819/0824 3000 RADZ BKN010"
    },
    {
      "icao": "LOWW",
      "iata": "VIE",
      "name": "Vienna International Airport",
      "updatedAt": "080420Z",
      "visibility_m": 10000,
      "taf_visibility_m": 4500,
      "worst_visibility_m": 4500,
      "ceiling_ft": null,
      "hazards": [
        "FZRA",
        "SN"
      ],
      "severityScore": 53,
      "metarRaw": "METAR LOWW 080420Z 33007KT CAVOK M09/M12 Q1011 NOSIG",
      "tafRaw": "TAF LOWW 080215Z 0803/0909 33010KT 9999 FEW050 TXM02/0814Z TNM08/0804Z \n  BECMG 0816/0818 VRB03KT \n  BECMG 0901/0903 13007KT \n  TEMPO 0905/0909 4500 -SN \n  PROB30 \n  TEMPO 0908/0909 -FZRA",
      "metarHtml": "METAR LOWW 080420Z 33007KT <span class=\"hl-vis\">CAVOK</span> M09/M12 Q1011 NOSIG",
      "tafHtml": "TAF LOWW 080215Z 0803/0909 33010KT 9999 FEW050 TXM02/0814Z TNM08/0804Z \n  BECMG 0816/0818 VRB03KT \n  BECMG 0901/0903 13007KT \n  TEMPO 0905/0909 4500 -<span class=\"hl\">SN</span> \n  PROB30 \n  TEMPO 0908/0909 -<span class=\"hl\">FZRA</span>"
    },
    {
      "icao": "LQTZ",
      "iata": "TZL",
      "name": "Tuzla International Airport",
      "updatedAt": "080430Z",
      "visibility_m": 4600,
      "taf_visibility_m": 3000,
      "worst_visibility_m": 3000,
      "ceiling_ft": 900,
      "hazards": [
        "BR",
        "SN"
      ],
      "severityScore": 53,
      "metarRaw": "METAR LQTZ 080430Z 31006KT 4600 -SN BR BKN009 OVC013 M04/M05 Q1010",
      "tafRaw": "TAF LQTZ 072300Z 0800/0824 27007KT 9999 SCT015 BKN030 TXM02/0813Z TNM08/0824Z \n  TEMPO 0800/0802 3000 SN BKN008 OVC020 \n  TEMPO 0802/0812 33012KT \n  PROB30 \n  TEMPO 0802/0808 4000 -SN BKN012 OVC030",
      "metarHtml": "METAR LQTZ 080430Z 31006KT 4600 -<span class=\"hl\">SN</span> <span class=\"hl\">BR</span> BKN009 OVC013 M04/M05 Q1010",
      "tafHtml": "TAF LQTZ 072300Z 0800/0824 27007KT 9999 SCT015 BKN030 TXM02/0813Z TNM08/0824Z \n  TEMPO 0800/0802 3000 <span class=\"hl\">SN</span> BKN008 OVC020 \n  TEMPO 0802/0812 33012KT \n  PROB30 \n  TEMPO 0802/0808 4000 -<span class=\"hl\">SN</span> BKN012 OVC030"
    },
    {
      "icao": "LICJ",
      "iata": "PMO",
      "name": "Falcone–Borsellino Airport",
      "updatedAt": "080420Z",
      "visibility_m": 10000,
      "taf_visibility_m": 4000,
      "worst_visibility_m": 4000,
      "ceiling_ft": null,
      "hazards": [
        "TSRA",
        "RA",
        "SHRA"
      ],
      "severityScore": 51,
      "metarRaw": "METAR LICJ 080420Z 27025KT 9999 FEW030 SCT060 13/05 Q1015",
      "tafRaw": "TAF LICJ 072300Z 0800/0824 28025G35KT 9999 SCT020 \n  PROB40 \n  TEMPO 0800/0807 4000 TSRA \n  TEMPO 0807/0818 4000 SHRA \n  TEMPO 0818/0824 RA",
      "metarHtml": "METAR LICJ 080420Z 27025KT 9999 FEW030 SCT060 13/05 Q1015",
      "tafHtml": "TAF LICJ 072300Z 0800/0824 28025G35KT 9999 SCT020 \n  PROB40 \n  TEMPO 0800/0807 4000 <span class=\"hl\">TSRA</span> \n  TEMPO 0807/0818 4000 <span class=\"hl\">SHRA</span> \n  TEMPO 0818/0824 <span class=\"hl\">RA</span>"
    },
    {
      "icao": "EPKT",
      "iata": "KTW",
      "name": "Katowice Wojciech Korfanty International Airport",
      "updatedAt": "080430Z",
      "visibility_m": 3000,
      "taf_visibility_m": 1200,
      "worst_visibility_m": 1200,
      "ceiling_ft": 1800,
      "hazards": [
        "BR",
        "SN"
      ],
      "severityScore": 50,
      "metarRaw": "METAR EPKT 080430Z 36005KT 330V030 3000 -SN BR FEW007 OVC018 M08/M09 Q1009",
      "tafRaw": "TAF EPKT 072330Z 0800/0824 34005KT 8000 -SN SCT012 BKN018 \n  TEMPO 0800/0821 4000 -SN BR BKN009 BKN012 \n  PROB30 \n  TEMPO 0800/0812 2000 SN BR BKN004 \n  TEMPO 0821/0824 1200 BR BKN004",
      "metarHtml": "METAR EPKT 080430Z 36005KT 330V030 3000 -<span class=\"hl\">SN</span> <span class=\"hl\">BR</span> FEW007 OVC018 M08/M09 Q1009",
      "tafHtml": "TAF EPKT 072330Z 0800/0824 34005KT 8000 -<span class=\"hl\">SN</span> SCT012 BKN018 \n  TEMPO 0800/0821 4000 -<span class=\"hl\">SN</span> <span class=\"hl\">BR</span> BKN009 BKN012 \n  PROB30 \n  TEMPO 0800/0812 2000 <span class=\"hl\">SN</span> <span class=\"hl\">BR</span> BKN004 \n  TEMPO 0821/0824 1200 <span class=\"hl\">BR</span> BKN004"
    },
    {
      "icao": "LRCL",
      "iata": "CLJ",
      "name": "Cluj Avram Iancu International Airport",
      "updatedAt": "080430Z",
      "visibility_m": 2500,
      "taf_visibility_m": 1500,
      "worst_visibility_m": 1500,
      "ceiling_ft": 1800,
      "hazards": [
        "BR",
        "SN"
      ],
      "severityScore": 50,
      "metarRaw": "METAR LRCL 080430Z 27007KT 2500 -SN BR OVC018 M04/M04 Q1002",
      "tafRaw": "TAF LRCL 080200Z 0803/0812 27010KT 3000 SN BR BKN005 BKN035 \n  TEMPO 0803/0805 1500 +SN OVC002 \n  BECMG 0805/0807 9999 NSW BKN020 BKN040",
      "metarHtml": "METAR LRCL 080430Z 27007KT 2500 -<span class=\"hl\">SN</span> <span class=\"hl\">BR</span> OVC018 M04/M04 Q1002",
      "tafHtml": "TAF LRCL 080200Z 0803/0812 27010KT 3000 <span class=\"hl\">SN</span> <span class=\"hl\">BR</span> BKN005 BKN035 \n  TEMPO 0803/0805 1500 +<span class=\"hl\">SN</span> OVC002 \n  BECMG 0805/0807 9999 NSW BKN020 BKN040"
    },
    {
      "icao": "EGKK",
      "iata": "LGW",
      "name": "London Gatwick Airport",
      "updatedAt": "080420Z",
      "visibility_m": 10000,
      "taf_visibility_m": 2000,
      "worst_visibility_m": 2000,
      "ceiling_ft": 1300,
      "hazards": [
        "BR",
        "RA",
        "SHRA"
      ],
      "severityScore": 48,
      "metarRaw": "METAR EGKK 080420Z VRB02KT 9999 BKN013 02/02 Q1005",
      "tafRaw": "TAF EGKK 072253Z 0800/0906 20004KT 9999 FEW035 \n  PROB30 \n  TEMPO 0802/0805 8000 -RA BKN014 \n  TEMPO 0805/0812 6000 -RADZ BKN005 \n  PROB30 \n  TEMPO 0805/0810 2000 RADZ BR BKN001 \n  PROB30 \n  TEMPO 0812/0814 8000 -RA BKN008 \n  BECMG 0813/0816 11011KT \n  TEMPO 0814/0821 6000 RA BKN010 \n  PROB40 \n  TEMPO 0814/0821 4000 +RA BKN006 \n  TEMPO 0817/0824 14015G25KT \n  PROB40 \n  TEMPO 0821/0824 7000 RA SHRA BKN012 \n  BECMG 0900/0903 30018G28KT \n  PROB30 \n  TEMPO 0900/0903 3000 RADZ BKN004 \n  TEMPO 0903/0906 6000 -RASN BKN008 \n  PROB30 \n  TEMPO 0903/0906 30020G38KT 2000 RASN BKN004",
      "metarHtml": "METAR EGKK 080420Z VRB02KT 9999 BKN013 02/02 Q1005",
      "tafHtml": "TAF EGKK 072253Z 0800/0906 20004KT 9999 FEW035 \n  PROB30 \n  TEMPO 0802/0805 8000 -<span class=\"hl\">RA</span> BKN014 \n  TEMPO 0805/0812 6000 -RADZ BKN005 \n  PROB30 \n  TEMPO 0805/0810 2000 RADZ <span class=\"hl\">BR</span> BKN001 \n  PROB30 \n  TEMPO 0812/0814 8000 -<span class=\"hl\">RA</span> BKN008 \n  BECMG 0813/0816 11011KT \n  TEMPO 0814/0821 6000 <span class=\"hl\">RA</span> BKN010 \n  PROB40 \n  TEMPO 0814/0821 4000 +<span class=\"hl\">RA</span> BKN006 \n  TEMPO 0817/0824 14015G25KT \n  PROB40 \n  TEMPO 0821/0824 7000 <span class=\"hl\">RA</span> <span class=\"hl\">SHRA</span> BKN012 \n  BECMG 0900/0903 30018G28KT \n  PROB30 \n  TEMPO 0900/0903 3000 RADZ BKN004 \n  TEMPO 0903/0906 6000 -RASN BKN008 \n  PROB30 \n  TEMPO 0903/0906 30020G38KT 2000 RASN BKN004"
    },
    {
      "icao": "EPMO",
      "iata": "WMI",
      "name": "Modlin Airport",
      "updatedAt": "080430Z",
      "visibility_m": 2600,
      "taf_visibility_m": 2000,
      "worst_visibility_m": 2000,
      "ceiling_ft": 300,
      "hazards": [
        "BR"
      ],
      "severityScore": 45,
      "metarRaw": "METAR EPMO 080430Z 36002KT 2600 BR OVC003 M12/M12 Q1012",
      "tafRaw": "TAF EPMO 072330Z 0800/0824 VRB02KT 3500 BR NSC \n  TEMPO 0800/0806 2000 BR \n  PROB40 0800/0809 BKN005 \n  BECMG 0806/0809 03010KT \n  BECMG 0809/0811 8000 BKN012 \n  BECMG 0811/0813 BKN015",
      "metarHtml": "METAR EPMO 080430Z 36002KT 2600 <span class=\"hl\">BR</span> OVC003 M12/M12 Q1012",
      "tafHtml": "TAF EPMO 072330Z 0800/0824 VRB02KT 3500 <span class=\"hl\">BR</span> NSC \n  TEMPO 0800/0806 2000 <span class=\"hl\">BR</span> \n  PROB40 0800/0809 BKN005 \n  BECMG 0806/0809 03010KT \n  BECMG 0809/0811 8000 BKN012 \n  BECMG 0811/0813 BKN015"
    },
    {
      "icao": "EPRZ",
      "iata": "RZE",
      "name": "Rzeszów-Jasionka Airport",
      "updatedAt": "080430Z",
      "visibility_m": 2000,
      "taf_visibility_m": null,
      "worst_visibility_m": 2000,
      "ceiling_ft": 1800,
      "hazards": [
        "BR",
        "SN"
      ],
      "severityScore": 45,
      "metarRaw": "METAR EPRZ 080430Z 35008KT 2000 -SN BR OVC018 M05/M06 Q1006",
      "tafRaw": null,
      "metarHtml": "METAR EPRZ 080430Z 35008KT 2000 -<span class=\"hl\">SN</span> <span class=\"hl\">BR</span> OVC018 M05/M06 Q1006",
      "tafHtml": null
    },
    {
      "icao": "ESGG",
      "iata": "GOT",
      "name": "Göteborg Landvetter Airport",
      "updatedAt": "080420Z",
      "visibility_m": 1400,
      "taf_visibility_m": null,
      "worst_visibility_m": 1400,
      "ceiling_ft": 1000,
      "hazards": [
        "SN"
      ],
      "severityScore": 45,
      "metarRaw": "METAR ESGG 080420Z 16010KT 1400 R03/P2000N R21/P2000N -SN VV010 M03/M04 Q1004",
      "tafRaw": null,
      "metarHtml": "METAR ESGG 080420Z 16010KT 1400 R03/P2000N R21/P2000N -<span class=\"hl\">SN</span> VV010 M03/M04 Q1004",
      "tafHtml": null
    },
    {
      "icao": "ENTO",
      "iata": "TRF",
      "name": "Sandefjord Airport, Torp",
      "updatedAt": "080420Z",
      "visibility_m": 10000,
      "taf_visibility_m": 800,
      "worst_visibility_m": 800,
      "ceiling_ft": null,
      "hazards": [
        "SN"
      ],
      "severityScore": 43,
      "metarRaw": "METAR ENTO 080420Z AUTO 32004KT 9999 NCD M09/M11 Q1002",
      "tafRaw": "TAF ENTO 072300Z 0800/0824 36012KT 3000 -SN BKN015 \n  TEMPO 0800/0803 0800 SN DRSN VV004 \n  BECMG 0803/0805 27005KT CAVOK \n  BECMG 0818/0820 BKN012 \n  TEMPO 0820/0824 02010KT 1200 SN VV006",
      "metarHtml": "METAR ENTO 080420Z AUTO 32004KT 9999 NCD M09/M11 Q1002",
      "tafHtml": "TAF ENTO 072300Z <span class=\"hl-vis\">0800</span>/0824 36012KT 3000 -<span class=\"hl\">SN</span> BKN015 \n  TEMPO <span class=\"hl-vis\">0800</span>/0803 <span class=\"hl-vis\">0800</span> <span class=\"hl\">SN</span> DRSN VV004 \n  BECMG 0803/0805 27005KT <span class=\"hl-vis\">CAVOK</span> \n  BECMG 0818/0820 BKN012 \n  TEMPO 0820/0824 02010KT 1200 <span class=\"hl\">SN</span> VV006"
    },
    {
      "icao": "LROP",
      "iata": "OTP",
      "name": "Bucharest Henri Coandă International Airport",
      "updatedAt": "080430Z",
      "visibility_m": 10000,
      "taf_visibility_m": 5000,
      "worst_visibility_m": 5000,
      "ceiling_ft": 500,
      "hazards": [
        "SN"
      ],
      "severityScore": 43,
      "metarRaw": "METAR LROP 080430Z VRB02KT 9999 -SNRA BKN005 OVC007 02/02 Q0999 NOSIG",
      "tafRaw": "TAF LROP 072300Z 0800/0824 07015KT 9999 OVC005 \n  PROB40 \n  TEMPO 0802/0808 5000 -SHRASN BKN010 SCT025CB \n  BECMG 0808/0810 25012KT 5000 -SN BKN010 OVC020 \n  BECMG 0811/0813 9999 NSW BKN020",
      "metarHtml": "METAR LROP 080430Z VRB02KT 9999 -SNRA BKN005 OVC007 02/02 Q0999 NOSIG",
      "tafHtml": "TAF LROP 072300Z 0800/0824 07015KT 9999 OVC005 \n  PROB40 \n  TEMPO 0802/0808 5000 -SHRASN BKN010 SCT025CB \n  BECMG 0808/0810 25012KT 5000 -<span class=\"hl\">SN</span> BKN010 OVC020 \n  BECMG 0811/0813 9999 NSW BKN020"
    },
    {
      "icao": "LYBE",
      "iata": "BEG",
      "name": "Belgrade Nikola Tesla Airport",
      "updatedAt": "080430Z",
      "visibility_m": 2000,
      "taf_visibility_m": 2500,
      "worst_visibility_m": 2000,
      "ceiling_ft": 500,
      "hazards": [
        "SN"
      ],
      "severityScore": 43,
      "metarRaw": "METAR LYBE 080430Z 29011KT 2000 SN BKN005 BKN025 M04/M05 Q1008 NOSIG",
      "tafRaw": "TAF LYBE 072300Z 0800/0824 29010KT 5000 -SN BKN008 OVC027 TXM04/0800Z TNM08/0824Z \n  TEMPO 0800/0804 2500 SN BKN004 OVC025 \n  BECMG 0806/0808 9999 NSW SCT015 \n  TEMPO 0809/0813 28020KT \n  BECMG 0818/0820 23005KT",
      "metarHtml": "METAR LYBE 080430Z 29011KT 2000 <span class=\"hl\">SN</span> BKN005 BKN025 M04/M05 Q1008 NOSIG",
      "tafHtml": "TAF LYBE 072300Z 0800/0824 29010KT 5000 -<span class=\"hl\">SN</span> BKN008 OVC027 TXM04/0800Z TNM08/0824Z \n  TEMPO 0800/0804 2500 <span class=\"hl\">SN</span> BKN004 OVC025 \n  BECMG 0806/0808 9999 NSW SCT015 \n  TEMPO 0809/0813 28020KT \n  BECMG 0818/0820 23005KT"
    },
    {
      "icao": "EPWA",
      "iata": "WAW",
      "name": "Warsaw Chopin Airport",
      "updatedAt": "080430Z",
      "visibility_m": 4000,
      "taf_visibility_m": null,
      "worst_visibility_m": 4000,
      "ceiling_ft": 500,
      "hazards": [
        "BR"
      ],
      "severityScore": 40,
      "metarRaw": "METAR EPWA 080430Z 32005KT 4000 BR FEW004 OVC016 M09/M10 Q1011 TEMPO BKN005",
      "tafRaw": null,
      "metarHtml": "METAR EPWA 080430Z 32005KT 4000 <span class=\"hl\">BR</span> FEW004 OVC016 M09/M10 Q1011 TEMPO BKN005",
      "tafHtml": null
    },
    {
      "icao": "LCPH",
      "iata": "PFO",
      "name": "Paphos International Airport",
      "updatedAt": "080430Z",
      "visibility_m": 10000,
      "taf_visibility_m": 3000,
      "worst_visibility_m": 3000,
      "ceiling_ft": null,
      "hazards": [
        "TSRA",
        "SHRA"
      ],
      "severityScore": 39,
      "metarRaw": "METAR LCPH 080430Z 03007KT 010V080 CAVOK 12/04 Q1019 NOSIG",
      "tafRaw": "TAF LCPH 072330Z 0800/0900 07007KT 9999 FEW025 \n  BECMG 0804/0807 12018KT \n  BECMG 0816/0819 30020KT \n  PROB40 \n  TEMPO 0818/0900 5000 SHRA BKN020TCU \n  PROB30 \n  TEMPO 0820/0900 3000 TSRA SCT020CB",
      "metarHtml": "METAR LCPH 080430Z 03007KT 010V080 <span class=\"hl-vis\">CAVOK</span> 12/04 Q1019 NOSIG",
      "tafHtml": "TAF LCPH 072330Z 0800/0900 07007KT 9999 FEW025 \n  BECMG 0804/0807 12018KT \n  BECMG 0816/0819 30020KT \n  PROB40 \n  TEMPO 0818/0900 5000 <span class=\"hl\">SHRA</span> BKN020TCU \n  PROB30 \n  TEMPO 0820/0900 3000 <span class=\"hl\">TSRA</span> SCT020CB"
    },
    {
      "icao": "EDDN",
      "iata": "NUE",
      "name": "Nuremberg Airport",
      "updatedAt": "080420Z",
      "visibility_m": 3700,
      "taf_visibility_m": 1200,
      "worst_visibility_m": 1200,
      "ceiling_ft": 2000,
      "hazards": [
        "BR",
        "SN"
      ],
      "severityScore": 38,
      "metarRaw": "METAR EDDN 080420Z AUTO 14004KT 3700 -SN BR FEW006 BKN020 BKN033 M05/M06 Q1010 RESN",
      "tafRaw": "TAF EDDN 072300Z 0800/0824 13007KT 9999 FEW010 BKN020 \n  TEMPO 0800/0808 2500 -SN BKN009 \n  TEMPO 0808/0817 BKN010 \n  BECMG 0817/0819 4000 -SN BKN008 \n  TEMPO 0821/0824 1200 SN BKN004",
      "metarHtml": "METAR EDDN 080420Z AUTO 14004KT 3700 -<span class=\"hl\">SN</span> <span class=\"hl\">BR</span> FEW006 BKN020 BKN033 M05/M06 Q1010 RESN",
      "tafHtml": "TAF EDDN 072300Z 0800/0824 13007KT 9999 FEW010 BKN020 \n  TEMPO 0800/0808 2500 -<span class=\"hl\">SN</span> BKN009 \n  TEMPO 0808/0817 BKN010 \n  BECMG 0817/0819 4000 -<span class=\"hl\">SN</span> BKN008 \n  TEMPO 0821/0824 1200 <span class=\"hl\">SN</span> BKN004"
    },
    {
      "icao": "LBWN",
      "iata": "VAR",
      "name": "Varna Airport",
      "updatedAt": "080430Z",
      "visibility_m": 5000,
      "taf_visibility_m": 3000,
      "worst_visibility_m": 3000,
      "ceiling_ft": 3600,
      "hazards": [
        "TSRA",
        "RA"
      ],
      "severityScore": 37,
      "metarRaw": "METAR LBWN 080430Z AUTO 15006KT 130V190 9999 OVC036 //////CB 14/12 Q0996 TEMPO 5000 TSRA SCT033CB",
      "tafRaw": "TAF LBWN 072300Z 0800/0824 12010KT 9999 SCT015 BKN025 \n  TEMPO 0800/0804 13016G26KT 5000 RA SCT006 BKN015 OVC030 \n  BECMG 0805/0806 28018G28KT \n  TEMPO 0806/0812 28024G38KT 3000 RA SCT010 BKN015 OVC030",
      "metarHtml": "METAR LBWN 080430Z AUTO 15006KT 130V190 9999 OVC036 //////CB 14/12 Q0996 TEMPO 5000 <span class=\"hl\">TSRA</span> SCT033CB",
      "tafHtml": "TAF LBWN 072300Z 0800/0824 12010KT 9999 SCT015 BKN025 \n  TEMPO 0800/0804 13016G26KT 5000 <span class=\"hl\">RA</span> SCT006 BKN015 OVC030 \n  BECMG 0805/0806 28018G28KT \n  TEMPO 0806/0812 28024G38KT 3000 <span class=\"hl\">RA</span> SCT010 BKN015 OVC030"
    },
    {
      "icao": "LEXJ",
      "iata": "SDR",
      "name": "Seve Ballesteros-Santander Airport",
      "updatedAt": "080430Z",
      "visibility_m": 10000,
      "taf_visibility_m": 1500,
      "worst_visibility_m": 1500,
      "ceiling_ft": 5000,
      "hazards": [
        "RA",
        "SHRA"
      ],
      "severityScore": 36,
      "metarRaw": "METAR LEXJ 080430Z 23008KT 200V260 9999 BKN050 11/06 Q1023",
      "tafRaw": "TAF LEXJ 080200Z 0803/0903 24009KT 9999 SCT030 BKN060 TX15/0813Z TN08/0806Z \n  TEMPO 0810/0821 22018G28KT \n  TEMPO 0819/0903 27020G33KT 3000 RA \n  PROB40 \n  TEMPO 0821/0903 1500 +SHRA BKN010 SCT025TCU",
      "metarHtml": "METAR LEXJ 080430Z 23008KT 200V260 9999 BKN050 11/06 Q1023",
      "tafHtml": "TAF LEXJ 080200Z 0803/0903 24009KT 9999 SCT030 BKN060 TX15/0813Z TN08/0806Z \n  TEMPO 0810/0821 22018G28KT \n  TEMPO 0819/0903 27020G33KT 3000 <span class=\"hl\">RA</span> \n  PROB40 \n  TEMPO 0821/0903 1500 +<span class=\"hl\">SHRA</span> BKN010 SCT025TCU"
    },
    {
      "icao": "LFLL",
      "iata": "LYS",
      "name": "Lyon Saint-Exupéry Airport",
      "updatedAt": "080430Z",
      "visibility_m": 3200,
      "taf_visibility_m": null,
      "worst_visibility_m": 3200,
      "ceiling_ft": 1600,
      "hazards": [
        "SN"
      ],
      "severityScore": 35,
      "metarRaw": "METAR LFLL 080430Z 15005KT 3200 -SN BKN016 M00/M02 Q1015 TEMPO 6000",
      "tafRaw": null,
      "metarHtml": "METAR LFLL 080430Z 15005KT 3200 -<span class=\"hl\">SN</span> BKN016 M00/M02 Q1015 TEMPO 6000",
      "tafHtml": null
    },
    {
      "icao": "LZTT",
      "iata": "TAT",
      "name": "Poprad-Tatry Airport",
      "updatedAt": "080430Z",
      "visibility_m": 9000,
      "taf_visibility_m": null,
      "worst_visibility_m": 9000,
      "ceiling_ft": 1900,
      "hazards": [
        "SN"
      ],
      "severityScore": 35,
      "metarRaw": "METAR LZTT 080430Z 27011KT 9000 -SN OVC019 M08/M11 Q1003",
      "tafRaw": null,
      "metarHtml": "METAR LZTT 080430Z 27011KT 9000 -<span class=\"hl\">SN</span> OVC019 M08/M11 Q1003",
      "tafHtml": null
    },
    {
      "icao": "LHDC",
      "iata": "DEB",
      "name": "Debrecen International Airport",
      "updatedAt": "080415Z",
      "visibility_m": 4500,
      "taf_visibility_m": null,
      "worst_visibility_m": 4500,
      "ceiling_ft": 3200,
      "hazards": [
        "BR",
        "SN"
      ],
      "severityScore": 33,
      "metarRaw": "METAR LHDC 080415Z AUTO 28006KT 4500 -SN BR OVC032 M04/M05 Q1005 NOSIG",
      "tafRaw": null,
      "metarHtml": "METAR LHDC 080415Z AUTO 28006KT 4500 -<span class=\"hl\">SN</span> <span class=\"hl\">BR</span> OVC032 M04/M05 Q1005 NOSIG",
      "tafHtml": null
    },
    {
      "icao": "LBPD",
      "iata": "PDV",
      "name": "Plovdiv International Airport",
      "updatedAt": "080430Z",
      "visibility_m": 10000,
      "taf_visibility_m": 1500,
      "worst_visibility_m": 1500,
      "ceiling_ft": null,
      "hazards": [
        "BR",
        "RA"
      ],
      "severityScore": 32,
      "metarRaw": "METAR LBPD 080430Z AUTO VRB03KT 9999 FEW059/// BKN220/// 13/06 Q0994 BECMG 28018G30KT",
      "tafRaw": "TAF LBPD 072300Z 0800/0824 VRB04KT 1500 BR SCT040 BKN060 \n  BECMG 0802/0804 29020G35KT 9999 BKN030 OVC050 \n  TEMPO 0805/0808 5000 RA BKN020 OVC040",
      "metarHtml": "METAR LBPD 080430Z AUTO VRB03KT 9999 FEW059/// BKN220/// 13/06 Q0994 BECMG 28018G30KT",
      "tafHtml": "TAF LBPD 072300Z 0800/0824 VRB04KT 1500 <span class=\"hl\">BR</span> SCT040 BKN060 \n  BECMG 0802/0804 29020G35KT 9999 BKN030 OVC050 \n  TEMPO 0805/0808 5000 <span class=\"hl\">RA</span> BKN020 OVC040"
    },
    {
      "icao": "EPPO",
      "iata": "POZ",
      "name": "Poznań-Ławica Airport",
      "updatedAt": "080430Z",
      "visibility_m": 6000,
      "taf_visibility_m": null,
      "worst_visibility_m": 6000,
      "ceiling_ft": 900,
      "hazards": [],
      "severityScore": 30,
      "metarRaw": "METAR EPPO 080430Z 09005KT 6000 OVC009 M07/M09 Q1012",
      "tafRaw": null,
      "metarHtml": "METAR EPPO 080430Z 09005KT 6000 OVC009 M07/M09 Q1012",
      "tafHtml": null
    },
    {
      "icao": "LKMT",
      "iata": "OSR",
      "name": "Ostrava Leos Janáček Airport",
      "updatedAt": "080430Z",
      "visibility_m": 7000,
      "taf_visibility_m": 6000,
      "worst_visibility_m": 6000,
      "ceiling_ft": 1700,
      "hazards": [
        "SN"
      ],
      "severityScore": 30,
      "metarRaw": "METAR LKMT 080430Z 35004KT 320V020 7000 -SN OVC017 M06/M08 Q1010 NOSIG",
      "tafRaw": "TAF LKMT 072300Z 0800/0824 02008KT 9999 OVC022 \n  TEMPO 0800/0810 BKN015 \n  PROB30 \n  TEMPO 0800/0806 6000 -SN BKN009",
      "metarHtml": "METAR LKMT 080430Z 35004KT 320V020 7000 -<span class=\"hl\">SN</span> OVC017 M06/M08 Q1010 NOSIG",
      "tafHtml": "TAF LKMT 072300Z 0800/0824 02008KT 9999 OVC022 \n  TEMPO 0800/0810 BKN015 \n  PROB30 \n  TEMPO 0800/0806 6000 -<span class=\"hl\">SN</span> BKN009"
    },
    {
      "icao": "LPPR",
      "iata": "OPO",
      "name": "Francisco de Sá Carneiro Airport",
      "updatedAt": "080430Z",
      "visibility_m": 6000,
      "taf_visibility_m": null,
      "worst_visibility_m": 6000,
      "ceiling_ft": 500,
      "hazards": [],
      "severityScore": 30,
      "metarRaw": "METAR LPPR 080430Z 13008KT 6000 -RADZ BKN005 BKN011 08/07 Q1030",
      "tafRaw": null,
      "metarHtml": "METAR LPPR 080430Z 13008KT 6000 -RADZ BKN005 BKN011 08/07 Q1030",
      "tafHtml": null
    },
    {
      "icao": "LFBD",
      "iata": "BOD",
      "name": "Bordeaux–Mérignac Airport",
      "updatedAt": "080430Z",
      "visibility_m": 3000,
      "taf_visibility_m": null,
      "worst_visibility_m": 3000,
      "ceiling_ft": 1000,
      "hazards": [
        "RA"
      ],
      "severityScore": 29,
      "metarRaw": "METAR LFBD 080430Z AUTO 28019KT 9999 BKN010 OVC016 12/11 Q1017 TEMPO 27015G25KT 3000 RA",
      "tafRaw": null,
      "metarHtml": "METAR LFBD 080430Z AUTO 28019KT 9999 BKN010 OVC016 12/11 Q1017 TEMPO 27015G25KT 3000 <span class=\"hl\">RA</span>",
      "tafHtml": null
    },
    {
      "icao": "EDNY",
      "iata": "FDH",
      "name": "Friedrichshafen Airport",
      "updatedAt": "080420Z",
      "visibility_m": 10000,
      "taf_visibility_m": 900,
      "worst_visibility_m": 900,
      "ceiling_ft": null,
      "hazards": [
        "SN"
      ],
      "severityScore": 28,
      "metarRaw": "METAR EDNY 080420Z AUTO 13004KT 090V160 9999 // FEW019/// SCT027/// OVC045/// M03/M05 Q1012",
      "tafRaw": "TAF EDNY 080200Z 0803/0812 23008KT 9999 SCT015 BKN025 \n  PROB40 \n  TEMPO 0803/0805 4000 -SN BKN012 \n  TEMPO 0810/0812 3000 -SN BKN007 \n  PROB40 \n  TEMPO 0811/0812 0900 SN BKN004",
      "metarHtml": "METAR EDNY 080420Z AUTO 13004KT 090V160 9999 // FEW019/// SCT027/// OVC045/// M03/M05 Q1012",
      "tafHtml": "TAF EDNY 080200Z 0803/0812 23008KT 9999 SCT015 BKN025 \n  PROB40 \n  TEMPO 0803/0805 4000 -<span class=\"hl\">SN</span> BKN012 \n  TEMPO 0810/0812 3000 -<span class=\"hl\">SN</span> BKN007 \n  PROB40 \n  TEMPO 0811/0812 0900 <span class=\"hl\">SN</span> BKN004"
    },
    {
      "icao": "EETN",
      "iata": "TLL",
      "name": "Lennart Meri Tallinn Airport",
      "updatedAt": "080420Z",
      "visibility_m": 10000,
      "taf_visibility_m": 3000,
      "worst_visibility_m": 3000,
      "ceiling_ft": 2800,
      "hazards": [
        "BR",
        "SN"
      ],
      "severityScore": 28,
      "metarRaw": "METAR EETN 080420Z 12002KT 9999 OVC028 M07/M08 Q1018 NOSIG",
      "tafRaw": "TAF EETN 072330Z 0800/0824 VRB02KT 9999 OVC020 \n  TEMPO 0800/0807 SCT003 BKN010 \n  PROB40 \n  TEMPO 0800/0807 3000 SN BR \n  TEMPO 0817/0824 BKN005 OVC010 \n  BECMG 0819/0821 10010KT",
      "metarHtml": "METAR EETN 080420Z 12002KT 9999 OVC028 M07/M08 Q1018 NOSIG",
      "tafHtml": "TAF EETN 072330Z 0800/0824 VRB02KT 9999 OVC020 \n  TEMPO 0800/0807 SCT003 BKN010 \n  PROB40 \n  TEMPO 0800/0807 3000 <span class=\"hl\">SN</span> <span class=\"hl\">BR</span> \n  TEMPO 0817/0824 BKN005 OVC010 \n  BECMG 0819/0821 10010KT"
    },
    {
      "icao": "EKBI",
      "iata": "BLL",
      "name": "Billund Airport",
      "updatedAt": "080420Z",
      "visibility_m": 7000,
      "taf_visibility_m": 2000,
      "worst_visibility_m": 2000,
      "ceiling_ft": null,
      "hazards": [
        "BR",
        "SN"
      ],
      "severityScore": 28,
      "metarRaw": "METAR EKBI 080420Z AUTO 14006KT 7000 OVC005/// M02/M03 Q1003",
      "tafRaw": "TAF EKBI 080227Z 0803/0903 16009KT 9999 SCT008 BKN010 \n  TEMPO 0803/0805 2000 -SN DRSN BKN005 \n  TEMPO 0805/0810 3000 BR BKN005 \n  TEMPO 0810/0822 BKN006 \n  TEMPO 0822/0903 11015G25KT 3000 -SN DRSN BKN006",
      "metarHtml": "METAR EKBI 080420Z AUTO 14006KT 7000 OVC005/// M02/M03 Q1003",
      "tafHtml": "TAF EKBI 080227Z 0803/0903 16009KT 9999 SCT008 BKN010 \n  TEMPO 0803/0805 2000 -<span class=\"hl\">SN</span> DRSN BKN005 \n  TEMPO 0805/0810 3000 <span class=\"hl\">BR</span> BKN005 \n  TEMPO 0810/0822 BKN006 \n  TEMPO 0822/0903 11015G25KT 3000 -<span class=\"hl\">SN</span> DRSN BKN006"
    },
    {
      "icao": "EPRA",
      "iata": "RDO",
      "name": "Warsaw Radom Airport",
      "updatedAt": "080430Z",
      "visibility_m": 3600,
      "taf_visibility_m": 2500,
      "worst_visibility_m": 2500,
      "ceiling_ft": 2500,
      "hazards": [
        "BR",
        "SN"
      ],
      "severityScore": 28,
      "metarRaw": "METAR EPRA 080430Z 35007KT 3600 -SN BR OVC025 M09/M11 Q1009",
      "tafRaw": "TAF EPRA 080230Z 0803/0812 36006KT 5000 BR BKN025 \n  BECMG 0804/0806 4000 -SN BR OVC014 \n  PROB40 \n  TEMPO 0806/0810 2500 SN SCT005 OVC012",
      "metarHtml": "METAR EPRA 080430Z 35007KT 3600 -<span class=\"hl\">SN</span> <span class=\"hl\">BR</span> OVC025 M09/M11 Q1009",
      "tafHtml": "TAF EPRA 080230Z 0803/0812 36006KT 5000 <span class=\"hl\">BR</span> BKN025 \n  BECMG 0804/0806 4000 -<span class=\"hl\">SN</span> <span class=\"hl\">BR</span> OVC014 \n  PROB40 \n  TEMPO 0806/0810 2500 <span class=\"hl\">SN</span> SCT005 OVC012"
    },
    {
      "icao": "LQBK",
      "iata": "BNX",
      "name": "Banja Luka International Airport",
      "updatedAt": "080430Z",
      "visibility_m": 10000,
      "taf_visibility_m": 4000,
      "worst_visibility_m": 4000,
      "ceiling_ft": null,
      "hazards": [
        "BR",
        "SN"
      ],
      "severityScore": 28,
      "metarRaw": "METAR LQBK 080430Z 26005KT 9999 FEW020 SCT048 M04/M07 Q1012 NOSIG",
      "tafRaw": "TAF LQBK 072300Z 0800/0824 23006KT 9999 SCT010 BKN025 TXM03/0813Z TNM09/0824Z \n  PROB40 \n  TEMPO 0800/0806 30010KT 4000 -SN BR BKN008 OVC025",
      "metarHtml": "METAR LQBK 080430Z 26005KT 9999 FEW020 SCT048 M04/M07 Q1012 NOSIG",
      "tafHtml": "TAF LQBK 072300Z 0800/0824 23006KT 9999 SCT010 BKN025 TXM03/0813Z TNM09/0824Z \n  PROB40 \n  TEMPO 0800/0806 30010KT 4000 -<span class=\"hl\">SN</span> <span class=\"hl\">BR</span> BKN008 OVC025"
    },
    {
      "icao": "LQSA",
      "iata": "SJJ",
      "name": "Sarajevo International Airport",
      "updatedAt": "080430Z",
      "visibility_m": 7000,
      "taf_visibility_m": 1500,
      "worst_visibility_m": 1500,
      "ceiling_ft": 3000,
      "hazards": [
        "SN"
      ],
      "severityScore": 28,
      "metarRaw": "METAR LQSA 080430Z 31005KT 7000 -SN FEW016 BKN030 OVC040 M05/M06 Q1008",
      "tafRaw": "TAF LQSA 072300Z 0800/0824 29005KT 7000 -SN SCT012 OVC030 TXM03/0813Z TNM07/0806Z \n  TEMPO 0800/0806 1500 SN BKN004 OVC015 \n  PROB40 \n  TEMPO 0800/0811 35010KT",
      "metarHtml": "METAR LQSA 080430Z 31005KT 7000 -<span class=\"hl\">SN</span> FEW016 BKN030 OVC040 M05/M06 Q1008",
      "tafHtml": "TAF LQSA 072300Z 0800/0824 29005KT 7000 -<span class=\"hl\">SN</span> SCT012 OVC030 TXM03/0813Z TNM07/0806Z \n  TEMPO 0800/0806 1500 <span class=\"hl\">SN</span> BKN004 OVC015 \n  PROB40 \n  TEMPO 0800/0811 35010KT"
    },
    {
      "icao": "LRBV",
      "iata": "GHV",
      "name": "Brașov-Ghimbav International Airport",
      "updatedAt": "080430Z",
      "visibility_m": 9000,
      "taf_visibility_m": 1500,
      "worst_visibility_m": 1500,
      "ceiling_ft": null,
      "hazards": [
        "SN"
      ],
      "severityScore": 28,
      "metarRaw": "METAR LRBV 080430Z AUTO 30014KT 9000 UP FEW009/// OVC030/// 00/M03 Q0998 REDZ",
      "tafRaw": "TAF LRBV 080200Z 0803/0812 30010KT 5000 -SN OVC005 \n  TEMPO 0803/0809 1500 SN OVC002",
      "metarHtml": "METAR LRBV 080430Z AUTO 30014KT 9000 UP FEW009/// OVC030/// 00/M03 Q0998 REDZ",
      "tafHtml": "TAF LRBV 080200Z 0803/0812 30010KT 5000 -<span class=\"hl\">SN</span> OVC005 \n  TEMPO 0803/0809 1500 <span class=\"hl\">SN</span> OVC002"
    },
    {
      "icao": "LRTM",
      "iata": "TGM",
      "name": "Târgu Mureş Transilvania International Airport",
      "updatedAt": "080430Z",
      "visibility_m": 3200,
      "taf_visibility_m": 1500,
      "worst_visibility_m": 1500,
      "ceiling_ft": null,
      "hazards": [
        "SN"
      ],
      "severityScore": 28,
      "metarRaw": "METAR LRTM 080430Z AUTO 25007KT 3200 R25////// -SN FEW004/// SCT012/// OVC025/// M02/M03 Q1001",
      "tafRaw": "TAF LRTM 080200Z 0803/0812 25008KT 3000 SN BKN005 BKN035 \n  PROB30 \n  TEMPO 0803/0805 1500 +SN OVC002 \n  BECMG 0805/0807 9999 NSW BKN020 BKN040",
      "metarHtml": "METAR LRTM 080430Z AUTO 25007KT 3200 R25////// -<span class=\"hl\">SN</span> FEW004/// SCT012/// OVC025/// M02/M03 Q1001",
      "tafHtml": "TAF LRTM 080200Z 0803/0812 25008KT 3000 <span class=\"hl\">SN</span> BKN005 BKN035 \n  PROB30 \n  TEMPO 0803/0805 1500 +<span class=\"hl\">SN</span> OVC002 \n  BECMG 0805/0807 9999 NSW BKN020 BKN040"
    },
    {
      "icao": "LCLK",
      "iata": "LCA",
      "name": "Larnaca International Airport",
      "updatedAt": "080430Z",
      "visibility_m": 10000,
      "taf_visibility_m": 5000,
      "worst_visibility_m": 5000,
      "ceiling_ft": null,
      "hazards": [
        "BR",
        "SHRA"
      ],
      "severityScore": 24,
      "metarRaw": "METAR LCLK 080430Z 32006KT CAVOK 13/12 Q1019 NOSIG",
      "tafRaw": "TAF LCLK 072330Z 0800/0900 32006KT 9999 FEW025 \n  PROB30 \n  TEMPO 0800/0805 5000 BR BKN005 \n  BECMG 0805/0808 04010KT \n  BECMG 0810/0813 20010KT \n  BECMG 0818/0821 23020KT \n  PROB30 \n  TEMPO 0820/0900 5000 SHRA SCT020TCU",
      "metarHtml": "METAR LCLK 080430Z 32006KT <span class=\"hl-vis\">CAVOK</span> 13/12 Q1019 NOSIG",
      "tafHtml": "TAF LCLK 072330Z 0800/0900 32006KT 9999 FEW025 \n  PROB30 \n  TEMPO 0800/0805 5000 <span class=\"hl\">BR</span> BKN005 \n  BECMG 0805/0808 04010KT \n  BECMG 0810/0813 20010KT \n  BECMG 0818/0821 23020KT \n  PROB30 \n  TEMPO 0820/0900 5000 <span class=\"hl\">SHRA</span> SCT020TCU"
    },
    {
      "icao": "EDDK",
      "iata": "CGN",
      "name": "Cologne Bonn Airport",
      "updatedAt": "080420Z",
      "visibility_m": 10000,
      "taf_visibility_m": 4000,
      "worst_visibility_m": 4000,
      "ceiling_ft": 4900,
      "hazards": [
        "BR",
        "RA"
      ],
      "severityScore": 22,
      "metarRaw": "METAR EDDK 080420Z AUTO 20008KT 9999 OVC049 01/M02 Q1007 NOSIG",
      "tafRaw": "TAF EDDK 072300Z 0800/0906 16008KT 9999 OVC020 \n  BECMG 0819/0822 14013KT RA \n  TEMPO 0819/0904 4000 -RA BR BKN012 \n  BECMG 0900/0903 NSW \n  BECMG 0902/0905 19015G25KT",
      "metarHtml": "METAR EDDK 080420Z AUTO 20008KT 9999 OVC049 01/M02 Q1007 NOSIG",
      "tafHtml": "TAF EDDK 072300Z 0800/0906 16008KT 9999 OVC020 \n  BECMG 0819/0822 14013KT <span class=\"hl\">RA</span> \n  TEMPO 0819/0904 4000 -<span class=\"hl\">RA</span> <span class=\"hl\">BR</span> BKN012 \n  BECMG 0900/0903 NSW \n  BECMG 0902/0905 19015G25KT"
    },
    {
      "icao": "LHBP",
      "iata": "BUD",
      "name": "Budapest Liszt Ferenc International Airport",
      "updatedAt": "080430Z",
      "visibility_m": 10000,
      "taf_visibility_m": 4000,
      "worst_visibility_m": 4000,
      "ceiling_ft": null,
      "hazards": [
        "BLSN"
      ],
      "severityScore": 22,
      "metarRaw": "METAR LHBP 080430Z 30013KT CAVOK M06/M09 Q1007 NOSIG",
      "tafRaw": "TAF LHBP 072315Z 0800/0824 33006KT CAVOK \n  BECMG 0803/0807 30012KT DRSN \n  TEMPO 0808/0817 30015G25KT FEW020 \n  PROB30 \n  TEMPO 0808/0817 4000 BLSN \n  BECMG 0821/0824 VRB03KT NSW",
      "metarHtml": "METAR LHBP 080430Z 30013KT <span class=\"hl-vis\">CAVOK</span> M06/M09 Q1007 NOSIG",
      "tafHtml": "TAF LHBP 072315Z 0800/0824 33006KT <span class=\"hl-vis\">CAVOK</span> \n  BECMG 0803/0807 30012KT DRSN \n  TEMPO 0808/0817 30015G25KT FEW020 \n  PROB30 \n  TEMPO 0808/0817 4000 <span class=\"hl\">BLSN</span> \n  BECMG 0821/0824 VRB03KT NSW"
    },
    {
      "icao": "LPPT",
      "iata": "LIS",
      "name": "Lisbon Humberto Delgado Airport",
      "updatedAt": "080430Z",
      "visibility_m": 10000,
      "taf_visibility_m": 1200,
      "worst_visibility_m": 1200,
      "ceiling_ft": null,
      "hazards": [
        "RA"
      ],
      "severityScore": 22,
      "metarRaw": "METAR LPPT 080430Z 28004KT 9999 SCT026 09/07 Q1031",
      "tafRaw": "TAF LPPT 072300Z 0800/0906 VRB02KT 9999 FEW025 \n  BECMG 0803/0805 6000 SCT003 \n  PROB30 \n  TEMPO 0805/0809 1200 PRFG BKN003 \n  BECMG 0810/0812 12005KT 9999 SCT012 BKN025 \n  BECMG 0814/0816 23008KT \n  PROB30 \n  TEMPO 0815/0819 6000 -RA SCT006 BKN012",
      "metarHtml": "METAR LPPT 080430Z 28004KT 9999 SCT026 09/07 Q1031",
      "tafHtml": "TAF LPPT 072300Z 0800/0906 VRB02KT 9999 FEW025 \n  BECMG 0803/0805 6000 SCT003 \n  PROB30 \n  TEMPO 0805/0809 1200 PRFG BKN003 \n  BECMG 0810/0812 12005KT 9999 SCT012 BKN025 \n  BECMG 0814/0816 23008KT \n  PROB30 \n  TEMPO 0815/0819 6000 -<span class=\"hl\">RA</span> SCT006 BKN012"
    },
    {
      "icao": "LYPG",
      "iata": "TGD",
      "name": "Podgorica Airport / Podgorica Golubovci Airbase",
      "updatedAt": "080430Z",
      "visibility_m": 10000,
      "taf_visibility_m": 3000,
      "worst_visibility_m": 3000,
      "ceiling_ft": 8000,
      "hazards": [
        "BR",
        "RA"
      ],
      "severityScore": 22,
      "metarRaw": "METAR LYPG 080430Z 01003KT 9999 FEW020 SCT040 BKN080 07/05 Q1002 NOSIG",
      "tafRaw": "TAF LYPG 072300Z 0800/0824 36005KT 9999 SCT040 OVC070 TX08/0800Z TN00/0824Z \n  TEMPO 0800/0806 3000 RA BR \n  TEMPO 0806/0820 02015KT",
      "metarHtml": "METAR LYPG 080430Z 01003KT 9999 FEW020 SCT040 BKN080 07/05 Q1002 NOSIG",
      "tafHtml": "TAF LYPG 072300Z 0800/0824 36005KT 9999 SCT040 OVC070 TX08/0800Z TN00/0824Z \n  TEMPO 0800/0806 3000 <span class=\"hl\">RA</span> <span class=\"hl\">BR</span> \n  TEMPO 0806/0820 02015KT"
    },
    {
      "icao": "LZKZ",
      "iata": "KSC",
      "name": "Košice International Airport",
      "updatedAt": "080430Z",
      "visibility_m": 10000,
      "taf_visibility_m": 7000,
      "worst_visibility_m": 7000,
      "ceiling_ft": null,
      "hazards": [
        "BLSN"
      ],
      "severityScore": 22,
      "metarRaw": "METAR LZKZ 080430Z 35014KT 9999 FEW037 M03/M08 Q1004 NOSIG",
      "tafRaw": "TAF LZKZ 072315Z 0800/0900 36025KT 9999 DRSN NSC \n  TEMPO 0800/0802 36015KT CAVOK \n  TEMPO 0802/0814 CAVOK \n  PROB30 \n  TEMPO 0802/0814 36027G37KT 7000 BLSN FEW030 \n  BECMG 0814/0816 34010KT CAVOK",
      "metarHtml": "METAR LZKZ 080430Z 35014KT 9999 FEW037 M03/M08 Q1004 NOSIG",
      "tafHtml": "TAF LZKZ 072315Z 0800/0900 36025KT 9999 DRSN NSC \n  TEMPO 0800/0802 36015KT <span class=\"hl-vis\">CAVOK</span> \n  TEMPO 0802/0814 <span class=\"hl-vis\">CAVOK</span> \n  PROB30 \n  TEMPO 0802/0814 36027G37KT 7000 <span class=\"hl\">BLSN</span> FEW030 \n  BECMG 0814/0816 34010KT <span class=\"hl-vis\">CAVOK</span>"
    },
    {
      "icao": "UDSG",
      "iata": "LWN",
      "name": "Shirak International Airport",
      "updatedAt": "080430Z",
      "visibility_m": 4700,
      "taf_visibility_m": 1000,
      "worst_visibility_m": 1000,
      "ceiling_ft": null,
      "hazards": [
        "BR"
      ],
      "severityScore": 20,
      "metarRaw": "METAR UDSG 080430Z 08002KT 4700 BR NSC M15/M16 Q1025 NOSIG",
      "tafRaw": "TAF UDSG 072258Z 0800/0824 VRB06KT 5000 BR FEW040 \n  TEMPO 0800/0806 1000 BR",
      "metarHtml": "METAR UDSG 080430Z 08002KT 4700 <span class=\"hl\">BR</span> NSC M15/M16 Q1025 NOSIG",
      "tafHtml": "TAF UDSG 072258Z 0800/0824 VRB06KT 5000 <span class=\"hl\">BR</span> FEW040 \n  TEMPO 0800/0806 1000 <span class=\"hl\">BR</span>"
    },
    {
      "icao": "LTFM",
      "iata": "IST",
      "name": "İstanbul Airport",
      "updatedAt": "080420Z",
      "visibility_m": 10000,
      "taf_visibility_m": null,
      "worst_visibility_m": 10000,
      "ceiling_ft": 8000,
      "hazards": [
        "SHRA"
      ],
      "severityScore": 19,
      "metarRaw": "METAR LTFM 080420Z 19021KT 9999 -SHRA SCT034 BKN080 14/11 Q1001 NOSIG RMK RWY17L 19022KT RWY34L 18020KT RWY16R 19022KT RWY36 19020KT RWY18 19022KT",
      "tafRaw": null,
      "metarHtml": "METAR LTFM 080420Z 19021KT 9999 -<span class=\"hl\">SHRA</span> SCT034 BKN080 14/11 Q1001 NOSIG RMK RWY17L 19022KT RWY34L 18020KT RWY16R 19022KT RWY36 19020KT RWY18 19022KT",
      "tafHtml": null
    },
    {
      "icao": "EDDB",
      "iata": "BER",
      "name": "Berlin Brandenburg Airport",
      "updatedAt": "080420Z",
      "visibility_m": 10000,
      "taf_visibility_m": 4000,
      "worst_visibility_m": 4000,
      "ceiling_ft": null,
      "hazards": [
        "SN"
      ],
      "severityScore": 18,
      "metarRaw": "METAR EDDB 080420Z AUTO 13006KT CAVOK M11/M13 Q1009 NOSIG",
      "tafRaw": "TAF EDDB 072300Z 0800/0824 13006KT 9999 SCT030 BKN040 \n  PROB30 \n  TEMPO 0817/0824 4000 -SN BKN004",
      "metarHtml": "METAR EDDB 080420Z AUTO 13006KT <span class=\"hl-vis\">CAVOK</span> M11/M13 Q1009 NOSIG",
      "tafHtml": "TAF EDDB 072300Z 0800/0824 13006KT 9999 SCT030 BKN040 \n  PROB30 \n  TEMPO 0817/0824 4000 -<span class=\"hl\">SN</span> BKN004"
    },
    {
      "icao": "ENVA",
      "iata": "TRD",
      "name": "Trondheim Airport, Værnes",
      "updatedAt": "080420Z",
      "visibility_m": 10000,
      "taf_visibility_m": 4000,
      "worst_visibility_m": 4000,
      "ceiling_ft": null,
      "hazards": [
        "SN"
      ],
      "severityScore": 18,
      "metarRaw": "METAR ENVA 080420Z 07013KT CAVOK M06/M13 Q1007 RMK WIND 670FT 07014KT",
      "tafRaw": "TAF ENVA 072300Z 0800/0824 10008KT 9999 -SN SCT050 \n  PROB30 0820/0824 4000 -SN VV014",
      "metarHtml": "METAR ENVA 080420Z 07013KT <span class=\"hl-vis\">CAVOK</span> M06/M13 Q1007 RMK WIND 670FT 07014KT",
      "tafHtml": "TAF ENVA 072300Z 0800/0824 10008KT 9999 -<span class=\"hl\">SN</span> SCT050 \n  PROB30 0820/0824 4000 -<span class=\"hl\">SN</span> VV014"
    },
    {
      "icao": "LKPR",
      "iata": "PRG",
      "name": "Václav Havel Airport Prague",
      "updatedAt": "080430Z",
      "visibility_m": 10000,
      "taf_visibility_m": 4000,
      "worst_visibility_m": 4000,
      "ceiling_ft": null,
      "hazards": [
        "SN"
      ],
      "severityScore": 18,
      "metarRaw": "METAR LKPR 080430Z 17005KT CAVOK M09/M11 Q1009 NOSIG",
      "tafRaw": "TAF LKPR 080200Z 0803/0909 20006KT CAVOK \n  BECMG 0807/0809 9999 BKN025 \n  TEMPO 0809/0821 BKN014 \n  PROB30 \n  TEMPO 0809/0819 6000 -SN BKN007 \n  BECMG 0820/0822 12007KT \n  BECMG 0904/0906 -SN BKN012 \n  TEMPO 0906/0909 4000 SN BKN006",
      "metarHtml": "METAR LKPR 080430Z 17005KT <span class=\"hl-vis\">CAVOK</span> M09/M11 Q1009 NOSIG",
      "tafHtml": "TAF LKPR 080200Z 0803/0909 20006KT <span class=\"hl-vis\">CAVOK</span> \n  BECMG 0807/0809 9999 BKN025 \n  TEMPO 0809/0821 BKN014 \n  PROB30 \n  TEMPO 0809/0819 6000 -<span class=\"hl\">SN</span> BKN007 \n  BECMG 0820/0822 12007KT \n  BECMG 0904/0906 -<span class=\"hl\">SN</span> BKN012 \n  TEMPO 0906/0909 4000 <span class=\"hl\">SN</span> BKN006"
    },
    {
      "icao": "LWSK",
      "iata": "SKP",
      "name": "Skopje International Airport",
      "updatedAt": "080420Z",
      "visibility_m": 10000,
      "taf_visibility_m": 3000,
      "worst_visibility_m": 3000,
      "ceiling_ft": 3500,
      "hazards": [
        "SN"
      ],
      "severityScore": 18,
      "metarRaw": "METAR LWSK 080420Z 02013KT 350V050 9999 SCT015 OVC035 00/M02 Q1002 NOSIG",
      "tafRaw": "TAF LWSK 080215Z 0803/0903 36012KT 9999 SCT015 OVC035 \n  TEMPO 0803/0815 04015G25KT \n  TEMPO 0804/0809 3000 -SN FEW007 BKN015 OVC030 \n  BECMG 0811/0813 9999 NSW SCT030 BKN050 \n  BECMG 0821/0823 VRB02KT",
      "metarHtml": "METAR LWSK 080420Z 02013KT 350V050 9999 SCT015 OVC035 00/M02 Q1002 NOSIG",
      "tafHtml": "TAF LWSK 080215Z 0803/0903 36012KT 9999 SCT015 OVC035 \n  TEMPO 0803/0815 04015G25KT \n  TEMPO 0804/0809 3000 -<span class=\"hl\">SN</span> FEW007 BKN015 OVC030 \n  BECMG 0811/0813 9999 NSW SCT030 BKN050 \n  BECMG 0821/0823 VRB02KT"
    },
    {
      "icao": "LYNI",
      "iata": "INI",
      "name": "Niš Constantine the Great Airport",
      "updatedAt": "080430Z",
      "visibility_m": 10000,
      "taf_visibility_m": 2000,
      "worst_visibility_m": 2000,
      "ceiling_ft": 2000,
      "hazards": [
        "SN"
      ],
      "severityScore": 18,
      "metarRaw": "METAR LYNI 080430Z 30007KT 260V330 9999 SCT010 BKN020 OVC070 M03/M05 Q1007 NOSIG",
      "tafRaw": "TAF LYNI 072300Z 0800/0824 32012KT 7000 -SN BKN010 BKN030 OVC070 TXM02/0813Z TNM08/0821Z \n  TEMPO 0800/0804 32016G26KT 2000 SN BKN004 BKN025 OVC065 \n  BECMG 0808/0810 NSW SCT017 BKN025 \n  BECMG 0816/0818 18004KT",
      "metarHtml": "METAR LYNI 080430Z 30007KT 260V330 9999 SCT010 BKN020 OVC070 M03/M05 Q1007 NOSIG",
      "tafHtml": "TAF LYNI 072300Z 0800/0824 32012KT 7000 -<span class=\"hl\">SN</span> BKN010 BKN030 OVC070 TXM02/0813Z TNM08/0821Z \n  TEMPO 0800/0804 32016G26KT 2000 <span class=\"hl\">SN</span> BKN004 BKN025 OVC065 \n  BECMG 0808/0810 NSW SCT017 BKN025 \n  BECMG 0816/0818 18004KT"
    },
    {
      "icao": "EGBB",
      "iata": "BHX",
      "name": "Birmingham Airport",
      "updatedAt": "080420Z",
      "visibility_m": 6000,
      "taf_visibility_m": null,
      "worst_visibility_m": 6000,
      "ceiling_ft": 1100,
      "hazards": [],
      "severityScore": 17,
      "metarRaw": "METAR EGBB 080420Z 15001KT 6000 OVC011 01/01 Q1004",
      "tafRaw": null,
      "metarHtml": "METAR EGBB 080420Z 15001KT 6000 OVC011 01/01 Q1004",
      "tafHtml": null
    },
    {
      "icao": "EGGW",
      "iata": "LTN",
      "name": "London Luton Airport",
      "updatedAt": "080420Z",
      "visibility_m": 10000,
      "taf_visibility_m": null,
      "worst_visibility_m": 10000,
      "ceiling_ft": 1900,
      "hazards": [],
      "severityScore": 17,
      "metarRaw": "METAR EGGW 080420Z AUTO 26004KT 9999 OVC019 02/01 Q1004",
      "tafRaw": null,
      "metarHtml": "METAR EGGW 080420Z AUTO 26004KT 9999 OVC019 02/01 Q1004",
      "tafHtml": null
    },
    {
      "icao": "ENGM",
      "iata": "OSL",
      "name": "Oslo-Gardermoen International Airport",
      "updatedAt": "080420Z",
      "visibility_m": 10000,
      "taf_visibility_m": null,
      "worst_visibility_m": 10000,
      "ceiling_ft": 1700,
      "hazards": [],
      "severityScore": 17,
      "metarRaw": "METAR ENGM 080420Z VRB01KT 9999 FEW014 OVC017 M07/M09 Q1000",
      "tafRaw": null,
      "metarHtml": "METAR ENGM 080420Z VRB01KT 9999 FEW014 OVC017 M07/M09 Q1000",
      "tafHtml": null
    },
    {
      "icao": "EDLW",
      "iata": "DTM",
      "name": "Dortmund Airport",
      "updatedAt": "080420Z",
      "visibility_m": 10000,
      "taf_visibility_m": 4000,
      "worst_visibility_m": 4000,
      "ceiling_ft": 4900,
      "hazards": [
        "RA"
      ],
      "severityScore": 12,
      "metarRaw": "METAR EDLW 080420Z 20014KT 9999 FEW015 SCT043 OVC049 01/M01 Q1005",
      "tafRaw": "TAF EDLW 080420Z 0805/0824 19012KT 9999 FEW015 BKN040 \n  PROB30 \n  TEMPO 0805/0810 BKN012 \n  BECMG 0814/0817 15007KT \n  TEMPO 0819/0824 4000 RA BKN012 \n  BECMG 0822/0824 16012KT",
      "metarHtml": "METAR EDLW 080420Z 20014KT 9999 FEW015 SCT043 OVC049 01/M01 Q1005",
      "tafHtml": "TAF EDLW 080420Z 0805/0824 19012KT 9999 FEW015 BKN040 \n  PROB30 \n  TEMPO 0805/0810 BKN012 \n  BECMG 0814/0817 15007KT \n  TEMPO 0819/0824 4000 <span class=\"hl\">RA</span> BKN012 \n  BECMG 0822/0824 16012KT"
    },
    {
      "icao": "EGNM",
      "iata": "LBA",
      "name": "Leeds Bradford Airport",
      "updatedAt": null,
      "visibility_m": null,
      "taf_visibility_m": 3000,
      "worst_visibility_m": 3000,
      "ceiling_ft": null,
      "hazards": [
        "RA"
      ],
      "severityScore": 12,
      "metarRaw": null,
      "tafRaw": "TAF EGNM 071656Z 0718/0818 25012KT 9999 FEW015 \n  TEMPO 0801/0808 6000 -RASN BKN010 \n  PROB30 \n  TEMPO 0801/0808 3000 RASN BKN006 \n  BECMG 0804/0807 19004KT \n  TEMPO 0808/0816 BKN012 \n  TEMPO 0816/0818 6000 RA -RADZ BKN010 \n  PROB30 \n  TEMPO 0816/0818 BKN006",
      "metarHtml": null,
      "tafHtml": "TAF EGNM 071656Z 0718/0818 25012KT 9999 FEW015 \n  TEMPO 0801/0808 6000 -RASN BKN010 \n  PROB30 \n  TEMPO 0801/0808 3000 RASN BKN006 \n  BECMG 0804/0807 19004KT \n  TEMPO 0808/0816 BKN012 \n  TEMPO 0816/0818 6000 <span class=\"hl\">RA</span> -RADZ BKN010 \n  PROB30 \n  TEMPO 0816/0818 BKN006"
    },
    {
      "icao": "EHBK",
      "iata": "MST",
      "name": "Maastricht Aachen Airport",
      "updatedAt": "080425Z",
      "visibility_m": 10000,
      "taf_visibility_m": 4000,
      "worst_visibility_m": 4000,
      "ceiling_ft": null,
      "hazards": [
        "RA"
      ],
      "severityScore": 12,
      "metarRaw": "METAR EHBK 080425Z AUTO 20012KT 9999 FEW043 00/M01 Q1006",
      "tafRaw": "TAF EHBK 072321Z 0800/0906 20014KT 9999 OVC015 \n  PROB30 \n  TEMPO 0800/0808 BKN008 \n  BECMG 0815/0818 15006KT 6000 RA \n  PROB40 \n  TEMPO 0817/0820 4000 BKN008 \n  BECMG 0821/0824 18015G25KT \n  BECMG 0900/0903 9999 NSW \n  TEMPO 0905/0906 7000 RA",
      "metarHtml": "METAR EHBK 080425Z AUTO 20012KT 9999 FEW043 00/M01 Q1006",
      "tafHtml": "TAF EHBK 072321Z 0800/0906 20014KT 9999 OVC015 \n  PROB30 \n  TEMPO 0800/0808 BKN008 \n  BECMG 0815/0818 15006KT 6000 <span class=\"hl\">RA</span> \n  PROB40 \n  TEMPO 0817/0820 4000 BKN008 \n  BECMG 0821/0824 18015G25KT \n  BECMG 0900/0903 9999 NSW \n  TEMPO 0905/0906 7000 <span class=\"hl\">RA</span>"
    },
    {
      "icao": "EKCH",
      "iata": "CPH",
      "name": "Copenhagen Kastrup Airport",
      "updatedAt": "080420Z",
      "visibility_m": 10000,
      "taf_visibility_m": 10000,
      "worst_visibility_m": 10000,
      "ceiling_ft": 1400,
      "hazards": [],
      "severityScore": 12,
      "metarRaw": "METAR EKCH 080420Z 16017KT 9999 BKN014 M01/M04 Q1007 TEMPO BKN015",
      "tafRaw": "TAF EKCH 080227Z 0803/0903 17015KT 9999 BKN016 \n  TEMPO 0803/0804 18015G25KT \n  TEMPO 0804/0809 BKN012 \n  TEMPO 0809/0812 16015G25KT \n  BECMG 0815/0818 11012KT",
      "metarHtml": "METAR EKCH 080420Z 16017KT 9999 BKN014 M01/M04 Q1007 TEMPO BKN015",
      "tafHtml": "TAF EKCH 080227Z 0803/0903 17015KT 9999 BKN016 \n  TEMPO 0803/0804 18015G25KT \n  TEMPO 0804/0809 BKN012 \n  TEMPO 0809/0812 16015G25KT \n  BECMG 0815/0818 11012KT"
    },
    {
      "icao": "LATI",
      "iata": "TIA",
      "name": "Tirana International Airport Mother Teresa",
      "updatedAt": "080420Z",
      "visibility_m": 10000,
      "taf_visibility_m": 10000,
      "worst_visibility_m": 10000,
      "ceiling_ft": 4200,
      "hazards": [
        "RA"
      ],
      "severityScore": 12,
      "metarRaw": "METAR LATI 080420Z 35005KT 9999 BKN042 OVC130 08/04 Q1004 NOSIG",
      "tafRaw": "TAF LATI 072300Z 0800/0824 17008KT 9999 -RA SCT025 OVC050 TX09/0805Z TN02/0823Z \n  TEMPO 0800/0806 RA SCT010 FEW025TCU OVC040 \n  TEMPO 0806/0817 28016KT \n  BECMG 0817/0819 VRB03KT CAVOK",
      "metarHtml": "METAR LATI 080420Z 35005KT 9999 BKN042 OVC130 08/04 Q1004 NOSIG",
      "tafHtml": "TAF LATI 072300Z 0800/0824 17008KT 9999 -<span class=\"hl\">RA</span> SCT025 OVC050 TX09/0805Z TN02/0823Z \n  TEMPO 0800/0806 <span class=\"hl\">RA</span> SCT010 FEW025TCU OVC040 \n  TEMPO 0806/0817 28016KT \n  BECMG 0817/0819 VRB03KT <span class=\"hl-vis\">CAVOK</span>"
    },
    {
      "icao": "LEBB",
      "iata": "BIO",
      "name": "Bilbao Airport",
      "updatedAt": "080430Z",
      "visibility_m": 10000,
      "taf_visibility_m": 3000,
      "worst_visibility_m": 3000,
      "ceiling_ft": 4800,
      "hazards": [
        "RA"
      ],
      "severityScore": 12,
      "metarRaw": "METAR LEBB 080430Z 02004KT 330V070 9999 FEW035 BKN048 11/07 Q1023 NOSIG",
      "tafRaw": "TAF LEBB 072300Z 0800/0824 22009KT 9999 SCT020 BKN050 TX14/0814Z TN08/0803Z \n  PROB40 \n  TEMPO 0806/0812 22015G25KT \n  TEMPO 0812/0824 22020G33KT \n  PROB30 0822/0824 28012KT 3000 RA",
      "metarHtml": "METAR LEBB 080430Z 02004KT 330V070 9999 FEW035 BKN048 11/07 Q1023 NOSIG",
      "tafHtml": "TAF LEBB 072300Z 0800/0824 22009KT 9999 SCT020 BKN050 TX14/0814Z TN08/0803Z \n  PROB40 \n  TEMPO 0806/0812 22015G25KT \n  TEMPO 0812/0824 22020G33KT \n  PROB30 0822/0824 28012KT 3000 <span class=\"hl\">RA</span>"
    },
    {
      "icao": "LGAV",
      "iata": "ATH",
      "name": "Athens Eleftherios Venizelos International Airport",
      "updatedAt": "080420Z",
      "visibility_m": 10000,
      "taf_visibility_m": 5000,
      "worst_visibility_m": 5000,
      "ceiling_ft": null,
      "hazards": [
        "RA"
      ],
      "severityScore": 12,
      "metarRaw": "METAR LGAV 080420Z 23017KT 9999 FEW025 17/05 Q1003 NOSIG",
      "tafRaw": "TAF LGAV 072300Z 0800/0824 20018G30KT 9999 FEW020 SCT030 \n  PROB30 \n  TEMPO 0800/0803 5000 RA FEW018TCU SCT020 BKN030 \n  BECMG 0802/0804 26016KT \n  TEMPO 0806/0815 26020G30KT",
      "metarHtml": "METAR LGAV 080420Z 23017KT 9999 FEW025 17/05 Q1003 NOSIG",
      "tafHtml": "TAF LGAV 072300Z 0800/0824 20018G30KT 9999 FEW020 SCT030 \n  PROB30 \n  TEMPO 0800/0803 5000 <span class=\"hl\">RA</span> FEW018TCU SCT020 BKN030 \n  BECMG 0802/0804 26016KT \n  TEMPO 0806/0815 26020G30KT"
    },
    {
      "icao": "LGTS",
      "iata": "SKG",
      "name": "Thessaloniki Macedonia International Airport",
      "updatedAt": "080420Z",
      "visibility_m": 10000,
      "taf_visibility_m": 5000,
      "worst_visibility_m": 5000,
      "ceiling_ft": null,
      "hazards": [
        "RA"
      ],
      "severityScore": 12,
      "metarRaw": "METAR LGTS 080420Z 27008KT 9999 FEW025 12/11 Q0999 NOSIG",
      "tafRaw": "TAF LGTS 072300Z 0800/0824 16012KT 9999 SCT025 \n  PROB30 \n  TEMPO 0800/0811 5000 RA FEW012 BKN025 \n  BECMG 0808/0810 34015KT FEW025 \n  TEMPO 0814/0824 34015G25KT",
      "metarHtml": "METAR LGTS 080420Z 27008KT 9999 FEW025 12/11 Q0999 NOSIG",
      "tafHtml": "TAF LGTS 072300Z 0800/0824 16012KT 9999 SCT025 \n  PROB30 \n  TEMPO 0800/0811 5000 <span class=\"hl\">RA</span> FEW012 BKN025 \n  BECMG 0808/0810 34015KT FEW025 \n  TEMPO 0814/0824 34015G25KT"
    },
    {
      "icao": "LIBD",
      "iata": "BRI",
      "name": "Bari Karol Wojtyła International Airport",
      "updatedAt": "080420Z",
      "visibility_m": 9000,
      "taf_visibility_m": 4000,
      "worst_visibility_m": 4000,
      "ceiling_ft": 4000,
      "hazards": [
        "RA"
      ],
      "severityScore": 12,
      "metarRaw": "METAR LIBD 080420Z 26013KT 9000 BKN040 03/01 Q1008",
      "tafRaw": "TAF LIBD 072300Z 0800/0824 28018G28KT 7000 BKN020 \n  TEMPO 0800/0804 4000 RA \n  BECMG 0818/0820 23010KT",
      "metarHtml": "METAR LIBD 080420Z 26013KT 9000 BKN040 03/01 Q1008",
      "tafHtml": "TAF LIBD 072300Z 0800/0824 28018G28KT 7000 BKN020 \n  TEMPO 0800/0804 4000 <span class=\"hl\">RA</span> \n  BECMG 0818/0820 23010KT"
    },
    {
      "icao": "LIBG",
      "iata": "TAR",
      "name": "Taranto-Grottaglie Marcello Arlotta Airport",
      "updatedAt": null,
      "visibility_m": null,
      "taf_visibility_m": 10000,
      "worst_visibility_m": 10000,
      "ceiling_ft": null,
      "hazards": [
        "RA"
      ],
      "severityScore": 12,
      "metarRaw": null,
      "tafRaw": "TAF LIBG 071700Z 0718/0803 32012KT 9999 SCT020 \n  TEMPO 0718/0720 RA BKN010",
      "metarHtml": null,
      "tafHtml": "TAF LIBG 071700Z 0718/0803 32012KT 9999 SCT020 \n  TEMPO 0718/0720 <span class=\"hl\">RA</span> BKN010"
    },
    {
      "icao": "LIBR",
      "iata": "BDS",
      "name": "Brindisi Airport",
      "updatedAt": "080420Z",
      "visibility_m": 10000,
      "taf_visibility_m": 10000,
      "worst_visibility_m": 10000,
      "ceiling_ft": 3500,
      "hazards": [
        "RA"
      ],
      "severityScore": 12,
      "metarRaw": "METAR LIBR 080420Z 29014KT 9999 BKN035 05/02 Q1007",
      "tafRaw": "TAF LIBR 072300Z 0800/0824 33018KT 9999 SCT030 \n  TEMPO 0800/0804 RA \n  BECMG 0802/0804 33020G32KT",
      "metarHtml": "METAR LIBR 080420Z 29014KT 9999 BKN035 05/02 Q1007",
      "tafHtml": "TAF LIBR 072300Z 0800/0824 33018KT 9999 SCT030 \n  TEMPO 0800/0804 <span class=\"hl\">RA</span> \n  BECMG 0802/0804 33020G32KT"
    },
    {
      "icao": "LICA",
      "iata": "SUF",
      "name": "Lamezia Terme Sant'Eufemia International Airport",
      "updatedAt": "080420Z",
      "visibility_m": 10000,
      "taf_visibility_m": 3000,
      "worst_visibility_m": 3000,
      "ceiling_ft": null,
      "hazards": [
        "RA"
      ],
      "severityScore": 12,
      "metarRaw": "METAR LICA 080420Z AUTO 29021G31KT 9999 FEW052/// 10/02 Q1010",
      "tafRaw": "TAF LICA 072300Z 0800/0824 28020G32KT 7000 BKN020 \n  TEMPO 0800/0815 3000 RA \n  BECMG 0815/0817 29013KT",
      "metarHtml": "METAR LICA 080420Z AUTO 29021G31KT 9999 FEW052/// 10/02 Q1010",
      "tafHtml": "TAF LICA 072300Z 0800/0824 28020G32KT 7000 BKN020 \n  TEMPO 0800/0815 3000 <span class=\"hl\">RA</span> \n  BECMG 0815/0817 29013KT"
    },
    {
      "icao": "LMML",
      "iata": "MLA",
      "name": "Malta International Airport",
      "updatedAt": "080415Z",
      "visibility_m": 10000,
      "taf_visibility_m": 8000,
      "worst_visibility_m": 8000,
      "ceiling_ft": null,
      "hazards": [
        "RA"
      ],
      "severityScore": 12,
      "metarRaw": "METAR LMML 080415Z 28023KT 9999 -RA FEW032 SCT049 12/04 Q1018 NOSIG",
      "tafRaw": "TAF LMML 072300Z 0800/0824 29025G35KT 9999 SCT025 \n  PROB40 \n  TEMPO 0800/0824 8000 RA BKN020TCU",
      "metarHtml": "METAR LMML 080415Z 28023KT 9999 -<span class=\"hl\">RA</span> FEW032 SCT049 12/04 Q1018 NOSIG",
      "tafHtml": "TAF LMML 072300Z 0800/0824 29025G35KT 9999 SCT025 \n  PROB40 \n  TEMPO 0800/0824 8000 <span class=\"hl\">RA</span> BKN020TCU"
    },
    {
      "icao": "LPPS",
      "iata": "PXO",
      "name": "Porto Santo Airport",
      "updatedAt": "080430Z",
      "visibility_m": 10000,
      "taf_visibility_m": 6000,
      "worst_visibility_m": 6000,
      "ceiling_ft": null,
      "hazards": [
        "RA"
      ],
      "severityScore": 12,
      "metarRaw": "METAR LPPS 080430Z 35008KT 9999 SCT015 13/12 Q1034",
      "tafRaw": "TAF LPPS 072300Z 0800/0906 04007KT 9999 SCT015 \n  TEMPO 0800/0906 FEW015 BKN030 \n  PROB30 \n  TEMPO 0820/0906 6000 -RA SCT006 BKN012",
      "metarHtml": "METAR LPPS 080430Z 35008KT 9999 SCT015 13/12 Q1034",
      "tafHtml": "TAF LPPS 072300Z 0800/0906 04007KT 9999 SCT015 \n  TEMPO 0800/0906 FEW015 BKN030 \n  PROB30 \n  TEMPO 0820/0906 6000 -<span class=\"hl\">RA</span> SCT006 BKN012"
    },
    {
      "icao": "LWOH",
      "iata": "OHD",
      "name": "Ohrid St. Paul the Apostle Airport",
      "updatedAt": null,
      "visibility_m": null,
      "taf_visibility_m": 5000,
      "worst_visibility_m": 5000,
      "ceiling_ft": null,
      "hazards": [
        "RA"
      ],
      "severityScore": 12,
      "metarRaw": null,
      "tafRaw": "TAF LWOH 080215Z 0803/0903 19012KT 9999 RA SCT015 OVC035 \n  BECMG 0803/0805 25015G25KT \n  TEMPO 0804/0810 5000 SNRA FEW005 BKN010 OVC030 \n  BECMG 0812/0814 33010KT NSW SCT030 BKN050",
      "metarHtml": null,
      "tafHtml": "TAF LWOH 080215Z 0803/0903 19012KT 9999 <span class=\"hl\">RA</span> SCT015 OVC035 \n  BECMG 0803/0805 25015G25KT \n  TEMPO 0804/0810 5000 SNRA FEW005 BKN010 OVC030 \n  BECMG 0812/0814 33010KT NSW SCT030 BKN050"
    },
    {
      "icao": "EHEH",
      "iata": "EIN",
      "name": "Eindhoven Airport",
      "updatedAt": "080425Z",
      "visibility_m": 10000,
      "taf_visibility_m": 2500,
      "worst_visibility_m": 2500,
      "ceiling_ft": 3100,
      "hazards": [
        "SHSN"
      ],
      "severityScore": 10,
      "metarRaw": "METAR EHEH 080425Z AUTO 21010KT 9999 OVC031 02/M01 Q1006 BLU",
      "tafRaw": "TAF EHEH 072330Z 0800/0906 21014KT 9999 SCT025 \n  TEMPO 0800/0801 2500 -SHSN SCT003 BKN005 FEW015CB \n  BECMG 0814/0816 13005KT SCT012 BKN015 OVC018 \n  TEMPO 0817/0901 3500 RADZ RASN SCT005 BKN007 OVC010 \n  BECMG 0900/0902 17012G23KT SCT030 \n  PROB30 \n  TEMPO 0902/0904 SCT020CB \n  BECMG 0904/0906 SCT015 BKN018 \n  TEMPO 0905/0906 3500 RADZ SCT007 BKN012",
      "metarHtml": "METAR EHEH 080425Z AUTO 21010KT 9999 OVC031 02/M01 Q1006 BLU",
      "tafHtml": "TAF EHEH 072330Z 0800/0906 21014KT 9999 SCT025 \n  TEMPO 0800/0801 2500 -<span class=\"hl\">SHSN</span> SCT003 BKN005 FEW015CB \n  BECMG 0814/0816 13005KT SCT012 BKN015 OVC018 \n  TEMPO 0817/0901 3500 RADZ RASN SCT005 BKN007 OVC010 \n  BECMG 0900/0902 17012G23KT SCT030 \n  PROB30 \n  TEMPO 0902/0904 SCT020CB \n  BECMG 0904/0906 SCT015 BKN018 \n  TEMPO 0905/0906 3500 RADZ SCT007 BKN012"
    },
    {
      "icao": "EPSC",
      "iata": "SZZ",
      "name": "Solidarity Szczecin–Goleniów Airport",
      "updatedAt": "080430Z",
      "visibility_m": 5000,
      "taf_visibility_m": 4500,
      "worst_visibility_m": 4500,
      "ceiling_ft": null,
      "hazards": [
        "BR"
      ],
      "severityScore": 10,
      "metarRaw": "METAR EPSC 080430Z 12012KT 5000 BR NSC M09/M11 Q1011",
      "tafRaw": "TAF EPSC 072330Z 0800/0824 13008KT CAVOK \n  PROB40 0802/0809 4500 BR BKN005",
      "metarHtml": "METAR EPSC 080430Z 12012KT 5000 <span class=\"hl\">BR</span> NSC M09/M11 Q1011",
      "tafHtml": "TAF EPSC 072330Z 0800/0824 13008KT <span class=\"hl-vis\">CAVOK</span> \n  PROB40 0802/0809 4500 <span class=\"hl\">BR</span> BKN005"
    },
    {
      "icao": "EPWR",
      "iata": "WRO",
      "name": "Copernicus Wrocław Airport",
      "updatedAt": "080430Z",
      "visibility_m": 4000,
      "taf_visibility_m": 3500,
      "worst_visibility_m": 3500,
      "ceiling_ft": null,
      "hazards": [
        "BR"
      ],
      "severityScore": 10,
      "metarRaw": "METAR EPWR 080430Z 00000KT 4000 BR FEW024 M11/M12 Q1012",
      "tafRaw": "TAF EPWR 080230Z 0803/0903 VRB02KT 4000 BR BKN022 \n  BECMG 0806/0809 6000 \n  TEMPO 0820/0903 3500 BR \n  BECMG 0900/0903 10010KT",
      "metarHtml": "METAR EPWR 080430Z 00000KT 4000 <span class=\"hl\">BR</span> FEW024 M11/M12 Q1012",
      "tafHtml": "TAF EPWR 080230Z 0803/0903 VRB02KT 4000 <span class=\"hl\">BR</span> BKN022 \n  BECMG 0806/0809 6000 \n  TEMPO 0820/0903 3500 <span class=\"hl\">BR</span> \n  BECMG 0900/0903 10010KT"
    },
    {
      "icao": "ESSA",
      "iata": "ARN",
      "name": "Stockholm-Arlanda Airport",
      "updatedAt": "080420Z",
      "visibility_m": 10000,
      "taf_visibility_m": 2500,
      "worst_visibility_m": 2500,
      "ceiling_ft": null,
      "hazards": [
        "SHSN"
      ],
      "severityScore": 10,
      "metarRaw": "METAR ESSA 080420Z 14010KT CAVOK M02/M04 Q1010 NOSIG",
      "tafRaw": "TAF ESSA 080230Z 0803/0903 15006KT 9999 BKN020 \n  PROB40 0803/0808 2500 -SHSN BKN008 BKN020CB \n  BECMG 0810/0812 18015G25KT \n  BECMG 0815/0817 17008KT \n  PROB40 0820/0903 3000 -SHSN BKN013 BKN025CB",
      "metarHtml": "METAR ESSA 080420Z 14010KT <span class=\"hl-vis\">CAVOK</span> M02/M04 Q1010 NOSIG",
      "tafHtml": "TAF ESSA 080230Z 0803/0903 15006KT 9999 BKN020 \n  PROB40 0803/0808 2500 -<span class=\"hl\">SHSN</span> BKN008 BKN020CB \n  BECMG 0810/0812 18015G25KT \n  BECMG 0815/0817 17008KT \n  PROB40 0820/0903 3000 -<span class=\"hl\">SHSN</span> BKN013 BKN025CB"
    },
    {
      "icao": "HESX",
      "iata": "SPX",
      "name": "Sphinx International Airport",
      "updatedAt": "080400Z",
      "visibility_m": 6000,
      "taf_visibility_m": 2000,
      "worst_visibility_m": 2000,
      "ceiling_ft": null,
      "hazards": [
        "BR"
      ],
      "severityScore": 10,
      "metarRaw": "METAR HESX 080400Z 22005KT 6000 NSC 09/06 Q1018 NOSIG",
      "tafRaw": "TAF HESX 072300Z 0800/0906 13007KT 6000 NSC \n  TEMPO 0800/0806 VRB03KT 4000 BR \n  TEMPO 0802/0806 2000 \n  PROB30 \n  TEMPO 0810/0816 13010G20KT 4000 SA",
      "metarHtml": "METAR HESX 080400Z 22005KT 6000 NSC 09/06 Q1018 NOSIG",
      "tafHtml": "TAF HESX 072300Z 0800/0906 13007KT 6000 NSC \n  TEMPO 0800/0806 VRB03KT 4000 <span class=\"hl\">BR</span> \n  TEMPO 0802/0806 2000 \n  PROB30 \n  TEMPO 0810/0816 13010G20KT 4000 SA"
    },
    {
      "icao": "LEZL",
      "iata": "SVQ",
      "name": "Sevilla Airport",
      "updatedAt": "080430Z",
      "visibility_m": 9000,
      "taf_visibility_m": 4000,
      "worst_visibility_m": 4000,
      "ceiling_ft": 2500,
      "hazards": [
        "BR"
      ],
      "severityScore": 10,
      "metarRaw": "METAR LEZL 080430Z 05006KT 9000 OVC025 08/08 Q1031 NOSIG",
      "tafRaw": "TAF LEZL 080200Z 0803/0903 04004KT 9999 SCT020 TX14/0815Z TN05/0807Z \n  PROB30 \n  TEMPO 0803/0807 4000 BR BKN014",
      "metarHtml": "METAR LEZL 080430Z 05006KT 9000 OVC025 08/08 Q1031 NOSIG",
      "tafHtml": "TAF LEZL 080200Z 0803/0903 04004KT 9999 SCT020 TX14/0815Z TN05/0807Z \n  PROB30 \n  TEMPO 0803/0807 4000 <span class=\"hl\">BR</span> BKN014"
    },
    {
      "icao": "OEJN",
      "iata": "JED",
      "name": "King Abdulaziz International Airport",
      "updatedAt": "080400Z",
      "visibility_m": 10000,
      "taf_visibility_m": 3000,
      "worst_visibility_m": 3000,
      "ceiling_ft": null,
      "hazards": [
        "BR"
      ],
      "severityScore": 10,
      "metarRaw": "METAR OEJN 080400Z 30003KT CAVOK 22/16 Q1017 NOSIG",
      "tafRaw": "TAF OEJN 072300Z 0800/0906 VRB03KT 7000 NSC \n  PROB30 \n  TEMPO 0800/0805 3000 BR \n  BECMG 0808/0810 22010KT 9999 FEW040 \n  BECMG 0818/0820 VRB03KT 7000 NSC",
      "metarHtml": "METAR OEJN 080400Z 30003KT <span class=\"hl-vis\">CAVOK</span> 22/16 Q1017 NOSIG",
      "tafHtml": "TAF OEJN 072300Z 0800/0906 VRB03KT 7000 NSC \n  PROB30 \n  TEMPO 0800/0805 3000 <span class=\"hl\">BR</span> \n  BECMG 0808/0810 22010KT 9999 FEW040 \n  BECMG 0818/0820 VRB03KT 7000 NSC"
    },
    {
      "icao": "EDJA",
      "iata": "FMM",
      "name": "Memmingen Allgau Airport",
      "updatedAt": "080420Z",
      "visibility_m": 7000,
      "taf_visibility_m": null,
      "worst_visibility_m": 7000,
      "ceiling_ft": null,
      "hazards": [],
      "severityScore": 5,
      "metarRaw": "METAR EDJA 080420Z AUTO 21008KT 7000 // FEW009/// SCT016/// OVC029/// M04/M05 Q1010",
      "tafRaw": null,
      "metarHtml": "METAR EDJA 080420Z AUTO 21008KT 7000 // FEW009/// SCT016/// OVC029/// M04/M05 Q1010",
      "tafHtml": null
    },
    {
      "icao": "EDSB",
      "iata": "FKB",
      "name": "Karlsruhe Baden-Baden Airport",
      "updatedAt": "080420Z",
      "visibility_m": 10000,
      "taf_visibility_m": null,
      "worst_visibility_m": 10000,
      "ceiling_ft": 2500,
      "hazards": [],
      "severityScore": 5,
      "metarRaw": "METAR EDSB 080420Z 19012KT 9999 OVC025 00/M02 Q1011",
      "tafRaw": null,
      "metarHtml": "METAR EDSB 080420Z 19012KT 9999 OVC025 00/M02 Q1011",
      "tafHtml": null
    },
    {
      "icao": "EGGP",
      "iata": "LPL",
      "name": "Liverpool John Lennon Airport",
      "updatedAt": "080420Z",
      "visibility_m": 8000,
      "taf_visibility_m": null,
      "worst_visibility_m": 8000,
      "ceiling_ft": null,
      "hazards": [],
      "severityScore": 5,
      "metarRaw": "METAR EGGP 080420Z AUTO 16003KT 8000 BKN001/// 02/01 Q1004",
      "tafRaw": null,
      "metarHtml": "METAR EGGP 080420Z AUTO 16003KT 8000 BKN001/// 02/01 Q1004",
      "tafHtml": null
    },
    {
      "icao": "EGPF",
      "iata": "GLA",
      "name": "Glasgow Airport",
      "updatedAt": "080420Z",
      "visibility_m": 10000,
      "taf_visibility_m": null,
      "worst_visibility_m": 10000,
      "ceiling_ft": null,
      "hazards": [],
      "severityScore": 5,
      "metarRaw": "METAR EGPF 080420Z 08001KT 9999 MIFG SCT034 M05/M05 Q1003",
      "tafRaw": null,
      "metarHtml": "METAR EGPF 080420Z 08001KT 9999 MIFG SCT034 M05/M05 Q1003",
      "tafHtml": null
    },
    {
      "icao": "ENTC",
      "iata": "TOS",
      "name": "Tromsø Airport, Langnes",
      "updatedAt": "080350Z",
      "visibility_m": 10000,
      "taf_visibility_m": null,
      "worst_visibility_m": 10000,
      "ceiling_ft": null,
      "hazards": [],
      "severityScore": 5,
      "metarRaw": "METAR ENTC 080350Z AUTO 17014KT 9999 NCD M09/M15 Q1021 RMK WIND 2600FT 17029KT",
      "tafRaw": null,
      "metarHtml": "METAR ENTC 080350Z AUTO 17014KT 9999 NCD M09/M15 Q1021 RMK WIND 2600FT 17029KT",
      "tafHtml": null
    },
    {
      "icao": "EYPA",
      "iata": "PLQ",
      "name": "Palanga International Airport",
      "updatedAt": "080420Z",
      "visibility_m": 10000,
      "taf_visibility_m": null,
      "worst_visibility_m": 10000,
      "ceiling_ft": null,
      "hazards": [],
      "severityScore": 5,
      "metarRaw": "METAR EYPA 080420Z 11004KT CAVOK M10/M11 Q1016",
      "tafRaw": null,
      "metarHtml": "METAR EYPA 080420Z 11004KT <span class=\"hl-vis\">CAVOK</span> M10/M11 Q1016",
      "tafHtml": null
    },
    {
      "icao": "LECH",
      "iata": "CDT",
      "name": "Castellón-Costa Azahar Airport",
      "updatedAt": "080430Z",
      "visibility_m": 10000,
      "taf_visibility_m": null,
      "worst_visibility_m": 10000,
      "ceiling_ft": null,
      "hazards": [],
      "severityScore": 5,
      "metarRaw": "METAR LECH 080430Z AUTO 29004KT CAVOK 11/02 Q1023",
      "tafRaw": null,
      "metarHtml": "METAR LECH 080430Z AUTO 29004KT <span class=\"hl-vis\">CAVOK</span> 11/02 Q1023",
      "tafHtml": null
    },
    {
      "icao": "BIKF",
      "iata": "KEF",
      "name": "Keflavik International Airport",
      "updatedAt": "080430Z",
      "visibility_m": 10000,
      "taf_visibility_m": 10000,
      "worst_visibility_m": 10000,
      "ceiling_ft": null,
      "hazards": [],
      "severityScore": 0,
      "metarRaw": "METAR BIKF 080430Z 07019KT CAVOK 00/M07 Q1000",
      "tafRaw": "TAF BIKF 080412Z 0806/0906 07015KT 9999 FEW045 TX02/0815Z TNM03/0906Z \n  PROB40 \n  TEMPO 0806/0813 07020G30KT \n  BECMG 0901/0903 03008KT",
      "metarHtml": "METAR BIKF 080430Z 07019KT <span class=\"hl-vis\">CAVOK</span> 00/M07 Q1000",
      "tafHtml": "TAF BIKF 080412Z 0806/0906 07015KT 9999 FEW045 TX02/0815Z TNM03/0906Z \n  PROB40 \n  TEMPO 0806/0813 07020G30KT \n  BECMG 0901/0903 03008KT"
    },
    {
      "icao": "GCFV",
      "iata": "FUE",
      "name": "Fuerteventura Airport",
      "updatedAt": "080430Z",
      "visibility_m": 10000,
      "taf_visibility_m": 10000,
      "worst_visibility_m": 10000,
      "ceiling_ft": 3300,
      "hazards": [],
      "severityScore": 0,
      "metarRaw": "METAR GCFV 080430Z AUTO 04018KT 9999 BKN033 17/11 Q1029",
      "tafRaw": "TAF GCFV 080200Z 0803/0903 05018KT 9999 SCT035 TX20/0814Z TN14/0806Z \n  TEMPO 0812/0819 14008KT",
      "metarHtml": "METAR GCFV 080430Z AUTO 04018KT 9999 BKN033 17/11 Q1029",
      "tafHtml": "TAF GCFV 080200Z 0803/0903 05018KT 9999 SCT035 TX20/0814Z TN14/0806Z \n  TEMPO 0812/0819 14008KT"
    },
    {
      "icao": "GCLP",
      "iata": "LPA",
      "name": "Gran Canaria Airport",
      "updatedAt": "080430Z",
      "visibility_m": 10000,
      "taf_visibility_m": 10000,
      "worst_visibility_m": 10000,
      "ceiling_ft": null,
      "hazards": [],
      "severityScore": 0,
      "metarRaw": "METAR GCLP 080430Z 05016KT 9999 FEW035 SCT040 17/09 Q1029 NOSIG",
      "tafRaw": "TAF GCLP 080200Z 0803/0903 04016KT 9999 BKN035 TX20/0814Z TN14/0806Z \n  TEMPO 0818/0903 35006KT",
      "metarHtml": "METAR GCLP 080430Z 05016KT 9999 FEW035 SCT040 17/09 Q1029 NOSIG",
      "tafHtml": "TAF GCLP 080200Z 0803/0903 04016KT 9999 BKN035 TX20/0814Z TN14/0806Z \n  TEMPO 0818/0903 35006KT"
    },
    {
      "icao": "GCTS",
      "iata": "TFS",
      "name": "Tenerife Sur Airport",
      "updatedAt": "080430Z",
      "visibility_m": 10000,
      "taf_visibility_m": 10000,
      "worst_visibility_m": 10000,
      "ceiling_ft": null,
      "hazards": [],
      "severityScore": 0,
      "metarRaw": "METAR GCTS 080430Z 07022G32KT 9999 FEW040 17/09 Q1029 NOSIG",
      "tafRaw": "TAF GCTS 080200Z 0803/0903 05020KT 9999 SCT040 TX23/0814Z TN16/0806Z \n  PROB30 \n  TEMPO 0803/0816 07020G30KT \n  PROB40 \n  TEMPO 0818/0903 03009KT",
      "metarHtml": "METAR GCTS 080430Z 07022G32KT 9999 FEW040 17/09 Q1029 NOSIG",
      "tafHtml": "TAF GCTS 080200Z 0803/0903 05020KT 9999 SCT040 TX23/0814Z TN16/0806Z \n  PROB30 \n  TEMPO 0803/0816 07020G30KT \n  PROB40 \n  TEMPO 0818/0903 03009KT"
    },
    {
      "icao": "GMAD",
      "iata": "AGA",
      "name": "Al Massira Airport",
      "updatedAt": "080430Z",
      "visibility_m": 10000,
      "taf_visibility_m": 10000,
      "worst_visibility_m": 10000,
      "ceiling_ft": null,
      "hazards": [],
      "severityScore": 0,
      "metarRaw": "METAR GMAD 080430Z 07007KT CAVOK 07/06 Q1029 NOSIG",
      "tafRaw": "TAF GMAD 072300Z 0800/0906 07006KT CAVOK",
      "metarHtml": "METAR GMAD 080430Z 07007KT <span class=\"hl-vis\">CAVOK</span> 07/06 Q1029 NOSIG",
      "tafHtml": "TAF GMAD 072300Z 0800/0906 07006KT <span class=\"hl-vis\">CAVOK</span>"
    },
    {
      "icao": "GMMN",
      "iata": "CMN",
      "name": "Mohammed V International Airport",
      "updatedAt": "080430Z",
      "visibility_m": 10000,
      "taf_visibility_m": 5000,
      "worst_visibility_m": 5000,
      "ceiling_ft": null,
      "hazards": [],
      "severityScore": 0,
      "metarRaw": "METAR GMMN 080430Z 15004KT CAVOK 03/02 Q1032 NOSIG",
      "tafRaw": "TAF GMMN 072300Z 0800/0906 16005KT CAVOK \n  BECMG 0810/0813 36008KT \n  BECMG 0820/0824 VRB02KT 8000 SCT010 \n  PROB40 0902/0906 5000 BKN006",
      "metarHtml": "METAR GMMN 080430Z 15004KT <span class=\"hl-vis\">CAVOK</span> 03/02 Q1032 NOSIG",
      "tafHtml": "TAF GMMN 072300Z 0800/0906 16005KT <span class=\"hl-vis\">CAVOK</span> \n  BECMG 0810/0813 36008KT \n  BECMG 0820/0824 VRB02KT 8000 SCT010 \n  PROB40 0902/0906 5000 BKN006"
    },
    {
      "icao": "GMMX",
      "iata": "RAK",
      "name": "Menara Airport",
      "updatedAt": "080430Z",
      "visibility_m": 10000,
      "taf_visibility_m": 8000,
      "worst_visibility_m": 8000,
      "ceiling_ft": null,
      "hazards": [],
      "severityScore": 0,
      "metarRaw": "METAR GMMX 080430Z 06003KT CAVOK 04/02 Q1030 NOSIG",
      "tafRaw": "TAF GMMX 072300Z 0800/0906 22006KT 8000 NSC",
      "metarHtml": "METAR GMMX 080430Z 06003KT <span class=\"hl-vis\">CAVOK</span> 04/02 Q1030 NOSIG",
      "tafHtml": "TAF GMMX 072300Z 0800/0906 22006KT 8000 NSC"
    },
    {
      "icao": "EFTU",
      "iata": "TKU",
      "name": "Turku Airport",
      "updatedAt": "080420Z",
      "visibility_m": 10000,
      "taf_visibility_m": 10000,
      "worst_visibility_m": 10000,
      "ceiling_ft": 3200,
      "hazards": [],
      "severityScore": 0,
      "metarRaw": "METAR EFTU 080420Z AUTO 11008KT 9999 BKN032 M09/M11 Q1018",
      "tafRaw": "TAF EFTU 080223Z 0803/0903 10009KT 9999 OVC035 \n  PROB30 \n  TEMPO 0808/0815 BKN008",
      "metarHtml": "METAR EFTU 080420Z AUTO 11008KT 9999 BKN032 M09/M11 Q1018",
      "tafHtml": "TAF EFTU 080223Z 0803/0903 10009KT 9999 OVC035 \n  PROB30 \n  TEMPO 0808/0815 BKN008"
    },
    {
      "icao": "ENAL",
      "iata": "AES",
      "name": "Ålesund Airport, Vigra",
      "updatedAt": "080420Z",
      "visibility_m": 10000,
      "taf_visibility_m": 10000,
      "worst_visibility_m": 10000,
      "ceiling_ft": null,
      "hazards": [],
      "severityScore": 0,
      "metarRaw": "METAR ENAL 080420Z AUTO 17006KT 9999 NCD M05/M11 Q1004",
      "tafRaw": "TAF ENAL 080200Z 0803/0812 13012KT CAVOK",
      "metarHtml": "METAR ENAL 080420Z AUTO 17006KT 9999 NCD M05/M11 Q1004",
      "tafHtml": "TAF ENAL 080200Z 0803/0812 13012KT <span class=\"hl-vis\">CAVOK</span>"
    },
    {
      "icao": "ENBR",
      "iata": "BGO",
      "name": "Bergen Airport, Flesland",
      "updatedAt": "080420Z",
      "visibility_m": 10000,
      "taf_visibility_m": 10000,
      "worst_visibility_m": 10000,
      "ceiling_ft": null,
      "hazards": [],
      "severityScore": 0,
      "metarRaw": "METAR ENBR 080420Z 06003KT CAVOK M10/M16 Q1004 RMK WIND 1200FT 01008KT",
      "tafRaw": "TAF ENBR 072300Z 0800/0824 06005KT CAVOK",
      "metarHtml": "METAR ENBR 080420Z 06003KT <span class=\"hl-vis\">CAVOK</span> M10/M16 Q1004 RMK WIND 1200FT 01008KT",
      "tafHtml": "TAF ENBR 072300Z 0800/0824 06005KT <span class=\"hl-vis\">CAVOK</span>"
    },
    {
      "icao": "ENHD",
      "iata": "HAU",
      "name": "Haugesund Airport, Karmøy",
      "updatedAt": "080420Z",
      "visibility_m": 10000,
      "taf_visibility_m": 10000,
      "worst_visibility_m": 10000,
      "ceiling_ft": null,
      "hazards": [],
      "severityScore": 0,
      "metarRaw": "METAR ENHD 080420Z AUTO 10005KT 9999 NCD M10/M13 Q1004",
      "tafRaw": "TAF ENHD 080200Z 0803/0812 07005KT CAVOK",
      "metarHtml": "METAR ENHD 080420Z AUTO 10005KT 9999 NCD M10/M13 Q1004",
      "tafHtml": "TAF ENHD 080200Z 0803/0812 07005KT <span class=\"hl-vis\">CAVOK</span>"
    },
    {
      "icao": "ENZV",
      "iata": "SVG",
      "name": "Stavanger Airport, Sola",
      "updatedAt": "080420Z",
      "visibility_m": 10000,
      "taf_visibility_m": 10000,
      "worst_visibility_m": 10000,
      "ceiling_ft": null,
      "hazards": [],
      "severityScore": 0,
      "metarRaw": "METAR ENZV 080420Z 00000KT CAVOK M12/M13 Q1004",
      "tafRaw": "TAF ENZV 072300Z 0800/0824 05005KT CAVOK \n  BECMG 0819/0821 12015KT",
      "metarHtml": "METAR ENZV 080420Z 00000KT <span class=\"hl-vis\">CAVOK</span> M12/M13 Q1004",
      "tafHtml": "TAF ENZV 072300Z 0800/0824 05005KT <span class=\"hl-vis\">CAVOK</span> \n  BECMG 0819/0821 12015KT"
    },
    {
      "icao": "ESKN",
      "iata": "NYO",
      "name": "Stockholm Skavsta Airport",
      "updatedAt": "080420Z",
      "visibility_m": 10000,
      "taf_visibility_m": 10000,
      "worst_visibility_m": 10000,
      "ceiling_ft": 3200,
      "hazards": [],
      "severityScore": 0,
      "metarRaw": "METAR ESKN 080420Z 18009KT 9999 BKN032 M01/M03 Q1010",
      "tafRaw": "TAF ESKN 080230Z 0803/0903 18010KT 9999 OVC035 \n  BECMG 0807/0809 18015G25KT \n  BECMG 0814/0816 18009KT",
      "metarHtml": "METAR ESKN 080420Z 18009KT 9999 BKN032 M01/M03 Q1010",
      "tafHtml": "TAF ESKN 080230Z 0803/0903 18010KT 9999 OVC035 \n  BECMG 0807/0809 18015G25KT \n  BECMG 0814/0816 18009KT"
    },
    {
      "icao": "ESMS",
      "iata": "MMX",
      "name": "Malmö Sturup Airport",
      "updatedAt": "080420Z",
      "visibility_m": 10000,
      "taf_visibility_m": 10000,
      "worst_visibility_m": 10000,
      "ceiling_ft": null,
      "hazards": [],
      "severityScore": 0,
      "metarRaw": "METAR ESMS 080420Z 15009KT CAVOK M04/M07 Q1007",
      "tafRaw": "TAF ESMS 080227Z 0803/0903 17012KT 9999 FEW016 \n  BECMG 0816/0819 11008KT",
      "metarHtml": "METAR ESMS 080420Z 15009KT <span class=\"hl-vis\">CAVOK</span> M04/M07 Q1007",
      "tafHtml": "TAF ESMS 080227Z 0803/0903 17012KT 9999 FEW016 \n  BECMG 0816/0819 11008KT"
    },
    {
      "icao": "HEGN",
      "iata": "HRG",
      "name": "Hurghada International Airport",
      "updatedAt": "080400Z",
      "visibility_m": 10000,
      "taf_visibility_m": 10000,
      "worst_visibility_m": 10000,
      "ceiling_ft": null,
      "hazards": [],
      "severityScore": 0,
      "metarRaw": "METAR HEGN 080400Z 27009KT CAVOK 16/06 Q1019 NOSIG",
      "tafRaw": "TAF HEGN 072300Z 0800/0906 28010KT CAVOK",
      "metarHtml": "METAR HEGN 080400Z 27009KT <span class=\"hl-vis\">CAVOK</span> 16/06 Q1019 NOSIG",
      "tafHtml": "TAF HEGN 072300Z 0800/0906 28010KT <span class=\"hl-vis\">CAVOK</span>"
    },
    {
      "icao": "HEMA",
      "iata": "RMF",
      "name": "Marsa Alam International Airport",
      "updatedAt": "080400Z",
      "visibility_m": 6000,
      "taf_visibility_m": 4000,
      "worst_visibility_m": 4000,
      "ceiling_ft": null,
      "hazards": [],
      "severityScore": 0,
      "metarRaw": "METAR HEMA 080400Z 29012KT 6000 NSC 19/09 Q1018 NOSIG",
      "tafRaw": "TAF HEMA 072300Z 0800/0906 29012KT 6000 NSC \n  TEMPO 0803/0815 4000 SA",
      "metarHtml": "METAR HEMA 080400Z 29012KT 6000 NSC 19/09 Q1018 NOSIG",
      "tafHtml": "TAF HEMA 072300Z 0800/0906 29012KT 6000 NSC \n  TEMPO 0803/0815 4000 SA"
    },
    {
      "icao": "HESH",
      "iata": "SSH",
      "name": "Sharm El Sheikh International Airport",
      "updatedAt": "080400Z",
      "visibility_m": 10000,
      "taf_visibility_m": 10000,
      "worst_visibility_m": 10000,
      "ceiling_ft": null,
      "hazards": [],
      "severityScore": 0,
      "metarRaw": "METAR HESH 080400Z 34005KT CAVOK 19/10 Q1019 NOSIG",
      "tafRaw": "TAF HESH 072300Z 0800/0906 32009KT CAVOK",
      "metarHtml": "METAR HESH 080400Z 34005KT <span class=\"hl-vis\">CAVOK</span> 19/10 Q1019 NOSIG",
      "tafHtml": "TAF HESH 072300Z 0800/0906 32009KT <span class=\"hl-vis\">CAVOK</span>"
    },
    {
      "icao": "LEAL",
      "iata": "ALC",
      "name": "Alicante-Elche Miguel Hernández Airport",
      "updatedAt": "080430Z",
      "visibility_m": 10000,
      "taf_visibility_m": 10000,
      "worst_visibility_m": 10000,
      "ceiling_ft": null,
      "hazards": [],
      "severityScore": 0,
      "metarRaw": "METAR LEAL 080430Z 30016G30KT CAVOK 10/02 Q1026 NOSIG",
      "tafRaw": "TAF LEAL 072300Z 0800/0824 29010KT CAVOK TX16/0814Z TN07/0806Z \n  TEMPO 0800/0815 29015G25KT \n  PROB40 \n  TEMPO 0802/0808 29020G30KT \n  PROB30 \n  TEMPO 0823/0824 27020G30KT",
      "metarHtml": "METAR LEAL 080430Z 30016G30KT <span class=\"hl-vis\">CAVOK</span> 10/02 Q1026 NOSIG",
      "tafHtml": "TAF LEAL 072300Z 0800/0824 29010KT <span class=\"hl-vis\">CAVOK</span> TX16/0814Z TN07/0806Z \n  TEMPO 0800/0815 29015G25KT \n  PROB40 \n  TEMPO 0802/0808 29020G30KT \n  PROB30 \n  TEMPO 0823/0824 27020G30KT"
    },
    {
      "icao": "LEBL",
      "iata": "BCN",
      "name": "Josep Tarradellas Barcelona-El Prat Airport",
      "updatedAt": "080430Z",
      "visibility_m": 10000,
      "taf_visibility_m": 10000,
      "worst_visibility_m": 10000,
      "ceiling_ft": null,
      "hazards": [],
      "severityScore": 0,
      "metarRaw": "METAR LEBL 080430Z 34005KT 9999 FEW013 04/01 Q1020 NOSIG",
      "tafRaw": "TAF LEBL 072300Z 0800/0824 33008KT 9999 FEW020 TX15/0813Z TN04/0806Z \n  TEMPO 0810/0813 32015KT \n  TEMPO 0814/0816 33018G28KT",
      "metarHtml": "METAR LEBL 080430Z 34005KT 9999 FEW013 04/01 Q1020 NOSIG",
      "tafHtml": "TAF LEBL 072300Z 0800/0824 33008KT 9999 FEW020 TX15/0813Z TN04/0806Z \n  TEMPO 0810/0813 32015KT \n  TEMPO 0814/0816 33018G28KT"
    },
    {
      "icao": "LEMG",
      "iata": "AGP",
      "name": "Málaga-Costa del Sol Airport",
      "updatedAt": "080430Z",
      "visibility_m": 10000,
      "taf_visibility_m": 10000,
      "worst_visibility_m": 10000,
      "ceiling_ft": null,
      "hazards": [],
      "severityScore": 0,
      "metarRaw": "METAR LEMG 080430Z 26007KT 9999 FEW041 08/04 Q1030 NOSIG",
      "tafRaw": "TAF LEMG 072300Z 0800/0824 29012KT 9999 SCT035 TX16/0814Z TN06/0806Z",
      "metarHtml": "METAR LEMG 080430Z 26007KT 9999 FEW041 08/04 Q1030 NOSIG",
      "tafHtml": "TAF LEMG 072300Z 0800/0824 29012KT 9999 SCT035 TX16/0814Z TN06/0806Z"
    },
    {
      "icao": "LEVC",
      "iata": "VLC",
      "name": "Valencia Airport",
      "updatedAt": "080430Z",
      "visibility_m": 10000,
      "taf_visibility_m": 10000,
      "worst_visibility_m": 10000,
      "ceiling_ft": null,
      "hazards": [],
      "severityScore": 0,
      "metarRaw": "METAR LEVC 080430Z 24007KT CAVOK 07/02 Q1026 NOSIG",
      "tafRaw": "TAF LEVC 072300Z 0800/0824 25010KT CAVOK TX15/0814Z TN06/0806Z \n  TEMPO 0802/0822 25015G25KT \n  PROB40 \n  TEMPO 0808/0817 25020G30KT",
      "metarHtml": "METAR LEVC 080430Z 24007KT <span class=\"hl-vis\">CAVOK</span> 07/02 Q1026 NOSIG",
      "tafHtml": "TAF LEVC 072300Z 0800/0824 25010KT <span class=\"hl-vis\">CAVOK</span> TX15/0814Z TN06/0806Z \n  TEMPO 0802/0822 25015G25KT \n  PROB40 \n  TEMPO 0808/0817 25020G30KT"
    },
    {
      "icao": "LEZG",
      "iata": "ZAZ",
      "name": "Zaragoza Airport",
      "updatedAt": "080430Z",
      "visibility_m": 10000,
      "taf_visibility_m": 10000,
      "worst_visibility_m": 10000,
      "ceiling_ft": null,
      "hazards": [],
      "severityScore": 0,
      "metarRaw": "METAR LEZG 080430Z 23005KT 9999 FEW045 SCT060 07/03 Q1024 NOSIG",
      "tafRaw": "TAF LEZG 072300Z 0800/0824 30007KT 9999 FEW030 TX12/0815Z TN05/0806Z \n  BECMG 0818/0820 24012KT \n  TEMPO 0800/0812 24015G25KT \n  TEMPO 0803/0805 24020G30KT \n  PROB40 \n  TEMPO 0808/0812 24023G33KT",
      "metarHtml": "METAR LEZG 080430Z 23005KT 9999 FEW045 SCT060 07/03 Q1024 NOSIG",
      "tafHtml": "TAF LEZG 072300Z 0800/0824 30007KT 9999 FEW030 TX12/0815Z TN05/0806Z \n  BECMG 0818/0820 24012KT \n  TEMPO 0800/0812 24015G25KT \n  TEMPO 0803/0805 24020G30KT \n  PROB40 \n  TEMPO 0808/0812 24023G33KT"
    },
    {
      "icao": "LFMN",
      "iata": "NCE",
      "name": "Nice-Côte d'Azur Airport",
      "updatedAt": "080430Z",
      "visibility_m": 10000,
      "taf_visibility_m": 10000,
      "worst_visibility_m": 10000,
      "ceiling_ft": null,
      "hazards": [],
      "severityScore": 0,
      "metarRaw": "METAR LFMN 080430Z 33011KT CAVOK 03/M06 Q1012 NOSIG",
      "tafRaw": "TAF LFMN 080200Z 0803/0909 33010KT CAVOK \n  BECMG 0808/0810 VRB05KT \n  BECMG 0810/0812 09010KT \n  BECMG 0816/0818 33010KT \n  BECMG 0900/0902 24020G30KT",
      "metarHtml": "METAR LFMN 080430Z 33011KT <span class=\"hl-vis\">CAVOK</span> 03/M06 Q1012 NOSIG",
      "tafHtml": "TAF LFMN 080200Z 0803/0909 33010KT <span class=\"hl-vis\">CAVOK</span> \n  BECMG 0808/0810 VRB05KT \n  BECMG 0810/0812 09010KT \n  BECMG 0816/0818 33010KT \n  BECMG 0900/0902 24020G30KT"
    },
    {
      "icao": "LIBP",
      "iata": "PSR",
      "name": "Abruzzo Airport",
      "updatedAt": "080420Z",
      "visibility_m": 10000,
      "taf_visibility_m": 10000,
      "worst_visibility_m": 10000,
      "ceiling_ft": null,
      "hazards": [],
      "severityScore": 0,
      "metarRaw": "METAR LIBP 080420Z AUTO 31006KT 9999 NCD 04/M05 Q1012",
      "tafRaw": "TAF LIBP 072300Z 0800/0824 VRB05KT 9999 BKN030",
      "metarHtml": "METAR LIBP 080420Z AUTO 31006KT 9999 NCD 04/M05 Q1012",
      "tafHtml": "TAF LIBP 072300Z 0800/0824 VRB05KT 9999 BKN030"
    },
    {
      "icao": "LICC",
      "iata": "CTA",
      "name": "Catania-Fontanarossa Airport",
      "updatedAt": "080420Z",
      "visibility_m": 10000,
      "taf_visibility_m": 10000,
      "worst_visibility_m": 10000,
      "ceiling_ft": null,
      "hazards": [],
      "severityScore": 0,
      "metarRaw": "METAR LICC 080420Z 24013KT CAVOK 07/04 Q1014",
      "tafRaw": "TAF LICC 072300Z 0800/0824 27018KT 9999 FEW060 \n  PROB40 \n  TEMPO 0800/0806 26018G28KT \n  TEMPO 0812/0818 29020G33KT",
      "metarHtml": "METAR LICC 080420Z 24013KT <span class=\"hl-vis\">CAVOK</span> 07/04 Q1014",
      "tafHtml": "TAF LICC 072300Z 0800/0824 27018KT 9999 FEW060 \n  PROB40 \n  TEMPO 0800/0806 26018G28KT \n  TEMPO 0812/0818 29020G33KT"
    },
    {
      "icao": "LIMC",
      "iata": "MXP",
      "name": "Milan Malpensa International Airport",
      "updatedAt": "080420Z",
      "visibility_m": 10000,
      "taf_visibility_m": 10000,
      "worst_visibility_m": 10000,
      "ceiling_ft": null,
      "hazards": [],
      "severityScore": 0,
      "metarRaw": "METAR LIMC 080420Z 02003KT CAVOK M07/M08 Q1011 NOSIG",
      "tafRaw": "TAF LIMC 072300Z 0800/0906 VRB04KT CAVOK",
      "metarHtml": "METAR LIMC 080420Z 02003KT <span class=\"hl-vis\">CAVOK</span> M07/M08 Q1011 NOSIG",
      "tafHtml": "TAF LIMC 072300Z 0800/0906 VRB04KT <span class=\"hl-vis\">CAVOK</span>"
    },
    {
      "icao": "LIME",
      "iata": "BGY",
      "name": "Milan Bergamo Airport / Antonio Locatelli Air Base",
      "updatedAt": "080420Z",
      "visibility_m": 10000,
      "taf_visibility_m": 10000,
      "worst_visibility_m": 10000,
      "ceiling_ft": null,
      "hazards": [],
      "severityScore": 0,
      "metarRaw": "METAR LIME 080420Z 02005KT CAVOK M04/M09 Q1011 NOSIG",
      "tafRaw": "TAF LIME 072300Z 0800/0824 VRB04KT CAVOK",
      "metarHtml": "METAR LIME 080420Z 02005KT <span class=\"hl-vis\">CAVOK</span> M04/M09 Q1011 NOSIG",
      "tafHtml": "TAF LIME 072300Z 0800/0824 VRB04KT <span class=\"hl-vis\">CAVOK</span>"
    },
    {
      "icao": "LIMF",
      "iata": "TRN",
      "name": "Turin Airport",
      "updatedAt": "080420Z",
      "visibility_m": 10000,
      "taf_visibility_m": 10000,
      "worst_visibility_m": 10000,
      "ceiling_ft": null,
      "hazards": [],
      "severityScore": 0,
      "metarRaw": "METAR LIMF 080420Z AUTO VRB02KT 9999 BKN001/// M05/M08 Q1011",
      "tafRaw": "TAF LIMF 072300Z 0800/0824 VRB03KT CAVOK",
      "metarHtml": "METAR LIMF 080420Z AUTO VRB02KT 9999 BKN001/// M05/M08 Q1011",
      "tafHtml": "TAF LIMF 072300Z 0800/0824 VRB03KT <span class=\"hl-vis\">CAVOK</span>"
    },
    {
      "icao": "LIMJ",
      "iata": "GOA",
      "name": "Genoa Cristoforo Colombo Airport",
      "updatedAt": "080420Z",
      "visibility_m": 10000,
      "taf_visibility_m": 10000,
      "worst_visibility_m": 10000,
      "ceiling_ft": null,
      "hazards": [],
      "severityScore": 0,
      "metarRaw": "METAR LIMJ 080420Z VRB02KT 9999 SCT030 04/M07 Q1011",
      "tafRaw": "TAF LIMJ 072300Z 0800/0824 04010KT 9999 FEW050 \n  BECMG 0810/0812 12008KT",
      "metarHtml": "METAR LIMJ 080420Z VRB02KT 9999 SCT030 04/M07 Q1011",
      "tafHtml": "TAF LIMJ 072300Z 0800/0824 04010KT 9999 FEW050 \n  BECMG 0810/0812 12008KT"
    },
    {
      "icao": "LIPH",
      "iata": "TSF",
      "name": "Treviso Antonio Canova Airport",
      "updatedAt": "080420Z",
      "visibility_m": 10000,
      "taf_visibility_m": 10000,
      "worst_visibility_m": 10000,
      "ceiling_ft": null,
      "hazards": [],
      "severityScore": 0,
      "metarRaw": "METAR LIPH 080420Z AUTO 01004KT 9999 NCD M04/M07 Q1012",
      "tafRaw": "TAF LIPH 072300Z 0800/0824 VRB05KT CAVOK",
      "metarHtml": "METAR LIPH 080420Z AUTO 01004KT 9999 NCD M04/M07 Q1012",
      "tafHtml": "TAF LIPH 072300Z 0800/0824 VRB05KT <span class=\"hl-vis\">CAVOK</span>"
    },
    {
      "icao": "LIPQ",
      "iata": "TRS",
      "name": "Trieste–Friuli Venezia Giulia Airport",
      "updatedAt": "080420Z",
      "visibility_m": 10000,
      "taf_visibility_m": 10000,
      "worst_visibility_m": 10000,
      "ceiling_ft": null,
      "hazards": [],
      "severityScore": 0,
      "metarRaw": "METAR LIPQ 080420Z AUTO 03005KT 9999 NCD M05/M08 Q1012",
      "tafRaw": "TAF LIPQ 072300Z 0800/0824 VRB05KT 9999 SCT070",
      "metarHtml": "METAR LIPQ 080420Z AUTO 03005KT 9999 NCD M05/M08 Q1012",
      "tafHtml": "TAF LIPQ 072300Z 0800/0824 VRB05KT 9999 SCT070"
    },
    {
      "icao": "LIPR",
      "iata": "RMI",
      "name": "Federico Fellini International Airport",
      "updatedAt": "080420Z",
      "visibility_m": 10000,
      "taf_visibility_m": 10000,
      "worst_visibility_m": 10000,
      "ceiling_ft": null,
      "hazards": [],
      "severityScore": 0,
      "metarRaw": "METAR LIPR 080420Z AUTO 24004KT 9999 NCD M04/M06 Q1012",
      "tafRaw": "TAF LIPR 072300Z 0800/0824 25008KT 9999 SCT030",
      "metarHtml": "METAR LIPR 080420Z AUTO 24004KT 9999 NCD M04/M06 Q1012",
      "tafHtml": "TAF LIPR 072300Z 0800/0824 25008KT 9999 SCT030"
    },
    {
      "icao": "LIPY",
      "iata": "AOI",
      "name": "Marche Airport",
      "updatedAt": "080420Z",
      "visibility_m": 10000,
      "taf_visibility_m": 10000,
      "worst_visibility_m": 10000,
      "ceiling_ft": null,
      "hazards": [],
      "severityScore": 0,
      "metarRaw": "METAR LIPY 080420Z AUTO 19005KT 9999 NCD 00/M04 Q1012",
      "tafRaw": "TAF LIPY 072300Z 0800/0824 32014KT 9999 SCT030 \n  BECMG 0803/0805 23006KT",
      "metarHtml": "METAR LIPY 080420Z AUTO 19005KT 9999 NCD 00/M04 Q1012",
      "tafHtml": "TAF LIPY 072300Z 0800/0824 32014KT 9999 SCT030 \n  BECMG 0803/0805 23006KT"
    },
    {
      "icao": "LIPZ",
      "iata": "VCE",
      "name": "Venice Marco Polo Airport",
      "updatedAt": "080420Z",
      "visibility_m": 10000,
      "taf_visibility_m": 10000,
      "worst_visibility_m": 10000,
      "ceiling_ft": null,
      "hazards": [],
      "severityScore": 0,
      "metarRaw": "METAR LIPZ 080420Z 36005KT CAVOK M04/M07 Q1012 NOSIG",
      "tafRaw": "TAF LIPZ 072300Z 0800/0906 VRB05KT CAVOK",
      "metarHtml": "METAR LIPZ 080420Z 36005KT <span class=\"hl-vis\">CAVOK</span> M04/M07 Q1012 NOSIG",
      "tafHtml": "TAF LIPZ 072300Z 0800/0906 VRB05KT <span class=\"hl-vis\">CAVOK</span>"
    },
    {
      "icao": "LIRF",
      "iata": "FCO",
      "name": "Rome–Fiumicino Leonardo da Vinci International Airport",
      "updatedAt": "080420Z",
      "visibility_m": 10000,
      "taf_visibility_m": 10000,
      "worst_visibility_m": 10000,
      "ceiling_ft": null,
      "hazards": [],
      "severityScore": 0,
      "metarRaw": "METAR LIRF 080420Z 01004KT CAVOK M00/M04 Q1012 NOSIG",
      "tafRaw": "TAF LIRF 072300Z 0800/0906 34008KT CAVOK \n  BECMG 0801/0803 04010KT \n  BECMG 0813/0815 10007KT \n  BECMG 0904/0906 25015KT",
      "metarHtml": "METAR LIRF 080420Z 01004KT <span class=\"hl-vis\">CAVOK</span> M00/M04 Q1012 NOSIG",
      "tafHtml": "TAF LIRF 072300Z 0800/0906 34008KT <span class=\"hl-vis\">CAVOK</span> \n  BECMG 0801/0803 04010KT \n  BECMG 0813/0815 10007KT \n  BECMG 0904/0906 25015KT"
    },
    {
      "icao": "LIRN",
      "iata": "NAP",
      "name": "Naples International Airport",
      "updatedAt": "080420Z",
      "visibility_m": 10000,
      "taf_visibility_m": 10000,
      "worst_visibility_m": 10000,
      "ceiling_ft": null,
      "hazards": [],
      "severityScore": 0,
      "metarRaw": "METAR LIRN 080420Z VRB02KT CAVOK 02/M01 Q1011 NOSIG",
      "tafRaw": "TAF LIRN 072300Z 0800/0824 27010KT 9999 SCT020 \n  BECMG 0804/0806 03006KT",
      "metarHtml": "METAR LIRN 080420Z VRB02KT <span class=\"hl-vis\">CAVOK</span> 02/M01 Q1011 NOSIG",
      "tafHtml": "TAF LIRN 072300Z 0800/0824 27010KT 9999 SCT020 \n  BECMG 0804/0806 03006KT"
    },
    {
      "icao": "LIRP",
      "iata": "PSA",
      "name": "Pisa International Airport",
      "updatedAt": "080345Z",
      "visibility_m": 10000,
      "taf_visibility_m": 10000,
      "worst_visibility_m": 10000,
      "ceiling_ft": null,
      "hazards": [],
      "severityScore": 0,
      "metarRaw": "METAR LIRP 080345Z 12006KT 9999 SCT040 M01/M03 Q1011 NOSIG",
      "tafRaw": "TAF LIRP 072300Z 0800/0824 10006KT CAVOK \n  BECMG 0812/0814 SCT020 SCT050",
      "metarHtml": "METAR LIRP 080345Z 12006KT 9999 SCT040 M01/M03 Q1011 NOSIG",
      "tafHtml": "TAF LIRP 072300Z 0800/0824 10006KT <span class=\"hl-vis\">CAVOK</span> \n  BECMG 0812/0814 SCT020 SCT050"
    },
    {
      "icao": "LIRZ",
      "iata": "PEG",
      "name": "Perugia San Francesco d'Assisi – Umbria International Airport",
      "updatedAt": "080420Z",
      "visibility_m": 10000,
      "taf_visibility_m": 10000,
      "worst_visibility_m": 10000,
      "ceiling_ft": null,
      "hazards": [],
      "severityScore": 0,
      "metarRaw": "METAR LIRZ 080420Z AUTO 36006KT 9999 NCD M03/M05 Q1012",
      "tafRaw": "TAF LIRZ 072300Z 0800/0824 VRB05KT 9999 FEW060",
      "metarHtml": "METAR LIRZ 080420Z AUTO 36006KT 9999 NCD M03/M05 Q1012",
      "tafHtml": "TAF LIRZ 072300Z 0800/0824 VRB05KT 9999 FEW060"
    },
    {
      "icao": "LLBG",
      "iata": "TLV",
      "name": "Ben Gurion International Airport",
      "updatedAt": "080420Z",
      "visibility_m": 10000,
      "taf_visibility_m": 10000,
      "worst_visibility_m": 10000,
      "ceiling_ft": null,
      "hazards": [],
      "severityScore": 0,
      "metarRaw": "METAR LLBG 080420Z VRB02KT CAVOK 11/07 Q1019 NOSIG",
      "tafRaw": "TAF LLBG 072314Z 0800/0824 VRB04KT CAVOK \n  TEMPO 0800/0807 14005KT \n  TEMPO 0809/0816 25006KT \n  BECMG 0820/0822 17006KT TX26/0812Z TN11/0804Z",
      "metarHtml": "METAR LLBG 080420Z VRB02KT <span class=\"hl-vis\">CAVOK</span> 11/07 Q1019 NOSIG",
      "tafHtml": "TAF LLBG 072314Z 0800/0824 VRB04KT <span class=\"hl-vis\">CAVOK</span> \n  TEMPO 0800/0807 14005KT \n  TEMPO 0809/0816 25006KT \n  BECMG 0820/0822 17006KT TX26/0812Z TN11/0804Z"
    },
    {
      "icao": "LPFR",
      "iata": "FAO",
      "name": "Faro Airport",
      "updatedAt": "080430Z",
      "visibility_m": 10000,
      "taf_visibility_m": 10000,
      "worst_visibility_m": 10000,
      "ceiling_ft": null,
      "hazards": [],
      "severityScore": 0,
      "metarRaw": "METAR LPFR 080430Z 04004KT CAVOK 06/05 Q1031",
      "tafRaw": "TAF LPFR 072300Z 0800/0824 VRB05KT CAVOK \n  BECMG 0801/0803 04005KT \n  PROB40 \n  TEMPO 0803/0809 9999 BKN006 \n  BECMG 0809/0811 14005KT 9999 FEW020 \n  BECMG 0812/0814 20005KT \n  BECMG 0818/0820 VRB05KT",
      "metarHtml": "METAR LPFR 080430Z 04004KT <span class=\"hl-vis\">CAVOK</span> 06/05 Q1031",
      "tafHtml": "TAF LPFR 072300Z 0800/0824 VRB05KT <span class=\"hl-vis\">CAVOK</span> \n  BECMG 0801/0803 04005KT \n  PROB40 \n  TEMPO 0803/0809 9999 BKN006 \n  BECMG 0809/0811 14005KT 9999 FEW020 \n  BECMG 0812/0814 20005KT \n  BECMG 0818/0820 VRB05KT"
    },
    {
      "icao": "LPMA",
      "iata": "FNC",
      "name": "Madeira International Airport Cristiano Ronaldo",
      "updatedAt": "080430Z",
      "visibility_m": 10000,
      "taf_visibility_m": 10000,
      "worst_visibility_m": 10000,
      "ceiling_ft": null,
      "hazards": [],
      "severityScore": 0,
      "metarRaw": "METAR LPMA 080430Z 01008KT 9999 SCT015 15/10 Q1033",
      "tafRaw": "TAF LPMA 072300Z 0800/0824 01008KT 9999 SCT015 \n  TEMPO 0818/0824 BKN013",
      "metarHtml": "METAR LPMA 080430Z 01008KT 9999 SCT015 15/10 Q1033",
      "tafHtml": "TAF LPMA 072300Z 0800/0824 01008KT 9999 SCT015 \n  TEMPO 0818/0824 BKN013"
    },
    {
      "icao": "LZIB",
      "iata": "BTS",
      "name": "M. R. Štefánik Airport",
      "updatedAt": "080430Z",
      "visibility_m": 10000,
      "taf_visibility_m": 10000,
      "worst_visibility_m": 10000,
      "ceiling_ft": null,
      "hazards": [],
      "severityScore": 0,
      "metarRaw": "METAR LZIB 080430Z 31010KT 9999 FEW028 M05/M10 Q1010 NOSIG",
      "tafRaw": "TAF LZIB 072315Z 0800/0900 33007KT 9999 SCT028",
      "metarHtml": "METAR LZIB 080430Z 31010KT 9999 FEW028 M05/M10 Q1010 NOSIG",
      "tafHtml": "TAF LZIB 072315Z 0800/0900 33007KT 9999 SCT028"
    },
    {
      "icao": "OEMA",
      "iata": "MED",
      "name": "Prince Mohammad Bin Abdulaziz Airport",
      "updatedAt": "080400Z",
      "visibility_m": 10000,
      "taf_visibility_m": 10000,
      "worst_visibility_m": 10000,
      "ceiling_ft": null,
      "hazards": [],
      "severityScore": 0,
      "metarRaw": "METAR OEMA 080400Z 09003KT CAVOK 16/00 Q1025 NOSIG",
      "tafRaw": "TAF OEMA 072300Z 0800/0906 09010KT CAVOK",
      "metarHtml": "METAR OEMA 080400Z 09003KT <span class=\"hl-vis\">CAVOK</span> 16/00 Q1025 NOSIG",
      "tafHtml": "TAF OEMA 072300Z 0800/0906 09010KT <span class=\"hl-vis\">CAVOK</span>"
    },
    {
      "icao": "OJAI",
      "iata": "AMM",
      "name": "Queen Alia International Airport",
      "updatedAt": "080400Z",
      "visibility_m": 5000,
      "taf_visibility_m": 4000,
      "worst_visibility_m": 4000,
      "ceiling_ft": null,
      "hazards": [],
      "severityScore": 0,
      "metarRaw": "METAR OJAI 080400Z 16002KT 5000 HZ NSC 06/01 Q1024 NOSIG",
      "tafRaw": "TAF OJAI 072300Z 0800/0906 12010KT 5000 HZ NSC \n  PROB40 \n  TEMPO 0809/0815 13016KT 4000 BLDU \n  BECMG 0816/0818 23012KT",
      "metarHtml": "METAR OJAI 080400Z 16002KT 5000 HZ NSC 06/01 Q1024 NOSIG",
      "tafHtml": "TAF OJAI 072300Z 0800/0906 12010KT 5000 HZ NSC \n  PROB40 \n  TEMPO 0809/0815 13016KT 4000 BLDU \n  BECMG 0816/0818 23012KT"
    },
    {
      "icao": "OMAA",
      "iata": "AUH",
      "name": "Zayed International Airport",
      "updatedAt": "080400Z",
      "visibility_m": 10000,
      "taf_visibility_m": 8000,
      "worst_visibility_m": 8000,
      "ceiling_ft": null,
      "hazards": [],
      "severityScore": 0,
      "metarRaw": "METAR OMAA 080400Z 15004KT 9999 SCT040 16/12 Q1021 NOSIG",
      "tafRaw": "TAF OMAA 072300Z 0800/0906 VRB02KT 8000 NSC \n  BECMG 0808/0810 34014KT \n  BECMG 0816/0818 28005KT",
      "metarHtml": "METAR OMAA 080400Z 15004KT 9999 SCT040 16/12 Q1021 NOSIG",
      "tafHtml": "TAF OMAA 072300Z 0800/0906 VRB02KT 8000 NSC \n  BECMG 0808/0810 34014KT \n  BECMG 0816/0818 28005KT"
    },
    {
      "icao": "OMDB",
      "iata": "DXB",
      "name": "Dubai International Airport",
      "updatedAt": "080430Z",
      "visibility_m": 10000,
      "taf_visibility_m": 8000,
      "worst_visibility_m": 8000,
      "ceiling_ft": null,
      "hazards": [],
      "severityScore": 0,
      "metarRaw": "METAR OMDB 080430Z 17004KT 110V190 CAVOK 18/08 Q1022 NOSIG",
      "tafRaw": "TAF OMDB 072300Z 0800/0906 12005KT 8000 NSC \n  BECMG 0808/0810 33012KT \n  BECMG 0816/0818 07005KT",
      "metarHtml": "METAR OMDB 080430Z 17004KT 110V190 <span class=\"hl-vis\">CAVOK</span> 18/08 Q1022 NOSIG",
      "tafHtml": "TAF OMDB 072300Z 0800/0906 12005KT 8000 NSC \n  BECMG 0808/0810 33012KT \n  BECMG 0816/0818 07005KT"
    },
    {
      "icao": "UGKO",
      "iata": "KUT",
      "name": "David the Builder Kutaisi International Airport",
      "updatedAt": "080430Z",
      "visibility_m": 10000,
      "taf_visibility_m": 10000,
      "worst_visibility_m": 10000,
      "ceiling_ft": 9100,
      "hazards": [],
      "severityScore": 0,
      "metarRaw": "METAR UGKO 080430Z 07016KT 9999 BKN091 12/M01 Q1016 NOSIG",
      "tafRaw": "TAF UGKO 072300Z 0800/0824 07010KT CAVOK TX18/0812Z TN06/0804Z \n  TEMPO 0800/0804 BKN080 \n  BECMG 0807/0810 07019G29KT \n  TEMPO 0815/0824 SCT030 BKN050",
      "metarHtml": "METAR UGKO 080430Z 07016KT 9999 BKN091 12/M01 Q1016 NOSIG",
      "tafHtml": "TAF UGKO 072300Z 0800/0824 07010KT <span class=\"hl-vis\">CAVOK</span> TX18/0812Z TN06/0804Z \n  TEMPO 0800/0804 BKN080 \n  BECMG 0807/0810 07019G29KT \n  TEMPO 0815/0824 SCT030 BKN050"
    }
  ],
  "stats": {
    "icaoCount": 159,
    "metarReturned": 156,
    "tafReturned": 133,
    "stationsWritten": 159,
    "missingMetar": 3,
    "missingTaf": 26
  },
  "errors": []
}