{
  "generatedAt": "2026-01-06T08:17:18.833Z",
  "stations": [
    {
      "icao": "EBCI",
      "iata": "CRL",
      "name": "Brussels South Charleroi Airport",
      "updatedAt": "060750Z",
      "visibility_m": 3000,
      "taf_visibility_m": 400,
      "worst_visibility_m": 400,
      "ceiling_ft": null,
      "hazards": [
        "BR",
        "FZFG",
        "SN",
        "SHSN"
      ],
      "severityScore": 100,
      "metarRaw": "METAR EBCI 060750Z 24007KT 3000 BR FEW009 SCT025 M03/M04 Q1016 BECMG 8000 NSW",
      "tafRaw": "TAF EBCI 060500Z 0606/0712 26007KT 9999 SCT006 BKN010 \n  TEMPO 0606/0610 3000 BR BKN003 \n  PROB40 \n  TEMPO 0606/0609 0400 FZFG -SHSN BKN001 BKN010TCU \n  BECMG 0610/0613 SCT008 SCT020 \n  BECMG 0619/0621 20010KT SCT004 BKN007 \n  BECMG 0707/0709 18015G25KT \n  PROB40 \n  TEMPO 0709/0712 0800 SN BKN003",
      "metarHtml": "METAR EBCI 060750Z 24007KT 3000 <span class=\"hl\">BR</span> FEW009 SCT025 M03/M04 Q1016 BECMG 8000 NSW",
      "tafHtml": "TAF EBCI 060500Z 0606/0712 26007KT 9999 SCT006 BKN010 \n  TEMPO 0606/0610 3000 <span class=\"hl\">BR</span> BKN003 \n  PROB40 \n  TEMPO 0606/0609 <span class=\"hl-vis\">0400</span> <span class=\"hl\">FZFG</span> -<span class=\"hl\">SHSN</span> BKN001 BKN010TCU \n  BECMG 0610/0613 SCT008 SCT020 \n  BECMG 0619/0621 20010KT SCT004 BKN007 \n  BECMG 0707/0709 18015G25KT \n  PROB40 \n  TEMPO 0709/0712 <span class=\"hl-vis\">0800</span> <span class=\"hl\">SN</span> BKN003"
    },
    {
      "icao": "EHEH",
      "iata": "EIN",
      "name": "Eindhoven Airport",
      "updatedAt": "060755Z",
      "visibility_m": 400,
      "taf_visibility_m": 300,
      "worst_visibility_m": 300,
      "ceiling_ft": 0,
      "hazards": [
        "FZFG",
        "BR",
        "SN",
        "SHSN"
      ],
      "severityScore": 100,
      "metarRaw": "METAR EHEH 060755Z AUTO 22007KT 0400 R03/0600N FZFG OVC000 M04/M04 Q1016 RED TEMPO 0400 BCFG",
      "tafRaw": "TAF EHEH 060550Z 0606/0712 29003KT 3000 BR BKN002 OVC003 \n  TEMPO 0606/0608 1500 BR SCT001 OVC002 \n  PROB40 0606/0611 0300 FZFG \n  BECMG 0607/0610 7000 NSW FEW020 \n  PROB40 \n  TEMPO 0609/0611 2000 -SHSN SCT002 SCT015CB \n  TEMPO 0622/0702 SCT005 BKN007 \n  TEMPO 0710/0712 1500 SN SCT004 SCT012 OVC015",
      "metarHtml": "METAR EHEH 060755Z AUTO 22007KT <span class=\"hl-vis\">0400</span> R03/0600N <span class=\"hl\">FZFG</span> OVC000 M04/M04 Q1016 RED TEMPO <span class=\"hl-vis\">0400</span> BCFG",
      "tafHtml": "TAF EHEH 060550Z 0606/0712 29003KT 3000 <span class=\"hl\">BR</span> BKN002 OVC003 \n  TEMPO 0606/0608 1500 <span class=\"hl\">BR</span> SCT001 OVC002 \n  PROB40 0606/0611 <span class=\"hl-vis\">0300</span> <span class=\"hl\">FZFG</span> \n  BECMG 0607/0610 7000 NSW FEW020 \n  PROB40 \n  TEMPO 0609/0611 2000 -<span class=\"hl\">SHSN</span> SCT002 SCT015CB \n  TEMPO 0622/0702 SCT005 BKN007 \n  TEMPO 0710/0712 1500 <span class=\"hl\">SN</span> SCT004 SCT012 OVC015"
    },
    {
      "icao": "EKBI",
      "iata": "BLL",
      "name": "Billund Airport",
      "updatedAt": "060750Z",
      "visibility_m": 200,
      "taf_visibility_m": 200,
      "worst_visibility_m": 200,
      "ceiling_ft": 200,
      "hazards": [
        "FZFG",
        "BR",
        "SN"
      ],
      "severityScore": 100,
      "metarRaw": "METAR EKBI 060750Z 15004KT 0200 R09/0650D R27/0450N FZFG VV002 M06/M07 Q1011",
      "tafRaw": "TAF EKBI 060527Z 0606/0706 VRB02KT 0200 FZFG VV002 \n  TEMPO 0606/0609 4000 BR BKN005 \n  BECMG 0609/0611 5000 NSW BKN005 \n  TEMPO 0611/0706 0800 SN BKN015 SCT020CB",
      "metarHtml": "METAR EKBI 060750Z 15004KT <span class=\"hl-vis\">0200</span> R09/0650D R27/0450N <span class=\"hl\">FZFG</span> VV002 M06/M07 Q1011",
      "tafHtml": "TAF EKBI 060527Z 0606/0706 VRB02KT <span class=\"hl-vis\">0200</span> <span class=\"hl\">FZFG</span> VV002 \n  TEMPO 0606/0609 4000 <span class=\"hl\">BR</span> BKN005 \n  BECMG 0609/0611 5000 NSW BKN005 \n  TEMPO 0611/0706 <span class=\"hl-vis\">0800</span> <span class=\"hl\">SN</span> BKN015 SCT020CB"
    },
    {
      "icao": "ESGG",
      "iata": "GOT",
      "name": "Göteborg Landvetter Airport",
      "updatedAt": "060750Z",
      "visibility_m": 200,
      "taf_visibility_m": null,
      "worst_visibility_m": 200,
      "ceiling_ft": 300,
      "hazards": [
        "FZFG"
      ],
      "severityScore": 100,
      "metarRaw": "METAR ESGG 060750Z 05004KT 0200 R03/0750N R21/0800N FZFG VV003 M08/M09 Q1010",
      "tafRaw": null,
      "metarHtml": "METAR ESGG 060750Z 05004KT <span class=\"hl-vis\">0200</span> R03/0750N R21/0800N <span class=\"hl\">FZFG</span> VV003 M08/M09 Q1010",
      "tafHtml": null
    },
    {
      "icao": "EYKA",
      "iata": "KUN",
      "name": "Kaunas International Airport",
      "updatedAt": "060750Z",
      "visibility_m": 1400,
      "taf_visibility_m": 400,
      "worst_visibility_m": 400,
      "ceiling_ft": 1800,
      "hazards": [
        "SHSN",
        "FZFG",
        "BR",
        "SN"
      ],
      "severityScore": 100,
      "metarRaw": "METAR EYKA 060750Z 08002KT 1400 R08/1800U SHSN BKN013CB OVC018 M09/M11 Q1016",
      "tafRaw": "TAF EYKA 060526Z 0606/0706 09007KT 9000 NSC \n  TEMPO 0606/0608 5000 BR \n  BECMG 0608/0609 5000 SN OVC025 \n  TEMPO 0609/0614 3000 BKN010 OVC015 \n  PROB30 \n  TEMPO 0609/0612 1500 \n  BECMG 0616/0619 BR OVC005 \n  TEMPO 0619/0706 0400 FZFG VV002",
      "metarHtml": "METAR EYKA 060750Z 08002KT 1400 R08/1800U <span class=\"hl\">SHSN</span> BKN013CB OVC018 M09/M11 Q1016",
      "tafHtml": "TAF EYKA 060526Z 0606/0706 09007KT 9000 NSC \n  TEMPO 0606/0608 5000 <span class=\"hl\">BR</span> \n  BECMG 0608/0609 5000 <span class=\"hl\">SN</span> OVC025 \n  TEMPO 0609/0614 3000 BKN010 OVC015 \n  PROB30 \n  TEMPO 0609/0612 1500 \n  BECMG 0616/0619 <span class=\"hl\">BR</span> OVC005 \n  TEMPO 0619/0706 <span class=\"hl-vis\">0400</span> <span class=\"hl\">FZFG</span> VV002"
    },
    {
      "icao": "LRIA",
      "iata": "IAS",
      "name": "Iaşi Airport",
      "updatedAt": "060800Z",
      "visibility_m": 150,
      "taf_visibility_m": 150,
      "worst_visibility_m": 150,
      "ceiling_ft": 100,
      "hazards": [
        "FG",
        "BR",
        "DZ"
      ],
      "severityScore": 100,
      "metarRaw": "METAR LRIA 060800Z 09003KT 050V110 0150 R14/0325N FG VV001 01/01 Q1011",
      "tafRaw": "TAF LRIA 060500Z 0606/0615 10006KT 0150 FG VV001 \n  BECMG 0608/0610 0600 BKN002 \n  BECMG 0610/0612 1500 BR BKN005 \n  TEMPO 0612/0615 0800 DZ FG VV002 \n  BECMG 0613/0615 33010KT",
      "metarHtml": "METAR LRIA 060800Z 09003KT 050V110 <span class=\"hl-vis\">0150</span> R14/0325N <span class=\"hl\">FG</span> VV001 01/01 Q1011",
      "tafHtml": "TAF LRIA 060500Z 0606/0615 10006KT <span class=\"hl-vis\">0150</span> <span class=\"hl\">FG</span> VV001 \n  BECMG 0608/0610 <span class=\"hl-vis\">0600</span> BKN002 \n  BECMG 0610/0612 1500 <span class=\"hl\">BR</span> BKN005 \n  TEMPO 0612/0615 <span class=\"hl-vis\">0800</span> <span class=\"hl\">DZ</span> <span class=\"hl\">FG</span> VV002 \n  BECMG 0613/0615 33010KT"
    },
    {
      "icao": "LRBC",
      "iata": "BCM",
      "name": "Bacău George Enescu International  Airport",
      "updatedAt": "060800Z",
      "visibility_m": 300,
      "taf_visibility_m": 100,
      "worst_visibility_m": 100,
      "ceiling_ft": 200,
      "hazards": [
        "FG",
        "BR"
      ],
      "severityScore": 100,
      "metarRaw": "METAR LRBC 060800Z 20005KT 0300 R16/0350N FG VV002 01/01 Q1010",
      "tafRaw": "TAF LRBC 060500Z 0606/0615 16006KT 0600 FG VV002 \n  PROB30 \n  TEMPO 0606/0608 0100 FG VV001 \n  BECMG 0608/0610 1500 BR \n  TEMPO 0611/0614 3000 BKN005",
      "metarHtml": "METAR LRBC 060800Z 20005KT <span class=\"hl-vis\">0300</span> R16/0350N <span class=\"hl\">FG</span> VV002 01/01 Q1010",
      "tafHtml": "TAF LRBC 060500Z 0606/0615 16006KT <span class=\"hl-vis\">0600</span> <span class=\"hl\">FG</span> VV002 \n  PROB30 \n  TEMPO 0606/0608 <span class=\"hl-vis\">0100</span> <span class=\"hl\">FG</span> VV001 \n  BECMG 0608/0610 1500 <span class=\"hl\">BR</span> \n  TEMPO 0611/0614 3000 BKN005"
    },
    {
      "icao": "LRBS",
      "iata": "BBU",
      "name": "Bucharest Băneasa Aurel Vlaicu International Airport",
      "updatedAt": "060800Z",
      "visibility_m": 1200,
      "taf_visibility_m": 300,
      "worst_visibility_m": 300,
      "ceiling_ft": 100,
      "hazards": [
        "BR",
        "FG",
        "DZ"
      ],
      "severityScore": 100,
      "metarRaw": "METAR LRBS 060800Z 00000KT 1200 R07/P2000 BR OVC001 03/02 Q1012 BECMG 5000 BKN002",
      "tafRaw": "TAF LRBS 060500Z 0606/0706 VRB04KT 0300 FG VV001 \n  BECMG 0607/0609 0800 OVC002 \n  BECMG 0609/0611 1500 -DZ BR \n  TEMPO 0611/0615 23010KT 3000 -DZ BR OVC005 \n  BECMG 0616/0618 0600 FG OVC001 \n  TEMPO 0620/0701 0300 FG \n  BECMG 0702/0704 06010KT 1500 BR OVC005",
      "metarHtml": "METAR LRBS 060800Z 00000KT 1200 R07/P2000 <span class=\"hl\">BR</span> OVC001 03/02 Q1012 BECMG 5000 BKN002",
      "tafHtml": "TAF LRBS 060500Z 0606/0706 VRB04KT <span class=\"hl-vis\">0300</span> <span class=\"hl\">FG</span> VV001 \n  BECMG 0607/0609 <span class=\"hl-vis\">0800</span> OVC002 \n  BECMG 0609/0611 1500 -<span class=\"hl\">DZ</span> <span class=\"hl\">BR</span> \n  TEMPO 0611/0615 23010KT 3000 -<span class=\"hl\">DZ</span> <span class=\"hl\">BR</span> OVC005 \n  BECMG 0616/0618 <span class=\"hl-vis\">0600</span> <span class=\"hl\">FG</span> OVC001 \n  TEMPO 0620/0701 <span class=\"hl-vis\">0300</span> <span class=\"hl\">FG</span> \n  BECMG 0702/0704 06010KT 1500 <span class=\"hl\">BR</span> OVC005"
    },
    {
      "icao": "LROP",
      "iata": "OTP",
      "name": "Bucharest Henri Coandă International Airport",
      "updatedAt": "060800Z",
      "visibility_m": 6000,
      "taf_visibility_m": 300,
      "worst_visibility_m": 300,
      "ceiling_ft": 200,
      "hazards": [
        "RA",
        "FG",
        "BR",
        "DZ"
      ],
      "severityScore": 100,
      "metarRaw": "METAR LROP 060800Z 00000KT 6000 -RA OVC002 03/03 Q1012 NOSIG",
      "tafRaw": "TAF LROP 060500Z 0606/0706 VRB04KT 0300 FG VV001 \n  BECMG 0607/0609 0800 OVC002 \n  BECMG 0609/0611 1500 -DZ BR \n  TEMPO 0611/0615 23010KT 3000 -DZ BR OVC005 \n  BECMG 0616/0618 0600 FG OVC001 \n  TEMPO 0620/0701 0300 FG \n  BECMG 0702/0704 06010KT 1500 BR OVC005",
      "metarHtml": "METAR LROP 060800Z 00000KT 6000 -<span class=\"hl\">RA</span> OVC002 03/03 Q1012 NOSIG",
      "tafHtml": "TAF LROP 060500Z 0606/0706 VRB04KT <span class=\"hl-vis\">0300</span> <span class=\"hl\">FG</span> VV001 \n  BECMG 0607/0609 <span class=\"hl-vis\">0800</span> OVC002 \n  BECMG 0609/0611 1500 -<span class=\"hl\">DZ</span> <span class=\"hl\">BR</span> \n  TEMPO 0611/0615 23010KT 3000 -<span class=\"hl\">DZ</span> <span class=\"hl\">BR</span> OVC005 \n  BECMG 0616/0618 <span class=\"hl-vis\">0600</span> <span class=\"hl\">FG</span> OVC001 \n  TEMPO 0620/0701 <span class=\"hl-vis\">0300</span> <span class=\"hl\">FG</span> \n  BECMG 0702/0704 06010KT 1500 <span class=\"hl\">BR</span> OVC005"
    },
    {
      "icao": "LRSB",
      "iata": "SBZ",
      "name": "Sibiu International Airport",
      "updatedAt": "060800Z",
      "visibility_m": 3000,
      "taf_visibility_m": 300,
      "worst_visibility_m": 300,
      "ceiling_ft": 4600,
      "hazards": [
        "BR",
        "RA",
        "FZFG",
        "FG"
      ],
      "severityScore": 100,
      "metarRaw": "METAR LRSB 060800Z VRB02KT 4000 -RA BR FEW032 BKN046 OVC070 01/01 Q1009 BECMG 3000 -RA BR",
      "tafRaw": "TAF LRSB 060500Z 0606/0706 VRB04KT 5000 BR SCT015 SCT060 \n  PROB40 \n  TEMPO 0610/0615 1500 -RA BR BKN015 BKN040 \n  BECMG 0615/0617 0800 FG OVC002 \n  PROB30 \n  TEMPO 0700/0706 0300 FZFG VV001",
      "metarHtml": "METAR LRSB 060800Z VRB02KT 4000 -<span class=\"hl\">RA</span> <span class=\"hl\">BR</span> FEW032 BKN046 OVC070 01/01 Q1009 BECMG 3000 -<span class=\"hl\">RA</span> <span class=\"hl\">BR</span>",
      "tafHtml": "TAF LRSB 060500Z 0606/0706 VRB04KT 5000 <span class=\"hl\">BR</span> SCT015 SCT060 \n  PROB40 \n  TEMPO 0610/0615 1500 -<span class=\"hl\">RA</span> <span class=\"hl\">BR</span> BKN015 BKN040 \n  BECMG 0615/0617 <span class=\"hl-vis\">0800</span> <span class=\"hl\">FG</span> OVC002 \n  PROB30 \n  TEMPO 0700/0706 <span class=\"hl-vis\">0300</span> <span class=\"hl\">FZFG</span> VV001"
    },
    {
      "icao": "LRSV",
      "iata": "SCV",
      "name": "Suceava Stefan cel Mare Airport",
      "updatedAt": "060800Z",
      "visibility_m": 1000,
      "taf_visibility_m": 300,
      "worst_visibility_m": 300,
      "ceiling_ft": null,
      "hazards": [
        "BR",
        "FZFG",
        "FZRA",
        "RA"
      ],
      "severityScore": 100,
      "metarRaw": "METAR LRSV 060800Z COR 21005KT 1000 R34/1900U BR FEW002 M01/M01 Q1008",
      "tafRaw": "TAF LRSV 060500Z 0606/0615 VRB04KT 0300 FZFG VV002 \n  BECMG 0607/0609 0800 \n  BECMG 0609/0611 3000 BR BKN005 \n  BECMG 0611/0613 35010KT \n  TEMPO 0611/0615 5000 -RA BKN002 OVC025 \n  PROB40 \n  TEMPO 0613/0615 -FZRA",
      "metarHtml": "METAR LRSV 060800Z COR 21005KT 1000 R34/1900U <span class=\"hl\">BR</span> FEW002 M01/M01 Q1008",
      "tafHtml": "TAF LRSV 060500Z 0606/0615 VRB04KT <span class=\"hl-vis\">0300</span> <span class=\"hl\">FZFG</span> VV002 \n  BECMG 0607/0609 <span class=\"hl-vis\">0800</span> \n  BECMG 0609/0611 3000 <span class=\"hl\">BR</span> BKN005 \n  BECMG 0611/0613 35010KT \n  TEMPO 0611/0615 5000 -<span class=\"hl\">RA</span> BKN002 OVC025 \n  PROB40 \n  TEMPO 0613/0615 -<span class=\"hl\">FZRA</span>"
    },
    {
      "icao": "LRTR",
      "iata": "TSR",
      "name": "Timişoara Traian Vuia Airport",
      "updatedAt": "060800Z",
      "visibility_m": 3000,
      "taf_visibility_m": 800,
      "worst_visibility_m": 800,
      "ceiling_ft": 300,
      "hazards": [
        "BR",
        "FZDZ",
        "FG",
        "SN"
      ],
      "severityScore": 100,
      "metarRaw": "METAR LRTR 060800Z 25003KT 3000 -FZDZ BR SCT002 BKN003 OVC005 M00/M00 Q1013",
      "tafRaw": "TAF LRTR 060500Z 0606/0706 26006KT 3000 -FZDZ BR BKN005 OVC010 \n  BECMG 0607/0609 3000 -RASN BR BKN002 OVC005 \n  BECMG 0615/0617 1500 -SN BR \n  PROB30 \n  TEMPO 0620/0706 0800 SN FG BKN002 OVC005",
      "metarHtml": "METAR LRTR 060800Z 25003KT 3000 -<span class=\"hl\">FZDZ</span> <span class=\"hl\">BR</span> SCT002 BKN003 OVC005 M00/M00 Q1013",
      "tafHtml": "TAF LRTR 060500Z 0606/0706 26006KT 3000 -<span class=\"hl\">FZDZ</span> <span class=\"hl\">BR</span> BKN005 OVC010 \n  BECMG 0607/0609 3000 -RASN <span class=\"hl\">BR</span> BKN002 OVC005 \n  BECMG 0615/0617 1500 -<span class=\"hl\">SN</span> <span class=\"hl\">BR</span> \n  PROB30 \n  TEMPO 0620/0706 <span class=\"hl-vis\">0800</span> <span class=\"hl\">SN</span> <span class=\"hl\">FG</span> BKN002 OVC005"
    },
    {
      "icao": "LTAC",
      "iata": "ESB",
      "name": "Esenboğa International Airport",
      "updatedAt": "060750Z",
      "visibility_m": 150,
      "taf_visibility_m": 200,
      "worst_visibility_m": 150,
      "ceiling_ft": 100,
      "hazards": [
        "FZFG",
        "BR"
      ],
      "severityScore": 100,
      "metarRaw": "METAR LTAC 060750Z VRB02KT 0150 R03C/0200N R21C/0150N R03L/0200N R03R/0175N FZFG VV001 M02/M02 Q1022 BECMG 0400",
      "tafRaw": "TAF LTAC 060440Z 0606/0706 VRB02KT 0200 FZFG VV001 \n  BECMG 0607/0608 0400 BKN002 \n  BECMG 0608/0609 4000 BR \n  BECMG 0609/0610 9999 NSW SCT040 \n  BECMG 0612/0614 CAVOK \n  BECMG 0620/0623 SCT040 BKN100 \n  TEMPO 0701/0705 3500 BR",
      "metarHtml": "METAR LTAC 060750Z VRB02KT <span class=\"hl-vis\">0150</span> R03C/0200N R21C/0150N R03L/0200N R03R/0175N <span class=\"hl\">FZFG</span> VV001 M02/M02 Q1022 BECMG <span class=\"hl-vis\">0400</span>",
      "tafHtml": "TAF LTAC 060440Z 0606/0706 VRB02KT <span class=\"hl-vis\">0200</span> <span class=\"hl\">FZFG</span> VV001 \n  BECMG 0607/0608 <span class=\"hl-vis\">0400</span> BKN002 \n  BECMG 0608/0609 4000 <span class=\"hl\">BR</span> \n  BECMG 0609/0610 9999 NSW SCT040 \n  BECMG 0612/0614 <span class=\"hl-vis\">CAVOK</span> \n  BECMG 0620/0623 SCT040 BKN100 \n  TEMPO 0701/0705 3500 <span class=\"hl\">BR</span>"
    },
    {
      "icao": "LUKK",
      "iata": "RMO",
      "name": "Chişinău International Airport",
      "updatedAt": "060800Z",
      "visibility_m": 300,
      "taf_visibility_m": 300,
      "worst_visibility_m": 300,
      "ceiling_ft": 200,
      "hazards": [
        "FG",
        "BR",
        "RA",
        "DZ"
      ],
      "severityScore": 100,
      "metarRaw": "METAR LUKK 060800Z 14003KT 0300 0250SE R08/0400N FG VV002 02/02 Q1011 NOSIG",
      "tafRaw": "TAF LUKK 060526Z 0606/0706 VRB05KT 0300 -DZ FG VV002 \n  TEMPO 0609/0613 1000 BR OVC003 \n  TEMPO 0622/0706 1000 RA BR OVC003",
      "metarHtml": "METAR LUKK 060800Z 14003KT <span class=\"hl-vis\">0300</span> 0250SE R08/0400N <span class=\"hl\">FG</span> VV002 02/02 Q1011 NOSIG",
      "tafHtml": "TAF LUKK 060526Z 0606/0706 VRB05KT <span class=\"hl-vis\">0300</span> -<span class=\"hl\">DZ</span> <span class=\"hl\">FG</span> VV002 \n  TEMPO 0609/0613 1000 <span class=\"hl\">BR</span> OVC003 \n  TEMPO 0622/0706 1000 <span class=\"hl\">RA</span> <span class=\"hl\">BR</span> OVC003"
    },
    {
      "icao": "LIPE",
      "iata": "BLQ",
      "name": "Bologna Guglielmo Marconi Airport",
      "updatedAt": "060750Z",
      "visibility_m": 800,
      "taf_visibility_m": 1200,
      "worst_visibility_m": 800,
      "ceiling_ft": 500,
      "hazards": [
        "FG",
        "SN",
        "BR"
      ],
      "severityScore": 98,
      "metarRaw": "METAR LIPE 060750Z 23005KT 0800 R12/1600D R30/1500D -SN FG VV005 00/00 Q1009",
      "tafRaw": "TAF LIPE 060500Z 0606/0706 28007KT 9999 BKN020 \n  BECMG 0606/0608 1200 SN OVC004 \n  BECMG 0617/0618 NSW BKN010 \n  BECMG 0617/0619 4000 BR \n  PROB30 \n  TEMPO 0622/0706 2000 BCFG",
      "metarHtml": "METAR LIPE 060750Z 23005KT <span class=\"hl-vis\">0800</span> R12/1600D R30/1500D -<span class=\"hl\">SN</span> <span class=\"hl\">FG</span> VV005 00/00 Q1009",
      "tafHtml": "TAF LIPE 060500Z 0606/0706 28007KT 9999 BKN020 \n  BECMG 0606/0608 1200 <span class=\"hl\">SN</span> OVC004 \n  BECMG 0617/0618 NSW BKN010 \n  BECMG 0617/0619 4000 <span class=\"hl\">BR</span> \n  PROB30 \n  TEMPO 0622/0706 2000 BCFG"
    },
    {
      "icao": "LFOB",
      "iata": "BVA",
      "name": "Beauvais Tillé airport",
      "updatedAt": "060800Z",
      "visibility_m": 350,
      "taf_visibility_m": 500,
      "worst_visibility_m": 350,
      "ceiling_ft": null,
      "hazards": [
        "FZFG",
        "BR",
        "SN"
      ],
      "severityScore": 93,
      "metarRaw": "METAR LFOB 060800Z AUTO 29003KT 5000 0350 R30/0400N R12/P5000 BCFG NSC M09/M10 Q1018 TEMPO 0500 FZFG VV///",
      "tafRaw": "TAF LFOB 060500Z 0606/0706 27005KT 6000 NSC \n  PROB40 \n  TEMPO 0606/0610 3500 BR \n  PROB30 \n  TEMPO 0606/0610 0500 FZFG VV/// \n  PROB40 \n  TEMPO 0621/0623 BKN008 \n  BECMG 0704/0706 19015G25KT 2000 SN OVC005",
      "metarHtml": "METAR LFOB 060800Z AUTO 29003KT 5000 <span class=\"hl-vis\">0350</span> R30/0400N R12/P5000 BCFG NSC M09/M10 Q1018 TEMPO <span class=\"hl-vis\">0500</span> <span class=\"hl\">FZFG</span> VV///",
      "tafHtml": "TAF LFOB 060500Z 0606/0706 27005KT 6000 NSC \n  PROB40 \n  TEMPO 0606/0610 3500 <span class=\"hl\">BR</span> \n  PROB30 \n  TEMPO 0606/0610 <span class=\"hl-vis\">0500</span> <span class=\"hl\">FZFG</span> VV/// \n  PROB40 \n  TEMPO 0621/0623 BKN008 \n  BECMG 0704/0706 19015G25KT 2000 <span class=\"hl\">SN</span> OVC005"
    },
    {
      "icao": "EPMO",
      "iata": "WMI",
      "name": "Modlin Airport",
      "updatedAt": "060800Z",
      "visibility_m": 3000,
      "taf_visibility_m": 300,
      "worst_visibility_m": 300,
      "ceiling_ft": null,
      "hazards": [
        "BR",
        "FZFG"
      ],
      "severityScore": 85,
      "metarRaw": "METAR EPMO 060800Z 29002KT 3000 BR FEW025 M13/M14 Q1013",
      "tafRaw": "TAF EPMO 060530Z 0606/0706 30003KT 3000 BR SCT025 \n  PROB40 0606/0608 1500 BR \n  BECMG 0607/0609 7000 \n  BECMG 0617/0620 2500 BR \n  TEMPO 0618/0706 0300 FZFG BKN001",
      "metarHtml": "METAR EPMO 060800Z 29002KT 3000 <span class=\"hl\">BR</span> FEW025 M13/M14 Q1013",
      "tafHtml": "TAF EPMO 060530Z 0606/0706 30003KT 3000 <span class=\"hl\">BR</span> SCT025 \n  PROB40 0606/0608 1500 <span class=\"hl\">BR</span> \n  BECMG 0607/0609 7000 \n  BECMG 0617/0620 2500 <span class=\"hl\">BR</span> \n  TEMPO 0618/0706 <span class=\"hl-vis\">0300</span> <span class=\"hl\">FZFG</span> BKN001"
    },
    {
      "icao": "LFPO",
      "iata": "ORY",
      "name": "Paris-Orly Airport",
      "updatedAt": "060800Z",
      "visibility_m": 6000,
      "taf_visibility_m": 800,
      "worst_visibility_m": 800,
      "ceiling_ft": null,
      "hazards": [
        "FZFG",
        "BR",
        "SN"
      ],
      "severityScore": 83,
      "metarRaw": "METAR LFPO 060800Z 25003KT 6000 MIFG NSC M08/M09 Q1019 NOSIG",
      "tafRaw": "TAF LFPO 060500Z 0606/0712 30005KT 6000 FEW003 \n  TEMPO 0606/0607 4000 BR SCT004 \n  PROB30 \n  TEMPO 0606/0607 0800 FZFG VV/// \n  BECMG 0609/0611 CAVOK \n  BECMG 0622/0624 20010KT \n  TEMPO 0705/0712 4000 -SN BKN006 \n  PROB40 \n  TEMPO 0706/0710 19015G25KT 2000 SN BKN003",
      "metarHtml": "METAR LFPO 060800Z 25003KT 6000 MIFG NSC M08/M09 Q1019 NOSIG",
      "tafHtml": "TAF LFPO 060500Z 0606/0712 30005KT 6000 FEW003 \n  TEMPO 0606/0607 4000 <span class=\"hl\">BR</span> SCT004 \n  PROB30 \n  TEMPO 0606/0607 <span class=\"hl-vis\">0800</span> <span class=\"hl\">FZFG</span> VV/// \n  BECMG 0609/0611 <span class=\"hl-vis\">CAVOK</span> \n  BECMG 0622/0624 20010KT \n  TEMPO 0705/0712 4000 -<span class=\"hl\">SN</span> BKN006 \n  PROB40 \n  TEMPO 0706/0710 19015G25KT 2000 <span class=\"hl\">SN</span> BKN003"
    },
    {
      "icao": "LHDC",
      "iata": "DEB",
      "name": "Debrecen International Airport",
      "updatedAt": "060745Z",
      "visibility_m": 5000,
      "taf_visibility_m": 2000,
      "worst_visibility_m": 2000,
      "ceiling_ft": 700,
      "hazards": [
        "BR",
        "FZDZ",
        "SN"
      ],
      "severityScore": 81,
      "metarRaw": "METAR LHDC 060745Z AUTO 02005KT 350V050 5000 -FZDZ BR OVC007 M01/M01 Q1012 NOSIG",
      "tafRaw": "TAF LHDC 060515Z 0606/0615 36003KT 2000 -SN -SNRA OVC002 \n  BECMG 0606/0609 6000 NSW OVC012 \n  BECMG 0609/0612 9999 BKN025 \n  BECMG 0612/0615 01009KT \n  TEMPO 0613/0615 4000 -SN OVC014",
      "metarHtml": "METAR LHDC 060745Z AUTO 02005KT 350V050 5000 -<span class=\"hl\">FZDZ</span> <span class=\"hl\">BR</span> OVC007 M01/M01 Q1012 NOSIG",
      "tafHtml": "TAF LHDC 060515Z 0606/0615 36003KT 2000 -<span class=\"hl\">SN</span> -SNRA OVC002 \n  BECMG 0606/0609 6000 NSW OVC012 \n  BECMG 0609/0612 9999 BKN025 \n  BECMG 0612/0615 01009KT \n  TEMPO 0613/0615 4000 -<span class=\"hl\">SN</span> OVC014"
    },
    {
      "icao": "LQBK",
      "iata": "BNX",
      "name": "Banja Luka International Airport",
      "updatedAt": "060800Z",
      "visibility_m": 4000,
      "taf_visibility_m": 800,
      "worst_visibility_m": 800,
      "ceiling_ft": 900,
      "hazards": [
        "SN",
        "BR"
      ],
      "severityScore": 78,
      "metarRaw": "METAR LQBK 060800Z 33003KT 9999 BKN012 OVC023 M02/M04 Q1014 TEMPO 4000 SN BKN009 OVC020",
      "tafRaw": "TAF LQBK 060500Z 0606/0706 33007KT 7000 -SN SCT010 OVC020 TXM00/0613Z TNM05/0705Z \n  PROB40 \n  TEMPO 0606/0611 4000 SN BR SCT005 BKN010 \n  TEMPO 0611/0624 2000 SN BKN004 OVC010 \n  PROB40 \n  TEMPO 0620/0702 0800 +SN BKN002 OVC007",
      "metarHtml": "METAR LQBK 060800Z 33003KT 9999 BKN012 OVC023 M02/M04 Q1014 TEMPO 4000 <span class=\"hl\">SN</span> BKN009 OVC020",
      "tafHtml": "TAF LQBK 060500Z 0606/0706 33007KT 7000 -<span class=\"hl\">SN</span> SCT010 OVC020 TXM00/0613Z TNM05/0705Z \n  PROB40 \n  TEMPO 0606/0611 4000 <span class=\"hl\">SN</span> <span class=\"hl\">BR</span> SCT005 BKN010 \n  TEMPO 0611/0624 2000 <span class=\"hl\">SN</span> BKN004 OVC010 \n  PROB40 \n  TEMPO 0620/0702 <span class=\"hl-vis\">0800</span> +<span class=\"hl\">SN</span> BKN002 OVC007"
    },
    {
      "icao": "LQSA",
      "iata": "SJJ",
      "name": "Sarajevo International Airport",
      "updatedAt": "060800Z",
      "visibility_m": 8000,
      "taf_visibility_m": 500,
      "worst_visibility_m": 500,
      "ceiling_ft": 700,
      "hazards": [
        "SN"
      ],
      "severityScore": 78,
      "metarRaw": "METAR LQSA 060800Z 35002KT 8000 BKN007 M01/M01 Q1010 NOSIG",
      "tafRaw": "TAF LQSA 060500Z 0606/0706 29005KT 7000 SCT010 OVC030 TX00/0606Z TNM04/0706Z \n  PROB40 \n  TEMPO 0606/0612 2500 SNRA BKN008 OVC020 \n  TEMPO 0612/0706 1200 SN BKN006 OVC020 \n  PROB40 \n  TEMPO 0618/0701 35012KT 0500 +SN BKN004 OVC015",
      "metarHtml": "METAR LQSA 060800Z 35002KT 8000 BKN007 M01/M01 Q1010 NOSIG",
      "tafHtml": "TAF LQSA 060500Z 0606/0706 29005KT 7000 SCT010 OVC030 TX00/0606Z TNM04/0706Z \n  PROB40 \n  TEMPO 0606/0612 2500 SNRA BKN008 OVC020 \n  TEMPO 0612/0706 1200 <span class=\"hl\">SN</span> BKN006 OVC020 \n  PROB40 \n  TEMPO 0618/0701 35012KT <span class=\"hl-vis\">0500</span> +<span class=\"hl\">SN</span> BKN004 OVC015"
    },
    {
      "icao": "LRSM",
      "iata": "SUJ",
      "name": "Satu Mare International Airport",
      "updatedAt": "060800Z",
      "visibility_m": 1200,
      "taf_visibility_m": 600,
      "worst_visibility_m": 600,
      "ceiling_ft": 3600,
      "hazards": [
        "BR",
        "RA",
        "FG",
        "DZ"
      ],
      "severityScore": 77,
      "metarRaw": "METAR LRSM 060800Z 22002KT 1200 R19/P2000 -RA BR SCT003 OVC036 01/00 Q1011",
      "tafRaw": "TAF LRSM 060500Z 0606/0615 VRB04KT 1500 -RADZ BR OVC005 \n  TEMPO 0606/0608 0600 DZ FG VV002 \n  BECMG 0608/0610 SNRA BR",
      "metarHtml": "METAR LRSM 060800Z 22002KT 1200 R19/P2000 -<span class=\"hl\">RA</span> <span class=\"hl\">BR</span> SCT003 OVC036 01/00 Q1011",
      "tafHtml": "TAF LRSM 060500Z 0606/0615 VRB04KT 1500 -RADZ <span class=\"hl\">BR</span> OVC005 \n  TEMPO 0606/0608 <span class=\"hl-vis\">0600</span> <span class=\"hl\">DZ</span> <span class=\"hl\">FG</span> VV002 \n  BECMG 0608/0610 SNRA <span class=\"hl\">BR</span>"
    },
    {
      "icao": "EPKT",
      "iata": "KTW",
      "name": "Katowice Wojciech Korfanty International Airport",
      "updatedAt": "060800Z",
      "visibility_m": 4800,
      "taf_visibility_m": 400,
      "worst_visibility_m": 400,
      "ceiling_ft": null,
      "hazards": [
        "BR",
        "FZFG"
      ],
      "severityScore": 75,
      "metarRaw": "METAR EPKT 060800Z 25003KT 4800 BR NSC M10/M11 Q1013",
      "tafRaw": "TAF EPKT 060530Z 0606/0706 27005KT 3500 BR NSC \n  PROB30 \n  TEMPO 0606/0607 0400 FZFG SCT004 \n  BECMG 0607/0608 CAVOK \n  BECMG 0618/0621 35010KT",
      "metarHtml": "METAR EPKT 060800Z 25003KT 4800 <span class=\"hl\">BR</span> NSC M10/M11 Q1013",
      "tafHtml": "TAF EPKT 060530Z 0606/0706 27005KT 3500 <span class=\"hl\">BR</span> NSC \n  PROB30 \n  TEMPO 0606/0607 <span class=\"hl-vis\">0400</span> <span class=\"hl\">FZFG</span> SCT004 \n  BECMG 0607/0608 <span class=\"hl-vis\">CAVOK</span> \n  BECMG 0618/0621 35010KT"
    },
    {
      "icao": "EYPA",
      "iata": "PLQ",
      "name": "Palanga International Airport",
      "updatedAt": "060750Z",
      "visibility_m": 10000,
      "taf_visibility_m": 400,
      "worst_visibility_m": 400,
      "ceiling_ft": null,
      "hazards": [
        "FZFG",
        "SHSN"
      ],
      "severityScore": 75,
      "metarRaw": "METAR EYPA 060750Z 14010KT CAVOK M04/M06 Q1014",
      "tafRaw": "TAF EYPA 060515Z 0606/0706 15010KT 7000 BKN035 \n  TEMPO 0606/0607 BKN015 FEW030CB \n  PROB40 \n  TEMPO 0606/0607 0800 +SHSN BKN005 \n  TEMPO 0615/0619 SCT020CB \n  PROB30 \n  TEMPO 0615/0619 1500 SHSN BKN002 SCT015CB \n  TEMPO 0619/0624 0800 +SHSN BKN005 SCT015CB \n  PROB30 \n  TEMPO 0700/0706 0400 FZFG VV002",
      "metarHtml": "METAR EYPA 060750Z 14010KT <span class=\"hl-vis\">CAVOK</span> M04/M06 Q1014",
      "tafHtml": "TAF EYPA 060515Z 0606/0706 15010KT 7000 BKN035 \n  TEMPO 0606/0607 BKN015 FEW030CB \n  PROB40 \n  TEMPO 0606/0607 <span class=\"hl-vis\">0800</span> +<span class=\"hl\">SHSN</span> BKN005 \n  TEMPO 0615/0619 SCT020CB \n  PROB30 \n  TEMPO 0615/0619 1500 <span class=\"hl\">SHSN</span> BKN002 SCT015CB \n  TEMPO 0619/0624 <span class=\"hl-vis\">0800</span> +<span class=\"hl\">SHSN</span> BKN005 SCT015CB \n  PROB30 \n  TEMPO 0700/0706 <span class=\"hl-vis\">0400</span> <span class=\"hl\">FZFG</span> VV002"
    },
    {
      "icao": "UAAA",
      "iata": "ALA",
      "name": "Almaty International Airport",
      "updatedAt": "060800Z",
      "visibility_m": 4900,
      "taf_visibility_m": 500,
      "worst_visibility_m": 500,
      "ceiling_ft": null,
      "hazards": [
        "BR",
        "FZFG"
      ],
      "severityScore": 75,
      "metarRaw": "METAR UAAA 060800Z 30002MPS 200V350 4900 BR FEW100 02/M03 Q1029 NOSIG",
      "tafRaw": "TAF UAAA 060503Z 0606/0706 04003MPS 6000 SCT011 BKN050 TX01/0609Z TNM04/0701Z \n  TEMPO 0606/0612 25003MPS 3100 BR FU \n  FM061200 22003G08MPS 3100 BR FU BKN011 OVC050 \n  TEMPO 0612/0616 1200 \n  TEMPO 0616/0704 0500 FZFG VV002 \n  BECMG 0704/0705 35002G07MPS",
      "metarHtml": "METAR UAAA 060800Z 30002MPS 200V350 4900 <span class=\"hl\">BR</span> FEW100 02/M03 Q1029 NOSIG",
      "tafHtml": "TAF UAAA 060503Z 0606/0706 04003MPS 6000 SCT011 BKN050 TX01/0609Z TNM04/0701Z \n  TEMPO 0606/0612 25003MPS 3100 <span class=\"hl\">BR</span> FU \n  FM061200 22003G08MPS 3100 <span class=\"hl\">BR</span> FU BKN011 OVC050 \n  TEMPO 0612/0616 1200 \n  TEMPO 0616/0704 <span class=\"hl-vis\">0500</span> <span class=\"hl\">FZFG</span> VV002 \n  BECMG 0704/0705 35002G07MPS"
    },
    {
      "icao": "EDDH",
      "iata": "HAM",
      "name": "Hamburg Helmut Schmidt Airport",
      "updatedAt": "060750Z",
      "visibility_m": 4500,
      "taf_visibility_m": 1000,
      "worst_visibility_m": 1000,
      "ceiling_ft": 800,
      "hazards": [
        "SHSN",
        "FZDZ"
      ],
      "severityScore": 73,
      "metarRaw": "METAR EDDH 060750Z AUTO 21007KT 8000 OVC008 M01/M02 Q1012 TEMPO 4500 BKN010",
      "tafRaw": "TAF EDDH 060500Z 0606/0712 20005KT 8000 OVC007 \n  TEMPO 0606/0614 BKN015 \n  PROB40 \n  TEMPO 0606/0610 1000 SHSN BKN004TCU \n  TEMPO 0614/0621 1200 SHSN BKN004CB \n  PROB30 \n  TEMPO 0619/0701 3000 -FZDZ BKN004 \n  BECMG 0700/0703 CAVOK \n  BECMG 0706/0708 18010KT",
      "metarHtml": "METAR EDDH 060750Z AUTO 21007KT 8000 OVC008 M01/M02 Q1012 TEMPO 4500 BKN010",
      "tafHtml": "TAF EDDH 060500Z 0606/0712 20005KT 8000 OVC007 \n  TEMPO 0606/0614 BKN015 \n  PROB40 \n  TEMPO 0606/0610 1000 <span class=\"hl\">SHSN</span> BKN004TCU \n  TEMPO 0614/0621 1200 <span class=\"hl\">SHSN</span> BKN004CB \n  PROB30 \n  TEMPO 0619/0701 3000 -<span class=\"hl\">FZDZ</span> BKN004 \n  BECMG 0700/0703 <span class=\"hl-vis\">CAVOK</span> \n  BECMG 0706/0708 18010KT"
    },
    {
      "icao": "LYBE",
      "iata": "BEG",
      "name": "Belgrade Nikola Tesla Airport",
      "updatedAt": "060800Z",
      "visibility_m": 4000,
      "taf_visibility_m": null,
      "worst_visibility_m": 4000,
      "ceiling_ft": 500,
      "hazards": [
        "BR",
        "FZDZ"
      ],
      "severityScore": 68,
      "metarRaw": "METAR LYBE 060800Z 28007KT 4000 -FZDZ BR BKN005 BKN017 M01/M02 Q1014 NOSIG",
      "tafRaw": null,
      "metarHtml": "METAR LYBE 060800Z 28007KT 4000 -<span class=\"hl\">FZDZ</span> <span class=\"hl\">BR</span> BKN005 BKN017 M01/M02 Q1014 NOSIG",
      "tafHtml": null
    },
    {
      "icao": "LRCV",
      "iata": "CRA",
      "name": "Craiova International Airport",
      "updatedAt": "060800Z",
      "visibility_m": 5000,
      "taf_visibility_m": 1500,
      "worst_visibility_m": 1500,
      "ceiling_ft": 200,
      "hazards": [
        "BR",
        "RA"
      ],
      "severityScore": 67,
      "metarRaw": "METAR LRCV 060800Z 00000KT 5000 RA BR BKN002 OVC040 01/01 Q1012",
      "tafRaw": "TAF LRCV 060500Z 0606/0615 VRB04KT 1500 BR BKN005 OVC035 \n  TEMPO 0606/0614 5000 -RA BR SCT010 OVC040",
      "metarHtml": "METAR LRCV 060800Z 00000KT 5000 <span class=\"hl\">RA</span> <span class=\"hl\">BR</span> BKN002 OVC040 01/01 Q1012",
      "tafHtml": "TAF LRCV 060500Z 0606/0615 VRB04KT 1500 <span class=\"hl\">BR</span> BKN005 OVC035 \n  TEMPO 0606/0614 5000 -<span class=\"hl\">RA</span> <span class=\"hl\">BR</span> SCT010 OVC040"
    },
    {
      "icao": "EKCH",
      "iata": "CPH",
      "name": "Copenhagen Kastrup Airport",
      "updatedAt": "060750Z",
      "visibility_m": 800,
      "taf_visibility_m": null,
      "worst_visibility_m": 800,
      "ceiling_ft": 200,
      "hazards": [],
      "severityScore": 65,
      "metarRaw": "METAR EKCH 060750Z 22001KT 3000 R22L/0800U R04L/0175N R12/P1500U BCFG NSC M06/M07 Q1012 TEMPO 0800 BKN002",
      "tafRaw": null,
      "metarHtml": "METAR EKCH 060750Z 22001KT 3000 R22L/0800U R04L/0175N R12/P1500U BCFG NSC M06/M07 Q1012 TEMPO <span class=\"hl-vis\">0800</span> BKN002",
      "tafHtml": null
    },
    {
      "icao": "EPWA",
      "iata": "WAW",
      "name": "Warsaw Chopin Airport",
      "updatedAt": "060800Z",
      "visibility_m": 5000,
      "taf_visibility_m": 600,
      "worst_visibility_m": 600,
      "ceiling_ft": 2600,
      "hazards": [
        "BR",
        "FZFG"
      ],
      "severityScore": 65,
      "metarRaw": "METAR EPWA 060800Z 26005KT 5000 BR BKN026 M10/M11 Q1013 NOSIG",
      "tafRaw": "TAF EPWA 060530Z 0606/0706 30003KT 8000 BKN025 \n  PROB40 0606/0608 4000 BR \n  TEMPO 0619/0706 4000 BR \n  PROB40 0621/0706 0600 FZFG BKN001",
      "metarHtml": "METAR EPWA 060800Z 26005KT 5000 <span class=\"hl\">BR</span> BKN026 M10/M11 Q1013 NOSIG",
      "tafHtml": "TAF EPWA 060530Z 0606/0706 30003KT 8000 BKN025 \n  PROB40 0606/0608 4000 <span class=\"hl\">BR</span> \n  TEMPO 0619/0706 4000 <span class=\"hl\">BR</span> \n  PROB40 0621/0706 <span class=\"hl-vis\">0600</span> <span class=\"hl\">FZFG</span> BKN001"
    },
    {
      "icao": "EGPD",
      "iata": "ABZ",
      "name": "Aberdeen International Airport",
      "updatedAt": "060750Z",
      "visibility_m": 1800,
      "taf_visibility_m": 500,
      "worst_visibility_m": 500,
      "ceiling_ft": 2000,
      "hazards": [
        "SHSN",
        "SN"
      ],
      "severityScore": 63,
      "metarRaw": "METAR EGPD 060750Z 22007KT 3500 -SHSN SCT014 BKN020 M01/M03 Q1009 TEMPO 1800 SHSN",
      "tafRaw": "TAF EGPD 060456Z 0606/0706 20004KT 9999 FEW012 \n  TEMPO 0606/0614 4000 -SNRA BKN012 \n  PROB30 \n  TEMPO 0606/0614 1400 SN BKN006 \n  TEMPO 0614/0620 1800 SNRA BKN008 \n  PROB30 \n  TEMPO 0614/0619 0500 +SN BKN004 \n  BECMG 0620/0623 05012KT \n  TEMPO 0620/0706 4000 -RASN BKN004 \n  PROB30 \n  TEMPO 0700/0706 06015G25KT",
      "metarHtml": "METAR EGPD 060750Z 22007KT 3500 -<span class=\"hl\">SHSN</span> SCT014 BKN020 M01/M03 Q1009 TEMPO 1800 <span class=\"hl\">SHSN</span>",
      "tafHtml": "TAF EGPD 060456Z 0606/0706 20004KT 9999 FEW012 \n  TEMPO 0606/0614 4000 -SNRA BKN012 \n  PROB30 \n  TEMPO 0606/0614 1400 <span class=\"hl\">SN</span> BKN006 \n  TEMPO 0614/0620 1800 SNRA BKN008 \n  PROB30 \n  TEMPO 0614/0619 <span class=\"hl-vis\">0500</span> +<span class=\"hl\">SN</span> BKN004 \n  BECMG 0620/0623 05012KT \n  TEMPO 0620/0706 4000 -RASN BKN004 \n  PROB30 \n  TEMPO 0700/0706 06015G25KT"
    },
    {
      "icao": "EHBK",
      "iata": "MST",
      "name": "Maastricht Aachen Airport",
      "updatedAt": "060755Z",
      "visibility_m": 6000,
      "taf_visibility_m": 1200,
      "worst_visibility_m": 1200,
      "ceiling_ft": 500,
      "hazards": [
        "BR",
        "SN"
      ],
      "severityScore": 63,
      "metarRaw": "METAR EHBK 060755Z AUTO 25004KT 220V320 6000 OVC003/// M02/M02 Q1015 BECMG 6000 BKN005",
      "tafRaw": "TAF EHBK 060523Z 0606/0712 20008KT 6000 BKN018 \n  TEMPO 0606/0612 2500 BR BKN007 \n  PROB40 0606/0612 1200 BCFG BR BKN001 \n  BECMG 0611/0614 CAVOK \n  BECMG 0700/0703 19015G25KT \n  BECMG 0709/0712 4000 -SN BKN014",
      "metarHtml": "METAR EHBK 060755Z AUTO 25004KT 220V320 6000 OVC003/// M02/M02 Q1015 BECMG 6000 BKN005",
      "tafHtml": "TAF EHBK 060523Z 0606/0712 20008KT 6000 BKN018 \n  TEMPO 0606/0612 2500 <span class=\"hl\">BR</span> BKN007 \n  PROB40 0606/0612 1200 BCFG <span class=\"hl\">BR</span> BKN001 \n  BECMG 0611/0614 <span class=\"hl-vis\">CAVOK</span> \n  BECMG 0700/0703 19015G25KT \n  BECMG 0709/0712 4000 -<span class=\"hl\">SN</span> BKN014"
    },
    {
      "icao": "EPRZ",
      "iata": "RZE",
      "name": "Rzeszów-Jasionka Airport",
      "updatedAt": "060800Z",
      "visibility_m": 10000,
      "taf_visibility_m": 500,
      "worst_visibility_m": 500,
      "ceiling_ft": 2100,
      "hazards": [
        "BR",
        "SN"
      ],
      "severityScore": 63,
      "metarRaw": "METAR EPRZ 060800Z 26009KT 9999 OVC021 M04/M05 Q1012",
      "tafRaw": "TAF EPRZ 060530Z 0606/0706 26010KT 7000 -SN FEW005 OVC017 \n  TEMPO 0606/0608 4000 -SN BR BKN012 \n  PROB30 \n  TEMPO 0606/0608 1200 SN BR BKN004 \n  TEMPO 0608/0611 BKN012 \n  BECMG 0616/0618 33005KT \n  BECMG 0621/0624 03010KT 4000 -SN BR BKN006 \n  TEMPO 0700/0706 1500 SN BR BKN003 \n  PROB30 \n  TEMPO 0700/0706 0500 +SN BKN001",
      "metarHtml": "METAR EPRZ 060800Z 26009KT 9999 OVC021 M04/M05 Q1012",
      "tafHtml": "TAF EPRZ 060530Z 0606/0706 26010KT 7000 -<span class=\"hl\">SN</span> FEW005 OVC017 \n  TEMPO 0606/0608 4000 -<span class=\"hl\">SN</span> <span class=\"hl\">BR</span> BKN012 \n  PROB30 \n  TEMPO 0606/0608 1200 <span class=\"hl\">SN</span> <span class=\"hl\">BR</span> BKN004 \n  TEMPO 0608/0611 BKN012 \n  BECMG 0616/0618 33005KT \n  BECMG 0621/0624 03010KT 4000 -<span class=\"hl\">SN</span> <span class=\"hl\">BR</span> BKN006 \n  TEMPO 0700/0706 1500 <span class=\"hl\">SN</span> <span class=\"hl\">BR</span> BKN003 \n  PROB30 \n  TEMPO 0700/0706 <span class=\"hl-vis\">0500</span> +<span class=\"hl\">SN</span> BKN001"
    },
    {
      "icao": "LIPR",
      "iata": "RMI",
      "name": "Federico Fellini International Airport",
      "updatedAt": "060750Z",
      "visibility_m": 1500,
      "taf_visibility_m": 1200,
      "worst_visibility_m": 1200,
      "ceiling_ft": 1300,
      "hazards": [
        "BR",
        "SN",
        "RA"
      ],
      "severityScore": 62,
      "metarRaw": "METAR LIPR 060750Z 28010KT 1500 SN BR FEW008 BKN013 00/00 Q1007",
      "tafRaw": "TAF LIPR 060500Z 0606/0706 30012KT 1200 SN BKN020 \n  BECMG 0616/0617 NSW \n  BECMG 0616/0618 01012KT 4000 -RA \n  BECMG 0622/0624 6000",
      "metarHtml": "METAR LIPR 060750Z 28010KT 1500 <span class=\"hl\">SN</span> <span class=\"hl\">BR</span> FEW008 BKN013 00/00 Q1007",
      "tafHtml": "TAF LIPR 060500Z 0606/0706 30012KT 1200 <span class=\"hl\">SN</span> BKN020 \n  BECMG 0616/0617 NSW \n  BECMG 0616/0618 01012KT 4000 -<span class=\"hl\">RA</span> \n  BECMG 0622/0624 6000"
    },
    {
      "icao": "LYNI",
      "iata": "INI",
      "name": "Niš Constantine the Great Airport",
      "updatedAt": "060800Z",
      "visibility_m": 10000,
      "taf_visibility_m": 5000,
      "worst_visibility_m": 5000,
      "ceiling_ft": 1000,
      "hazards": [
        "RA",
        "FZRA"
      ],
      "severityScore": 59,
      "metarRaw": "METAR LYNI 060800Z 33017KT 9999 -RA SCT005 BKN010 BKN020 01/01 Q1011 NOSIG",
      "tafRaw": "TAF LYNI 060500Z 0606/0706 33010KT 9999 SCT010 BKN030 OVC070 TX03/0606Z TNM01/0706Z \n  TEMPO 0606/0612 5000 RA BKN010 BKN025 OVC060 \n  PROB40 \n  TEMPO 0704/0706 -FZRA",
      "metarHtml": "METAR LYNI 060800Z 33017KT 9999 -<span class=\"hl\">RA</span> SCT005 BKN010 BKN020 01/01 Q1011 NOSIG",
      "tafHtml": "TAF LYNI 060500Z 0606/0706 33010KT 9999 SCT010 BKN030 OVC070 TX03/0606Z TNM01/0706Z \n  TEMPO 0606/0612 5000 <span class=\"hl\">RA</span> BKN010 BKN025 OVC060 \n  PROB40 \n  TEMPO 0704/0706 -<span class=\"hl\">FZRA</span>"
    },
    {
      "icao": "EDDK",
      "iata": "CGN",
      "name": "Cologne Bonn Airport",
      "updatedAt": "060750Z",
      "visibility_m": 10000,
      "taf_visibility_m": 3000,
      "worst_visibility_m": 3000,
      "ceiling_ft": 800,
      "hazards": [
        "BR",
        "SN"
      ],
      "severityScore": 53,
      "metarRaw": "METAR EDDK 060750Z AUTO 13004KT 9999 OVC008 M02/M04 Q1015 NOSIG",
      "tafRaw": "TAF EDDK 060500Z 0606/0712 21004KT 9999 BKN010 \n  TEMPO 0606/0610 3000 -SG BR BKN005 \n  BECMG 0610/0613 SCT015 \n  BECMG 0700/0703 15009KT \n  BECMG 0709/0712 15014KT \n  PROB30 \n  TEMPO 0710/0712 3000 -SN",
      "metarHtml": "METAR EDDK 060750Z AUTO 13004KT 9999 OVC008 M02/M04 Q1015 NOSIG",
      "tafHtml": "TAF EDDK 060500Z 0606/0712 21004KT 9999 BKN010 \n  TEMPO 0606/0610 3000 -SG <span class=\"hl\">BR</span> BKN005 \n  BECMG 0610/0613 SCT015 \n  BECMG 0700/0703 15009KT \n  BECMG 0709/0712 15014KT \n  PROB30 \n  TEMPO 0710/0712 3000 -<span class=\"hl\">SN</span>"
    },
    {
      "icao": "EPLB",
      "iata": "LUZ",
      "name": "Lublin Airport",
      "updatedAt": "060800Z",
      "visibility_m": 10000,
      "taf_visibility_m": 3000,
      "worst_visibility_m": 3000,
      "ceiling_ft": 500,
      "hazards": [
        "BR",
        "SN"
      ],
      "severityScore": 53,
      "metarRaw": "METAR EPLB 060800Z 29003KT 9999 BKN005 OVC007 M03/M04 Q1011",
      "tafRaw": "TAF EPLB 060530Z 0606/0706 08006KT 6000 -SN BKN018 \n  TEMPO 0606/0609 3000 -SN BR BKN009 BKN014 \n  BECMG 0607/0610 29010KT \n  PROB40 \n  TEMPO 0609/0612 BKN014 \n  BECMG 0621/0624 35004KT \n  TEMPO 0702/0706 3000 -SN BKN005 BKN010",
      "metarHtml": "METAR EPLB 060800Z 29003KT 9999 BKN005 OVC007 M03/M04 Q1011",
      "tafHtml": "TAF EPLB 060530Z 0606/0706 08006KT 6000 -<span class=\"hl\">SN</span> BKN018 \n  TEMPO 0606/0609 3000 -<span class=\"hl\">SN</span> <span class=\"hl\">BR</span> BKN009 BKN014 \n  BECMG 0607/0610 29010KT \n  PROB40 \n  TEMPO 0609/0612 BKN014 \n  BECMG 0621/0624 35004KT \n  TEMPO 0702/0706 3000 -<span class=\"hl\">SN</span> BKN005 BKN010"
    },
    {
      "icao": "LFLL",
      "iata": "LYS",
      "name": "Lyon Saint-Exupéry Airport",
      "updatedAt": "060730Z",
      "visibility_m": 6000,
      "taf_visibility_m": 4000,
      "worst_visibility_m": 4000,
      "ceiling_ft": 600,
      "hazards": [
        "BR",
        "SN"
      ],
      "severityScore": 53,
      "metarRaw": "METAR LFLL 060730Z 06004KT 6000 BKN006 M06/M07 Q1016 NOSIG",
      "tafRaw": "TAF LFLL 060500Z 0606/0712 34005KT 9999 BKN012 BKN035 \n  PROB40 \n  TEMPO 0606/0610 BKN006 \n  PROB30 \n  TEMPO 0610/0615 -SN \n  FM061500 36012KT 9999 BKN016 \n  PROB30 \n  TEMPO 0700/0708 VRB02KT 4000 BR BKN004 \n  BECMG 0708/0709 14005KT BKN006",
      "metarHtml": "METAR LFLL 060730Z 06004KT 6000 BKN006 M06/M07 Q1016 NOSIG",
      "tafHtml": "TAF LFLL 060500Z 0606/0712 34005KT 9999 BKN012 BKN035 \n  PROB40 \n  TEMPO 0606/0610 BKN006 \n  PROB30 \n  TEMPO 0610/0615 -<span class=\"hl\">SN</span> \n  FM061500 36012KT 9999 BKN016 \n  PROB30 \n  TEMPO 0700/0708 VRB02KT 4000 <span class=\"hl\">BR</span> BKN004 \n  BECMG 0708/0709 14005KT BKN006"
    },
    {
      "icao": "LFSB",
      "iata": "BSL",
      "name": "EuroAirport Basel–Mulhouse–Freiburg",
      "updatedAt": "060800Z",
      "visibility_m": 3000,
      "taf_visibility_m": 3000,
      "worst_visibility_m": 3000,
      "ceiling_ft": 900,
      "hazards": [
        "BR",
        "SN"
      ],
      "severityScore": 53,
      "metarRaw": "METAR LFSB 060800Z AUTO 17005KT 9999 SCT019 OVC041 M06/M09 Q1016 TEMPO 3000 -SN BR BKN009",
      "tafRaw": "TAF LFSB 060500Z 0606/0706 VRB03KT CAVOK \n  PROB30 \n  TEMPO 0606/0610 3000 -SN BR BKN009 \n  BECMG 0611/0613 32006KT \n  PROB30 \n  TEMPO 0623/0706 3500 BR",
      "metarHtml": "METAR LFSB 060800Z AUTO 17005KT 9999 SCT019 OVC041 M06/M09 Q1016 TEMPO 3000 -<span class=\"hl\">SN</span> <span class=\"hl\">BR</span> BKN009",
      "tafHtml": "TAF LFSB 060500Z 0606/0706 VRB03KT <span class=\"hl-vis\">CAVOK</span> \n  PROB30 \n  TEMPO 0606/0610 3000 -<span class=\"hl\">SN</span> <span class=\"hl\">BR</span> BKN009 \n  BECMG 0611/0613 32006KT \n  PROB30 \n  TEMPO 0623/0706 3500 <span class=\"hl\">BR</span>"
    },
    {
      "icao": "LHBP",
      "iata": "BUD",
      "name": "Budapest Liszt Ferenc International Airport",
      "updatedAt": "060800Z",
      "visibility_m": 10000,
      "taf_visibility_m": 500,
      "worst_visibility_m": 500,
      "ceiling_ft": null,
      "hazards": [
        "SN"
      ],
      "severityScore": 53,
      "metarRaw": "METAR LHBP 060800Z 32006KT CAVOK M03/M05 Q1012 NOSIG",
      "tafRaw": "TAF LHBP 060515Z 0606/0706 34009KT 9999 BKN045 \n  BECMG 0607/0610 CAVOK \n  BECMG 0614/0617 4000 -SN BKN018 OVC035 \n  BECMG 0617/0619 2000 SN OVC015 \n  TEMPO 0618/0705 0500 +SN OVC002",
      "metarHtml": "METAR LHBP 060800Z 32006KT <span class=\"hl-vis\">CAVOK</span> M03/M05 Q1012 NOSIG",
      "tafHtml": "TAF LHBP 060515Z 0606/0706 34009KT 9999 BKN045 \n  BECMG 0607/0610 <span class=\"hl-vis\">CAVOK</span> \n  BECMG 0614/0617 4000 -<span class=\"hl\">SN</span> BKN018 OVC035 \n  BECMG 0617/0619 2000 <span class=\"hl\">SN</span> OVC015 \n  TEMPO 0618/0705 <span class=\"hl-vis\">0500</span> +<span class=\"hl\">SN</span> OVC002"
    },
    {
      "icao": "LFBD",
      "iata": "BOD",
      "name": "Bordeaux–Mérignac Airport",
      "updatedAt": "060800Z",
      "visibility_m": 10000,
      "taf_visibility_m": 1500,
      "worst_visibility_m": 1500,
      "ceiling_ft": 4600,
      "hazards": [
        "SN",
        "SHRA",
        "SHSN"
      ],
      "severityScore": 52,
      "metarRaw": "METAR LFBD 060800Z AUTO 04005KT 020V080 9999 BKN046 OVC058 M00/M03 Q1019",
      "tafRaw": "TAF LFBD 060500Z 0606/0712 03010KT 9999 BKN045 TX04/0614Z TNM03/0700Z \n  TEMPO 0606/0608 4000 -SHSN BKN030TCU \n  PROB40 \n  TEMPO 0606/0608 2000 -SN BKN004 \n  TEMPO 0608/0611 BKN005 \n  BECMG 0611/0612 36005KT NSC \n  BECMG 0618/0620 VRB03KT \n  PROB30 \n  TEMPO 0620/0702 1500 MIFG \n  TEMPO 0707/0712 3000 SHRA BKN020TCU",
      "metarHtml": "METAR LFBD 060800Z AUTO 04005KT 020V080 9999 BKN046 OVC058 M00/M03 Q1019",
      "tafHtml": "TAF LFBD 060500Z 0606/0712 03010KT 9999 BKN045 TX04/0614Z TNM03/0700Z \n  TEMPO 0606/0608 4000 -<span class=\"hl\">SHSN</span> BKN030TCU \n  PROB40 \n  TEMPO 0606/0608 2000 -<span class=\"hl\">SN</span> BKN004 \n  TEMPO 0608/0611 BKN005 \n  BECMG 0611/0612 36005KT NSC \n  BECMG 0618/0620 VRB03KT \n  PROB30 \n  TEMPO 0620/0702 1500 MIFG \n  TEMPO 0707/0712 3000 <span class=\"hl\">SHRA</span> BKN020TCU"
    },
    {
      "icao": "ESKN",
      "iata": "NYO",
      "name": "Stockholm Skavsta Airport",
      "updatedAt": "060750Z",
      "visibility_m": 3600,
      "taf_visibility_m": 1000,
      "worst_visibility_m": 1000,
      "ceiling_ft": 1400,
      "hazards": [
        "SN",
        "SHSN"
      ],
      "severityScore": 50,
      "metarRaw": "METAR ESKN 060750Z 32009KT 3600 -SN FEW007 BKN014 M05/M05 Q1009",
      "tafRaw": "TAF ESKN 060530Z 0606/0706 VRB03KT 9000 -SN SCT006 BKN030 \n  TEMPO 0606/0614 1000 SHSN BKN004 BKN020CB \n  PROB40 0614/0618 BKN007",
      "metarHtml": "METAR ESKN 060750Z 32009KT 3600 -<span class=\"hl\">SN</span> FEW007 BKN014 M05/M05 Q1009",
      "tafHtml": "TAF ESKN 060530Z 0606/0706 VRB03KT 9000 -<span class=\"hl\">SN</span> SCT006 BKN030 \n  TEMPO 0606/0614 1000 <span class=\"hl\">SHSN</span> BKN004 BKN020CB \n  PROB40 0614/0618 BKN007"
    },
    {
      "icao": "LYPG",
      "iata": "TGD",
      "name": "Podgorica Airport / Podgorica Golubovci Airbase",
      "updatedAt": "060800Z",
      "visibility_m": 4000,
      "taf_visibility_m": 2000,
      "worst_visibility_m": 2000,
      "ceiling_ft": 2600,
      "hazards": [
        "RA",
        "BR",
        "TSRA"
      ],
      "severityScore": 47,
      "metarRaw": "METAR LYPG 060800Z 27003KT 7000 -RA FEW006 SCT013 BKN026 10/10 Q1007 TEMPO 4000 RA",
      "tafRaw": "TAF LYPG 060500Z 0606/0706 14005KT 8000 RA FEW010 BKN030 OVC070 TX14/0613Z TN09/0705Z \n  TEMPO 0608/0706 15015G25KT 3000 TSRA FEW010 SCT025CB BKN034 \n  PROB30 \n  TEMPO 0606/0608 2000 BR",
      "metarHtml": "METAR LYPG 060800Z 27003KT 7000 -<span class=\"hl\">RA</span> FEW006 SCT013 BKN026 10/10 Q1007 TEMPO 4000 <span class=\"hl\">RA</span>",
      "tafHtml": "TAF LYPG 060500Z 0606/0706 14005KT 8000 <span class=\"hl\">RA</span> FEW010 BKN030 OVC070 TX14/0613Z TN09/0705Z \n  TEMPO 0608/0706 15015G25KT 3000 <span class=\"hl\">TSRA</span> FEW010 SCT025CB BKN034 \n  PROB30 \n  TEMPO 0606/0608 2000 <span class=\"hl\">BR</span>"
    },
    {
      "icao": "LRTM",
      "iata": "TGM",
      "name": "Târgu Mureş Transilvania International Airport",
      "updatedAt": "060800Z",
      "visibility_m": 1800,
      "taf_visibility_m": 1500,
      "worst_visibility_m": 1500,
      "ceiling_ft": 1000,
      "hazards": [
        "BR",
        "RA"
      ],
      "severityScore": 44,
      "metarRaw": "METAR LRTM 060800Z 26003KT 1800 -RA BR SCT006 BKN010 OVC030 01/00 Q1010",
      "tafRaw": "TAF LRTM 060500Z 0606/0615 VRB04KT 5000 BR SCT010 BKN040 \n  TEMPO 0606/0610 1500 -RA BR BKN010 BKN035",
      "metarHtml": "METAR LRTM 060800Z 26003KT 1800 -<span class=\"hl\">RA</span> <span class=\"hl\">BR</span> SCT006 BKN010 OVC030 01/00 Q1010",
      "tafHtml": "TAF LRTM 060500Z 0606/0615 VRB04KT 5000 <span class=\"hl\">BR</span> SCT010 BKN040 \n  TEMPO 0606/0610 1500 -<span class=\"hl\">RA</span> <span class=\"hl\">BR</span> BKN010 BKN035"
    },
    {
      "icao": "ESSA",
      "iata": "ARN",
      "name": "Stockholm-Arlanda Airport",
      "updatedAt": "060750Z",
      "visibility_m": 2500,
      "taf_visibility_m": 1200,
      "worst_visibility_m": 1200,
      "ceiling_ft": 1400,
      "hazards": [
        "SHSN",
        "BR"
      ],
      "severityScore": 42,
      "metarRaw": "METAR ESSA 060750Z 09008KT 9999 FEW030 SCT039 BKN040 M01/M04 Q1011 TEMPO 2500 SHSN BKN014",
      "tafRaw": "TAF ESSA 060530Z 0606/0706 09008KT 9999 SCT035 \n  TEMPO 0606/0614 1200 SHSN BKN009 BKN015CB \n  PROB40 0614/0706 2000 BR BKN004",
      "metarHtml": "METAR ESSA 060750Z 09008KT 9999 FEW030 SCT039 BKN040 M01/M04 Q1011 TEMPO 2500 <span class=\"hl\">SHSN</span> BKN014",
      "tafHtml": "TAF ESSA 060530Z 0606/0706 09008KT 9999 SCT035 \n  TEMPO 0606/0614 1200 <span class=\"hl\">SHSN</span> BKN009 BKN015CB \n  PROB40 0614/0706 2000 <span class=\"hl\">BR</span> BKN004"
    },
    {
      "icao": "EDFH",
      "iata": "HHN",
      "name": "Frankfurt-Hahn Airport",
      "updatedAt": "060750Z",
      "visibility_m": 4500,
      "taf_visibility_m": null,
      "worst_visibility_m": 4500,
      "ceiling_ft": 200,
      "hazards": [],
      "severityScore": 40,
      "metarRaw": "METAR EDFH 060750Z 27005KT 4500 OVC002 M05/M06 Q1013",
      "tafRaw": null,
      "metarHtml": "METAR EDFH 060750Z 27005KT 4500 OVC002 M05/M06 Q1013",
      "tafHtml": null
    },
    {
      "icao": "EGBB",
      "iata": "BHX",
      "name": "Birmingham Airport",
      "updatedAt": "060750Z",
      "visibility_m": 10000,
      "taf_visibility_m": null,
      "worst_visibility_m": 10000,
      "ceiling_ft": 3100,
      "hazards": [
        "FZRA"
      ],
      "severityScore": 40,
      "metarRaw": "METAR EGBB 060750Z 23007KT 9999 5000NW FZRA SCT018 BKN031 M01/M02 Q1016",
      "tafRaw": null,
      "metarHtml": "METAR EGBB 060750Z 23007KT 9999 5000NW <span class=\"hl\">FZRA</span> SCT018 BKN031 M01/M02 Q1016",
      "tafHtml": null
    },
    {
      "icao": "LJLJ",
      "iata": "LJU",
      "name": "Ljubljana Jože Pučnik Airport",
      "updatedAt": "060800Z",
      "visibility_m": 3000,
      "taf_visibility_m": 2500,
      "worst_visibility_m": 2500,
      "ceiling_ft": 1000,
      "hazards": [
        "BR",
        "SN"
      ],
      "severityScore": 40,
      "metarRaw": "METAR LJLJ 060800Z 08001KT 3000 -SN BR BKN010 OVC020 M03/M04 Q1012 NOSIG",
      "tafRaw": "TAF LJLJ 060500Z 0606/0706 VRB02KT 8000 BKN016 OVC025 \n  BECMG 0606/0608 4000 -SN BR BKN012 OVC018 \n  TEMPO 0609/0617 2500 SN BKN008 OVC015 \n  PROB30 \n  TEMPO 0610/0620 12010KT \n  BECMG 0622/0700 7000 NSW SCT012 BKN018 \n  PROB30 \n  TEMPO 0700/0706 -SN",
      "metarHtml": "METAR LJLJ 060800Z 08001KT 3000 -<span class=\"hl\">SN</span> <span class=\"hl\">BR</span> BKN010 OVC020 M03/M04 Q1012 NOSIG",
      "tafHtml": "TAF LJLJ 060500Z 0606/0706 VRB02KT 8000 BKN016 OVC025 \n  BECMG 0606/0608 4000 -<span class=\"hl\">SN</span> <span class=\"hl\">BR</span> BKN012 OVC018 \n  TEMPO 0609/0617 2500 <span class=\"hl\">SN</span> BKN008 OVC015 \n  PROB30 \n  TEMPO 0610/0620 12010KT \n  BECMG 0622/0700 7000 NSW SCT012 BKN018 \n  PROB30 \n  TEMPO 0700/0706 -<span class=\"hl\">SN</span>"
    },
    {
      "icao": "LIRF",
      "iata": "FCO",
      "name": "Rome–Fiumicino Leonardo da Vinci International Airport",
      "updatedAt": "060750Z",
      "visibility_m": 10000,
      "taf_visibility_m": 3000,
      "worst_visibility_m": 3000,
      "ceiling_ft": null,
      "hazards": [
        "TSRA",
        "SHRA"
      ],
      "severityScore": 39,
      "metarRaw": "METAR LIRF 060750Z 07007KT 9999 FEW018 10/10 Q1000 NOSIG",
      "tafRaw": "TAF LIRF 060500Z 0606/0712 05005KT 9999 SCT020 \n  TEMPO 0606/0614 3000 SHRA \n  BECMG 0606/0608 12010KT \n  PROB40 \n  TEMPO 0606/0611 3000 TSRA \n  BECMG 0610/0612 34012KT \n  BECMG 0619/0621 04006KT",
      "metarHtml": "METAR LIRF 060750Z 07007KT 9999 FEW018 10/10 Q1000 NOSIG",
      "tafHtml": "TAF LIRF 060500Z 0606/0712 05005KT 9999 SCT020 \n  TEMPO 0606/0614 3000 <span class=\"hl\">SHRA</span> \n  BECMG 0606/0608 12010KT \n  PROB40 \n  TEMPO 0606/0611 3000 <span class=\"hl\">TSRA</span> \n  BECMG 0610/0612 34012KT \n  BECMG 0619/0621 04006KT"
    },
    {
      "icao": "LIRN",
      "iata": "NAP",
      "name": "Naples International Airport",
      "updatedAt": "060750Z",
      "visibility_m": 10000,
      "taf_visibility_m": 3000,
      "worst_visibility_m": 3000,
      "ceiling_ft": null,
      "hazards": [
        "TSRA",
        "SHRA"
      ],
      "severityScore": 39,
      "metarRaw": "METAR LIRN 060750Z 11003KT 060V220 9999 FEW015 SCT055 14/12 Q1003 NOSIG",
      "tafRaw": "TAF LIRN 060500Z 0606/0706 VRB06KT 9999 SCT020 SCT050 \n  BECMG 0606/0608 18010KT \n  TEMPO 0610/0619 4000 SHRA \n  PROB40 \n  TEMPO 0616/0619 3000 TSRA \n  BECMG 0617/0619 24010KT",
      "metarHtml": "METAR LIRN 060750Z 11003KT 060V220 9999 FEW015 SCT055 14/12 Q1003 NOSIG",
      "tafHtml": "TAF LIRN 060500Z 0606/0706 VRB06KT 9999 SCT020 SCT050 \n  BECMG 0606/0608 18010KT \n  TEMPO 0610/0619 4000 <span class=\"hl\">SHRA</span> \n  PROB40 \n  TEMPO 0616/0619 3000 <span class=\"hl\">TSRA</span> \n  BECMG 0617/0619 24010KT"
    },
    {
      "icao": "ENGM",
      "iata": "OSL",
      "name": "Oslo-Gardermoen International Airport",
      "updatedAt": "060750Z",
      "visibility_m": 2700,
      "taf_visibility_m": 1400,
      "worst_visibility_m": 1400,
      "ceiling_ft": 3000,
      "hazards": [
        "BR",
        "SN"
      ],
      "severityScore": 38,
      "metarRaw": "METAR ENGM 060750Z 01006KT 2700 -SN BR SCT022 BKN030 M09/M10 Q1012 TEMPO 3500",
      "tafRaw": "TAF ENGM 060500Z 0606/0706 01009KT 8000 -SN FEW008 BKN020 \n  TEMPO 0606/0618 1400 -SN VV008",
      "metarHtml": "METAR ENGM 060750Z 01006KT 2700 -<span class=\"hl\">SN</span> <span class=\"hl\">BR</span> SCT022 BKN030 M09/M10 Q1012 TEMPO 3500",
      "tafHtml": "TAF ENGM 060500Z 0606/0706 01009KT 8000 -<span class=\"hl\">SN</span> FEW008 BKN020 \n  TEMPO 0606/0618 1400 -<span class=\"hl\">SN</span> VV008"
    },
    {
      "icao": "EYVI",
      "iata": "VNO",
      "name": "Vilnius International Airport",
      "updatedAt": "060750Z",
      "visibility_m": 3700,
      "taf_visibility_m": 1500,
      "worst_visibility_m": 1500,
      "ceiling_ft": 4300,
      "hazards": [
        "BR",
        "SN"
      ],
      "severityScore": 38,
      "metarRaw": "METAR EYVI 060750Z 10009KT 3700 -SN BR OVC043 M07/M09 Q1015 NOSIG",
      "tafRaw": "TAF EYVI 060509Z 0606/0706 VRB04KT 9000 BKN020 \n  BECMG 0606/0608 09012KT 5000 SN BR BKN005 OVC015 \n  TEMPO 0608/0615 1500 \n  BECMG 0616/0618 VRB04KT 6000 NSW SCT005 BKN015 \n  TEMPO 0621/0703 1500 BR OVC002",
      "metarHtml": "METAR EYVI 060750Z 10009KT 3700 -<span class=\"hl\">SN</span> <span class=\"hl\">BR</span> OVC043 M07/M09 Q1015 NOSIG",
      "tafHtml": "TAF EYVI 060509Z 0606/0706 VRB04KT 9000 BKN020 \n  BECMG 0606/0608 09012KT 5000 <span class=\"hl\">SN</span> <span class=\"hl\">BR</span> BKN005 OVC015 \n  TEMPO 0608/0615 1500 \n  BECMG 0616/0618 VRB04KT 6000 NSW SCT005 BKN015 \n  TEMPO 0621/0703 1500 <span class=\"hl\">BR</span> OVC002"
    },
    {
      "icao": "LATI",
      "iata": "TIA",
      "name": "Tirana International Airport Mother Teresa",
      "updatedAt": null,
      "visibility_m": null,
      "taf_visibility_m": 4000,
      "worst_visibility_m": 4000,
      "ceiling_ft": null,
      "hazards": [
        "TSRA",
        "RA"
      ],
      "severityScore": 37,
      "metarRaw": null,
      "tafRaw": "TAF LATI 060500Z 0606/0706 VRB04KT 9999 RA BKN030 OVC060 TX16/0612Z TN12/0705Z \n  BECMG 0607/0609 16012KT \n  PROB40 \n  TEMPO 0607/0611 4000 TSRA SCT025CB BKN040 \n  BECMG 0612/0614 NSW",
      "metarHtml": null,
      "tafHtml": "TAF LATI 060500Z 0606/0706 VRB04KT 9999 <span class=\"hl\">RA</span> BKN030 OVC060 TX16/0612Z TN12/0705Z \n  BECMG 0607/0609 16012KT \n  PROB40 \n  TEMPO 0607/0611 4000 <span class=\"hl\">TSRA</span> SCT025CB BKN040 \n  BECMG 0612/0614 NSW"
    },
    {
      "icao": "EDLW",
      "iata": "DTM",
      "name": "Dortmund Airport",
      "updatedAt": "060750Z",
      "visibility_m": 7000,
      "taf_visibility_m": 4000,
      "worst_visibility_m": 4000,
      "ceiling_ft": 700,
      "hazards": [
        "BR"
      ],
      "severityScore": 35,
      "metarRaw": "METAR EDLW 060750Z 23007KT 7000 OVC007 M01/M03 Q1014",
      "tafRaw": "TAF EDLW 060500Z 0606/0706 21008KT 9999 BKN012 \n  TEMPO 0606/0610 4000 BR BKN008 \n  BECMG 0610/0613 SCT015 \n  BECMG 0622/0702 19013KT",
      "metarHtml": "METAR EDLW 060750Z 23007KT 7000 OVC007 M01/M03 Q1014",
      "tafHtml": "TAF EDLW 060500Z 0606/0706 21008KT 9999 BKN012 \n  TEMPO 0606/0610 4000 <span class=\"hl\">BR</span> BKN008 \n  BECMG 0610/0613 SCT015 \n  BECMG 0622/0702 19013KT"
    },
    {
      "icao": "EDDS",
      "iata": "STR",
      "name": "Stuttgart Airport",
      "updatedAt": "060750Z",
      "visibility_m": 3500,
      "taf_visibility_m": null,
      "worst_visibility_m": 3500,
      "ceiling_ft": 3100,
      "hazards": [
        "BR",
        "SN"
      ],
      "severityScore": 33,
      "metarRaw": "METAR EDDS 060750Z AUTO VRB01KT 3500 -SN BR FEW008 BKN031 BKN038 M07/M09 Q1014 NOSIG",
      "tafRaw": null,
      "metarHtml": "METAR EDDS 060750Z AUTO VRB01KT 3500 -<span class=\"hl\">SN</span> <span class=\"hl\">BR</span> FEW008 BKN031 BKN038 M07/M09 Q1014 NOSIG",
      "tafHtml": null
    },
    {
      "icao": "EGGP",
      "iata": "LPL",
      "name": "Liverpool John Lennon Airport",
      "updatedAt": "060750Z",
      "visibility_m": 8000,
      "taf_visibility_m": 1400,
      "worst_visibility_m": 1400,
      "ceiling_ft": 2800,
      "hazards": [
        "RA",
        "SHSN"
      ],
      "severityScore": 32,
      "metarRaw": "METAR EGGP 060750Z 19003KT 150V230 8000 -RA FEW007 SCT021 BKN028 01/M00 Q1015",
      "tafRaw": "TAF EGGP 060454Z 0606/0706 31005KT 9999 FEW030 \n  TEMPO 0606/0611 6000 SHRASN BKN012 \n  PROB30 \n  TEMPO 0606/0608 1400 SHSN BKN004 \n  BECMG 0616/0619 19010KT \n  TEMPO 0616/0701 6000 RA BKN010 \n  PROB30 \n  TEMPO 0619/0623 21015G25KT 4000 +RA BKN006 \n  BECMG 0621/0624 27016KT \n  TEMPO 0623/0706 28018G28KT",
      "metarHtml": "METAR EGGP 060750Z 19003KT 150V230 8000 -<span class=\"hl\">RA</span> FEW007 SCT021 BKN028 01/M00 Q1015",
      "tafHtml": "TAF EGGP 060454Z 0606/0706 31005KT 9999 FEW030 \n  TEMPO 0606/0611 6000 SHRASN BKN012 \n  PROB30 \n  TEMPO 0606/0608 1400 <span class=\"hl\">SHSN</span> BKN004 \n  BECMG 0616/0619 19010KT \n  TEMPO 0616/0701 6000 <span class=\"hl\">RA</span> BKN010 \n  PROB30 \n  TEMPO 0619/0623 21015G25KT 4000 +<span class=\"hl\">RA</span> BKN006 \n  BECMG 0621/0624 27016KT \n  TEMPO 0623/0706 28018G28KT"
    },
    {
      "icao": "LIBD",
      "iata": "BRI",
      "name": "Bari Karol Wojtyła International Airport",
      "updatedAt": "060750Z",
      "visibility_m": 3500,
      "taf_visibility_m": 10000,
      "worst_visibility_m": 3500,
      "ceiling_ft": 1000,
      "hazards": [
        "BR",
        "DZ"
      ],
      "severityScore": 32,
      "metarRaw": "METAR LIBD 060750Z VRB02KT 3500 -DZ BR OVC010 10/10 Q1005",
      "tafRaw": "TAF LIBD 060500Z 0606/0706 30007KT 9999 BKN012 \n  BECMG 0610/0612 15010KT \n  BECMG 0622/0624 27013KT",
      "metarHtml": "METAR LIBD 060750Z VRB02KT 3500 -<span class=\"hl\">DZ</span> <span class=\"hl\">BR</span> OVC010 10/10 Q1005",
      "tafHtml": "TAF LIBD 060500Z 0606/0706 30007KT 9999 BKN012 \n  BECMG 0610/0612 15010KT \n  BECMG 0622/0624 27013KT"
    },
    {
      "icao": "EDDB",
      "iata": "BER",
      "name": "Berlin Brandenburg Airport",
      "updatedAt": "060750Z",
      "visibility_m": 10000,
      "taf_visibility_m": 4000,
      "worst_visibility_m": 4000,
      "ceiling_ft": 1200,
      "hazards": [
        "SN"
      ],
      "severityScore": 30,
      "metarRaw": "METAR EDDB 060750Z AUTO VRB02KT 9999 FEW012 BKN046 M09/M10 Q1014 TEMPO BKN012",
      "tafRaw": "TAF EDDB 060500Z 0606/0706 09004KT CAVOK \n  BECMG 0606/0609 BKN012 \n  PROB30 \n  TEMPO 0607/0611 4000 -SN BKN006 \n  BECMG 0611/0614 BKN020",
      "metarHtml": "METAR EDDB 060750Z AUTO VRB02KT 9999 FEW012 BKN046 M09/M10 Q1014 TEMPO BKN012",
      "tafHtml": "TAF EDDB 060500Z 0606/0706 09004KT <span class=\"hl-vis\">CAVOK</span> \n  BECMG 0606/0609 BKN012 \n  PROB30 \n  TEMPO 0607/0611 4000 -<span class=\"hl\">SN</span> BKN006 \n  BECMG 0611/0614 BKN020"
    },
    {
      "icao": "EDDN",
      "iata": "NUE",
      "name": "Nuremberg Airport",
      "updatedAt": "060750Z",
      "visibility_m": 4000,
      "taf_visibility_m": 4000,
      "worst_visibility_m": 4000,
      "ceiling_ft": 1700,
      "hazards": [
        "SN"
      ],
      "severityScore": 30,
      "metarRaw": "METAR EDDN 060750Z AUTO 11005KT 9999 BKN017 OVC024 M09/M11 Q1015 TEMPO 4000 -SN",
      "tafRaw": "TAF EDDN 060500Z 0606/0706 12006KT 9999 BKN020 \n  PROB30 \n  TEMPO 0606/0610 4000 -SN \n  BECMG 0607/0609 22004KT \n  PROB40 \n  TEMPO 0610/0614 BKN012",
      "metarHtml": "METAR EDDN 060750Z AUTO 11005KT 9999 BKN017 OVC024 M09/M11 Q1015 TEMPO 4000 -<span class=\"hl\">SN</span>",
      "tafHtml": "TAF EDDN 060500Z 0606/0706 12006KT 9999 BKN020 \n  PROB30 \n  TEMPO 0606/0610 4000 -<span class=\"hl\">SN</span> \n  BECMG 0607/0609 22004KT \n  PROB40 \n  TEMPO 0610/0614 BKN012"
    },
    {
      "icao": "EDSB",
      "iata": "FKB",
      "name": "Karlsruhe Baden-Baden Airport",
      "updatedAt": "060750Z",
      "visibility_m": 10000,
      "taf_visibility_m": 4000,
      "worst_visibility_m": 4000,
      "ceiling_ft": 1500,
      "hazards": [
        "SN"
      ],
      "severityScore": 30,
      "metarRaw": "METAR EDSB 060750Z 20006KT 9999 OVC015 M05/M06 Q1017",
      "tafRaw": "TAF EDSB 060500Z 0606/0706 20004KT 9999 BKN020 \n  TEMPO 0606/0607 4000 SN BKN010",
      "metarHtml": "METAR EDSB 060750Z 20006KT 9999 OVC015 M05/M06 Q1017",
      "tafHtml": "TAF EDSB 060500Z 0606/0706 20004KT 9999 BKN020 \n  TEMPO 0606/0607 4000 <span class=\"hl\">SN</span> BKN010"
    },
    {
      "icao": "EETN",
      "iata": "TLL",
      "name": "Lennart Meri Tallinn Airport",
      "updatedAt": "060750Z",
      "visibility_m": 10000,
      "taf_visibility_m": null,
      "worst_visibility_m": 10000,
      "ceiling_ft": 500,
      "hazards": [],
      "severityScore": 30,
      "metarRaw": "METAR EETN 060750Z 11012KT 9999 BKN005 M11/M13 Q1019 NOSIG",
      "tafRaw": null,
      "metarHtml": "METAR EETN 060750Z 11012KT 9999 BKN005 M11/M13 Q1019 NOSIG",
      "tafHtml": null
    },
    {
      "icao": "LFLS",
      "iata": "GNB",
      "name": "Grenoble Alpes Isère Airport",
      "updatedAt": "060800Z",
      "visibility_m": 10000,
      "taf_visibility_m": null,
      "worst_visibility_m": 10000,
      "ceiling_ft": 800,
      "hazards": [],
      "severityScore": 30,
      "metarRaw": "METAR LFLS 060800Z AUTO VRB03KT CAVOK M08/M10 Q1015 TEMPO OVC008",
      "tafRaw": null,
      "metarHtml": "METAR LFLS 060800Z AUTO VRB03KT <span class=\"hl-vis\">CAVOK</span> M08/M10 Q1015 TEMPO OVC008",
      "tafHtml": null
    },
    {
      "icao": "EPKK",
      "iata": "KRK",
      "name": "Kraków John Paul II International Airport",
      "updatedAt": "060800Z",
      "visibility_m": 7000,
      "taf_visibility_m": 4000,
      "worst_visibility_m": 4000,
      "ceiling_ft": null,
      "hazards": [
        "BR",
        "SN"
      ],
      "severityScore": 28,
      "metarRaw": "METAR EPKK 060800Z 27009KT 7000 SCT060 M04/M08 Q1013",
      "tafRaw": "TAF EPKK 060530Z 0606/0706 25010KT 9000 BKN060 \n  BECMG 0621/0624 05007KT \n  PROB40 \n  TEMPO 0700/0706 4000 -SN BR BKN009",
      "metarHtml": "METAR EPKK 060800Z 27009KT 7000 SCT060 M04/M08 Q1013",
      "tafHtml": "TAF EPKK 060530Z 0606/0706 25010KT 9000 BKN060 \n  BECMG 0621/0624 05007KT \n  PROB40 \n  TEMPO 0700/0706 4000 -<span class=\"hl\">SN</span> <span class=\"hl\">BR</span> BKN009"
    },
    {
      "icao": "EPSC",
      "iata": "SZZ",
      "name": "Solidarity Szczecin–Goleniów Airport",
      "updatedAt": "060800Z",
      "visibility_m": 10000,
      "taf_visibility_m": 4000,
      "worst_visibility_m": 4000,
      "ceiling_ft": null,
      "hazards": [
        "BR",
        "SN"
      ],
      "severityScore": 28,
      "metarRaw": "METAR EPSC 060800Z 15004KT CAVOK M06/M08 Q1013",
      "tafRaw": "TAF EPSC 060530Z 0606/0706 18006KT 9999 SCT035 \n  TEMPO 0610/0620 4000 -SN BR BKN005 BKN014 \n  TEMPO 0620/0706 4000 BR BKN004",
      "metarHtml": "METAR EPSC 060800Z 15004KT <span class=\"hl-vis\">CAVOK</span> M06/M08 Q1013",
      "tafHtml": "TAF EPSC 060530Z 0606/0706 18006KT 9999 SCT035 \n  TEMPO 0610/0620 4000 -<span class=\"hl\">SN</span> <span class=\"hl\">BR</span> BKN005 BKN014 \n  TEMPO 0620/0706 4000 <span class=\"hl\">BR</span> BKN004"
    },
    {
      "icao": "LIPZ",
      "iata": "VCE",
      "name": "Venice Marco Polo Airport",
      "updatedAt": "060750Z",
      "visibility_m": 10000,
      "taf_visibility_m": 1200,
      "worst_visibility_m": 1200,
      "ceiling_ft": null,
      "hazards": [
        "SN"
      ],
      "severityScore": 28,
      "metarRaw": "METAR LIPZ 060750Z 02008KT 9999 SCT060 02/M04 Q1009 NOSIG",
      "tafRaw": "TAF LIPZ 060500Z 0606/0712 02008KT 9999 SCT070 \n  PROB30 \n  TEMPO 0606/0615 1200 -SN OVC005 \n  BECMG 0609/0611 08014KT \n  BECMG 0615/0617 34006KT",
      "metarHtml": "METAR LIPZ 060750Z 02008KT 9999 SCT060 02/M04 Q1009 NOSIG",
      "tafHtml": "TAF LIPZ 060500Z 0606/0712 02008KT 9999 SCT070 \n  PROB30 \n  TEMPO 0606/0615 1200 -<span class=\"hl\">SN</span> OVC005 \n  BECMG 0609/0611 08014KT \n  BECMG 0615/0617 34006KT"
    },
    {
      "icao": "LQTZ",
      "iata": "TZL",
      "name": "Tuzla International Airport",
      "updatedAt": "060800Z",
      "visibility_m": 5000,
      "taf_visibility_m": null,
      "worst_visibility_m": 5000,
      "ceiling_ft": 1100,
      "hazards": [
        "BR"
      ],
      "severityScore": 27,
      "metarRaw": "METAR LQTZ 060800Z 26003KT 5000 BR OVC011 M01/M01 Q1013",
      "tafRaw": null,
      "metarHtml": "METAR LQTZ 060800Z 26003KT 5000 <span class=\"hl\">BR</span> OVC011 M01/M01 Q1013",
      "tafHtml": null
    },
    {
      "icao": "LEAL",
      "iata": "ALC",
      "name": "Alicante-Elche Miguel Hernández Airport",
      "updatedAt": "060800Z",
      "visibility_m": 10000,
      "taf_visibility_m": 3000,
      "worst_visibility_m": 3000,
      "ceiling_ft": 6000,
      "hazards": [
        "RA",
        "SHRA"
      ],
      "severityScore": 26,
      "metarRaw": "METAR LEAL 060800Z 32008KT 290V350 9999 FEW030 BKN060 06/M01 Q1012 NOSIG",
      "tafRaw": "TAF LEAL 060500Z 0606/0706 VRB04KT 9999 SCT020 TX12/0614Z TN04/0606Z \n  PROB40 \n  TEMPO 0606/0608 3000 RA SHRA BKN015 FEW020TCU \n  BECMG 0606/0608 32009KT \n  BECMG 0610/0612 20007KT \n  BECMG 0614/0616 VRB03KT \n  BECMG 0618/0620 32009KT",
      "metarHtml": "METAR LEAL 060800Z 32008KT 290V350 9999 FEW030 BKN060 06/M01 Q1012 NOSIG",
      "tafHtml": "TAF LEAL 060500Z 0606/0706 VRB04KT 9999 SCT020 TX12/0614Z TN04/0606Z \n  PROB40 \n  TEMPO 0606/0608 3000 <span class=\"hl\">RA</span> <span class=\"hl\">SHRA</span> BKN015 FEW020TCU \n  BECMG 0606/0608 32009KT \n  BECMG 0610/0612 20007KT \n  BECMG 0614/0616 VRB03KT \n  BECMG 0618/0620 32009KT"
    },
    {
      "icao": "LPMA",
      "iata": "FNC",
      "name": "Madeira International Airport Cristiano Ronaldo",
      "updatedAt": "060800Z",
      "visibility_m": 10000,
      "taf_visibility_m": 8000,
      "worst_visibility_m": 8000,
      "ceiling_ft": 1500,
      "hazards": [
        "SHRA"
      ],
      "severityScore": 26,
      "metarRaw": "METAR LPMA 060800Z 01013KT 350V050 9999 BKN015 15/08 Q1026",
      "tafRaw": "TAF LPMA 060500Z 0606/0706 02015KT 9999 SCT015 \n  TEMPO 0606/0706 01018G30KT \n  PROB40 \n  TEMPO 0606/0615 8000 SHRA BKN013 FEW018CB",
      "metarHtml": "METAR LPMA 060800Z 01013KT 350V050 9999 BKN015 15/08 Q1026",
      "tafHtml": "TAF LPMA 060500Z 0606/0706 02015KT 9999 SCT015 \n  TEMPO 0606/0706 01018G30KT \n  PROB40 \n  TEMPO 0606/0615 8000 <span class=\"hl\">SHRA</span> BKN013 FEW018CB"
    },
    {
      "icao": "EPPO",
      "iata": "POZ",
      "name": "Poznań-Ławica Airport",
      "updatedAt": "060800Z",
      "visibility_m": 1000,
      "taf_visibility_m": null,
      "worst_visibility_m": 1000,
      "ceiling_ft": null,
      "hazards": [
        "BR"
      ],
      "severityScore": 25,
      "metarRaw": "METAR EPPO 060800Z VRB01KT 1000 0250NW R28/1800N BCFG BR NSC M11/M12 Q1014",
      "tafRaw": null,
      "metarHtml": "METAR EPPO 060800Z VRB01KT 1000 0250NW R28/1800N BCFG <span class=\"hl\">BR</span> NSC M11/M12 Q1014",
      "tafHtml": null
    },
    {
      "icao": "BKPR",
      "iata": "PRN",
      "name": "Priština Adem Jashari International Airport",
      "updatedAt": "060800Z",
      "visibility_m": 5000,
      "taf_visibility_m": 4500,
      "worst_visibility_m": 4500,
      "ceiling_ft": 3500,
      "hazards": [
        "RA",
        "BR"
      ],
      "severityScore": 22,
      "metarRaw": "METAR BKPR 060800Z 20005KT 5000 -RA SCT020 BKN035 07/07 Q1010 NOSIG",
      "tafRaw": "TAF BKPR 060530Z 0606/0706 17008KT 9999 SCT020 BKN040 \n  TEMPO 0606/0612 4500 -RA BR",
      "metarHtml": "METAR BKPR 060800Z 20005KT 5000 -<span class=\"hl\">RA</span> SCT020 BKN035 07/07 Q1010 NOSIG",
      "tafHtml": "TAF BKPR 060530Z 0606/0706 17008KT 9999 SCT020 BKN040 \n  TEMPO 0606/0612 4500 -<span class=\"hl\">RA</span> <span class=\"hl\">BR</span>"
    },
    {
      "icao": "LPPR",
      "iata": "OPO",
      "name": "Francisco de Sá Carneiro Airport",
      "updatedAt": "060800Z",
      "visibility_m": 10000,
      "taf_visibility_m": 2000,
      "worst_visibility_m": 2000,
      "ceiling_ft": null,
      "hazards": [
        "BR",
        "RA"
      ],
      "severityScore": 22,
      "metarRaw": "METAR LPPR 060800Z 03008KT 320V080 CAVOK 03/00 Q1023",
      "tafRaw": "TAF LPPR 060500Z 0606/0706 01008KT CAVOK \n  BECMG 0622/0624 15010KT 8000 -RA SCT015 BKN025 \n  TEMPO 0700/0706 2000 RA BR SCT004 BKN008",
      "metarHtml": "METAR LPPR 060800Z 03008KT 320V080 <span class=\"hl-vis\">CAVOK</span> 03/00 Q1023",
      "tafHtml": "TAF LPPR 060500Z 0606/0706 01008KT <span class=\"hl-vis\">CAVOK</span> \n  BECMG 0622/0624 15010KT 8000 -<span class=\"hl\">RA</span> SCT015 BKN025 \n  TEMPO 0700/0706 2000 <span class=\"hl\">RA</span> <span class=\"hl\">BR</span> SCT004 BKN008"
    },
    {
      "icao": "LRCL",
      "iata": "CLJ",
      "name": "Cluj Avram Iancu International Airport",
      "updatedAt": "060800Z",
      "visibility_m": 8000,
      "taf_visibility_m": 3000,
      "worst_visibility_m": 3000,
      "ceiling_ft": 1200,
      "hazards": [
        "BR"
      ],
      "severityScore": 22,
      "metarRaw": "METAR LRCL 060800Z COR 28005KT 8000 OVC012 02/00 Q1010",
      "tafRaw": "TAF LRCL 060500Z 0606/0615 VRB04KT 5000 BR SCT010 OVC045 \n  TEMPO 0606/0609 3000 BR BKN010 OVC040",
      "metarHtml": "METAR LRCL 060800Z COR 28005KT 8000 OVC012 02/00 Q1010",
      "tafHtml": "TAF LRCL 060500Z 0606/0615 VRB04KT 5000 <span class=\"hl\">BR</span> SCT010 OVC045 \n  TEMPO 0606/0609 3000 <span class=\"hl\">BR</span> BKN010 OVC040"
    },
    {
      "icao": "ENZV",
      "iata": "SVG",
      "name": "Stavanger Airport, Sola",
      "updatedAt": "060750Z",
      "visibility_m": 10000,
      "taf_visibility_m": 1200,
      "worst_visibility_m": 1200,
      "ceiling_ft": 3200,
      "hazards": [
        "SHSN"
      ],
      "severityScore": 20,
      "metarRaw": "METAR ENZV 060750Z 00000KT 9999 -SHSN OVC032 M03/M05 Q1010 NOSIG",
      "tafRaw": "TAF ENZV 060500Z 0606/0706 06008KT 9999 FEW010 BKN035 \n  TEMPO 0606/0608 1200 SHSN BKN009 SCT018CB",
      "metarHtml": "METAR ENZV 060750Z 00000KT 9999 -<span class=\"hl\">SHSN</span> OVC032 M03/M05 Q1010 NOSIG",
      "tafHtml": "TAF ENZV 060500Z 0606/0706 06008KT 9999 FEW010 BKN035 \n  TEMPO 0606/0608 1200 <span class=\"hl\">SHSN</span> BKN009 SCT018CB"
    },
    {
      "icao": "EFTU",
      "iata": "TKU",
      "name": "Turku Airport",
      "updatedAt": "060750Z",
      "visibility_m": 10000,
      "taf_visibility_m": 4000,
      "worst_visibility_m": 4000,
      "ceiling_ft": 2200,
      "hazards": [
        "SN"
      ],
      "severityScore": 18,
      "metarRaw": "METAR EFTU 060750Z AUTO 09008KT 9999 OVC022 M09/M12 Q1018",
      "tafRaw": "TAF EFTU 060525Z 0606/0706 10007KT CAVOK \n  BECMG 0614/0615 4000 -SN BKN013 \n  TEMPO 0615/0622 8000 BKN025 \n  BECMG 0622/0624 9999 BKN025 \n  TEMPO 0700/0706 7000",
      "metarHtml": "METAR EFTU 060750Z AUTO 09008KT 9999 OVC022 M09/M12 Q1018",
      "tafHtml": "TAF EFTU 060525Z 0606/0706 10007KT <span class=\"hl-vis\">CAVOK</span> \n  BECMG 0614/0615 4000 -<span class=\"hl\">SN</span> BKN013 \n  TEMPO 0615/0622 8000 BKN025 \n  BECMG 0622/0624 9999 BKN025 \n  TEMPO 0700/0706 7000"
    },
    {
      "icao": "LOWW",
      "iata": "VIE",
      "name": "Vienna International Airport",
      "updatedAt": "060750Z",
      "visibility_m": 10000,
      "taf_visibility_m": 10000,
      "worst_visibility_m": 10000,
      "ceiling_ft": null,
      "hazards": [
        "SN"
      ],
      "severityScore": 18,
      "metarRaw": "METAR LOWW 060750Z 31010KT CAVOK M03/M10 Q1015 NOSIG",
      "tafRaw": "TAF LOWW 060815Z 0609/0715 32012KT 9999 FEW050 TXM02/0613Z TNM04/0707Z \n  TEMPO 0610/0615 32015G25KT \n  PROB30 \n  TEMPO 0613/0617 -SN \n  TEMPO 0623/0715 33015G25KT",
      "metarHtml": "METAR LOWW 060750Z 31010KT <span class=\"hl-vis\">CAVOK</span> M03/M10 Q1015 NOSIG",
      "tafHtml": "TAF LOWW 060815Z 0609/0715 32012KT 9999 FEW050 TXM02/0613Z TNM04/0707Z \n  TEMPO 0610/0615 32015G25KT \n  PROB30 \n  TEMPO 0613/0617 -<span class=\"hl\">SN</span> \n  TEMPO 0623/0715 33015G25KT"
    },
    {
      "icao": "LZIB",
      "iata": "BTS",
      "name": "M. R. Štefánik Airport",
      "updatedAt": "060800Z",
      "visibility_m": 10000,
      "taf_visibility_m": 4000,
      "worst_visibility_m": 4000,
      "ceiling_ft": null,
      "hazards": [
        "SN"
      ],
      "severityScore": 18,
      "metarRaw": "METAR LZIB 060800Z 32012KT 290V350 CAVOK M02/M10 Q1014 NOSIG",
      "tafRaw": "TAF LZIB 060515Z 0606/0706 31015KT CAVOK \n  BECMG 0609/0611 35006KT BKN035 \n  TEMPO 0617/0619 4000 -SN FEW015 BKN020",
      "metarHtml": "METAR LZIB 060800Z 32012KT 290V350 <span class=\"hl-vis\">CAVOK</span> M02/M10 Q1014 NOSIG",
      "tafHtml": "TAF LZIB 060515Z 0606/0706 31015KT <span class=\"hl-vis\">CAVOK</span> \n  BECMG 0609/0611 35006KT BKN035 \n  TEMPO 0617/0619 4000 -<span class=\"hl\">SN</span> FEW015 BKN020"
    },
    {
      "icao": "EGPF",
      "iata": "GLA",
      "name": "Glasgow Airport",
      "updatedAt": "060750Z",
      "visibility_m": 9000,
      "taf_visibility_m": null,
      "worst_visibility_m": 9000,
      "ceiling_ft": 2800,
      "hazards": [
        "RA"
      ],
      "severityScore": 17,
      "metarRaw": "METAR EGPF 060750Z VRB02KT 9000 -RA SCT019 BKN028 M02/M03 Q1010",
      "tafRaw": null,
      "metarHtml": "METAR EGPF 060750Z VRB02KT 9000 -<span class=\"hl\">RA</span> SCT019 BKN028 M02/M03 Q1010",
      "tafHtml": null
    },
    {
      "icao": "ENTO",
      "iata": "TRF",
      "name": "Sandefjord Airport, Torp",
      "updatedAt": "060750Z",
      "visibility_m": 10000,
      "taf_visibility_m": null,
      "worst_visibility_m": 10000,
      "ceiling_ft": 1200,
      "hazards": [],
      "severityScore": 17,
      "metarRaw": "METAR ENTO 060750Z 34009KT 9999 OVC012 M09/M11 Q1012 NOSIG",
      "tafRaw": null,
      "metarHtml": "METAR ENTO 060750Z 34009KT 9999 OVC012 M09/M11 Q1012 NOSIG",
      "tafHtml": null
    },
    {
      "icao": "LEBB",
      "iata": "BIO",
      "name": "Bilbao Airport",
      "updatedAt": "060800Z",
      "visibility_m": 9000,
      "taf_visibility_m": null,
      "worst_visibility_m": 9000,
      "ceiling_ft": 4100,
      "hazards": [
        "RA"
      ],
      "severityScore": 17,
      "metarRaw": "METAR LEBB 060800Z 32016G30KT 9000 -RA SCT028 BKN041 OVC050 06/00 Q1019 NOSIG",
      "tafRaw": null,
      "metarHtml": "METAR LEBB 060800Z 32016G30KT 9000 -<span class=\"hl\">RA</span> SCT028 BKN041 OVC050 06/00 Q1019 NOSIG",
      "tafHtml": null
    },
    {
      "icao": "EPGD",
      "iata": "GDN",
      "name": "Gdańsk Lech Wałęsa Airport",
      "updatedAt": "060800Z",
      "visibility_m": 1700,
      "taf_visibility_m": null,
      "worst_visibility_m": 1700,
      "ceiling_ft": null,
      "hazards": [
        "BR"
      ],
      "severityScore": 15,
      "metarRaw": "METAR EPGD 060800Z 27002KT 1700 BR NSC M07/M08 Q1012",
      "tafRaw": null,
      "metarHtml": "METAR EPGD 060800Z 27002KT 1700 <span class=\"hl\">BR</span> NSC M07/M08 Q1012",
      "tafHtml": null
    },
    {
      "icao": "LFMN",
      "iata": "NCE",
      "name": "Nice-Côte d'Azur Airport",
      "updatedAt": "060800Z",
      "visibility_m": 10000,
      "taf_visibility_m": 10000,
      "worst_visibility_m": 10000,
      "ceiling_ft": null,
      "hazards": [
        "SHRA"
      ],
      "severityScore": 14,
      "metarRaw": "METAR LFMN 060800Z 34010KT 9999 FEW033 04/M03 Q1005 NOSIG",
      "tafRaw": "TAF LFMN 060200Z 0603/0709 32010KT 9999 FEW045 BKN150 \n  BECMG 0611/0614 19005KT \n  PROB40 \n  TEMPO 0620/0624 04020G30KT -SHRA BKN040TCU \n  BECMG 0623/0624 33015KT",
      "metarHtml": "METAR LFMN 060800Z 34010KT 9999 FEW033 04/M03 Q1005 NOSIG",
      "tafHtml": "TAF LFMN 060200Z 0603/0709 32010KT 9999 FEW045 BKN150 \n  BECMG 0611/0614 19005KT \n  PROB40 \n  TEMPO 0620/0624 04020G30KT -<span class=\"hl\">SHRA</span> BKN040TCU \n  BECMG 0623/0624 33015KT"
    },
    {
      "icao": "LICJ",
      "iata": "PMO",
      "name": "Falcone–Borsellino Airport",
      "updatedAt": "060750Z",
      "visibility_m": 10000,
      "taf_visibility_m": 4000,
      "worst_visibility_m": 4000,
      "ceiling_ft": null,
      "hazards": [
        "SHRA"
      ],
      "severityScore": 14,
      "metarRaw": "METAR LICJ 060750Z 19017KT CAVOK 18/11 Q1002",
      "tafRaw": "TAF LICJ 060500Z 0606/0706 21016KT 9999 FEW030 \n  TEMPO 0609/0615 21020G30KT \n  TEMPO 0700/0706 4000 SHRA",
      "metarHtml": "METAR LICJ 060750Z 19017KT <span class=\"hl-vis\">CAVOK</span> 18/11 Q1002",
      "tafHtml": "TAF LICJ 060500Z 0606/0706 21016KT 9999 FEW030 \n  TEMPO 0609/0615 21020G30KT \n  TEMPO 0700/0706 4000 <span class=\"hl\">SHRA</span>"
    },
    {
      "icao": "LPPS",
      "iata": "PXO",
      "name": "Porto Santo Airport",
      "updatedAt": "060800Z",
      "visibility_m": 10000,
      "taf_visibility_m": 8000,
      "worst_visibility_m": 8000,
      "ceiling_ft": null,
      "hazards": [
        "SHRA"
      ],
      "severityScore": 14,
      "metarRaw": "METAR LPPS 060800Z 03013KT 360V070 9999 SCT015 15/09 Q1026",
      "tafRaw": "TAF LPPS 060500Z 0606/0712 03013KT 9999 SCT015 SCT030 \n  TEMPO 0606/0712 03017G27KT \n  PROB40 \n  TEMPO 0606/0612 8000 SHRA BKN013 FEW018CB",
      "metarHtml": "METAR LPPS 060800Z 03013KT 360V070 9999 SCT015 15/09 Q1026",
      "tafHtml": "TAF LPPS 060500Z 0606/0712 03013KT 9999 SCT015 SCT030 \n  TEMPO 0606/0712 03017G27KT \n  PROB40 \n  TEMPO 0606/0612 8000 <span class=\"hl\">SHRA</span> BKN013 FEW018CB"
    },
    {
      "icao": "LTFM",
      "iata": "IST",
      "name": "İstanbul Airport",
      "updatedAt": "060750Z",
      "visibility_m": 10000,
      "taf_visibility_m": 10000,
      "worst_visibility_m": 10000,
      "ceiling_ft": 10000,
      "hazards": [
        "SHRA"
      ],
      "severityScore": 14,
      "metarRaw": "METAR LTFM 060750Z 20016KT 9999 FEW035 BKN100 15/06 Q1015 NOSIG RMK RWY17L 19015KT RWY34L 19014KT RWY16R 20012KT RWY36 19016KT RWY18 20018KT",
      "tafRaw": "TAF LTFM 060440Z 0606/0712 19012KT 9999 SCT040 BKN090 \n  TEMPO 0606/0609 19015G25KT -SHRA \n  PROB30 \n  TEMPO 0616/0619 -SHRA \n  BECMG 0705/0708 19022G35KT",
      "metarHtml": "METAR LTFM 060750Z 20016KT 9999 FEW035 BKN100 15/06 Q1015 NOSIG RMK RWY17L 19015KT RWY34L 19014KT RWY16R 20012KT RWY36 19016KT RWY18 20018KT",
      "tafHtml": "TAF LTFM 060440Z 0606/0712 19012KT 9999 SCT040 BKN090 \n  TEMPO 0606/0609 19015G25KT -<span class=\"hl\">SHRA</span> \n  PROB30 \n  TEMPO 0616/0619 -<span class=\"hl\">SHRA</span> \n  BECMG 0705/0708 19022G35KT"
    },
    {
      "icao": "GMMN",
      "iata": "CMN",
      "name": "Mohammed V International Airport",
      "updatedAt": "060800Z",
      "visibility_m": 10000,
      "taf_visibility_m": 5000,
      "worst_visibility_m": 5000,
      "ceiling_ft": 2000,
      "hazards": [
        "RA"
      ],
      "severityScore": 12,
      "metarRaw": "METAR GMMN 060800Z 22005KT 180V260 9999 BKN020 FEW030TCU 08/06 Q1019 RERA NOSIG",
      "tafRaw": "TAF GMMN 060500Z 0606/0712 25006KT 9999 BKN030 \n  PROB40 \n  TEMPO 0608/0614 23011KT 5000 RA BKN013 BKN020 \n  TEMPO 0614/0618 32011KT",
      "metarHtml": "METAR GMMN 060800Z 22005KT 180V260 9999 BKN020 FEW030TCU 08/06 Q1019 RERA NOSIG",
      "tafHtml": "TAF GMMN 060500Z 0606/0712 25006KT 9999 BKN030 \n  PROB40 \n  TEMPO 0608/0614 23011KT 5000 <span class=\"hl\">RA</span> BKN013 BKN020 \n  TEMPO 0614/0618 32011KT"
    },
    {
      "icao": "EDNY",
      "iata": "FDH",
      "name": "Friedrichshafen Airport",
      "updatedAt": "060750Z",
      "visibility_m": 10000,
      "taf_visibility_m": 10000,
      "worst_visibility_m": 10000,
      "ceiling_ft": 1200,
      "hazards": [],
      "severityScore": 12,
      "metarRaw": "METAR EDNY 060750Z COR 03003KT 9999 OVC012 M07/M09 Q1015",
      "tafRaw": "TAF EDNY 060500Z 0606/0615 VRB03KT 9999 OVC012 \n  TEMPO 0606/0610 BKN008 \n  BECMG 0612/0614 OVC020",
      "metarHtml": "METAR EDNY 060750Z COR 03003KT 9999 OVC012 M07/M09 Q1015",
      "tafHtml": "TAF EDNY 060500Z 0606/0615 VRB03KT 9999 OVC012 \n  TEMPO 0606/0610 BKN008 \n  BECMG 0612/0614 OVC020"
    },
    {
      "icao": "EGGW",
      "iata": "LTN",
      "name": "London Luton Airport",
      "updatedAt": "060750Z",
      "visibility_m": 10000,
      "taf_visibility_m": 3000,
      "worst_visibility_m": 3000,
      "ceiling_ft": null,
      "hazards": [
        "RA"
      ],
      "severityScore": 12,
      "metarRaw": "METAR EGGW 060750Z AUTO 24005KT 9999 FEW044 M04/M05 Q1016",
      "tafRaw": "TAF EGGW 060503Z 0606/0706 26007KT CAVOK \n  TEMPO 0611/0617 FEW012 BKN030 \n  PROB30 \n  TEMPO 0611/0614 BKN012 \n  BECMG 0617/0620 20017G27KT FEW012 BKN030 \n  TEMPO 0620/0702 6000 RA BKN010 \n  PROB30 \n  TEMPO 0622/0702 3000 +RA BKN004 \n  BECMG 0701/0704 28012KT \n  PROB30 0702/0706 8000 BKN008",
      "metarHtml": "METAR EGGW 060750Z AUTO 24005KT 9999 FEW044 M04/M05 Q1016",
      "tafHtml": "TAF EGGW 060503Z 0606/0706 26007KT <span class=\"hl-vis\">CAVOK</span> \n  TEMPO 0611/0617 FEW012 BKN030 \n  PROB30 \n  TEMPO 0611/0614 BKN012 \n  BECMG 0617/0620 20017G27KT FEW012 BKN030 \n  TEMPO 0620/0702 6000 <span class=\"hl\">RA</span> BKN010 \n  PROB30 \n  TEMPO 0622/0702 3000 +<span class=\"hl\">RA</span> BKN004 \n  BECMG 0701/0704 28012KT \n  PROB30 0702/0706 8000 BKN008"
    },
    {
      "icao": "EGKK",
      "iata": "LGW",
      "name": "London Gatwick Airport",
      "updatedAt": "060750Z",
      "visibility_m": 10000,
      "taf_visibility_m": 4000,
      "worst_visibility_m": 4000,
      "ceiling_ft": null,
      "hazards": [
        "RA"
      ],
      "severityScore": 12,
      "metarRaw": "METAR EGKK 060750Z 18002KT CAVOK M06/M06 Q1018",
      "tafRaw": "TAF EGKK 060455Z 0606/0712 24005KT CAVOK \n  PROB30 \n  TEMPO 0612/0615 6000 BKN007 \n  PROB30 \n  TEMPO 0615/0619 6000 \n  BECMG 0619/0622 23015G25KT \n  TEMPO 0622/0704 7000 -RA BKN012 \n  PROB30 \n  TEMPO 0623/0702 4000 +RA RADZ BKN006 \n  BECMG 0701/0704 27010KT \n  PROB30 \n  TEMPO 0702/0704 SCT004 BKN006",
      "metarHtml": "METAR EGKK 060750Z 18002KT <span class=\"hl-vis\">CAVOK</span> M06/M06 Q1018",
      "tafHtml": "TAF EGKK 060455Z 0606/0712 24005KT <span class=\"hl-vis\">CAVOK</span> \n  PROB30 \n  TEMPO 0612/0615 6000 BKN007 \n  PROB30 \n  TEMPO 0615/0619 6000 \n  BECMG 0619/0622 23015G25KT \n  TEMPO 0622/0704 7000 -<span class=\"hl\">RA</span> BKN012 \n  PROB30 \n  TEMPO 0623/0702 4000 +<span class=\"hl\">RA</span> RADZ BKN006 \n  BECMG 0701/0704 27010KT \n  PROB30 \n  TEMPO 0702/0704 SCT004 BKN006"
    },
    {
      "icao": "EGNM",
      "iata": "LBA",
      "name": "Leeds Bradford Airport",
      "updatedAt": "060750Z",
      "visibility_m": 10000,
      "taf_visibility_m": 3000,
      "worst_visibility_m": 3000,
      "ceiling_ft": null,
      "hazards": [
        "RA"
      ],
      "severityScore": 12,
      "metarRaw": "METAR EGNM 060750Z 23008KT 9999 SCT023 M01/M03 Q1013",
      "tafRaw": "TAF EGNM 060454Z 0606/0706 27009KT 9999 FEW040 \n  PROB40 \n  TEMPO 0606/0615 BKN008 \n  BECMG 0615/0618 21012KT \n  TEMPO 0615/0624 6000 -RASN BKN008 \n  PROB30 \n  TEMPO 0616/0622 3000 RASN BKN004 \n  BECMG 0621/0624 27006KT \n  PROB30 \n  TEMPO 0700/0703 6000 RA BKN010",
      "metarHtml": "METAR EGNM 060750Z 23008KT 9999 SCT023 M01/M03 Q1013",
      "tafHtml": "TAF EGNM 060454Z 0606/0706 27009KT 9999 FEW040 \n  PROB40 \n  TEMPO 0606/0615 BKN008 \n  BECMG 0615/0618 21012KT \n  TEMPO 0615/0624 6000 -RASN BKN008 \n  PROB30 \n  TEMPO 0616/0622 3000 RASN BKN004 \n  BECMG 0621/0624 27006KT \n  PROB30 \n  TEMPO 0700/0703 6000 <span class=\"hl\">RA</span> BKN010"
    },
    {
      "icao": "LBSF",
      "iata": "SOF",
      "name": "Sofia Airport",
      "updatedAt": "060800Z",
      "visibility_m": 10000,
      "taf_visibility_m": 5000,
      "worst_visibility_m": 5000,
      "ceiling_ft": 6800,
      "hazards": [
        "RA"
      ],
      "severityScore": 12,
      "metarRaw": "METAR LBSF 060800Z VRB03KT 9999 FEW049 BKN068 09/05 Q1010 NOSIG",
      "tafRaw": "TAF LBSF 060500Z 0606/0706 10012KT 9999 SCT040 BKN060 \n  PROB40 \n  TEMPO 0606/0609 21015G25KT 5000 RA SCT030 BKN050 \n  TEMPO 0609/0615 5000 RA SCT020 BKN040",
      "metarHtml": "METAR LBSF 060800Z VRB03KT 9999 FEW049 BKN068 09/05 Q1010 NOSIG",
      "tafHtml": "TAF LBSF 060500Z 0606/0706 10012KT 9999 SCT040 BKN060 \n  PROB40 \n  TEMPO 0606/0609 21015G25KT 5000 <span class=\"hl\">RA</span> SCT030 BKN050 \n  TEMPO 0609/0615 5000 <span class=\"hl\">RA</span> SCT020 BKN040"
    },
    {
      "icao": "LGTS",
      "iata": "SKG",
      "name": "Thessaloniki Macedonia International Airport",
      "updatedAt": "060750Z",
      "visibility_m": 10000,
      "taf_visibility_m": 5000,
      "worst_visibility_m": 5000,
      "ceiling_ft": null,
      "hazards": [
        "RA"
      ],
      "severityScore": 12,
      "metarRaw": "METAR LGTS 060750Z 11007KT 9999 FEW020 SCT035 15/11 Q1012 NOSIG",
      "tafRaw": "TAF LGTS 060500Z 0606/0706 14010KT 9999 SCT030 \n  PROB30 \n  TEMPO 0610/0624 5000 RA",
      "metarHtml": "METAR LGTS 060750Z 11007KT 9999 FEW020 SCT035 15/11 Q1012 NOSIG",
      "tafHtml": "TAF LGTS 060500Z 0606/0706 14010KT 9999 SCT030 \n  PROB30 \n  TEMPO 0610/0624 5000 <span class=\"hl\">RA</span>"
    },
    {
      "icao": "LIBP",
      "iata": "PSR",
      "name": "Abruzzo Airport",
      "updatedAt": "060750Z",
      "visibility_m": 9000,
      "taf_visibility_m": 4000,
      "worst_visibility_m": 4000,
      "ceiling_ft": null,
      "hazards": [
        "RA"
      ],
      "severityScore": 12,
      "metarRaw": "METAR LIBP 060750Z AUTO VRB01KT 9000 RA OVC012/// 07/07 Q1006",
      "tafRaw": "TAF LIBP 060500Z 0606/0706 VRB05KT 4000 RA OVC005 \n  BECMG 0615/0618 34010KT 6000 NSW SCT030 \n  TEMPO 0621/0624 4000 -RA",
      "metarHtml": "METAR LIBP 060750Z AUTO VRB01KT 9000 <span class=\"hl\">RA</span> OVC012/// 07/07 Q1006",
      "tafHtml": "TAF LIBP 060500Z 0606/0706 VRB05KT 4000 <span class=\"hl\">RA</span> OVC005 \n  BECMG 0615/0618 34010KT 6000 NSW SCT030 \n  TEMPO 0621/0624 4000 -<span class=\"hl\">RA</span>"
    },
    {
      "icao": "LIPY",
      "iata": "AOI",
      "name": "Marche Airport",
      "updatedAt": "060750Z",
      "visibility_m": 8000,
      "taf_visibility_m": 2000,
      "worst_visibility_m": 2000,
      "ceiling_ft": null,
      "hazards": [
        "RA"
      ],
      "severityScore": 12,
      "metarRaw": "METAR LIPY 060750Z AUTO 25004KT 8000 -RA OVC007/// 02/02 Q1007",
      "tafRaw": "TAF LIPY 060500Z 0606/0706 VRB05KT 4000 RA BKN010 \n  BECMG 0606/0608 32015KT \n  TEMPO 0611/0616 2000 RASN OVC004 \n  BECMG 0618/0621 7000 NSW",
      "metarHtml": "METAR LIPY 060750Z AUTO 25004KT 8000 -<span class=\"hl\">RA</span> OVC007/// 02/02 Q1007",
      "tafHtml": "TAF LIPY 060500Z 0606/0706 VRB05KT 4000 <span class=\"hl\">RA</span> BKN010 \n  BECMG 0606/0608 32015KT \n  TEMPO 0611/0616 2000 RASN OVC004 \n  BECMG 0618/0621 7000 NSW"
    },
    {
      "icao": "LIRP",
      "iata": "PSA",
      "name": "Pisa International Airport",
      "updatedAt": "060745Z",
      "visibility_m": 8000,
      "taf_visibility_m": 10000,
      "worst_visibility_m": 8000,
      "ceiling_ft": 4000,
      "hazards": [
        "RA"
      ],
      "severityScore": 12,
      "metarRaw": "METAR LIRP 060745Z 12012KT 8000 -RA BKN040 SCT070 04/02 Q1005 NOSIG",
      "tafRaw": "TAF LIRP 060500Z 0606/0706 12005KT 9999 FEW030 \n  PROB30 \n  TEMPO 0608/0610 RA BKN040",
      "metarHtml": "METAR LIRP 060745Z 12012KT 8000 -<span class=\"hl\">RA</span> BKN040 SCT070 04/02 Q1005 NOSIG",
      "tafHtml": "TAF LIRP 060500Z 0606/0706 12005KT 9999 FEW030 \n  PROB30 \n  TEMPO 0608/0610 <span class=\"hl\">RA</span> BKN040"
    },
    {
      "icao": "LIRZ",
      "iata": "PEG",
      "name": "Perugia San Francesco d'Assisi – Umbria International Airport",
      "updatedAt": "060750Z",
      "visibility_m": 10000,
      "taf_visibility_m": 6000,
      "worst_visibility_m": 6000,
      "ceiling_ft": null,
      "hazards": [
        "RA"
      ],
      "severityScore": 12,
      "metarRaw": "METAR LIRZ 060750Z AUTO 35010KT 9999 BKN029/// BKN069/// 05/03 Q1002",
      "tafRaw": "TAF LIRZ 060500Z 0606/0706 01010KT 6000 RA BKN020 \n  BECMG 0614/0616 NSW",
      "metarHtml": "METAR LIRZ 060750Z AUTO 35010KT 9999 BKN029/// BKN069/// 05/03 Q1002",
      "tafHtml": "TAF LIRZ 060500Z 0606/0706 01010KT 6000 <span class=\"hl\">RA</span> BKN020 \n  BECMG 0614/0616 NSW"
    },
    {
      "icao": "LPPT",
      "iata": "LIS",
      "name": "Lisbon Humberto Delgado Airport",
      "updatedAt": "060800Z",
      "visibility_m": 10000,
      "taf_visibility_m": 5000,
      "worst_visibility_m": 5000,
      "ceiling_ft": null,
      "hazards": [
        "RA"
      ],
      "severityScore": 12,
      "metarRaw": "METAR LPPT 060800Z 32008KT 290V350 9999 FEW030 07/04 Q1022",
      "tafRaw": "TAF LPPT 060500Z 0606/0712 36010KT CAVOK \n  BECMG 0610/0612 34015KT \n  PROB40 \n  TEMPO 0612/0618 35018G30KT \n  BECMG 0622/0624 VRB02KT 9999 FEW018 BKN030 \n  TEMPO 0702/0709 5000 RA BKN012 \n  BECMG 0704/0706 18007KT \n  BECMG 0710/0712 36008KT",
      "metarHtml": "METAR LPPT 060800Z 32008KT 290V350 9999 FEW030 07/04 Q1022",
      "tafHtml": "TAF LPPT 060500Z 0606/0712 36010KT <span class=\"hl-vis\">CAVOK</span> \n  BECMG 0610/0612 34015KT \n  PROB40 \n  TEMPO 0612/0618 35018G30KT \n  BECMG 0622/0624 VRB02KT 9999 FEW018 BKN030 \n  TEMPO 0702/0709 5000 <span class=\"hl\">RA</span> BKN012 \n  BECMG 0704/0706 18007KT \n  BECMG 0710/0712 36008KT"
    },
    {
      "icao": "LWOH",
      "iata": "OHD",
      "name": "Ohrid St. Paul the Apostle Airport",
      "updatedAt": null,
      "visibility_m": null,
      "taf_visibility_m": 10000,
      "worst_visibility_m": 10000,
      "ceiling_ft": null,
      "hazards": [
        "RA"
      ],
      "severityScore": 12,
      "metarRaw": null,
      "tafRaw": "TAF LWOH 060545Z 0606/0706 VRB02KT 9999 -RA SCT020 OVC040 \n  BECMG 0607/0609 17012KT",
      "metarHtml": null,
      "tafHtml": "TAF LWOH 060545Z 0606/0706 VRB02KT 9999 -<span class=\"hl\">RA</span> SCT020 OVC040 \n  BECMG 0607/0609 17012KT"
    },
    {
      "icao": "LWSK",
      "iata": "SKP",
      "name": "Skopje International Airport",
      "updatedAt": null,
      "visibility_m": null,
      "taf_visibility_m": 10000,
      "worst_visibility_m": 10000,
      "ceiling_ft": null,
      "hazards": [
        "RA"
      ],
      "severityScore": 12,
      "metarRaw": null,
      "tafRaw": "TAF LWSK 060545Z 0606/0706 VRB02KT 9999 BKN045 BKN075 \n  TEMPO 0607/0612 -RA BKN035 OVC060 \n  TEMPO 0611/0618 17012KT",
      "metarHtml": null,
      "tafHtml": "TAF LWSK 060545Z 0606/0706 VRB02KT 9999 BKN045 BKN075 \n  TEMPO 0607/0612 -<span class=\"hl\">RA</span> BKN035 OVC060 \n  TEMPO 0611/0618 17012KT"
    },
    {
      "icao": "EPSY",
      "iata": "SZY",
      "name": "Olsztyn-Mazury Airport",
      "updatedAt": "060800Z",
      "visibility_m": 6000,
      "taf_visibility_m": 4000,
      "worst_visibility_m": 4000,
      "ceiling_ft": 2500,
      "hazards": [
        "BR"
      ],
      "severityScore": 10,
      "metarRaw": "METAR EPSY 060800Z 24001KT 6000 BKN025 M08/M09 Q1013",
      "tafRaw": "TAF EPSY 060530Z 0606/0615 VRB02KT 8000 BKN030 \n  PROB40 \n  TEMPO 0606/0608 4000 BR BKN010",
      "metarHtml": "METAR EPSY 060800Z 24001KT 6000 BKN025 M08/M09 Q1013",
      "tafHtml": "TAF EPSY 060530Z 0606/0615 VRB02KT 8000 BKN030 \n  PROB40 \n  TEMPO 0606/0608 4000 <span class=\"hl\">BR</span> BKN010"
    },
    {
      "icao": "LKPR",
      "iata": "PRG",
      "name": "Václav Havel Airport Prague",
      "updatedAt": "060800Z",
      "visibility_m": 10000,
      "taf_visibility_m": 5000,
      "worst_visibility_m": 5000,
      "ceiling_ft": null,
      "hazards": [
        "BR"
      ],
      "severityScore": 10,
      "metarRaw": "METAR LKPR 060800Z 20007KT CAVOK M09/M11 Q1014 NOSIG",
      "tafRaw": "TAF LKPR 060500Z 0606/0712 21008KT CAVOK \n  TEMPO 0622/0708 5000 BR NSC",
      "metarHtml": "METAR LKPR 060800Z 20007KT <span class=\"hl-vis\">CAVOK</span> M09/M11 Q1014 NOSIG",
      "tafHtml": "TAF LKPR 060500Z 0606/0712 21008KT <span class=\"hl-vis\">CAVOK</span> \n  TEMPO 0622/0708 5000 <span class=\"hl\">BR</span> NSC"
    },
    {
      "icao": "LLBG",
      "iata": "TLV",
      "name": "Ben Gurion International Airport",
      "updatedAt": "060750Z",
      "visibility_m": 10000,
      "taf_visibility_m": 5000,
      "worst_visibility_m": 5000,
      "ceiling_ft": null,
      "hazards": [
        "BR"
      ],
      "severityScore": 10,
      "metarRaw": "METAR LLBG 060750Z VRB01KT CAVOK 18/08 Q1021 NOSIG",
      "tafRaw": "TAF LLBG 060501Z 0606/0706 13004KT CAVOK \n  BECMG 0607/0609 30010KT \n  BECMG 0615/0617 VRB03KT \n  PROB30 \n  TEMPO 0623/0705 5000 BR SCT008 TX22/0612Z TN10/0704Z",
      "metarHtml": "METAR LLBG 060750Z VRB01KT <span class=\"hl-vis\">CAVOK</span> 18/08 Q1021 NOSIG",
      "tafHtml": "TAF LLBG 060501Z 0606/0706 13004KT <span class=\"hl-vis\">CAVOK</span> \n  BECMG 0607/0609 30010KT \n  BECMG 0615/0617 VRB03KT \n  PROB30 \n  TEMPO 0623/0705 5000 <span class=\"hl\">BR</span> SCT008 TX22/0612Z TN10/0704Z"
    },
    {
      "icao": "UBBB",
      "iata": "GYD",
      "name": "Heydar Aliyev International Airport",
      "updatedAt": "060800Z",
      "visibility_m": 10000,
      "taf_visibility_m": 3000,
      "worst_visibility_m": 3000,
      "ceiling_ft": 2000,
      "hazards": [
        "BR"
      ],
      "severityScore": 10,
      "metarRaw": "METAR UBBB 060800Z VRB02KT 9999 BKN020 10/07 Q1027 NOSIG",
      "tafRaw": "TAF UBBB 060458Z 0606/0706 35005KT 6000 NSC TX12/0610Z TN04/0702Z \n  TEMPO 0606/0607 3000 BR FEW007 \n  BECMG 0607/0609 03005KT 9999 SCT040 \n  BECMG 0611/0613 15008KT \n  TEMPO 0617/0706 18014KT SCT012 BKN025",
      "metarHtml": "METAR UBBB 060800Z VRB02KT 9999 BKN020 10/07 Q1027 NOSIG",
      "tafHtml": "TAF UBBB 060458Z 0606/0706 35005KT 6000 NSC TX12/0610Z TN04/0702Z \n  TEMPO 0606/0607 3000 <span class=\"hl\">BR</span> FEW007 \n  BECMG 0607/0609 03005KT 9999 SCT040 \n  BECMG 0611/0613 15008KT \n  TEMPO 0617/0706 18014KT SCT012 BKN025"
    },
    {
      "icao": "UDSG",
      "iata": "LWN",
      "name": "Shirak International Airport",
      "updatedAt": "060800Z",
      "visibility_m": 6000,
      "taf_visibility_m": 5000,
      "worst_visibility_m": 5000,
      "ceiling_ft": null,
      "hazards": [
        "BR"
      ],
      "severityScore": 10,
      "metarRaw": "METAR UDSG 060800Z 14001KT 6000 NSC M11/M15 Q1030 NOSIG",
      "tafRaw": "TAF UDSG 060458Z 0606/0706 VRB06KT 9999 FEW040 \n  TEMPO 0606/0609 5000 BR",
      "metarHtml": "METAR UDSG 060800Z 14001KT 6000 NSC M11/M15 Q1030 NOSIG",
      "tafHtml": "TAF UDSG 060458Z 0606/0706 VRB06KT 9999 FEW040 \n  TEMPO 0606/0609 5000 <span class=\"hl\">BR</span>"
    },
    {
      "icao": "UDYZ",
      "iata": "EVN",
      "name": "Zvartnots International Airport",
      "updatedAt": "060800Z",
      "visibility_m": 2200,
      "taf_visibility_m": 2300,
      "worst_visibility_m": 2200,
      "ceiling_ft": null,
      "hazards": [
        "BR"
      ],
      "severityScore": 10,
      "metarRaw": "METAR UDYZ 060800Z 15001KT 2200 BR NSC M06/M10 Q1033 NOSIG",
      "tafRaw": "TAF UDYZ 060500Z 0606/0706 VRB06KT 6000 FEW040 \n  TEMPO 0606/0610 2300 BR",
      "metarHtml": "METAR UDYZ 060800Z 15001KT 2200 <span class=\"hl\">BR</span> NSC M06/M10 Q1033 NOSIG",
      "tafHtml": "TAF UDYZ 060500Z 0606/0706 VRB06KT 6000 FEW040 \n  TEMPO 0606/0610 2300 <span class=\"hl\">BR</span>"
    },
    {
      "icao": "GMMX",
      "iata": "RAK",
      "name": "Menara Airport",
      "updatedAt": "060800Z",
      "visibility_m": 8000,
      "taf_visibility_m": null,
      "worst_visibility_m": 8000,
      "ceiling_ft": null,
      "hazards": [],
      "severityScore": 5,
      "metarRaw": "METAR GMMX 060800Z 25003KT 8000 SCT023 SCT080 08/07 Q1019 NOSIG",
      "tafRaw": null,
      "metarHtml": "METAR GMMX 060800Z 25003KT 8000 SCT023 SCT080 08/07 Q1019 NOSIG",
      "tafHtml": null
    },
    {
      "icao": "ESMS",
      "iata": "MMX",
      "name": "Malmö Sturup Airport",
      "updatedAt": "060750Z",
      "visibility_m": 2300,
      "taf_visibility_m": null,
      "worst_visibility_m": 2300,
      "ceiling_ft": 3900,
      "hazards": [],
      "severityScore": 5,
      "metarRaw": "METAR ESMS 060750Z 00000KT 2300 SCT002 BKN039 M05/M05 Q1011",
      "tafRaw": null,
      "metarHtml": "METAR ESMS 060750Z 00000KT 2300 SCT002 BKN039 M05/M05 Q1011",
      "tafHtml": null
    },
    {
      "icao": "LBPD",
      "iata": "PDV",
      "name": "Plovdiv International Airport",
      "updatedAt": "060800Z",
      "visibility_m": 10000,
      "taf_visibility_m": null,
      "worst_visibility_m": 10000,
      "ceiling_ft": null,
      "hazards": [],
      "severityScore": 5,
      "metarRaw": "METAR LBPD 060800Z AUTO 27004KT 240V300 9999 BKN140/// 08/08 Q1011 NOSIG",
      "tafRaw": null,
      "metarHtml": "METAR LBPD 060800Z AUTO 27004KT 240V300 9999 BKN140/// 08/08 Q1011 NOSIG",
      "tafHtml": null
    },
    {
      "icao": "LECH",
      "iata": "CDT",
      "name": "Castellón-Costa Azahar Airport",
      "updatedAt": "060800Z",
      "visibility_m": 10000,
      "taf_visibility_m": null,
      "worst_visibility_m": 10000,
      "ceiling_ft": null,
      "hazards": [],
      "severityScore": 5,
      "metarRaw": "METAR LECH 060800Z AUTO 02009G21KT 310V070 CAVOK 04/M04 Q1011",
      "tafRaw": null,
      "metarHtml": "METAR LECH 060800Z AUTO 02009G21KT 310V070 <span class=\"hl-vis\">CAVOK</span> 04/M04 Q1011",
      "tafHtml": null
    },
    {
      "icao": "LZKZ",
      "iata": "KSC",
      "name": "Košice International Airport",
      "updatedAt": "060800Z",
      "visibility_m": 10000,
      "taf_visibility_m": null,
      "worst_visibility_m": 10000,
      "ceiling_ft": 4000,
      "hazards": [],
      "severityScore": 5,
      "metarRaw": "METAR LZKZ 060800Z 02008KT 9999 BKN040 M02/M04 Q1011 NOSIG",
      "tafRaw": null,
      "metarHtml": "METAR LZKZ 060800Z 02008KT 9999 BKN040 M02/M04 Q1011 NOSIG",
      "tafHtml": null
    },
    {
      "icao": "LZTT",
      "iata": "TAT",
      "name": "Poprad-Tatry Airport",
      "updatedAt": "060800Z",
      "visibility_m": 10000,
      "taf_visibility_m": null,
      "worst_visibility_m": 10000,
      "ceiling_ft": null,
      "hazards": [],
      "severityScore": 5,
      "metarRaw": "METAR LZTT 060800Z 28012KT 9999 FEW010 SCT053 M05/M08 Q1009 NOSIG",
      "tafRaw": null,
      "metarHtml": "METAR LZTT 060800Z 28012KT 9999 FEW010 SCT053 M05/M08 Q1009 NOSIG",
      "tafHtml": null
    },
    {
      "icao": "BIKF",
      "iata": "KEF",
      "name": "Keflavik International Airport",
      "updatedAt": "060800Z",
      "visibility_m": 10000,
      "taf_visibility_m": 10000,
      "worst_visibility_m": 10000,
      "ceiling_ft": null,
      "hazards": [],
      "severityScore": 0,
      "metarRaw": "METAR BIKF 060800Z 10006KT CAVOK M05/M10 Q1020",
      "tafRaw": "TAF BIKF 060742Z 0609/0709 07010KT CAVOK TXM01/0703Z TNM06/0610Z \n  BECMG 0620/0622 09018G30KT",
      "metarHtml": "METAR BIKF 060800Z 10006KT <span class=\"hl-vis\">CAVOK</span> M05/M10 Q1020",
      "tafHtml": "TAF BIKF 060742Z 0609/0709 07010KT <span class=\"hl-vis\">CAVOK</span> TXM01/0703Z TNM06/0610Z \n  BECMG 0620/0622 09018G30KT"
    },
    {
      "icao": "GCFV",
      "iata": "FUE",
      "name": "Fuerteventura Airport",
      "updatedAt": "060800Z",
      "visibility_m": 10000,
      "taf_visibility_m": 10000,
      "worst_visibility_m": 10000,
      "ceiling_ft": null,
      "hazards": [],
      "severityScore": 0,
      "metarRaw": "METAR GCFV 060800Z 32008KT 9999 SCT047 16/08 Q1022",
      "tafRaw": "TAF GCFV 060200Z 0603/0703 36013KT 9999 SCT030 TX21/0614Z TN15/0606Z",
      "metarHtml": "METAR GCFV 060800Z 32008KT 9999 SCT047 16/08 Q1022",
      "tafHtml": "TAF GCFV 060200Z 0603/0703 36013KT 9999 SCT030 TX21/0614Z TN15/0606Z"
    },
    {
      "icao": "GCLP",
      "iata": "LPA",
      "name": "Gran Canaria Airport",
      "updatedAt": "060800Z",
      "visibility_m": 10000,
      "taf_visibility_m": 10000,
      "worst_visibility_m": 10000,
      "ceiling_ft": 4500,
      "hazards": [],
      "severityScore": 0,
      "metarRaw": "METAR GCLP 060800Z 02016KT 9999 SCT035 BKN045 17/11 Q1022 NOSIG",
      "tafRaw": "TAF GCLP 060200Z 0603/0703 36014KT 9999 SCT025 BKN035 TX21/0614Z TN15/0606Z \n  PROB30 \n  TEMPO 0606/0703 36018G28KT \n  PROB30 \n  TEMPO 0612/0618 RADZ",
      "metarHtml": "METAR GCLP 060800Z 02016KT 9999 SCT035 BKN045 17/11 Q1022 NOSIG",
      "tafHtml": "TAF GCLP 060200Z 0603/0703 36014KT 9999 SCT025 BKN035 TX21/0614Z TN15/0606Z \n  PROB30 \n  TEMPO 0606/0703 36018G28KT \n  PROB30 \n  TEMPO 0612/0618 RADZ"
    },
    {
      "icao": "GCTS",
      "iata": "TFS",
      "name": "Tenerife Sur Airport",
      "updatedAt": "060800Z",
      "visibility_m": 10000,
      "taf_visibility_m": 10000,
      "worst_visibility_m": 10000,
      "ceiling_ft": null,
      "hazards": [],
      "severityScore": 0,
      "metarRaw": "METAR GCTS 060800Z 06017KT 9999 SCT045 16/06 Q1022 NOSIG",
      "tafRaw": "TAF GCTS 060200Z 0603/0703 06014KT 9999 SCT040 TX23/0614Z TN16/0606Z \n  PROB30 \n  TEMPO 0611/0620 09020G32KT",
      "metarHtml": "METAR GCTS 060800Z 06017KT 9999 SCT045 16/06 Q1022 NOSIG",
      "tafHtml": "TAF GCTS 060200Z 0603/0703 06014KT 9999 SCT040 TX23/0614Z TN16/0606Z \n  PROB30 \n  TEMPO 0611/0620 09020G32KT"
    },
    {
      "icao": "GMAD",
      "iata": "AGA",
      "name": "Al Massira Airport",
      "updatedAt": "060800Z",
      "visibility_m": 10000,
      "taf_visibility_m": 8000,
      "worst_visibility_m": 8000,
      "ceiling_ft": null,
      "hazards": [],
      "severityScore": 0,
      "metarRaw": "METAR GMAD 060800Z 16006KT 9999 FEW026 09/08 Q1015 NOSIG",
      "tafRaw": "TAF GMAD 060500Z 0606/0712 24006KT 8000 SCT023 \n  BECMG 0612/0614 28013KT",
      "metarHtml": "METAR GMAD 060800Z 16006KT 9999 FEW026 09/08 Q1015 NOSIG",
      "tafHtml": "TAF GMAD 060500Z 0606/0712 24006KT 8000 SCT023 \n  BECMG 0612/0614 28013KT"
    },
    {
      "icao": "EDJA",
      "iata": "FMM",
      "name": "Memmingen Allgau Airport",
      "updatedAt": "060750Z",
      "visibility_m": 10000,
      "taf_visibility_m": 10000,
      "worst_visibility_m": 10000,
      "ceiling_ft": null,
      "hazards": [],
      "severityScore": 0,
      "metarRaw": "METAR EDJA 060750Z 17004KT 160V220 CAVOK M14/M16 Q1013",
      "tafRaw": "TAF EDJA 060500Z 0606/0615 VRB03KT CAVOK",
      "metarHtml": "METAR EDJA 060750Z 17004KT 160V220 <span class=\"hl-vis\">CAVOK</span> M14/M16 Q1013",
      "tafHtml": "TAF EDJA 060500Z 0606/0615 VRB03KT <span class=\"hl-vis\">CAVOK</span>"
    },
    {
      "icao": "ENAL",
      "iata": "AES",
      "name": "Ålesund Airport, Vigra",
      "updatedAt": "060750Z",
      "visibility_m": 10000,
      "taf_visibility_m": 10000,
      "worst_visibility_m": 10000,
      "ceiling_ft": null,
      "hazards": [],
      "severityScore": 0,
      "metarRaw": "METAR ENAL 060750Z 14012KT CAVOK M06/M11 Q1011",
      "tafRaw": "TAF ENAL 060500Z 0606/0615 14008KT CAVOK",
      "metarHtml": "METAR ENAL 060750Z 14012KT <span class=\"hl-vis\">CAVOK</span> M06/M11 Q1011",
      "tafHtml": "TAF ENAL 060500Z 0606/0615 14008KT <span class=\"hl-vis\">CAVOK</span>"
    },
    {
      "icao": "ENBR",
      "iata": "BGO",
      "name": "Bergen Airport, Flesland",
      "updatedAt": "060750Z",
      "visibility_m": 10000,
      "taf_visibility_m": 10000,
      "worst_visibility_m": 10000,
      "ceiling_ft": null,
      "hazards": [],
      "severityScore": 0,
      "metarRaw": "METAR ENBR 060750Z 07002KT CAVOK M08/M13 Q1011 NOSIG RMK WIND 1200FT 13008KT",
      "tafRaw": "TAF ENBR 060500Z 0606/0706 07005KT CAVOK",
      "metarHtml": "METAR ENBR 060750Z 07002KT <span class=\"hl-vis\">CAVOK</span> M08/M13 Q1011 NOSIG RMK WIND 1200FT 13008KT",
      "tafHtml": "TAF ENBR 060500Z 0606/0706 07005KT <span class=\"hl-vis\">CAVOK</span>"
    },
    {
      "icao": "ENHD",
      "iata": "HAU",
      "name": "Haugesund Airport, Karmøy",
      "updatedAt": "060750Z",
      "visibility_m": 10000,
      "taf_visibility_m": 10000,
      "worst_visibility_m": 10000,
      "ceiling_ft": null,
      "hazards": [],
      "severityScore": 0,
      "metarRaw": "METAR ENHD 060750Z 10007KT CAVOK M08/M09 Q1010",
      "tafRaw": "TAF ENHD 060500Z 0606/0615 09008KT 9999 SCT035",
      "metarHtml": "METAR ENHD 060750Z 10007KT <span class=\"hl-vis\">CAVOK</span> M08/M09 Q1010",
      "tafHtml": "TAF ENHD 060500Z 0606/0615 09008KT 9999 SCT035"
    },
    {
      "icao": "ENTC",
      "iata": "TOS",
      "name": "Tromsø Airport, Langnes",
      "updatedAt": "060750Z",
      "visibility_m": 10000,
      "taf_visibility_m": 10000,
      "worst_visibility_m": 10000,
      "ceiling_ft": null,
      "hazards": [],
      "severityScore": 0,
      "metarRaw": "METAR ENTC 060750Z 17003KT 090V230 CAVOK M12/M15 Q1018 NOSIG RMK WIND 2600FT 16005KT",
      "tafRaw": "TAF ENTC 060500Z 0606/0706 22005KT CAVOK",
      "metarHtml": "METAR ENTC 060750Z 17003KT 090V230 <span class=\"hl-vis\">CAVOK</span> M12/M15 Q1018 NOSIG RMK WIND 2600FT 16005KT",
      "tafHtml": "TAF ENTC 060500Z 0606/0706 22005KT <span class=\"hl-vis\">CAVOK</span>"
    },
    {
      "icao": "ENVA",
      "iata": "TRD",
      "name": "Trondheim Airport, Værnes",
      "updatedAt": "060750Z",
      "visibility_m": 10000,
      "taf_visibility_m": 10000,
      "worst_visibility_m": 10000,
      "ceiling_ft": null,
      "hazards": [],
      "severityScore": 0,
      "metarRaw": "METAR ENVA 060750Z 12009KT CAVOK M17/M20 Q1015 NOSIG RMK WIND 670FT 13005KT",
      "tafRaw": "TAF ENVA 060500Z 0606/0706 12008KT CAVOK",
      "metarHtml": "METAR ENVA 060750Z 12009KT <span class=\"hl-vis\">CAVOK</span> M17/M20 Q1015 NOSIG RMK WIND 670FT 13005KT",
      "tafHtml": "TAF ENVA 060500Z 0606/0706 12008KT <span class=\"hl-vis\">CAVOK</span>"
    },
    {
      "icao": "EPRA",
      "iata": "RDO",
      "name": "Warsaw Radom Airport",
      "updatedAt": "060800Z",
      "visibility_m": 10000,
      "taf_visibility_m": 6000,
      "worst_visibility_m": 6000,
      "ceiling_ft": null,
      "hazards": [],
      "severityScore": 0,
      "metarRaw": "METAR EPRA 060800Z 27004KT CAVOK M08/M09 Q1012",
      "tafRaw": "TAF EPRA 060530Z 0606/0615 30006KT CAVOK \n  PROB30 \n  TEMPO 0606/0610 VRB03KT 6000 SCT014 BKN025",
      "metarHtml": "METAR EPRA 060800Z 27004KT <span class=\"hl-vis\">CAVOK</span> M08/M09 Q1012",
      "tafHtml": "TAF EPRA 060530Z 0606/0615 30006KT <span class=\"hl-vis\">CAVOK</span> \n  PROB30 \n  TEMPO 0606/0610 VRB03KT 6000 SCT014 BKN025"
    },
    {
      "icao": "EPWR",
      "iata": "WRO",
      "name": "Copernicus Wrocław Airport",
      "updatedAt": "060800Z",
      "visibility_m": 10000,
      "taf_visibility_m": 10000,
      "worst_visibility_m": 10000,
      "ceiling_ft": 3300,
      "hazards": [],
      "severityScore": 0,
      "metarRaw": "METAR EPWR 060800Z VRB02KT 9999 BKN033 M05/M09 Q1015",
      "tafRaw": "TAF EPWR 060530Z 0606/0706 24007KT 9999 BKN035",
      "metarHtml": "METAR EPWR 060800Z VRB02KT 9999 BKN033 M05/M09 Q1015",
      "tafHtml": "TAF EPWR 060530Z 0606/0706 24007KT 9999 BKN035"
    },
    {
      "icao": "HEGN",
      "iata": "HRG",
      "name": "Hurghada International Airport",
      "updatedAt": "060700Z",
      "visibility_m": 10000,
      "taf_visibility_m": 10000,
      "worst_visibility_m": 10000,
      "ceiling_ft": null,
      "hazards": [],
      "severityScore": 0,
      "metarRaw": "METAR HEGN 060700Z 32010KT CAVOK 20/03 Q1021 NOSIG",
      "tafRaw": "TAF HEGN 060500Z 0606/0712 32013KT CAVOK",
      "metarHtml": "METAR HEGN 060700Z 32010KT <span class=\"hl-vis\">CAVOK</span> 20/03 Q1021 NOSIG",
      "tafHtml": "TAF HEGN 060500Z 0606/0712 32013KT <span class=\"hl-vis\">CAVOK</span>"
    },
    {
      "icao": "HEMA",
      "iata": "RMF",
      "name": "Marsa Alam International Airport",
      "updatedAt": "060700Z",
      "visibility_m": 10000,
      "taf_visibility_m": 4000,
      "worst_visibility_m": 4000,
      "ceiling_ft": null,
      "hazards": [],
      "severityScore": 0,
      "metarRaw": "METAR HEMA 060700Z 31010KT CAVOK 22/11 Q1019 NOSIG",
      "tafRaw": "TAF HEMA 060500Z 0606/0712 33014KT CAVOK \n  TEMPO 0609/0618 4000 SA NSC",
      "metarHtml": "METAR HEMA 060700Z 31010KT <span class=\"hl-vis\">CAVOK</span> 22/11 Q1019 NOSIG",
      "tafHtml": "TAF HEMA 060500Z 0606/0712 33014KT <span class=\"hl-vis\">CAVOK</span> \n  TEMPO 0609/0618 4000 SA NSC"
    },
    {
      "icao": "HESH",
      "iata": "SSH",
      "name": "Sharm El Sheikh International Airport",
      "updatedAt": "060700Z",
      "visibility_m": 10000,
      "taf_visibility_m": 10000,
      "worst_visibility_m": 10000,
      "ceiling_ft": null,
      "hazards": [],
      "severityScore": 0,
      "metarRaw": "METAR HESH 060700Z 35012KT CAVOK 23/11 Q1020 NOSIG",
      "tafRaw": "TAF HESH 060500Z 0606/0712 35011KT CAVOK",
      "metarHtml": "METAR HESH 060700Z 35012KT <span class=\"hl-vis\">CAVOK</span> 23/11 Q1020 NOSIG",
      "tafHtml": "TAF HESH 060500Z 0606/0712 35011KT <span class=\"hl-vis\">CAVOK</span>"
    },
    {
      "icao": "HESX",
      "iata": "SPX",
      "name": "Sphinx International Airport",
      "updatedAt": "060700Z",
      "visibility_m": 10000,
      "taf_visibility_m": 3000,
      "worst_visibility_m": 3000,
      "ceiling_ft": null,
      "hazards": [],
      "severityScore": 0,
      "metarRaw": "METAR HESX 060700Z VRB03KT CAVOK 10/01 Q1021 NOSIG",
      "tafRaw": "TAF HESX 060500Z 0606/0712 VRB02KT 6000 NSC \n  TEMPO 0606/0610 3000 HZ \n  BECMG 0612/0614 03007KT CAVOK",
      "metarHtml": "METAR HESX 060700Z VRB03KT <span class=\"hl-vis\">CAVOK</span> 10/01 Q1021 NOSIG",
      "tafHtml": "TAF HESX 060500Z 0606/0712 VRB02KT 6000 NSC \n  TEMPO 0606/0610 3000 HZ \n  BECMG 0612/0614 03007KT <span class=\"hl-vis\">CAVOK</span>"
    },
    {
      "icao": "LBWN",
      "iata": "VAR",
      "name": "Varna Airport",
      "updatedAt": "060800Z",
      "visibility_m": 10000,
      "taf_visibility_m": 10000,
      "worst_visibility_m": 10000,
      "ceiling_ft": null,
      "hazards": [],
      "severityScore": 0,
      "metarRaw": "METAR LBWN 060800Z 09005KT 9999 SCT024 13/10 Q1012 NOSIG",
      "tafRaw": "TAF LBWN 060500Z 0606/0706 11008KT 9999 SCT030 \n  BECMG 0607/0609 21014KT \n  PROB40 \n  TEMPO 0610/0614 21016G26KT \n  BECMG 0618/0620 VRB04KT \n  BECMG 0702/0704 19010KT",
      "metarHtml": "METAR LBWN 060800Z 09005KT 9999 SCT024 13/10 Q1012 NOSIG",
      "tafHtml": "TAF LBWN 060500Z 0606/0706 11008KT 9999 SCT030 \n  BECMG 0607/0609 21014KT \n  PROB40 \n  TEMPO 0610/0614 21016G26KT \n  BECMG 0618/0620 VRB04KT \n  BECMG 0702/0704 19010KT"
    },
    {
      "icao": "LCLK",
      "iata": "LCA",
      "name": "Larnaca International Airport",
      "updatedAt": "060800Z",
      "visibility_m": 10000,
      "taf_visibility_m": 10000,
      "worst_visibility_m": 10000,
      "ceiling_ft": null,
      "hazards": [],
      "severityScore": 0,
      "metarRaw": "METAR LCLK 060800Z 03010KT CAVOK 18/12 Q1022 NOSIG",
      "tafRaw": "TAF LCLK 060530Z 0606/0706 35010KT CAVOK \n  BECMG 0607/0609 05012KT \n  BECMG 0616/0618 34006KT",
      "metarHtml": "METAR LCLK 060800Z 03010KT <span class=\"hl-vis\">CAVOK</span> 18/12 Q1022 NOSIG",
      "tafHtml": "TAF LCLK 060530Z 0606/0706 35010KT <span class=\"hl-vis\">CAVOK</span> \n  BECMG 0607/0609 05012KT \n  BECMG 0616/0618 34006KT"
    },
    {
      "icao": "LCPH",
      "iata": "PFO",
      "name": "Paphos International Airport",
      "updatedAt": "060800Z",
      "visibility_m": 10000,
      "taf_visibility_m": 10000,
      "worst_visibility_m": 10000,
      "ceiling_ft": null,
      "hazards": [],
      "severityScore": 0,
      "metarRaw": "METAR LCPH 060800Z 02003KT 9999 FEW035 18/06 Q1021 NOSIG",
      "tafRaw": "TAF LCPH 060530Z 0606/0706 06008KT 9999 FEW040 \n  BECMG 0606/0609 14012KT \n  BECMG 0616/0618 07008KT",
      "metarHtml": "METAR LCPH 060800Z 02003KT 9999 FEW035 18/06 Q1021 NOSIG",
      "tafHtml": "TAF LCPH 060530Z 0606/0706 06008KT 9999 FEW040 \n  BECMG 0606/0609 14012KT \n  BECMG 0616/0618 07008KT"
    },
    {
      "icao": "LEBL",
      "iata": "BCN",
      "name": "Josep Tarradellas Barcelona-El Prat Airport",
      "updatedAt": "060800Z",
      "visibility_m": 10000,
      "taf_visibility_m": 10000,
      "worst_visibility_m": 10000,
      "ceiling_ft": null,
      "hazards": [],
      "severityScore": 0,
      "metarRaw": "METAR LEBL 060800Z 34018G31KT 300V010 CAVOK 01/M03 Q1011 NOSIG",
      "tafRaw": "TAF LEBL 060500Z 0606/0706 34013KT 9999 FEW025 TX11/0613Z TN00/0706Z \n  PROB40 \n  TEMPO 0606/0611 33016G30KT \n  PROB40 \n  TEMPO 0614/0616 25005KT",
      "metarHtml": "METAR LEBL 060800Z 34018G31KT 300V010 <span class=\"hl-vis\">CAVOK</span> 01/M03 Q1011 NOSIG",
      "tafHtml": "TAF LEBL 060500Z 0606/0706 34013KT 9999 FEW025 TX11/0613Z TN00/0706Z \n  PROB40 \n  TEMPO 0606/0611 33016G30KT \n  PROB40 \n  TEMPO 0614/0616 25005KT"
    },
    {
      "icao": "LEMD",
      "iata": "MAD",
      "name": "Adolfo Suárez Madrid–Barajas Airport",
      "updatedAt": "060800Z",
      "visibility_m": 10000,
      "taf_visibility_m": 10000,
      "worst_visibility_m": 10000,
      "ceiling_ft": null,
      "hazards": [],
      "severityScore": 0,
      "metarRaw": "METAR LEMD 060800Z 35015KT CAVOK 01/M06 Q1015 NOSIG",
      "tafRaw": "TAF LEMD 060500Z 0606/0712 VRB05KT 9999 SCT025 TX06/0614Z TNM03/0607Z \n  TEMPO 0606/0612 01012KT \n  TEMPO 0608/0617 01015G28KT \n  BECMG 0617/0619 VRB03KT",
      "metarHtml": "METAR LEMD 060800Z 35015KT <span class=\"hl-vis\">CAVOK</span> 01/M06 Q1015 NOSIG",
      "tafHtml": "TAF LEMD 060500Z 0606/0712 VRB05KT 9999 SCT025 TX06/0614Z TNM03/0607Z \n  TEMPO 0606/0612 01012KT \n  TEMPO 0608/0617 01015G28KT \n  BECMG 0617/0619 VRB03KT"
    },
    {
      "icao": "LEMG",
      "iata": "AGP",
      "name": "Málaga-Costa del Sol Airport",
      "updatedAt": "060800Z",
      "visibility_m": 10000,
      "taf_visibility_m": 10000,
      "worst_visibility_m": 10000,
      "ceiling_ft": null,
      "hazards": [],
      "severityScore": 0,
      "metarRaw": "METAR LEMG 060800Z 29020KT CAVOK 05/M04 Q1013 NOSIG",
      "tafRaw": "TAF LEMG 060500Z 0606/0706 30012KT 9999 FEW060 TX12/0614Z TN04/0606Z \n  TEMPO 0606/0617 30015G25KT",
      "metarHtml": "METAR LEMG 060800Z 29020KT <span class=\"hl-vis\">CAVOK</span> 05/M04 Q1013 NOSIG",
      "tafHtml": "TAF LEMG 060500Z 0606/0706 30012KT 9999 FEW060 TX12/0614Z TN04/0606Z \n  TEMPO 0606/0617 30015G25KT"
    },
    {
      "icao": "LEVC",
      "iata": "VLC",
      "name": "Valencia Airport",
      "updatedAt": "060800Z",
      "visibility_m": 10000,
      "taf_visibility_m": 10000,
      "worst_visibility_m": 10000,
      "ceiling_ft": null,
      "hazards": [],
      "severityScore": 0,
      "metarRaw": "METAR LEVC 060800Z VRB02KT CAVOK 00/M03 Q1013 NOSIG",
      "tafRaw": "TAF LEVC 060500Z 0606/0706 30006KT 9999 BKN040 TX12/0614Z TN01/0606Z \n  TEMPO 0612/0616 35010KT",
      "metarHtml": "METAR LEVC 060800Z VRB02KT <span class=\"hl-vis\">CAVOK</span> 00/M03 Q1013 NOSIG",
      "tafHtml": "TAF LEVC 060500Z 0606/0706 30006KT 9999 BKN040 TX12/0614Z TN01/0606Z \n  TEMPO 0612/0616 35010KT"
    },
    {
      "icao": "LEXJ",
      "iata": "SDR",
      "name": "Seve Ballesteros-Santander Airport",
      "updatedAt": "060800Z",
      "visibility_m": 10000,
      "taf_visibility_m": 10000,
      "worst_visibility_m": 10000,
      "ceiling_ft": null,
      "hazards": [],
      "severityScore": 0,
      "metarRaw": "METAR LEXJ 060800Z 01010KT 330V050 9999 SCT045 SCT070 07/M01 Q1022",
      "tafRaw": "TAF LEXJ 060200Z 0603/0703 35012KT 9999 FEW040 BKN060 TX09/0614Z TN04/0621Z \n  TEMPO 0603/0609 35017G27KT \n  BECMG 0616/0618 20009KT",
      "metarHtml": "METAR LEXJ 060800Z 01010KT 330V050 9999 SCT045 SCT070 07/M01 Q1022",
      "tafHtml": "TAF LEXJ 060200Z 0603/0703 35012KT 9999 FEW040 BKN060 TX09/0614Z TN04/0621Z \n  TEMPO 0603/0609 35017G27KT \n  BECMG 0616/0618 20009KT"
    },
    {
      "icao": "LEZG",
      "iata": "ZAZ",
      "name": "Zaragoza Airport",
      "updatedAt": "060800Z",
      "visibility_m": 10000,
      "taf_visibility_m": 10000,
      "worst_visibility_m": 10000,
      "ceiling_ft": null,
      "hazards": [],
      "severityScore": 0,
      "metarRaw": "METAR LEZG 060800Z 29012KT 260V320 9999 FEW035 03/M01 Q1014 NOSIG",
      "tafRaw": "TAF LEZG 060500Z 0606/0706 31012KT 9999 FEW050 TX07/0615Z TN00/0606Z \n  BECMG 0607/0610 32020KT \n  TEMPO 0609/0620 32023G35KT \n  BECMG 0619/0621 30010KT",
      "metarHtml": "METAR LEZG 060800Z 29012KT 260V320 9999 FEW035 03/M01 Q1014 NOSIG",
      "tafHtml": "TAF LEZG 060500Z 0606/0706 31012KT 9999 FEW050 TX07/0615Z TN00/0606Z \n  BECMG 0607/0610 32020KT \n  TEMPO 0609/0620 32023G35KT \n  BECMG 0619/0621 30010KT"
    },
    {
      "icao": "LEZL",
      "iata": "SVQ",
      "name": "Sevilla Airport",
      "updatedAt": "060800Z",
      "visibility_m": 10000,
      "taf_visibility_m": 10000,
      "worst_visibility_m": 10000,
      "ceiling_ft": null,
      "hazards": [],
      "severityScore": 0,
      "metarRaw": "METAR LEZL 060800Z 34005KT 300V360 CAVOK 04/M01 Q1018 NOSIG",
      "tafRaw": "TAF LEZL 060200Z 0603/0703 35006KT CAVOK TX13/0615Z TN02/0607Z",
      "metarHtml": "METAR LEZL 060800Z 34005KT 300V360 <span class=\"hl-vis\">CAVOK</span> 04/M01 Q1018 NOSIG",
      "tafHtml": "TAF LEZL 060200Z 0603/0703 35006KT <span class=\"hl-vis\">CAVOK</span> TX13/0615Z TN02/0607Z"
    },
    {
      "icao": "LGAV",
      "iata": "ATH",
      "name": "Athens Eleftherios Venizelos International Airport",
      "updatedAt": "060750Z",
      "visibility_m": 10000,
      "taf_visibility_m": 10000,
      "worst_visibility_m": 10000,
      "ceiling_ft": null,
      "hazards": [],
      "severityScore": 0,
      "metarRaw": "METAR LGAV 060750Z VRB02KT 9999 FEW018 SCT030 17/12 Q1015 NOSIG",
      "tafRaw": "TAF LGAV 060500Z 0606/0706 18015KT 9999 FEW018 SCT030",
      "metarHtml": "METAR LGAV 060750Z VRB02KT 9999 FEW018 SCT030 17/12 Q1015 NOSIG",
      "tafHtml": "TAF LGAV 060500Z 0606/0706 18015KT 9999 FEW018 SCT030"
    },
    {
      "icao": "LIBG",
      "iata": "TAR",
      "name": "Taranto-Grottaglie Marcello Arlotta Airport",
      "updatedAt": "060750Z",
      "visibility_m": 8000,
      "taf_visibility_m": 10000,
      "worst_visibility_m": 8000,
      "ceiling_ft": null,
      "hazards": [],
      "severityScore": 0,
      "metarRaw": "METAR LIBG 060750Z 07005KT 8000 SCT020 14/14 Q1005",
      "tafRaw": "TAF LIBG 060715Z 0608/0615 15008KT 9999 SCT015",
      "metarHtml": "METAR LIBG 060750Z 07005KT 8000 SCT020 14/14 Q1005",
      "tafHtml": "TAF LIBG 060715Z 0608/0615 15008KT 9999 SCT015"
    },
    {
      "icao": "LIBR",
      "iata": "BDS",
      "name": "Brindisi Airport",
      "updatedAt": "060750Z",
      "visibility_m": 7000,
      "taf_visibility_m": 10000,
      "worst_visibility_m": 7000,
      "ceiling_ft": 3000,
      "hazards": [],
      "severityScore": 0,
      "metarRaw": "METAR LIBR 060750Z VRB01KT 7000 SCT012 BKN030 14/13 Q1005",
      "tafRaw": "TAF LIBR 060500Z 0606/0706 VRB05KT 9999 BKN012 \n  BECMG 0608/0610 18013KT \n  BECMG 0700/0702 34013KT",
      "metarHtml": "METAR LIBR 060750Z VRB01KT 7000 SCT012 BKN030 14/13 Q1005",
      "tafHtml": "TAF LIBR 060500Z 0606/0706 VRB05KT 9999 BKN012 \n  BECMG 0608/0610 18013KT \n  BECMG 0700/0702 34013KT"
    },
    {
      "icao": "LICA",
      "iata": "SUF",
      "name": "Lamezia Terme Sant'Eufemia International Airport",
      "updatedAt": "060750Z",
      "visibility_m": 10000,
      "taf_visibility_m": 10000,
      "worst_visibility_m": 10000,
      "ceiling_ft": null,
      "hazards": [],
      "severityScore": 0,
      "metarRaw": "METAR LICA 060750Z AUTO 06008KT 9999 NCD 14/11 Q1005",
      "tafRaw": "TAF LICA 060500Z 0606/0706 07010KT 9999 SCT050 \n  BECMG 0620/0622 27013KT",
      "metarHtml": "METAR LICA 060750Z AUTO 06008KT 9999 NCD 14/11 Q1005",
      "tafHtml": "TAF LICA 060500Z 0606/0706 07010KT 9999 SCT050 \n  BECMG 0620/0622 27013KT"
    },
    {
      "icao": "LICC",
      "iata": "CTA",
      "name": "Catania-Fontanarossa Airport",
      "updatedAt": "060750Z",
      "visibility_m": 10000,
      "taf_visibility_m": 10000,
      "worst_visibility_m": 10000,
      "ceiling_ft": null,
      "hazards": [],
      "severityScore": 0,
      "metarRaw": "METAR LICC 060750Z 22008KT CAVOK 12/09 Q1006",
      "tafRaw": "TAF LICC 060500Z 0606/0706 26013KT 9999 FEW030",
      "metarHtml": "METAR LICC 060750Z 22008KT <span class=\"hl-vis\">CAVOK</span> 12/09 Q1006",
      "tafHtml": "TAF LICC 060500Z 0606/0706 26013KT 9999 FEW030"
    },
    {
      "icao": "LIMC",
      "iata": "MXP",
      "name": "Milan Malpensa International Airport",
      "updatedAt": "060750Z",
      "visibility_m": 10000,
      "taf_visibility_m": 10000,
      "worst_visibility_m": 10000,
      "ceiling_ft": null,
      "hazards": [],
      "severityScore": 0,
      "metarRaw": "METAR LIMC 060750Z 01007KT CAVOK M06/M08 Q1008 NOSIG",
      "tafRaw": "TAF LIMC 060500Z 0606/0712 VRB03KT CAVOK",
      "metarHtml": "METAR LIMC 060750Z 01007KT <span class=\"hl-vis\">CAVOK</span> M06/M08 Q1008 NOSIG",
      "tafHtml": "TAF LIMC 060500Z 0606/0712 VRB03KT <span class=\"hl-vis\">CAVOK</span>"
    },
    {
      "icao": "LIME",
      "iata": "BGY",
      "name": "Milan Bergamo Airport / Antonio Locatelli Air Base",
      "updatedAt": "060750Z",
      "visibility_m": 10000,
      "taf_visibility_m": 10000,
      "worst_visibility_m": 10000,
      "ceiling_ft": null,
      "hazards": [],
      "severityScore": 0,
      "metarRaw": "METAR LIME 060750Z 36003KT CAVOK M02/M06 Q1008 NOSIG",
      "tafRaw": "TAF LIME 060500Z 0606/0706 VRB03KT CAVOK",
      "metarHtml": "METAR LIME 060750Z 36003KT <span class=\"hl-vis\">CAVOK</span> M02/M06 Q1008 NOSIG",
      "tafHtml": "TAF LIME 060500Z 0606/0706 VRB03KT <span class=\"hl-vis\">CAVOK</span>"
    },
    {
      "icao": "LIMF",
      "iata": "TRN",
      "name": "Turin Airport",
      "updatedAt": "060750Z",
      "visibility_m": 10000,
      "taf_visibility_m": 10000,
      "worst_visibility_m": 10000,
      "ceiling_ft": null,
      "hazards": [],
      "severityScore": 0,
      "metarRaw": "METAR LIMF 060750Z 28003KT CAVOK M05/M11 Q1008",
      "tafRaw": "TAF LIMF 060500Z 0606/0706 VRB03KT CAVOK",
      "metarHtml": "METAR LIMF 060750Z 28003KT <span class=\"hl-vis\">CAVOK</span> M05/M11 Q1008",
      "tafHtml": "TAF LIMF 060500Z 0606/0706 VRB03KT <span class=\"hl-vis\">CAVOK</span>"
    },
    {
      "icao": "LIMJ",
      "iata": "GOA",
      "name": "Genoa Cristoforo Colombo Airport",
      "updatedAt": "060750Z",
      "visibility_m": 10000,
      "taf_visibility_m": 10000,
      "worst_visibility_m": 10000,
      "ceiling_ft": null,
      "hazards": [],
      "severityScore": 0,
      "metarRaw": "METAR LIMJ 060750Z 05009KT 010V070 CAVOK 03/M06 Q1006",
      "tafRaw": "TAF LIMJ 060500Z 0606/0706 03015KT CAVOK \n  TEMPO 0606/0612 03016G26KT",
      "metarHtml": "METAR LIMJ 060750Z 05009KT 010V070 <span class=\"hl-vis\">CAVOK</span> 03/M06 Q1006",
      "tafHtml": "TAF LIMJ 060500Z 0606/0706 03015KT <span class=\"hl-vis\">CAVOK</span> \n  TEMPO 0606/0612 03016G26KT"
    },
    {
      "icao": "LIPH",
      "iata": "TSF",
      "name": "Treviso Antonio Canova Airport",
      "updatedAt": "060750Z",
      "visibility_m": 10000,
      "taf_visibility_m": 10000,
      "worst_visibility_m": 10000,
      "ceiling_ft": 9000,
      "hazards": [],
      "severityScore": 0,
      "metarRaw": "METAR LIPH 060750Z 03003KT 9999 BKN090 02/M05 Q1009",
      "tafRaw": "TAF LIPH 060500Z 0606/0706 03006KT 9999 SCT070",
      "metarHtml": "METAR LIPH 060750Z 03003KT 9999 BKN090 02/M05 Q1009",
      "tafHtml": "TAF LIPH 060500Z 0606/0706 03006KT 9999 SCT070"
    },
    {
      "icao": "LIPQ",
      "iata": "TRS",
      "name": "Trieste–Friuli Venezia Giulia Airport",
      "updatedAt": "060750Z",
      "visibility_m": 10000,
      "taf_visibility_m": 3000,
      "worst_visibility_m": 3000,
      "ceiling_ft": null,
      "hazards": [],
      "severityScore": 0,
      "metarRaw": "METAR LIPQ 060750Z AUTO 10011KT 9999 OVC051/// 03/M04 Q1009",
      "tafRaw": "TAF LIPQ 060500Z 0606/0706 08008KT 9999 BKN030 \n  TEMPO 0610/0616 3000 -RASN BKN010",
      "metarHtml": "METAR LIPQ 060750Z AUTO 10011KT 9999 OVC051/// 03/M04 Q1009",
      "tafHtml": "TAF LIPQ 060500Z 0606/0706 08008KT 9999 BKN030 \n  TEMPO 0610/0616 3000 -RASN BKN010"
    },
    {
      "icao": "LIPX",
      "iata": "VRN",
      "name": "Verona Villafranca Valerio Catullo Airport",
      "updatedAt": "060750Z",
      "visibility_m": 10000,
      "taf_visibility_m": 10000,
      "worst_visibility_m": 10000,
      "ceiling_ft": 9000,
      "hazards": [],
      "severityScore": 0,
      "metarRaw": "METAR LIPX 060750Z 35002KT 9999 BKN090 M00/M06 Q1009",
      "tafRaw": "TAF LIPX 060500Z 0606/0706 VRB04KT CAVOK",
      "metarHtml": "METAR LIPX 060750Z 35002KT 9999 BKN090 M00/M06 Q1009",
      "tafHtml": "TAF LIPX 060500Z 0606/0706 VRB04KT <span class=\"hl-vis\">CAVOK</span>"
    },
    {
      "icao": "LKMT",
      "iata": "OSR",
      "name": "Ostrava Leos Janáček Airport",
      "updatedAt": "060800Z",
      "visibility_m": 10000,
      "taf_visibility_m": 10000,
      "worst_visibility_m": 10000,
      "ceiling_ft": null,
      "hazards": [],
      "severityScore": 0,
      "metarRaw": "METAR LKMT 060800Z VRB02KT CAVOK M07/M09 Q1014 NOSIG",
      "tafRaw": "TAF LKMT 060500Z 0606/0706 VRB02KT CAVOK \n  PROB40 \n  TEMPO 0606/0610 9999 BKN018 \n  BECMG 0612/0614 02005KT",
      "metarHtml": "METAR LKMT 060800Z VRB02KT <span class=\"hl-vis\">CAVOK</span> M07/M09 Q1014 NOSIG",
      "tafHtml": "TAF LKMT 060500Z 0606/0706 VRB02KT <span class=\"hl-vis\">CAVOK</span> \n  PROB40 \n  TEMPO 0606/0610 9999 BKN018 \n  BECMG 0612/0614 02005KT"
    },
    {
      "icao": "LMML",
      "iata": "MLA",
      "name": "Malta International Airport",
      "updatedAt": "060815Z",
      "visibility_m": 8000,
      "taf_visibility_m": 5000,
      "worst_visibility_m": 5000,
      "ceiling_ft": null,
      "hazards": [],
      "severityScore": 0,
      "metarRaw": "METAR LMML 060815Z 19011KT 160V220 8000 NSC 18/15 Q1007 NOSIG",
      "tafRaw": "TAF LMML 060500Z 0606/0706 20015KT 8000 NSC \n  PROB30 \n  TEMPO 0606/0615 5000 DU \n  BECMG 0610/0613 26015KT FEW013 \n  BECMG 0617/0620 VRB05KT 9999 \n  PROB40 \n  TEMPO 0617/0706 BKN013 \n  BECMG 0702/0705 22016KT",
      "metarHtml": "METAR LMML 060815Z 19011KT 160V220 8000 NSC 18/15 Q1007 NOSIG",
      "tafHtml": "TAF LMML 060500Z 0606/0706 20015KT 8000 NSC \n  PROB30 \n  TEMPO 0606/0615 5000 DU \n  BECMG 0610/0613 26015KT FEW013 \n  BECMG 0617/0620 VRB05KT 9999 \n  PROB40 \n  TEMPO 0617/0706 BKN013 \n  BECMG 0702/0705 22016KT"
    },
    {
      "icao": "LPFR",
      "iata": "FAO",
      "name": "Faro Airport",
      "updatedAt": "060800Z",
      "visibility_m": 10000,
      "taf_visibility_m": 10000,
      "worst_visibility_m": 10000,
      "ceiling_ft": null,
      "hazards": [],
      "severityScore": 0,
      "metarRaw": "METAR LPFR 060800Z 36009KT CAVOK 07/M03 Q1020",
      "tafRaw": "TAF LPFR 060500Z 0606/0706 VRB02KT CAVOK \n  BECMG 0606/0608 34008KT \n  BECMG 0610/0612 34013KT \n  BECMG 0618/0620 34008KT",
      "metarHtml": "METAR LPFR 060800Z 36009KT <span class=\"hl-vis\">CAVOK</span> 07/M03 Q1020",
      "tafHtml": "TAF LPFR 060500Z 0606/0706 VRB02KT <span class=\"hl-vis\">CAVOK</span> \n  BECMG 0606/0608 34008KT \n  BECMG 0610/0612 34013KT \n  BECMG 0618/0620 34008KT"
    },
    {
      "icao": "LRBV",
      "iata": "GHV",
      "name": "Brașov-Ghimbav International Airport",
      "updatedAt": "060800Z",
      "visibility_m": 10000,
      "taf_visibility_m": 10000,
      "worst_visibility_m": 10000,
      "ceiling_ft": 6300,
      "hazards": [],
      "severityScore": 0,
      "metarRaw": "METAR LRBV 060800Z 19020KT 9999 FEW049 BKN063 BKN080 08/02 Q1009",
      "tafRaw": "TAF LRBV 060500Z 0606/0615 15010KT 9999 SCT045 \n  BECMG 0607/0609 VRB04KT",
      "metarHtml": "METAR LRBV 060800Z 19020KT 9999 FEW049 BKN063 BKN080 08/02 Q1009",
      "tafHtml": "TAF LRBV 060500Z 0606/0615 15010KT 9999 SCT045 \n  BECMG 0607/0609 VRB04KT"
    },
    {
      "icao": "OEJN",
      "iata": "JED",
      "name": "King Abdulaziz International Airport",
      "updatedAt": "060800Z",
      "visibility_m": 7000,
      "taf_visibility_m": 7000,
      "worst_visibility_m": 7000,
      "ceiling_ft": null,
      "hazards": [],
      "severityScore": 0,
      "metarRaw": "METAR OEJN 060800Z VRB02KT 7000 NSC 31/05 Q1017 NOSIG",
      "tafRaw": "TAF OEJN 060500Z 0606/0712 VRB03KT 7000 NSC \n  BECMG 0610/0612 28008KT \n  BECMG 0616/0618 01005KT \n  BECMG 0704/0706 20008KT",
      "metarHtml": "METAR OEJN 060800Z VRB02KT 7000 NSC 31/05 Q1017 NOSIG",
      "tafHtml": "TAF OEJN 060500Z 0606/0712 VRB03KT 7000 NSC \n  BECMG 0610/0612 28008KT \n  BECMG 0616/0618 01005KT \n  BECMG 0704/0706 20008KT"
    },
    {
      "icao": "OEMA",
      "iata": "MED",
      "name": "Prince Mohammad Bin Abdulaziz Airport",
      "updatedAt": "060800Z",
      "visibility_m": 5000,
      "taf_visibility_m": 3000,
      "worst_visibility_m": 3000,
      "ceiling_ft": null,
      "hazards": [],
      "severityScore": 0,
      "metarRaw": "METAR OEMA 060800Z 09007KT 5000 DU NSC 21/01 Q1024 NOSIG",
      "tafRaw": "TAF OEMA 060500Z 0606/0712 09010KT 7000 FEW045 \n  PROB40 \n  TEMPO 0606/0615 3000 DU",
      "metarHtml": "METAR OEMA 060800Z 09007KT 5000 DU NSC 21/01 Q1024 NOSIG",
      "tafHtml": "TAF OEMA 060500Z 0606/0712 09010KT 7000 FEW045 \n  PROB40 \n  TEMPO 0606/0615 3000 DU"
    },
    {
      "icao": "OJAI",
      "iata": "AMM",
      "name": "Queen Alia International Airport",
      "updatedAt": "060800Z",
      "visibility_m": 5000,
      "taf_visibility_m": 4000,
      "worst_visibility_m": 4000,
      "ceiling_ft": null,
      "hazards": [],
      "severityScore": 0,
      "metarRaw": "METAR OJAI 060800Z 06011KT 5000 HZ NSC 10/02 Q1025 NOSIG",
      "tafRaw": "TAF OJAI 060446Z 0606/0712 12012KT 5000 HZ NSC \n  PROB30 0612/0616 4000 DU",
      "metarHtml": "METAR OJAI 060800Z 06011KT 5000 HZ NSC 10/02 Q1025 NOSIG",
      "tafHtml": "TAF OJAI 060446Z 0606/0712 12012KT 5000 HZ NSC \n  PROB30 0612/0616 4000 DU"
    },
    {
      "icao": "OMAA",
      "iata": "AUH",
      "name": "Zayed International Airport",
      "updatedAt": "060800Z",
      "visibility_m": 10000,
      "taf_visibility_m": 4000,
      "worst_visibility_m": 4000,
      "ceiling_ft": null,
      "hazards": [],
      "severityScore": 0,
      "metarRaw": "METAR OMAA 060800Z 05007KT 340V080 CAVOK 25/10 Q1021 BECMG 33012KT",
      "tafRaw": "TAF OMAA 060500Z 0606/0712 07005KT 8000 FEW025 \n  BECMG 0608/0610 33012KT \n  BECMG 0617/0619 VRB02KT \n  PROB30 0700/0705 4000 HZ \n  BECMG 0709/0711 34011KT",
      "metarHtml": "METAR OMAA 060800Z 05007KT 340V080 <span class=\"hl-vis\">CAVOK</span> 25/10 Q1021 BECMG 33012KT",
      "tafHtml": "TAF OMAA 060500Z 0606/0712 07005KT 8000 FEW025 \n  BECMG 0608/0610 33012KT \n  BECMG 0617/0619 VRB02KT \n  PROB30 0700/0705 4000 HZ \n  BECMG 0709/0711 34011KT"
    },
    {
      "icao": "OMDB",
      "iata": "DXB",
      "name": "Dubai International Airport",
      "updatedAt": "060800Z",
      "visibility_m": 10000,
      "taf_visibility_m": 8000,
      "worst_visibility_m": 8000,
      "ceiling_ft": null,
      "hazards": [],
      "severityScore": 0,
      "metarRaw": "METAR OMDB 060800Z 04006KT 360V100 9999 FEW040 25/02 Q1021 NOSIG",
      "tafRaw": "TAF OMDB 060500Z 0606/0712 07007KT 8000 NSC \n  BECMG 0609/0611 35012KT \n  BECMG 0615/0617 06005KT \n  BECMG 0709/0711 34010KT",
      "metarHtml": "METAR OMDB 060800Z 04006KT 360V100 9999 FEW040 25/02 Q1021 NOSIG",
      "tafHtml": "TAF OMDB 060500Z 0606/0712 07007KT 8000 NSC \n  BECMG 0609/0611 35012KT \n  BECMG 0615/0617 06005KT \n  BECMG 0709/0711 34010KT"
    },
    {
      "icao": "UGKO",
      "iata": "KUT",
      "name": "David the Builder Kutaisi International Airport",
      "updatedAt": "060800Z",
      "visibility_m": 10000,
      "taf_visibility_m": 10000,
      "worst_visibility_m": 10000,
      "ceiling_ft": null,
      "hazards": [],
      "severityScore": 0,
      "metarRaw": "METAR UGKO 060800Z 09014KT CAVOK 13/M00 Q1019 NOSIG",
      "tafRaw": "TAF UGKO 060500Z 0606/0706 08007KT CAVOK TX16/0611Z TN02/0703Z \n  TEMPO 0606/0612 08017KT \n  TEMPO 0609/0617 BKN080",
      "metarHtml": "METAR UGKO 060800Z 09014KT <span class=\"hl-vis\">CAVOK</span> 13/M00 Q1019 NOSIG",
      "tafHtml": "TAF UGKO 060500Z 0606/0706 08007KT <span class=\"hl-vis\">CAVOK</span> TX16/0611Z TN02/0703Z \n  TEMPO 0606/0612 08017KT \n  TEMPO 0609/0617 BKN080"
    }
  ],
  "stats": {
    "icaoCount": 159,
    "metarReturned": 156,
    "tafReturned": 139,
    "stationsWritten": 159,
    "missingMetar": 3,
    "missingTaf": 20
  },
  "errors": []
}