{
  "generatedAt": "2026-01-08T05:36:01.177Z",
  "stations": [
    {
      "icao": "BKPR",
      "iata": "PRN",
      "name": "Priština Adem Jashari International Airport",
      "updatedAt": "080530Z",
      "visibility_m": 1200,
      "taf_visibility_m": 300,
      "worst_visibility_m": 300,
      "ceiling_ft": 3000,
      "hazards": [
        "SN",
        "FZFG",
        "BR"
      ],
      "severityScore": 100,
      "metarRaw": "METAR BKPR 080530Z 35008KT 9999 -SN SCT008 OVC030 M04/M05 Q1004 TEMPO 1200 SN",
      "tafRaw": "TAF BKPR 080530Z 0806/0906 34010KT 9999 SCT020 BKN040 \n  TEMPO 0806/0813 35020KT 1200 SN BKN008 OVC020 \n  BECMG 0902/0905 1500 BR \n  PROB30 0904/0906 0300 FZFG BKN003",
      "metarHtml": "METAR BKPR 080530Z 35008KT 9999 -<span class=\"hl\">SN</span> SCT008 OVC030 M04/M05 Q1004 TEMPO 1200 <span class=\"hl\">SN</span>",
      "tafHtml": "TAF BKPR 080530Z 0806/0906 34010KT 9999 SCT020 BKN040 \n  TEMPO 0806/0813 35020KT 1200 <span class=\"hl\">SN</span> BKN008 OVC020 \n  BECMG 0902/0905 1500 <span class=\"hl\">BR</span> \n  PROB30 0904/0906 <span class=\"hl-vis\">0300</span> <span class=\"hl\">FZFG</span> BKN003"
    },
    {
      "icao": "EBCI",
      "iata": "CRL",
      "name": "Brussels South Charleroi Airport",
      "updatedAt": "080520Z",
      "visibility_m": 500,
      "taf_visibility_m": 400,
      "worst_visibility_m": 400,
      "ceiling_ft": 100,
      "hazards": [
        "FG",
        "BR",
        "SN",
        "RA",
        "FZDZ",
        "DZ"
      ],
      "severityScore": 100,
      "metarRaw": "METAR EBCI 080520Z 20008KT 3500 BR BKN003 BKN004 01/00 Q1006 TEMPO 0500 -FZDZRA FG BKN001",
      "tafRaw": "TAF EBCI 080500Z 0806/0912 19005KT 2500 BR SCT002 BKN003 \n  PROB30 \n  TEMPO 0806/0808 -FZDZ \n  PROB40 0806/0818 1200 -DZ -DZRA \n  PROB40 \n  TEMPO 0806/0818 0400 FG BKN001 \n  BECMG 0817/0819 4500 RA RADZ SCT003 BKN005 \n  PROB30 \n  TEMPO 0818/0824 2000 DZRA BKN002 \n  BECMG 0823/0901 20020G30KT 9999 NSW SCT012 \n  PROB40 \n  TEMPO 0903/0910 20025G40KT \n  PROB40 0905/0912 2500 SNRA RADZ BKN002 \n  PROB30 \n  TEMPO 0908/0912 24018G30KT 1200 SNRA SN",
      "metarHtml": "METAR EBCI 080520Z 20008KT 3500 <span class=\"hl\">BR</span> BKN003 BKN004 01/00 Q1006 TEMPO <span class=\"hl-vis\">0500</span> -FZDZRA <span class=\"hl\">FG</span> BKN001",
      "tafHtml": "TAF EBCI 080500Z 0806/0912 19005KT 2500 <span class=\"hl\">BR</span> SCT002 BKN003 \n  PROB30 \n  TEMPO 0806/0808 -<span class=\"hl\">FZDZ</span> \n  PROB40 0806/0818 1200 -<span class=\"hl\">DZ</span> -DZRA \n  PROB40 \n  TEMPO 0806/0818 <span class=\"hl-vis\">0400</span> <span class=\"hl\">FG</span> BKN001 \n  BECMG 0817/0819 4500 <span class=\"hl\">RA</span> RADZ SCT003 BKN005 \n  PROB30 \n  TEMPO 0818/0824 2000 DZRA BKN002 \n  BECMG 0823/0901 20020G30KT 9999 NSW SCT012 \n  PROB40 \n  TEMPO 0903/0910 20025G40KT \n  PROB40 0905/0912 2500 SNRA RADZ BKN002 \n  PROB30 \n  TEMPO 0908/0912 24018G30KT 1200 SNRA <span class=\"hl\">SN</span>"
    },
    {
      "icao": "EDDN",
      "iata": "NUE",
      "name": "Nuremberg Airport",
      "updatedAt": "080520Z",
      "visibility_m": 3600,
      "taf_visibility_m": 900,
      "worst_visibility_m": 900,
      "ceiling_ft": 600,
      "hazards": [
        "BR",
        "SHSN",
        "FZRA",
        "SN",
        "RA"
      ],
      "severityScore": 100,
      "metarRaw": "METAR EDDN 080520Z AUTO 13006KT 3600 -SHSN BR FEW006 BKN024 OVC028 FEW///CB M04/M06 Q1010 RESHSN TEMPO BKN006",
      "tafRaw": "TAF EDDN 080500Z 0806/0906 15005KT 9999 BKN015 \n  TEMPO 0806/0808 3000 -SN BKN009 \n  TEMPO 0808/0811 BKN012 \n  BECMG 0816/0818 4000 -SN BKN008 \n  TEMPO 0821/0902 0900 SN BKN004 \n  PROB40 \n  TEMPO 0901/0903 FZRA \n  BECMG 0902/0904 13010KT RA \n  BECMG 0904/0906 9999 NSW BKN035",
      "metarHtml": "METAR EDDN 080520Z AUTO 13006KT 3600 -<span class=\"hl\">SHSN</span> <span class=\"hl\">BR</span> FEW006 BKN024 OVC028 FEW///CB M04/M06 Q1010 RESHSN TEMPO BKN006",
      "tafHtml": "TAF EDDN 080500Z 0806/0906 15005KT 9999 BKN015 \n  TEMPO 0806/0808 3000 -<span class=\"hl\">SN</span> BKN009 \n  TEMPO 0808/0811 BKN012 \n  BECMG 0816/0818 4000 -<span class=\"hl\">SN</span> BKN008 \n  TEMPO 0821/0902 0900 <span class=\"hl\">SN</span> BKN004 \n  PROB40 \n  TEMPO 0901/0903 <span class=\"hl\">FZRA</span> \n  BECMG 0902/0904 13010KT <span class=\"hl\">RA</span> \n  BECMG 0904/0906 9999 NSW BKN035"
    },
    {
      "icao": "EDFH",
      "iata": "HHN",
      "name": "Frankfurt-Hahn Airport",
      "updatedAt": "080520Z",
      "visibility_m": 1700,
      "taf_visibility_m": 800,
      "worst_visibility_m": 800,
      "ceiling_ft": 100,
      "hazards": [
        "BR",
        "FZRA",
        "SN",
        "RA",
        "SHRA",
        "FZDZ"
      ],
      "severityScore": 100,
      "metarRaw": "METAR EDFH 080520Z 23007KT 1700 BR OVC001 M02/M02 Q1007",
      "tafRaw": "TAF EDFH 080500Z 0806/0906 24010KT 6000 OVC004 \n  TEMPO 0806/0809 0800 -FZDZ OVC001 \n  TEMPO 0809/0811 3000 BR \n  TEMPO 0811/0821 2000 -SN BR OVC001 \n  PROB30 \n  TEMPO 0816/0820 -FZRA \n  BECMG 0818/0820 16013KT \n  PROB30 \n  TEMPO 0819/0821 0800 SN \n  TEMPO 0821/0824 RA \n  BECMG 0900/0903 23020G30KT BKN015 \n  TEMPO 0902/0906 23035G50KT 4000 SHRA BKN010CB",
      "metarHtml": "METAR EDFH 080520Z 23007KT 1700 <span class=\"hl\">BR</span> OVC001 M02/M02 Q1007",
      "tafHtml": "TAF EDFH 080500Z 0806/0906 24010KT 6000 OVC004 \n  TEMPO 0806/0809 <span class=\"hl-vis\">0800</span> -<span class=\"hl\">FZDZ</span> OVC001 \n  TEMPO 0809/0811 3000 <span class=\"hl\">BR</span> \n  TEMPO 0811/0821 2000 -<span class=\"hl\">SN</span> <span class=\"hl\">BR</span> OVC001 \n  PROB30 \n  TEMPO 0816/0820 -<span class=\"hl\">FZRA</span> \n  BECMG 0818/0820 16013KT \n  PROB30 \n  TEMPO 0819/0821 <span class=\"hl-vis\">0800</span> <span class=\"hl\">SN</span> \n  TEMPO 0821/0824 <span class=\"hl\">RA</span> \n  BECMG 0900/0903 23020G30KT BKN015 \n  TEMPO 0902/0906 23035G50KT 4000 <span class=\"hl\">SHRA</span> BKN010CB"
    },
    {
      "icao": "EGPD",
      "iata": "ABZ",
      "name": "Aberdeen International Airport",
      "updatedAt": "080520Z",
      "visibility_m": 550,
      "taf_visibility_m": 200,
      "worst_visibility_m": 200,
      "ceiling_ft": null,
      "hazards": [
        "FZFG",
        "BR",
        "SHRA"
      ],
      "severityScore": 100,
      "metarRaw": "METAR EGPD 080520Z COR AUTO 23003KT 170V250 0550 R34/0550N FZFG VV/// M00/M01 Q1002 NOSIG",
      "tafRaw": "TAF EGPD 080453Z 0806/0906 17005KT 0200 FZFG VV/// \n  BECMG 0806/0809 9999 NSW SCT020 \n  TEMPO 0809/0812 2000 BR BKN004 \n  PROB40 \n  TEMPO 0809/0812 0600 FZFG BKN001 \n  TEMPO 0817/0906 4000 BR BKN002 \n  PROB40 \n  TEMPO 0821/0824 SHRA \n  BECMG 0900/0903 30010KT \n  PROB40 \n  TEMPO 0902/0906 SHRA",
      "metarHtml": "METAR EGPD 080520Z COR AUTO 23003KT 170V250 <span class=\"hl-vis\">0550</span> R34/0550N <span class=\"hl\">FZFG</span> VV/// M00/M01 Q1002 NOSIG",
      "tafHtml": "TAF EGPD 080453Z 0806/0906 17005KT <span class=\"hl-vis\">0200</span> <span class=\"hl\">FZFG</span> VV/// \n  BECMG 0806/0809 9999 NSW SCT020 \n  TEMPO 0809/0812 2000 <span class=\"hl\">BR</span> BKN004 \n  PROB40 \n  TEMPO 0809/0812 <span class=\"hl-vis\">0600</span> <span class=\"hl\">FZFG</span> BKN001 \n  TEMPO 0817/0906 4000 <span class=\"hl\">BR</span> BKN002 \n  PROB40 \n  TEMPO 0821/0824 <span class=\"hl\">SHRA</span> \n  BECMG 0900/0903 30010KT \n  PROB40 \n  TEMPO 0902/0906 <span class=\"hl\">SHRA</span>"
    },
    {
      "icao": "EPGD",
      "iata": "GDN",
      "name": "Gdańsk Lech Wałęsa Airport",
      "updatedAt": "080530Z",
      "visibility_m": 200,
      "taf_visibility_m": 100,
      "worst_visibility_m": 100,
      "ceiling_ft": null,
      "hazards": [
        "FZFG",
        "BR",
        "SHSN"
      ],
      "severityScore": 100,
      "metarRaw": "METAR EPGD 080530Z 25002KT 0200 R29/1200D FZFG SCT000 M10/M12 Q1012",
      "tafRaw": "TAF EPGD 080530Z 0806/0906 VRB02KT 1500 BR OVC002 \n  TEMPO 0806/0809 0100 FZFG BKN000 OVC001 \n  BECMG 0809/0812 BKN017 \n  PROB40 \n  TEMPO 0814/0818 3000 -SHSN BR BKN004 BKN008TCU \n  TEMPO 0818/0824 2000 BR BKN012",
      "metarHtml": "METAR EPGD 080530Z 25002KT <span class=\"hl-vis\">0200</span> R29/1200D <span class=\"hl\">FZFG</span> SCT000 M10/M12 Q1012",
      "tafHtml": "TAF EPGD 080530Z 0806/0906 VRB02KT 1500 <span class=\"hl\">BR</span> OVC002 \n  TEMPO 0806/0809 <span class=\"hl-vis\">0100</span> <span class=\"hl\">FZFG</span> BKN000 OVC001 \n  BECMG 0809/0812 BKN017 \n  PROB40 \n  TEMPO 0814/0818 3000 -<span class=\"hl\">SHSN</span> <span class=\"hl\">BR</span> BKN004 BKN008TCU \n  TEMPO 0818/0824 2000 <span class=\"hl\">BR</span> BKN012"
    },
    {
      "icao": "EPKT",
      "iata": "KTW",
      "name": "Katowice Wojciech Korfanty International Airport",
      "updatedAt": "080530Z",
      "visibility_m": 2800,
      "taf_visibility_m": 500,
      "worst_visibility_m": 500,
      "ceiling_ft": 600,
      "hazards": [
        "BR",
        "SN",
        "FZFG"
      ],
      "severityScore": 100,
      "metarRaw": "METAR EPKT 080530Z 34005KT 2800 -SN BR SCT003 OVC006 M08/M09 Q1009",
      "tafRaw": "TAF EPKT 080530Z 0806/0906 34005KT 5000 -SN BR SCT004 BKN009 \n  TEMPO 0806/0821 3000 -SN BR BKN004 OVC008 \n  PROB40 \n  TEMPO 0806/0812 1500 SN BR \n  BECMG 0821/0824 2000 BR \n  TEMPO 0821/0906 1100 BR BKN004 \n  PROB40 \n  TEMPO 0900/0906 0500 FZFG BKN001",
      "metarHtml": "METAR EPKT 080530Z 34005KT 2800 -<span class=\"hl\">SN</span> <span class=\"hl\">BR</span> SCT003 OVC006 M08/M09 Q1009",
      "tafHtml": "TAF EPKT 080530Z 0806/0906 34005KT 5000 -<span class=\"hl\">SN</span> <span class=\"hl\">BR</span> SCT004 BKN009 \n  TEMPO 0806/0821 3000 -<span class=\"hl\">SN</span> <span class=\"hl\">BR</span> BKN004 OVC008 \n  PROB40 \n  TEMPO 0806/0812 1500 <span class=\"hl\">SN</span> <span class=\"hl\">BR</span> \n  BECMG 0821/0824 2000 <span class=\"hl\">BR</span> \n  TEMPO 0821/0906 1100 <span class=\"hl\">BR</span> BKN004 \n  PROB40 \n  TEMPO 0900/0906 <span class=\"hl-vis\">0500</span> <span class=\"hl\">FZFG</span> BKN001"
    },
    {
      "icao": "LEMD",
      "iata": "MAD",
      "name": "Adolfo Suárez Madrid–Barajas Airport",
      "updatedAt": "080530Z",
      "visibility_m": 4000,
      "taf_visibility_m": 200,
      "worst_visibility_m": 200,
      "ceiling_ft": 500,
      "hazards": [
        "BR",
        "FZFG",
        "FG",
        "DZ"
      ],
      "severityScore": 100,
      "metarRaw": "METAR LEMD 080530Z 01003KT 350V050 4000 1500NE BR BCFG FEW002 OVC005 M00/M00 Q1029 NOSIG",
      "tafRaw": "TAF LEMD 080500Z 0806/0912 VRB03KT 4000 BR BKN004 TX10/0912Z TNM00/0806Z \n  TEMPO 0806/0811 1000 BCFG BKN002 \n  PROB40 0806/0809 0300 FZFG VV001 \n  TEMPO 0811/0820 9999 NSW BKN010 \n  BECMG 0817/0819 22010KT \n  TEMPO 0902/0906 23015G25KT \n  PROB40 \n  TEMPO 0822/0909 1200 BCFG BKN002 \n  PROB40 \n  TEMPO 0823/0909 0200 DZ FG VV001 \n  BECMG 0909/0911 CAVOK",
      "metarHtml": "METAR LEMD 080530Z 01003KT 350V050 4000 1500NE <span class=\"hl\">BR</span> BCFG FEW002 OVC005 M00/M00 Q1029 NOSIG",
      "tafHtml": "TAF LEMD 080500Z 0806/0912 VRB03KT 4000 <span class=\"hl\">BR</span> BKN004 TX10/0912Z TNM00/0806Z \n  TEMPO 0806/0811 1000 BCFG BKN002 \n  PROB40 0806/0809 <span class=\"hl-vis\">0300</span> <span class=\"hl\">FZFG</span> VV001 \n  TEMPO 0811/0820 9999 NSW BKN010 \n  BECMG 0817/0819 22010KT \n  TEMPO 0902/0906 23015G25KT \n  PROB40 \n  TEMPO 0822/0909 1200 BCFG BKN002 \n  PROB40 \n  TEMPO 0823/0909 <span class=\"hl-vis\">0200</span> <span class=\"hl\">DZ</span> <span class=\"hl\">FG</span> VV001 \n  BECMG 0909/0911 <span class=\"hl-vis\">CAVOK</span>"
    },
    {
      "icao": "LFOB",
      "iata": "BVA",
      "name": "Beauvais Tillé airport",
      "updatedAt": "080530Z",
      "visibility_m": 700,
      "taf_visibility_m": null,
      "worst_visibility_m": 700,
      "ceiling_ft": 500,
      "hazards": [
        "FG",
        "FZRA"
      ],
      "severityScore": 100,
      "metarRaw": "METAR LFOB 080530Z AUTO 13003KT 0750 0700 R30/0800N R12/0900D FG VV/// 02/02 Q1006 TEMPO 2000 FZRA BKN005 OVC008",
      "tafRaw": null,
      "metarHtml": "METAR LFOB 080530Z AUTO 13003KT <span class=\"hl-vis\">0750</span> <span class=\"hl-vis\">0700</span> R30/0800N R12/0900D <span class=\"hl\">FG</span> VV/// 02/02 Q1006 TEMPO 2000 <span class=\"hl\">FZRA</span> BKN005 OVC008",
      "tafHtml": null
    },
    {
      "icao": "LIPX",
      "iata": "VRN",
      "name": "Verona Villafranca Valerio Catullo Airport",
      "updatedAt": "080520Z",
      "visibility_m": 200,
      "taf_visibility_m": 100,
      "worst_visibility_m": 100,
      "ceiling_ft": 100,
      "hazards": [
        "FZFG",
        "BR"
      ],
      "severityScore": 100,
      "metarRaw": "METAR LIPX 080520Z 08003KT 040V130 0200 R04/0500N FZFG VV001 M04/M05 Q1012",
      "tafRaw": "TAF LIPX 080500Z 0806/0906 VRB05KT 2000 BR NSC \n  TEMPO 0806/0808 0100 FZFG BKN001 \n  BECMG 0808/0810 8000",
      "metarHtml": "METAR LIPX 080520Z 08003KT 040V130 <span class=\"hl-vis\">0200</span> R04/0500N <span class=\"hl\">FZFG</span> VV001 M04/M05 Q1012",
      "tafHtml": "TAF LIPX 080500Z 0806/0906 VRB05KT 2000 <span class=\"hl\">BR</span> NSC \n  TEMPO 0806/0808 <span class=\"hl-vis\">0100</span> <span class=\"hl\">FZFG</span> BKN001 \n  BECMG 0808/0810 8000"
    },
    {
      "icao": "LRIA",
      "iata": "IAS",
      "name": "Iaşi Airport",
      "updatedAt": "080530Z",
      "visibility_m": 2000,
      "taf_visibility_m": 600,
      "worst_visibility_m": 600,
      "ceiling_ft": 200,
      "hazards": [
        "SN",
        "BLSN"
      ],
      "severityScore": 100,
      "metarRaw": "METAR LRIA 080530Z 31006KT 2000 SNPL OVC002 M01/M01 Q0999",
      "tafRaw": "TAF LRIA 080500Z 0806/0815 31010KT 1500 SN OVC002 \n  TEMPO 0806/0812 0600 +SN BLSN OVC001 \n  TEMPO 0810/0815 31015G25KT BLSN",
      "metarHtml": "METAR LRIA 080530Z 31006KT 2000 SNPL OVC002 M01/M01 Q0999",
      "tafHtml": "TAF LRIA 080500Z 0806/0815 31010KT 1500 <span class=\"hl\">SN</span> OVC002 \n  TEMPO 0806/0812 <span class=\"hl-vis\">0600</span> +<span class=\"hl\">SN</span> <span class=\"hl\">BLSN</span> OVC001 \n  TEMPO 0810/0815 31015G25KT <span class=\"hl\">BLSN</span>"
    },
    {
      "icao": "LRSV",
      "iata": "SCV",
      "name": "Suceava Stefan cel Mare Airport",
      "updatedAt": "080530Z",
      "visibility_m": 800,
      "taf_visibility_m": 350,
      "worst_visibility_m": 350,
      "ceiling_ft": 700,
      "hazards": [
        "SHSN",
        "SN",
        "BLSN"
      ],
      "severityScore": 100,
      "metarRaw": "METAR LRSV 080530Z 33009KT 0800 R34/1400U +SHSN BKN007 SCT020CB M04/M05 Q0999",
      "tafRaw": "TAF LRSV 080500Z 0806/0815 34008KT 1500 SN BKN010 OVC020 \n  TEMPO 0806/0809 0350 +SN OVC001 \n  BECMG 0809/0811 32020KT BLSN",
      "metarHtml": "METAR LRSV 080530Z 33009KT <span class=\"hl-vis\">0800</span> R34/1400U +<span class=\"hl\">SHSN</span> BKN007 SCT020CB M04/M05 Q0999",
      "tafHtml": "TAF LRSV 080500Z 0806/0815 34008KT 1500 <span class=\"hl\">SN</span> BKN010 OVC020 \n  TEMPO 0806/0809 <span class=\"hl-vis\">0350</span> +<span class=\"hl\">SN</span> OVC001 \n  BECMG 0809/0811 32020KT <span class=\"hl\">BLSN</span>"
    },
    {
      "icao": "LUKK",
      "iata": "RMO",
      "name": "Chişinău International Airport",
      "updatedAt": "080530Z",
      "visibility_m": 3800,
      "taf_visibility_m": 800,
      "worst_visibility_m": 800,
      "ceiling_ft": 500,
      "hazards": [
        "BR",
        "SHRA",
        "FZRA",
        "SN",
        "BLSN",
        "RA"
      ],
      "severityScore": 100,
      "metarRaw": "METAR LUKK 080530Z 07007KT 3800 SHRA BR OVC002CB 00/00 Q0998 TEMPO 4000 -SHRA BR BKN005 BKN012CB",
      "tafRaw": "TAF LUKK 080519Z 0806/0906 30010KT 3000 -RA BR OVC002 \n  TEMPO 0806/0808 1000 SHRA OVC001 BKN010CB \n  TEMPO 0808/0810 4000 -FZRA -SN \n  BECMG 0810/0812 29016G26KT 3000 -FZRA -SN OVC004 \n  BECMG 0812/0814 30018G28KT 3000 -SN BLSN OVC003 \n  TEMPO 0814/0819 0800 +SN BLSN OVC001",
      "metarHtml": "METAR LUKK 080530Z 07007KT 3800 <span class=\"hl\">SHRA</span> <span class=\"hl\">BR</span> OVC002CB 00/00 Q0998 TEMPO 4000 -<span class=\"hl\">SHRA</span> <span class=\"hl\">BR</span> BKN005 BKN012CB",
      "tafHtml": "TAF LUKK 080519Z 0806/0906 30010KT 3000 -<span class=\"hl\">RA</span> <span class=\"hl\">BR</span> OVC002 \n  TEMPO 0806/0808 1000 <span class=\"hl\">SHRA</span> OVC001 BKN010CB \n  TEMPO 0808/0810 4000 -<span class=\"hl\">FZRA</span> -<span class=\"hl\">SN</span> \n  BECMG 0810/0812 29016G26KT 3000 -<span class=\"hl\">FZRA</span> -<span class=\"hl\">SN</span> OVC004 \n  BECMG 0812/0814 30018G28KT 3000 -<span class=\"hl\">SN</span> <span class=\"hl\">BLSN</span> OVC003 \n  TEMPO 0814/0819 <span class=\"hl-vis\">0800</span> +<span class=\"hl\">SN</span> <span class=\"hl\">BLSN</span> OVC001"
    },
    {
      "icao": "UAAA",
      "iata": "ALA",
      "name": "Almaty International Airport",
      "updatedAt": "080530Z",
      "visibility_m": 1100,
      "taf_visibility_m": 400,
      "worst_visibility_m": 400,
      "ceiling_ft": 400,
      "hazards": [
        "BR",
        "SN",
        "FZFG"
      ],
      "severityScore": 100,
      "metarRaw": "METAR UAAA 080530Z VRB01MPS 1100 R23L/1100 -SN BR BKN004 OVC026 M05/M06 Q1032 NOSIG RMK QBB140",
      "tafRaw": "TAF UAAA 080504Z 0806/0906 03003MPS 2200 BR FU BKN011 OVC100 TXM01/0809Z TNM07/0901Z \n  TEMPO 0806/0811 0800 FZFG VV003 \n  BECMG 0811/0812 1200 \n  TEMPO 0812/0824 0400 FZFG VV002 \n  TEMPO 0900/0906 0600 FZFG VV003",
      "metarHtml": "METAR UAAA 080530Z VRB01MPS 1100 R23L/1100 -<span class=\"hl\">SN</span> <span class=\"hl\">BR</span> BKN004 OVC026 M05/M06 Q1032 NOSIG RMK QBB140",
      "tafHtml": "TAF UAAA 080504Z 0806/0906 03003MPS 2200 <span class=\"hl\">BR</span> FU BKN011 OVC100 TXM01/0809Z TNM07/0901Z \n  TEMPO 0806/0811 <span class=\"hl-vis\">0800</span> <span class=\"hl\">FZFG</span> VV003 \n  BECMG 0811/0812 1200 \n  TEMPO 0812/0824 <span class=\"hl-vis\">0400</span> <span class=\"hl\">FZFG</span> VV002 \n  TEMPO 0900/0906 <span class=\"hl-vis\">0600</span> <span class=\"hl\">FZFG</span> VV003"
    },
    {
      "icao": "UBBB",
      "iata": "GYD",
      "name": "Heydar Aliyev International Airport",
      "updatedAt": "080530Z",
      "visibility_m": 600,
      "taf_visibility_m": 200,
      "worst_visibility_m": 200,
      "ceiling_ft": 200,
      "hazards": [
        "FG",
        "BR"
      ],
      "severityScore": 100,
      "metarRaw": "METAR UBBB 080530Z 15006KT 0600 R16/0600 R17/1400 FG VV002 05/05 Q1020 NOSIG",
      "tafRaw": "TAF UBBB 080521Z 0806/0906 18010KT 0800 FG VV002 TX10/0910Z TN04/0903Z \n  TEMPO 0806/0807 1500 BR BKN004 \n  BECMG 0807/0808 20010KT 8000 NSW SCT020 \n  BECMG 0814/0816 VRB04KT 0600 FG VV003 \n  TEMPO 0816/0822 0200 VV002 \n  BECMG 0822/0824 19016KT",
      "metarHtml": "METAR UBBB 080530Z 15006KT <span class=\"hl-vis\">0600</span> R16/<span class=\"hl-vis\">0600</span> R17/1400 <span class=\"hl\">FG</span> VV002 05/05 Q1020 NOSIG",
      "tafHtml": "TAF UBBB 080521Z 0806/0906 18010KT <span class=\"hl-vis\">0800</span> <span class=\"hl\">FG</span> VV002 TX10/0910Z TN04/0903Z \n  TEMPO 0806/0807 1500 <span class=\"hl\">BR</span> BKN004 \n  BECMG 0807/0808 20010KT 8000 NSW SCT020 \n  BECMG 0814/0816 VRB04KT <span class=\"hl-vis\">0600</span> <span class=\"hl\">FG</span> VV003 \n  TEMPO 0816/0822 <span class=\"hl-vis\">0200</span> VV002 \n  BECMG 0822/0824 19016KT"
    },
    {
      "icao": "EGGW",
      "iata": "LTN",
      "name": "London Luton Airport",
      "updatedAt": "080520Z",
      "visibility_m": 2700,
      "taf_visibility_m": 300,
      "worst_visibility_m": 300,
      "ceiling_ft": 1300,
      "hazards": [
        "RA",
        "FG",
        "BR"
      ],
      "severityScore": 99,
      "metarRaw": "METAR EGGW 080520Z AUTO 22002KT 2700 RA OVC013 02/01 Q1004",
      "tafRaw": "TAF EGGW 080456Z 0806/0906 24004KT 9999 SCT030 \n  BECMG 0806/0809 BKN008 \n  TEMPO 0806/0815 4000 RADZ BR BKN003 \n  PROB40 \n  TEMPO 0806/0814 0300 FG BKN001 \n  PROB30 \n  TEMPO 0814/0817 0600 FG BKN001 \n  BECMG 0815/0818 11012KT \n  TEMPO 0815/0821 4000 RA BKN004 \n  TEMPO 0818/0822 09018G30KT \n  PROB40 \n  TEMPO 0821/0903 4000 RADZ BR BKN004 \n  BECMG 0900/0903 34012KT \n  TEMPO 0903/0906 4000 RA RASN \n  PROB30 \n  TEMPO 0903/0906 1400 +RASN BKN002 \n  TEMPO 0904/0906 33018G28KT",
      "metarHtml": "METAR EGGW 080520Z AUTO 22002KT 2700 <span class=\"hl\">RA</span> OVC013 02/01 Q1004",
      "tafHtml": "TAF EGGW 080456Z 0806/0906 24004KT 9999 SCT030 \n  BECMG 0806/0809 BKN008 \n  TEMPO 0806/0815 4000 RADZ <span class=\"hl\">BR</span> BKN003 \n  PROB40 \n  TEMPO 0806/0814 <span class=\"hl-vis\">0300</span> <span class=\"hl\">FG</span> BKN001 \n  PROB30 \n  TEMPO 0814/0817 <span class=\"hl-vis\">0600</span> <span class=\"hl\">FG</span> BKN001 \n  BECMG 0815/0818 11012KT \n  TEMPO 0815/0821 4000 <span class=\"hl\">RA</span> BKN004 \n  TEMPO 0818/0822 09018G30KT \n  PROB40 \n  TEMPO 0821/0903 4000 RADZ <span class=\"hl\">BR</span> BKN004 \n  BECMG 0900/0903 34012KT \n  TEMPO 0903/0906 4000 <span class=\"hl\">RA</span> RASN \n  PROB30 \n  TEMPO 0903/0906 1400 +RASN BKN002 \n  TEMPO 0904/0906 33018G28KT"
    },
    {
      "icao": "LFPO",
      "iata": "ORY",
      "name": "Paris-Orly Airport",
      "updatedAt": "080530Z",
      "visibility_m": 3000,
      "taf_visibility_m": 1500,
      "worst_visibility_m": 1500,
      "ceiling_ft": 300,
      "hazards": [
        "BR",
        "DZ",
        "RA",
        "SHRA"
      ],
      "severityScore": 91,
      "metarRaw": "METAR LFPO 080530Z 21006KT 3000 -DZ BR OVC003 03/03 Q1007 BECMG BKN004",
      "tafRaw": "TAF LFPO 080500Z 0806/0912 24010KT 7000 OVC002 \n  PROB40 \n  TEMPO 0806/0809 4500 -DZRA BKN008 \n  PROB30 \n  TEMPO 0806/0809 1500 BR \n  BECMG 0807/0810 BKN020 \n  TEMPO 0811/0819 4000 -RA BKN008 \n  BECMG 0817/0819 20015G35KT \n  TEMPO 0819/0822 22020G40KT 4000 -RA BKN012 \n  TEMPO 0822/0906 22025G45KT 4500 -SHRA BKN014TCU \n  PROB40 \n  TEMPO 0900/0906 22030G50KT",
      "metarHtml": "METAR LFPO 080530Z 21006KT 3000 -<span class=\"hl\">DZ</span> <span class=\"hl\">BR</span> OVC003 03/03 Q1007 BECMG BKN004",
      "tafHtml": "TAF LFPO 080500Z 0806/0912 24010KT 7000 OVC002 \n  PROB40 \n  TEMPO 0806/0809 4500 -DZRA BKN008 \n  PROB30 \n  TEMPO 0806/0809 1500 <span class=\"hl\">BR</span> \n  BECMG 0807/0810 BKN020 \n  TEMPO 0811/0819 4000 -<span class=\"hl\">RA</span> BKN008 \n  BECMG 0817/0819 20015G35KT \n  TEMPO 0819/0822 22020G40KT 4000 -<span class=\"hl\">RA</span> BKN012 \n  TEMPO 0822/0906 22025G45KT 4500 -<span class=\"hl\">SHRA</span> BKN014TCU \n  PROB40 \n  TEMPO 0900/0906 22030G50KT"
    },
    {
      "icao": "LIPE",
      "iata": "BLQ",
      "name": "Bologna Guglielmo Marconi Airport",
      "updatedAt": "080520Z",
      "visibility_m": 10000,
      "taf_visibility_m": 200,
      "worst_visibility_m": 200,
      "ceiling_ft": null,
      "hazards": [
        "FZFG"
      ],
      "severityScore": 85,
      "metarRaw": "METAR LIPE 080520Z 20007KT CAVOK M04/M08 Q1012",
      "tafRaw": "TAF LIPE 080500Z 0806/0906 VRB05KT 9999 FEW030 \n  PROB30 \n  TEMPO 0806/0808 0200 FZFG",
      "metarHtml": "METAR LIPE 080520Z 20007KT <span class=\"hl-vis\">CAVOK</span> M04/M08 Q1012",
      "tafHtml": "TAF LIPE 080500Z 0806/0906 VRB05KT 9999 FEW030 \n  PROB30 \n  TEMPO 0806/0808 <span class=\"hl-vis\">0200</span> <span class=\"hl\">FZFG</span>"
    },
    {
      "icao": "LQSA",
      "iata": "SJJ",
      "name": "Sarajevo International Airport",
      "updatedAt": "080530Z",
      "visibility_m": 2000,
      "taf_visibility_m": 500,
      "worst_visibility_m": 500,
      "ceiling_ft": 2000,
      "hazards": [
        "SN",
        "FZFG"
      ],
      "severityScore": 83,
      "metarRaw": "METAR LQSA 080530Z VRB02KT 2000 SN SCT006 BKN020 OVC030 M05/M06 Q1008 NOSIG",
      "tafRaw": "TAF LQSA 080500Z 0806/0906 29005KT 7000 SCT012 OVC030 TXM03/0813Z TNM09/0901Z \n  TEMPO 0806/0810 35010KT SN \n  PROB30 0902/0906 0500 FZFG BKN004",
      "metarHtml": "METAR LQSA 080530Z VRB02KT 2000 <span class=\"hl\">SN</span> SCT006 BKN020 OVC030 M05/M06 Q1008 NOSIG",
      "tafHtml": "TAF LQSA 080500Z 0806/0906 29005KT 7000 SCT012 OVC030 TXM03/0813Z TNM09/0901Z \n  TEMPO 0806/0810 35010KT <span class=\"hl\">SN</span> \n  PROB30 0902/0906 <span class=\"hl-vis\">0500</span> <span class=\"hl\">FZFG</span> BKN004"
    },
    {
      "icao": "LKMT",
      "iata": "OSR",
      "name": "Ostrava Leos Janáček Airport",
      "updatedAt": "080530Z",
      "visibility_m": 7000,
      "taf_visibility_m": 900,
      "worst_visibility_m": 900,
      "ceiling_ft": 1300,
      "hazards": [
        "SN",
        "FZFG",
        "BR"
      ],
      "severityScore": 80,
      "metarRaw": "METAR LKMT 080530Z 36004KT 7000 -SN BKN013 OVC017 M06/M08 Q1010 NOSIG",
      "tafRaw": "TAF LKMT 080500Z 0806/0906 01008KT 6000 -SN SCT009 OVC014 \n  BECMG 0808/0810 9999 BKN025 \n  BECMG 0819/0821 VRB02KT \n  BECMG 0823/0901 4500 BR NSC \n  PROB40 \n  TEMPO 0903/0906 0900 FZFG SCT002",
      "metarHtml": "METAR LKMT 080530Z 36004KT 7000 -<span class=\"hl\">SN</span> BKN013 OVC017 M06/M08 Q1010 NOSIG",
      "tafHtml": "TAF LKMT 080500Z 0806/0906 01008KT 6000 -<span class=\"hl\">SN</span> SCT009 OVC014 \n  BECMG 0808/0810 9999 BKN025 \n  BECMG 0819/0821 VRB02KT \n  BECMG 0823/0901 4500 <span class=\"hl\">BR</span> NSC \n  PROB40 \n  TEMPO 0903/0906 0900 <span class=\"hl\">FZFG</span> SCT002"
    },
    {
      "icao": "EDDS",
      "iata": "STR",
      "name": "Stuttgart Airport",
      "updatedAt": "080520Z",
      "visibility_m": 10000,
      "taf_visibility_m": 3000,
      "worst_visibility_m": 3000,
      "ceiling_ft": null,
      "hazards": [
        "FZRA",
        "SN",
        "RA",
        "SHRA"
      ],
      "severityScore": 79,
      "metarRaw": "METAR EDDS 080520Z AUTO 21003KT 170V280 9999 FEW018 M02/M05 Q1009 NOSIG",
      "tafRaw": "TAF EDDS 080500Z 0806/0906 22004KT 9999 BKN020 \n  TEMPO 0812/0816 4000 -SN \n  PROB30 \n  TEMPO 0814/0816 -FZRA \n  TEMPO 0820/0902 3000 RA \n  BECMG 0822/0902 21013KT \n  TEMPO 0902/0905 23020G35KT SHRA BKN015CB",
      "metarHtml": "METAR EDDS 080520Z AUTO 21003KT 170V280 9999 FEW018 M02/M05 Q1009 NOSIG",
      "tafHtml": "TAF EDDS 080500Z 0806/0906 22004KT 9999 BKN020 \n  TEMPO 0812/0816 4000 -<span class=\"hl\">SN</span> \n  PROB30 \n  TEMPO 0814/0816 -<span class=\"hl\">FZRA</span> \n  TEMPO 0820/0902 3000 <span class=\"hl\">RA</span> \n  BECMG 0822/0902 21013KT \n  TEMPO 0902/0905 23020G35KT <span class=\"hl\">SHRA</span> BKN015CB"
    },
    {
      "icao": "EPLB",
      "iata": "LUZ",
      "name": "Lublin Airport",
      "updatedAt": "080530Z",
      "visibility_m": 2800,
      "taf_visibility_m": 600,
      "worst_visibility_m": 600,
      "ceiling_ft": 3000,
      "hazards": [
        "BR",
        "SN",
        "BLSN"
      ],
      "severityScore": 75,
      "metarRaw": "METAR EPLB 080530Z 03009KT 2800 -SN BR SCT027 BKN030 OVC034 M05/M06 Q1008",
      "tafRaw": "TAF EPLB 080530Z 0806/0906 01010KT 4000 -SN BR SCT005 OVC015 \n  TEMPO 0806/0824 2000 SN BR BKN005 OVC010 \n  PROB40 0806/0810 0600 +SN OVC003 \n  PROB40 \n  TEMPO 0812/0906 35017G27KT 1200 BLSN BKN005",
      "metarHtml": "METAR EPLB 080530Z 03009KT 2800 -<span class=\"hl\">SN</span> <span class=\"hl\">BR</span> SCT027 BKN030 OVC034 M05/M06 Q1008",
      "tafHtml": "TAF EPLB 080530Z 0806/0906 01010KT 4000 -<span class=\"hl\">SN</span> <span class=\"hl\">BR</span> SCT005 OVC015 \n  TEMPO 0806/0824 2000 <span class=\"hl\">SN</span> <span class=\"hl\">BR</span> BKN005 OVC010 \n  PROB40 0806/0810 <span class=\"hl-vis\">0600</span> +<span class=\"hl\">SN</span> OVC003 \n  PROB40 \n  TEMPO 0812/0906 35017G27KT 1200 <span class=\"hl\">BLSN</span> BKN005"
    },
    {
      "icao": "EPRZ",
      "iata": "RZE",
      "name": "Rzeszów-Jasionka Airport",
      "updatedAt": "080530Z",
      "visibility_m": 1200,
      "taf_visibility_m": 500,
      "worst_visibility_m": 500,
      "ceiling_ft": 1300,
      "hazards": [
        "BR",
        "SN"
      ],
      "severityScore": 75,
      "metarRaw": "METAR EPRZ 080530Z 34008KT 1200 R27/P2000N -SN BR FEW008 OVC013 M05/M06 Q1006",
      "tafRaw": "TAF EPRZ 080530Z 0806/0906 35008KT 4000 -SN BR FEW009 OVC020 \n  TEMPO 0806/0812 1500 SN BR SCT003 OVC007 \n  PROB30 \n  TEMPO 0806/0812 0500 +SN BKN002 \n  TEMPO 0812/0818 2000 SN BR BKN012 \n  PROB30 \n  TEMPO 0816/0821 33015G25KT 1200 SN DRSN BKN008 \n  BECMG 0821/0824 29012KT \n  TEMPO 0821/0906 30015G28KT 1200 SN DRSN BKN008",
      "metarHtml": "METAR EPRZ 080530Z 34008KT 1200 R27/P2000N -<span class=\"hl\">SN</span> <span class=\"hl\">BR</span> FEW008 OVC013 M05/M06 Q1006",
      "tafHtml": "TAF EPRZ 080530Z 0806/0906 35008KT 4000 -<span class=\"hl\">SN</span> <span class=\"hl\">BR</span> FEW009 OVC020 \n  TEMPO 0806/0812 1500 <span class=\"hl\">SN</span> <span class=\"hl\">BR</span> SCT003 OVC007 \n  PROB30 \n  TEMPO 0806/0812 <span class=\"hl-vis\">0500</span> +<span class=\"hl\">SN</span> BKN002 \n  TEMPO 0812/0818 2000 <span class=\"hl\">SN</span> <span class=\"hl\">BR</span> BKN012 \n  PROB30 \n  TEMPO 0816/0821 33015G25KT 1200 <span class=\"hl\">SN</span> DRSN BKN008 \n  BECMG 0821/0824 29012KT \n  TEMPO 0821/0906 30015G28KT 1200 <span class=\"hl\">SN</span> DRSN BKN008"
    },
    {
      "icao": "LFLS",
      "iata": "GNB",
      "name": "Grenoble Alpes Isère Airport",
      "updatedAt": "080530Z",
      "visibility_m": 1200,
      "taf_visibility_m": 1200,
      "worst_visibility_m": 1200,
      "ceiling_ft": 800,
      "hazards": [
        "SN",
        "BR",
        "RA"
      ],
      "severityScore": 75,
      "metarRaw": "METAR LFLS 080530Z AUTO 07007KT 9000 FEW019 SCT028 BKN042 M01/M02 Q1015 TEMPO 1200 SN BKN008",
      "tafRaw": "TAF LFLS 080200Z 0803/0903 08005KT 9999 OVC050 \n  BECMG 0803/0805 -SN OVC030 \n  TEMPO 0803/0808 1200 SN BKN008 \n  FM080800 08006KT 9999 -RA OVC030 \n  TEMPO 0808/0815 4000 RA BKN012 \n  PROB30 \n  TEMPO 0815/0820 4000 -RA BR \n  BECMG 0819/0821 18012KT 9999 BKN060 \n  PROB40 \n  TEMPO 0821/0903 18020G30KT",
      "metarHtml": "METAR LFLS 080530Z AUTO 07007KT 9000 FEW019 SCT028 BKN042 M01/M02 Q1015 TEMPO 1200 <span class=\"hl\">SN</span> BKN008",
      "tafHtml": "TAF LFLS 080200Z 0803/0903 08005KT 9999 OVC050 \n  BECMG 0803/0805 -<span class=\"hl\">SN</span> OVC030 \n  TEMPO 0803/0808 1200 <span class=\"hl\">SN</span> BKN008 \n  FM080800 08006KT 9999 -<span class=\"hl\">RA</span> OVC030 \n  TEMPO 0808/0815 4000 <span class=\"hl\">RA</span> BKN012 \n  PROB30 \n  TEMPO 0815/0820 4000 -<span class=\"hl\">RA</span> <span class=\"hl\">BR</span> \n  BECMG 0819/0821 18012KT 9999 BKN060 \n  PROB40 \n  TEMPO 0821/0903 18020G30KT"
    },
    {
      "icao": "LJLJ",
      "iata": "LJU",
      "name": "Ljubljana Jože Pučnik Airport",
      "updatedAt": "080530Z",
      "visibility_m": 10000,
      "taf_visibility_m": 300,
      "worst_visibility_m": 300,
      "ceiling_ft": null,
      "hazards": [
        "FZFG"
      ],
      "severityScore": 75,
      "metarRaw": "METAR LJLJ 080530Z 25004KT 9999 FEW002 M10/M11 Q1011 NOSIG",
      "tafRaw": "TAF LJLJ 080500Z 0806/0906 VRB02KT 9999 FEW020 \n  PROB30 \n  TEMPO 0903/0906 0300 FZFG VV001",
      "metarHtml": "METAR LJLJ 080530Z 25004KT 9999 FEW002 M10/M11 Q1011 NOSIG",
      "tafHtml": "TAF LJLJ 080500Z 0806/0906 VRB02KT 9999 FEW020 \n  PROB30 \n  TEMPO 0903/0906 <span class=\"hl-vis\">0300</span> <span class=\"hl\">FZFG</span> VV001"
    },
    {
      "icao": "LQTZ",
      "iata": "TZL",
      "name": "Tuzla International Airport",
      "updatedAt": "080530Z",
      "visibility_m": 1500,
      "taf_visibility_m": 2000,
      "worst_visibility_m": 1500,
      "ceiling_ft": 400,
      "hazards": [
        "BR",
        "SN"
      ],
      "severityScore": 73,
      "metarRaw": "METAR LQTZ 080530Z 28005KT 1500 R09/1400D SN BR BKN004 OVC008 M04/M04 Q1010",
      "tafRaw": "TAF LQTZ 080500Z 0806/0906 23005KT 9999 SCT013 BKN030 TXM02/0813Z TNM08/0905Z \n  TEMPO 0806/0814 30010KT \n  PROB40 \n  TEMPO 0806/0809 2000 -SN BR BKN005 OVC015",
      "metarHtml": "METAR LQTZ 080530Z 28005KT 1500 R09/1400D <span class=\"hl\">SN</span> <span class=\"hl\">BR</span> BKN004 OVC008 M04/M04 Q1010",
      "tafHtml": "TAF LQTZ 080500Z 0806/0906 23005KT 9999 SCT013 BKN030 TXM02/0813Z TNM08/0905Z \n  TEMPO 0806/0814 30010KT \n  PROB40 \n  TEMPO 0806/0809 2000 -<span class=\"hl\">SN</span> <span class=\"hl\">BR</span> BKN005 OVC015"
    },
    {
      "icao": "LTAC",
      "iata": "ESB",
      "name": "Esenboğa International Airport",
      "updatedAt": "080520Z",
      "visibility_m": 3500,
      "taf_visibility_m": 4000,
      "worst_visibility_m": 3500,
      "ceiling_ft": 8000,
      "hazards": [
        "BR",
        "TSRA",
        "SN",
        "SHRA"
      ],
      "severityScore": 67,
      "metarRaw": "METAR LTAC 080520Z 32003KT 260V030 3500 BR SCT040 BKN080 03/03 Q1014 NOSIG RMK RWY21C VRB04KT RWY03L VRB02KT RWY21R VRB02KT RWY03R VRB02KT RWY21L 28004KT 200V320",
      "tafRaw": "TAF LTAC 080440Z 0806/0906 VRB02KT 4000 BR SCT040 BKN100 \n  BECMG 0806/0809 21012KT 9999 NSW \n  TEMPO 0810/0814 22015G25KT -SHRA FEW025CB BKN035 BKN080 \n  TEMPO 0814/0818 22020G30KT -TSRA SCT025CB BKN035 \n  TEMPO 0820/0824 4000 -RASN BR SCT008 BKN025 \n  TEMPO 0902/0906 4000 -SN SCT010 BKN025 BKN080",
      "metarHtml": "METAR LTAC 080520Z 32003KT 260V030 3500 <span class=\"hl\">BR</span> SCT040 BKN080 03/03 Q1014 NOSIG RMK RWY21C VRB04KT RWY03L VRB02KT RWY21R VRB02KT RWY03R VRB02KT RWY21L 28004KT 200V320",
      "tafHtml": "TAF LTAC 080440Z 0806/0906 VRB02KT 4000 <span class=\"hl\">BR</span> SCT040 BKN100 \n  BECMG 0806/0809 21012KT 9999 NSW \n  TEMPO 0810/0814 22015G25KT -<span class=\"hl\">SHRA</span> FEW025CB BKN035 BKN080 \n  TEMPO 0814/0818 22020G30KT -<span class=\"hl\">TSRA</span> SCT025CB BKN035 \n  TEMPO 0820/0824 4000 -RASN <span class=\"hl\">BR</span> SCT008 BKN025 \n  TEMPO 0902/0906 4000 -<span class=\"hl\">SN</span> SCT010 BKN025 BKN080"
    },
    {
      "icao": "EGNM",
      "iata": "LBA",
      "name": "Leeds Bradford Airport",
      "updatedAt": "080450Z",
      "visibility_m": 10000,
      "taf_visibility_m": 500,
      "worst_visibility_m": 500,
      "ceiling_ft": null,
      "hazards": [
        "SN",
        "RA"
      ],
      "severityScore": 65,
      "metarRaw": "METAR EGNM 080450Z 27009KT CAVOK 01/M03 Q1003",
      "tafRaw": "TAF EGNM 080503Z 0806/0906 28003KT 9999 FEW015 \n  PROB30 \n  TEMPO 0806/0810 6000 -RASN BKN006 \n  TEMPO 0808/0817 BKN012 \n  BECMG 0818/0821 04012KT BKN009 \n  TEMPO 0818/0903 4000 RASN -SN BKN004 \n  PROB30 \n  TEMPO 0818/0903 04015G25KT 0500 +SN BKN001 \n  BECMG 0903/0906 34010KT SCT020 \n  TEMPO 0903/0906 6000 RA -RADZ \n  PROB30 \n  TEMPO 0903/0906 4000 RADZ RASN BKN004",
      "metarHtml": "METAR EGNM 080450Z 27009KT <span class=\"hl-vis\">CAVOK</span> 01/M03 Q1003",
      "tafHtml": "TAF EGNM 080503Z 0806/0906 28003KT 9999 FEW015 \n  PROB30 \n  TEMPO 0806/0810 6000 -RASN BKN006 \n  TEMPO 0808/0817 BKN012 \n  BECMG 0818/0821 04012KT BKN009 \n  TEMPO 0818/0903 4000 RASN -<span class=\"hl\">SN</span> BKN004 \n  PROB30 \n  TEMPO 0818/0903 04015G25KT <span class=\"hl-vis\">0500</span> +<span class=\"hl\">SN</span> BKN001 \n  BECMG 0903/0906 34010KT SCT020 \n  TEMPO 0903/0906 6000 <span class=\"hl\">RA</span> -RADZ \n  PROB30 \n  TEMPO 0903/0906 4000 RADZ RASN BKN004"
    },
    {
      "icao": "EYPA",
      "iata": "PLQ",
      "name": "Palanga International Airport",
      "updatedAt": "080520Z",
      "visibility_m": 10000,
      "taf_visibility_m": 400,
      "worst_visibility_m": 400,
      "ceiling_ft": null,
      "hazards": [
        "FZFG"
      ],
      "severityScore": 65,
      "metarRaw": "METAR EYPA 080520Z VRB02KT CAVOK M12/M13 Q1016",
      "tafRaw": "TAF EYPA 080506Z 0806/0906 VRB04KT 6000 NSC \n  TEMPO 0806/0808 BKN003 \n  PROB30 \n  TEMPO 0806/0808 0400 FZFG VV002 \n  BECMG 0808/0810 BKN010 \n  BECMG 0810/0812 BKN015 \n  TEMPO 0812/0821 BKN010",
      "metarHtml": "METAR EYPA 080520Z VRB02KT <span class=\"hl-vis\">CAVOK</span> M12/M13 Q1016",
      "tafHtml": "TAF EYPA 080506Z 0806/0906 VRB04KT 6000 NSC \n  TEMPO 0806/0808 BKN003 \n  PROB30 \n  TEMPO 0806/0808 <span class=\"hl-vis\">0400</span> <span class=\"hl\">FZFG</span> VV002 \n  BECMG 0808/0810 BKN010 \n  BECMG 0810/0812 BKN015 \n  TEMPO 0812/0821 BKN010"
    },
    {
      "icao": "LRBS",
      "iata": "BBU",
      "name": "Bucharest Băneasa Aurel Vlaicu International Airport",
      "updatedAt": "080530Z",
      "visibility_m": 5000,
      "taf_visibility_m": 3000,
      "worst_visibility_m": 3000,
      "ceiling_ft": 700,
      "hazards": [
        "SN",
        "RA",
        "BR"
      ],
      "severityScore": 65,
      "metarRaw": "METAR LRBS 080530Z 23005KT 7000 -RA SCT004 BKN007 OVC010 02/01 Q0999 BECMG 5000 SN",
      "tafRaw": "TAF LRBS 080500Z 0806/0906 VRB04KT 7000 -RA BKN005 OVC015 \n  BECMG 0806/0808 26012KT 5000 -SN BR BKN010 OVC025 \n  TEMPO 0808/0812 3000 SN BR BKN005 OVC020 \n  BECMG 0812/0814 9999 NSW BKN025",
      "metarHtml": "METAR LRBS 080530Z 23005KT 7000 -<span class=\"hl\">RA</span> SCT004 BKN007 OVC010 02/01 Q0999 BECMG 5000 <span class=\"hl\">SN</span>",
      "tafHtml": "TAF LRBS 080500Z 0806/0906 VRB04KT 7000 -<span class=\"hl\">RA</span> BKN005 OVC015 \n  BECMG 0806/0808 26012KT 5000 -<span class=\"hl\">SN</span> <span class=\"hl\">BR</span> BKN010 OVC025 \n  TEMPO 0808/0812 3000 <span class=\"hl\">SN</span> <span class=\"hl\">BR</span> BKN005 OVC020 \n  BECMG 0812/0814 9999 NSW BKN025"
    },
    {
      "icao": "LROP",
      "iata": "OTP",
      "name": "Bucharest Henri Coandă International Airport",
      "updatedAt": "080530Z",
      "visibility_m": 5000,
      "taf_visibility_m": 3000,
      "worst_visibility_m": 3000,
      "ceiling_ft": 500,
      "hazards": [
        "SN",
        "RA",
        "BR"
      ],
      "severityScore": 65,
      "metarRaw": "METAR LROP 080530Z COR 23004KT 8000 -RA OVC006 02/02 Q0998 BECMG 5000 SN OVC005",
      "tafRaw": "TAF LROP 080500Z 0806/0906 VRB04KT 7000 -RA BKN005 OVC015 \n  BECMG 0806/0808 26012KT 5000 -SN BR BKN010 OVC025 \n  TEMPO 0808/0812 3000 SN BR BKN005 OVC020 \n  BECMG 0812/0814 9999 NSW BKN025",
      "metarHtml": "METAR LROP 080530Z COR 23004KT 8000 -<span class=\"hl\">RA</span> OVC006 02/02 Q0998 BECMG 5000 <span class=\"hl\">SN</span> OVC005",
      "tafHtml": "TAF LROP 080500Z 0806/0906 VRB04KT 7000 -<span class=\"hl\">RA</span> BKN005 OVC015 \n  BECMG 0806/0808 26012KT 5000 -<span class=\"hl\">SN</span> <span class=\"hl\">BR</span> BKN010 OVC025 \n  TEMPO 0808/0812 3000 <span class=\"hl\">SN</span> <span class=\"hl\">BR</span> BKN005 OVC020 \n  BECMG 0812/0814 9999 NSW BKN025"
    },
    {
      "icao": "EDDH",
      "iata": "HAM",
      "name": "Hamburg Helmut Schmidt Airport",
      "updatedAt": "080520Z",
      "visibility_m": 4000,
      "taf_visibility_m": 1200,
      "worst_visibility_m": 1200,
      "ceiling_ft": 400,
      "hazards": [
        "SN"
      ],
      "severityScore": 63,
      "metarRaw": "METAR EDDH 080520Z AUTO 14011KT 9999 OVC008 M02/M04 Q1005 TEMPO 4000 OVC004",
      "tafRaw": "TAF EDDH 080500Z 0806/0912 13008KT 9999 OVC009 \n  TEMPO 0806/0809 3000 -SN \n  PROB30 \n  TEMPO 0806/0809 1200 SN OVC004 \n  PROB40 \n  TEMPO 0809/0818 4000 -SG OVC004 \n  PROB30 \n  TEMPO 0812/0818 2500 -SNRA \n  BECMG 0821/0824 11013KT \n  PROB30 \n  TEMPO 0821/0905 OVC012 \n  BECMG 0902/0905 10015G25KT \n  BECMG 0905/0907 10020G35KT \n  TEMPO 0905/0912 1200 SN OVC003",
      "metarHtml": "METAR EDDH 080520Z AUTO 14011KT 9999 OVC008 M02/M04 Q1005 TEMPO 4000 OVC004",
      "tafHtml": "TAF EDDH 080500Z 0806/0912 13008KT 9999 OVC009 \n  TEMPO 0806/0809 3000 -<span class=\"hl\">SN</span> \n  PROB30 \n  TEMPO 0806/0809 1200 <span class=\"hl\">SN</span> OVC004 \n  PROB40 \n  TEMPO 0809/0818 4000 -SG OVC004 \n  PROB30 \n  TEMPO 0812/0818 2500 -SNRA \n  BECMG 0821/0824 11013KT \n  PROB30 \n  TEMPO 0821/0905 OVC012 \n  BECMG 0902/0905 10015G25KT \n  BECMG 0905/0907 10020G35KT \n  TEMPO 0905/0912 1200 <span class=\"hl\">SN</span> OVC003"
    },
    {
      "icao": "EPKK",
      "iata": "KRK",
      "name": "Kraków John Paul II International Airport",
      "updatedAt": "080530Z",
      "visibility_m": 1800,
      "taf_visibility_m": 500,
      "worst_visibility_m": 500,
      "ceiling_ft": 2000,
      "hazards": [
        "BR",
        "SN"
      ],
      "severityScore": 63,
      "metarRaw": "METAR EPKK 080530Z VRB02KT 1800 SN BR BKN020 M06/M08 Q1008",
      "tafRaw": "TAF EPKK 080530Z 0806/0906 VRB02KT 3500 -SN BR FEW008 BKN020 \n  TEMPO 0806/0811 2000 SN BR BKN007 BKN012 \n  PROB30 \n  TEMPO 0806/0809 0500 +SN BKN004 \n  BECMG 0809/0811 32010KT 5000 -SN BR \n  TEMPO 0811/0902 4500 -SN BR BKN012 \n  PROB40 \n  TEMPO 0822/0906 VRB02KT 1200 BR BKN003",
      "metarHtml": "METAR EPKK 080530Z VRB02KT 1800 <span class=\"hl\">SN</span> <span class=\"hl\">BR</span> BKN020 M06/M08 Q1008",
      "tafHtml": "TAF EPKK 080530Z 0806/0906 VRB02KT 3500 -<span class=\"hl\">SN</span> <span class=\"hl\">BR</span> FEW008 BKN020 \n  TEMPO 0806/0811 2000 <span class=\"hl\">SN</span> <span class=\"hl\">BR</span> BKN007 BKN012 \n  PROB30 \n  TEMPO 0806/0809 <span class=\"hl-vis\">0500</span> +<span class=\"hl\">SN</span> BKN004 \n  BECMG 0809/0811 32010KT 5000 -<span class=\"hl\">SN</span> <span class=\"hl\">BR</span> \n  TEMPO 0811/0902 4500 -<span class=\"hl\">SN</span> <span class=\"hl\">BR</span> BKN012 \n  PROB40 \n  TEMPO 0822/0906 VRB02KT 1200 <span class=\"hl\">BR</span> BKN003"
    },
    {
      "icao": "EPMO",
      "iata": "WMI",
      "name": "Modlin Airport",
      "updatedAt": "080530Z",
      "visibility_m": 3100,
      "taf_visibility_m": 2500,
      "worst_visibility_m": 2500,
      "ceiling_ft": 300,
      "hazards": [
        "BR",
        "SN"
      ],
      "severityScore": 63,
      "metarRaw": "METAR EPMO 080530Z 30003KT 3100 BR OVC003 M11/M12 Q1012",
      "tafRaw": "TAF EPMO 080530Z 0806/0906 VRB02KT 3500 BR SCT005 BKN015 \n  TEMPO 0806/0809 2500 -SN BR BKN005 \n  BECMG 0806/0808 01010KT \n  BECMG 0808/0810 8000 \n  TEMPO 0820/0906 3000 -SN BR BKN003",
      "metarHtml": "METAR EPMO 080530Z 30003KT 3100 <span class=\"hl\">BR</span> OVC003 M11/M12 Q1012",
      "tafHtml": "TAF EPMO 080530Z 0806/0906 VRB02KT 3500 <span class=\"hl\">BR</span> SCT005 BKN015 \n  TEMPO 0806/0809 2500 -<span class=\"hl\">SN</span> <span class=\"hl\">BR</span> BKN005 \n  BECMG 0806/0808 01010KT \n  BECMG 0808/0810 8000 \n  TEMPO 0820/0906 3000 -<span class=\"hl\">SN</span> <span class=\"hl\">BR</span> BKN003"
    },
    {
      "icao": "EPPO",
      "iata": "POZ",
      "name": "Poznań-Ławica Airport",
      "updatedAt": "080530Z",
      "visibility_m": 6000,
      "taf_visibility_m": 1200,
      "worst_visibility_m": 1200,
      "ceiling_ft": 800,
      "hazards": [
        "BR",
        "SN"
      ],
      "severityScore": 63,
      "metarRaw": "METAR EPPO 080530Z 09005KT 6000 OVC008 M07/M09 Q1012",
      "tafRaw": "TAF EPPO 080530Z 0806/0906 14004KT 6000 OVC008 \n  BECMG 0806/0809 BKN010 \n  TEMPO 0806/0809 3500 BR \n  BECMG 0809/0812 SCT012 \n  BECMG 0816/0818 3000 BR OVC005 \n  TEMPO 0820/0906 1200 -SN BR OVC002",
      "metarHtml": "METAR EPPO 080530Z 09005KT 6000 OVC008 M07/M09 Q1012",
      "tafHtml": "TAF EPPO 080530Z 0806/0906 14004KT 6000 OVC008 \n  BECMG 0806/0809 BKN010 \n  TEMPO 0806/0809 3500 <span class=\"hl\">BR</span> \n  BECMG 0809/0812 SCT012 \n  BECMG 0816/0818 3000 <span class=\"hl\">BR</span> OVC005 \n  TEMPO 0820/0906 1200 -<span class=\"hl\">SN</span> <span class=\"hl\">BR</span> OVC002"
    },
    {
      "icao": "LRBC",
      "iata": "BCM",
      "name": "Bacău George Enescu International  Airport",
      "updatedAt": "080530Z",
      "visibility_m": 5000,
      "taf_visibility_m": 1500,
      "worst_visibility_m": 1500,
      "ceiling_ft": 700,
      "hazards": [
        "BR",
        "SN"
      ],
      "severityScore": 63,
      "metarRaw": "METAR LRBC 080530Z 35006KT 5000 -SN BR BKN007 OVC022 M01/M03 Q0999",
      "tafRaw": "TAF LRBC 080500Z 0806/0815 34010KT 3000 -SN BR BKN005 OVC020 \n  TEMPO 0806/0808 1500 SN BKN002 OVC010 \n  TEMPO 0811/0815 1500 SN BKN002 OVC010",
      "metarHtml": "METAR LRBC 080530Z 35006KT 5000 -<span class=\"hl\">SN</span> <span class=\"hl\">BR</span> BKN007 OVC022 M01/M03 Q0999",
      "tafHtml": "TAF LRBC 080500Z 0806/0815 34010KT 3000 -<span class=\"hl\">SN</span> <span class=\"hl\">BR</span> BKN005 OVC020 \n  TEMPO 0806/0808 1500 <span class=\"hl\">SN</span> BKN002 OVC010 \n  TEMPO 0811/0815 1500 <span class=\"hl\">SN</span> BKN002 OVC010"
    },
    {
      "icao": "LRSM",
      "iata": "SUJ",
      "name": "Satu Mare International Airport",
      "updatedAt": "080530Z",
      "visibility_m": 2000,
      "taf_visibility_m": 1500,
      "worst_visibility_m": 1500,
      "ceiling_ft": 800,
      "hazards": [
        "BR",
        "SN"
      ],
      "severityScore": 63,
      "metarRaw": "METAR LRSM 080530Z 27009KT 2000 -SN BR VV008 M04/M05 Q1004",
      "tafRaw": "TAF LRSM 080500Z 0806/0815 28010KT 3000 -SN BR BKN010 OVC020 \n  TEMPO 0806/0809 1500 SN BR OVC005 \n  BECMG 0810/0812 5000 BKN015 BKN030 \n  BECMG 0813/0815 9999 NSW BKN020",
      "metarHtml": "METAR LRSM 080530Z 27009KT 2000 -<span class=\"hl\">SN</span> <span class=\"hl\">BR</span> VV008 M04/M05 Q1004",
      "tafHtml": "TAF LRSM 080500Z 0806/0815 28010KT 3000 -<span class=\"hl\">SN</span> <span class=\"hl\">BR</span> BKN010 OVC020 \n  TEMPO 0806/0809 1500 <span class=\"hl\">SN</span> <span class=\"hl\">BR</span> OVC005 \n  BECMG 0810/0812 5000 BKN015 BKN030 \n  BECMG 0813/0815 9999 NSW BKN020"
    },
    {
      "icao": "EGGP",
      "iata": "LPL",
      "name": "Liverpool John Lennon Airport",
      "updatedAt": "080520Z",
      "visibility_m": 10000,
      "taf_visibility_m": 1200,
      "worst_visibility_m": 1200,
      "ceiling_ft": 1100,
      "hazards": [
        "SN",
        "RA",
        "DZ"
      ],
      "severityScore": 62,
      "metarRaw": "METAR EGGP 080520Z 15004KT 9999 FEW005 OVC011 02/01 Q1003",
      "tafRaw": "TAF EGGP 080500Z 0806/0906 17003KT 9999 SCT020 \n  TEMPO 0806/0810 6000 RA -RADZ BKN012 \n  PROB30 \n  TEMPO 0806/0810 3000 RADZ BKN001 \n  PROB30 \n  TEMPO 0810/0815 6000 -DZ BKN004 \n  BECMG 0814/0817 07010KT \n  TEMPO 0815/0819 6000 RA -RADZ BKN009 \n  PROB30 \n  TEMPO 0815/0819 4000 RADZ BKN004 \n  BECMG 0819/0822 36012KT \n  TEMPO 0819/0823 35016G28KT 4000 RADZ RASN BKN008 \n  PROB30 \n  TEMPO 0819/0823 1200 +RASN SN BKN002 \n  TEMPO 0823/0906 6000 RA BKN012 \n  PROB30 \n  TEMPO 0823/0904 4000 RADZ BKN008",
      "metarHtml": "METAR EGGP 080520Z 15004KT 9999 FEW005 OVC011 02/01 Q1003",
      "tafHtml": "TAF EGGP 080500Z 0806/0906 17003KT 9999 SCT020 \n  TEMPO 0806/0810 6000 <span class=\"hl\">RA</span> -RADZ BKN012 \n  PROB30 \n  TEMPO 0806/0810 3000 RADZ BKN001 \n  PROB30 \n  TEMPO 0810/0815 6000 -<span class=\"hl\">DZ</span> BKN004 \n  BECMG 0814/0817 07010KT \n  TEMPO 0815/0819 6000 <span class=\"hl\">RA</span> -RADZ BKN009 \n  PROB30 \n  TEMPO 0815/0819 4000 RADZ BKN004 \n  BECMG 0819/0822 36012KT \n  TEMPO 0819/0823 35016G28KT 4000 RADZ RASN BKN008 \n  PROB30 \n  TEMPO 0819/0823 1200 +RASN <span class=\"hl\">SN</span> BKN002 \n  TEMPO 0823/0906 6000 <span class=\"hl\">RA</span> BKN012 \n  PROB30 \n  TEMPO 0823/0904 4000 RADZ BKN008"
    },
    {
      "icao": "LFSB",
      "iata": "BSL",
      "name": "EuroAirport Basel–Mulhouse–Freiburg",
      "updatedAt": "080530Z",
      "visibility_m": 2000,
      "taf_visibility_m": null,
      "worst_visibility_m": 2000,
      "ceiling_ft": 300,
      "hazards": [
        "SN"
      ],
      "severityScore": 58,
      "metarRaw": "METAR LFSB 080530Z AUTO 21002KT 6000 -SN FEW026/// BKN033/// BKN044/// ///TCU M01/M03 Q1012 TEMPO 2000 -SN BKN003",
      "tafRaw": null,
      "metarHtml": "METAR LFSB 080530Z AUTO 21002KT 6000 -<span class=\"hl\">SN</span> FEW026/// BKN033/// BKN044/// ///TCU M01/M03 Q1012 TEMPO 2000 -<span class=\"hl\">SN</span> BKN003",
      "tafHtml": null
    },
    {
      "icao": "ESGG",
      "iata": "GOT",
      "name": "Göteborg Landvetter Airport",
      "updatedAt": "080520Z",
      "visibility_m": 1800,
      "taf_visibility_m": 1200,
      "worst_visibility_m": 1200,
      "ceiling_ft": 900,
      "hazards": [
        "SN"
      ],
      "severityScore": 53,
      "metarRaw": "METAR ESGG 080520Z 16010KT 1800 -SN VV009 M03/M04 Q1004",
      "tafRaw": "TAF ESGG 080530Z 0806/0906 16012KT 7000 -SN SCT010 BKN015 \n  TEMPO 0806/0814 1200 VV008",
      "metarHtml": "METAR ESGG 080520Z 16010KT 1800 -<span class=\"hl\">SN</span> VV009 M03/M04 Q1004",
      "tafHtml": "TAF ESGG 080530Z 0806/0906 16012KT 7000 -<span class=\"hl\">SN</span> SCT010 BKN015 \n  TEMPO 0806/0814 1200 VV008"
    },
    {
      "icao": "LBSF",
      "iata": "SOF",
      "name": "Sofia Airport",
      "updatedAt": "080530Z",
      "visibility_m": 5000,
      "taf_visibility_m": 800,
      "worst_visibility_m": 800,
      "ceiling_ft": 3600,
      "hazards": [
        "SN",
        "SHSN"
      ],
      "severityScore": 53,
      "metarRaw": "METAR LBSF 080530Z 29016KT 8000 -SN BKN036 OVC041 M03/M06 Q1001 TEMPO 5000 SN",
      "tafRaw": "TAF LBSF 080500Z 0806/0906 28014G30KT 5000 -SN SCT012 OVC025 \n  PROB40 \n  TEMPO 0806/0808 0800 SHSN FEW020TCU OVC023 \n  BECMG 0809/0811 9999 NSW SCT040 BKN060",
      "metarHtml": "METAR LBSF 080530Z 29016KT 8000 -<span class=\"hl\">SN</span> BKN036 OVC041 M03/M06 Q1001 TEMPO 5000 <span class=\"hl\">SN</span>",
      "tafHtml": "TAF LBSF 080500Z 0806/0906 28014G30KT 5000 -<span class=\"hl\">SN</span> SCT012 OVC025 \n  PROB40 \n  TEMPO 0806/0808 <span class=\"hl-vis\">0800</span> <span class=\"hl\">SHSN</span> FEW020TCU OVC023 \n  BECMG 0809/0811 9999 NSW SCT040 BKN060"
    },
    {
      "icao": "LRCV",
      "iata": "CRA",
      "name": "Craiova International Airport",
      "updatedAt": "080530Z",
      "visibility_m": 10000,
      "taf_visibility_m": 3000,
      "worst_visibility_m": 3000,
      "ceiling_ft": 900,
      "hazards": [
        "BR",
        "SN"
      ],
      "severityScore": 53,
      "metarRaw": "METAR LRCV 080530Z 26013KT 9999 BKN009 OVC014 M02/M02 Q1000",
      "tafRaw": "TAF LRCV 080500Z 0806/0815 27015KT 5000 -SN BR BKN005 BKN020 \n  TEMPO 0806/0807 3000 SN BR BKN003 OVC015 \n  BECMG 0807/0809 9999 NSW BKN025 \n  TEMPO 0809/0815 27022G35KT",
      "metarHtml": "METAR LRCV 080530Z 26013KT 9999 BKN009 OVC014 M02/M02 Q1000",
      "tafHtml": "TAF LRCV 080500Z 0806/0815 27015KT 5000 -<span class=\"hl\">SN</span> <span class=\"hl\">BR</span> BKN005 BKN020 \n  TEMPO 0806/0807 3000 <span class=\"hl\">SN</span> <span class=\"hl\">BR</span> BKN003 OVC015 \n  BECMG 0807/0809 9999 NSW BKN025 \n  TEMPO 0809/0815 27022G35KT"
    },
    {
      "icao": "LBWN",
      "iata": "VAR",
      "name": "Varna Airport",
      "updatedAt": "080530Z",
      "visibility_m": 5000,
      "taf_visibility_m": 2000,
      "worst_visibility_m": 2000,
      "ceiling_ft": 3400,
      "hazards": [
        "TSRA",
        "SHRA",
        "RA"
      ],
      "severityScore": 51,
      "metarRaw": "METAR LBWN 080530Z VRB03KT 7000 SHRA SCT014 SCT025CB OVC034 11/11 Q0996 TEMPO 5000 -TSRA SCT033CB",
      "tafRaw": "TAF LBWN 080500Z 0806/0906 28018G28KT 9999 OVC035 \n  TEMPO 0806/0812 28028G40KT 3000 RA SCT010 BKN015 OVC030 \n  PROB40 0806/0810 2000 TSRA SCT033CB \n  PROB40 \n  TEMPO 0812/0816 2000 SNRA SCT010 BKN015 OVC030",
      "metarHtml": "METAR LBWN 080530Z VRB03KT 7000 <span class=\"hl\">SHRA</span> SCT014 SCT025CB OVC034 11/11 Q0996 TEMPO 5000 -<span class=\"hl\">TSRA</span> SCT033CB",
      "tafHtml": "TAF LBWN 080500Z 0806/0906 28018G28KT 9999 OVC035 \n  TEMPO 0806/0812 28028G40KT 3000 <span class=\"hl\">RA</span> SCT010 BKN015 OVC030 \n  PROB40 0806/0810 2000 <span class=\"hl\">TSRA</span> SCT033CB \n  PROB40 \n  TEMPO 0812/0816 2000 SNRA SCT010 BKN015 OVC030"
    },
    {
      "icao": "LICJ",
      "iata": "PMO",
      "name": "Falcone–Borsellino Airport",
      "updatedAt": "080520Z",
      "visibility_m": 10000,
      "taf_visibility_m": 4000,
      "worst_visibility_m": 4000,
      "ceiling_ft": null,
      "hazards": [
        "TSRA",
        "RA",
        "SHRA"
      ],
      "severityScore": 51,
      "metarRaw": "METAR LICJ 080520Z 27026KT 9999 FEW030 SCT040 14/06 Q1015",
      "tafRaw": "TAF LICJ 080500Z 0806/0906 28025G35KT 9999 SCT020 \n  PROB40 \n  TEMPO 0806/0808 4000 TSRA \n  TEMPO 0808/0818 4000 SHRA \n  TEMPO 0818/0824 RA",
      "metarHtml": "METAR LICJ 080520Z 27026KT 9999 FEW030 SCT040 14/06 Q1015",
      "tafHtml": "TAF LICJ 080500Z 0806/0906 28025G35KT 9999 SCT020 \n  PROB40 \n  TEMPO 0806/0808 4000 <span class=\"hl\">TSRA</span> \n  TEMPO 0808/0818 4000 <span class=\"hl\">SHRA</span> \n  TEMPO 0818/0824 <span class=\"hl\">RA</span>"
    },
    {
      "icao": "EGKK",
      "iata": "LGW",
      "name": "London Gatwick Airport",
      "updatedAt": "080520Z",
      "visibility_m": 10000,
      "taf_visibility_m": 2000,
      "worst_visibility_m": 2000,
      "ceiling_ft": 1000,
      "hazards": [
        "BR",
        "RA",
        "SHRA"
      ],
      "severityScore": 48,
      "metarRaw": "METAR EGKK 080520Z VRB02KT 9999 BKN010 03/02 Q1005",
      "tafRaw": "TAF EGKK 080452Z 0806/0912 20004KT 9999 BKN015 \n  TEMPO 0806/0812 6000 -RADZ BKN005 \n  PROB30 \n  TEMPO 0806/0810 2000 RADZ BR BKN001 \n  PROB30 \n  TEMPO 0812/0814 8000 -RA BKN008 \n  BECMG 0813/0816 11011KT \n  TEMPO 0814/0821 6000 RA BKN010 \n  PROB40 \n  TEMPO 0814/0821 4000 +RA BKN006 \n  TEMPO 0817/0824 14015G25KT \n  PROB40 \n  TEMPO 0821/0824 7000 RA SHRA BKN012 \n  BECMG 0900/0903 30018G28KT \n  PROB30 \n  TEMPO 0900/0903 3000 RADZ BKN004 \n  TEMPO 0903/0912 6000 -RASN BKN008 \n  PROB30 \n  TEMPO 0903/0911 30020G38KT 2000 RASN BKN004",
      "metarHtml": "METAR EGKK 080520Z VRB02KT 9999 BKN010 03/02 Q1005",
      "tafHtml": "TAF EGKK 080452Z 0806/0912 20004KT 9999 BKN015 \n  TEMPO 0806/0812 6000 -RADZ BKN005 \n  PROB30 \n  TEMPO 0806/0810 2000 RADZ <span class=\"hl\">BR</span> BKN001 \n  PROB30 \n  TEMPO 0812/0814 8000 -<span class=\"hl\">RA</span> BKN008 \n  BECMG 0813/0816 11011KT \n  TEMPO 0814/0821 6000 <span class=\"hl\">RA</span> BKN010 \n  PROB40 \n  TEMPO 0814/0821 4000 +<span class=\"hl\">RA</span> BKN006 \n  TEMPO 0817/0824 14015G25KT \n  PROB40 \n  TEMPO 0821/0824 7000 <span class=\"hl\">RA</span> <span class=\"hl\">SHRA</span> BKN012 \n  BECMG 0900/0903 30018G28KT \n  PROB30 \n  TEMPO 0900/0903 3000 RADZ BKN004 \n  TEMPO 0903/0912 6000 -RASN BKN008 \n  PROB30 \n  TEMPO 0903/0911 30020G38KT 2000 RASN BKN004"
    },
    {
      "icao": "EYKA",
      "iata": "KUN",
      "name": "Kaunas International Airport",
      "updatedAt": "080520Z",
      "visibility_m": 5000,
      "taf_visibility_m": 3000,
      "worst_visibility_m": 3000,
      "ceiling_ft": 400,
      "hazards": [
        "BR"
      ],
      "severityScore": 45,
      "metarRaw": "METAR EYKA 080520Z 08004KT 040V100 5000 BR OVC004 M11/M13 Q1015",
      "tafRaw": "TAF EYKA 080506Z 0806/0906 VRB05KT 5000 BR OVC005 \n  TEMPO 0806/0808 3000 OVC002 \n  BECMG 0809/0812 8000 NSW OVC010 \n  BECMG 0816/0818 04010KT BKN015",
      "metarHtml": "METAR EYKA 080520Z 08004KT 040V100 5000 <span class=\"hl\">BR</span> OVC004 M11/M13 Q1015",
      "tafHtml": "TAF EYKA 080506Z 0806/0906 VRB05KT 5000 <span class=\"hl\">BR</span> OVC005 \n  TEMPO 0806/0808 3000 OVC002 \n  BECMG 0809/0812 8000 NSW OVC010 \n  BECMG 0816/0818 04010KT BKN015"
    },
    {
      "icao": "EYVI",
      "iata": "VNO",
      "name": "Vilnius International Airport",
      "updatedAt": "080520Z",
      "visibility_m": 9000,
      "taf_visibility_m": 1500,
      "worst_visibility_m": 1500,
      "ceiling_ft": 500,
      "hazards": [
        "BR"
      ],
      "severityScore": 45,
      "metarRaw": "METAR EYVI 080520Z 05007KT 9000 OVC005 M07/M09 Q1013 NOSIG",
      "tafRaw": "TAF EYVI 080515Z 0806/0906 06010KT 5000 BR OVC005 \n  TEMPO 0806/0809 VRB04KT 3000 OVC002 \n  PROB40 \n  TEMPO 0806/0809 1500 \n  BECMG 0809/0812 8000 NSW OVC010 \n  TEMPO 0812/0821 OVC015 \n  TEMPO 0821/0903 03015G25KT BKN015 \n  BECMG 0903/0906 03015G25KT NSC",
      "metarHtml": "METAR EYVI 080520Z 05007KT 9000 OVC005 M07/M09 Q1013 NOSIG",
      "tafHtml": "TAF EYVI 080515Z 0806/0906 06010KT 5000 <span class=\"hl\">BR</span> OVC005 \n  TEMPO 0806/0809 VRB04KT 3000 OVC002 \n  PROB40 \n  TEMPO 0806/0809 1500 \n  BECMG 0809/0812 8000 NSW OVC010 \n  TEMPO 0812/0821 OVC015 \n  TEMPO 0821/0903 03015G25KT BKN015 \n  BECMG 0903/0906 03015G25KT NSC"
    },
    {
      "icao": "LYBE",
      "iata": "BEG",
      "name": "Belgrade Nikola Tesla Airport",
      "updatedAt": "080530Z",
      "visibility_m": 3000,
      "taf_visibility_m": 4000,
      "worst_visibility_m": 3000,
      "ceiling_ft": 500,
      "hazards": [
        "SN"
      ],
      "severityScore": 43,
      "metarRaw": "METAR LYBE 080530Z 29011KT 3000 SN BKN005 OVC025 M04/M05 Q1009 NOSIG",
      "tafRaw": "TAF LYBE 080500Z 0806/0906 28010KT 4000 -SN BKN007 BKN030 TXM04/0813Z TNM12/0905Z \n  BECMG 0808/0810 9999 NSW SCT013 \n  TEMPO 0809/0813 28020KT \n  BECMG 0818/0820 22005KT",
      "metarHtml": "METAR LYBE 080530Z 29011KT 3000 <span class=\"hl\">SN</span> BKN005 OVC025 M04/M05 Q1009 NOSIG",
      "tafHtml": "TAF LYBE 080500Z 0806/0906 28010KT 4000 -<span class=\"hl\">SN</span> BKN007 BKN030 TXM04/0813Z TNM12/0905Z \n  BECMG 0808/0810 9999 NSW SCT013 \n  TEMPO 0809/0813 28020KT \n  BECMG 0818/0820 22005KT"
    },
    {
      "icao": "LFBD",
      "iata": "BOD",
      "name": "Bordeaux–Mérignac Airport",
      "updatedAt": "080530Z",
      "visibility_m": 3000,
      "taf_visibility_m": null,
      "worst_visibility_m": 3000,
      "ceiling_ft": 700,
      "hazards": [
        "RA"
      ],
      "severityScore": 42,
      "metarRaw": "METAR LFBD 080530Z AUTO 28016KT 9999 BKN017 BKN022 BKN029 12/10 Q1018 TEMPO 27015G25KT 3000 RA BKN007 OVC020",
      "tafRaw": null,
      "metarHtml": "METAR LFBD 080530Z AUTO 28016KT 9999 BKN017 BKN022 BKN029 12/10 Q1018 TEMPO 27015G25KT 3000 <span class=\"hl\">RA</span> BKN007 OVC020",
      "tafHtml": null
    },
    {
      "icao": "ENGM",
      "iata": "OSL",
      "name": "Oslo-Gardermoen International Airport",
      "updatedAt": "080520Z",
      "visibility_m": 10000,
      "taf_visibility_m": 1200,
      "worst_visibility_m": 1200,
      "ceiling_ft": 1900,
      "hazards": [
        "SN"
      ],
      "severityScore": 40,
      "metarRaw": "METAR ENGM 080520Z 26003KT 220V280 9999 OVC019 M07/M10 Q1000 NOSIG",
      "tafRaw": "TAF ENGM 080500Z 0806/0906 27003KT 9999 BKN018 \n  BECMG 0820/0822 BKN012 \n  TEMPO 0822/0903 1200 -SN VV008 \n  TEMPO 0903/0906 BKN020",
      "metarHtml": "METAR ENGM 080520Z 26003KT 220V280 9999 OVC019 M07/M10 Q1000 NOSIG",
      "tafHtml": "TAF ENGM 080500Z 0806/0906 27003KT 9999 BKN018 \n  BECMG 0820/0822 BKN012 \n  TEMPO 0822/0903 1200 -<span class=\"hl\">SN</span> VV008 \n  TEMPO 0903/0906 BKN020"
    },
    {
      "icao": "EPWA",
      "iata": "WAW",
      "name": "Warsaw Chopin Airport",
      "updatedAt": "080530Z",
      "visibility_m": 4300,
      "taf_visibility_m": 2800,
      "worst_visibility_m": 2800,
      "ceiling_ft": 1400,
      "hazards": [
        "BR",
        "SN"
      ],
      "severityScore": 40,
      "metarRaw": "METAR EPWA 080530Z 32006KT 4300 -SN BR FEW006 SCT015 M09/M10 Q1011 TEMPO BKN014",
      "tafRaw": "TAF EPWA 080530Z 0806/0906 34006KT 4500 BR SCT005 BKN015 \n  TEMPO 0806/0809 2800 -SN BR BKN005 \n  BECMG 0808/0810 7000 \n  TEMPO 0820/0906 4000 -SN BR BKN003",
      "metarHtml": "METAR EPWA 080530Z 32006KT 4300 -<span class=\"hl\">SN</span> <span class=\"hl\">BR</span> FEW006 SCT015 M09/M10 Q1011 TEMPO BKN014",
      "tafHtml": "TAF EPWA 080530Z 0806/0906 34006KT 4500 <span class=\"hl\">BR</span> SCT005 BKN015 \n  TEMPO 0806/0809 2800 -<span class=\"hl\">SN</span> <span class=\"hl\">BR</span> BKN005 \n  BECMG 0808/0810 7000 \n  TEMPO 0820/0906 4000 -<span class=\"hl\">SN</span> <span class=\"hl\">BR</span> BKN003"
    },
    {
      "icao": "LCPH",
      "iata": "PFO",
      "name": "Paphos International Airport",
      "updatedAt": "080530Z",
      "visibility_m": 10000,
      "taf_visibility_m": 3000,
      "worst_visibility_m": 3000,
      "ceiling_ft": null,
      "hazards": [
        "TSRA",
        "SHRA"
      ],
      "severityScore": 39,
      "metarRaw": "METAR LCPH 080530Z 09008KT CAVOK 13/M01 Q1018 NOSIG",
      "tafRaw": "TAF LCPH 080530Z 0806/0906 07007KT 9999 FEW025 \n  BECMG 0806/0808 12015KT \n  BECMG 0816/0818 29010KT \n  BECMG 0818/0821 29025KT \n  PROB40 \n  TEMPO 0818/0906 29025G35KT \n  TEMPO 0818/0906 VRB15G25KT 5000 SHRA BKN020TCU \n  PROB30 \n  TEMPO 0820/0906 VRB25G35KT 3000 TSRA SCT020CB",
      "metarHtml": "METAR LCPH 080530Z 09008KT <span class=\"hl-vis\">CAVOK</span> 13/M01 Q1018 NOSIG",
      "tafHtml": "TAF LCPH 080530Z 0806/0906 07007KT 9999 FEW025 \n  BECMG 0806/0808 12015KT \n  BECMG 0816/0818 29010KT \n  BECMG 0818/0821 29025KT \n  PROB40 \n  TEMPO 0818/0906 29025G35KT \n  TEMPO 0818/0906 VRB15G25KT 5000 <span class=\"hl\">SHRA</span> BKN020TCU \n  PROB30 \n  TEMPO 0820/0906 VRB25G35KT 3000 <span class=\"hl\">TSRA</span> SCT020CB"
    },
    {
      "icao": "LTFM",
      "iata": "IST",
      "name": "İstanbul Airport",
      "updatedAt": "080520Z",
      "visibility_m": 10000,
      "taf_visibility_m": 4000,
      "worst_visibility_m": 4000,
      "ceiling_ft": 8000,
      "hazards": [
        "TSRA",
        "SHRA"
      ],
      "severityScore": 39,
      "metarRaw": "METAR LTFM 080520Z 19030G48KT 9999 SCT040 BKN080 16/09 Q1000 NOSIG RMK RWY17L 19030G46KT RWY34L 18027G42KT RWY16R 19026G38KT RWY36 19030G43KT RWY18 20032KT",
      "tafRaw": "TAF LTFM 080440Z 0806/0912 20022G32KT 9999 -SHRA SCT040 BKN080 \n  TEMPO 0806/0809 19026G42KT 4000 TSRA SCT017CB BKN025 \n  BECMG 0812/0815 26012KT \n  PROB40 \n  TEMPO 0812/0815 4000 TSRA SCT017CB BKN025 \n  PROB30 \n  TEMPO 0820/0823 -SHSNRA SCT010 BKN018",
      "metarHtml": "METAR LTFM 080520Z 19030G48KT 9999 SCT040 BKN080 16/09 Q1000 NOSIG RMK RWY17L 19030G46KT RWY34L 18027G42KT RWY16R 19026G38KT RWY36 19030G43KT RWY18 20032KT",
      "tafHtml": "TAF LTFM 080440Z 0806/0912 20022G32KT 9999 -<span class=\"hl\">SHRA</span> SCT040 BKN080 \n  TEMPO 0806/0809 19026G42KT 4000 <span class=\"hl\">TSRA</span> SCT017CB BKN025 \n  BECMG 0812/0815 26012KT \n  PROB40 \n  TEMPO 0812/0815 4000 <span class=\"hl\">TSRA</span> SCT017CB BKN025 \n  PROB30 \n  TEMPO 0820/0823 -SHSNRA SCT010 BKN018"
    },
    {
      "icao": "LEXJ",
      "iata": "SDR",
      "name": "Seve Ballesteros-Santander Airport",
      "updatedAt": "080530Z",
      "visibility_m": 10000,
      "taf_visibility_m": 1500,
      "worst_visibility_m": 1500,
      "ceiling_ft": 5200,
      "hazards": [
        "RA",
        "SHRA"
      ],
      "severityScore": 36,
      "metarRaw": "METAR LEXJ 080530Z 23009KT 9999 BKN052 11/05 Q1023",
      "tafRaw": "TAF LEXJ 080200Z 0803/0903 24009KT 9999 SCT030 BKN060 TX15/0813Z TN08/0806Z \n  TEMPO 0810/0821 22018G28KT \n  TEMPO 0819/0903 27020G33KT 3000 RA \n  PROB40 \n  TEMPO 0821/0903 1500 +SHRA BKN010 SCT025TCU",
      "metarHtml": "METAR LEXJ 080530Z 23009KT 9999 BKN052 11/05 Q1023",
      "tafHtml": "TAF LEXJ 080200Z 0803/0903 24009KT 9999 SCT030 BKN060 TX15/0813Z TN08/0806Z \n  TEMPO 0810/0821 22018G28KT \n  TEMPO 0819/0903 27020G33KT 3000 <span class=\"hl\">RA</span> \n  PROB40 \n  TEMPO 0821/0903 1500 +<span class=\"hl\">SHRA</span> BKN010 SCT025TCU"
    },
    {
      "icao": "LFLL",
      "iata": "LYS",
      "name": "Lyon Saint-Exupéry Airport",
      "updatedAt": "080530Z",
      "visibility_m": 3000,
      "taf_visibility_m": 4000,
      "worst_visibility_m": 3000,
      "ceiling_ft": 4000,
      "hazards": [
        "SN",
        "RA"
      ],
      "severityScore": 30,
      "metarRaw": "METAR LFLL 080530Z 14008KT 6000 -SN SCT026 BKN040 M01/M01 Q1015 TEMPO 3000",
      "tafRaw": "TAF LFLL 080500Z 0806/0912 16008KT 9999 -RA BKN030 \n  PROB40 \n  TEMPO 0806/0807 4000 -SN BKN009 \n  PROB40 \n  TEMPO 0807/0815 4000 RA BKN012 \n  PROB30 \n  TEMPO 0807/0808 -SN \n  FM081500 18012KT CAVOK \n  BECMG 0818/0820 18015G25KT \n  PROB40 \n  TEMPO 0822/0904 18020G35KT \n  BECMG 0904/0906 18012KT",
      "metarHtml": "METAR LFLL 080530Z 14008KT 6000 -<span class=\"hl\">SN</span> SCT026 BKN040 M01/M01 Q1015 TEMPO 3000",
      "tafHtml": "TAF LFLL 080500Z 0806/0912 16008KT 9999 -<span class=\"hl\">RA</span> BKN030 \n  PROB40 \n  TEMPO 0806/0807 4000 -<span class=\"hl\">SN</span> BKN009 \n  PROB40 \n  TEMPO 0807/0815 4000 <span class=\"hl\">RA</span> BKN012 \n  PROB30 \n  TEMPO 0807/0808 -<span class=\"hl\">SN</span> \n  FM081500 18012KT <span class=\"hl-vis\">CAVOK</span> \n  BECMG 0818/0820 18015G25KT \n  PROB40 \n  TEMPO 0822/0904 18020G35KT \n  BECMG 0904/0906 18012KT"
    },
    {
      "icao": "EGBB",
      "iata": "BHX",
      "name": "Birmingham Airport",
      "updatedAt": "080520Z",
      "visibility_m": 4500,
      "taf_visibility_m": null,
      "worst_visibility_m": 4500,
      "ceiling_ft": 1100,
      "hazards": [
        "RA"
      ],
      "severityScore": 29,
      "metarRaw": "METAR EGBB 080520Z 15002KT 4500 RA OVC011 02/01 Q1004",
      "tafRaw": null,
      "metarHtml": "METAR EGBB 080520Z 15002KT 4500 <span class=\"hl\">RA</span> OVC011 02/01 Q1004",
      "tafHtml": null
    },
    {
      "icao": "EDJA",
      "iata": "FMM",
      "name": "Memmingen Allgau Airport",
      "updatedAt": "080520Z",
      "visibility_m": 10000,
      "taf_visibility_m": 1000,
      "worst_visibility_m": 1000,
      "ceiling_ft": 4700,
      "hazards": [
        "SN"
      ],
      "severityScore": 28,
      "metarRaw": "METAR EDJA 080520Z 22009KT 9999 FEW011 SCT036 OVC047 M03/M06 Q1010",
      "tafRaw": "TAF EDJA 080500Z 0806/0815 22010KT 9999 FEW006 BKN020 \n  TEMPO 0806/0808 2500 -SN BKN006 \n  BECMG 0812/0814 4000 -SN BKN006 \n  TEMPO 0814/0815 1000 SN VV003",
      "metarHtml": "METAR EDJA 080520Z 22009KT 9999 FEW011 SCT036 OVC047 M03/M06 Q1010",
      "tafHtml": "TAF EDJA 080500Z 0806/0815 22010KT 9999 FEW006 BKN020 \n  TEMPO 0806/0808 2500 -<span class=\"hl\">SN</span> BKN006 \n  BECMG 0812/0814 4000 -<span class=\"hl\">SN</span> BKN006 \n  TEMPO 0814/0815 1000 <span class=\"hl\">SN</span> VV003"
    },
    {
      "icao": "EKBI",
      "iata": "BLL",
      "name": "Billund Airport",
      "updatedAt": "080520Z",
      "visibility_m": 9000,
      "taf_visibility_m": 3000,
      "worst_visibility_m": 3000,
      "ceiling_ft": null,
      "hazards": [
        "BR",
        "SN"
      ],
      "severityScore": 28,
      "metarRaw": "METAR EKBI 080520Z AUTO 13005KT 9000 BKN008/// OVC023/// M02/M03 Q1004",
      "tafRaw": "TAF EKBI 080527Z 0806/0906 13008KT 9999 SCT008 BKN010 \n  TEMPO 0806/0810 4000 BR BKN005 \n  TEMPO 0810/0822 BKN006 \n  TEMPO 0900/0906 11015G28KT 3000 -SN DRSN BKN006",
      "metarHtml": "METAR EKBI 080520Z AUTO 13005KT 9000 BKN008/// OVC023/// M02/M03 Q1004",
      "tafHtml": "TAF EKBI 080527Z 0806/0906 13008KT 9999 SCT008 BKN010 \n  TEMPO 0806/0810 4000 <span class=\"hl\">BR</span> BKN005 \n  TEMPO 0810/0822 BKN006 \n  TEMPO 0900/0906 11015G28KT 3000 -<span class=\"hl\">SN</span> DRSN BKN006"
    },
    {
      "icao": "ENTO",
      "iata": "TRF",
      "name": "Sandefjord Airport, Torp",
      "updatedAt": "080520Z",
      "visibility_m": 10000,
      "taf_visibility_m": 1200,
      "worst_visibility_m": 1200,
      "ceiling_ft": null,
      "hazards": [
        "SN"
      ],
      "severityScore": 28,
      "metarRaw": "METAR ENTO 080520Z 31004KT CAVOK M09/M11 Q1002 NOSIG",
      "tafRaw": "TAF ENTO 080500Z 0806/0906 27003KT CAVOK \n  BECMG 0818/0820 01010KT BKN012 \n  TEMPO 0820/0824 1200 SN VV006 \n  BECMG 0902/0904 07010KT BKN020",
      "metarHtml": "METAR ENTO 080520Z 31004KT <span class=\"hl-vis\">CAVOK</span> M09/M11 Q1002 NOSIG",
      "tafHtml": "TAF ENTO 080500Z 0806/0906 27003KT <span class=\"hl-vis\">CAVOK</span> \n  BECMG 0818/0820 01010KT BKN012 \n  TEMPO 0820/0824 1200 <span class=\"hl\">SN</span> VV006 \n  BECMG 0902/0904 07010KT BKN020"
    },
    {
      "icao": "EPRA",
      "iata": "RDO",
      "name": "Warsaw Radom Airport",
      "updatedAt": "080530Z",
      "visibility_m": 2700,
      "taf_visibility_m": 2000,
      "worst_visibility_m": 2000,
      "ceiling_ft": 2200,
      "hazards": [
        "SN",
        "BR"
      ],
      "severityScore": 28,
      "metarRaw": "METAR EPRA 080530Z 34007KT 2700 SN BKN022 M09/M10 Q1010",
      "tafRaw": "TAF EPRA 080530Z 0806/0815 35008KT 4000 -SN BR OVC020 \n  PROB40 \n  TEMPO 0806/0812 2000 SN SCT006 OVC014",
      "metarHtml": "METAR EPRA 080530Z 34007KT 2700 <span class=\"hl\">SN</span> BKN022 M09/M10 Q1010",
      "tafHtml": "TAF EPRA 080530Z 0806/0815 35008KT 4000 -<span class=\"hl\">SN</span> <span class=\"hl\">BR</span> OVC020 \n  PROB40 \n  TEMPO 0806/0812 2000 <span class=\"hl\">SN</span> SCT006 OVC014"
    },
    {
      "icao": "LHDC",
      "iata": "DEB",
      "name": "Debrecen International Airport",
      "updatedAt": "080515Z",
      "visibility_m": 9000,
      "taf_visibility_m": 2500,
      "worst_visibility_m": 2500,
      "ceiling_ft": null,
      "hazards": [
        "BR",
        "SN"
      ],
      "severityScore": 28,
      "metarRaw": "METAR LHDC 080515Z AUTO 26006KT 9000 NSC M04/M05 Q1005 NOSIG",
      "tafRaw": "TAF LHDC 080515Z 0806/0815 28008KT CAVOK \n  TEMPO 0806/0808 2500 -SN BR OVC030",
      "metarHtml": "METAR LHDC 080515Z AUTO 26006KT 9000 NSC M04/M05 Q1005 NOSIG",
      "tafHtml": "TAF LHDC 080515Z 0806/0815 28008KT <span class=\"hl-vis\">CAVOK</span> \n  TEMPO 0806/0808 2500 -<span class=\"hl\">SN</span> <span class=\"hl\">BR</span> OVC030"
    },
    {
      "icao": "LRBV",
      "iata": "GHV",
      "name": "Brașov-Ghimbav International Airport",
      "updatedAt": "080530Z",
      "visibility_m": 8000,
      "taf_visibility_m": 3000,
      "worst_visibility_m": 3000,
      "ceiling_ft": 2100,
      "hazards": [
        "SN",
        "BR"
      ],
      "severityScore": 28,
      "metarRaw": "METAR LRBV 080530Z 30013KT 8000 -SN FEW010 BKN021 OVC037 M01/M04 Q0999",
      "tafRaw": "TAF LRBV 080500Z 0806/0815 29016KT 9999 BKN015 BKN035 \n  TEMPO 0806/0809 3000 -SN BR BKN010 OVC020",
      "metarHtml": "METAR LRBV 080530Z 30013KT 8000 -<span class=\"hl\">SN</span> FEW010 BKN021 OVC037 M01/M04 Q0999",
      "tafHtml": "TAF LRBV 080500Z 0806/0815 29016KT 9999 BKN015 BKN035 \n  TEMPO 0806/0809 3000 -<span class=\"hl\">SN</span> <span class=\"hl\">BR</span> BKN010 OVC020"
    },
    {
      "icao": "LRCL",
      "iata": "CLJ",
      "name": "Cluj Avram Iancu International Airport",
      "updatedAt": "080530Z",
      "visibility_m": 10000,
      "taf_visibility_m": 5000,
      "worst_visibility_m": 5000,
      "ceiling_ft": 4300,
      "hazards": [
        "SN",
        "BR"
      ],
      "severityScore": 28,
      "metarRaw": "METAR LRCL 080530Z 30010KT 9999 -SN BKN043 OVC054 M04/M05 Q1002",
      "tafRaw": "TAF LRCL 080500Z 0806/0815 29010KT 5000 -SN BR BKN015 BKN035 \n  BECMG 0807/0809 9999 NSW SCT025 BKN040",
      "metarHtml": "METAR LRCL 080530Z 30010KT 9999 -<span class=\"hl\">SN</span> BKN043 OVC054 M04/M05 Q1002",
      "tafHtml": "TAF LRCL 080500Z 0806/0815 29010KT 5000 -<span class=\"hl\">SN</span> <span class=\"hl\">BR</span> BKN015 BKN035 \n  BECMG 0807/0809 9999 NSW SCT025 BKN040"
    },
    {
      "icao": "LRTM",
      "iata": "TGM",
      "name": "Târgu Mureş Transilvania International Airport",
      "updatedAt": "080530Z",
      "visibility_m": 8000,
      "taf_visibility_m": 3000,
      "worst_visibility_m": 3000,
      "ceiling_ft": 3000,
      "hazards": [
        "SN",
        "BR"
      ],
      "severityScore": 28,
      "metarRaw": "METAR LRTM 080530Z 26009KT 8000 -SN FEW008 SCT014 OVC030 M02/M04 Q1002",
      "tafRaw": "TAF LRTM 080500Z 0806/0815 29010KT 3000 -SN BR BKN010 BKN035 \n  BECMG 0807/0809 9999 NSW SCT020 BKN040",
      "metarHtml": "METAR LRTM 080530Z 26009KT 8000 -<span class=\"hl\">SN</span> FEW008 SCT014 OVC030 M02/M04 Q1002",
      "tafHtml": "TAF LRTM 080500Z 0806/0815 29010KT 3000 -<span class=\"hl\">SN</span> <span class=\"hl\">BR</span> BKN010 BKN035 \n  BECMG 0807/0809 9999 NSW SCT020 BKN040"
    },
    {
      "icao": "LRTR",
      "iata": "TSR",
      "name": "Timişoara Traian Vuia Airport",
      "updatedAt": "080530Z",
      "visibility_m": 3500,
      "taf_visibility_m": 3000,
      "worst_visibility_m": 3000,
      "ceiling_ft": 3000,
      "hazards": [
        "BR",
        "SN"
      ],
      "severityScore": 28,
      "metarRaw": "METAR LRTR 080530Z 27006KT 3500 -SN BR FEW002 SCT004 BKN030 M05/M05 Q1007 NOSIG",
      "tafRaw": "TAF LRTR 080500Z 0806/0906 30010KT 3000 -SN BR BKN015 OVC030 \n  BECMG 0806/0808 9999 NSW BKN025 \n  BECMG 0821/0823 VRB03KT \n  TEMPO 0901/0906 3000 BR BKN010",
      "metarHtml": "METAR LRTR 080530Z 27006KT 3500 -<span class=\"hl\">SN</span> <span class=\"hl\">BR</span> FEW002 SCT004 BKN030 M05/M05 Q1007 NOSIG",
      "tafHtml": "TAF LRTR 080500Z 0806/0906 30010KT 3000 -<span class=\"hl\">SN</span> <span class=\"hl\">BR</span> BKN015 OVC030 \n  BECMG 0806/0808 9999 NSW BKN025 \n  BECMG 0821/0823 VRB03KT \n  TEMPO 0901/0906 3000 <span class=\"hl\">BR</span> BKN010"
    },
    {
      "icao": "EDSB",
      "iata": "FKB",
      "name": "Karlsruhe Baden-Baden Airport",
      "updatedAt": "080520Z",
      "visibility_m": 10000,
      "taf_visibility_m": 3000,
      "worst_visibility_m": 3000,
      "ceiling_ft": 2600,
      "hazards": [
        "RA",
        "SHRA"
      ],
      "severityScore": 26,
      "metarRaw": "METAR EDSB 080520Z 20009KT 9999 OVC026 01/M02 Q1011",
      "tafRaw": "TAF EDSB 080500Z 0806/0906 20010KT 9999 BKN025 \n  TEMPO 0809/0813 4000 -SNRA \n  TEMPO 0818/0901 3000 RA \n  BECMG 0820/0823 21015G25KT \n  TEMPO 0901/0904 23020G35KT SHRA BKN015CB",
      "metarHtml": "METAR EDSB 080520Z 20009KT 9999 OVC026 01/M02 Q1011",
      "tafHtml": "TAF EDSB 080500Z 0806/0906 20010KT 9999 BKN025 \n  TEMPO 0809/0813 4000 -SNRA \n  TEMPO 0818/0901 3000 <span class=\"hl\">RA</span> \n  BECMG 0820/0823 21015G25KT \n  TEMPO 0901/0904 23020G35KT <span class=\"hl\">SHRA</span> BKN015CB"
    },
    {
      "icao": "LEBB",
      "iata": "BIO",
      "name": "Bilbao Airport",
      "updatedAt": "080530Z",
      "visibility_m": 10000,
      "taf_visibility_m": 3000,
      "worst_visibility_m": 3000,
      "ceiling_ft": 5200,
      "hazards": [
        "RA",
        "SHRA"
      ],
      "severityScore": 26,
      "metarRaw": "METAR LEBB 080530Z VRB01KT 9999 SCT040 BKN052 11/07 Q1023 NOSIG",
      "tafRaw": "TAF LEBB 080500Z 0806/0906 22009KT 9999 FEW030 SCT050 TX14/0814Z TN07/0906Z \n  PROB40 \n  TEMPO 0806/0812 22015G25KT \n  TEMPO 0812/0824 22020G33KT \n  PROB40 \n  TEMPO 0822/0902 28012KT 3000 RA \n  PROB30 \n  TEMPO 0822/0906 28010KT 3000 SHRA SCT030TCU",
      "metarHtml": "METAR LEBB 080530Z VRB01KT 9999 SCT040 BKN052 11/07 Q1023 NOSIG",
      "tafHtml": "TAF LEBB 080500Z 0806/0906 22009KT 9999 FEW030 SCT050 TX14/0814Z TN07/0906Z \n  PROB40 \n  TEMPO 0806/0812 22015G25KT \n  TEMPO 0812/0824 22020G33KT \n  PROB40 \n  TEMPO 0822/0902 28012KT 3000 <span class=\"hl\">RA</span> \n  PROB30 \n  TEMPO 0822/0906 28010KT 3000 <span class=\"hl\">SHRA</span> SCT030TCU"
    },
    {
      "icao": "LICA",
      "iata": "SUF",
      "name": "Lamezia Terme Sant'Eufemia International Airport",
      "updatedAt": "080520Z",
      "visibility_m": 10000,
      "taf_visibility_m": 3000,
      "worst_visibility_m": 3000,
      "ceiling_ft": null,
      "hazards": [
        "TSRA"
      ],
      "severityScore": 25,
      "metarRaw": "METAR LICA 080520Z AUTO 30020KT 9999 FEW050/// BKN071/// 10/01 Q1011",
      "tafRaw": "TAF LICA 080500Z 0806/0906 28020G30KT 9999 SCT030 \n  PROB40 \n  TEMPO 0806/0815 3000 TSRA \n  BECMG 0813/0815 29013KT",
      "metarHtml": "METAR LICA 080520Z AUTO 30020KT 9999 FEW050/// BKN071/// 10/01 Q1011",
      "tafHtml": "TAF LICA 080500Z 0806/0906 28020G30KT 9999 SCT030 \n  PROB40 \n  TEMPO 0806/0815 3000 <span class=\"hl\">TSRA</span> \n  BECMG 0813/0815 29013KT"
    },
    {
      "icao": "LLBG",
      "iata": "TLV",
      "name": "Ben Gurion International Airport",
      "updatedAt": "080520Z",
      "visibility_m": 10000,
      "taf_visibility_m": 5000,
      "worst_visibility_m": 5000,
      "ceiling_ft": null,
      "hazards": [
        "TSRA"
      ],
      "severityScore": 25,
      "metarRaw": "METAR LLBG 080520Z VRB02KT CAVOK 11/06 Q1019 NOSIG",
      "tafRaw": "TAF LLBG 080503Z 0806/0906 VRB03KT CAVOK \n  TEMPO 0806/0809 15005KT \n  TEMPO 0809/0816 25006KT \n  BECMG 0820/0822 16006KT \n  BECMG 0823/0901 20010KT 9999 SCT030 \n  PROB40 \n  TEMPO 0901/0906 27018G28KT 5000 TSRA FEW020CB BKN025 TX26/0812Z TN14/0904Z",
      "metarHtml": "METAR LLBG 080520Z VRB02KT <span class=\"hl-vis\">CAVOK</span> 11/06 Q1019 NOSIG",
      "tafHtml": "TAF LLBG 080503Z 0806/0906 VRB03KT <span class=\"hl-vis\">CAVOK</span> \n  TEMPO 0806/0809 15005KT \n  TEMPO 0809/0816 25006KT \n  BECMG 0820/0822 16006KT \n  BECMG 0823/0901 20010KT 9999 SCT030 \n  PROB40 \n  TEMPO 0901/0906 27018G28KT 5000 <span class=\"hl\">TSRA</span> FEW020CB BKN025 TX26/0812Z TN14/0904Z"
    },
    {
      "icao": "EDDK",
      "iata": "CGN",
      "name": "Cologne Bonn Airport",
      "updatedAt": "080520Z",
      "visibility_m": 10000,
      "taf_visibility_m": 4000,
      "worst_visibility_m": 4000,
      "ceiling_ft": 4500,
      "hazards": [
        "BR",
        "RA"
      ],
      "severityScore": 22,
      "metarRaw": "METAR EDDK 080520Z AUTO 19009KT 9999 OVC045 01/M02 Q1007 NOSIG",
      "tafRaw": "TAF EDDK 080500Z 0806/0912 19008KT 9999 OVC040 \n  BECMG 0810/0813 13006KT \n  BECMG 0819/0822 13013KT RA \n  TEMPO 0819/0904 4000 -RA BR BKN012 \n  BECMG 0900/0903 NSW \n  BECMG 0902/0905 19015G25KT \n  TEMPO 0905/0912 19020G30KT RA",
      "metarHtml": "METAR EDDK 080520Z AUTO 19009KT 9999 OVC045 01/M02 Q1007 NOSIG",
      "tafHtml": "TAF EDDK 080500Z 0806/0912 19008KT 9999 OVC040 \n  BECMG 0810/0813 13006KT \n  BECMG 0819/0822 13013KT <span class=\"hl\">RA</span> \n  TEMPO 0819/0904 4000 -<span class=\"hl\">RA</span> <span class=\"hl\">BR</span> BKN012 \n  BECMG 0900/0903 NSW \n  BECMG 0902/0905 19015G25KT \n  TEMPO 0905/0912 19020G30KT <span class=\"hl\">RA</span>"
    },
    {
      "icao": "HESX",
      "iata": "SPX",
      "name": "Sphinx International Airport",
      "updatedAt": "080500Z",
      "visibility_m": 6000,
      "taf_visibility_m": 3000,
      "worst_visibility_m": 3000,
      "ceiling_ft": null,
      "hazards": [
        "BR",
        "RA"
      ],
      "severityScore": 22,
      "metarRaw": "METAR HESX 080500Z 23004KT 6000 NSC 10/05 Q1019 NOSIG",
      "tafRaw": "TAF HESX 080500Z 0806/0912 21010KT 9999 SCT025 \n  TEMPO 0806/0808 VRB03KT 3000 BR NSC \n  PROB30 \n  TEMPO 0809/0816 23012G22KT 4000 SA \n  TEMPO 0822/0906 6000 RA BKN020",
      "metarHtml": "METAR HESX 080500Z 23004KT 6000 NSC 10/05 Q1019 NOSIG",
      "tafHtml": "TAF HESX 080500Z 0806/0912 21010KT 9999 SCT025 \n  TEMPO 0806/0808 VRB03KT 3000 <span class=\"hl\">BR</span> NSC \n  PROB30 \n  TEMPO 0809/0816 23012G22KT 4000 SA \n  TEMPO 0822/0906 6000 <span class=\"hl\">RA</span> BKN020"
    },
    {
      "icao": "LHBP",
      "iata": "BUD",
      "name": "Budapest Liszt Ferenc International Airport",
      "updatedAt": "080530Z",
      "visibility_m": 10000,
      "taf_visibility_m": 4500,
      "worst_visibility_m": 4500,
      "ceiling_ft": null,
      "hazards": [
        "BLSN"
      ],
      "severityScore": 22,
      "metarRaw": "METAR LHBP 080530Z 31015KT CAVOK M06/M09 Q1007 NOSIG",
      "tafRaw": "TAF LHBP 080515Z 0806/0906 30013KT CAVOK \n  TEMPO 0806/0817 30016G27KT DRSN FEW020 \n  PROB30 \n  TEMPO 0811/0816 4500 BLSN \n  BECMG 0818/0821 30008KT \n  BECMG 0822/0901 VRB02KT",
      "metarHtml": "METAR LHBP 080530Z 31015KT <span class=\"hl-vis\">CAVOK</span> M06/M09 Q1007 NOSIG",
      "tafHtml": "TAF LHBP 080515Z 0806/0906 30013KT <span class=\"hl-vis\">CAVOK</span> \n  TEMPO 0806/0817 30016G27KT DRSN FEW020 \n  PROB30 \n  TEMPO 0811/0816 4500 <span class=\"hl\">BLSN</span> \n  BECMG 0818/0821 30008KT \n  BECMG 0822/0901 VRB02KT"
    },
    {
      "icao": "LPPT",
      "iata": "LIS",
      "name": "Lisbon Humberto Delgado Airport",
      "updatedAt": "080530Z",
      "visibility_m": 10000,
      "taf_visibility_m": 3000,
      "worst_visibility_m": 3000,
      "ceiling_ft": 2600,
      "hazards": [
        "BR",
        "RA"
      ],
      "severityScore": 22,
      "metarRaw": "METAR LPPT 080530Z 30003KT 9999 BKN026 10/08 Q1031",
      "tafRaw": "TAF LPPT 080500Z 0806/0912 VRB02KT 9999 SCT020 \n  PROB30 \n  TEMPO 0806/0808 3000 BR BKN003 \n  BECMG 0810/0812 25007KT SCT015 BKN030 \n  PROB30 \n  TEMPO 0815/0819 6000 -RA SCT006 BKN012 \n  BECMG 0823/0901 BKN015 \n  TEMPO 0901/0906 4000 -RADZ BR SCT004 BKN008 \n  BECMG 0906/0908 32007KT SCT015",
      "metarHtml": "METAR LPPT 080530Z 30003KT 9999 BKN026 10/08 Q1031",
      "tafHtml": "TAF LPPT 080500Z 0806/0912 VRB02KT 9999 SCT020 \n  PROB30 \n  TEMPO 0806/0808 3000 <span class=\"hl\">BR</span> BKN003 \n  BECMG 0810/0812 25007KT SCT015 BKN030 \n  PROB30 \n  TEMPO 0815/0819 6000 -<span class=\"hl\">RA</span> SCT006 BKN012 \n  BECMG 0823/0901 BKN015 \n  TEMPO 0901/0906 4000 -RADZ <span class=\"hl\">BR</span> SCT004 BKN008 \n  BECMG 0906/0908 32007KT SCT015"
    },
    {
      "icao": "OJAI",
      "iata": "AMM",
      "name": "Queen Alia International Airport",
      "updatedAt": "080500Z",
      "visibility_m": 5000,
      "taf_visibility_m": 3000,
      "worst_visibility_m": 3000,
      "ceiling_ft": null,
      "hazards": [
        "BR",
        "RA"
      ],
      "severityScore": 22,
      "metarRaw": "METAR OJAI 080500Z 08005KT 5000 HZ NSC 06/01 Q1024 NOSIG",
      "tafRaw": "TAF OJAI 080500Z 0806/0912 12010KT 5000 HZ NSC \n  PROB40 \n  TEMPO 0809/0815 13016KT 4000 BLDU \n  BECMG 0816/0818 23012KT \n  BECMG 0900/0902 FEW025TCU SCT030 \n  PROB40 \n  TEMPO 0906/0912 28022KT 3000 RA BR SCT025TCU BKN030",
      "metarHtml": "METAR OJAI 080500Z 08005KT 5000 HZ NSC 06/01 Q1024 NOSIG",
      "tafHtml": "TAF OJAI 080500Z 0806/0912 12010KT 5000 HZ NSC \n  PROB40 \n  TEMPO 0809/0815 13016KT 4000 BLDU \n  BECMG 0816/0818 23012KT \n  BECMG 0900/0902 FEW025TCU SCT030 \n  PROB40 \n  TEMPO 0906/0912 28022KT 3000 <span class=\"hl\">RA</span> <span class=\"hl\">BR</span> SCT025TCU BKN030"
    },
    {
      "icao": "ENAL",
      "iata": "AES",
      "name": "Ålesund Airport, Vigra",
      "updatedAt": "080520Z",
      "visibility_m": 10000,
      "taf_visibility_m": 1200,
      "worst_visibility_m": 1200,
      "ceiling_ft": null,
      "hazards": [
        "SHSN"
      ],
      "severityScore": 20,
      "metarRaw": "METAR ENAL 080520Z 18005KT 150V210 CAVOK M05/M11 Q1004",
      "tafRaw": "TAF ENAL 080500Z 0806/0815 16008KT 9999 FEW030 \n  PROB40 \n  TEMPO 0813/0815 1200 SHSN VV008 \n  PROB40 \n  TEMPO 0813/0815 SCT020CB",
      "metarHtml": "METAR ENAL 080520Z 18005KT 150V210 <span class=\"hl-vis\">CAVOK</span> M05/M11 Q1004",
      "tafHtml": "TAF ENAL 080500Z 0806/0815 16008KT 9999 FEW030 \n  PROB40 \n  TEMPO 0813/0815 1200 <span class=\"hl\">SHSN</span> VV008 \n  PROB40 \n  TEMPO 0813/0815 SCT020CB"
    },
    {
      "icao": "EPSY",
      "iata": "SZY",
      "name": "Olsztyn-Mazury Airport",
      "updatedAt": "080530Z",
      "visibility_m": 1200,
      "taf_visibility_m": 1000,
      "worst_visibility_m": 1000,
      "ceiling_ft": null,
      "hazards": [
        "BR"
      ],
      "severityScore": 20,
      "metarRaw": "METAR EPSY 080530Z 36003KT 1200 R01/1800N BR NSC M12/M14 Q1012",
      "tafRaw": "TAF EPSY 080530Z 0806/0815 VRB02KT 5000 BR NSC \n  TEMPO 0806/0809 2000 BR \n  PROB40 \n  TEMPO 0806/0809 1000 BR BKN002",
      "metarHtml": "METAR EPSY 080530Z 36003KT 1200 R01/1800N <span class=\"hl\">BR</span> NSC M12/M14 Q1012",
      "tafHtml": "TAF EPSY 080530Z 0806/0815 VRB02KT 5000 <span class=\"hl\">BR</span> NSC \n  TEMPO 0806/0809 2000 <span class=\"hl\">BR</span> \n  PROB40 \n  TEMPO 0806/0809 1000 <span class=\"hl\">BR</span> BKN002"
    },
    {
      "icao": "UDSG",
      "iata": "LWN",
      "name": "Shirak International Airport",
      "updatedAt": "080530Z",
      "visibility_m": 4800,
      "taf_visibility_m": 1000,
      "worst_visibility_m": 1000,
      "ceiling_ft": null,
      "hazards": [
        "BR"
      ],
      "severityScore": 20,
      "metarRaw": "METAR UDSG 080530Z 31002KT 4800 BR FEW049 M13/M13 Q1025 NOSIG",
      "tafRaw": "TAF UDSG 080500Z 0806/0906 VRB06KT 5000 BR FEW040 \n  TEMPO 0806/0818 1000 BR SCT030",
      "metarHtml": "METAR UDSG 080530Z 31002KT 4800 <span class=\"hl\">BR</span> FEW049 M13/M13 Q1025 NOSIG",
      "tafHtml": "TAF UDSG 080500Z 0806/0906 VRB06KT 5000 <span class=\"hl\">BR</span> FEW040 \n  TEMPO 0806/0818 1000 <span class=\"hl\">BR</span> SCT030"
    },
    {
      "icao": "EDDB",
      "iata": "BER",
      "name": "Berlin Brandenburg Airport",
      "updatedAt": "080520Z",
      "visibility_m": 10000,
      "taf_visibility_m": 4000,
      "worst_visibility_m": 4000,
      "ceiling_ft": null,
      "hazards": [
        "SN"
      ],
      "severityScore": 18,
      "metarRaw": "METAR EDDB 080520Z AUTO 12007KT CAVOK M10/M12 Q1009 NOSIG",
      "tafRaw": "TAF EDDB 080500Z 0806/0906 12007KT 9000 BKN035 \n  PROB30 \n  TEMPO 0812/0817 4500 -SN BKN009 \n  PROB30 \n  TEMPO 0818/0906 4000 -SG BKN004",
      "metarHtml": "METAR EDDB 080520Z AUTO 12007KT <span class=\"hl-vis\">CAVOK</span> M10/M12 Q1009 NOSIG",
      "tafHtml": "TAF EDDB 080500Z 0806/0906 12007KT 9000 BKN035 \n  PROB30 \n  TEMPO 0812/0817 4500 -<span class=\"hl\">SN</span> BKN009 \n  PROB30 \n  TEMPO 0818/0906 4000 -SG BKN004"
    },
    {
      "icao": "EDNY",
      "iata": "FDH",
      "name": "Friedrichshafen Airport",
      "updatedAt": "080520Z",
      "visibility_m": 10000,
      "taf_visibility_m": 2500,
      "worst_visibility_m": 2500,
      "ceiling_ft": null,
      "hazards": [
        "SN"
      ],
      "severityScore": 18,
      "metarRaw": "METAR EDNY 080520Z 14004KT 110V170 9999 SCT049 M03/M06 Q1012",
      "tafRaw": "TAF EDNY 080500Z 0806/0815 18005KT 9999 FEW012 BKN040 \n  TEMPO 0809/0813 2500 -SN BKN012 \n  TEMPO 0813/0815 4000 RASN BKN009",
      "metarHtml": "METAR EDNY 080520Z 14004KT 110V170 9999 SCT049 M03/M06 Q1012",
      "tafHtml": "TAF EDNY 080500Z 0806/0815 18005KT 9999 FEW012 BKN040 \n  TEMPO 0809/0813 2500 -<span class=\"hl\">SN</span> BKN012 \n  TEMPO 0813/0815 4000 RASN BKN009"
    },
    {
      "icao": "ENVA",
      "iata": "TRD",
      "name": "Trondheim Airport, Værnes",
      "updatedAt": "080520Z",
      "visibility_m": 10000,
      "taf_visibility_m": 4000,
      "worst_visibility_m": 4000,
      "ceiling_ft": null,
      "hazards": [
        "SN"
      ],
      "severityScore": 18,
      "metarRaw": "METAR ENVA 080520Z 06010KT 020V080 CAVOK M06/M13 Q1007 NOSIG RMK WIND 670FT 08013KT",
      "tafRaw": "TAF ENVA 080500Z 0806/0906 07012KT 9999 -SN SCT050 \n  PROB30 0822/0901 4000 -SN VV014 \n  BECMG 0822/0824 15012KT",
      "metarHtml": "METAR ENVA 080520Z 06010KT 020V080 <span class=\"hl-vis\">CAVOK</span> M06/M13 Q1007 NOSIG RMK WIND 670FT 08013KT",
      "tafHtml": "TAF ENVA 080500Z 0806/0906 07012KT 9999 -<span class=\"hl\">SN</span> SCT050 \n  PROB30 0822/0901 4000 -<span class=\"hl\">SN</span> VV014 \n  BECMG 0822/0824 15012KT"
    },
    {
      "icao": "LKPR",
      "iata": "PRG",
      "name": "Václav Havel Airport Prague",
      "updatedAt": "080530Z",
      "visibility_m": 10000,
      "taf_visibility_m": 2000,
      "worst_visibility_m": 2000,
      "ceiling_ft": null,
      "hazards": [
        "SN"
      ],
      "severityScore": 18,
      "metarRaw": "METAR LKPR 080530Z 19008KT CAVOK M08/M11 Q1009 NOSIG",
      "tafRaw": "TAF LKPR 080500Z 0806/0912 20006KT CAVOK \n  BECMG 0807/0809 9999 BKN025 \n  TEMPO 0809/0820 BKN014 \n  PROB30 \n  TEMPO 0809/0817 6000 -SN BKN009 \n  BECMG 0820/0822 12007KT \n  BECMG 0904/0906 BKN012 \n  TEMPO 0906/0910 4000 SN BKN006 \n  PROB30 \n  TEMPO 0906/0910 2000 SN BKN003",
      "metarHtml": "METAR LKPR 080530Z 19008KT <span class=\"hl-vis\">CAVOK</span> M08/M11 Q1009 NOSIG",
      "tafHtml": "TAF LKPR 080500Z 0806/0912 20006KT <span class=\"hl-vis\">CAVOK</span> \n  BECMG 0807/0809 9999 BKN025 \n  TEMPO 0809/0820 BKN014 \n  PROB30 \n  TEMPO 0809/0817 6000 -<span class=\"hl\">SN</span> BKN009 \n  BECMG 0820/0822 12007KT \n  BECMG 0904/0906 BKN012 \n  TEMPO 0906/0910 4000 <span class=\"hl\">SN</span> BKN006 \n  PROB30 \n  TEMPO 0906/0910 2000 <span class=\"hl\">SN</span> BKN003"
    },
    {
      "icao": "LRSB",
      "iata": "SBZ",
      "name": "Sibiu International Airport",
      "updatedAt": "080530Z",
      "visibility_m": 10000,
      "taf_visibility_m": 5000,
      "worst_visibility_m": 5000,
      "ceiling_ft": 3800,
      "hazards": [
        "SN"
      ],
      "severityScore": 18,
      "metarRaw": "METAR LRSB 080530Z 28007KT 250V320 9999 BKN038 SCT050 M02/M05 Q1001",
      "tafRaw": "TAF LRSB 080500Z 0806/0906 33014KT 9999 SCT035 \n  TEMPO 0806/0809 5000 -SN BKN015",
      "metarHtml": "METAR LRSB 080530Z 28007KT 250V320 9999 BKN038 SCT050 M02/M05 Q1001",
      "tafHtml": "TAF LRSB 080500Z 0806/0906 33014KT 9999 SCT035 \n  TEMPO 0806/0809 5000 -<span class=\"hl\">SN</span> BKN015"
    },
    {
      "icao": "LWSK",
      "iata": "SKP",
      "name": "Skopje International Airport",
      "updatedAt": "080520Z",
      "visibility_m": 10000,
      "taf_visibility_m": 3000,
      "worst_visibility_m": 3000,
      "ceiling_ft": 3500,
      "hazards": [
        "SN"
      ],
      "severityScore": 18,
      "metarRaw": "METAR LWSK 080520Z 02017KT 9999 SCT015 OVC035 M00/M03 Q1003 NOSIG",
      "tafRaw": "TAF LWSK 080215Z 0803/0903 36012KT 9999 SCT015 OVC035 \n  TEMPO 0803/0815 04015G25KT \n  TEMPO 0804/0809 3000 -SN FEW007 BKN015 OVC030 \n  BECMG 0811/0813 9999 NSW SCT030 BKN050 \n  BECMG 0821/0823 VRB02KT",
      "metarHtml": "METAR LWSK 080520Z 02017KT 9999 SCT015 OVC035 M00/M03 Q1003 NOSIG",
      "tafHtml": "TAF LWSK 080215Z 0803/0903 36012KT 9999 SCT015 OVC035 \n  TEMPO 0803/0815 04015G25KT \n  TEMPO 0804/0809 3000 -<span class=\"hl\">SN</span> FEW007 BKN015 OVC030 \n  BECMG 0811/0813 9999 NSW SCT030 BKN050 \n  BECMG 0821/0823 VRB02KT"
    },
    {
      "icao": "LYNI",
      "iata": "INI",
      "name": "Niš Constantine the Great Airport",
      "updatedAt": "080530Z",
      "visibility_m": 8000,
      "taf_visibility_m": 5000,
      "worst_visibility_m": 5000,
      "ceiling_ft": 2000,
      "hazards": [
        "SN"
      ],
      "severityScore": 18,
      "metarRaw": "METAR LYNI 080530Z 30006KT 8000 -SN SCT010 BKN020 OVC070 M03/M05 Q1007 NOSIG",
      "tafRaw": "TAF LYNI 080500Z 0806/0906 32010KT 9999 BKN017 BKN027 BKN070 TXM02/0813Z TNM10/0906Z \n  TEMPO 0806/0810 5000 -SN BKN010 BKN023 OVC065 \n  TEMPO 0810/0814 32015G25KT \n  BECMG 0816/0818 18004KT",
      "metarHtml": "METAR LYNI 080530Z 30006KT 8000 -<span class=\"hl\">SN</span> SCT010 BKN020 OVC070 M03/M05 Q1007 NOSIG",
      "tafHtml": "TAF LYNI 080500Z 0806/0906 32010KT 9999 BKN017 BKN027 BKN070 TXM02/0813Z TNM10/0906Z \n  TEMPO 0806/0810 5000 -<span class=\"hl\">SN</span> BKN010 BKN023 OVC065 \n  TEMPO 0810/0814 32015G25KT \n  BECMG 0816/0818 18004KT"
    },
    {
      "icao": "LZTT",
      "iata": "TAT",
      "name": "Poprad-Tatry Airport",
      "updatedAt": "080530Z",
      "visibility_m": 9000,
      "taf_visibility_m": 10000,
      "worst_visibility_m": 9000,
      "ceiling_ft": 2300,
      "hazards": [
        "SN"
      ],
      "severityScore": 18,
      "metarRaw": "METAR LZTT 080530Z 27012KT 9000 -SN FEW010 OVC023 M08/M11 Q1003",
      "tafRaw": "TAF LZTT 080515Z 0806/0906 27010KT 9999 OVC020 \n  PROB40 \n  TEMPO 0806/0808 VRB02KT -SN OVC013 \n  BECMG 0810/0812 SCT033 \n  TEMPO 0903/0906 VRB02KT",
      "metarHtml": "METAR LZTT 080530Z 27012KT 9000 -<span class=\"hl\">SN</span> FEW010 OVC023 M08/M11 Q1003",
      "tafHtml": "TAF LZTT 080515Z 0806/0906 27010KT 9999 OVC020 \n  PROB40 \n  TEMPO 0806/0808 VRB02KT -<span class=\"hl\">SN</span> OVC013 \n  BECMG 0810/0812 SCT033 \n  TEMPO 0903/0906 VRB02KT"
    },
    {
      "icao": "LCLK",
      "iata": "LCA",
      "name": "Larnaca International Airport",
      "updatedAt": "080530Z",
      "visibility_m": 10000,
      "taf_visibility_m": 5000,
      "worst_visibility_m": 5000,
      "ceiling_ft": null,
      "hazards": [
        "SHRA"
      ],
      "severityScore": 14,
      "metarRaw": "METAR LCLK 080530Z 32007KT CAVOK 13/12 Q1019 NOSIG",
      "tafRaw": "TAF LCLK 080530Z 0806/0906 10006KT 9999 FEW025 \n  BECMG 0813/0815 20010KT \n  BECMG 0820/0823 24020KT \n  PROB40 \n  TEMPO 0820/0903 VRB15G25KT 5000 SHRA SCT020TCU",
      "metarHtml": "METAR LCLK 080530Z 32007KT <span class=\"hl-vis\">CAVOK</span> 13/12 Q1019 NOSIG",
      "tafHtml": "TAF LCLK 080530Z 0806/0906 10006KT 9999 FEW025 \n  BECMG 0813/0815 20010KT \n  BECMG 0820/0823 24020KT \n  PROB40 \n  TEMPO 0820/0903 VRB15G25KT 5000 <span class=\"hl\">SHRA</span> SCT020TCU"
    },
    {
      "icao": "LMML",
      "iata": "MLA",
      "name": "Malta International Airport",
      "updatedAt": "080515Z",
      "visibility_m": 10000,
      "taf_visibility_m": 8000,
      "worst_visibility_m": 8000,
      "ceiling_ft": 4400,
      "hazards": [
        "SHRA"
      ],
      "severityScore": 14,
      "metarRaw": "METAR LMML 080515Z 27019KT 9999 SCT025TCU BKN044 10/06 Q1018 NOSIG",
      "tafRaw": "TAF LMML 080500Z 0806/0906 29025G35KT 9999 SCT025 \n  PROB40 \n  TEMPO 0806/0906 8000 SHRA BKN020TCU",
      "metarHtml": "METAR LMML 080515Z 27019KT 9999 SCT025TCU BKN044 10/06 Q1018 NOSIG",
      "tafHtml": "TAF LMML 080500Z 0806/0906 29025G35KT 9999 SCT025 \n  PROB40 \n  TEMPO 0806/0906 8000 <span class=\"hl\">SHRA</span> BKN020TCU"
    },
    {
      "icao": "UGKO",
      "iata": "KUT",
      "name": "David the Builder Kutaisi International Airport",
      "updatedAt": "080530Z",
      "visibility_m": 10000,
      "taf_visibility_m": 5000,
      "worst_visibility_m": 5000,
      "ceiling_ft": null,
      "hazards": [
        "SHRA"
      ],
      "severityScore": 14,
      "metarRaw": "METAR UGKO 080530Z 07019KT CAVOK 12/01 Q1016 NOSIG",
      "tafRaw": "TAF UGKO 080500Z 0806/0906 07015KT CAVOK TX18/0812Z TN09/0823Z \n  TEMPO 0816/0820 BKN050 \n  TEMPO 0820/0906 08025G39KT 5000 SHRA SCT020CB OVC040",
      "metarHtml": "METAR UGKO 080530Z 07019KT <span class=\"hl-vis\">CAVOK</span> 12/01 Q1016 NOSIG",
      "tafHtml": "TAF UGKO 080500Z 0806/0906 07015KT <span class=\"hl-vis\">CAVOK</span> TX18/0812Z TN09/0823Z \n  TEMPO 0816/0820 BKN050 \n  TEMPO 0820/0906 08025G39KT 5000 <span class=\"hl\">SHRA</span> SCT020CB OVC040"
    },
    {
      "icao": "EDLW",
      "iata": "DTM",
      "name": "Dortmund Airport",
      "updatedAt": "080520Z",
      "visibility_m": 10000,
      "taf_visibility_m": 4000,
      "worst_visibility_m": 4000,
      "ceiling_ft": 4600,
      "hazards": [
        "RA"
      ],
      "severityScore": 12,
      "metarRaw": "METAR EDLW 080520Z 19012KT 9999 OVC046 01/M01 Q1005",
      "tafRaw": "TAF EDLW 080500Z 0806/0906 19011KT 9999 FEW015 OVC040 \n  PROB30 \n  TEMPO 0806/0810 BKN012 \n  BECMG 0814/0817 15006KT \n  TEMPO 0819/0904 4000 RA BKN012 \n  BECMG 0822/0901 16012KT",
      "metarHtml": "METAR EDLW 080520Z 19012KT 9999 OVC046 01/M01 Q1005",
      "tafHtml": "TAF EDLW 080500Z 0806/0906 19011KT 9999 FEW015 OVC040 \n  PROB30 \n  TEMPO 0806/0810 BKN012 \n  BECMG 0814/0817 15006KT \n  TEMPO 0819/0904 4000 <span class=\"hl\">RA</span> BKN012 \n  BECMG 0822/0901 16012KT"
    },
    {
      "icao": "EHBK",
      "iata": "MST",
      "name": "Maastricht Aachen Airport",
      "updatedAt": "080525Z",
      "visibility_m": 10000,
      "taf_visibility_m": 4000,
      "worst_visibility_m": 4000,
      "ceiling_ft": 3200,
      "hazards": [
        "RA"
      ],
      "severityScore": 12,
      "metarRaw": "METAR EHBK 080525Z AUTO 20012KT 9999 FEW027 OVC032 00/M01 Q1006 NOSIG",
      "tafRaw": "TAF EHBK 080520Z 0806/0912 20008KT CAVOK \n  PROB40 \n  TEMPO 0812/0818 SCT008 BKN012 \n  BECMG 0816/0819 6000 RA \n  PROB40 \n  TEMPO 0817/0901 4000 BKN008 \n  BECMG 0821/0824 18015G25KT \n  BECMG 0900/0903 20018G30KT 9999 NSW \n  TEMPO 0904/0912 6000 RA BKN012",
      "metarHtml": "METAR EHBK 080525Z AUTO 20012KT 9999 FEW027 OVC032 00/M01 Q1006 NOSIG",
      "tafHtml": "TAF EHBK 080520Z 0806/0912 20008KT <span class=\"hl-vis\">CAVOK</span> \n  PROB40 \n  TEMPO 0812/0818 SCT008 BKN012 \n  BECMG 0816/0819 6000 <span class=\"hl\">RA</span> \n  PROB40 \n  TEMPO 0817/0901 4000 BKN008 \n  BECMG 0821/0824 18015G25KT \n  BECMG 0900/0903 20018G30KT 9999 NSW \n  TEMPO 0904/0912 6000 <span class=\"hl\">RA</span> BKN012"
    },
    {
      "icao": "EKCH",
      "iata": "CPH",
      "name": "Copenhagen Kastrup Airport",
      "updatedAt": "080520Z",
      "visibility_m": 10000,
      "taf_visibility_m": 10000,
      "worst_visibility_m": 10000,
      "ceiling_ft": 1400,
      "hazards": [],
      "severityScore": 12,
      "metarRaw": "METAR EKCH 080520Z 17016KT 9999 BKN014 M01/M04 Q1008 TEMPO BKN015",
      "tafRaw": "TAF EKCH 080527Z 0806/0906 16015KT 9999 BKN016 \n  TEMPO 0806/0809 BKN012 \n  BECMG 0821/0824 10015KT \n  TEMPO 0903/0906 11016G26KT",
      "metarHtml": "METAR EKCH 080520Z 17016KT 9999 BKN014 M01/M04 Q1008 TEMPO BKN015",
      "tafHtml": "TAF EKCH 080527Z 0806/0906 16015KT 9999 BKN016 \n  TEMPO 0806/0809 BKN012 \n  BECMG 0821/0824 10015KT \n  TEMPO 0903/0906 11016G26KT"
    },
    {
      "icao": "LATI",
      "iata": "TIA",
      "name": "Tirana International Airport Mother Teresa",
      "updatedAt": "080520Z",
      "visibility_m": 6000,
      "taf_visibility_m": 10000,
      "worst_visibility_m": 6000,
      "ceiling_ft": 3800,
      "hazards": [
        "RA"
      ],
      "severityScore": 12,
      "metarRaw": "METAR LATI 080520Z 04004KT 320V110 6000 +RA FEW027TCU OVC038 07/04 Q1004 NOSIG",
      "tafRaw": "TAF LATI 080500Z 0806/0906 30007KT 9999 -RA FEW025TCU SCT035 BKN070 TX08/0812Z TN00/0905Z \n  TEMPO 0806/0817 29016KT \n  BECMG 0816/0818 CAVOK",
      "metarHtml": "METAR LATI 080520Z 04004KT 320V110 6000 +<span class=\"hl\">RA</span> FEW027TCU OVC038 07/04 Q1004 NOSIG",
      "tafHtml": "TAF LATI 080500Z 0806/0906 30007KT 9999 -<span class=\"hl\">RA</span> FEW025TCU SCT035 BKN070 TX08/0812Z TN00/0905Z \n  TEMPO 0806/0817 29016KT \n  BECMG 0816/0818 <span class=\"hl-vis\">CAVOK</span>"
    },
    {
      "icao": "LBPD",
      "iata": "PDV",
      "name": "Plovdiv International Airport",
      "updatedAt": "080530Z",
      "visibility_m": 5000,
      "taf_visibility_m": 5000,
      "worst_visibility_m": 5000,
      "ceiling_ft": 2000,
      "hazards": [
        "RA"
      ],
      "severityScore": 12,
      "metarRaw": "METAR LBPD 080530Z AUTO 28020KT 9999 SCT015/// BKN021/// BKN100/// 09/07 Q0996 TEMPO 5000 RA SCT005 OVC020",
      "tafRaw": "TAF LBPD 080500Z 0806/0906 29020G35KT 9999 BKN040 \n  TEMPO 0806/0808 5000 RA SCT005 BKN020 OVC040",
      "metarHtml": "METAR LBPD 080530Z AUTO 28020KT 9999 SCT015/// BKN021/// BKN100/// 09/07 Q0996 TEMPO 5000 <span class=\"hl\">RA</span> SCT005 OVC020",
      "tafHtml": "TAF LBPD 080500Z 0806/0906 29020G35KT 9999 BKN040 \n  TEMPO 0806/0808 5000 <span class=\"hl\">RA</span> SCT005 BKN020 OVC040"
    },
    {
      "icao": "LPPS",
      "iata": "PXO",
      "name": "Porto Santo Airport",
      "updatedAt": "080530Z",
      "visibility_m": 10000,
      "taf_visibility_m": 6000,
      "worst_visibility_m": 6000,
      "ceiling_ft": null,
      "hazards": [
        "RA"
      ],
      "severityScore": 12,
      "metarRaw": "METAR LPPS 080530Z 01006KT 9999 SCT014 13/12 Q1033",
      "tafRaw": "TAF LPPS 080500Z 0806/0912 03008KT 9999 SCT015 \n  TEMPO 0806/0912 FEW015 BKN030 \n  PROB30 \n  TEMPO 0820/0910 6000 -RA SCT006 BKN012",
      "metarHtml": "METAR LPPS 080530Z 01006KT 9999 SCT014 13/12 Q1033",
      "tafHtml": "TAF LPPS 080500Z 0806/0912 03008KT 9999 SCT015 \n  TEMPO 0806/0912 FEW015 BKN030 \n  PROB30 \n  TEMPO 0820/0910 6000 -<span class=\"hl\">RA</span> SCT006 BKN012"
    },
    {
      "icao": "LWOH",
      "iata": "OHD",
      "name": "Ohrid St. Paul the Apostle Airport",
      "updatedAt": null,
      "visibility_m": null,
      "taf_visibility_m": 5000,
      "worst_visibility_m": 5000,
      "ceiling_ft": null,
      "hazards": [
        "RA"
      ],
      "severityScore": 12,
      "metarRaw": null,
      "tafRaw": "TAF LWOH 080215Z 0803/0903 19012KT 9999 RA SCT015 OVC035 \n  BECMG 0803/0805 25015G25KT \n  TEMPO 0804/0810 5000 SNRA FEW005 BKN010 OVC030 \n  BECMG 0812/0814 33010KT NSW SCT030 BKN050",
      "metarHtml": null,
      "tafHtml": "TAF LWOH 080215Z 0803/0903 19012KT 9999 <span class=\"hl\">RA</span> SCT015 OVC035 \n  BECMG 0803/0805 25015G25KT \n  TEMPO 0804/0810 5000 SNRA FEW005 BKN010 OVC030 \n  BECMG 0812/0814 33010KT NSW SCT030 BKN050"
    },
    {
      "icao": "EGPF",
      "iata": "GLA",
      "name": "Glasgow Airport",
      "updatedAt": "080520Z",
      "visibility_m": 9000,
      "taf_visibility_m": 3000,
      "worst_visibility_m": 3000,
      "ceiling_ft": 2900,
      "hazards": [
        "BR"
      ],
      "severityScore": 10,
      "metarRaw": "METAR EGPF 080520Z 05006KT 9000 BKN029 M04/M04 Q1002",
      "tafRaw": "TAF EGPF 080455Z 0806/0906 VRB04KT 9999 SCT025 \n  TEMPO 0806/0821 BKN014 \n  PROB30 \n  TEMPO 0806/0812 3000 SHRASN BR BKN007 \n  PROB30 \n  TEMPO 0812/0820 6000",
      "metarHtml": "METAR EGPF 080520Z 05006KT 9000 BKN029 M04/M04 Q1002",
      "tafHtml": "TAF EGPF 080455Z 0806/0906 VRB04KT 9999 SCT025 \n  TEMPO 0806/0821 BKN014 \n  PROB30 \n  TEMPO 0806/0812 3000 SHRASN <span class=\"hl\">BR</span> BKN007 \n  PROB30 \n  TEMPO 0812/0820 6000"
    },
    {
      "icao": "EHEH",
      "iata": "EIN",
      "name": "Eindhoven Airport",
      "updatedAt": "080525Z",
      "visibility_m": 10000,
      "taf_visibility_m": 2500,
      "worst_visibility_m": 2500,
      "ceiling_ft": 2800,
      "hazards": [
        "SHSN"
      ],
      "severityScore": 10,
      "metarRaw": "METAR EHEH 080525Z AUTO 21010KT 9999 BKN028 OVC031 01/M01 Q1005 BLU",
      "tafRaw": "TAF EHEH 072330Z 0800/0906 21014KT 9999 SCT025 \n  TEMPO 0800/0801 2500 -SHSN SCT003 BKN005 FEW015CB \n  BECMG 0814/0816 13005KT SCT012 BKN015 OVC018 \n  TEMPO 0817/0901 3500 RADZ RASN SCT005 BKN007 OVC010 \n  BECMG 0900/0902 17012G23KT SCT030 \n  PROB30 \n  TEMPO 0902/0904 SCT020CB \n  BECMG 0904/0906 SCT015 BKN018 \n  TEMPO 0905/0906 3500 RADZ SCT007 BKN012",
      "metarHtml": "METAR EHEH 080525Z AUTO 21010KT 9999 BKN028 OVC031 01/M01 Q1005 BLU",
      "tafHtml": "TAF EHEH 072330Z 0800/0906 21014KT 9999 SCT025 \n  TEMPO 0800/0801 2500 -<span class=\"hl\">SHSN</span> SCT003 BKN005 FEW015CB \n  BECMG 0814/0816 13005KT SCT012 BKN015 OVC018 \n  TEMPO 0817/0901 3500 RADZ RASN SCT005 BKN007 OVC010 \n  BECMG 0900/0902 17012G23KT SCT030 \n  PROB30 \n  TEMPO 0902/0904 SCT020CB \n  BECMG 0904/0906 SCT015 BKN018 \n  TEMPO 0905/0906 3500 RADZ SCT007 BKN012"
    },
    {
      "icao": "EPSC",
      "iata": "SZZ",
      "name": "Solidarity Szczecin–Goleniów Airport",
      "updatedAt": "080530Z",
      "visibility_m": 4500,
      "taf_visibility_m": 4000,
      "worst_visibility_m": 4000,
      "ceiling_ft": null,
      "hazards": [
        "BR"
      ],
      "severityScore": 10,
      "metarRaw": "METAR EPSC 080530Z 12009KT 4500 BR NSC M10/M11 Q1011",
      "tafRaw": "TAF EPSC 080530Z 0806/0906 13008KT 5000 BR SCT007 \n  TEMPO 0806/0809 4000 BR BKN005 BKN010 \n  PROB40 0806/0808 BKN004 \n  BECMG 0900/0902 OVC007 \n  PROB40 0902/0906 BKN004",
      "metarHtml": "METAR EPSC 080530Z 12009KT 4500 <span class=\"hl\">BR</span> NSC M10/M11 Q1011",
      "tafHtml": "TAF EPSC 080530Z 0806/0906 13008KT 5000 <span class=\"hl\">BR</span> SCT007 \n  TEMPO 0806/0809 4000 <span class=\"hl\">BR</span> BKN005 BKN010 \n  PROB40 0806/0808 BKN004 \n  BECMG 0900/0902 OVC007 \n  PROB40 0902/0906 BKN004"
    },
    {
      "icao": "EPWR",
      "iata": "WRO",
      "name": "Copernicus Wrocław Airport",
      "updatedAt": "080530Z",
      "visibility_m": 3500,
      "taf_visibility_m": 3500,
      "worst_visibility_m": 3500,
      "ceiling_ft": null,
      "hazards": [
        "BR"
      ],
      "severityScore": 10,
      "metarRaw": "METAR EPWR 080530Z VRB01KT 3500 BR FEW024 M12/M13 Q1012",
      "tafRaw": "TAF EPWR 080530Z 0806/0906 VRB02KT 4000 BR FEW024 \n  BECMG 0807/0809 6000 \n  TEMPO 0820/0903 3500 BR \n  BECMG 0903/0906 10010KT \n  PROB40 0903/0906 BKN008",
      "metarHtml": "METAR EPWR 080530Z VRB01KT 3500 <span class=\"hl\">BR</span> FEW024 M12/M13 Q1012",
      "tafHtml": "TAF EPWR 080530Z 0806/0906 VRB02KT 4000 <span class=\"hl\">BR</span> FEW024 \n  BECMG 0807/0809 6000 \n  TEMPO 0820/0903 3500 <span class=\"hl\">BR</span> \n  BECMG 0903/0906 10010KT \n  PROB40 0903/0906 BKN008"
    },
    {
      "icao": "ESKN",
      "iata": "NYO",
      "name": "Stockholm Skavsta Airport",
      "updatedAt": "080520Z",
      "visibility_m": 10000,
      "taf_visibility_m": 3000,
      "worst_visibility_m": 3000,
      "ceiling_ft": 2800,
      "hazards": [
        "SHSN"
      ],
      "severityScore": 10,
      "metarRaw": "METAR ESKN 080520Z 17010KT 9999 BKN028 M01/M04 Q1010",
      "tafRaw": "TAF ESKN 080530Z 0806/0906 18012KT 9999 OVC035 \n  BECMG 0807/0809 18015G25KT \n  BECMG 0814/0816 18009KT \n  TEMPO 0817/0821 3000 SHSN BKN009 BKN020CB",
      "metarHtml": "METAR ESKN 080520Z 17010KT 9999 BKN028 M01/M04 Q1010",
      "tafHtml": "TAF ESKN 080530Z 0806/0906 18012KT 9999 OVC035 \n  BECMG 0807/0809 18015G25KT \n  BECMG 0814/0816 18009KT \n  TEMPO 0817/0821 3000 <span class=\"hl\">SHSN</span> BKN009 BKN020CB"
    },
    {
      "icao": "ESSA",
      "iata": "ARN",
      "name": "Stockholm-Arlanda Airport",
      "updatedAt": "080520Z",
      "visibility_m": 10000,
      "taf_visibility_m": 3000,
      "worst_visibility_m": 3000,
      "ceiling_ft": 3700,
      "hazards": [
        "SHSN"
      ],
      "severityScore": 10,
      "metarRaw": "METAR ESSA 080520Z 14012KT 9999 BKN037 M01/M04 Q1011 NOSIG",
      "tafRaw": "TAF ESSA 080530Z 0806/0906 15012KT 9999 BKN025 \n  BECMG 0810/0812 18015G25KT \n  BECMG 0815/0817 17008KT \n  PROB40 0901/0903 3000 -SHSN BKN013 BKN025CB",
      "metarHtml": "METAR ESSA 080520Z 14012KT 9999 BKN037 M01/M04 Q1011 NOSIG",
      "tafHtml": "TAF ESSA 080530Z 0806/0906 15012KT 9999 BKN025 \n  BECMG 0810/0812 18015G25KT \n  BECMG 0815/0817 17008KT \n  PROB40 0901/0903 3000 -<span class=\"hl\">SHSN</span> BKN013 BKN025CB"
    },
    {
      "icao": "LEZL",
      "iata": "SVQ",
      "name": "Sevilla Airport",
      "updatedAt": "080530Z",
      "visibility_m": 10000,
      "taf_visibility_m": 4000,
      "worst_visibility_m": 4000,
      "ceiling_ft": 2500,
      "hazards": [
        "BR"
      ],
      "severityScore": 10,
      "metarRaw": "METAR LEZL 080530Z 05005KT 9999 OVC025 08/08 Q1031 NOSIG",
      "tafRaw": "TAF LEZL 080200Z 0803/0903 04004KT 9999 SCT020 TX14/0815Z TN05/0807Z \n  PROB30 \n  TEMPO 0803/0807 4000 BR BKN014",
      "metarHtml": "METAR LEZL 080530Z 05005KT 9999 OVC025 08/08 Q1031 NOSIG",
      "tafHtml": "TAF LEZL 080200Z 0803/0903 04004KT 9999 SCT020 TX14/0815Z TN05/0807Z \n  PROB30 \n  TEMPO 0803/0807 4000 <span class=\"hl\">BR</span> BKN014"
    },
    {
      "icao": "LPPR",
      "iata": "OPO",
      "name": "Francisco de Sá Carneiro Airport",
      "updatedAt": "080530Z",
      "visibility_m": 10000,
      "taf_visibility_m": 2000,
      "worst_visibility_m": 2000,
      "ceiling_ft": 2500,
      "hazards": [
        "BR"
      ],
      "severityScore": 10,
      "metarRaw": "METAR LPPR 080530Z 13008KT 9999 FEW005 SCT011 BKN025 08/07 Q1030",
      "tafRaw": "TAF LPPR 080500Z 0806/0906 13007KT 9999 SCT012 BKN025 \n  TEMPO 0806/0906 5000 -RADZ BR SCT004 BKN008 \n  BECMG 0807/0809 17012KT \n  BECMG 0815/0817 23015KT \n  PROB40 \n  TEMPO 0817/0823 23017G27KT 2000 RADZ BR BKN003 \n  BECMG 0823/0901 30010KT SCT015",
      "metarHtml": "METAR LPPR 080530Z 13008KT 9999 FEW005 SCT011 BKN025 08/07 Q1030",
      "tafHtml": "TAF LPPR 080500Z 0806/0906 13007KT 9999 SCT012 BKN025 \n  TEMPO 0806/0906 5000 -RADZ <span class=\"hl\">BR</span> SCT004 BKN008 \n  BECMG 0807/0809 17012KT \n  BECMG 0815/0817 23015KT \n  PROB40 \n  TEMPO 0817/0823 23017G27KT 2000 RADZ <span class=\"hl\">BR</span> BKN003 \n  BECMG 0823/0901 30010KT SCT015"
    },
    {
      "icao": "LZKZ",
      "iata": "KSC",
      "name": "Košice International Airport",
      "updatedAt": "080530Z",
      "visibility_m": 10000,
      "taf_visibility_m": 4000,
      "worst_visibility_m": 4000,
      "ceiling_ft": null,
      "hazards": [
        "BR"
      ],
      "severityScore": 10,
      "metarRaw": "METAR LZKZ 080530Z 36015KT CAVOK M04/M08 Q1004 NOSIG",
      "tafRaw": "TAF LZKZ 080515Z 0806/0906 36017KT 9999 FEW035 \n  PROB30 \n  TEMPO 0806/0814 36023G33KT DRSN \n  BECMG 0814/0816 34007KT CAVOK \n  BECMG 0820/0822 VRB02KT \n  PROB30 \n  TEMPO 0904/0906 4000 BCFG BR BKN003",
      "metarHtml": "METAR LZKZ 080530Z 36015KT <span class=\"hl-vis\">CAVOK</span> M04/M08 Q1004 NOSIG",
      "tafHtml": "TAF LZKZ 080515Z 0806/0906 36017KT 9999 FEW035 \n  PROB30 \n  TEMPO 0806/0814 36023G33KT DRSN \n  BECMG 0814/0816 34007KT <span class=\"hl-vis\">CAVOK</span> \n  BECMG 0820/0822 VRB02KT \n  PROB30 \n  TEMPO 0904/0906 4000 BCFG <span class=\"hl\">BR</span> BKN003"
    },
    {
      "icao": "UDYZ",
      "iata": "EVN",
      "name": "Zvartnots International Airport",
      "updatedAt": "080530Z",
      "visibility_m": 1600,
      "taf_visibility_m": 3000,
      "worst_visibility_m": 1600,
      "ceiling_ft": null,
      "hazards": [
        "BR"
      ],
      "severityScore": 10,
      "metarRaw": "METAR UDYZ 080530Z VRB01KT 1600 R08/2000D BR NSC M10/M12 Q1027 NOSIG",
      "tafRaw": "TAF UDYZ 080500Z 0806/0906 VRB06KT 3000 BR FEW040",
      "metarHtml": "METAR UDYZ 080530Z VRB01KT 1600 R08/2000D <span class=\"hl\">BR</span> NSC M10/M12 Q1027 NOSIG",
      "tafHtml": "TAF UDYZ 080500Z 0806/0906 VRB06KT 3000 <span class=\"hl\">BR</span> FEW040"
    },
    {
      "icao": "LECH",
      "iata": "CDT",
      "name": "Castellón-Costa Azahar Airport",
      "updatedAt": "080530Z",
      "visibility_m": 10000,
      "taf_visibility_m": null,
      "worst_visibility_m": 10000,
      "ceiling_ft": null,
      "hazards": [],
      "severityScore": 5,
      "metarRaw": "METAR LECH 080530Z AUTO 22004KT CAVOK 11/02 Q1023",
      "tafRaw": null,
      "metarHtml": "METAR LECH 080530Z AUTO 22004KT <span class=\"hl-vis\">CAVOK</span> 11/02 Q1023",
      "tafHtml": null
    },
    {
      "icao": "LGTS",
      "iata": "SKG",
      "name": "Thessaloniki Macedonia International Airport",
      "updatedAt": "080520Z",
      "visibility_m": 10000,
      "taf_visibility_m": null,
      "worst_visibility_m": 10000,
      "ceiling_ft": null,
      "hazards": [],
      "severityScore": 5,
      "metarRaw": "METAR LGTS 080520Z 26007KT 9999 FEW018 SCT035 12/10 Q0999 NOSIG",
      "tafRaw": null,
      "metarHtml": "METAR LGTS 080520Z 26007KT 9999 FEW018 SCT035 12/10 Q0999 NOSIG",
      "tafHtml": null
    },
    {
      "icao": "LIBG",
      "iata": "TAR",
      "name": "Taranto-Grottaglie Marcello Arlotta Airport",
      "updatedAt": null,
      "visibility_m": null,
      "taf_visibility_m": null,
      "worst_visibility_m": null,
      "ceiling_ft": null,
      "hazards": [],
      "severityScore": 5,
      "metarRaw": null,
      "tafRaw": null,
      "metarHtml": null,
      "tafHtml": null
    },
    {
      "icao": "LOWW",
      "iata": "VIE",
      "name": "Vienna International Airport",
      "updatedAt": "080520Z",
      "visibility_m": 10000,
      "taf_visibility_m": null,
      "worst_visibility_m": 10000,
      "ceiling_ft": null,
      "hazards": [],
      "severityScore": 5,
      "metarRaw": "METAR LOWW 080520Z 33007KT CAVOK M09/M12 Q1011 NOSIG",
      "tafRaw": null,
      "metarHtml": "METAR LOWW 080520Z 33007KT <span class=\"hl-vis\">CAVOK</span> M09/M12 Q1011 NOSIG",
      "tafHtml": null
    },
    {
      "icao": "LYPG",
      "iata": "TGD",
      "name": "Podgorica Airport / Podgorica Golubovci Airbase",
      "updatedAt": "080530Z",
      "visibility_m": 10000,
      "taf_visibility_m": null,
      "worst_visibility_m": 10000,
      "ceiling_ft": 8000,
      "hazards": [],
      "severityScore": 5,
      "metarRaw": "METAR LYPG 080530Z 36006KT 9999 FEW020 SCT040 BKN080 06/03 Q1003 NOSIG",
      "tafRaw": null,
      "metarHtml": "METAR LYPG 080530Z 36006KT 9999 FEW020 SCT040 BKN080 06/03 Q1003 NOSIG",
      "tafHtml": null
    },
    {
      "icao": "BIKF",
      "iata": "KEF",
      "name": "Keflavik International Airport",
      "updatedAt": "080530Z",
      "visibility_m": 10000,
      "taf_visibility_m": 10000,
      "worst_visibility_m": 10000,
      "ceiling_ft": null,
      "hazards": [],
      "severityScore": 0,
      "metarRaw": "METAR BIKF 080530Z 07018KT CAVOK 01/M07 Q0999",
      "tafRaw": "TAF BIKF 080412Z 0806/0906 07015KT 9999 FEW045 TX02/0815Z TNM03/0906Z \n  PROB40 \n  TEMPO 0806/0813 07020G30KT \n  BECMG 0901/0903 03008KT",
      "metarHtml": "METAR BIKF 080530Z 07018KT <span class=\"hl-vis\">CAVOK</span> 01/M07 Q0999",
      "tafHtml": "TAF BIKF 080412Z 0806/0906 07015KT 9999 FEW045 TX02/0815Z TNM03/0906Z \n  PROB40 \n  TEMPO 0806/0813 07020G30KT \n  BECMG 0901/0903 03008KT"
    },
    {
      "icao": "GCFV",
      "iata": "FUE",
      "name": "Fuerteventura Airport",
      "updatedAt": "080530Z",
      "visibility_m": 10000,
      "taf_visibility_m": 10000,
      "worst_visibility_m": 10000,
      "ceiling_ft": 3400,
      "hazards": [],
      "severityScore": 0,
      "metarRaw": "METAR GCFV 080530Z AUTO 03017KT 9999 BKN034 17/11 Q1029",
      "tafRaw": "TAF GCFV 080200Z 0803/0903 05018KT 9999 SCT035 TX20/0814Z TN14/0806Z \n  TEMPO 0812/0819 14008KT",
      "metarHtml": "METAR GCFV 080530Z AUTO 03017KT 9999 BKN034 17/11 Q1029",
      "tafHtml": "TAF GCFV 080200Z 0803/0903 05018KT 9999 SCT035 TX20/0814Z TN14/0806Z \n  TEMPO 0812/0819 14008KT"
    },
    {
      "icao": "GCLP",
      "iata": "LPA",
      "name": "Gran Canaria Airport",
      "updatedAt": "080530Z",
      "visibility_m": 10000,
      "taf_visibility_m": 10000,
      "worst_visibility_m": 10000,
      "ceiling_ft": null,
      "hazards": [],
      "severityScore": 0,
      "metarRaw": "METAR GCLP 080530Z 04015KT 9999 SCT035 17/10 Q1029 NOSIG",
      "tafRaw": "TAF GCLP 080200Z 0803/0903 04016KT 9999 BKN035 TX20/0814Z TN14/0806Z \n  TEMPO 0818/0903 35006KT",
      "metarHtml": "METAR GCLP 080530Z 04015KT 9999 SCT035 17/10 Q1029 NOSIG",
      "tafHtml": "TAF GCLP 080200Z 0803/0903 04016KT 9999 BKN035 TX20/0814Z TN14/0806Z \n  TEMPO 0818/0903 35006KT"
    },
    {
      "icao": "GCTS",
      "iata": "TFS",
      "name": "Tenerife Sur Airport",
      "updatedAt": "080530Z",
      "visibility_m": 10000,
      "taf_visibility_m": 10000,
      "worst_visibility_m": 10000,
      "ceiling_ft": null,
      "hazards": [],
      "severityScore": 0,
      "metarRaw": "METAR GCTS 080530Z 06019KT 9999 FEW040 17/09 Q1029 NOSIG",
      "tafRaw": "TAF GCTS 080200Z 0803/0903 05020KT 9999 SCT040 TX23/0814Z TN16/0806Z \n  PROB30 \n  TEMPO 0803/0816 07020G30KT \n  PROB40 \n  TEMPO 0818/0903 03009KT",
      "metarHtml": "METAR GCTS 080530Z 06019KT 9999 FEW040 17/09 Q1029 NOSIG",
      "tafHtml": "TAF GCTS 080200Z 0803/0903 05020KT 9999 SCT040 TX23/0814Z TN16/0806Z \n  PROB30 \n  TEMPO 0803/0816 07020G30KT \n  PROB40 \n  TEMPO 0818/0903 03009KT"
    },
    {
      "icao": "GMAD",
      "iata": "AGA",
      "name": "Al Massira Airport",
      "updatedAt": "080530Z",
      "visibility_m": 10000,
      "taf_visibility_m": 10000,
      "worst_visibility_m": 10000,
      "ceiling_ft": null,
      "hazards": [],
      "severityScore": 0,
      "metarRaw": "METAR GMAD 080530Z 08007KT CAVOK 07/05 Q1028 NOSIG",
      "tafRaw": "TAF GMAD 080500Z 0806/0912 07006KT CAVOK",
      "metarHtml": "METAR GMAD 080530Z 08007KT <span class=\"hl-vis\">CAVOK</span> 07/05 Q1028 NOSIG",
      "tafHtml": "TAF GMAD 080500Z 0806/0912 07006KT <span class=\"hl-vis\">CAVOK</span>"
    },
    {
      "icao": "GMMN",
      "iata": "CMN",
      "name": "Mohammed V International Airport",
      "updatedAt": "080530Z",
      "visibility_m": 10000,
      "taf_visibility_m": 5000,
      "worst_visibility_m": 5000,
      "ceiling_ft": null,
      "hazards": [],
      "severityScore": 0,
      "metarRaw": "METAR GMMN 080530Z 13005KT CAVOK 03/02 Q1032 NOSIG",
      "tafRaw": "TAF GMMN 080500Z 0806/0912 12004KT CAVOK \n  BECMG 0810/0813 36008KT \n  BECMG 0820/0824 VRB02KT 8000 SCT010 \n  PROB40 0902/0908 5000 BKN006",
      "metarHtml": "METAR GMMN 080530Z 13005KT <span class=\"hl-vis\">CAVOK</span> 03/02 Q1032 NOSIG",
      "tafHtml": "TAF GMMN 080500Z 0806/0912 12004KT <span class=\"hl-vis\">CAVOK</span> \n  BECMG 0810/0813 36008KT \n  BECMG 0820/0824 VRB02KT 8000 SCT010 \n  PROB40 0902/0908 5000 BKN006"
    },
    {
      "icao": "GMMX",
      "iata": "RAK",
      "name": "Menara Airport",
      "updatedAt": "080530Z",
      "visibility_m": 10000,
      "taf_visibility_m": 8000,
      "worst_visibility_m": 8000,
      "ceiling_ft": null,
      "hazards": [],
      "severityScore": 0,
      "metarRaw": "METAR GMMX 080530Z 10007KT CAVOK 03/02 Q1030 NOSIG",
      "tafRaw": "TAF GMMX 080500Z 0806/0912 24004KT 8000 NSC \n  TEMPO 0815/0821 34016KT",
      "metarHtml": "METAR GMMX 080530Z 10007KT <span class=\"hl-vis\">CAVOK</span> 03/02 Q1030 NOSIG",
      "tafHtml": "TAF GMMX 080500Z 0806/0912 24004KT 8000 NSC \n  TEMPO 0815/0821 34016KT"
    },
    {
      "icao": "EETN",
      "iata": "TLL",
      "name": "Lennart Meri Tallinn Airport",
      "updatedAt": "080520Z",
      "visibility_m": 10000,
      "taf_visibility_m": 10000,
      "worst_visibility_m": 10000,
      "ceiling_ft": 2800,
      "hazards": [],
      "severityScore": 0,
      "metarRaw": "METAR EETN 080520Z 11002KT 9999 OVC028 M07/M08 Q1019 NOSIG",
      "tafRaw": "TAF EETN 080530Z 0806/0906 VRB02KT 9999 OVC025 \n  PROB40 \n  TEMPO 0806/0809 BKN007 \n  BECMG 0812/0814 BKN014 \n  BECMG 0818/0820 08012KT \n  PROB40 \n  TEMPO 0901/0906 07015G25KT",
      "metarHtml": "METAR EETN 080520Z 11002KT 9999 OVC028 M07/M08 Q1019 NOSIG",
      "tafHtml": "TAF EETN 080530Z 0806/0906 VRB02KT 9999 OVC025 \n  PROB40 \n  TEMPO 0806/0809 BKN007 \n  BECMG 0812/0814 BKN014 \n  BECMG 0818/0820 08012KT \n  PROB40 \n  TEMPO 0901/0906 07015G25KT"
    },
    {
      "icao": "EFTU",
      "iata": "TKU",
      "name": "Turku Airport",
      "updatedAt": "080520Z",
      "visibility_m": 10000,
      "taf_visibility_m": 10000,
      "worst_visibility_m": 10000,
      "ceiling_ft": 2400,
      "hazards": [],
      "severityScore": 0,
      "metarRaw": "METAR EFTU 080520Z AUTO 11006KT 9999 OVC024 M08/M11 Q1018",
      "tafRaw": "TAF EFTU 080223Z 0803/0903 10009KT 9999 OVC035 \n  PROB30 \n  TEMPO 0808/0815 BKN008",
      "metarHtml": "METAR EFTU 080520Z AUTO 11006KT 9999 OVC024 M08/M11 Q1018",
      "tafHtml": "TAF EFTU 080223Z 0803/0903 10009KT 9999 OVC035 \n  PROB30 \n  TEMPO 0808/0815 BKN008"
    },
    {
      "icao": "ENBR",
      "iata": "BGO",
      "name": "Bergen Airport, Flesland",
      "updatedAt": "080520Z",
      "visibility_m": 10000,
      "taf_visibility_m": 10000,
      "worst_visibility_m": 10000,
      "ceiling_ft": null,
      "hazards": [],
      "severityScore": 0,
      "metarRaw": "METAR ENBR 080520Z 03004KT CAVOK M12/M15 Q1004 NOSIG RMK WIND 1200FT 36009KT",
      "tafRaw": "TAF ENBR 080500Z 0806/0906 07005KT CAVOK",
      "metarHtml": "METAR ENBR 080520Z 03004KT <span class=\"hl-vis\">CAVOK</span> M12/M15 Q1004 NOSIG RMK WIND 1200FT 36009KT",
      "tafHtml": "TAF ENBR 080500Z 0806/0906 07005KT <span class=\"hl-vis\">CAVOK</span>"
    },
    {
      "icao": "ENHD",
      "iata": "HAU",
      "name": "Haugesund Airport, Karmøy",
      "updatedAt": "080520Z",
      "visibility_m": 10000,
      "taf_visibility_m": 10000,
      "worst_visibility_m": 10000,
      "ceiling_ft": null,
      "hazards": [],
      "severityScore": 0,
      "metarRaw": "METAR ENHD 080520Z 08005KT CAVOK M10/M14 Q1004",
      "tafRaw": "TAF ENHD 080500Z 0806/0815 10008KT CAVOK",
      "metarHtml": "METAR ENHD 080520Z 08005KT <span class=\"hl-vis\">CAVOK</span> M10/M14 Q1004",
      "tafHtml": "TAF ENHD 080500Z 0806/0815 10008KT <span class=\"hl-vis\">CAVOK</span>"
    },
    {
      "icao": "ENTC",
      "iata": "TOS",
      "name": "Tromsø Airport, Langnes",
      "updatedAt": "080520Z",
      "visibility_m": 10000,
      "taf_visibility_m": 10000,
      "worst_visibility_m": 10000,
      "ceiling_ft": null,
      "hazards": [],
      "severityScore": 0,
      "metarRaw": "METAR ENTC 080520Z 16007KT 040V200 CAVOK M10/M16 Q1022 RMK WIND 2600FT 17029KT",
      "tafRaw": "TAF ENTC 080500Z 0806/0906 18010KT CAVOK \n  TEMPO 0812/0818 VRB03KT",
      "metarHtml": "METAR ENTC 080520Z 16007KT 040V200 <span class=\"hl-vis\">CAVOK</span> M10/M16 Q1022 RMK WIND 2600FT 17029KT",
      "tafHtml": "TAF ENTC 080500Z 0806/0906 18010KT <span class=\"hl-vis\">CAVOK</span> \n  TEMPO 0812/0818 VRB03KT"
    },
    {
      "icao": "ENZV",
      "iata": "SVG",
      "name": "Stavanger Airport, Sola",
      "updatedAt": "080520Z",
      "visibility_m": 10000,
      "taf_visibility_m": 10000,
      "worst_visibility_m": 10000,
      "ceiling_ft": null,
      "hazards": [],
      "severityScore": 0,
      "metarRaw": "METAR ENZV 080520Z VRB02KT CAVOK M13/M15 Q1004 NOSIG",
      "tafRaw": "TAF ENZV 080500Z 0806/0906 13005KT CAVOK \n  BECMG 0819/0820 12015KT \n  TEMPO 0820/0906 12015G25KT",
      "metarHtml": "METAR ENZV 080520Z VRB02KT <span class=\"hl-vis\">CAVOK</span> M13/M15 Q1004 NOSIG",
      "tafHtml": "TAF ENZV 080500Z 0806/0906 13005KT <span class=\"hl-vis\">CAVOK</span> \n  BECMG 0819/0820 12015KT \n  TEMPO 0820/0906 12015G25KT"
    },
    {
      "icao": "ESMS",
      "iata": "MMX",
      "name": "Malmö Sturup Airport",
      "updatedAt": "080520Z",
      "visibility_m": 10000,
      "taf_visibility_m": 10000,
      "worst_visibility_m": 10000,
      "ceiling_ft": null,
      "hazards": [],
      "severityScore": 0,
      "metarRaw": "METAR ESMS 080520Z 17008KT 9999 FEW019 M05/M07 Q1008",
      "tafRaw": "TAF ESMS 080527Z 0806/0906 16010KT 9999 SCT015 \n  BECMG 0821/0824 10010KT",
      "metarHtml": "METAR ESMS 080520Z 17008KT 9999 FEW019 M05/M07 Q1008",
      "tafHtml": "TAF ESMS 080527Z 0806/0906 16010KT 9999 SCT015 \n  BECMG 0821/0824 10010KT"
    },
    {
      "icao": "HEGN",
      "iata": "HRG",
      "name": "Hurghada International Airport",
      "updatedAt": "080500Z",
      "visibility_m": 10000,
      "taf_visibility_m": 10000,
      "worst_visibility_m": 10000,
      "ceiling_ft": null,
      "hazards": [],
      "severityScore": 0,
      "metarRaw": "METAR HEGN 080500Z 26005KT CAVOK 14/06 Q1019 NOSIG",
      "tafRaw": "TAF HEGN 080500Z 0806/0912 33013KT CAVOK",
      "metarHtml": "METAR HEGN 080500Z 26005KT <span class=\"hl-vis\">CAVOK</span> 14/06 Q1019 NOSIG",
      "tafHtml": "TAF HEGN 080500Z 0806/0912 33013KT <span class=\"hl-vis\">CAVOK</span>"
    },
    {
      "icao": "HEMA",
      "iata": "RMF",
      "name": "Marsa Alam International Airport",
      "updatedAt": "080500Z",
      "visibility_m": 4000,
      "taf_visibility_m": 3000,
      "worst_visibility_m": 3000,
      "ceiling_ft": null,
      "hazards": [],
      "severityScore": 0,
      "metarRaw": "METAR HEMA 080500Z 29008KT 4000 HZ NSC 20/09 Q1019 NOSIG",
      "tafRaw": "TAF HEMA 080500Z 0806/0912 33015KT 6000 NSC \n  TEMPO 0806/0815 3000 SA",
      "metarHtml": "METAR HEMA 080500Z 29008KT 4000 HZ NSC 20/09 Q1019 NOSIG",
      "tafHtml": "TAF HEMA 080500Z 0806/0912 33015KT 6000 NSC \n  TEMPO 0806/0815 3000 SA"
    },
    {
      "icao": "HESH",
      "iata": "SSH",
      "name": "Sharm El Sheikh International Airport",
      "updatedAt": "080500Z",
      "visibility_m": 10000,
      "taf_visibility_m": 10000,
      "worst_visibility_m": 10000,
      "ceiling_ft": null,
      "hazards": [],
      "severityScore": 0,
      "metarRaw": "METAR HESH 080500Z 33005KT CAVOK 20/10 Q1019 NOSIG",
      "tafRaw": "TAF HESH 080500Z 0806/0912 35011KT CAVOK",
      "metarHtml": "METAR HESH 080500Z 33005KT <span class=\"hl-vis\">CAVOK</span> 20/10 Q1019 NOSIG",
      "tafHtml": "TAF HESH 080500Z 0806/0912 35011KT <span class=\"hl-vis\">CAVOK</span>"
    },
    {
      "icao": "LEAL",
      "iata": "ALC",
      "name": "Alicante-Elche Miguel Hernández Airport",
      "updatedAt": "080530Z",
      "visibility_m": 10000,
      "taf_visibility_m": 10000,
      "worst_visibility_m": 10000,
      "ceiling_ft": null,
      "hazards": [],
      "severityScore": 0,
      "metarRaw": "METAR LEAL 080530Z 30021KT CAVOK 11/02 Q1026 NOSIG",
      "tafRaw": "TAF LEAL 080500Z 0806/0906 31020KT CAVOK TX16/0814Z TN07/0806Z \n  TEMPO 0806/0810 31015G25KT \n  BECMG 0810/0812 27010KT \n  PROB30 \n  TEMPO 0811/0813 27015G25KT \n  TEMPO 0816/0820 VRB04KT \n  TEMPO 0822/0904 27020G30KT",
      "metarHtml": "METAR LEAL 080530Z 30021KT <span class=\"hl-vis\">CAVOK</span> 11/02 Q1026 NOSIG",
      "tafHtml": "TAF LEAL 080500Z 0806/0906 31020KT <span class=\"hl-vis\">CAVOK</span> TX16/0814Z TN07/0806Z \n  TEMPO 0806/0810 31015G25KT \n  BECMG 0810/0812 27010KT \n  PROB30 \n  TEMPO 0811/0813 27015G25KT \n  TEMPO 0816/0820 VRB04KT \n  TEMPO 0822/0904 27020G30KT"
    },
    {
      "icao": "LEBL",
      "iata": "BCN",
      "name": "Josep Tarradellas Barcelona-El Prat Airport",
      "updatedAt": "080530Z",
      "visibility_m": 10000,
      "taf_visibility_m": 10000,
      "worst_visibility_m": 10000,
      "ceiling_ft": null,
      "hazards": [],
      "severityScore": 0,
      "metarRaw": "METAR LEBL 080530Z 32003KT 260V020 9999 FEW013 04/01 Q1020 NOSIG",
      "tafRaw": "TAF LEBL 080500Z 0806/0906 33009KT 9999 FEW015 TX15/0813Z TN04/0806Z \n  TEMPO 0810/0813 32015KT \n  TEMPO 0814/0816 33018G28KT \n  BECMG 0816/0818 25010KT",
      "metarHtml": "METAR LEBL 080530Z 32003KT 260V020 9999 FEW013 04/01 Q1020 NOSIG",
      "tafHtml": "TAF LEBL 080500Z 0806/0906 33009KT 9999 FEW015 TX15/0813Z TN04/0806Z \n  TEMPO 0810/0813 32015KT \n  TEMPO 0814/0816 33018G28KT \n  BECMG 0816/0818 25010KT"
    },
    {
      "icao": "LEMG",
      "iata": "AGP",
      "name": "Málaga-Costa del Sol Airport",
      "updatedAt": "080530Z",
      "visibility_m": 10000,
      "taf_visibility_m": 10000,
      "worst_visibility_m": 10000,
      "ceiling_ft": null,
      "hazards": [],
      "severityScore": 0,
      "metarRaw": "METAR LEMG 080530Z 27007KT 9999 FEW041 08/05 Q1030 NOSIG",
      "tafRaw": "TAF LEMG 080500Z 0806/0906 29012KT 9999 FEW035 TX16/0814Z TN06/0806Z \n  PROB40 \n  TEMPO 0822/0906 29015G25KT",
      "metarHtml": "METAR LEMG 080530Z 27007KT 9999 FEW041 08/05 Q1030 NOSIG",
      "tafHtml": "TAF LEMG 080500Z 0806/0906 29012KT 9999 FEW035 TX16/0814Z TN06/0806Z \n  PROB40 \n  TEMPO 0822/0906 29015G25KT"
    },
    {
      "icao": "LEVC",
      "iata": "VLC",
      "name": "Valencia Airport",
      "updatedAt": "080530Z",
      "visibility_m": 10000,
      "taf_visibility_m": 10000,
      "worst_visibility_m": 10000,
      "ceiling_ft": null,
      "hazards": [],
      "severityScore": 0,
      "metarRaw": "METAR LEVC 080530Z 25012KT CAVOK 07/02 Q1025 NOSIG",
      "tafRaw": "TAF LEVC 080500Z 0806/0906 25012KT CAVOK TX15/0814Z TN06/0806Z \n  TEMPO 0806/0904 25015G25KT \n  PROB40 \n  TEMPO 0808/0818 25020G30KT \n  BECMG 0904/0906 VRB04KT",
      "metarHtml": "METAR LEVC 080530Z 25012KT <span class=\"hl-vis\">CAVOK</span> 07/02 Q1025 NOSIG",
      "tafHtml": "TAF LEVC 080500Z 0806/0906 25012KT <span class=\"hl-vis\">CAVOK</span> TX15/0814Z TN06/0806Z \n  TEMPO 0806/0904 25015G25KT \n  PROB40 \n  TEMPO 0808/0818 25020G30KT \n  BECMG 0904/0906 VRB04KT"
    },
    {
      "icao": "LEZG",
      "iata": "ZAZ",
      "name": "Zaragoza Airport",
      "updatedAt": "080530Z",
      "visibility_m": 10000,
      "taf_visibility_m": 10000,
      "worst_visibility_m": 10000,
      "ceiling_ft": null,
      "hazards": [],
      "severityScore": 0,
      "metarRaw": "METAR LEZG 080530Z 29005KT 260V320 9999 FEW060 05/03 Q1024 NOSIG",
      "tafRaw": "TAF LEZG 080500Z 0806/0906 VRB04KT CAVOK TX12/0815Z TN05/0806Z \n  PROB40 \n  TEMPO 0806/0810 28010KT \n  BECMG 0809/0811 24018KT \n  TEMPO 0810/0906 24023G38KT",
      "metarHtml": "METAR LEZG 080530Z 29005KT 260V320 9999 FEW060 05/03 Q1024 NOSIG",
      "tafHtml": "TAF LEZG 080500Z 0806/0906 VRB04KT <span class=\"hl-vis\">CAVOK</span> TX12/0815Z TN05/0806Z \n  PROB40 \n  TEMPO 0806/0810 28010KT \n  BECMG 0809/0811 24018KT \n  TEMPO 0810/0906 24023G38KT"
    },
    {
      "icao": "LFMN",
      "iata": "NCE",
      "name": "Nice-Côte d'Azur Airport",
      "updatedAt": "080530Z",
      "visibility_m": 10000,
      "taf_visibility_m": 10000,
      "worst_visibility_m": 10000,
      "ceiling_ft": null,
      "hazards": [],
      "severityScore": 0,
      "metarRaw": "METAR LFMN 080530Z 33014KT CAVOK 03/M07 Q1013 NOSIG",
      "tafRaw": "TAF LFMN 080200Z 0803/0909 33010KT CAVOK \n  BECMG 0808/0810 VRB05KT \n  BECMG 0810/0812 09010KT \n  BECMG 0816/0818 33010KT \n  BECMG 0900/0902 24020G30KT",
      "metarHtml": "METAR LFMN 080530Z 33014KT <span class=\"hl-vis\">CAVOK</span> 03/M07 Q1013 NOSIG",
      "tafHtml": "TAF LFMN 080200Z 0803/0909 33010KT <span class=\"hl-vis\">CAVOK</span> \n  BECMG 0808/0810 VRB05KT \n  BECMG 0810/0812 09010KT \n  BECMG 0816/0818 33010KT \n  BECMG 0900/0902 24020G30KT"
    },
    {
      "icao": "LGAV",
      "iata": "ATH",
      "name": "Athens Eleftherios Venizelos International Airport",
      "updatedAt": "080520Z",
      "visibility_m": 10000,
      "taf_visibility_m": 10000,
      "worst_visibility_m": 10000,
      "ceiling_ft": null,
      "hazards": [],
      "severityScore": 0,
      "metarRaw": "METAR LGAV 080520Z 24020G32KT 9999 FEW025 16/05 Q1004 NOSIG",
      "tafRaw": "TAF LGAV 080500Z 0806/0906 26014G30KT 9999 FEW020 SCT030 \n  BECMG 0902/0904 26012G22KT",
      "metarHtml": "METAR LGAV 080520Z 24020G32KT 9999 FEW025 16/05 Q1004 NOSIG",
      "tafHtml": "TAF LGAV 080500Z 0806/0906 26014G30KT 9999 FEW020 SCT030 \n  BECMG 0902/0904 26012G22KT"
    },
    {
      "icao": "LIBD",
      "iata": "BRI",
      "name": "Bari Karol Wojtyła International Airport",
      "updatedAt": "080520Z",
      "visibility_m": 9000,
      "taf_visibility_m": 10000,
      "worst_visibility_m": 9000,
      "ceiling_ft": null,
      "hazards": [],
      "severityScore": 0,
      "metarRaw": "METAR LIBD 080520Z 27015KT 9000 NSC 04/00 Q1009",
      "tafRaw": "TAF LIBD 080500Z 0806/0906 28020G30KT CAVOK \n  BECMG 0816/0818 26010KT",
      "metarHtml": "METAR LIBD 080520Z 27015KT 9000 NSC 04/00 Q1009",
      "tafHtml": "TAF LIBD 080500Z 0806/0906 28020G30KT <span class=\"hl-vis\">CAVOK</span> \n  BECMG 0816/0818 26010KT"
    },
    {
      "icao": "LIBP",
      "iata": "PSR",
      "name": "Abruzzo Airport",
      "updatedAt": "080520Z",
      "visibility_m": 10000,
      "taf_visibility_m": 10000,
      "worst_visibility_m": 10000,
      "ceiling_ft": null,
      "hazards": [],
      "severityScore": 0,
      "metarRaw": "METAR LIBP 080520Z AUTO 23005KT 9999 NCD M01/M03 Q1013",
      "tafRaw": "TAF LIBP 080500Z 0806/0906 23006KT 9999 BKN030",
      "metarHtml": "METAR LIBP 080520Z AUTO 23005KT 9999 NCD M01/M03 Q1013",
      "tafHtml": "TAF LIBP 080500Z 0806/0906 23006KT 9999 BKN030"
    },
    {
      "icao": "LIBR",
      "iata": "BDS",
      "name": "Brindisi Airport",
      "updatedAt": "080520Z",
      "visibility_m": 10000,
      "taf_visibility_m": 10000,
      "worst_visibility_m": 10000,
      "ceiling_ft": 4000,
      "hazards": [],
      "severityScore": 0,
      "metarRaw": "METAR LIBR 080520Z 29017KT 9999 BKN040 05/02 Q1008",
      "tafRaw": "TAF LIBR 080500Z 0806/0906 31022G33KT 9999 SCT030 \n  BECMG 0818/0820 23009KT",
      "metarHtml": "METAR LIBR 080520Z 29017KT 9999 BKN040 05/02 Q1008",
      "tafHtml": "TAF LIBR 080500Z 0806/0906 31022G33KT 9999 SCT030 \n  BECMG 0818/0820 23009KT"
    },
    {
      "icao": "LICC",
      "iata": "CTA",
      "name": "Catania-Fontanarossa Airport",
      "updatedAt": "080520Z",
      "visibility_m": 10000,
      "taf_visibility_m": 10000,
      "worst_visibility_m": 10000,
      "ceiling_ft": null,
      "hazards": [],
      "severityScore": 0,
      "metarRaw": "METAR LICC 080520Z 26014KT CAVOK 07/04 Q1015",
      "tafRaw": "TAF LICC 080500Z 0806/0906 27015KT 9999 FEW060 \n  TEMPO 0812/0818 29020G33KT",
      "metarHtml": "METAR LICC 080520Z 26014KT <span class=\"hl-vis\">CAVOK</span> 07/04 Q1015",
      "tafHtml": "TAF LICC 080500Z 0806/0906 27015KT 9999 FEW060 \n  TEMPO 0812/0818 29020G33KT"
    },
    {
      "icao": "LIMC",
      "iata": "MXP",
      "name": "Milan Malpensa International Airport",
      "updatedAt": "080520Z",
      "visibility_m": 10000,
      "taf_visibility_m": 10000,
      "worst_visibility_m": 10000,
      "ceiling_ft": null,
      "hazards": [],
      "severityScore": 0,
      "metarRaw": "METAR LIMC 080520Z 02005KT CAVOK M08/M10 Q1011 NOSIG",
      "tafRaw": "TAF LIMC 080500Z 0806/0912 VRB04KT CAVOK",
      "metarHtml": "METAR LIMC 080520Z 02005KT <span class=\"hl-vis\">CAVOK</span> M08/M10 Q1011 NOSIG",
      "tafHtml": "TAF LIMC 080500Z 0806/0912 VRB04KT <span class=\"hl-vis\">CAVOK</span>"
    },
    {
      "icao": "LIME",
      "iata": "BGY",
      "name": "Milan Bergamo Airport / Antonio Locatelli Air Base",
      "updatedAt": "080520Z",
      "visibility_m": 10000,
      "taf_visibility_m": 10000,
      "worst_visibility_m": 10000,
      "ceiling_ft": null,
      "hazards": [],
      "severityScore": 0,
      "metarRaw": "METAR LIME 080520Z VRB02KT CAVOK M05/M09 Q1011 NOSIG",
      "tafRaw": "TAF LIME 080500Z 0806/0906 VRB04KT CAVOK",
      "metarHtml": "METAR LIME 080520Z VRB02KT <span class=\"hl-vis\">CAVOK</span> M05/M09 Q1011 NOSIG",
      "tafHtml": "TAF LIME 080500Z 0806/0906 VRB04KT <span class=\"hl-vis\">CAVOK</span>"
    },
    {
      "icao": "LIMF",
      "iata": "TRN",
      "name": "Turin Airport",
      "updatedAt": "080520Z",
      "visibility_m": 10000,
      "taf_visibility_m": 10000,
      "worst_visibility_m": 10000,
      "ceiling_ft": null,
      "hazards": [],
      "severityScore": 0,
      "metarRaw": "METAR LIMF 080520Z AUTO 25003KT 140V300 9999 NCD M06/M09 Q1011",
      "tafRaw": "TAF LIMF 080500Z 0806/0906 VRB03KT CAVOK",
      "metarHtml": "METAR LIMF 080520Z AUTO 25003KT 140V300 9999 NCD M06/M09 Q1011",
      "tafHtml": "TAF LIMF 080500Z 0806/0906 VRB03KT <span class=\"hl-vis\">CAVOK</span>"
    },
    {
      "icao": "LIMJ",
      "iata": "GOA",
      "name": "Genoa Cristoforo Colombo Airport",
      "updatedAt": "080520Z",
      "visibility_m": 10000,
      "taf_visibility_m": 10000,
      "worst_visibility_m": 10000,
      "ceiling_ft": null,
      "hazards": [],
      "severityScore": 0,
      "metarRaw": "METAR LIMJ 080520Z 05007KT CAVOK 04/M06 Q1011",
      "tafRaw": "TAF LIMJ 080500Z 0806/0906 04010KT CAVOK \n  BECMG 0810/0812 12008KT \n  BECMG 0904/0906 03010KT",
      "metarHtml": "METAR LIMJ 080520Z 05007KT <span class=\"hl-vis\">CAVOK</span> 04/M06 Q1011",
      "tafHtml": "TAF LIMJ 080500Z 0806/0906 04010KT <span class=\"hl-vis\">CAVOK</span> \n  BECMG 0810/0812 12008KT \n  BECMG 0904/0906 03010KT"
    },
    {
      "icao": "LIPH",
      "iata": "TSF",
      "name": "Treviso Antonio Canova Airport",
      "updatedAt": "080520Z",
      "visibility_m": 10000,
      "taf_visibility_m": 10000,
      "worst_visibility_m": 10000,
      "ceiling_ft": null,
      "hazards": [],
      "severityScore": 0,
      "metarRaw": "METAR LIPH 080520Z AUTO 03002KT 9999 NCD M05/M07 Q1012",
      "tafRaw": "TAF LIPH 080500Z 0806/0906 VRB05KT CAVOK",
      "metarHtml": "METAR LIPH 080520Z AUTO 03002KT 9999 NCD M05/M07 Q1012",
      "tafHtml": "TAF LIPH 080500Z 0806/0906 VRB05KT <span class=\"hl-vis\">CAVOK</span>"
    },
    {
      "icao": "LIPQ",
      "iata": "TRS",
      "name": "Trieste–Friuli Venezia Giulia Airport",
      "updatedAt": "080520Z",
      "visibility_m": 10000,
      "taf_visibility_m": 10000,
      "worst_visibility_m": 10000,
      "ceiling_ft": null,
      "hazards": [],
      "severityScore": 0,
      "metarRaw": "METAR LIPQ 080520Z AUTO 08002KT 9999 NCD M05/M09 Q1012",
      "tafRaw": "TAF LIPQ 080500Z 0806/0906 VRB05KT 9999 SCT070",
      "metarHtml": "METAR LIPQ 080520Z AUTO 08002KT 9999 NCD M05/M09 Q1012",
      "tafHtml": "TAF LIPQ 080500Z 0806/0906 VRB05KT 9999 SCT070"
    },
    {
      "icao": "LIPR",
      "iata": "RMI",
      "name": "Federico Fellini International Airport",
      "updatedAt": "080520Z",
      "visibility_m": 10000,
      "taf_visibility_m": 10000,
      "worst_visibility_m": 10000,
      "ceiling_ft": null,
      "hazards": [],
      "severityScore": 0,
      "metarRaw": "METAR LIPR 080520Z AUTO VRB02KT 9999 NCD M05/M07 Q1012",
      "tafRaw": "TAF LIPR 080500Z 0806/0906 25008KT 9999 SCT030",
      "metarHtml": "METAR LIPR 080520Z AUTO VRB02KT 9999 NCD M05/M07 Q1012",
      "tafHtml": "TAF LIPR 080500Z 0806/0906 25008KT 9999 SCT030"
    },
    {
      "icao": "LIPY",
      "iata": "AOI",
      "name": "Marche Airport",
      "updatedAt": "080520Z",
      "visibility_m": 10000,
      "taf_visibility_m": 10000,
      "worst_visibility_m": 10000,
      "ceiling_ft": null,
      "hazards": [],
      "severityScore": 0,
      "metarRaw": "METAR LIPY 080520Z AUTO 18003KT 9999 NCD M00/M04 Q1012",
      "tafRaw": "TAF LIPY 080500Z 0806/0906 23006KT 9999 SCT030",
      "metarHtml": "METAR LIPY 080520Z AUTO 18003KT 9999 NCD M00/M04 Q1012",
      "tafHtml": "TAF LIPY 080500Z 0806/0906 23006KT 9999 SCT030"
    },
    {
      "icao": "LIPZ",
      "iata": "VCE",
      "name": "Venice Marco Polo Airport",
      "updatedAt": "080520Z",
      "visibility_m": 10000,
      "taf_visibility_m": 10000,
      "worst_visibility_m": 10000,
      "ceiling_ft": null,
      "hazards": [],
      "severityScore": 0,
      "metarRaw": "METAR LIPZ 080520Z 01005KT CAVOK M05/M08 Q1012 NOSIG",
      "tafRaw": "TAF LIPZ 080500Z 0806/0912 VRB05KT CAVOK",
      "metarHtml": "METAR LIPZ 080520Z 01005KT <span class=\"hl-vis\">CAVOK</span> M05/M08 Q1012 NOSIG",
      "tafHtml": "TAF LIPZ 080500Z 0806/0912 VRB05KT <span class=\"hl-vis\">CAVOK</span>"
    },
    {
      "icao": "LIRF",
      "iata": "FCO",
      "name": "Rome–Fiumicino Leonardo da Vinci International Airport",
      "updatedAt": "080520Z",
      "visibility_m": 10000,
      "taf_visibility_m": 10000,
      "worst_visibility_m": 10000,
      "ceiling_ft": null,
      "hazards": [],
      "severityScore": 0,
      "metarRaw": "METAR LIRF 080520Z 05005KT CAVOK M00/M04 Q1013 NOSIG",
      "tafRaw": "TAF LIRF 080500Z 0806/0912 04010KT CAVOK \n  BECMG 0813/0815 10007KT \n  BECMG 0904/0906 25015KT \n  PROB40 \n  TEMPO 0908/0912 25015G28KT",
      "metarHtml": "METAR LIRF 080520Z 05005KT <span class=\"hl-vis\">CAVOK</span> M00/M04 Q1013 NOSIG",
      "tafHtml": "TAF LIRF 080500Z 0806/0912 04010KT <span class=\"hl-vis\">CAVOK</span> \n  BECMG 0813/0815 10007KT \n  BECMG 0904/0906 25015KT \n  PROB40 \n  TEMPO 0908/0912 25015G28KT"
    },
    {
      "icao": "LIRN",
      "iata": "NAP",
      "name": "Naples International Airport",
      "updatedAt": "080520Z",
      "visibility_m": 10000,
      "taf_visibility_m": 10000,
      "worst_visibility_m": 10000,
      "ceiling_ft": null,
      "hazards": [],
      "severityScore": 0,
      "metarRaw": "METAR LIRN 080520Z 24004KT CAVOK 01/M02 Q1011 NOSIG",
      "tafRaw": "TAF LIRN 080500Z 0806/0906 03006KT CAVOK",
      "metarHtml": "METAR LIRN 080520Z 24004KT <span class=\"hl-vis\">CAVOK</span> 01/M02 Q1011 NOSIG",
      "tafHtml": "TAF LIRN 080500Z 0806/0906 03006KT <span class=\"hl-vis\">CAVOK</span>"
    },
    {
      "icao": "LIRP",
      "iata": "PSA",
      "name": "Pisa International Airport",
      "updatedAt": "080515Z",
      "visibility_m": 10000,
      "taf_visibility_m": 10000,
      "worst_visibility_m": 10000,
      "ceiling_ft": null,
      "hazards": [],
      "severityScore": 0,
      "metarRaw": "METAR LIRP 080515Z 10008KT CAVOK M01/M04 Q1011 NOSIG",
      "tafRaw": "TAF LIRP 080500Z 0806/0906 11007KT CAVOK \n  BECMG 0812/0814 SCT020 SCT050",
      "metarHtml": "METAR LIRP 080515Z 10008KT <span class=\"hl-vis\">CAVOK</span> M01/M04 Q1011 NOSIG",
      "tafHtml": "TAF LIRP 080500Z 0806/0906 11007KT <span class=\"hl-vis\">CAVOK</span> \n  BECMG 0812/0814 SCT020 SCT050"
    },
    {
      "icao": "LIRZ",
      "iata": "PEG",
      "name": "Perugia San Francesco d'Assisi – Umbria International Airport",
      "updatedAt": "080520Z",
      "visibility_m": 10000,
      "taf_visibility_m": 10000,
      "worst_visibility_m": 10000,
      "ceiling_ft": null,
      "hazards": [],
      "severityScore": 0,
      "metarRaw": "METAR LIRZ 080520Z AUTO 35005KT 9999 NCD M04/M05 Q1013",
      "tafRaw": "TAF LIRZ 080500Z 0806/0906 VRB05KT 9999 FEW060",
      "metarHtml": "METAR LIRZ 080520Z AUTO 35005KT 9999 NCD M04/M05 Q1013",
      "tafHtml": "TAF LIRZ 080500Z 0806/0906 VRB05KT 9999 FEW060"
    },
    {
      "icao": "LPFR",
      "iata": "FAO",
      "name": "Faro Airport",
      "updatedAt": "080530Z",
      "visibility_m": 10000,
      "taf_visibility_m": 10000,
      "worst_visibility_m": 10000,
      "ceiling_ft": null,
      "hazards": [],
      "severityScore": 0,
      "metarRaw": "METAR LPFR 080530Z 03005KT CAVOK 06/05 Q1031",
      "tafRaw": "TAF LPFR 080500Z 0806/0906 04005KT CAVOK \n  PROB30 \n  TEMPO 0806/0809 9999 BKN006 \n  BECMG 0808/0810 VRB05KT 9999 FEW020 \n  BECMG 0812/0814 23007KT \n  BECMG 0818/0820 VRB05KT \n  BECMG 0900/0902 SCT015 BKN030",
      "metarHtml": "METAR LPFR 080530Z 03005KT <span class=\"hl-vis\">CAVOK</span> 06/05 Q1031",
      "tafHtml": "TAF LPFR 080500Z 0806/0906 04005KT <span class=\"hl-vis\">CAVOK</span> \n  PROB30 \n  TEMPO 0806/0809 9999 BKN006 \n  BECMG 0808/0810 VRB05KT 9999 FEW020 \n  BECMG 0812/0814 23007KT \n  BECMG 0818/0820 VRB05KT \n  BECMG 0900/0902 SCT015 BKN030"
    },
    {
      "icao": "LPMA",
      "iata": "FNC",
      "name": "Madeira International Airport Cristiano Ronaldo",
      "updatedAt": "080530Z",
      "visibility_m": 10000,
      "taf_visibility_m": 10000,
      "worst_visibility_m": 10000,
      "ceiling_ft": null,
      "hazards": [],
      "severityScore": 0,
      "metarRaw": "METAR LPMA 080530Z 36008KT 9999 SCT015 14/10 Q1033",
      "tafRaw": "TAF LPMA 080500Z 0806/0906 01010KT 9999 SCT015 \n  TEMPO 0818/0906 BKN013",
      "metarHtml": "METAR LPMA 080530Z 36008KT 9999 SCT015 14/10 Q1033",
      "tafHtml": "TAF LPMA 080500Z 0806/0906 01010KT 9999 SCT015 \n  TEMPO 0818/0906 BKN013"
    },
    {
      "icao": "LQBK",
      "iata": "BNX",
      "name": "Banja Luka International Airport",
      "updatedAt": "080530Z",
      "visibility_m": 10000,
      "taf_visibility_m": 2000,
      "worst_visibility_m": 2000,
      "ceiling_ft": null,
      "hazards": [],
      "severityScore": 0,
      "metarRaw": "METAR LQBK 080530Z 25005KT CAVOK M04/M08 Q1012 NOSIG",
      "tafRaw": "TAF LQBK 080500Z 0806/0906 23006KT 9999 FEW020 SCT045 TXM03/0813Z TNM09/0900Z \n  PROB30 \n  TEMPO 0821/0906 2000 BCFG",
      "metarHtml": "METAR LQBK 080530Z 25005KT <span class=\"hl-vis\">CAVOK</span> M04/M08 Q1012 NOSIG",
      "tafHtml": "TAF LQBK 080500Z 0806/0906 23006KT 9999 FEW020 SCT045 TXM03/0813Z TNM09/0900Z \n  PROB30 \n  TEMPO 0821/0906 2000 BCFG"
    },
    {
      "icao": "LZIB",
      "iata": "BTS",
      "name": "M. R. Štefánik Airport",
      "updatedAt": "080530Z",
      "visibility_m": 10000,
      "taf_visibility_m": 10000,
      "worst_visibility_m": 10000,
      "ceiling_ft": null,
      "hazards": [],
      "severityScore": 0,
      "metarRaw": "METAR LZIB 080530Z 32013KT 9999 FEW030 M05/M11 Q1010 NOSIG",
      "tafRaw": "TAF LZIB 080515Z 0806/0906 32012KT 9999 FEW028 \n  BECMG 0816/0818 VRB02KT",
      "metarHtml": "METAR LZIB 080530Z 32013KT 9999 FEW030 M05/M11 Q1010 NOSIG",
      "tafHtml": "TAF LZIB 080515Z 0806/0906 32012KT 9999 FEW028 \n  BECMG 0816/0818 VRB02KT"
    },
    {
      "icao": "OEJN",
      "iata": "JED",
      "name": "King Abdulaziz International Airport",
      "updatedAt": "080500Z",
      "visibility_m": 10000,
      "taf_visibility_m": 6000,
      "worst_visibility_m": 6000,
      "ceiling_ft": null,
      "hazards": [],
      "severityScore": 0,
      "metarRaw": "METAR OEJN 080500Z 00000KT CAVOK 23/13 Q1017 NOSIG",
      "tafRaw": "TAF OEJN 080500Z 0806/0912 20010KT 9999 FEW040 \n  BECMG 0818/0820 VRB03KT 6000 NSC \n  BECMG 0908/0910 22010KT 9999 FEW040",
      "metarHtml": "METAR OEJN 080500Z 00000KT <span class=\"hl-vis\">CAVOK</span> 23/13 Q1017 NOSIG",
      "tafHtml": "TAF OEJN 080500Z 0806/0912 20010KT 9999 FEW040 \n  BECMG 0818/0820 VRB03KT 6000 NSC \n  BECMG 0908/0910 22010KT 9999 FEW040"
    },
    {
      "icao": "OEMA",
      "iata": "MED",
      "name": "Prince Mohammad Bin Abdulaziz Airport",
      "updatedAt": "080500Z",
      "visibility_m": 10000,
      "taf_visibility_m": 10000,
      "worst_visibility_m": 10000,
      "ceiling_ft": null,
      "hazards": [],
      "severityScore": 0,
      "metarRaw": "METAR OEMA 080500Z 17002KT CAVOK 15/00 Q1025 NOSIG",
      "tafRaw": "TAF OEMA 080500Z 0806/0912 09010KT CAVOK",
      "metarHtml": "METAR OEMA 080500Z 17002KT <span class=\"hl-vis\">CAVOK</span> 15/00 Q1025 NOSIG",
      "tafHtml": "TAF OEMA 080500Z 0806/0912 09010KT <span class=\"hl-vis\">CAVOK</span>"
    },
    {
      "icao": "OMAA",
      "iata": "AUH",
      "name": "Zayed International Airport",
      "updatedAt": "080500Z",
      "visibility_m": 10000,
      "taf_visibility_m": 8000,
      "worst_visibility_m": 8000,
      "ceiling_ft": null,
      "hazards": [],
      "severityScore": 0,
      "metarRaw": "METAR OMAA 080500Z 19002KT 9999 FEW045 18/12 Q1022 NOSIG",
      "tafRaw": "TAF OMAA 080500Z 0806/0912 VRB02KT 8000 NSC \n  BECMG 0808/0810 34012KT \n  BECMG 0816/0818 VRB02KT \n  BECMG 0910/0912 33010KT",
      "metarHtml": "METAR OMAA 080500Z 19002KT 9999 FEW045 18/12 Q1022 NOSIG",
      "tafHtml": "TAF OMAA 080500Z 0806/0912 VRB02KT 8000 NSC \n  BECMG 0808/0810 34012KT \n  BECMG 0816/0818 VRB02KT \n  BECMG 0910/0912 33010KT"
    },
    {
      "icao": "OMDB",
      "iata": "DXB",
      "name": "Dubai International Airport",
      "updatedAt": "080530Z",
      "visibility_m": 10000,
      "taf_visibility_m": 10000,
      "worst_visibility_m": 10000,
      "ceiling_ft": null,
      "hazards": [],
      "severityScore": 0,
      "metarRaw": "METAR OMDB 080530Z 22003KT 100V250 CAVOK 20/07 Q1022 NOSIG",
      "tafRaw": "TAF OMDB 080500Z 0806/0912 08005KT CAVOK \n  BECMG 0808/0810 33010KT \n  BECMG 0816/0818 10005KT \n  BECMG 0909/0911 33010KT",
      "metarHtml": "METAR OMDB 080530Z 22003KT 100V250 <span class=\"hl-vis\">CAVOK</span> 20/07 Q1022 NOSIG",
      "tafHtml": "TAF OMDB 080500Z 0806/0912 08005KT <span class=\"hl-vis\">CAVOK</span> \n  BECMG 0808/0810 33010KT \n  BECMG 0816/0818 10005KT \n  BECMG 0909/0911 33010KT"
    }
  ],
  "stats": {
    "icaoCount": 159,
    "metarReturned": 157,
    "tafReturned": 150,
    "stationsWritten": 159,
    "missingMetar": 2,
    "missingTaf": 9
  },
  "errors": []
}