{
  "generatedAt": "2026-01-05T22:39:02.522Z",
  "stations": [
    {
      "icao": "EBCI",
      "iata": "CRL",
      "name": "Brussels South Charleroi Airport",
      "updatedAt": "052220Z",
      "visibility_m": 3000,
      "taf_visibility_m": 400,
      "worst_visibility_m": 400,
      "ceiling_ft": 300,
      "hazards": [
        "SHSN",
        "FZFG",
        "BR"
      ],
      "severityScore": 100,
      "metarRaw": "METAR EBCI 052220Z 22010KT 6000 R24/1400U -SHSN BKN003 BKN013 M02/M03 Q1012 TEMPO 3000 -SHSN BKN005",
      "tafRaw": "TAF EBCI 051715Z 0518/0624 23007KT 9999 SCT007 BKN011 \n  TEMPO 0522/0601 1200 SHSN BKN004 BKN010CB \n  PROB40 \n  TEMPO 0600/0608 3000 BR BKN003 \n  PROB30 \n  TEMPO 0603/0607 0400 FZFG BKN002 \n  BECMG 0611/0613 SCT010 BKN018",
      "metarHtml": "METAR EBCI 052220Z 22010KT 6000 R24/1400U -<span class=\"hl\">SHSN</span> BKN003 BKN013 M02/M03 Q1012 TEMPO 3000 -<span class=\"hl\">SHSN</span> BKN005",
      "tafHtml": "TAF EBCI 051715Z 0518/0624 23007KT 9999 SCT007 BKN011 \n  TEMPO 0522/0601 1200 <span class=\"hl\">SHSN</span> BKN004 BKN010CB \n  PROB40 \n  TEMPO 0600/0608 3000 <span class=\"hl\">BR</span> BKN003 \n  PROB30 \n  TEMPO 0603/0607 <span class=\"hl-vis\">0400</span> <span class=\"hl\">FZFG</span> BKN002 \n  BECMG 0611/0613 SCT010 BKN018"
    },
    {
      "icao": "LHDC",
      "iata": "DEB",
      "name": "Debrecen International Airport",
      "updatedAt": "052215Z",
      "visibility_m": 5000,
      "taf_visibility_m": 800,
      "worst_visibility_m": 800,
      "ceiling_ft": 800,
      "hazards": [
        "BR",
        "FZRA",
        "PL",
        "SN"
      ],
      "severityScore": 100,
      "metarRaw": "METAR LHDC 052215Z AUTO 04003KT 5000 -RASN BR OVC008 M00/M00 Q1009",
      "tafRaw": "TAF LHDC 051715Z 0518/0603 05006KT 4000 -SN SCT012 OVC025 \n  TEMPO 0518/0524 0800 SN BKN002 OVC015 \n  PROB40 \n  TEMPO 0518/0522 6000 FZRA PL BKN010 OVC025",
      "metarHtml": "METAR LHDC 052215Z AUTO 04003KT 5000 -RASN <span class=\"hl\">BR</span> OVC008 M00/M00 Q1009",
      "tafHtml": "TAF LHDC 051715Z 0518/0603 05006KT 4000 -<span class=\"hl\">SN</span> SCT012 OVC025 \n  TEMPO 0518/0524 <span class=\"hl-vis\">0800</span> <span class=\"hl\">SN</span> BKN002 OVC015 \n  PROB40 \n  TEMPO 0518/0522 6000 <span class=\"hl\">FZRA</span> <span class=\"hl\">PL</span> BKN010 OVC025"
    },
    {
      "icao": "LQTZ",
      "iata": "TZL",
      "name": "Tuzla International Airport",
      "updatedAt": "052230Z",
      "visibility_m": 4000,
      "taf_visibility_m": 1200,
      "worst_visibility_m": 1200,
      "ceiling_ft": 400,
      "hazards": [
        "BR",
        "SN",
        "FZDZ"
      ],
      "severityScore": 100,
      "metarRaw": "METAR LQTZ 052230Z 31006KT 4000 BR OVC004 M01/M01 Q1010",
      "tafRaw": "TAF LQTZ 051700Z 0518/0618 30005KT 5000 BR BKN005 OVC015 TXM00/0613Z TNM03/0605Z \n  TEMPO 0518/0524 2000 -FZDZ BR \n  TEMPO 0600/0608 1200 -SN BR BKN002 OVC010 \n  BECMG 0616/0618 2000 SN",
      "metarHtml": "METAR LQTZ 052230Z 31006KT 4000 <span class=\"hl\">BR</span> OVC004 M01/M01 Q1010",
      "tafHtml": "TAF LQTZ 051700Z 0518/0618 30005KT 5000 <span class=\"hl\">BR</span> BKN005 OVC015 TXM00/0613Z TNM03/0605Z \n  TEMPO 0518/0524 2000 -<span class=\"hl\">FZDZ</span> <span class=\"hl\">BR</span> \n  TEMPO 0600/0608 1200 -<span class=\"hl\">SN</span> <span class=\"hl\">BR</span> BKN002 OVC010 \n  BECMG 0616/0618 2000 <span class=\"hl\">SN</span>"
    },
    {
      "icao": "LRIA",
      "iata": "IAS",
      "name": "Iaşi Airport",
      "updatedAt": "052230Z",
      "visibility_m": 1100,
      "taf_visibility_m": 100,
      "worst_visibility_m": 100,
      "ceiling_ft": 0,
      "hazards": [
        "BR",
        "DZ",
        "FG",
        "FZDZ"
      ],
      "severityScore": 100,
      "metarRaw": "METAR LRIA 052230Z 12006KT 1100 R14/1800N DZ BR BKN000 OVC002 00/00 Q1014",
      "tafRaw": "TAF LRIA 052000Z 0521/0606 10008KT 3000 -DZ BKN002 OVC010 \n  TEMPO 0521/0523 -FZDZ \n  BECMG 0523/0601 1500 BR \n  BECMG 0601/0603 0300 FG OVC001 \n  TEMPO 0603/0606 0100 FG",
      "metarHtml": "METAR LRIA 052230Z 12006KT 1100 R14/1800N <span class=\"hl\">DZ</span> <span class=\"hl\">BR</span> BKN000 OVC002 00/00 Q1014",
      "tafHtml": "TAF LRIA 052000Z 0521/0606 10008KT 3000 -<span class=\"hl\">DZ</span> BKN002 OVC010 \n  TEMPO 0521/0523 -<span class=\"hl\">FZDZ</span> \n  BECMG 0523/0601 1500 <span class=\"hl\">BR</span> \n  BECMG 0601/0603 <span class=\"hl-vis\">0300</span> <span class=\"hl\">FG</span> OVC001 \n  TEMPO 0603/0606 <span class=\"hl-vis\">0100</span> <span class=\"hl\">FG</span>"
    },
    {
      "icao": "LRBC",
      "iata": "BCM",
      "name": "Bacău George Enescu International  Airport",
      "updatedAt": "052230Z",
      "visibility_m": 2000,
      "taf_visibility_m": 100,
      "worst_visibility_m": 100,
      "ceiling_ft": 200,
      "hazards": [
        "BR",
        "FZFG",
        "FG",
        "FZRA",
        "SN"
      ],
      "severityScore": 100,
      "metarRaw": "METAR LRBC 052230Z 12002KT 2000 BR OVC002 M00/M02 Q1014",
      "tafRaw": "TAF LRBC 052000Z 0521/0606 VRB03KT 3000 -SN BKN002 OVC010 \n  TEMPO 0521/0523 -FZRA BKN005 OVC015 \n  BECMG 0523/0601 1500 BR \n  BECMG 0601/0603 0600 FZFG VV001 \n  TEMPO 0603/0606 0100 FG",
      "metarHtml": "METAR LRBC 052230Z 12002KT 2000 <span class=\"hl\">BR</span> OVC002 M00/M02 Q1014",
      "tafHtml": "TAF LRBC 052000Z 0521/0606 VRB03KT 3000 -<span class=\"hl\">SN</span> BKN002 OVC010 \n  TEMPO 0521/0523 -<span class=\"hl\">FZRA</span> BKN005 OVC015 \n  BECMG 0523/0601 1500 <span class=\"hl\">BR</span> \n  BECMG 0601/0603 <span class=\"hl-vis\">0600</span> <span class=\"hl\">FZFG</span> VV001 \n  TEMPO 0603/0606 <span class=\"hl-vis\">0100</span> <span class=\"hl\">FG</span>"
    },
    {
      "icao": "LRBS",
      "iata": "BBU",
      "name": "Bucharest Băneasa Aurel Vlaicu International Airport",
      "updatedAt": "052230Z",
      "visibility_m": 300,
      "taf_visibility_m": null,
      "worst_visibility_m": 300,
      "ceiling_ft": 100,
      "hazards": [
        "FG"
      ],
      "severityScore": 100,
      "metarRaw": "METAR LRBS 052230Z 06006KT 030V090 0400 R07/1400D FG VV001 02/01 Q1013 TEMPO 0300 FG",
      "tafRaw": null,
      "metarHtml": "METAR LRBS 052230Z 06006KT 030V090 <span class=\"hl-vis\">0400</span> R07/1400D <span class=\"hl\">FG</span> VV001 02/01 Q1013 TEMPO <span class=\"hl-vis\">0300</span> <span class=\"hl\">FG</span>",
      "tafHtml": null
    },
    {
      "icao": "LRCV",
      "iata": "CRA",
      "name": "Craiova International Airport",
      "updatedAt": "052230Z",
      "visibility_m": 400,
      "taf_visibility_m": 150,
      "worst_visibility_m": 150,
      "ceiling_ft": 200,
      "hazards": [
        "FG",
        "BR",
        "RA"
      ],
      "severityScore": 100,
      "metarRaw": "METAR LRCV 052230Z 09005KT 0400 R26/0500N FG VV002 01/01 Q1013",
      "tafRaw": "TAF LRCV 052000Z 0521/0606 VRB04KT 0500 FG VV001 \n  TEMPO 0521/0523 1500 -RADZ BR OVC002 \n  TEMPO 0601/0604 0150 FG \n  BECMG 0604/0606 1500 -RA BR OVC002",
      "metarHtml": "METAR LRCV 052230Z 09005KT <span class=\"hl-vis\">0400</span> R26/0500N <span class=\"hl\">FG</span> VV002 01/01 Q1013",
      "tafHtml": "TAF LRCV 052000Z 0521/0606 VRB04KT <span class=\"hl-vis\">0500</span> <span class=\"hl\">FG</span> VV001 \n  TEMPO 0521/0523 1500 -RADZ <span class=\"hl\">BR</span> OVC002 \n  TEMPO 0601/0604 <span class=\"hl-vis\">0150</span> <span class=\"hl\">FG</span> \n  BECMG 0604/0606 1500 -<span class=\"hl\">RA</span> <span class=\"hl\">BR</span> OVC002"
    },
    {
      "icao": "LROP",
      "iata": "OTP",
      "name": "Bucharest Henri Coandă International Airport",
      "updatedAt": "052230Z",
      "visibility_m": 300,
      "taf_visibility_m": 300,
      "worst_visibility_m": 300,
      "ceiling_ft": 100,
      "hazards": [
        "FG",
        "BR",
        "RA",
        "DZ"
      ],
      "severityScore": 100,
      "metarRaw": "METAR LROP 052230Z 08005KT 0500 R08R/1300D R08L/1300D FG OVC001 02/02 Q1013 TEMPO 0300 FG",
      "tafRaw": "TAF LROP 051700Z 0518/0618 05010KT 9999 -RA OVC005 \n  BECMG 0518/0520 5000 -DZ BR OVC002 \n  BECMG 0520/0522 1500 BR \n  BECMG 0522/0524 VRB04KT 0600 FG VV001 \n  TEMPO 0601/0606 0300 FG \n  BECMG 0607/0609 1500 -DZ BR OVC002 \n  TEMPO 0611/0615 3000 -DZ BR OVC005",
      "metarHtml": "METAR LROP 052230Z 08005KT <span class=\"hl-vis\">0500</span> R08R/1300D R08L/1300D <span class=\"hl\">FG</span> OVC001 02/02 Q1013 TEMPO <span class=\"hl-vis\">0300</span> <span class=\"hl\">FG</span>",
      "tafHtml": "TAF LROP 051700Z 0518/0618 05010KT 9999 -<span class=\"hl\">RA</span> OVC005 \n  BECMG 0518/0520 5000 -<span class=\"hl\">DZ</span> <span class=\"hl\">BR</span> OVC002 \n  BECMG 0520/0522 1500 <span class=\"hl\">BR</span> \n  BECMG 0522/0524 VRB04KT <span class=\"hl-vis\">0600</span> <span class=\"hl\">FG</span> VV001 \n  TEMPO 0601/0606 <span class=\"hl-vis\">0300</span> <span class=\"hl\">FG</span> \n  BECMG 0607/0609 1500 -<span class=\"hl\">DZ</span> <span class=\"hl\">BR</span> OVC002 \n  TEMPO 0611/0615 3000 -<span class=\"hl\">DZ</span> <span class=\"hl\">BR</span> OVC005"
    },
    {
      "icao": "LRSV",
      "iata": "SCV",
      "name": "Suceava Stefan cel Mare Airport",
      "updatedAt": "052230Z",
      "visibility_m": 400,
      "taf_visibility_m": 300,
      "worst_visibility_m": 300,
      "ceiling_ft": 200,
      "hazards": [
        "FZFG",
        "BR",
        "SN"
      ],
      "severityScore": 100,
      "metarRaw": "METAR LRSV 052230Z 14015KT 0400 R34/1000D FZFG VV002 M02/M02 Q1011",
      "tafRaw": "TAF LRSV 052000Z 0521/0606 13012KT 1500 BR OVC003 \n  PROB30 \n  TEMPO 0521/0522 0800 -SN BR OVC002 \n  BECMG 0522/0524 0800 FZFG VV001 \n  TEMPO 0601/0603 0300 FZFG \n  BECMG 0604/0606 VRB04KT",
      "metarHtml": "METAR LRSV 052230Z 14015KT <span class=\"hl-vis\">0400</span> R34/1000D <span class=\"hl\">FZFG</span> VV002 M02/M02 Q1011",
      "tafHtml": "TAF LRSV 052000Z 0521/0606 13012KT 1500 <span class=\"hl\">BR</span> OVC003 \n  PROB30 \n  TEMPO 0521/0522 <span class=\"hl-vis\">0800</span> -<span class=\"hl\">SN</span> <span class=\"hl\">BR</span> OVC002 \n  BECMG 0522/0524 <span class=\"hl-vis\">0800</span> <span class=\"hl\">FZFG</span> VV001 \n  TEMPO 0601/0603 <span class=\"hl-vis\">0300</span> <span class=\"hl\">FZFG</span> \n  BECMG 0604/0606 VRB04KT"
    },
    {
      "icao": "LRTR",
      "iata": "TSR",
      "name": "Timişoara Traian Vuia Airport",
      "updatedAt": "052230Z",
      "visibility_m": 800,
      "taf_visibility_m": 800,
      "worst_visibility_m": 800,
      "ceiling_ft": 500,
      "hazards": [
        "FG",
        "FZFG",
        "BR",
        "SN",
        "RA",
        "FZDZ"
      ],
      "severityScore": 100,
      "metarRaw": "METAR LRTR 052230Z 00000KT 0800 R29/1000D -DZRA FG BKN005 OVC032 01/01 Q1009",
      "tafRaw": "TAF LRTR 051700Z 0518/0618 VRB04KT 5000 -RA BR OVC030 \n  TEMPO 0518/0522 3000 RA BR BKN010 OVC025 \n  BECMG 0522/0524 1500 -RADZ BR BKN010 OVC020 \n  PROB40 \n  TEMPO 0600/0606 0800 -FZDZ FZFG BKN005 OVC015 \n  BECMG 0606/0608 3000 -SNRA \n  PROB40 \n  TEMPO 0609/0615 1500 SN BKN005 OVC020",
      "metarHtml": "METAR LRTR 052230Z 00000KT <span class=\"hl-vis\">0800</span> R29/1000D -DZRA <span class=\"hl\">FG</span> BKN005 OVC032 01/01 Q1009",
      "tafHtml": "TAF LRTR 051700Z 0518/0618 VRB04KT 5000 -<span class=\"hl\">RA</span> <span class=\"hl\">BR</span> OVC030 \n  TEMPO 0518/0522 3000 <span class=\"hl\">RA</span> <span class=\"hl\">BR</span> BKN010 OVC025 \n  BECMG 0522/0524 1500 -RADZ <span class=\"hl\">BR</span> BKN010 OVC020 \n  PROB40 \n  TEMPO 0600/0606 <span class=\"hl-vis\">0800</span> -<span class=\"hl\">FZDZ</span> <span class=\"hl\">FZFG</span> BKN005 OVC015 \n  BECMG 0606/0608 3000 -SNRA \n  PROB40 \n  TEMPO 0609/0615 1500 <span class=\"hl\">SN</span> BKN005 OVC020"
    },
    {
      "icao": "LUKK",
      "iata": "RMO",
      "name": "Chişinău International Airport",
      "updatedAt": "052230Z",
      "visibility_m": 800,
      "taf_visibility_m": 300,
      "worst_visibility_m": 300,
      "ceiling_ft": 100,
      "hazards": [
        "FZFG",
        "BR",
        "FG",
        "FZRA",
        "SN"
      ],
      "severityScore": 100,
      "metarRaw": "METAR LUKK 052230Z 10007KT 4400 BR OVC002 M00/M00 Q1015 REFZRA TEMPO 0800 FZFG OVC001",
      "tafRaw": "TAF LUKK 051705Z 0518/0618 12006KT 5000 SN BKN008 \n  TEMPO 0518/0519 1500 BKN004 \n  BECMG 0519/0520 5000 -FZRA BR BKN005 \n  TEMPO 0520/0523 2000 FZRA BR BKN002 \n  BECMG 0523/0601 0300 FG VV///",
      "metarHtml": "METAR LUKK 052230Z 10007KT 4400 <span class=\"hl\">BR</span> OVC002 M00/M00 Q1015 REFZRA TEMPO <span class=\"hl-vis\">0800</span> <span class=\"hl\">FZFG</span> OVC001",
      "tafHtml": "TAF LUKK 051705Z 0518/0618 12006KT 5000 <span class=\"hl\">SN</span> BKN008 \n  TEMPO 0518/0519 1500 BKN004 \n  BECMG 0519/0520 5000 -<span class=\"hl\">FZRA</span> <span class=\"hl\">BR</span> BKN005 \n  TEMPO 0520/0523 2000 <span class=\"hl\">FZRA</span> <span class=\"hl\">BR</span> BKN002 \n  BECMG 0523/0601 <span class=\"hl-vis\">0300</span> <span class=\"hl\">FG</span> VV///"
    },
    {
      "icao": "LYBE",
      "iata": "BEG",
      "name": "Belgrade Nikola Tesla Airport",
      "updatedAt": "052230Z",
      "visibility_m": 8000,
      "taf_visibility_m": 2000,
      "worst_visibility_m": 2000,
      "ceiling_ft": 500,
      "hazards": [
        "FZRA",
        "BR",
        "SN",
        "RA"
      ],
      "severityScore": 100,
      "metarRaw": "METAR LYBE 052230Z 26005KT 8000 -FZRA BKN005 BKN019 M00/M01 Q1010 NOSIG",
      "tafRaw": "TAF LYBE 051700Z 0518/0618 27005KT 4000 BR BKN005 BKN025 TX00/0518Z TNM01/0606Z \n  TEMPO 0518/0601 2000 RA BKN002 BKN022 \n  PROB40 \n  TEMPO 0519/0601 FZRA \n  TEMPO 0603/0618 2000 -SN BKN002 OVC020",
      "metarHtml": "METAR LYBE 052230Z 26005KT 8000 -<span class=\"hl\">FZRA</span> BKN005 BKN019 M00/M01 Q1010 NOSIG",
      "tafHtml": "TAF LYBE 051700Z 0518/0618 27005KT 4000 <span class=\"hl\">BR</span> BKN005 BKN025 TX00/0518Z TNM01/0606Z \n  TEMPO 0518/0601 2000 <span class=\"hl\">RA</span> BKN002 BKN022 \n  PROB40 \n  TEMPO 0519/0601 <span class=\"hl\">FZRA</span> \n  TEMPO 0603/0618 2000 -<span class=\"hl\">SN</span> BKN002 OVC020"
    },
    {
      "icao": "UBBB",
      "iata": "GYD",
      "name": "Heydar Aliyev International Airport",
      "updatedAt": "052230Z",
      "visibility_m": 100,
      "taf_visibility_m": null,
      "worst_visibility_m": 100,
      "ceiling_ft": 100,
      "hazards": [
        "FG"
      ],
      "severityScore": 100,
      "metarRaw": "METAR UBBB 052230Z 34002KT 0100 R34/0550 R35/0350 FG BKN001 04/04 Q1025 NOSIG",
      "tafRaw": null,
      "metarHtml": "METAR UBBB 052230Z 34002KT <span class=\"hl-vis\">0100</span> R34/0550 R35/0350 <span class=\"hl\">FG</span> BKN001 04/04 Q1025 NOSIG",
      "tafHtml": null
    },
    {
      "icao": "EPWA",
      "iata": "WAW",
      "name": "Warsaw Chopin Airport",
      "updatedAt": "052230Z",
      "visibility_m": 10000,
      "taf_visibility_m": 100,
      "worst_visibility_m": 100,
      "ceiling_ft": null,
      "hazards": [
        "FZFG",
        "BR"
      ],
      "severityScore": 95,
      "metarRaw": "METAR EPWA 052230Z VRB02KT CAVOK M06/M07 Q1014 NOSIG",
      "tafRaw": "TAF EPWA 052030Z 0521/0621 VRB04KT CAVOK \n  TEMPO 0521/0523 2000 BR \n  BECMG 0523/0602 0400 FZFG \n  TEMPO 0600/0609 0100 FZFG BKN001 \n  BECMG 0609/0612 28010KT 6000 \n  BECMG 0615/0618 VRB02KT 4800 BR",
      "metarHtml": "METAR EPWA 052230Z VRB02KT <span class=\"hl-vis\">CAVOK</span> M06/M07 Q1014 NOSIG",
      "tafHtml": "TAF EPWA 052030Z 0521/0621 VRB04KT <span class=\"hl-vis\">CAVOK</span> \n  TEMPO 0521/0523 2000 <span class=\"hl\">BR</span> \n  BECMG 0523/0602 <span class=\"hl-vis\">0400</span> <span class=\"hl\">FZFG</span> \n  TEMPO 0600/0609 <span class=\"hl-vis\">0100</span> <span class=\"hl\">FZFG</span> BKN001 \n  BECMG 0609/0612 28010KT 6000 \n  BECMG 0615/0618 VRB02KT 4800 <span class=\"hl\">BR</span>"
    },
    {
      "icao": "EYKA",
      "iata": "KUN",
      "name": "Kaunas International Airport",
      "updatedAt": "052220Z",
      "visibility_m": 9000,
      "taf_visibility_m": 500,
      "worst_visibility_m": 500,
      "ceiling_ft": null,
      "hazards": [
        "FZFG",
        "BR",
        "SN"
      ],
      "severityScore": 93,
      "metarRaw": "METAR EYKA 052220Z 16003KT 130V200 9000 NSC M05/M06 Q1017",
      "tafRaw": "TAF EYKA 051712Z 0518/0618 VRB04KT 5000 BR BKN015 \n  TEMPO 0518/0524 19010KT SCT005 BKN010 \n  PROB40 \n  TEMPO 0518/0524 BKN005 \n  BECMG 0600/0602 OVC005 \n  TEMPO 0602/0606 0500 FZFG VV002 \n  BECMG 0609/0610 8000 NSW NSC \n  BECMG 0611/0613 5000 SN BR BKN030 \n  TEMPO 0613/0618 3000 BKN010",
      "metarHtml": "METAR EYKA 052220Z 16003KT 130V200 9000 NSC M05/M06 Q1017",
      "tafHtml": "TAF EYKA 051712Z 0518/0618 VRB04KT 5000 <span class=\"hl\">BR</span> BKN015 \n  TEMPO 0518/0524 19010KT SCT005 BKN010 \n  PROB40 \n  TEMPO 0518/0524 BKN005 \n  BECMG 0600/0602 OVC005 \n  TEMPO 0602/0606 <span class=\"hl-vis\">0500</span> <span class=\"hl\">FZFG</span> VV002 \n  BECMG 0609/0610 8000 NSW NSC \n  BECMG 0611/0613 5000 <span class=\"hl\">SN</span> <span class=\"hl\">BR</span> BKN030 \n  TEMPO 0613/0618 3000 BKN010"
    },
    {
      "icao": "LQSA",
      "iata": "SJJ",
      "name": "Sarajevo International Airport",
      "updatedAt": "052230Z",
      "visibility_m": 2000,
      "taf_visibility_m": 700,
      "worst_visibility_m": 700,
      "ceiling_ft": 400,
      "hazards": [
        "SN",
        "RA"
      ],
      "severityScore": 90,
      "metarRaw": "METAR LQSA 052230Z VRB01KT 2000 -RA BKN007 OVC030 00/00 Q1007 BECMG SN BKN004 OVC020",
      "tafRaw": "TAF LQSA 052033Z 0520/0618 30005KT 2000 RA BKN008 OVC030 TX00/0520Z TNM02/0618Z \n  BECMG 0521/0523 0700 SN BKN004 OVC020 \n  PROB40 0600/0606 1500 -SN BKN010 OVC030 \n  TEMPO 0603/0612 6000 NSW SCT012 OVC030",
      "metarHtml": "METAR LQSA 052230Z VRB01KT 2000 -<span class=\"hl\">RA</span> BKN007 OVC030 00/00 Q1007 BECMG <span class=\"hl\">SN</span> BKN004 OVC020",
      "tafHtml": "TAF LQSA 052033Z 0520/0618 30005KT 2000 <span class=\"hl\">RA</span> BKN008 OVC030 TX00/0520Z TNM02/0618Z \n  BECMG 0521/0523 <span class=\"hl-vis\">0700</span> <span class=\"hl\">SN</span> BKN004 OVC020 \n  PROB40 0600/0606 1500 -<span class=\"hl\">SN</span> BKN010 OVC030 \n  TEMPO 0603/0612 6000 NSW SCT012 OVC030"
    },
    {
      "icao": "EPSY",
      "iata": "SZY",
      "name": "Olsztyn-Mazury Airport",
      "updatedAt": "052230Z",
      "visibility_m": 2500,
      "taf_visibility_m": 300,
      "worst_visibility_m": 300,
      "ceiling_ft": null,
      "hazards": [
        "BR",
        "FZFG"
      ],
      "severityScore": 85,
      "metarRaw": "METAR EPSY 052230Z 02002KT 2500 0500W PRFG BR NSC M12/M13 Q1015",
      "tafRaw": "TAF EPSY 052030Z 0521/0606 VRB02KT 0300 FZFG NSC \n  TEMPO 0521/0606 0600 FZFG OVC001 \n  PROB40 \n  TEMPO 0522/0606 2000 BR BKN005",
      "metarHtml": "METAR EPSY 052230Z 02002KT 2500 0500W PRFG <span class=\"hl\">BR</span> NSC M12/M13 Q1015",
      "tafHtml": "TAF EPSY 052030Z 0521/0606 VRB02KT <span class=\"hl-vis\">0300</span> <span class=\"hl\">FZFG</span> NSC \n  TEMPO 0521/0606 <span class=\"hl-vis\">0600</span> <span class=\"hl\">FZFG</span> OVC001 \n  PROB40 \n  TEMPO 0522/0606 2000 <span class=\"hl\">BR</span> BKN005"
    },
    {
      "icao": "EKBI",
      "iata": "BLL",
      "name": "Billund Airport",
      "updatedAt": "052220Z",
      "visibility_m": 10000,
      "taf_visibility_m": 500,
      "worst_visibility_m": 500,
      "ceiling_ft": null,
      "hazards": [
        "FZFG",
        "SN"
      ],
      "severityScore": 83,
      "metarRaw": "METAR EKBI 052220Z AUTO 01003KT 9999 FEW032/// BKN039/// M04/M04 Q1010",
      "tafRaw": "TAF EKBI 052027Z 0521/0621 05005KT 9999 FEW006 BKN018 \n  TEMPO 0521/0524 BKN006 SCT015CB \n  TEMPO 0600/0603 BKN004 \n  PROB40 0603/0609 0500 FZFG BKN003 \n  TEMPO 0609/0621 1000 SN BKN005 SCT015CB",
      "metarHtml": "METAR EKBI 052220Z AUTO 01003KT 9999 FEW032/// BKN039/// M04/M04 Q1010",
      "tafHtml": "TAF EKBI 052027Z 0521/0621 05005KT 9999 FEW006 BKN018 \n  TEMPO 0521/0524 BKN006 SCT015CB \n  TEMPO 0600/0603 BKN004 \n  PROB40 0603/0609 <span class=\"hl-vis\">0500</span> <span class=\"hl\">FZFG</span> BKN003 \n  TEMPO 0609/0621 1000 <span class=\"hl\">SN</span> BKN005 SCT015CB"
    },
    {
      "icao": "EYVI",
      "iata": "VNO",
      "name": "Vilnius International Airport",
      "updatedAt": "052220Z",
      "visibility_m": 350,
      "taf_visibility_m": null,
      "worst_visibility_m": 350,
      "ceiling_ft": null,
      "hazards": [
        "FZFG",
        "BR"
      ],
      "severityScore": 80,
      "metarRaw": "METAR EYVI 052220Z 14004KT 5000 0450S BR BCFG NSC M08/M09 Q1018 TEMPO 0350 FZFG SCT002",
      "tafRaw": null,
      "metarHtml": "METAR EYVI 052220Z 14004KT 5000 0450S <span class=\"hl\">BR</span> BCFG NSC M08/M09 Q1018 TEMPO <span class=\"hl-vis\">0350</span> <span class=\"hl\">FZFG</span> SCT002",
      "tafHtml": null
    },
    {
      "icao": "EDFH",
      "iata": "HHN",
      "name": "Frankfurt-Hahn Airport",
      "updatedAt": "052220Z",
      "visibility_m": 8000,
      "taf_visibility_m": 400,
      "worst_visibility_m": 400,
      "ceiling_ft": 500,
      "hazards": [
        "SN"
      ],
      "severityScore": 78,
      "metarRaw": "METAR EDFH 052220Z 24006KT 210V280 8000 -SN FEW002 BKN005 M06/M07 Q1011",
      "tafRaw": "TAF EDFH 051700Z 0518/0618 20006KT 9999 OVC010 \n  BECMG 0518/0521 26006KT OVC008 \n  TEMPO 0518/0523 2000 -SN BKN002 \n  PROB30 \n  TEMPO 0519/0522 0400 SN BKN001 \n  BECMG 0522/0524 OVC004 \n  BECMG 0608/0611 OVC007 \n  BECMG 0611/0614 SCT015",
      "metarHtml": "METAR EDFH 052220Z 24006KT 210V280 8000 -<span class=\"hl\">SN</span> FEW002 BKN005 M06/M07 Q1011",
      "tafHtml": "TAF EDFH 051700Z 0518/0618 20006KT 9999 OVC010 \n  BECMG 0518/0521 26006KT OVC008 \n  TEMPO 0518/0523 2000 -<span class=\"hl\">SN</span> BKN002 \n  PROB30 \n  TEMPO 0519/0522 <span class=\"hl-vis\">0400</span> <span class=\"hl\">SN</span> BKN001 \n  BECMG 0522/0524 OVC004 \n  BECMG 0608/0611 OVC007 \n  BECMG 0611/0614 SCT015"
    },
    {
      "icao": "EPPO",
      "iata": "POZ",
      "name": "Poznań-Ławica Airport",
      "updatedAt": "052230Z",
      "visibility_m": 5000,
      "taf_visibility_m": 500,
      "worst_visibility_m": 500,
      "ceiling_ft": 3600,
      "hazards": [
        "BR",
        "FZFG"
      ],
      "severityScore": 75,
      "metarRaw": "METAR EPPO 052230Z 08001KT 5000 BR BKN036 M06/M08 Q1014",
      "tafRaw": "TAF EPPO 051730Z 0518/0618 16004KT CAVOK \n  TEMPO 0521/0606 3000 BR \n  PROB30 0600/0606 0500 FZFG OVC001 \n  BECMG 0616/0618 BKN012",
      "metarHtml": "METAR EPPO 052230Z 08001KT 5000 <span class=\"hl\">BR</span> BKN036 M06/M08 Q1014",
      "tafHtml": "TAF EPPO 051730Z 0518/0618 16004KT <span class=\"hl-vis\">CAVOK</span> \n  TEMPO 0521/0606 3000 <span class=\"hl\">BR</span> \n  PROB30 0600/0606 <span class=\"hl-vis\">0500</span> <span class=\"hl\">FZFG</span> OVC001 \n  BECMG 0616/0618 BKN012"
    },
    {
      "icao": "UAAA",
      "iata": "ALA",
      "name": "Almaty International Airport",
      "updatedAt": "052230Z",
      "visibility_m": 4500,
      "taf_visibility_m": 400,
      "worst_visibility_m": 400,
      "ceiling_ft": null,
      "hazards": [
        "BR",
        "FZFG"
      ],
      "severityScore": 75,
      "metarRaw": "METAR UAAA 052230Z 00000MPS 4500 BR SCT050 M03/M04 Q1035 NOSIG",
      "tafRaw": "TAF UAAA 051701Z 0518/0618 06003MPS 3100 BR FU BKN011 OVC030 TX01/0609Z TNM03/0602Z \n  TEMPO 0518/0604 0400 FZFG OVC005 \n  FM060500 06003G08MPS 6000 SCT100 \n  FM061200 22003G08MPS 3100 BR FU SCT100 \n  TEMPO 0612/0618 1200",
      "metarHtml": "METAR UAAA 052230Z 00000MPS 4500 <span class=\"hl\">BR</span> SCT050 M03/M04 Q1035 NOSIG",
      "tafHtml": "TAF UAAA 051701Z 0518/0618 06003MPS 3100 <span class=\"hl\">BR</span> FU BKN011 OVC030 TX01/0609Z TNM03/0602Z \n  TEMPO 0518/0604 <span class=\"hl-vis\">0400</span> <span class=\"hl\">FZFG</span> OVC005 \n  FM060500 06003G08MPS 6000 SCT100 \n  FM061200 22003G08MPS 3100 <span class=\"hl\">BR</span> FU SCT100 \n  TEMPO 0612/0618 1200"
    },
    {
      "icao": "LFOB",
      "iata": "BVA",
      "name": "Beauvais Tillé airport",
      "updatedAt": "052230Z",
      "visibility_m": 500,
      "taf_visibility_m": null,
      "worst_visibility_m": 500,
      "ceiling_ft": 2800,
      "hazards": [
        "FZFG"
      ],
      "severityScore": 70,
      "metarRaw": "METAR LFOB 052230Z AUTO 29007KT 9999 OVC028 M03/M03 Q1016 TEMPO 0500 FZFG VV///",
      "tafRaw": null,
      "metarHtml": "METAR LFOB 052230Z AUTO 29007KT 9999 OVC028 M03/M03 Q1016 TEMPO <span class=\"hl-vis\">0500</span> <span class=\"hl\">FZFG</span> VV///",
      "tafHtml": null
    },
    {
      "icao": "LRTM",
      "iata": "TGM",
      "name": "Târgu Mureş Transilvania International Airport",
      "updatedAt": "052230Z",
      "visibility_m": 2900,
      "taf_visibility_m": 1500,
      "worst_visibility_m": 1500,
      "ceiling_ft": null,
      "hazards": [
        "BR",
        "FZRA",
        "DZ"
      ],
      "severityScore": 65,
      "metarRaw": "METAR LRTM 052230Z AUTO 09004KT 2900 BKN055/// OVC075/// 00/M00 Q1009 REFZRA",
      "tafRaw": "TAF LRTM 051400Z 0515/0524 VRB04KT 3000 -RASN BR BKN010 OVC025 \n  TEMPO 0515/0518 -FZRA BR BKN005 OVC020 \n  BECMG 0518/0520 1500 -DZ BR OVC002",
      "metarHtml": "METAR LRTM 052230Z AUTO 09004KT 2900 BKN055/// OVC075/// 00/M00 Q1009 REFZRA",
      "tafHtml": "TAF LRTM 051400Z 0515/0524 VRB04KT 3000 -RASN <span class=\"hl\">BR</span> BKN010 OVC025 \n  TEMPO 0515/0518 -<span class=\"hl\">FZRA</span> <span class=\"hl\">BR</span> BKN005 OVC020 \n  BECMG 0518/0520 1500 -<span class=\"hl\">DZ</span> <span class=\"hl\">BR</span> OVC002"
    },
    {
      "icao": "UDYZ",
      "iata": "EVN",
      "name": "Zvartnots International Airport",
      "updatedAt": "052230Z",
      "visibility_m": 2900,
      "taf_visibility_m": 600,
      "worst_visibility_m": 600,
      "ceiling_ft": null,
      "hazards": [
        "BR",
        "FZFG"
      ],
      "severityScore": 65,
      "metarRaw": "METAR UDYZ 052230Z 05002KT 2900 BR NSC M13/M15 Q1032 NOSIG",
      "tafRaw": "TAF UDYZ 051700Z 0518/0618 VRB04KT 2300 BR NSC \n  TEMPO 0521/0606 0600 FZFG VV003",
      "metarHtml": "METAR UDYZ 052230Z 05002KT 2900 <span class=\"hl\">BR</span> NSC M13/M15 Q1032 NOSIG",
      "tafHtml": "TAF UDYZ 051700Z 0518/0618 VRB04KT 2300 <span class=\"hl\">BR</span> NSC \n  TEMPO 0521/0606 <span class=\"hl-vis\">0600</span> <span class=\"hl\">FZFG</span> VV003"
    },
    {
      "icao": "LFPO",
      "iata": "ORY",
      "name": "Paris-Orly Airport",
      "updatedAt": "052230Z",
      "visibility_m": 2500,
      "taf_visibility_m": 2500,
      "worst_visibility_m": 2500,
      "ceiling_ft": 400,
      "hazards": [
        "BR",
        "SN"
      ],
      "severityScore": 63,
      "metarRaw": "METAR LFPO 052230Z AUTO 31005KT 6000 FEW006 BKN032 BKN049 M02/M02 Q1016 TEMPO 2500 BR BKN004",
      "tafRaw": "TAF LFPO 051700Z 0518/0624 26004KT 6000 BKN008 \n  TEMPO 0518/0602 2500 BR BKN004 \n  PROB30 \n  TEMPO 0518/0519 -SN \n  BECMG 0602/0604 SCT012 \n  BECMG 0607/0609 CAVOK",
      "metarHtml": "METAR LFPO 052230Z AUTO 31005KT 6000 FEW006 BKN032 BKN049 M02/M02 Q1016 TEMPO 2500 <span class=\"hl\">BR</span> BKN004",
      "tafHtml": "TAF LFPO 051700Z 0518/0624 26004KT 6000 BKN008 \n  TEMPO 0518/0602 2500 <span class=\"hl\">BR</span> BKN004 \n  PROB30 \n  TEMPO 0518/0519 -<span class=\"hl\">SN</span> \n  BECMG 0602/0604 SCT012 \n  BECMG 0607/0609 <span class=\"hl-vis\">CAVOK</span>"
    },
    {
      "icao": "LZKZ",
      "iata": "KSC",
      "name": "Košice International Airport",
      "updatedAt": "052230Z",
      "visibility_m": 1200,
      "taf_visibility_m": 1200,
      "worst_visibility_m": 1200,
      "ceiling_ft": 900,
      "hazards": [
        "BR",
        "SN"
      ],
      "severityScore": 63,
      "metarRaw": "METAR LZKZ 052230Z 03006KT 2400 SN BR OVC014 M02/M03 Q1009 TEMPO 1200 SN OVC009",
      "tafRaw": "TAF LZKZ 051715Z 0518/0618 02006KT 9999 SCT040 \n  TEMPO 0518/0606 4000 -SN FEW012 BKN025 \n  PROB30 \n  TEMPO 0519/0600 1200 SN BKN008 OVC020 \n  TEMPO 0615/0618 02016KT 4000 -SN BKN040",
      "metarHtml": "METAR LZKZ 052230Z 03006KT 2400 <span class=\"hl\">SN</span> <span class=\"hl\">BR</span> OVC014 M02/M03 Q1009 TEMPO 1200 <span class=\"hl\">SN</span> OVC009",
      "tafHtml": "TAF LZKZ 051715Z 0518/0618 02006KT 9999 SCT040 \n  TEMPO 0518/0606 4000 -<span class=\"hl\">SN</span> FEW012 BKN025 \n  PROB30 \n  TEMPO 0519/0600 1200 <span class=\"hl\">SN</span> BKN008 OVC020 \n  TEMPO 0615/0618 02016KT 4000 -<span class=\"hl\">SN</span> BKN040"
    },
    {
      "icao": "LRSM",
      "iata": "SUJ",
      "name": "Satu Mare International Airport",
      "updatedAt": "052230Z",
      "visibility_m": 1600,
      "taf_visibility_m": 3000,
      "worst_visibility_m": 1600,
      "ceiling_ft": null,
      "hazards": [
        "DZ",
        "BR",
        "FZRA"
      ],
      "severityScore": 55,
      "metarRaw": "METAR LRSM 052230Z AUTO 00000KT 1600 R19/1800U DZ FEW026/// BKN036/// OVC047/// 01/00 Q1009",
      "tafRaw": "TAF LRSM 051400Z 0515/0524 06006KT 9999 BKN035 \n  BECMG 0520/0522 3000 -SNRA BR BKN005 OVC030 \n  PROB30 \n  TEMPO 0522/0524 -FZRA",
      "metarHtml": "METAR LRSM 052230Z AUTO 00000KT 1600 R19/1800U <span class=\"hl\">DZ</span> FEW026/// BKN036/// OVC047/// 01/00 Q1009",
      "tafHtml": "TAF LRSM 051400Z 0515/0524 06006KT 9999 BKN035 \n  BECMG 0520/0522 3000 -SNRA <span class=\"hl\">BR</span> BKN005 OVC030 \n  PROB30 \n  TEMPO 0522/0524 -<span class=\"hl\">FZRA</span>"
    },
    {
      "icao": "EGPF",
      "iata": "GLA",
      "name": "Glasgow Airport",
      "updatedAt": "052220Z",
      "visibility_m": 10000,
      "taf_visibility_m": 1200,
      "worst_visibility_m": 1200,
      "ceiling_ft": null,
      "hazards": [
        "SN",
        "RA",
        "SHRA"
      ],
      "severityScore": 54,
      "metarRaw": "METAR EGPF 052220Z AUTO 26005KT 9999 NCD M02/M04 Q1017",
      "tafRaw": "TAF EGPF 051655Z 0518/0618 28005KT CAVOK \n  BECMG 0600/0603 BKN020 \n  TEMPO 0602/0609 4000 RA -RASN BKN005 \n  PROB30 \n  TEMPO 0602/0609 1200 SN BKN003 \n  BECMG 0609/0612 21010KT \n  TEMPO 0609/0614 BKN014 \n  PROB30 \n  TEMPO 0609/0614 5000 -RA \n  TEMPO 0614/0618 4000 RA SHRA BKN005 \n  BECMG 0615/0618 28010KT",
      "metarHtml": "METAR EGPF 052220Z AUTO 26005KT 9999 NCD M02/M04 Q1017",
      "tafHtml": "TAF EGPF 051655Z 0518/0618 28005KT <span class=\"hl-vis\">CAVOK</span> \n  BECMG 0600/0603 BKN020 \n  TEMPO 0602/0609 4000 <span class=\"hl\">RA</span> -RASN BKN005 \n  PROB30 \n  TEMPO 0602/0609 1200 <span class=\"hl\">SN</span> BKN003 \n  BECMG 0609/0612 21010KT \n  TEMPO 0609/0614 BKN014 \n  PROB30 \n  TEMPO 0609/0614 5000 -<span class=\"hl\">RA</span> \n  TEMPO 0614/0618 4000 <span class=\"hl\">RA</span> <span class=\"hl\">SHRA</span> BKN005 \n  BECMG 0615/0618 28010KT"
    },
    {
      "icao": "EKCH",
      "iata": "CPH",
      "name": "Copenhagen Kastrup Airport",
      "updatedAt": "052220Z",
      "visibility_m": 1200,
      "taf_visibility_m": 1000,
      "worst_visibility_m": 1000,
      "ceiling_ft": 1200,
      "hazards": [
        "SHSN",
        "SN"
      ],
      "severityScore": 50,
      "metarRaw": "METAR EKCH 052220Z 24005KT 6000 -RASN FEW009 SCT010 BKN042 M00/M01 Q1010 TEMPO 1200 SHSN BKN012 SCT020CB",
      "tafRaw": "TAF EKCH 052027Z 0521/0621 23004KT 8000 SCT030 \n  TEMPO 0521/0524 1000 SHSN BKN009 SCT020CB \n  TEMPO 0600/0617 BKN012 \n  TEMPO 0617/0621 2000 SN BKN009",
      "metarHtml": "METAR EKCH 052220Z 24005KT 6000 -RASN FEW009 SCT010 BKN042 M00/M01 Q1010 TEMPO 1200 <span class=\"hl\">SHSN</span> BKN012 SCT020CB",
      "tafHtml": "TAF EKCH 052027Z 0521/0621 23004KT 8000 SCT030 \n  TEMPO 0521/0524 1000 <span class=\"hl\">SHSN</span> BKN009 SCT020CB \n  TEMPO 0600/0617 BKN012 \n  TEMPO 0617/0621 2000 <span class=\"hl\">SN</span> BKN009"
    },
    {
      "icao": "ENHD",
      "iata": "HAU",
      "name": "Haugesund Airport, Karmøy",
      "updatedAt": "052220Z",
      "visibility_m": 10000,
      "taf_visibility_m": 1200,
      "worst_visibility_m": 1200,
      "ceiling_ft": 1800,
      "hazards": [
        "SN",
        "SHSN"
      ],
      "severityScore": 50,
      "metarRaw": "METAR ENHD 052220Z 09013KT 9999 -SN OVC018 M03/M05 Q1010",
      "tafRaw": "TAF ENHD 051400Z 0515/0523 11015KT 9999 -SHSN FEW015CB BKN025 \n  TEMPO 0515/0521 1200 SHSNGS VV009",
      "metarHtml": "METAR ENHD 052220Z 09013KT 9999 -<span class=\"hl\">SN</span> OVC018 M03/M05 Q1010",
      "tafHtml": "TAF ENHD 051400Z 0515/0523 11015KT 9999 -<span class=\"hl\">SHSN</span> FEW015CB BKN025 \n  TEMPO 0515/0521 1200 SHSNGS VV009"
    },
    {
      "icao": "EYPA",
      "iata": "PLQ",
      "name": "Palanga International Airport",
      "updatedAt": "052220Z",
      "visibility_m": 7000,
      "taf_visibility_m": null,
      "worst_visibility_m": 7000,
      "ceiling_ft": 400,
      "hazards": [
        "SHSN"
      ],
      "severityScore": 50,
      "metarRaw": "METAR EYPA 052220Z 15008KT 7000 -SHSN BKN004 BKN007CB M03/M04 Q1015",
      "tafRaw": null,
      "metarHtml": "METAR EYPA 052220Z 15008KT 7000 -<span class=\"hl\">SHSN</span> BKN004 BKN007CB M03/M04 Q1015",
      "tafHtml": null
    },
    {
      "icao": "LHBP",
      "iata": "BUD",
      "name": "Budapest Liszt Ferenc International Airport",
      "updatedAt": "052230Z",
      "visibility_m": 3700,
      "taf_visibility_m": 1000,
      "worst_visibility_m": 1000,
      "ceiling_ft": 1800,
      "hazards": [
        "SN",
        "BR"
      ],
      "severityScore": 50,
      "metarRaw": "METAR LHBP 052230Z 33006KT 3700 -SN SCT005 BKN018 OVC044 M02/M03 Q1011 TEMPO 5000",
      "tafRaw": "TAF LHBP 051715Z 0518/0618 35006KT 5000 -SN SCT010 OVC020 \n  TEMPO 0518/0601 1000 SN BR BKN004 OVC020 \n  BECMG 0603/0606 9999 NSW BKN030 \n  BECMG 0606/0609 CAVOK \n  BECMG 0614/0617 4000 -SN BKN018 OVC035 \n  TEMPO 0617/0618 1200 SN BKN006 OVC015",
      "metarHtml": "METAR LHBP 052230Z 33006KT 3700 -<span class=\"hl\">SN</span> SCT005 BKN018 OVC044 M02/M03 Q1011 TEMPO 5000",
      "tafHtml": "TAF LHBP 051715Z 0518/0618 35006KT 5000 -<span class=\"hl\">SN</span> SCT010 OVC020 \n  TEMPO 0518/0601 1000 <span class=\"hl\">SN</span> <span class=\"hl\">BR</span> BKN004 OVC020 \n  BECMG 0603/0606 9999 NSW BKN030 \n  BECMG 0606/0609 <span class=\"hl-vis\">CAVOK</span> \n  BECMG 0614/0617 4000 -<span class=\"hl\">SN</span> BKN018 OVC035 \n  TEMPO 0617/0618 1200 <span class=\"hl\">SN</span> BKN006 OVC015"
    },
    {
      "icao": "EDDH",
      "iata": "HAM",
      "name": "Hamburg Helmut Schmidt Airport",
      "updatedAt": "052220Z",
      "visibility_m": 10000,
      "taf_visibility_m": 1000,
      "worst_visibility_m": 1000,
      "ceiling_ft": 800,
      "hazards": [
        "SHSN"
      ],
      "severityScore": 45,
      "metarRaw": "METAR EDDH 052220Z AUTO 21007KT 9999 OVC011 M01/M02 Q1011 TEMPO BKN008",
      "tafRaw": "TAF EDDH 051700Z 0518/0624 21004KT 9999 BKN015 \n  TEMPO 0518/0614 BKN006 \n  PROB30 \n  TEMPO 0518/0610 1000 SHSN BKN004 BKN012CB \n  PROB40 \n  TEMPO 0614/0618 1200 SHSN BKN012CB \n  BECMG 0616/0619 23009KT \n  BECMG 0618/0620 BKN008 \n  PROB40 \n  TEMPO 0620/0624 BKN004",
      "metarHtml": "METAR EDDH 052220Z AUTO 21007KT 9999 OVC011 M01/M02 Q1011 TEMPO BKN008",
      "tafHtml": "TAF EDDH 051700Z 0518/0624 21004KT 9999 BKN015 \n  TEMPO 0518/0614 BKN006 \n  PROB30 \n  TEMPO 0518/0610 1000 <span class=\"hl\">SHSN</span> BKN004 BKN012CB \n  PROB40 \n  TEMPO 0614/0618 1200 <span class=\"hl\">SHSN</span> BKN012CB \n  BECMG 0616/0619 23009KT \n  BECMG 0618/0620 BKN008 \n  PROB40 \n  TEMPO 0620/0624 BKN004"
    },
    {
      "icao": "ESSA",
      "iata": "ARN",
      "name": "Stockholm-Arlanda Airport",
      "updatedAt": "052220Z",
      "visibility_m": 1400,
      "taf_visibility_m": 1400,
      "worst_visibility_m": 1400,
      "ceiling_ft": 900,
      "hazards": [
        "SHSN"
      ],
      "severityScore": 45,
      "metarRaw": "METAR ESSA 052220Z 07009KT CAVOK M06/M09 Q1013 TEMPO 1400 SHSN BKN009",
      "tafRaw": "TAF ESSA 052030Z 0521/0621 04010KT 9999 FEW035 \n  TEMPO 0523/0614 1400 SHSN BKN009 BKN015CB \n  BECMG 0523/0601 10010G20KT \n  BECMG 0610/0612 VRB02KT",
      "metarHtml": "METAR ESSA 052220Z 07009KT <span class=\"hl-vis\">CAVOK</span> M06/M09 Q1013 TEMPO 1400 <span class=\"hl\">SHSN</span> BKN009",
      "tafHtml": "TAF ESSA 052030Z 0521/0621 04010KT 9999 FEW035 \n  TEMPO 0523/0614 1400 <span class=\"hl\">SHSN</span> BKN009 BKN015CB \n  BECMG 0523/0601 10010G20KT \n  BECMG 0610/0612 VRB02KT"
    },
    {
      "icao": "HESX",
      "iata": "SPX",
      "name": "Sphinx International Airport",
      "updatedAt": "052200Z",
      "visibility_m": 6000,
      "taf_visibility_m": 800,
      "worst_visibility_m": 800,
      "ceiling_ft": null,
      "hazards": [
        "FG"
      ],
      "severityScore": 45,
      "metarRaw": "METAR HESX 052200Z 14002KT 6000 NSC 09/04 Q1019 NOSIG",
      "tafRaw": "TAF HESX 051700Z 0518/0624 26006KT CAVOK \n  TEMPO 0600/0608 VRB03KT 3000 HZ NSC \n  PROB40 \n  TEMPO 0602/0606 0800 FG \n  BECMG 0612/0614 03007KT 9999 SCT025",
      "metarHtml": "METAR HESX 052200Z 14002KT 6000 NSC 09/04 Q1019 NOSIG",
      "tafHtml": "TAF HESX 051700Z 0518/0624 26006KT <span class=\"hl-vis\">CAVOK</span> \n  TEMPO 0600/0608 VRB03KT 3000 HZ NSC \n  PROB40 \n  TEMPO 0602/0606 <span class=\"hl-vis\">0800</span> <span class=\"hl\">FG</span> \n  BECMG 0612/0614 03007KT 9999 SCT025"
    },
    {
      "icao": "EETN",
      "iata": "TLL",
      "name": "Lennart Meri Tallinn Airport",
      "updatedAt": "052220Z",
      "visibility_m": 10000,
      "taf_visibility_m": 800,
      "worst_visibility_m": 800,
      "ceiling_ft": null,
      "hazards": [
        "SN"
      ],
      "severityScore": 43,
      "metarRaw": "METAR EETN 052220Z 15004KT CAVOK M14/M15 Q1020",
      "tafRaw": "TAF EETN 051730Z 0518/0618 VRB02KT CAVOK \n  PROB40 \n  TEMPO 0518/0606 0800 BCFG BKN002 \n  BECMG 0606/0608 12012KT \n  PROB40 \n  TEMPO 0606/0610 BKN003 \n  BECMG 0611/0613 SCT010 BKN020 \n  TEMPO 0613/0618 2500 SN BKN010",
      "metarHtml": "METAR EETN 052220Z 15004KT <span class=\"hl-vis\">CAVOK</span> M14/M15 Q1020",
      "tafHtml": "TAF EETN 051730Z 0518/0618 VRB02KT <span class=\"hl-vis\">CAVOK</span> \n  PROB40 \n  TEMPO 0518/0606 <span class=\"hl-vis\">0800</span> BCFG BKN002 \n  BECMG 0606/0608 12012KT \n  PROB40 \n  TEMPO 0606/0610 BKN003 \n  BECMG 0611/0613 SCT010 BKN020 \n  TEMPO 0613/0618 2500 <span class=\"hl\">SN</span> BKN010"
    },
    {
      "icao": "EHEH",
      "iata": "EIN",
      "name": "Eindhoven Airport",
      "updatedAt": "052225Z",
      "visibility_m": 8000,
      "taf_visibility_m": null,
      "worst_visibility_m": 8000,
      "ceiling_ft": 800,
      "hazards": [
        "BR"
      ],
      "severityScore": 40,
      "metarRaw": "METAR EHEH 052225Z AUTO 21010KT 8000 BR FEW007 BKN008 OVC009 M01/M03 Q1012 REFZDZ GRN NOSIG RMK TREND REMOTE BY EHWX",
      "tafRaw": null,
      "metarHtml": "METAR EHEH 052225Z AUTO 21010KT 8000 <span class=\"hl\">BR</span> FEW007 BKN008 OVC009 M01/M03 Q1012 REFZDZ GRN NOSIG RMK TREND REMOTE BY EHWX",
      "tafHtml": null
    },
    {
      "icao": "LIPR",
      "iata": "RMI",
      "name": "Federico Fellini International Airport",
      "updatedAt": "052220Z",
      "visibility_m": 10000,
      "taf_visibility_m": 1200,
      "worst_visibility_m": 1200,
      "ceiling_ft": null,
      "hazards": [
        "SN",
        "RA"
      ],
      "severityScore": 40,
      "metarRaw": "METAR LIPR 052220Z AUTO 30012KT 9999 OVC018/// 03/M01 Q1008",
      "tafRaw": "TAF LIPR 051700Z 0518/0618 30012KT 9999 BKN020 \n  BECMG 0607/0609 1200 SN OVC004 \n  BECMG 0616/0618 02010KT 4000 -RA BKN010",
      "metarHtml": "METAR LIPR 052220Z AUTO 30012KT 9999 OVC018/// 03/M01 Q1008",
      "tafHtml": "TAF LIPR 051700Z 0518/0618 30012KT 9999 BKN020 \n  BECMG 0607/0609 1200 <span class=\"hl\">SN</span> OVC004 \n  BECMG 0616/0618 02010KT 4000 -<span class=\"hl\">RA</span> BKN010"
    },
    {
      "icao": "LJLJ",
      "iata": "LJU",
      "name": "Ljubljana Jože Pučnik Airport",
      "updatedAt": "052230Z",
      "visibility_m": 10000,
      "taf_visibility_m": 2000,
      "worst_visibility_m": 2000,
      "ceiling_ft": 1500,
      "hazards": [
        "BR",
        "SN"
      ],
      "severityScore": 40,
      "metarRaw": "METAR LJLJ 052230Z 09003KT 9999 BKN015 OVC055 M03/M04 Q1010 NOSIG",
      "tafRaw": "TAF LJLJ 051700Z 0518/0618 10004KT 7000 -SN SCT020 OVC040 \n  TEMPO 0518/0609 3500 SN BR \n  TEMPO 0609/0616 2000 BKN013 OVC025",
      "metarHtml": "METAR LJLJ 052230Z 09003KT 9999 BKN015 OVC055 M03/M04 Q1010 NOSIG",
      "tafHtml": "TAF LJLJ 051700Z 0518/0618 10004KT 7000 -<span class=\"hl\">SN</span> SCT020 OVC040 \n  TEMPO 0518/0609 3500 <span class=\"hl\">SN</span> <span class=\"hl\">BR</span> \n  TEMPO 0609/0616 2000 BKN013 OVC025"
    },
    {
      "icao": "LEMG",
      "iata": "AGP",
      "name": "Málaga-Costa del Sol Airport",
      "updatedAt": "052230Z",
      "visibility_m": 10000,
      "taf_visibility_m": 4000,
      "worst_visibility_m": 4000,
      "ceiling_ft": null,
      "hazards": [
        "TS",
        "SHRA"
      ],
      "severityScore": 39,
      "metarRaw": "METAR LEMG 052230Z 27015KT 9999 FEW022 SCT070 10/07 Q1009 NOSIG",
      "tafRaw": "TAF LEMG 051700Z 0518/0618 VRB04KT 9999 FEW050 TX12/0614Z TN04/0606Z \n  TEMPO 0518/0520 4000 TS SHRA FEW015CB \n  BECMG 0518/0520 28012KT \n  TEMPO 0521/0616 30015G25KT",
      "metarHtml": "METAR LEMG 052230Z 27015KT 9999 FEW022 SCT070 10/07 Q1009 NOSIG",
      "tafHtml": "TAF LEMG 051700Z 0518/0618 VRB04KT 9999 FEW050 TX12/0614Z TN04/0606Z \n  TEMPO 0518/0520 4000 <span class=\"hl\">TS</span> <span class=\"hl\">SHRA</span> FEW015CB \n  BECMG 0518/0520 28012KT \n  TEMPO 0521/0616 30015G25KT"
    },
    {
      "icao": "LIRF",
      "iata": "FCO",
      "name": "Rome–Fiumicino Leonardo da Vinci International Airport",
      "updatedAt": "052220Z",
      "visibility_m": 10000,
      "taf_visibility_m": 3000,
      "worst_visibility_m": 3000,
      "ceiling_ft": null,
      "hazards": [
        "TSRA",
        "SHRA"
      ],
      "severityScore": 39,
      "metarRaw": "METAR LIRF 052220Z 08006KT 9999 FEW020 SCT040 10/10 Q1003 NOSIG",
      "tafRaw": "TAF LIRF 051700Z 0518/0624 09008KT 9999 SCT020 \n  TEMPO 0523/0615 3000 SHRA \n  BECMG 0600/0602 03013KT \n  PROB40 \n  TEMPO 0608/0612 3000 TSRA",
      "metarHtml": "METAR LIRF 052220Z 08006KT 9999 FEW020 SCT040 10/10 Q1003 NOSIG",
      "tafHtml": "TAF LIRF 051700Z 0518/0624 09008KT 9999 SCT020 \n  TEMPO 0523/0615 3000 <span class=\"hl\">SHRA</span> \n  BECMG 0600/0602 03013KT \n  PROB40 \n  TEMPO 0608/0612 3000 <span class=\"hl\">TSRA</span>"
    },
    {
      "icao": "LIRN",
      "iata": "NAP",
      "name": "Naples International Airport",
      "updatedAt": "052220Z",
      "visibility_m": 10000,
      "taf_visibility_m": 4000,
      "worst_visibility_m": 4000,
      "ceiling_ft": null,
      "hazards": [
        "TSRA",
        "SHRA"
      ],
      "severityScore": 39,
      "metarRaw": "METAR LIRN 052220Z 31003KT 9999 SCT070 12/10 Q1003 NOSIG",
      "tafRaw": "TAF LIRN 051700Z 0518/0618 VRB06KT 9999 SCT020 SCT050 \n  TEMPO 0600/0614 4000 SHRA \n  BECMG 0605/0607 18013KT \n  TEMPO 0614/0618 4000 TSRA \n  BECMG 0615/0617 24010KT",
      "metarHtml": "METAR LIRN 052220Z 31003KT 9999 SCT070 12/10 Q1003 NOSIG",
      "tafHtml": "TAF LIRN 051700Z 0518/0618 VRB06KT 9999 SCT020 SCT050 \n  TEMPO 0600/0614 4000 <span class=\"hl\">SHRA</span> \n  BECMG 0605/0607 18013KT \n  TEMPO 0614/0618 4000 <span class=\"hl\">TSRA</span> \n  BECMG 0615/0617 24010KT"
    },
    {
      "icao": "EHBK",
      "iata": "MST",
      "name": "Maastricht Aachen Airport",
      "updatedAt": "052225Z",
      "visibility_m": 10000,
      "taf_visibility_m": 1200,
      "worst_visibility_m": 1200,
      "ceiling_ft": null,
      "hazards": [
        "BR",
        "SN"
      ],
      "severityScore": 38,
      "metarRaw": "METAR EHBK 052225Z AUTO 20013KT 9999 OVC016/// M02/M04 Q1012",
      "tafRaw": "TAF EHBK 051721Z 0518/0624 22007KT 9999 BKN008 \n  PROB40 0518/0524 BKN025 \n  PROB30 \n  TEMPO 0521/0601 2000 -SN BKN004 \n  BECMG 0600/0603 2500 BR \n  PROB40 0605/0611 1200 BCFG BR BKN001 \n  BECMG 0612/0615 BKN030",
      "metarHtml": "METAR EHBK 052225Z AUTO 20013KT 9999 OVC016/// M02/M04 Q1012",
      "tafHtml": "TAF EHBK 051721Z 0518/0624 22007KT 9999 BKN008 \n  PROB40 0518/0524 BKN025 \n  PROB30 \n  TEMPO 0521/0601 2000 -<span class=\"hl\">SN</span> BKN004 \n  BECMG 0600/0603 2500 <span class=\"hl\">BR</span> \n  PROB40 0605/0611 1200 BCFG <span class=\"hl\">BR</span> BKN001 \n  BECMG 0612/0615 BKN030"
    },
    {
      "icao": "ESKN",
      "iata": "NYO",
      "name": "Stockholm Skavsta Airport",
      "updatedAt": "052220Z",
      "visibility_m": 10000,
      "taf_visibility_m": 1400,
      "worst_visibility_m": 1400,
      "ceiling_ft": 3000,
      "hazards": [
        "SN",
        "SHSN"
      ],
      "severityScore": 38,
      "metarRaw": "METAR ESKN 052220Z VRB01KT 9999 SCT025 BKN030 M03/M04 Q1011",
      "tafRaw": "TAF ESKN 052030Z 0521/0621 06008KT 8000 -SN BKN030 \n  TEMPO 0521/0609 1400 SHSN BKN005 BKN025CB",
      "metarHtml": "METAR ESKN 052220Z VRB01KT 9999 SCT025 BKN030 M03/M04 Q1011",
      "tafHtml": "TAF ESKN 052030Z 0521/0621 06008KT 8000 -<span class=\"hl\">SN</span> BKN030 \n  TEMPO 0521/0609 1400 <span class=\"hl\">SHSN</span> BKN005 BKN025CB"
    },
    {
      "icao": "LIPE",
      "iata": "BLQ",
      "name": "Bologna Guglielmo Marconi Airport",
      "updatedAt": "052220Z",
      "visibility_m": 10000,
      "taf_visibility_m": 1200,
      "worst_visibility_m": 1200,
      "ceiling_ft": 4000,
      "hazards": [
        "BR",
        "SN"
      ],
      "severityScore": 38,
      "metarRaw": "METAR LIPE 052220Z 28004KT 9999 BKN040 03/M02 Q1009",
      "tafRaw": "TAF LIPE 051700Z 0518/0618 28007KT 9999 BKN020 \n  BECMG 0607/0609 1200 SN OVC004 \n  BECMG 0614/0616 4000 BR BKN010",
      "metarHtml": "METAR LIPE 052220Z 28004KT 9999 BKN040 03/M02 Q1009",
      "tafHtml": "TAF LIPE 051700Z 0518/0618 28007KT 9999 BKN020 \n  BECMG 0607/0609 1200 <span class=\"hl\">SN</span> OVC004 \n  BECMG 0614/0616 4000 <span class=\"hl\">BR</span> BKN010"
    },
    {
      "icao": "LATI",
      "iata": "TIA",
      "name": "Tirana International Airport Mother Teresa",
      "updatedAt": "052220Z",
      "visibility_m": 10000,
      "taf_visibility_m": 4000,
      "worst_visibility_m": 4000,
      "ceiling_ft": 5000,
      "hazards": [
        "RA",
        "TSRA"
      ],
      "severityScore": 37,
      "metarRaw": "METAR LATI 052220Z 17004KT 9999 -RA FEW025CB OVC050 11/09 Q1005 NOSIG",
      "tafRaw": "TAF LATI 051700Z 0518/0618 14012KT 9999 SCT040 BKN080 TX18/0612Z TN12/0605Z \n  TEMPO 0519/0604 RA BKN025 OVC040 \n  PROB40 \n  TEMPO 0520/0601 4000 TSRA SCT025CB",
      "metarHtml": "METAR LATI 052220Z 17004KT 9999 -<span class=\"hl\">RA</span> FEW025CB OVC050 11/09 Q1005 NOSIG",
      "tafHtml": "TAF LATI 051700Z 0518/0618 14012KT 9999 SCT040 BKN080 TX18/0612Z TN12/0605Z \n  TEMPO 0519/0604 <span class=\"hl\">RA</span> BKN025 OVC040 \n  PROB40 \n  TEMPO 0520/0601 4000 <span class=\"hl\">TSRA</span> SCT025CB"
    },
    {
      "icao": "LYPG",
      "iata": "TGD",
      "name": "Podgorica Airport / Podgorica Golubovci Airbase",
      "updatedAt": "052230Z",
      "visibility_m": 10000,
      "taf_visibility_m": 3000,
      "worst_visibility_m": 3000,
      "ceiling_ft": 4000,
      "hazards": [
        "RA",
        "TSRA"
      ],
      "severityScore": 37,
      "metarRaw": "METAR LYPG 052230Z 14010KT 9999 -RA FEW026 BKN040 OVC070 12/09 Q1006 NOSIG",
      "tafRaw": "TAF LYPG 051700Z 0518/0618 14012KT 6000 RA FEW015 BKN040 OVC070 TX14/0613Z TN11/0605Z \n  TEMPO 0518/0618 15018G28KT 3000 TSRA FEW010 SCT025CB BKN034",
      "metarHtml": "METAR LYPG 052230Z 14010KT 9999 -<span class=\"hl\">RA</span> FEW026 BKN040 OVC070 12/09 Q1006 NOSIG",
      "tafHtml": "TAF LYPG 051700Z 0518/0618 14012KT 6000 <span class=\"hl\">RA</span> FEW015 BKN040 OVC070 TX14/0613Z TN11/0605Z \n  TEMPO 0518/0618 15018G28KT 3000 <span class=\"hl\">TSRA</span> FEW010 SCT025CB BKN034"
    },
    {
      "icao": "ENTO",
      "iata": "TRF",
      "name": "Sandefjord Airport, Torp",
      "updatedAt": "052220Z",
      "visibility_m": 10000,
      "taf_visibility_m": null,
      "worst_visibility_m": 10000,
      "ceiling_ft": 1300,
      "hazards": [
        "SN"
      ],
      "severityScore": 35,
      "metarRaw": "METAR ENTO 052220Z 01010KT 9999 -SN BKN013 OVC023 M08/M10 Q1012",
      "tafRaw": null,
      "metarHtml": "METAR ENTO 052220Z 01010KT 9999 -<span class=\"hl\">SN</span> BKN013 OVC023 M08/M10 Q1012",
      "tafHtml": null
    },
    {
      "icao": "ESMS",
      "iata": "MMX",
      "name": "Malmö Sturup Airport",
      "updatedAt": "052220Z",
      "visibility_m": 4000,
      "taf_visibility_m": 1000,
      "worst_visibility_m": 1000,
      "ceiling_ft": 1800,
      "hazards": [
        "SHSN"
      ],
      "severityScore": 32,
      "metarRaw": "METAR ESMS 052220Z 00000KT 4000 FEW007 SCT013 BKN018 M02/M02 Q1010",
      "tafRaw": "TAF ESMS 052027Z 0521/0621 18004KT 9999 BKN015 \n  TEMPO 0521/0524 1000 SHSN BKN003 SCT020CB \n  TEMPO 0600/0613 2000 SHSN BKN008 SCT020CB \n  TEMPO 0613/0621 BKN012",
      "metarHtml": "METAR ESMS 052220Z 00000KT 4000 FEW007 SCT013 BKN018 M02/M02 Q1010",
      "tafHtml": "TAF ESMS 052027Z 0521/0621 18004KT 9999 BKN015 \n  TEMPO 0521/0524 1000 <span class=\"hl\">SHSN</span> BKN003 SCT020CB \n  TEMPO 0600/0613 2000 <span class=\"hl\">SHSN</span> BKN008 SCT020CB \n  TEMPO 0613/0621 BKN012"
    },
    {
      "icao": "LEXJ",
      "iata": "SDR",
      "name": "Seve Ballesteros-Santander Airport",
      "updatedAt": "052230Z",
      "visibility_m": 3900,
      "taf_visibility_m": 1500,
      "worst_visibility_m": 1500,
      "ceiling_ft": 2100,
      "hazards": [
        "BR",
        "RA"
      ],
      "severityScore": 32,
      "metarRaw": "METAR LEXJ 052230Z AUTO 25011KT 3900 -RA BR FEW013 OVC021 05/03 Q1016 RERA",
      "tafRaw": "TAF LEXJ 052000Z 0521/0621 22005KT 9999 SCT010 BKN040 TX09/0614Z TN03/0523Z \n  TEMPO 0521/0603 3000 RA BKN010 \n  PROB30 \n  TEMPO 0521/0603 1500 SHRAGS SCT025TCU \n  BECMG 0523/0601 35012KT \n  TEMPO 0600/0610 35022G34KT \n  BECMG 0616/0618 20009KT",
      "metarHtml": "METAR LEXJ 052230Z AUTO 25011KT 3900 -<span class=\"hl\">RA</span> <span class=\"hl\">BR</span> FEW013 OVC021 05/03 Q1016 RERA",
      "tafHtml": "TAF LEXJ 052000Z 0521/0621 22005KT 9999 SCT010 BKN040 TX09/0614Z TN03/0523Z \n  TEMPO 0521/0603 3000 <span class=\"hl\">RA</span> BKN010 \n  PROB30 \n  TEMPO 0521/0603 1500 SHRAGS SCT025TCU \n  BECMG 0523/0601 35012KT \n  TEMPO 0600/0610 35022G34KT \n  BECMG 0616/0618 20009KT"
    },
    {
      "icao": "EDDK",
      "iata": "CGN",
      "name": "Cologne Bonn Airport",
      "updatedAt": "052220Z",
      "visibility_m": 10000,
      "taf_visibility_m": 1400,
      "worst_visibility_m": 1400,
      "ceiling_ft": 2900,
      "hazards": [
        "BR",
        "SHSN"
      ],
      "severityScore": 30,
      "metarRaw": "METAR EDDK 052220Z AUTO 15005KT 9999 BKN029 OVC036 M02/M04 Q1013 NOSIG",
      "tafRaw": "TAF EDDK 051700Z 0518/0624 16007KT 9999 FEW008 BKN020 \n  TEMPO 0518/0519 2000 SHSN BKN006TCU \n  PROB30 \n  TEMPO 0519/0523 BKN008 \n  TEMPO 0523/0605 2500 -SHSN BKN006TCU \n  PROB30 \n  TEMPO 0523/0604 1400 SHSN \n  BECMG 0602/0605 30005KT \n  TEMPO 0605/0610 3000 BR BKN005 \n  TEMPO 0610/0612 BKN012 \n  BECMG 0612/0615 16005KT",
      "metarHtml": "METAR EDDK 052220Z AUTO 15005KT 9999 BKN029 OVC036 M02/M04 Q1013 NOSIG",
      "tafHtml": "TAF EDDK 051700Z 0518/0624 16007KT 9999 FEW008 BKN020 \n  TEMPO 0518/0519 2000 <span class=\"hl\">SHSN</span> BKN006TCU \n  PROB30 \n  TEMPO 0519/0523 BKN008 \n  TEMPO 0523/0605 2500 -<span class=\"hl\">SHSN</span> BKN006TCU \n  PROB30 \n  TEMPO 0523/0604 1400 <span class=\"hl\">SHSN</span> \n  BECMG 0602/0605 30005KT \n  TEMPO 0605/0610 3000 <span class=\"hl\">BR</span> BKN005 \n  TEMPO 0610/0612 BKN012 \n  BECMG 0612/0615 16005KT"
    },
    {
      "icao": "LRCL",
      "iata": "CLJ",
      "name": "Cluj Avram Iancu International Airport",
      "updatedAt": "052230Z",
      "visibility_m": 10000,
      "taf_visibility_m": 1500,
      "worst_visibility_m": 1500,
      "ceiling_ft": 6600,
      "hazards": [
        "BR",
        "DZ"
      ],
      "severityScore": 30,
      "metarRaw": "METAR LRCL 052230Z 07006KT 9999 SCT056 OVC066 01/M00 Q1009",
      "tafRaw": "TAF LRCL 052000Z 0521/0606 06010KT 9999 OVC040 \n  BECMG 0521/0523 VRB04KT \n  TEMPO 0521/0606 3000 -DZ BR BKN010 OVC025 \n  PROB40 \n  TEMPO 0600/0606 1500 -DZ BR OVC005",
      "metarHtml": "METAR LRCL 052230Z 07006KT 9999 SCT056 OVC066 01/M00 Q1009",
      "tafHtml": "TAF LRCL 052000Z 0521/0606 06010KT 9999 OVC040 \n  BECMG 0521/0523 VRB04KT \n  TEMPO 0521/0606 3000 -<span class=\"hl\">DZ</span> <span class=\"hl\">BR</span> BKN010 OVC025 \n  PROB40 \n  TEMPO 0600/0606 1500 -<span class=\"hl\">DZ</span> <span class=\"hl\">BR</span> OVC005"
    },
    {
      "icao": "EGPD",
      "iata": "ABZ",
      "name": "Aberdeen International Airport",
      "updatedAt": "052220Z",
      "visibility_m": 10000,
      "taf_visibility_m": 1400,
      "worst_visibility_m": 1400,
      "ceiling_ft": null,
      "hazards": [
        "SN"
      ],
      "severityScore": 28,
      "metarRaw": "METAR EGPD 052220Z COR AUTO 27012KT 9999 NCD M03/M05 Q1014 NOSIG",
      "tafRaw": "TAF EGPD 051653Z 0518/0618 29010KT 9999 FEW012 \n  TEMPO 0603/0618 4000 -SNRA BKN012 \n  BECMG 0604/0607 16004KT \n  PROB30 \n  TEMPO 0604/0618 1400 SN BKN004",
      "metarHtml": "METAR EGPD 052220Z COR AUTO 27012KT 9999 NCD M03/M05 Q1014 NOSIG",
      "tafHtml": "TAF EGPD 051653Z 0518/0618 29010KT 9999 FEW012 \n  TEMPO 0603/0618 4000 -SNRA BKN012 \n  BECMG 0604/0607 16004KT \n  PROB30 \n  TEMPO 0604/0618 1400 <span class=\"hl\">SN</span> BKN004"
    },
    {
      "icao": "EPGD",
      "iata": "GDN",
      "name": "Gdańsk Lech Wałęsa Airport",
      "updatedAt": "052230Z",
      "visibility_m": 10000,
      "taf_visibility_m": 4000,
      "worst_visibility_m": 4000,
      "ceiling_ft": null,
      "hazards": [
        "BR",
        "SN"
      ],
      "severityScore": 28,
      "metarRaw": "METAR EPGD 052230Z VRB01KT CAVOK M03/M04 Q1013",
      "tafRaw": "TAF EPGD 051730Z 0518/0618 19006KT 9999 BKN030 \n  TEMPO 0518/0610 4000 -SN BR BKN003 BKN009 \n  BECMG 0616/0618 BKN006",
      "metarHtml": "METAR EPGD 052230Z VRB01KT <span class=\"hl-vis\">CAVOK</span> M03/M04 Q1013",
      "tafHtml": "TAF EPGD 051730Z 0518/0618 19006KT 9999 BKN030 \n  TEMPO 0518/0610 4000 -<span class=\"hl\">SN</span> <span class=\"hl\">BR</span> BKN003 BKN009 \n  BECMG 0616/0618 BKN006"
    },
    {
      "icao": "EPSC",
      "iata": "SZZ",
      "name": "Solidarity Szczecin–Goleniów Airport",
      "updatedAt": "052230Z",
      "visibility_m": 10000,
      "taf_visibility_m": 2500,
      "worst_visibility_m": 2500,
      "ceiling_ft": null,
      "hazards": [
        "BR",
        "SN"
      ],
      "severityScore": 28,
      "metarRaw": "METAR EPSC 052230Z 16004KT CAVOK M03/M05 Q1013",
      "tafRaw": "TAF EPSC 051730Z 0518/0618 16006KT 9999 BKN040 \n  TEMPO 0522/0610 4000 BR BKN003 \n  BECMG 0610/0612 4000 -SN BR BKN003 BKN009 \n  TEMPO 0616/0618 2500 SN BKN009CB",
      "metarHtml": "METAR EPSC 052230Z 16004KT <span class=\"hl-vis\">CAVOK</span> M03/M05 Q1013",
      "tafHtml": "TAF EPSC 051730Z 0518/0618 16006KT 9999 BKN040 \n  TEMPO 0522/0610 4000 <span class=\"hl\">BR</span> BKN003 \n  BECMG 0610/0612 4000 -<span class=\"hl\">SN</span> <span class=\"hl\">BR</span> BKN003 BKN009 \n  TEMPO 0616/0618 2500 <span class=\"hl\">SN</span> BKN009CB"
    },
    {
      "icao": "LEAL",
      "iata": "ALC",
      "name": "Alicante-Elche Miguel Hernández Airport",
      "updatedAt": "052230Z",
      "visibility_m": 10000,
      "taf_visibility_m": 3000,
      "worst_visibility_m": 3000,
      "ceiling_ft": 3500,
      "hazards": [
        "RA",
        "SHRA"
      ],
      "severityScore": 26,
      "metarRaw": "METAR LEAL 052230Z 33004KT 290V360 9999 SCT025 OVC035 09/08 Q1010 NOSIG",
      "tafRaw": "TAF LEAL 051700Z 0518/0618 VRB04KT 9999 SCT020 TX12/0614Z TN04/0606Z \n  TEMPO 0518/0608 3000 RA SHRA BKN015 FEW020TCU \n  TEMPO 0518/0520 06010KT",
      "metarHtml": "METAR LEAL 052230Z 33004KT 290V360 9999 SCT025 OVC035 09/08 Q1010 NOSIG",
      "tafHtml": "TAF LEAL 051700Z 0518/0618 VRB04KT 9999 SCT020 TX12/0614Z TN04/0606Z \n  TEMPO 0518/0608 3000 <span class=\"hl\">RA</span> <span class=\"hl\">SHRA</span> BKN015 FEW020TCU \n  TEMPO 0518/0520 06010KT"
    },
    {
      "icao": "LIBD",
      "iata": "BRI",
      "name": "Bari Karol Wojtyła International Airport",
      "updatedAt": "052220Z",
      "visibility_m": 10000,
      "taf_visibility_m": 4000,
      "worst_visibility_m": 4000,
      "ceiling_ft": 1000,
      "hazards": [
        "RA"
      ],
      "severityScore": 24,
      "metarRaw": "METAR LIBD 052220Z 28005KT 9999 BKN010 12/10 Q1005",
      "tafRaw": "TAF LIBD 051700Z 0518/0618 28007KT 9999 SCT015 \n  TEMPO 0518/0524 4000 RA \n  BECMG 0608/0610 15010KT \n  TEMPO 0612/0618 4000 RA",
      "metarHtml": "METAR LIBD 052220Z 28005KT 9999 BKN010 12/10 Q1005",
      "tafHtml": "TAF LIBD 051700Z 0518/0618 28007KT 9999 SCT015 \n  TEMPO 0518/0524 4000 <span class=\"hl\">RA</span> \n  BECMG 0608/0610 15010KT \n  TEMPO 0612/0618 4000 <span class=\"hl\">RA</span>"
    },
    {
      "icao": "LQBK",
      "iata": "BNX",
      "name": "Banja Luka International Airport",
      "updatedAt": "052230Z",
      "visibility_m": 10000,
      "taf_visibility_m": null,
      "worst_visibility_m": 10000,
      "ceiling_ft": 2300,
      "hazards": [
        "SN"
      ],
      "severityScore": 23,
      "metarRaw": "METAR LQBK 052230Z 28005KT 9999 -SN FEW010 SCT017 OVC023 M01/M02 Q1011 NOSIG",
      "tafRaw": null,
      "metarHtml": "METAR LQBK 052230Z 28005KT 9999 -<span class=\"hl\">SN</span> FEW010 SCT017 OVC023 M01/M02 Q1011 NOSIG",
      "tafHtml": null
    },
    {
      "icao": "BKPR",
      "iata": "PRN",
      "name": "Priština Adem Jashari International Airport",
      "updatedAt": "052230Z",
      "visibility_m": 10000,
      "taf_visibility_m": 4000,
      "worst_visibility_m": 4000,
      "ceiling_ft": 5500,
      "hazards": [
        "BR",
        "RA"
      ],
      "severityScore": 22,
      "metarRaw": "METAR BKPR 052230Z 19008KT 9999 BKN055 09/06 Q1008 NOSIG",
      "tafRaw": "TAF BKPR 051730Z 0518/0618 18008KT 9999 SCT020 BKN040 \n  TEMPO 0518/0522 18018KT \n  TEMPO 0601/0612 4000 -RA BR",
      "metarHtml": "METAR BKPR 052230Z 19008KT 9999 BKN055 09/06 Q1008 NOSIG",
      "tafHtml": "TAF BKPR 051730Z 0518/0618 18008KT 9999 SCT020 BKN040 \n  TEMPO 0518/0522 18018KT \n  TEMPO 0601/0612 4000 -<span class=\"hl\">RA</span> <span class=\"hl\">BR</span>"
    },
    {
      "icao": "EGKK",
      "iata": "LGW",
      "name": "London Gatwick Airport",
      "updatedAt": "052220Z",
      "visibility_m": 10000,
      "taf_visibility_m": 4000,
      "worst_visibility_m": 4000,
      "ceiling_ft": null,
      "hazards": [
        "BR",
        "RA"
      ],
      "severityScore": 22,
      "metarRaw": "METAR EGKK 052220Z 31005KT CAVOK M02/M05 Q1017",
      "tafRaw": "TAF EGKK 051653Z 0518/0624 30006KT 9999 FEW035 \n  PROB40 0523/0610 4000 BR \n  BECMG 0612/0615 24010KT \n  PROB30 \n  TEMPO 0621/0624 23015G25KT 8000 -RA BKN012",
      "metarHtml": "METAR EGKK 052220Z 31005KT <span class=\"hl-vis\">CAVOK</span> M02/M05 Q1017",
      "tafHtml": "TAF EGKK 051653Z 0518/0624 30006KT 9999 FEW035 \n  PROB40 0523/0610 4000 <span class=\"hl\">BR</span> \n  BECMG 0612/0615 24010KT \n  PROB30 \n  TEMPO 0621/0624 23015G25KT 8000 -<span class=\"hl\">RA</span> BKN012"
    },
    {
      "icao": "LEBB",
      "iata": "BIO",
      "name": "Bilbao Airport",
      "updatedAt": "052230Z",
      "visibility_m": 10000,
      "taf_visibility_m": 1500,
      "worst_visibility_m": 1500,
      "ceiling_ft": 6200,
      "hazards": [
        "RA"
      ],
      "severityScore": 22,
      "metarRaw": "METAR LEBB 052230Z 07002KT 9999 SCT049 BKN062 01/M02 Q1016 NOSIG",
      "tafRaw": "TAF LEBB 051700Z 0518/0618 13005KT 9999 FEW030 TX07/0618Z TNM00/0521Z \n  BECMG 0601/0603 33010KT \n  PROB30 \n  TEMPO 0601/0610 1500 SNRA BKN005 \n  TEMPO 0602/0608 32019G34KT \n  PROB40 0608/0612 05010KT \n  TEMPO 0612/0615 RA",
      "metarHtml": "METAR LEBB 052230Z 07002KT 9999 SCT049 BKN062 01/M02 Q1016 NOSIG",
      "tafHtml": "TAF LEBB 051700Z 0518/0618 13005KT 9999 FEW030 TX07/0618Z TNM00/0521Z \n  BECMG 0601/0603 33010KT \n  PROB30 \n  TEMPO 0601/0610 1500 SNRA BKN005 \n  TEMPO 0602/0608 32019G34KT \n  PROB40 0608/0612 05010KT \n  TEMPO 0612/0615 <span class=\"hl\">RA</span>"
    },
    {
      "icao": "LIPY",
      "iata": "AOI",
      "name": "Marche Airport",
      "updatedAt": "052220Z",
      "visibility_m": 7000,
      "taf_visibility_m": 2000,
      "worst_visibility_m": 2000,
      "ceiling_ft": null,
      "hazards": [
        "DZ",
        "RA"
      ],
      "severityScore": 22,
      "metarRaw": "METAR LIPY 052220Z AUTO 29005KT 7000 +DZ OVC017/// 03/02 Q1008",
      "tafRaw": "TAF LIPY 051700Z 0518/0618 32010KT 9999 BKN010 \n  BECMG 0522/0524 4000 RA \n  TEMPO 0611/0616 2000 RASN OVC004 \n  BECMG 0616/0618 7000 NSW",
      "metarHtml": "METAR LIPY 052220Z AUTO 29005KT 7000 +<span class=\"hl\">DZ</span> OVC017/// 03/02 Q1008",
      "tafHtml": "TAF LIPY 051700Z 0518/0618 32010KT 9999 BKN010 \n  BECMG 0522/0524 4000 <span class=\"hl\">RA</span> \n  TEMPO 0611/0616 2000 RASN OVC004 \n  BECMG 0616/0618 7000 NSW"
    },
    {
      "icao": "EDLW",
      "iata": "DTM",
      "name": "Dortmund Airport",
      "updatedAt": "052220Z",
      "visibility_m": 10000,
      "taf_visibility_m": 2500,
      "worst_visibility_m": 2500,
      "ceiling_ft": null,
      "hazards": [
        "BR",
        "SHSN"
      ],
      "severityScore": 20,
      "metarRaw": "METAR EDLW 052220Z AUTO 21009KT 9999 // FEW019/// OVC030/// M02/M05 Q1011",
      "tafRaw": "TAF EDLW 051700Z 0518/0618 22008KT 9999 BKN020 \n  TEMPO 0518/0520 2500 -SHSN BKN009TCU \n  TEMPO 0523/0604 2500 -SHSN BKN009TCU \n  TEMPO 0604/0611 BKN006 \n  PROB30 \n  TEMPO 0605/0608 3000 BR OVC004",
      "metarHtml": "METAR EDLW 052220Z AUTO 21009KT 9999 // FEW019/// OVC030/// M02/M05 Q1011",
      "tafHtml": "TAF EDLW 051700Z 0518/0618 22008KT 9999 BKN020 \n  TEMPO 0518/0520 2500 -<span class=\"hl\">SHSN</span> BKN009TCU \n  TEMPO 0523/0604 2500 -<span class=\"hl\">SHSN</span> BKN009TCU \n  TEMPO 0604/0611 BKN006 \n  PROB30 \n  TEMPO 0605/0608 3000 <span class=\"hl\">BR</span> OVC004"
    },
    {
      "icao": "LTAC",
      "iata": "ESB",
      "name": "Esenboğa International Airport",
      "updatedAt": "052220Z",
      "visibility_m": 3500,
      "taf_visibility_m": 1400,
      "worst_visibility_m": 1400,
      "ceiling_ft": null,
      "hazards": [
        "BR"
      ],
      "severityScore": 20,
      "metarRaw": "METAR LTAC 052220Z 32002KT 3500 BR NSC M01/M02 Q1021 NOSIG RMK RWY21C 34002KT RWY03L 33002KT RWY21R 32002KT RWY03R 00000KT RWY21L 36002KT",
      "tafRaw": "TAF LTAC 051640Z 0518/0618 VRB02KT CAVOK \n  BECMG 0600/0603 4000 BR \n  PROB30 \n  TEMPO 0604/0607 1400 BCFG \n  BECMG 0607/0609 9999 NSW SCT040 \n  BECMG 0614/0616 CAVOK",
      "metarHtml": "METAR LTAC 052220Z 32002KT 3500 <span class=\"hl\">BR</span> NSC M01/M02 Q1021 NOSIG RMK RWY21C 34002KT RWY03L 33002KT RWY21R 32002KT RWY03R 00000KT RWY21L 36002KT",
      "tafHtml": "TAF LTAC 051640Z 0518/0618 VRB02KT <span class=\"hl-vis\">CAVOK</span> \n  BECMG 0600/0603 4000 <span class=\"hl\">BR</span> \n  PROB30 \n  TEMPO 0604/0607 1400 BCFG \n  BECMG 0607/0609 9999 NSW SCT040 \n  BECMG 0614/0616 <span class=\"hl-vis\">CAVOK</span>"
    },
    {
      "icao": "UDSG",
      "iata": "LWN",
      "name": "Shirak International Airport",
      "updatedAt": "052230Z",
      "visibility_m": 6000,
      "taf_visibility_m": 1000,
      "worst_visibility_m": 1000,
      "ceiling_ft": null,
      "hazards": [
        "BR"
      ],
      "severityScore": 20,
      "metarRaw": "METAR UDSG 052230Z 35001KT 6000 NSC M17/M18 Q1030 NOSIG",
      "tafRaw": "TAF UDSG 051700Z 0518/0618 VRB06KT 5000 BR FEW040 \n  TEMPO 0518/0603 1000 BR",
      "metarHtml": "METAR UDSG 052230Z 35001KT 6000 NSC M17/M18 Q1030 NOSIG",
      "tafHtml": "TAF UDSG 051700Z 0518/0618 VRB06KT 5000 <span class=\"hl\">BR</span> FEW040 \n  TEMPO 0518/0603 1000 <span class=\"hl\">BR</span>"
    },
    {
      "icao": "EDDB",
      "iata": "BER",
      "name": "Berlin Brandenburg Airport",
      "updatedAt": "052220Z",
      "visibility_m": 10000,
      "taf_visibility_m": 4500,
      "worst_visibility_m": 4500,
      "ceiling_ft": null,
      "hazards": [
        "SN"
      ],
      "severityScore": 18,
      "metarRaw": "METAR EDDB 052220Z AUTO 19005KT CAVOK M06/M08 Q1013 NOSIG",
      "tafRaw": "TAF EDDB 051700Z 0518/0618 17004KT 9999 SCT045 \n  PROB30 \n  TEMPO 0607/0611 4500 -SN BKN005 \n  BECMG 0610/0612 23005KT",
      "metarHtml": "METAR EDDB 052220Z AUTO 19005KT <span class=\"hl-vis\">CAVOK</span> M06/M08 Q1013 NOSIG",
      "tafHtml": "TAF EDDB 051700Z 0518/0618 17004KT 9999 SCT045 \n  PROB30 \n  TEMPO 0607/0611 4500 -<span class=\"hl\">SN</span> BKN005 \n  BECMG 0610/0612 23005KT"
    },
    {
      "icao": "EDDN",
      "iata": "NUE",
      "name": "Nuremberg Airport",
      "updatedAt": "052220Z",
      "visibility_m": 10000,
      "taf_visibility_m": 10000,
      "worst_visibility_m": 10000,
      "ceiling_ft": null,
      "hazards": [
        "SN"
      ],
      "severityScore": 18,
      "metarRaw": "METAR EDDN 052220Z AUTO 11006KT CAVOK M10/M12 Q1014",
      "tafRaw": "TAF EDDN 051700Z 0518/0618 VRB02KT 9999 SCT030 \n  PROB30 \n  TEMPO 0608/0612 -SN BKN012",
      "metarHtml": "METAR EDDN 052220Z AUTO 11006KT <span class=\"hl-vis\">CAVOK</span> M10/M12 Q1014",
      "tafHtml": "TAF EDDN 051700Z 0518/0618 VRB02KT 9999 SCT030 \n  PROB30 \n  TEMPO 0608/0612 -<span class=\"hl\">SN</span> BKN012"
    },
    {
      "icao": "EDDS",
      "iata": "STR",
      "name": "Stuttgart Airport",
      "updatedAt": "052220Z",
      "visibility_m": 10000,
      "taf_visibility_m": 4000,
      "worst_visibility_m": 4000,
      "ceiling_ft": null,
      "hazards": [
        "SN"
      ],
      "severityScore": 18,
      "metarRaw": "METAR EDDS 052220Z AUTO 23003KT 190V260 CAVOK M06/M10 Q1012",
      "tafRaw": "TAF EDDS 051700Z 0518/0618 VRB03KT CAVOK \n  PROB30 \n  TEMPO 0607/0610 4500 -SG \n  TEMPO 0616/0618 4000 -SN BKN010",
      "metarHtml": "METAR EDDS 052220Z AUTO 23003KT 190V260 <span class=\"hl-vis\">CAVOK</span> M06/M10 Q1012",
      "tafHtml": "TAF EDDS 051700Z 0518/0618 VRB03KT <span class=\"hl-vis\">CAVOK</span> \n  PROB30 \n  TEMPO 0607/0610 4500 -SG \n  TEMPO 0616/0618 4000 -<span class=\"hl\">SN</span> BKN010"
    },
    {
      "icao": "EDSB",
      "iata": "FKB",
      "name": "Karlsruhe Baden-Baden Airport",
      "updatedAt": "052220Z",
      "visibility_m": 10000,
      "taf_visibility_m": 3000,
      "worst_visibility_m": 3000,
      "ceiling_ft": null,
      "hazards": [
        "SN"
      ],
      "severityScore": 18,
      "metarRaw": "METAR EDSB 052220Z 25004KT CAVOK M06/M08 Q1014",
      "tafRaw": "TAF EDSB 051700Z 0518/0618 VRB03KT CAVOK \n  BECMG 0603/0606 OVC010 \n  TEMPO 0604/0608 3000 -SN BKN008 \n  BECMG 0608/0611 BKN015",
      "metarHtml": "METAR EDSB 052220Z 25004KT <span class=\"hl-vis\">CAVOK</span> M06/M08 Q1014",
      "tafHtml": "TAF EDSB 051700Z 0518/0618 VRB03KT <span class=\"hl-vis\">CAVOK</span> \n  BECMG 0603/0606 OVC010 \n  TEMPO 0604/0608 3000 -<span class=\"hl\">SN</span> BKN008 \n  BECMG 0608/0611 BKN015"
    },
    {
      "icao": "EFTU",
      "iata": "TKU",
      "name": "Turku Airport",
      "updatedAt": "052220Z",
      "visibility_m": 10000,
      "taf_visibility_m": 2000,
      "worst_visibility_m": 2000,
      "ceiling_ft": null,
      "hazards": [
        "SN"
      ],
      "severityScore": 18,
      "metarRaw": "METAR EFTU 052220Z AUTO 09002KT CAVOK M21/M23 Q1018",
      "tafRaw": "TAF EFTU 052027Z 0521/0621 VRB02KT CAVOK \n  BECMG 0607/0609 10010KT \n  BECMG 0614/0615 4000 -SN BKN013 \n  TEMPO 0615/0621 2000 BKN025",
      "metarHtml": "METAR EFTU 052220Z AUTO 09002KT <span class=\"hl-vis\">CAVOK</span> M21/M23 Q1018",
      "tafHtml": "TAF EFTU 052027Z 0521/0621 VRB02KT <span class=\"hl-vis\">CAVOK</span> \n  BECMG 0607/0609 10010KT \n  BECMG 0614/0615 4000 -<span class=\"hl\">SN</span> BKN013 \n  TEMPO 0615/0621 2000 BKN025"
    },
    {
      "icao": "EGNM",
      "iata": "LBA",
      "name": "Leeds Bradford Airport",
      "updatedAt": "052220Z",
      "visibility_m": 10000,
      "taf_visibility_m": 4000,
      "worst_visibility_m": 4000,
      "ceiling_ft": null,
      "hazards": [
        "SN"
      ],
      "severityScore": 18,
      "metarRaw": "METAR EGNM 052220Z 26005KT 220V290 CAVOK M04/M06 Q1016",
      "tafRaw": "TAF EGNM 051659Z 0518/0618 27009KT 9999 FEW020 \n  PROB40 \n  TEMPO 0607/0614 BKN012 \n  PROB30 \n  TEMPO 0607/0612 6000 -SN BKN008 \n  TEMPO 0616/0618 BKN012 \n  PROB30 \n  TEMPO 0616/0618 4000 RASN",
      "metarHtml": "METAR EGNM 052220Z 26005KT 220V290 <span class=\"hl-vis\">CAVOK</span> M04/M06 Q1016",
      "tafHtml": "TAF EGNM 051659Z 0518/0618 27009KT 9999 FEW020 \n  PROB40 \n  TEMPO 0607/0614 BKN012 \n  PROB30 \n  TEMPO 0607/0612 6000 -<span class=\"hl\">SN</span> BKN008 \n  TEMPO 0616/0618 BKN012 \n  PROB30 \n  TEMPO 0616/0618 4000 RASN"
    },
    {
      "icao": "ENGM",
      "iata": "OSL",
      "name": "Oslo-Gardermoen International Airport",
      "updatedAt": "052220Z",
      "visibility_m": 7000,
      "taf_visibility_m": 2500,
      "worst_visibility_m": 2500,
      "ceiling_ft": 4900,
      "hazards": [
        "SN"
      ],
      "severityScore": 18,
      "metarRaw": "METAR ENGM 052220Z 03005KT 7000 -SN FEW015 BKN049 M09/M11 Q1013",
      "tafRaw": "TAF ENGM 051700Z 0518/0618 02005KT 8000 -SN SCT020 BKN040 \n  TEMPO 0518/0618 2500 -SN VV012",
      "metarHtml": "METAR ENGM 052220Z 03005KT 7000 -<span class=\"hl\">SN</span> FEW015 BKN049 M09/M11 Q1013",
      "tafHtml": "TAF ENGM 051700Z 0518/0618 02005KT 8000 -<span class=\"hl\">SN</span> SCT020 BKN040 \n  TEMPO 0518/0618 2500 -<span class=\"hl\">SN</span> VV012"
    },
    {
      "icao": "EPLB",
      "iata": "LUZ",
      "name": "Lublin Airport",
      "updatedAt": "052230Z",
      "visibility_m": 10000,
      "taf_visibility_m": 2000,
      "worst_visibility_m": 2000,
      "ceiling_ft": 2100,
      "hazards": [
        "SN"
      ],
      "severityScore": 18,
      "metarRaw": "METAR EPLB 052230Z 06005KT 9999 OVC021 M04/M06 Q1012",
      "tafRaw": "TAF EPLB 051730Z 0518/0618 09005KT CAVOK \n  BECMG 0521/0524 BKN014 \n  TEMPO 0600/0609 4000 -SN BKN007 \n  PROB40 \n  TEMPO 0600/0609 2000 SN \n  BECMG 0609/0612 30010KT BKN020",
      "metarHtml": "METAR EPLB 052230Z 06005KT 9999 OVC021 M04/M06 Q1012",
      "tafHtml": "TAF EPLB 051730Z 0518/0618 09005KT <span class=\"hl-vis\">CAVOK</span> \n  BECMG 0521/0524 BKN014 \n  TEMPO 0600/0609 4000 -<span class=\"hl\">SN</span> BKN007 \n  PROB40 \n  TEMPO 0600/0609 2000 <span class=\"hl\">SN</span> \n  BECMG 0609/0612 30010KT BKN020"
    },
    {
      "icao": "LFLL",
      "iata": "LYS",
      "name": "Lyon Saint-Exupéry Airport",
      "updatedAt": "052230Z",
      "visibility_m": 9000,
      "taf_visibility_m": 10000,
      "worst_visibility_m": 9000,
      "ceiling_ft": null,
      "hazards": [
        "SN"
      ],
      "severityScore": 18,
      "metarRaw": "METAR LFLL 052230Z 34003KT 9000 NSC M06/M07 Q1014 NOSIG",
      "tafRaw": "TAF LFLL 051700Z 0518/0624 34008KT CAVOK \n  PROB30 \n  TEMPO 0522/0608 BKN006 \n  PROB40 \n  TEMPO 0610/0618 BKN012 \n  PROB30 \n  TEMPO 0610/0624 -SN \n  TEMPO 0619/0624 BKN004",
      "metarHtml": "METAR LFLL 052230Z 34003KT 9000 NSC M06/M07 Q1014 NOSIG",
      "tafHtml": "TAF LFLL 051700Z 0518/0624 34008KT <span class=\"hl-vis\">CAVOK</span> \n  PROB30 \n  TEMPO 0522/0608 BKN006 \n  PROB40 \n  TEMPO 0610/0618 BKN012 \n  PROB30 \n  TEMPO 0610/0624 -<span class=\"hl\">SN</span> \n  TEMPO 0619/0624 BKN004"
    },
    {
      "icao": "LFSB",
      "iata": "BSL",
      "name": "EuroAirport Basel–Mulhouse–Freiburg",
      "updatedAt": "052230Z",
      "visibility_m": 10000,
      "taf_visibility_m": 10000,
      "worst_visibility_m": 10000,
      "ceiling_ft": null,
      "hazards": [
        "SN"
      ],
      "severityScore": 18,
      "metarRaw": "METAR LFSB 052230Z AUTO 18005KT CAVOK M08/M10 Q1015 NOSIG",
      "tafRaw": "TAF LFSB 051700Z 0518/0618 VRB03KT CAVOK \n  TEMPO 0605/0611 BKN012 \n  PROB30 \n  TEMPO 0606/0610 -SN BKN008",
      "metarHtml": "METAR LFSB 052230Z AUTO 18005KT <span class=\"hl-vis\">CAVOK</span> M08/M10 Q1015 NOSIG",
      "tafHtml": "TAF LFSB 051700Z 0518/0618 VRB03KT <span class=\"hl-vis\">CAVOK</span> \n  TEMPO 0605/0611 BKN012 \n  PROB30 \n  TEMPO 0606/0610 -<span class=\"hl\">SN</span> BKN008"
    },
    {
      "icao": "LKMT",
      "iata": "OSR",
      "name": "Ostrava Leos Janáček Airport",
      "updatedAt": "052230Z",
      "visibility_m": 10000,
      "taf_visibility_m": 6000,
      "worst_visibility_m": 6000,
      "ceiling_ft": null,
      "hazards": [
        "SN"
      ],
      "severityScore": 18,
      "metarRaw": "METAR LKMT 052230Z 22002KT CAVOK M04/M06 Q1012 NOSIG",
      "tafRaw": "TAF LKMT 051700Z 0518/0618 18003KT CAVOK \n  PROB30 \n  TEMPO 0520/0605 6000 -SN SCT015 BKN040 \n  BECMG 0612/0613 02004KT",
      "metarHtml": "METAR LKMT 052230Z 22002KT <span class=\"hl-vis\">CAVOK</span> M04/M06 Q1012 NOSIG",
      "tafHtml": "TAF LKMT 051700Z 0518/0618 18003KT <span class=\"hl-vis\">CAVOK</span> \n  PROB30 \n  TEMPO 0520/0605 6000 -<span class=\"hl\">SN</span> SCT015 BKN040 \n  BECMG 0612/0613 02004KT"
    },
    {
      "icao": "LOWW",
      "iata": "VIE",
      "name": "Vienna International Airport",
      "updatedAt": "052220Z",
      "visibility_m": 10000,
      "taf_visibility_m": 10000,
      "worst_visibility_m": 10000,
      "ceiling_ft": 5000,
      "hazards": [
        "SN"
      ],
      "severityScore": 18,
      "metarRaw": "METAR LOWW 052220Z 33010KT 9999 FEW048 BKN050 M03/M09 Q1014 NOSIG",
      "tafRaw": "TAF LOWW 052015Z 0521/0703 33010KT 9999 SCT050 TXM02/0613Z TNM04/0607Z \n  TEMPO 0610/0615 33015G25KT \n  PROB30 \n  TEMPO 0612/0616 -SN \n  TEMPO 0621/0703 30015G25KT",
      "metarHtml": "METAR LOWW 052220Z 33010KT 9999 FEW048 BKN050 M03/M09 Q1014 NOSIG",
      "tafHtml": "TAF LOWW 052015Z 0521/0703 33010KT 9999 SCT050 TXM02/0613Z TNM04/0607Z \n  TEMPO 0610/0615 33015G25KT \n  PROB30 \n  TEMPO 0612/0616 -<span class=\"hl\">SN</span> \n  TEMPO 0621/0703 30015G25KT"
    },
    {
      "icao": "LZTT",
      "iata": "TAT",
      "name": "Poprad-Tatry Airport",
      "updatedAt": "052230Z",
      "visibility_m": 9000,
      "taf_visibility_m": 4000,
      "worst_visibility_m": 4000,
      "ceiling_ft": 4500,
      "hazards": [
        "SN"
      ],
      "severityScore": 18,
      "metarRaw": "METAR LZTT 052230Z 31003KT 9000 -SN FEW033 BKN045 M05/M07 Q1007",
      "tafRaw": "TAF LZTT 051715Z 0518/0618 VRB02KT 9999 SCT055 BKN080 \n  TEMPO 0518/0603 4000 -SN SCT012 BKN030 \n  TEMPO 0603/0607 9999 BKN020 \n  TEMPO 0616/0618 4000 -SN FEW012 BKN022",
      "metarHtml": "METAR LZTT 052230Z 31003KT 9000 -<span class=\"hl\">SN</span> FEW033 BKN045 M05/M07 Q1007",
      "tafHtml": "TAF LZTT 051715Z 0518/0618 VRB02KT 9999 SCT055 BKN080 \n  TEMPO 0518/0603 4000 -<span class=\"hl\">SN</span> SCT012 BKN030 \n  TEMPO 0603/0607 9999 BKN020 \n  TEMPO 0616/0618 4000 -<span class=\"hl\">SN</span> FEW012 BKN022"
    },
    {
      "icao": "LIBR",
      "iata": "BDS",
      "name": "Brindisi Airport",
      "updatedAt": "052220Z",
      "visibility_m": 8000,
      "taf_visibility_m": null,
      "worst_visibility_m": 8000,
      "ceiling_ft": 1500,
      "hazards": [],
      "severityScore": 17,
      "metarRaw": "METAR LIBR 052220Z 21015KT 180V240 8000 BKN015 16/15 Q1004",
      "tafRaw": null,
      "metarHtml": "METAR LIBR 052220Z 21015KT 180V240 8000 BKN015 16/15 Q1004",
      "tafHtml": null
    },
    {
      "icao": "EPMO",
      "iata": "WMI",
      "name": "Modlin Airport",
      "updatedAt": "052230Z",
      "visibility_m": 2700,
      "taf_visibility_m": null,
      "worst_visibility_m": 2700,
      "ceiling_ft": null,
      "hazards": [
        "BR"
      ],
      "severityScore": 15,
      "metarRaw": "METAR EPMO 052230Z 07004KT 2700 MIFG BR NSC M10/M10 Q1014",
      "tafRaw": null,
      "metarHtml": "METAR EPMO 052230Z 07004KT 2700 MIFG <span class=\"hl\">BR</span> NSC M10/M10 Q1014",
      "tafHtml": null
    },
    {
      "icao": "LRSB",
      "iata": "SBZ",
      "name": "Sibiu International Airport",
      "updatedAt": "052230Z",
      "visibility_m": 5000,
      "taf_visibility_m": null,
      "worst_visibility_m": 5000,
      "ceiling_ft": null,
      "hazards": [
        "BR"
      ],
      "severityScore": 15,
      "metarRaw": "METAR LRSB 052230Z 24006KT 5000 BR FEW085 M01/M02 Q1008",
      "tafRaw": null,
      "metarHtml": "METAR LRSB 052230Z 24006KT 5000 <span class=\"hl\">BR</span> FEW085 M01/M02 Q1008",
      "tafHtml": null
    },
    {
      "icao": "GCLP",
      "iata": "LPA",
      "name": "Gran Canaria Airport",
      "updatedAt": "052230Z",
      "visibility_m": 10000,
      "taf_visibility_m": 4000,
      "worst_visibility_m": 4000,
      "ceiling_ft": 4000,
      "hazards": [
        "SHRA"
      ],
      "severityScore": 14,
      "metarRaw": "METAR GCLP 052230Z 02019KT 9999 SCT025 BKN040 18/13 Q1019 NOSIG",
      "tafRaw": "TAF GCLP 052000Z 0521/0621 36017KT 9999 SCT030 TX21/0614Z TN15/0606Z \n  PROB40 \n  TEMPO 0521/0602 4000 SHRA FEW020TCU \n  PROB40 \n  TEMPO 0521/0614 36017G27KT \n  PROB30 \n  TEMPO 0612/0618 RADZ \n  PROB40 \n  TEMPO 0615/0621 01022G32KT",
      "metarHtml": "METAR GCLP 052230Z 02019KT 9999 SCT025 BKN040 18/13 Q1019 NOSIG",
      "tafHtml": "TAF GCLP 052000Z 0521/0621 36017KT 9999 SCT030 TX21/0614Z TN15/0606Z \n  PROB40 \n  TEMPO 0521/0602 4000 <span class=\"hl\">SHRA</span> FEW020TCU \n  PROB40 \n  TEMPO 0521/0614 36017G27KT \n  PROB30 \n  TEMPO 0612/0618 RADZ \n  PROB40 \n  TEMPO 0615/0621 01022G32KT"
    },
    {
      "icao": "GMMX",
      "iata": "RAK",
      "name": "Menara Airport",
      "updatedAt": "052230Z",
      "visibility_m": 8000,
      "taf_visibility_m": 3000,
      "worst_visibility_m": 3000,
      "ceiling_ft": 2000,
      "hazards": [
        "SHRA"
      ],
      "severityScore": 14,
      "metarRaw": "METAR GMMX 052230Z 35007KT 310V030 8000 SCT013 BKN020 11/10 Q1016 RERA NOSIG",
      "tafRaw": "TAF GMMX 051700Z 0518/0624 30008KT 8000 BKN023 SCT080 \n  TEMPO 0518/0607 3000 SHRA SCT008 BKN016 FEW026CB",
      "metarHtml": "METAR GMMX 052230Z 35007KT 310V030 8000 SCT013 BKN020 11/10 Q1016 RERA NOSIG",
      "tafHtml": "TAF GMMX 051700Z 0518/0624 30008KT 8000 BKN023 SCT080 \n  TEMPO 0518/0607 3000 <span class=\"hl\">SHRA</span> SCT008 BKN016 FEW026CB"
    },
    {
      "icao": "LEVC",
      "iata": "VLC",
      "name": "Valencia Airport",
      "updatedAt": "052230Z",
      "visibility_m": 10000,
      "taf_visibility_m": 3000,
      "worst_visibility_m": 3000,
      "ceiling_ft": 6200,
      "hazards": [
        "SHRA"
      ],
      "severityScore": 14,
      "metarRaw": "METAR LEVC 052230Z 33011KT 9999 OVC062 07/M04 Q1011 NOSIG",
      "tafRaw": "TAF LEVC 051700Z 0518/0618 VRB04KT 9999 BKN015 TX12/0614Z TN00/0606Z \n  PROB40 \n  TEMPO 0518/0522 3000 SHRA FEW020TCU",
      "metarHtml": "METAR LEVC 052230Z 33011KT 9999 OVC062 07/M04 Q1011 NOSIG",
      "tafHtml": "TAF LEVC 051700Z 0518/0618 VRB04KT 9999 BKN015 TX12/0614Z TN00/0606Z \n  PROB40 \n  TEMPO 0518/0522 3000 <span class=\"hl\">SHRA</span> FEW020TCU"
    },
    {
      "icao": "LFMN",
      "iata": "NCE",
      "name": "Nice-Côte d'Azur Airport",
      "updatedAt": "052230Z",
      "visibility_m": 10000,
      "taf_visibility_m": 10000,
      "worst_visibility_m": 10000,
      "ceiling_ft": 4000,
      "hazards": [
        "SHRA"
      ],
      "severityScore": 14,
      "metarRaw": "METAR LFMN 052230Z 33011KT 9999 BKN040 06/M00 Q1005 NOSIG",
      "tafRaw": "TAF LFMN 052000Z 0521/0703 32010KT 9999 BKN055 BKN135 \n  BECMG 0612/0614 19005KT \n  PROB40 \n  TEMPO 0620/0622 09020G30KT -SHRA BKN040TCU \n  BECMG 0622/0623 33015KT",
      "metarHtml": "METAR LFMN 052230Z 33011KT 9999 BKN040 06/M00 Q1005 NOSIG",
      "tafHtml": "TAF LFMN 052000Z 0521/0703 32010KT 9999 BKN055 BKN135 \n  BECMG 0612/0614 19005KT \n  PROB40 \n  TEMPO 0620/0622 09020G30KT -<span class=\"hl\">SHRA</span> BKN040TCU \n  BECMG 0622/0623 33015KT"
    },
    {
      "icao": "LIBG",
      "iata": "TAR",
      "name": "Taranto-Grottaglie Marcello Arlotta Airport",
      "updatedAt": null,
      "visibility_m": null,
      "taf_visibility_m": 4000,
      "worst_visibility_m": 4000,
      "ceiling_ft": null,
      "hazards": [
        "SHRA"
      ],
      "severityScore": 14,
      "metarRaw": null,
      "tafRaw": "TAF LIBG 051700Z 0518/0603 17012KT 9999 SCT030 \n  TEMPO 0518/0522 4000 SHRA BKN010 \n  BECMG 0520/0522 VRB05KT",
      "metarHtml": null,
      "tafHtml": "TAF LIBG 051700Z 0518/0603 17012KT 9999 SCT030 \n  TEMPO 0518/0522 4000 <span class=\"hl\">SHRA</span> BKN010 \n  BECMG 0520/0522 VRB05KT"
    },
    {
      "icao": "LPMA",
      "iata": "FNC",
      "name": "Madeira International Airport Cristiano Ronaldo",
      "updatedAt": "052230Z",
      "visibility_m": 10000,
      "taf_visibility_m": 8000,
      "worst_visibility_m": 8000,
      "ceiling_ft": null,
      "hazards": [
        "SHRA"
      ],
      "severityScore": 14,
      "metarRaw": "METAR LPMA 052230Z 01015KT 320V040 9999 SCT015 FEW018TCU 15/08 Q1024",
      "tafRaw": "TAF LPMA 051700Z 0518/0618 02017KT 9999 SCT015 \n  TEMPO 0518/0612 01022G35KT 8000 SHRA BKN013 FEW018CB",
      "metarHtml": "METAR LPMA 052230Z 01015KT 320V040 9999 SCT015 FEW018TCU 15/08 Q1024",
      "tafHtml": "TAF LPMA 051700Z 0518/0618 02017KT 9999 SCT015 \n  TEMPO 0518/0612 01022G35KT 8000 <span class=\"hl\">SHRA</span> BKN013 FEW018CB"
    },
    {
      "icao": "LPPS",
      "iata": "PXO",
      "name": "Porto Santo Airport",
      "updatedAt": "052230Z",
      "visibility_m": 10000,
      "taf_visibility_m": 8000,
      "worst_visibility_m": 8000,
      "ceiling_ft": null,
      "hazards": [
        "SHRA"
      ],
      "severityScore": 14,
      "metarRaw": "METAR LPPS 052230Z 02018KT 9999 SCT015 SCT030 15/07 Q1025",
      "tafRaw": "TAF LPPS 051700Z 0518/0624 02015KT 9999 SCT015 \n  TEMPO 0518/0612 02020G30KT 8000 SHRA BKN013 FEW018CB \n  BECMG 0600/0602 02012KT",
      "metarHtml": "METAR LPPS 052230Z 02018KT 9999 SCT015 SCT030 15/07 Q1025",
      "tafHtml": "TAF LPPS 051700Z 0518/0624 02015KT 9999 SCT015 \n  TEMPO 0518/0612 02020G30KT 8000 <span class=\"hl\">SHRA</span> BKN013 FEW018CB \n  BECMG 0600/0602 02012KT"
    },
    {
      "icao": "EGBB",
      "iata": "BHX",
      "name": "Birmingham Airport",
      "updatedAt": "052220Z",
      "visibility_m": 10000,
      "taf_visibility_m": 6000,
      "worst_visibility_m": 6000,
      "ceiling_ft": null,
      "hazards": [
        "RA"
      ],
      "severityScore": 12,
      "metarRaw": "METAR EGBB 052220Z 19001KT CAVOK M06/M07 Q1018",
      "tafRaw": "TAF EGBB 051656Z 0518/0618 30005KT 9999 FEW025 \n  PROB40 0603/0611 6000 \n  PROB30 \n  TEMPO 0605/0610 BKN008 \n  BECMG 0615/0618 20010KT \n  PROB30 \n  TEMPO 0617/0618 20015G25KT 8000 -RA",
      "metarHtml": "METAR EGBB 052220Z 19001KT <span class=\"hl-vis\">CAVOK</span> M06/M07 Q1018",
      "tafHtml": "TAF EGBB 051656Z 0518/0618 30005KT 9999 FEW025 \n  PROB40 0603/0611 6000 \n  PROB30 \n  TEMPO 0605/0610 BKN008 \n  BECMG 0615/0618 20010KT \n  PROB30 \n  TEMPO 0617/0618 20015G25KT 8000 -<span class=\"hl\">RA</span>"
    },
    {
      "icao": "LGTS",
      "iata": "SKG",
      "name": "Thessaloniki Macedonia International Airport",
      "updatedAt": "052220Z",
      "visibility_m": 10000,
      "taf_visibility_m": 5000,
      "worst_visibility_m": 5000,
      "ceiling_ft": null,
      "hazards": [
        "RA"
      ],
      "severityScore": 12,
      "metarRaw": "METAR LGTS 052220Z 12006KT 9999 SCT035 15/11 Q1012 NOSIG",
      "tafRaw": "TAF LGTS 051700Z 0518/0618 14010KT 9999 SCT030 \n  PROB30 0518/0524 5000 RA \n  PROB30 \n  TEMPO 0610/0618 5000 RA",
      "metarHtml": "METAR LGTS 052220Z 12006KT 9999 SCT035 15/11 Q1012 NOSIG",
      "tafHtml": "TAF LGTS 051700Z 0518/0618 14010KT 9999 SCT030 \n  PROB30 0518/0524 5000 <span class=\"hl\">RA</span> \n  PROB30 \n  TEMPO 0610/0618 5000 <span class=\"hl\">RA</span>"
    },
    {
      "icao": "LIBP",
      "iata": "PSR",
      "name": "Abruzzo Airport",
      "updatedAt": "052220Z",
      "visibility_m": 10000,
      "taf_visibility_m": 4000,
      "worst_visibility_m": 4000,
      "ceiling_ft": null,
      "hazards": [
        "RA"
      ],
      "severityScore": 12,
      "metarRaw": "METAR LIBP 052220Z AUTO VRB02KT 9999 OVC007/// 07/06 Q1007",
      "tafRaw": "TAF LIBP 051700Z 0518/0618 34007KT 9999 OVC008 \n  BECMG 0602/0604 4000 RA",
      "metarHtml": "METAR LIBP 052220Z AUTO VRB02KT 9999 OVC007/// 07/06 Q1007",
      "tafHtml": "TAF LIBP 051700Z 0518/0618 34007KT 9999 OVC008 \n  BECMG 0602/0604 4000 <span class=\"hl\">RA</span>"
    },
    {
      "icao": "LICC",
      "iata": "CTA",
      "name": "Catania-Fontanarossa Airport",
      "updatedAt": "052220Z",
      "visibility_m": 10000,
      "taf_visibility_m": 4000,
      "worst_visibility_m": 4000,
      "ceiling_ft": null,
      "hazards": [
        "RA"
      ],
      "severityScore": 12,
      "metarRaw": "METAR LICC 052220Z 25008KT CAVOK 12/09 Q1006",
      "tafRaw": "TAF LICC 051700Z 0518/0618 26013KT 9999 SCT030 \n  PROB40 \n  TEMPO 0609/0615 4000 RA",
      "metarHtml": "METAR LICC 052220Z 25008KT <span class=\"hl-vis\">CAVOK</span> 12/09 Q1006",
      "tafHtml": "TAF LICC 051700Z 0518/0618 26013KT 9999 SCT030 \n  PROB40 \n  TEMPO 0609/0615 4000 <span class=\"hl\">RA</span>"
    },
    {
      "icao": "LIRP",
      "iata": "PSA",
      "name": "Pisa International Airport",
      "updatedAt": "052215Z",
      "visibility_m": 10000,
      "taf_visibility_m": 10000,
      "worst_visibility_m": 10000,
      "ceiling_ft": null,
      "hazards": [
        "RA"
      ],
      "severityScore": 12,
      "metarRaw": "METAR LIRP 052215Z 10004KT 9999 FEW040 03/M01 Q1005 NOSIG",
      "tafRaw": "TAF LIRP 051700Z 0518/0618 12008KT 9999 SCT040 BKN070 \n  TEMPO 0608/0610 RA BKN040",
      "metarHtml": "METAR LIRP 052215Z 10004KT 9999 FEW040 03/M01 Q1005 NOSIG",
      "tafHtml": "TAF LIRP 051700Z 0518/0618 12008KT 9999 SCT040 BKN070 \n  TEMPO 0608/0610 <span class=\"hl\">RA</span> BKN040"
    },
    {
      "icao": "LIRZ",
      "iata": "PEG",
      "name": "Perugia San Francesco d'Assisi – Umbria International Airport",
      "updatedAt": "052220Z",
      "visibility_m": 10000,
      "taf_visibility_m": 6000,
      "worst_visibility_m": 6000,
      "ceiling_ft": null,
      "hazards": [
        "RA"
      ],
      "severityScore": 12,
      "metarRaw": "METAR LIRZ 052220Z AUTO 35007KT 9999 -RA OVC015/// 05/04 Q1004",
      "tafRaw": "TAF LIRZ 051700Z 0518/0618 01010KT 6000 RA BKN012 BKN020 \n  BECMG 0520/0522 NSW BKN020 \n  TEMPO 0606/0615 RA",
      "metarHtml": "METAR LIRZ 052220Z AUTO 35007KT 9999 -<span class=\"hl\">RA</span> OVC015/// 05/04 Q1004",
      "tafHtml": "TAF LIRZ 051700Z 0518/0618 01010KT 6000 <span class=\"hl\">RA</span> BKN012 BKN020 \n  BECMG 0520/0522 NSW BKN020 \n  TEMPO 0606/0615 <span class=\"hl\">RA</span>"
    },
    {
      "icao": "LWOH",
      "iata": "OHD",
      "name": "Ohrid St. Paul the Apostle Airport",
      "updatedAt": null,
      "visibility_m": null,
      "taf_visibility_m": 10000,
      "worst_visibility_m": 10000,
      "ceiling_ft": null,
      "hazards": [
        "RA"
      ],
      "severityScore": 12,
      "metarRaw": null,
      "tafRaw": "TAF LWOH 052045Z 0521/0621 VRB02KT 9999 -RA SCT020 BKN040 \n  BECMG 0602/0604 16015KT \n  BECMG 0611/0613 RA SCT015 OVC030",
      "metarHtml": null,
      "tafHtml": "TAF LWOH 052045Z 0521/0621 VRB02KT 9999 -<span class=\"hl\">RA</span> SCT020 BKN040 \n  BECMG 0602/0604 16015KT \n  BECMG 0611/0613 <span class=\"hl\">RA</span> SCT015 OVC030"
    },
    {
      "icao": "LYNI",
      "iata": "INI",
      "name": "Niš Constantine the Great Airport",
      "updatedAt": "052230Z",
      "visibility_m": 10000,
      "taf_visibility_m": 10000,
      "worst_visibility_m": 10000,
      "ceiling_ft": 9000,
      "hazards": [
        "RA"
      ],
      "severityScore": 12,
      "metarRaw": "METAR LYNI 052230Z 00000KT 9999 FEW043 BKN090 03/03 Q1008 NOSIG",
      "tafRaw": "TAF LYNI 051700Z 0518/0618 05004KT 9999 BKN080 TX03/0518Z TN01/0606Z \n  BECMG 0604/0606 34010KT BKN010 BKN030 \n  TEMPO 0605/0612 RA",
      "metarHtml": "METAR LYNI 052230Z 00000KT 9999 FEW043 BKN090 03/03 Q1008 NOSIG",
      "tafHtml": "TAF LYNI 051700Z 0518/0618 05004KT 9999 BKN080 TX03/0518Z TN01/0606Z \n  BECMG 0604/0606 34010KT BKN010 BKN030 \n  TEMPO 0605/0612 <span class=\"hl\">RA</span>"
    },
    {
      "icao": "GMMN",
      "iata": "CMN",
      "name": "Mohammed V International Airport",
      "updatedAt": "052230Z",
      "visibility_m": 10000,
      "taf_visibility_m": 3000,
      "worst_visibility_m": 3000,
      "ceiling_ft": 3000,
      "hazards": [
        "BR"
      ],
      "severityScore": 10,
      "metarRaw": "METAR GMMN 052230Z 28005KT 9999 BKN030 10/07 Q1016 NOSIG",
      "tafRaw": "TAF GMMN 051700Z 0518/0618 32012KT 9999 BKN020 SCT030TCU \n  TEMPO 0600/0607 30006KT 3000 BR BKN005 \n  BECMG 0610/0613 32013KT 9999 SCT020 SCT026",
      "metarHtml": "METAR GMMN 052230Z 28005KT 9999 BKN030 10/07 Q1016 NOSIG",
      "tafHtml": "TAF GMMN 051700Z 0518/0618 32012KT 9999 BKN020 SCT030TCU \n  TEMPO 0600/0607 30006KT 3000 <span class=\"hl\">BR</span> BKN005 \n  BECMG 0610/0613 32013KT 9999 SCT020 SCT026"
    },
    {
      "icao": "EDJA",
      "iata": "FMM",
      "name": "Memmingen Allgau Airport",
      "updatedAt": "052220Z",
      "visibility_m": 10000,
      "taf_visibility_m": 1200,
      "worst_visibility_m": 1200,
      "ceiling_ft": null,
      "hazards": [],
      "severityScore": 10,
      "metarRaw": "METAR EDJA 052220Z AUTO 17006KT 9999 // FEW140/// M14/M16 Q1012",
      "tafRaw": "TAF EDJA 051700Z 0518/0603 22004KT CAVOK \n  PROB30 \n  TEMPO 0521/0603 1200 BCFG",
      "metarHtml": "METAR EDJA 052220Z AUTO 17006KT 9999 // FEW140/// M14/M16 Q1012",
      "tafHtml": "TAF EDJA 051700Z 0518/0603 22004KT <span class=\"hl-vis\">CAVOK</span> \n  PROB30 \n  TEMPO 0521/0603 1200 BCFG"
    },
    {
      "icao": "EDNY",
      "iata": "FDH",
      "name": "Friedrichshafen Airport",
      "updatedAt": "052220Z",
      "visibility_m": 10000,
      "taf_visibility_m": 1200,
      "worst_visibility_m": 1200,
      "ceiling_ft": null,
      "hazards": [],
      "severityScore": 10,
      "metarRaw": "METAR EDNY 052220Z AUTO 04005KT 9999 // NCD M12/M13 Q1014",
      "tafRaw": "TAF EDNY 051700Z 0518/0603 VRB03KT CAVOK \n  PROB30 \n  TEMPO 0521/0603 1200 BCFG",
      "metarHtml": "METAR EDNY 052220Z AUTO 04005KT 9999 // NCD M12/M13 Q1014",
      "tafHtml": "TAF EDNY 051700Z 0518/0603 VRB03KT <span class=\"hl-vis\">CAVOK</span> \n  PROB30 \n  TEMPO 0521/0603 1200 BCFG"
    },
    {
      "icao": "EGGP",
      "iata": "LPL",
      "name": "Liverpool John Lennon Airport",
      "updatedAt": "052220Z",
      "visibility_m": 10000,
      "taf_visibility_m": 4000,
      "worst_visibility_m": 4000,
      "ceiling_ft": null,
      "hazards": [
        "BR"
      ],
      "severityScore": 10,
      "metarRaw": "METAR EGGP 052220Z 13004KT 9999 FEW034 M03/M05 Q1018",
      "tafRaw": "TAF EGGP 051654Z 0518/0618 31005KT 9999 FEW030 \n  TEMPO 0518/0610 9000 \n  PROB30 0522/0607 4000 BR \n  PROB30 \n  TEMPO 0607/0611 6000 -RASN BKN012 \n  TEMPO 0617/0618 BKN010",
      "metarHtml": "METAR EGGP 052220Z 13004KT 9999 FEW034 M03/M05 Q1018",
      "tafHtml": "TAF EGGP 051654Z 0518/0618 31005KT 9999 FEW030 \n  TEMPO 0518/0610 9000 \n  PROB30 0522/0607 4000 <span class=\"hl\">BR</span> \n  PROB30 \n  TEMPO 0607/0611 6000 -RASN BKN012 \n  TEMPO 0617/0618 BKN010"
    },
    {
      "icao": "EPKT",
      "iata": "KTW",
      "name": "Katowice Wojciech Korfanty International Airport",
      "updatedAt": "052230Z",
      "visibility_m": 10000,
      "taf_visibility_m": 4000,
      "worst_visibility_m": 4000,
      "ceiling_ft": null,
      "hazards": [
        "BR"
      ],
      "severityScore": 10,
      "metarRaw": "METAR EPKT 052230Z 32001KT CAVOK M06/M08 Q1011",
      "tafRaw": "TAF EPKT 051730Z 0518/0618 VRB02KT CAVOK \n  PROB30 0600/0606 4000 BR \n  TEMPO 0609/0616 32010KT",
      "metarHtml": "METAR EPKT 052230Z 32001KT <span class=\"hl-vis\">CAVOK</span> M06/M08 Q1011",
      "tafHtml": "TAF EPKT 051730Z 0518/0618 VRB02KT <span class=\"hl-vis\">CAVOK</span> \n  PROB30 0600/0606 4000 <span class=\"hl\">BR</span> \n  TEMPO 0609/0616 32010KT"
    },
    {
      "icao": "ESGG",
      "iata": "GOT",
      "name": "Göteborg Landvetter Airport",
      "updatedAt": "052220Z",
      "visibility_m": 10000,
      "taf_visibility_m": 2500,
      "worst_visibility_m": 2500,
      "ceiling_ft": null,
      "hazards": [
        "BR"
      ],
      "severityScore": 10,
      "metarRaw": "METAR ESGG 052220Z 06003KT 010V090 CAVOK M08/M08 Q1010",
      "tafRaw": "TAF ESGG 052030Z 0521/0621 VRB02KT 9999 SCT045 \n  PROB40 0523/0606 2500 BR BKN004",
      "metarHtml": "METAR ESGG 052220Z 06003KT 010V090 <span class=\"hl-vis\">CAVOK</span> M08/M08 Q1010",
      "tafHtml": "TAF ESGG 052030Z 0521/0621 VRB02KT 9999 SCT045 \n  PROB40 0523/0606 2500 <span class=\"hl\">BR</span> BKN004"
    },
    {
      "icao": "LBPD",
      "iata": "PDV",
      "name": "Plovdiv International Airport",
      "updatedAt": "052230Z",
      "visibility_m": 10000,
      "taf_visibility_m": 5000,
      "worst_visibility_m": 5000,
      "ceiling_ft": null,
      "hazards": [
        "BR"
      ],
      "severityScore": 10,
      "metarRaw": "METAR LBPD 052230Z AUTO 00000KT 9999 SCT120/// BKN140/// OVC160/// 07/07 Q1011",
      "tafRaw": "TAF LBPD 051700Z 0518/0618 VRB03KT 9999 SCT060 \n  PROB30 \n  TEMPO 0603/0606 5000 BR",
      "metarHtml": "METAR LBPD 052230Z AUTO 00000KT 9999 SCT120/// BKN140/// OVC160/// 07/07 Q1011",
      "tafHtml": "TAF LBPD 051700Z 0518/0618 VRB03KT 9999 SCT060 \n  PROB30 \n  TEMPO 0603/0606 5000 <span class=\"hl\">BR</span>"
    },
    {
      "icao": "LBWN",
      "iata": "VAR",
      "name": "Varna Airport",
      "updatedAt": "052230Z",
      "visibility_m": 10000,
      "taf_visibility_m": 3000,
      "worst_visibility_m": 3000,
      "ceiling_ft": null,
      "hazards": [
        "BR"
      ],
      "severityScore": 10,
      "metarRaw": "METAR LBWN 052230Z AUTO 11006KT 9999 NSC 10/10 Q1013 NOSIG",
      "tafRaw": "TAF LBWN 051700Z 0518/0618 VRB04KT 9999 BKN040 \n  TEMPO 0521/0606 3000 BR SCT003 OVC010 \n  BECMG 0607/0609 21012KT \n  BECMG 0616/0618 VRB04KT",
      "metarHtml": "METAR LBWN 052230Z AUTO 11006KT 9999 NSC 10/10 Q1013 NOSIG",
      "tafHtml": "TAF LBWN 051700Z 0518/0618 VRB04KT 9999 BKN040 \n  TEMPO 0521/0606 3000 <span class=\"hl\">BR</span> SCT003 OVC010 \n  BECMG 0607/0609 21012KT \n  BECMG 0616/0618 VRB04KT"
    },
    {
      "icao": "LKPR",
      "iata": "PRG",
      "name": "Václav Havel Airport Prague",
      "updatedAt": "052230Z",
      "visibility_m": 10000,
      "taf_visibility_m": 5000,
      "worst_visibility_m": 5000,
      "ceiling_ft": null,
      "hazards": [
        "BR"
      ],
      "severityScore": 10,
      "metarRaw": "METAR LKPR 052230Z 20007KT CAVOK M08/M11 Q1012 NOSIG",
      "tafRaw": "TAF LKPR 052000Z 0521/0703 23006KT 9999 BKN040 \n  BECMG 0521/0523 CAVOK \n  TEMPO 0623/0703 5000 BR NSC",
      "metarHtml": "METAR LKPR 052230Z 20007KT <span class=\"hl-vis\">CAVOK</span> M08/M11 Q1012 NOSIG",
      "tafHtml": "TAF LKPR 052000Z 0521/0703 23006KT 9999 BKN040 \n  BECMG 0521/0523 <span class=\"hl-vis\">CAVOK</span> \n  TEMPO 0623/0703 5000 <span class=\"hl\">BR</span> NSC"
    },
    {
      "icao": "ENZV",
      "iata": "SVG",
      "name": "Stavanger Airport, Sola",
      "updatedAt": "052220Z",
      "visibility_m": 10000,
      "taf_visibility_m": null,
      "worst_visibility_m": 10000,
      "ceiling_ft": null,
      "hazards": [],
      "severityScore": 5,
      "metarRaw": "METAR ENZV 052220Z 10004KT 060V120 9999 FEW031 SCT049 M03/M06 Q1010",
      "tafRaw": null,
      "metarHtml": "METAR ENZV 052220Z 10004KT 060V120 9999 FEW031 SCT049 M03/M06 Q1010",
      "tafHtml": null
    },
    {
      "icao": "EPKK",
      "iata": "KRK",
      "name": "Kraków John Paul II International Airport",
      "updatedAt": "052230Z",
      "visibility_m": 10000,
      "taf_visibility_m": null,
      "worst_visibility_m": 10000,
      "ceiling_ft": null,
      "hazards": [],
      "severityScore": 5,
      "metarRaw": "METAR EPKK 052230Z VRB01KT CAVOK M03/M07 Q1011",
      "tafRaw": null,
      "metarHtml": "METAR EPKK 052230Z VRB01KT <span class=\"hl-vis\">CAVOK</span> M03/M07 Q1011",
      "tafHtml": null
    },
    {
      "icao": "EPRZ",
      "iata": "RZE",
      "name": "Rzeszów-Jasionka Airport",
      "updatedAt": "052230Z",
      "visibility_m": 10000,
      "taf_visibility_m": null,
      "worst_visibility_m": 10000,
      "ceiling_ft": null,
      "hazards": [],
      "severityScore": 5,
      "metarRaw": "METAR EPRZ 052230Z 03004KT 9999 FEW017 M03/M06 Q1011",
      "tafRaw": null,
      "metarHtml": "METAR EPRZ 052230Z 03004KT 9999 FEW017 M03/M06 Q1011",
      "tafHtml": null
    },
    {
      "icao": "LECH",
      "iata": "CDT",
      "name": "Castellón-Costa Azahar Airport",
      "updatedAt": "052230Z",
      "visibility_m": 10000,
      "taf_visibility_m": null,
      "worst_visibility_m": 10000,
      "ceiling_ft": null,
      "hazards": [],
      "severityScore": 5,
      "metarRaw": "METAR LECH 052230Z AUTO 36004KT 300V050 CAVOK 02/M07 Q1010",
      "tafRaw": null,
      "metarHtml": "METAR LECH 052230Z AUTO 36004KT 300V050 <span class=\"hl-vis\">CAVOK</span> 02/M07 Q1010",
      "tafHtml": null
    },
    {
      "icao": "LEMD",
      "iata": "MAD",
      "name": "Adolfo Suárez Madrid–Barajas Airport",
      "updatedAt": "052230Z",
      "visibility_m": 10000,
      "taf_visibility_m": null,
      "worst_visibility_m": 10000,
      "ceiling_ft": null,
      "hazards": [],
      "severityScore": 5,
      "metarRaw": "METAR LEMD 052230Z 36009KT 330V050 CAVOK M00/M08 Q1012 NOSIG",
      "tafRaw": null,
      "metarHtml": "METAR LEMD 052230Z 36009KT 330V050 <span class=\"hl-vis\">CAVOK</span> M00/M08 Q1012 NOSIG",
      "tafHtml": null
    },
    {
      "icao": "LFBD",
      "iata": "BOD",
      "name": "Bordeaux–Mérignac Airport",
      "updatedAt": "052230Z",
      "visibility_m": 10000,
      "taf_visibility_m": null,
      "worst_visibility_m": 10000,
      "ceiling_ft": null,
      "hazards": [],
      "severityScore": 5,
      "metarRaw": "METAR LFBD 052230Z AUTO 19010KT 9999 FEW044 M00/M05 Q1015 NOSIG",
      "tafRaw": null,
      "metarHtml": "METAR LFBD 052230Z AUTO 19010KT 9999 FEW044 M00/M05 Q1015 NOSIG",
      "tafHtml": null
    },
    {
      "icao": "LPFR",
      "iata": "FAO",
      "name": "Faro Airport",
      "updatedAt": "052230Z",
      "visibility_m": 10000,
      "taf_visibility_m": null,
      "worst_visibility_m": 10000,
      "ceiling_ft": null,
      "hazards": [],
      "severityScore": 5,
      "metarRaw": "METAR LPFR 052230Z 35006KT 320V020 CAVOK 08/M02 Q1015",
      "tafRaw": null,
      "metarHtml": "METAR LPFR 052230Z 35006KT 320V020 <span class=\"hl-vis\">CAVOK</span> 08/M02 Q1015",
      "tafHtml": null
    },
    {
      "icao": "LPPT",
      "iata": "LIS",
      "name": "Lisbon Humberto Delgado Airport",
      "updatedAt": "052230Z",
      "visibility_m": 10000,
      "taf_visibility_m": null,
      "worst_visibility_m": 10000,
      "ceiling_ft": null,
      "hazards": [],
      "severityScore": 5,
      "metarRaw": "METAR LPPT 052230Z 01006KT 9999 FEW022 07/05 Q1017",
      "tafRaw": null,
      "metarHtml": "METAR LPPT 052230Z 01006KT 9999 FEW022 07/05 Q1017",
      "tafHtml": null
    },
    {
      "icao": "LRBV",
      "iata": "GHV",
      "name": "Brașov-Ghimbav International Airport",
      "updatedAt": "052230Z",
      "visibility_m": 10000,
      "taf_visibility_m": null,
      "worst_visibility_m": 10000,
      "ceiling_ft": null,
      "hazards": [],
      "severityScore": 5,
      "metarRaw": "METAR LRBV 052230Z AUTO 14005KT 100V160 9999 BKN045/// 02/M00 Q1009",
      "tafRaw": null,
      "metarHtml": "METAR LRBV 052230Z AUTO 14005KT 100V160 9999 BKN045/// 02/M00 Q1009",
      "tafHtml": null
    },
    {
      "icao": "LTFM",
      "iata": "IST",
      "name": "İstanbul Airport",
      "updatedAt": "052220Z",
      "visibility_m": 10000,
      "taf_visibility_m": null,
      "worst_visibility_m": 10000,
      "ceiling_ft": 10000,
      "hazards": [],
      "severityScore": 5,
      "metarRaw": "METAR LTFM 052220Z 18010KT 9999 SCT040 BKN100 13/06 Q1016 NOSIG RMK RWY17L 18011KT RWY34L 17008KT RWY16R 17012KT RWY36 18010KT RWY18 19012KT",
      "tafRaw": null,
      "metarHtml": "METAR LTFM 052220Z 18010KT 9999 SCT040 BKN100 13/06 Q1016 NOSIG RMK RWY17L 18011KT RWY34L 17008KT RWY16R 17012KT RWY36 18010KT RWY18 19012KT",
      "tafHtml": null
    },
    {
      "icao": "LWSK",
      "iata": "SKP",
      "name": "Skopje International Airport",
      "updatedAt": "052220Z",
      "visibility_m": 10000,
      "taf_visibility_m": null,
      "worst_visibility_m": 10000,
      "ceiling_ft": 9000,
      "hazards": [],
      "severityScore": 5,
      "metarRaw": "METAR LWSK 052220Z 11015KT 9999 SCT065 OVC090 12/07 Q1010 NOSIG",
      "tafRaw": null,
      "metarHtml": "METAR LWSK 052220Z 11015KT 9999 SCT065 OVC090 12/07 Q1010 NOSIG",
      "tafHtml": null
    },
    {
      "icao": "LZIB",
      "iata": "BTS",
      "name": "M. R. Štefánik Airport",
      "updatedAt": "052230Z",
      "visibility_m": 10000,
      "taf_visibility_m": null,
      "worst_visibility_m": 10000,
      "ceiling_ft": null,
      "hazards": [],
      "severityScore": 5,
      "metarRaw": "METAR LZIB 052230Z 29012KT 9999 FEW041 M03/M07 Q1012 NOSIG",
      "tafRaw": null,
      "metarHtml": "METAR LZIB 052230Z 29012KT 9999 FEW041 M03/M07 Q1012 NOSIG",
      "tafHtml": null
    },
    {
      "icao": "BIKF",
      "iata": "KEF",
      "name": "Keflavik International Airport",
      "updatedAt": "052230Z",
      "visibility_m": 10000,
      "taf_visibility_m": 10000,
      "worst_visibility_m": 10000,
      "ceiling_ft": null,
      "hazards": [],
      "severityScore": 0,
      "metarRaw": "METAR BIKF 052230Z 06008KT 9999 FEW017 SCT220 M02/M04 Q1016",
      "tafRaw": "TAF BIKF 052231Z 0600/0700 07010KT CAVOK TXM02/0600Z TNM06/0610Z \n  BECMG 0618/0620 09015G25KT",
      "metarHtml": "METAR BIKF 052230Z 06008KT 9999 FEW017 SCT220 M02/M04 Q1016",
      "tafHtml": "TAF BIKF 052231Z 0600/0700 07010KT <span class=\"hl-vis\">CAVOK</span> TXM02/0600Z TNM06/0610Z \n  BECMG 0618/0620 09015G25KT"
    },
    {
      "icao": "GCFV",
      "iata": "FUE",
      "name": "Fuerteventura Airport",
      "updatedAt": "052230Z",
      "visibility_m": 10000,
      "taf_visibility_m": 10000,
      "worst_visibility_m": 10000,
      "ceiling_ft": null,
      "hazards": [],
      "severityScore": 0,
      "metarRaw": "METAR GCFV 052230Z 35015KT 9999 FEW018 16/12 Q1019",
      "tafRaw": "TAF GCFV 052000Z 0521/0621 02014KT 9999 SCT030 TX21/0614Z TN15/0606Z",
      "metarHtml": "METAR GCFV 052230Z 35015KT 9999 FEW018 16/12 Q1019",
      "tafHtml": "TAF GCFV 052000Z 0521/0621 02014KT 9999 SCT030 TX21/0614Z TN15/0606Z"
    },
    {
      "icao": "GCTS",
      "iata": "TFS",
      "name": "Tenerife Sur Airport",
      "updatedAt": "052230Z",
      "visibility_m": 10000,
      "taf_visibility_m": 10000,
      "worst_visibility_m": 10000,
      "ceiling_ft": null,
      "hazards": [],
      "severityScore": 0,
      "metarRaw": "METAR GCTS 052230Z 07017KT 9999 FEW040 SCT050 17/12 Q1020 NOSIG",
      "tafRaw": "TAF GCTS 052000Z 0521/0621 07014KT 9999 SCT030 TX23/0614Z TN16/0606Z \n  PROB40 \n  TEMPO 0611/0620 09020G32KT",
      "metarHtml": "METAR GCTS 052230Z 07017KT 9999 FEW040 SCT050 17/12 Q1020 NOSIG",
      "tafHtml": "TAF GCTS 052000Z 0521/0621 07014KT 9999 SCT030 TX23/0614Z TN16/0606Z \n  PROB40 \n  TEMPO 0611/0620 09020G32KT"
    },
    {
      "icao": "GMAD",
      "iata": "AGA",
      "name": "Al Massira Airport",
      "updatedAt": "052230Z",
      "visibility_m": 10000,
      "taf_visibility_m": 8000,
      "worst_visibility_m": 8000,
      "ceiling_ft": null,
      "hazards": [],
      "severityScore": 0,
      "metarRaw": "METAR GMAD 052230Z 28008KT 9999 FEW026 14/11 Q1013 NOSIG",
      "tafRaw": "TAF GMAD 051700Z 0518/0624 27010KT 8000 SCT023TCU SCT080",
      "metarHtml": "METAR GMAD 052230Z 28008KT 9999 FEW026 14/11 Q1013 NOSIG",
      "tafHtml": "TAF GMAD 051700Z 0518/0624 27010KT 8000 SCT023TCU SCT080"
    },
    {
      "icao": "EGGW",
      "iata": "LTN",
      "name": "London Luton Airport",
      "updatedAt": "052220Z",
      "visibility_m": 10000,
      "taf_visibility_m": 6000,
      "worst_visibility_m": 6000,
      "ceiling_ft": null,
      "hazards": [],
      "severityScore": 0,
      "metarRaw": "METAR EGGW 052220Z AUTO 30007KT 9999 NCD M04/M06 Q1017",
      "tafRaw": "TAF EGGW 051658Z 0518/0618 31009KT 9999 FEW030 \n  PROB30 \n  TEMPO 0521/0611 6000",
      "metarHtml": "METAR EGGW 052220Z AUTO 30007KT 9999 NCD M04/M06 Q1017",
      "tafHtml": "TAF EGGW 051658Z 0518/0618 31009KT 9999 FEW030 \n  PROB30 \n  TEMPO 0521/0611 6000"
    },
    {
      "icao": "ENAL",
      "iata": "AES",
      "name": "Ålesund Airport, Vigra",
      "updatedAt": "052220Z",
      "visibility_m": 10000,
      "taf_visibility_m": 10000,
      "worst_visibility_m": 10000,
      "ceiling_ft": null,
      "hazards": [],
      "severityScore": 0,
      "metarRaw": "METAR ENAL 052220Z AUTO 14015KT 9999 NCD M05/M11 Q1011",
      "tafRaw": "TAF ENAL 052000Z 0521/0606 14012KT 9999 SCT040",
      "metarHtml": "METAR ENAL 052220Z AUTO 14015KT 9999 NCD M05/M11 Q1011",
      "tafHtml": "TAF ENAL 052000Z 0521/0606 14012KT 9999 SCT040"
    },
    {
      "icao": "ENBR",
      "iata": "BGO",
      "name": "Bergen Airport, Flesland",
      "updatedAt": "052220Z",
      "visibility_m": 10000,
      "taf_visibility_m": 10000,
      "worst_visibility_m": 10000,
      "ceiling_ft": null,
      "hazards": [],
      "severityScore": 0,
      "metarRaw": "METAR ENBR 052220Z 08003KT CAVOK M09/M13 Q1011 RMK WIND 1200FT 09002KT",
      "tafRaw": "TAF ENBR 051700Z 0518/0618 07005KT 9999 SCT050",
      "metarHtml": "METAR ENBR 052220Z 08003KT <span class=\"hl-vis\">CAVOK</span> M09/M13 Q1011 RMK WIND 1200FT 09002KT",
      "tafHtml": "TAF ENBR 051700Z 0518/0618 07005KT 9999 SCT050"
    },
    {
      "icao": "ENTC",
      "iata": "TOS",
      "name": "Tromsø Airport, Langnes",
      "updatedAt": "052220Z",
      "visibility_m": 10000,
      "taf_visibility_m": 10000,
      "worst_visibility_m": 10000,
      "ceiling_ft": null,
      "hazards": [],
      "severityScore": 0,
      "metarRaw": "METAR ENTC 052220Z 06001KT CAVOK M13/M16 Q1014 RMK WIND 2600FT 12011KT",
      "tafRaw": "TAF ENTC 051700Z 0518/0618 23005KT CAVOK",
      "metarHtml": "METAR ENTC 052220Z 06001KT <span class=\"hl-vis\">CAVOK</span> M13/M16 Q1014 RMK WIND 2600FT 12011KT",
      "tafHtml": "TAF ENTC 051700Z 0518/0618 23005KT <span class=\"hl-vis\">CAVOK</span>"
    },
    {
      "icao": "ENVA",
      "iata": "TRD",
      "name": "Trondheim Airport, Værnes",
      "updatedAt": "052220Z",
      "visibility_m": 10000,
      "taf_visibility_m": 10000,
      "worst_visibility_m": 10000,
      "ceiling_ft": null,
      "hazards": [],
      "severityScore": 0,
      "metarRaw": "METAR ENVA 052220Z 11009KT CAVOK M17/M19 Q1015 RMK WIND 670FT 10010KT",
      "tafRaw": "TAF ENVA 051700Z 0518/0618 10007KT CAVOK",
      "metarHtml": "METAR ENVA 052220Z 11009KT <span class=\"hl-vis\">CAVOK</span> M17/M19 Q1015 RMK WIND 670FT 10010KT",
      "tafHtml": "TAF ENVA 051700Z 0518/0618 10007KT <span class=\"hl-vis\">CAVOK</span>"
    },
    {
      "icao": "EPRA",
      "iata": "RDO",
      "name": "Warsaw Radom Airport",
      "updatedAt": "052230Z",
      "visibility_m": 10000,
      "taf_visibility_m": 10000,
      "worst_visibility_m": 10000,
      "ceiling_ft": null,
      "hazards": [],
      "severityScore": 0,
      "metarRaw": "METAR EPRA 052230Z 06004KT CAVOK M05/M08 Q1012",
      "tafRaw": "TAF EPRA 052030Z 0521/0606 05006KT CAVOK \n  BECMG 0601/0603 34008KT BKN020 \n  PROB30 0603/0606 BKN010",
      "metarHtml": "METAR EPRA 052230Z 06004KT <span class=\"hl-vis\">CAVOK</span> M05/M08 Q1012",
      "tafHtml": "TAF EPRA 052030Z 0521/0606 05006KT <span class=\"hl-vis\">CAVOK</span> \n  BECMG 0601/0603 34008KT BKN020 \n  PROB30 0603/0606 BKN010"
    },
    {
      "icao": "EPWR",
      "iata": "WRO",
      "name": "Copernicus Wrocław Airport",
      "updatedAt": "052230Z",
      "visibility_m": 8000,
      "taf_visibility_m": 10000,
      "worst_visibility_m": 8000,
      "ceiling_ft": null,
      "hazards": [],
      "severityScore": 0,
      "metarRaw": "METAR EPWR 052230Z 31003KT 8000 NSC M09/M10 Q1014",
      "tafRaw": "TAF EPWR 052030Z 0521/0621 29003KT CAVOK",
      "metarHtml": "METAR EPWR 052230Z 31003KT 8000 NSC M09/M10 Q1014",
      "tafHtml": "TAF EPWR 052030Z 0521/0621 29003KT <span class=\"hl-vis\">CAVOK</span>"
    },
    {
      "icao": "HEGN",
      "iata": "HRG",
      "name": "Hurghada International Airport",
      "updatedAt": "052200Z",
      "visibility_m": 10000,
      "taf_visibility_m": 10000,
      "worst_visibility_m": 10000,
      "ceiling_ft": null,
      "hazards": [],
      "severityScore": 0,
      "metarRaw": "METAR HEGN 052200Z 29005KT CAVOK 16/05 Q1018 NOSIG",
      "tafRaw": "TAF HEGN 051700Z 0518/0624 34012KT CAVOK",
      "metarHtml": "METAR HEGN 052200Z 29005KT <span class=\"hl-vis\">CAVOK</span> 16/05 Q1018 NOSIG",
      "tafHtml": "TAF HEGN 051700Z 0518/0624 34012KT <span class=\"hl-vis\">CAVOK</span>"
    },
    {
      "icao": "HEMA",
      "iata": "RMF",
      "name": "Marsa Alam International Airport",
      "updatedAt": "052200Z",
      "visibility_m": 10000,
      "taf_visibility_m": 4000,
      "worst_visibility_m": 4000,
      "ceiling_ft": null,
      "hazards": [],
      "severityScore": 0,
      "metarRaw": "METAR HEMA 052200Z 29008KT CAVOK 18/15 Q1017 NOSIG",
      "tafRaw": "TAF HEMA 051700Z 0518/0624 33013KT 6000 NSC \n  TEMPO 0518/0524 4000 SA",
      "metarHtml": "METAR HEMA 052200Z 29008KT <span class=\"hl-vis\">CAVOK</span> 18/15 Q1017 NOSIG",
      "tafHtml": "TAF HEMA 051700Z 0518/0624 33013KT 6000 NSC \n  TEMPO 0518/0524 4000 SA"
    },
    {
      "icao": "HESH",
      "iata": "SSH",
      "name": "Sharm El Sheikh International Airport",
      "updatedAt": "052200Z",
      "visibility_m": 10000,
      "taf_visibility_m": 10000,
      "worst_visibility_m": 10000,
      "ceiling_ft": null,
      "hazards": [],
      "severityScore": 0,
      "metarRaw": "METAR HESH 052200Z 34006KT CAVOK 20/14 Q1018 NOSIG",
      "tafRaw": "TAF HESH 051700Z 0518/0624 36010KT CAVOK",
      "metarHtml": "METAR HESH 052200Z 34006KT <span class=\"hl-vis\">CAVOK</span> 20/14 Q1018 NOSIG",
      "tafHtml": "TAF HESH 051700Z 0518/0624 36010KT <span class=\"hl-vis\">CAVOK</span>"
    },
    {
      "icao": "LBSF",
      "iata": "SOF",
      "name": "Sofia Airport",
      "updatedAt": "052230Z",
      "visibility_m": 10000,
      "taf_visibility_m": 10000,
      "worst_visibility_m": 10000,
      "ceiling_ft": null,
      "hazards": [],
      "severityScore": 0,
      "metarRaw": "METAR LBSF 052230Z AUTO 14003KT 9999 BKN088/// 07/04 Q1010 NOSIG",
      "tafRaw": "TAF LBSF 051700Z 0518/0618 11010KT 9999 SCT040 BKN060 \n  PROB30 \n  TEMPO 0518/0521 21018G30KT \n  TEMPO 0605/0609 VRB03KT",
      "metarHtml": "METAR LBSF 052230Z AUTO 14003KT 9999 BKN088/// 07/04 Q1010 NOSIG",
      "tafHtml": "TAF LBSF 051700Z 0518/0618 11010KT 9999 SCT040 BKN060 \n  PROB30 \n  TEMPO 0518/0521 21018G30KT \n  TEMPO 0605/0609 VRB03KT"
    },
    {
      "icao": "LCLK",
      "iata": "LCA",
      "name": "Larnaca International Airport",
      "updatedAt": "052230Z",
      "visibility_m": 10000,
      "taf_visibility_m": 10000,
      "worst_visibility_m": 10000,
      "ceiling_ft": null,
      "hazards": [],
      "severityScore": 0,
      "metarRaw": "METAR LCLK 052230Z 34009KT CAVOK 12/09 Q1021 NOSIG",
      "tafRaw": "TAF LCLK 051730Z 0518/0618 34008KT CAVOK \n  BECMG 0610/0612 05012KT \n  BECMG 0616/0618 34006KT",
      "metarHtml": "METAR LCLK 052230Z 34009KT <span class=\"hl-vis\">CAVOK</span> 12/09 Q1021 NOSIG",
      "tafHtml": "TAF LCLK 051730Z 0518/0618 34008KT <span class=\"hl-vis\">CAVOK</span> \n  BECMG 0610/0612 05012KT \n  BECMG 0616/0618 34006KT"
    },
    {
      "icao": "LCPH",
      "iata": "PFO",
      "name": "Paphos International Airport",
      "updatedAt": "052230Z",
      "visibility_m": 10000,
      "taf_visibility_m": 10000,
      "worst_visibility_m": 10000,
      "ceiling_ft": null,
      "hazards": [],
      "severityScore": 0,
      "metarRaw": "METAR LCPH 052230Z 01007KT CAVOK 11/05 Q1020 NOSIG",
      "tafRaw": "TAF LCPH 051730Z 0518/0618 08008KT 9999 FEW040 \n  BECMG 0610/0612 14012KT \n  BECMG 0616/0618 08008KT",
      "metarHtml": "METAR LCPH 052230Z 01007KT <span class=\"hl-vis\">CAVOK</span> 11/05 Q1020 NOSIG",
      "tafHtml": "TAF LCPH 051730Z 0518/0618 08008KT 9999 FEW040 \n  BECMG 0610/0612 14012KT \n  BECMG 0616/0618 08008KT"
    },
    {
      "icao": "LEBL",
      "iata": "BCN",
      "name": "Josep Tarradellas Barcelona-El Prat Airport",
      "updatedAt": "052230Z",
      "visibility_m": 10000,
      "taf_visibility_m": 10000,
      "worst_visibility_m": 10000,
      "ceiling_ft": null,
      "hazards": [],
      "severityScore": 0,
      "metarRaw": "METAR LEBL 052230Z 33015KT 9999 FEW030 04/M01 Q1010 NOSIG",
      "tafRaw": "TAF LEBL 051700Z 0518/0618 33013KT 9999 FEW030 SCT040 TX11/0613Z TN01/0606Z \n  PROB30 \n  TEMPO 0518/0522 RASN FEW030TCU BKN040 \n  PROB40 \n  TEMPO 0518/0612 33016G30KT",
      "metarHtml": "METAR LEBL 052230Z 33015KT 9999 FEW030 04/M01 Q1010 NOSIG",
      "tafHtml": "TAF LEBL 051700Z 0518/0618 33013KT 9999 FEW030 SCT040 TX11/0613Z TN01/0606Z \n  PROB30 \n  TEMPO 0518/0522 RASN FEW030TCU BKN040 \n  PROB40 \n  TEMPO 0518/0612 33016G30KT"
    },
    {
      "icao": "LEZG",
      "iata": "ZAZ",
      "name": "Zaragoza Airport",
      "updatedAt": "052230Z",
      "visibility_m": 10000,
      "taf_visibility_m": 10000,
      "worst_visibility_m": 10000,
      "ceiling_ft": null,
      "hazards": [],
      "severityScore": 0,
      "metarRaw": "METAR LEZG 052230Z 29013KT 9999 FEW075 01/M05 Q1012 NOSIG",
      "tafRaw": "TAF LEZG 051700Z 0518/0618 31018KT 9999 FEW050 TX07/0615Z TN00/0606Z \n  TEMPO 0518/0522 31020G30KT \n  BECMG 0522/0524 31012KT",
      "metarHtml": "METAR LEZG 052230Z 29013KT 9999 FEW075 01/M05 Q1012 NOSIG",
      "tafHtml": "TAF LEZG 051700Z 0518/0618 31018KT 9999 FEW050 TX07/0615Z TN00/0606Z \n  TEMPO 0518/0522 31020G30KT \n  BECMG 0522/0524 31012KT"
    },
    {
      "icao": "LEZL",
      "iata": "SVQ",
      "name": "Sevilla Airport",
      "updatedAt": "052230Z",
      "visibility_m": 10000,
      "taf_visibility_m": 10000,
      "worst_visibility_m": 10000,
      "ceiling_ft": null,
      "hazards": [],
      "severityScore": 0,
      "metarRaw": "METAR LEZL 052230Z 35007KT CAVOK 08/M01 Q1012 NOSIG",
      "tafRaw": "TAF LEZL 052000Z 0521/0621 30004KT CAVOK TX13/0615Z TN02/0607Z \n  BECMG 0611/0613 36010KT \n  BECMG 0616/0618 30004KT",
      "metarHtml": "METAR LEZL 052230Z 35007KT <span class=\"hl-vis\">CAVOK</span> 08/M01 Q1012 NOSIG",
      "tafHtml": "TAF LEZL 052000Z 0521/0621 30004KT <span class=\"hl-vis\">CAVOK</span> TX13/0615Z TN02/0607Z \n  BECMG 0611/0613 36010KT \n  BECMG 0616/0618 30004KT"
    },
    {
      "icao": "LFLS",
      "iata": "GNB",
      "name": "Grenoble Alpes Isère Airport",
      "updatedAt": "052230Z",
      "visibility_m": 10000,
      "taf_visibility_m": 10000,
      "worst_visibility_m": 10000,
      "ceiling_ft": null,
      "hazards": [],
      "severityScore": 0,
      "metarRaw": "METAR LFLS 052230Z AUTO 01006KT 340V040 CAVOK M05/M07 Q1012",
      "tafRaw": "TAF LFLS 051400Z 0515/0615 36008KT CAVOK \n  PROB30 \n  TEMPO 0600/0606 BKN006 \n  BECMG 0612/0614 BKN016",
      "metarHtml": "METAR LFLS 052230Z AUTO 01006KT 340V040 <span class=\"hl-vis\">CAVOK</span> M05/M07 Q1012",
      "tafHtml": "TAF LFLS 051400Z 0515/0615 36008KT <span class=\"hl-vis\">CAVOK</span> \n  PROB30 \n  TEMPO 0600/0606 BKN006 \n  BECMG 0612/0614 BKN016"
    },
    {
      "icao": "LGAV",
      "iata": "ATH",
      "name": "Athens Eleftherios Venizelos International Airport",
      "updatedAt": "052220Z",
      "visibility_m": 10000,
      "taf_visibility_m": 10000,
      "worst_visibility_m": 10000,
      "ceiling_ft": null,
      "hazards": [],
      "severityScore": 0,
      "metarRaw": "METAR LGAV 052220Z 22012KT 9999 FEW018 SCT030 15/11 Q1015 NOSIG",
      "tafRaw": "TAF LGAV 051700Z 0518/0618 19014KT 9999 FEW018 SCT030 BKN070 \n  BECMG 0521/0522 FEW025 SCT070 \n  TEMPO 0609/0618 19014G24KT",
      "metarHtml": "METAR LGAV 052220Z 22012KT 9999 FEW018 SCT030 15/11 Q1015 NOSIG",
      "tafHtml": "TAF LGAV 051700Z 0518/0618 19014KT 9999 FEW018 SCT030 BKN070 \n  BECMG 0521/0522 FEW025 SCT070 \n  TEMPO 0609/0618 19014G24KT"
    },
    {
      "icao": "LICA",
      "iata": "SUF",
      "name": "Lamezia Terme Sant'Eufemia International Airport",
      "updatedAt": "052220Z",
      "visibility_m": 10000,
      "taf_visibility_m": 10000,
      "worst_visibility_m": 10000,
      "ceiling_ft": null,
      "hazards": [],
      "severityScore": 0,
      "metarRaw": "METAR LICA 052220Z AUTO 09007KT 9999 NCD 10/10 Q1005",
      "tafRaw": "TAF LICA 051700Z 0518/0618 VRB05KT 9999 SCT050 \n  BECMG 0605/0607 07010KT",
      "metarHtml": "METAR LICA 052220Z AUTO 09007KT 9999 NCD 10/10 Q1005",
      "tafHtml": "TAF LICA 051700Z 0518/0618 VRB05KT 9999 SCT050 \n  BECMG 0605/0607 07010KT"
    },
    {
      "icao": "LICJ",
      "iata": "PMO",
      "name": "Falcone–Borsellino Airport",
      "updatedAt": "052220Z",
      "visibility_m": 10000,
      "taf_visibility_m": 10000,
      "worst_visibility_m": 10000,
      "ceiling_ft": null,
      "hazards": [],
      "severityScore": 0,
      "metarRaw": "METAR LICJ 052220Z 21018KT CAVOK 17/07 Q1003",
      "tafRaw": "TAF LICJ 051700Z 0518/0618 21016KT 9999 FEW030 \n  TEMPO 0609/0615 21020G30KT",
      "metarHtml": "METAR LICJ 052220Z 21018KT <span class=\"hl-vis\">CAVOK</span> 17/07 Q1003",
      "tafHtml": "TAF LICJ 051700Z 0518/0618 21016KT 9999 FEW030 \n  TEMPO 0609/0615 21020G30KT"
    },
    {
      "icao": "LIMC",
      "iata": "MXP",
      "name": "Milan Malpensa International Airport",
      "updatedAt": "052220Z",
      "visibility_m": 10000,
      "taf_visibility_m": 10000,
      "worst_visibility_m": 10000,
      "ceiling_ft": null,
      "hazards": [],
      "severityScore": 0,
      "metarRaw": "METAR LIMC 052220Z 03004KT CAVOK M06/M07 Q1008 NOSIG",
      "tafRaw": "TAF LIMC 051700Z 0518/0624 VRB03KT CAVOK",
      "metarHtml": "METAR LIMC 052220Z 03004KT <span class=\"hl-vis\">CAVOK</span> M06/M07 Q1008 NOSIG",
      "tafHtml": "TAF LIMC 051700Z 0518/0624 VRB03KT <span class=\"hl-vis\">CAVOK</span>"
    },
    {
      "icao": "LIME",
      "iata": "BGY",
      "name": "Milan Bergamo Airport / Antonio Locatelli Air Base",
      "updatedAt": "052220Z",
      "visibility_m": 10000,
      "taf_visibility_m": 10000,
      "worst_visibility_m": 10000,
      "ceiling_ft": null,
      "hazards": [],
      "severityScore": 0,
      "metarRaw": "METAR LIME 052220Z 36003KT CAVOK M01/M05 Q1008 NOSIG",
      "tafRaw": "TAF LIME 051700Z 0518/0618 VRB03KT CAVOK",
      "metarHtml": "METAR LIME 052220Z 36003KT <span class=\"hl-vis\">CAVOK</span> M01/M05 Q1008 NOSIG",
      "tafHtml": "TAF LIME 051700Z 0518/0618 VRB03KT <span class=\"hl-vis\">CAVOK</span>"
    },
    {
      "icao": "LIMF",
      "iata": "TRN",
      "name": "Turin Airport",
      "updatedAt": "052220Z",
      "visibility_m": 10000,
      "taf_visibility_m": 10000,
      "worst_visibility_m": 10000,
      "ceiling_ft": null,
      "hazards": [],
      "severityScore": 0,
      "metarRaw": "METAR LIMF 052220Z VRB01KT CAVOK M03/M09 Q1008",
      "tafRaw": "TAF LIMF 051700Z 0518/0618 VRB03KT CAVOK",
      "metarHtml": "METAR LIMF 052220Z VRB01KT <span class=\"hl-vis\">CAVOK</span> M03/M09 Q1008",
      "tafHtml": "TAF LIMF 051700Z 0518/0618 VRB03KT <span class=\"hl-vis\">CAVOK</span>"
    },
    {
      "icao": "LIMJ",
      "iata": "GOA",
      "name": "Genoa Cristoforo Colombo Airport",
      "updatedAt": "052220Z",
      "visibility_m": 10000,
      "taf_visibility_m": 10000,
      "worst_visibility_m": 10000,
      "ceiling_ft": null,
      "hazards": [],
      "severityScore": 0,
      "metarRaw": "METAR LIMJ 052220Z 04014KT 360V070 CAVOK 04/M05 Q1006",
      "tafRaw": "TAF LIMJ 051700Z 0518/0618 01014KT CAVOK",
      "metarHtml": "METAR LIMJ 052220Z 04014KT 360V070 <span class=\"hl-vis\">CAVOK</span> 04/M05 Q1006",
      "tafHtml": "TAF LIMJ 051700Z 0518/0618 01014KT <span class=\"hl-vis\">CAVOK</span>"
    },
    {
      "icao": "LIPH",
      "iata": "TSF",
      "name": "Treviso Antonio Canova Airport",
      "updatedAt": "052220Z",
      "visibility_m": 7000,
      "taf_visibility_m": 10000,
      "worst_visibility_m": 7000,
      "ceiling_ft": null,
      "hazards": [],
      "severityScore": 0,
      "metarRaw": "METAR LIPH 052220Z AUTO 35003KT 7000 FEW074/// BKN120/// BKN150/// 01/M04 Q1009",
      "tafRaw": "TAF LIPH 051700Z 0518/0618 03006KT 9999 SCT070",
      "metarHtml": "METAR LIPH 052220Z AUTO 35003KT 7000 FEW074/// BKN120/// BKN150/// 01/M04 Q1009",
      "tafHtml": "TAF LIPH 051700Z 0518/0618 03006KT 9999 SCT070"
    },
    {
      "icao": "LIPQ",
      "iata": "TRS",
      "name": "Trieste–Friuli Venezia Giulia Airport",
      "updatedAt": "052220Z",
      "visibility_m": 10000,
      "taf_visibility_m": 3000,
      "worst_visibility_m": 3000,
      "ceiling_ft": null,
      "hazards": [],
      "severityScore": 0,
      "metarRaw": "METAR LIPQ 052220Z AUTO 09010KT 9999 OVC048/// 04/M04 Q1008",
      "tafRaw": "TAF LIPQ 051700Z 0518/0618 08008KT 9999 BKN030 \n  TEMPO 0610/0614 3000 -RASN BKN010",
      "metarHtml": "METAR LIPQ 052220Z AUTO 09010KT 9999 OVC048/// 04/M04 Q1008",
      "tafHtml": "TAF LIPQ 051700Z 0518/0618 08008KT 9999 BKN030 \n  TEMPO 0610/0614 3000 -RASN BKN010"
    },
    {
      "icao": "LIPX",
      "iata": "VRN",
      "name": "Verona Villafranca Valerio Catullo Airport",
      "updatedAt": "052220Z",
      "visibility_m": 10000,
      "taf_visibility_m": 10000,
      "worst_visibility_m": 10000,
      "ceiling_ft": null,
      "hazards": [],
      "severityScore": 0,
      "metarRaw": "METAR LIPX 052220Z 36005KT 340V040 CAVOK M01/M09 Q1009",
      "tafRaw": "TAF LIPX 051700Z 0518/0618 VRB04KT CAVOK",
      "metarHtml": "METAR LIPX 052220Z 36005KT 340V040 <span class=\"hl-vis\">CAVOK</span> M01/M09 Q1009",
      "tafHtml": "TAF LIPX 051700Z 0518/0618 VRB04KT <span class=\"hl-vis\">CAVOK</span>"
    },
    {
      "icao": "LIPZ",
      "iata": "VCE",
      "name": "Venice Marco Polo Airport",
      "updatedAt": "052220Z",
      "visibility_m": 9000,
      "taf_visibility_m": 10000,
      "worst_visibility_m": 9000,
      "ceiling_ft": null,
      "hazards": [],
      "severityScore": 0,
      "metarRaw": "METAR LIPZ 052220Z 33005KT 320V020 9000 SCT070 02/M03 Q1008 NOSIG",
      "tafRaw": "TAF LIPZ 051700Z 0518/0624 02008KT 9999 SCT070 \n  BECMG 0609/0611 08014KT \n  BECMG 0615/0617 34006KT",
      "metarHtml": "METAR LIPZ 052220Z 33005KT 320V020 9000 SCT070 02/M03 Q1008 NOSIG",
      "tafHtml": "TAF LIPZ 051700Z 0518/0624 02008KT 9999 SCT070 \n  BECMG 0609/0611 08014KT \n  BECMG 0615/0617 34006KT"
    },
    {
      "icao": "LLBG",
      "iata": "TLV",
      "name": "Ben Gurion International Airport",
      "updatedAt": "052220Z",
      "visibility_m": 10000,
      "taf_visibility_m": 10000,
      "worst_visibility_m": 10000,
      "ceiling_ft": null,
      "hazards": [],
      "severityScore": 0,
      "metarRaw": "METAR LLBG 052220Z VRB03KT CAVOK 12/07 Q1019 NOSIG",
      "tafRaw": "TAF LLBG 051700Z 0518/0618 VRB03KT CAVOK \n  PROB30 \n  TEMPO 0521/0608 13008KT \n  BECMG 0608/0610 31008KT TX22/0612Z TN11/0604Z",
      "metarHtml": "METAR LLBG 052220Z VRB03KT <span class=\"hl-vis\">CAVOK</span> 12/07 Q1019 NOSIG",
      "tafHtml": "TAF LLBG 051700Z 0518/0618 VRB03KT <span class=\"hl-vis\">CAVOK</span> \n  PROB30 \n  TEMPO 0521/0608 13008KT \n  BECMG 0608/0610 31008KT TX22/0612Z TN11/0604Z"
    },
    {
      "icao": "LMML",
      "iata": "MLA",
      "name": "Malta International Airport",
      "updatedAt": "052215Z",
      "visibility_m": 8000,
      "taf_visibility_m": 5000,
      "worst_visibility_m": 5000,
      "ceiling_ft": null,
      "hazards": [],
      "severityScore": 0,
      "metarRaw": "METAR LMML 052215Z 19008KT 160V220 8000 NSC 16/14 Q1007 NOSIG",
      "tafRaw": "TAF LMML 051700Z 0518/0618 22012KT 8000 NSC \n  PROB40 \n  TEMPO 0518/0618 5000 DU",
      "metarHtml": "METAR LMML 052215Z 19008KT 160V220 8000 NSC 16/14 Q1007 NOSIG",
      "tafHtml": "TAF LMML 051700Z 0518/0618 22012KT 8000 NSC \n  PROB40 \n  TEMPO 0518/0618 5000 DU"
    },
    {
      "icao": "LPPR",
      "iata": "OPO",
      "name": "Francisco de Sá Carneiro Airport",
      "updatedAt": "052230Z",
      "visibility_m": 10000,
      "taf_visibility_m": 10000,
      "worst_visibility_m": 10000,
      "ceiling_ft": null,
      "hazards": [],
      "severityScore": 0,
      "metarRaw": "METAR LPPR 052230Z 34012KT CAVOK 06/02 Q1019",
      "tafRaw": "TAF LPPR 051700Z 0518/0618 02010KT CAVOK",
      "metarHtml": "METAR LPPR 052230Z 34012KT <span class=\"hl-vis\">CAVOK</span> 06/02 Q1019",
      "tafHtml": "TAF LPPR 051700Z 0518/0618 02010KT <span class=\"hl-vis\">CAVOK</span>"
    },
    {
      "icao": "OEJN",
      "iata": "JED",
      "name": "King Abdulaziz International Airport",
      "updatedAt": "052200Z",
      "visibility_m": 10000,
      "taf_visibility_m": 7000,
      "worst_visibility_m": 7000,
      "ceiling_ft": null,
      "hazards": [],
      "severityScore": 0,
      "metarRaw": "METAR OEJN 052200Z 00000KT CAVOK 25/16 Q1015 NOSIG",
      "tafRaw": "TAF OEJN 051700Z 0518/0624 35006KT 7000 FEW040 \n  BECMG 0600/0602 03006KT \n  BECMG 0608/0610 27010KT \n  BECMG 0617/0619 36006KT",
      "metarHtml": "METAR OEJN 052200Z 00000KT <span class=\"hl-vis\">CAVOK</span> 25/16 Q1015 NOSIG",
      "tafHtml": "TAF OEJN 051700Z 0518/0624 35006KT 7000 FEW040 \n  BECMG 0600/0602 03006KT \n  BECMG 0608/0610 27010KT \n  BECMG 0617/0619 36006KT"
    },
    {
      "icao": "OEMA",
      "iata": "MED",
      "name": "Prince Mohammad Bin Abdulaziz Airport",
      "updatedAt": "052200Z",
      "visibility_m": 3000,
      "taf_visibility_m": 3000,
      "worst_visibility_m": 3000,
      "ceiling_ft": null,
      "hazards": [],
      "severityScore": 0,
      "metarRaw": "METAR OEMA 052200Z 06008KT 3000 DU NSC 21/M01 Q1022 NOSIG",
      "tafRaw": "TAF OEMA 051700Z 0518/0624 09010KT 7000 NSC \n  PROB30 \n  TEMPO 0518/0522 3000 DU \n  BECMG 0600/0602 08006KT 9999 FEW045",
      "metarHtml": "METAR OEMA 052200Z 06008KT 3000 DU NSC 21/M01 Q1022 NOSIG",
      "tafHtml": "TAF OEMA 051700Z 0518/0624 09010KT 7000 NSC \n  PROB30 \n  TEMPO 0518/0522 3000 DU \n  BECMG 0600/0602 08006KT 9999 FEW045"
    },
    {
      "icao": "OJAI",
      "iata": "AMM",
      "name": "Queen Alia International Airport",
      "updatedAt": "052200Z",
      "visibility_m": 5000,
      "taf_visibility_m": 4000,
      "worst_visibility_m": 4000,
      "ceiling_ft": null,
      "hazards": [],
      "severityScore": 0,
      "metarRaw": "METAR OJAI 052200Z 04005KT 5000 HZ NSC 07/01 Q1023 NOSIG",
      "tafRaw": "TAF OJAI 051649Z 0518/0624 VRB02KT 5000 HZ NSC \n  PROB30 0602/0605 4000 \n  BECMG 0605/0607 12012KT \n  PROB30 0612/0616 4000 DU",
      "metarHtml": "METAR OJAI 052200Z 04005KT 5000 HZ NSC 07/01 Q1023 NOSIG",
      "tafHtml": "TAF OJAI 051649Z 0518/0624 VRB02KT 5000 HZ NSC \n  PROB30 0602/0605 4000 \n  BECMG 0605/0607 12012KT \n  PROB30 0612/0616 4000 DU"
    },
    {
      "icao": "OMAA",
      "iata": "AUH",
      "name": "Zayed International Airport",
      "updatedAt": "052200Z",
      "visibility_m": 10000,
      "taf_visibility_m": 4000,
      "worst_visibility_m": 4000,
      "ceiling_ft": null,
      "hazards": [],
      "severityScore": 0,
      "metarRaw": "METAR OMAA 052200Z 31003KT CAVOK 19/15 Q1019 NOSIG",
      "tafRaw": "TAF OMAA 051700Z 0518/0700 05005KT 8000 FEW030 \n  PROB30 0600/0605 4000 HZ \n  BECMG 0608/0610 33012KT \n  BECMG 0617/0619 VRB02KT",
      "metarHtml": "METAR OMAA 052200Z 31003KT <span class=\"hl-vis\">CAVOK</span> 19/15 Q1019 NOSIG",
      "tafHtml": "TAF OMAA 051700Z 0518/0700 05005KT 8000 FEW030 \n  PROB30 0600/0605 4000 HZ \n  BECMG 0608/0610 33012KT \n  BECMG 0617/0619 VRB02KT"
    },
    {
      "icao": "OMDB",
      "iata": "DXB",
      "name": "Dubai International Airport",
      "updatedAt": "052230Z",
      "visibility_m": 10000,
      "taf_visibility_m": 8000,
      "worst_visibility_m": 8000,
      "ceiling_ft": null,
      "hazards": [],
      "severityScore": 0,
      "metarRaw": "METAR OMDB 052230Z 08003KT 020V100 CAVOK 20/11 Q1019 NOSIG",
      "tafRaw": "TAF OMDB 051700Z 0518/0700 06007KT 8000 FEW035 \n  BECMG 0609/0611 35010KT \n  BECMG 0615/0617 06005KT",
      "metarHtml": "METAR OMDB 052230Z 08003KT 020V100 <span class=\"hl-vis\">CAVOK</span> 20/11 Q1019 NOSIG",
      "tafHtml": "TAF OMDB 051700Z 0518/0700 06007KT 8000 FEW035 \n  BECMG 0609/0611 35010KT \n  BECMG 0615/0617 06005KT"
    },
    {
      "icao": "UGKO",
      "iata": "KUT",
      "name": "David the Builder Kutaisi International Airport",
      "updatedAt": "052230Z",
      "visibility_m": 10000,
      "taf_visibility_m": 10000,
      "worst_visibility_m": 10000,
      "ceiling_ft": null,
      "hazards": [],
      "severityScore": 0,
      "metarRaw": "METAR UGKO 052230Z 09006KT CAVOK 03/M00 Q1021 NOSIG",
      "tafRaw": "TAF UGKO 051700Z 0518/0618 08007KT CAVOK TX16/0611Z TN03/0523Z \n  TEMPO 0602/0612 08017KT \n  TEMPO 0612/0618 BKN080",
      "metarHtml": "METAR UGKO 052230Z 09006KT <span class=\"hl-vis\">CAVOK</span> 03/M00 Q1021 NOSIG",
      "tafHtml": "TAF UGKO 051700Z 0518/0618 08007KT <span class=\"hl-vis\">CAVOK</span> TX16/0611Z TN03/0523Z \n  TEMPO 0602/0612 08017KT \n  TEMPO 0612/0618 BKN080"
    }
  ],
  "stats": {
    "icaoCount": 159,
    "metarReturned": 157,
    "tafReturned": 136,
    "stationsWritten": 159,
    "missingMetar": 2,
    "missingTaf": 23
  },
  "errors": []
}