{
  "generatedAt": "2026-01-07T07:40:31.697Z",
  "stations": [
    {
      "icao": "EBCI",
      "iata": "CRL",
      "name": "Brussels South Charleroi Airport",
      "updatedAt": "070720Z",
      "visibility_m": 1500,
      "taf_visibility_m": 500,
      "worst_visibility_m": 500,
      "ceiling_ft": 900,
      "hazards": [
        "SN",
        "FG",
        "SHSN",
        "DZ"
      ],
      "severityScore": 100,
      "metarRaw": "METAR EBCI 070720Z 19018KT 9000 -SN BKN009 M02/M04 Q1008 TEMPO 18020G30KT 1500 SN",
      "tafRaw": "TAF EBCI 070500Z 0706/0812 19017G30KT 9999 SCT007 BKN010 \n  BECMG 0706/0708 3000 -SN SCT004 BKN006 \n  PROB40 \n  TEMPO 0708/0712 0800 SN BKN002 BKN003 \n  BECMG 0711/0713 21012KT 6000 NSW \n  PROB40 \n  TEMPO 0712/0721 2000 SN SHSN BKN003 \n  BECMG 0720/0722 SCT035 \n  BECMG 0805/0807 3000 -DZ -RADZ BKN004 \n  PROB40 \n  TEMPO 0807/0812 0500 -DZRA FG BKN001",
      "metarHtml": "METAR EBCI 070720Z 19018KT 9000 -<span class=\"hl\">SN</span> BKN009 M02/M04 Q1008 TEMPO 18020G30KT 1500 <span class=\"hl\">SN</span>",
      "tafHtml": "TAF EBCI 070500Z 0706/0812 19017G30KT 9999 SCT007 BKN010 \n  BECMG 0706/0708 3000 -<span class=\"hl\">SN</span> SCT004 BKN006 \n  PROB40 \n  TEMPO 0708/0712 <span class=\"hl-vis\">0800</span> <span class=\"hl\">SN</span> BKN002 BKN003 \n  BECMG 0711/0713 21012KT 6000 NSW \n  PROB40 \n  TEMPO 0712/0721 2000 <span class=\"hl\">SN</span> <span class=\"hl\">SHSN</span> BKN003 \n  BECMG 0720/0722 SCT035 \n  BECMG 0805/0807 3000 -<span class=\"hl\">DZ</span> -RADZ BKN004 \n  PROB40 \n  TEMPO 0807/0812 <span class=\"hl-vis\">0500</span> -DZRA <span class=\"hl\">FG</span> BKN001"
    },
    {
      "icao": "EYKA",
      "iata": "KUN",
      "name": "Kaunas International Airport",
      "updatedAt": "070720Z",
      "visibility_m": 4100,
      "taf_visibility_m": 500,
      "worst_visibility_m": 500,
      "ceiling_ft": 200,
      "hazards": [
        "BR",
        "FZFG"
      ],
      "severityScore": 100,
      "metarRaw": "METAR EYKA 070720Z 21003KT 180V240 4100 BR OVC002 M06/M07 Q1016",
      "tafRaw": "TAF EYKA 070500Z 0706/0806 VRB04KT 5000 BR BKN005 \n  TEMPO 0706/0712 BKN010 OVC015 \n  PROB40 \n  TEMPO 0706/0712 BKN002 \n  BECMG 0712/0713 8000 NSW BKN010 OVC015 \n  BECMG 0715/0718 5000 BR FEW010 SCT030 \n  TEMPO 0718/0721 1500 SCT003 \n  TEMPO 0721/0803 0500 FZFG VV002 \n  TEMPO 0803/0806 3000 BKN005",
      "metarHtml": "METAR EYKA 070720Z 21003KT 180V240 4100 <span class=\"hl\">BR</span> OVC002 M06/M07 Q1016",
      "tafHtml": "TAF EYKA 070500Z 0706/0806 VRB04KT 5000 <span class=\"hl\">BR</span> BKN005 \n  TEMPO 0706/0712 BKN010 OVC015 \n  PROB40 \n  TEMPO 0706/0712 BKN002 \n  BECMG 0712/0713 8000 NSW BKN010 OVC015 \n  BECMG 0715/0718 5000 <span class=\"hl\">BR</span> FEW010 SCT030 \n  TEMPO 0718/0721 1500 SCT003 \n  TEMPO 0721/0803 <span class=\"hl-vis\">0500</span> <span class=\"hl\">FZFG</span> VV002 \n  TEMPO 0803/0806 3000 BKN005"
    },
    {
      "icao": "EYVI",
      "iata": "VNO",
      "name": "Vilnius International Airport",
      "updatedAt": "070720Z",
      "visibility_m": 800,
      "taf_visibility_m": null,
      "worst_visibility_m": 800,
      "ceiling_ft": 100,
      "hazards": [
        "FZFG",
        "BR"
      ],
      "severityScore": 100,
      "metarRaw": "METAR EYVI 070720Z 21005KT 170V230 1500 0800N BR BCFG OVC001 M07/M08 Q1015 TEMPO 0800 FZFG",
      "tafRaw": null,
      "metarHtml": "METAR EYVI 070720Z 21005KT 170V230 1500 0800N <span class=\"hl\">BR</span> BCFG OVC001 M07/M08 Q1015 TEMPO <span class=\"hl-vis\">0800</span> <span class=\"hl\">FZFG</span>",
      "tafHtml": null
    },
    {
      "icao": "LBPD",
      "iata": "PDV",
      "name": "Plovdiv International Airport",
      "updatedAt": "070730Z",
      "visibility_m": 300,
      "taf_visibility_m": 800,
      "worst_visibility_m": 300,
      "ceiling_ft": 200,
      "hazards": [
        "FG",
        "BR",
        "RA"
      ],
      "severityScore": 100,
      "metarRaw": "METAR LBPD 070730Z AUTO 27005KT 0350 0300E R30/0400N FG VV002 08/08 Q1009 TEMPO 0300 FG BKN002 OVC008",
      "tafRaw": "TAF LBPD 070500Z 0706/0806 VRB03KT 3000 BR SCT015 \n  TEMPO 0706/0708 0800 BCFG BKN002 OVC008 \n  BECMG 0708/0709 9999 SCT015 BKN030 \n  TEMPO 0720/0803 5000 RA SCT010 BKN020 \n  BECMG 0803/0805 32012KT",
      "metarHtml": "METAR LBPD 070730Z AUTO 27005KT <span class=\"hl-vis\">0350</span> 0300E R30/0400N <span class=\"hl\">FG</span> VV002 08/08 Q1009 TEMPO <span class=\"hl-vis\">0300</span> <span class=\"hl\">FG</span> BKN002 OVC008",
      "tafHtml": "TAF LBPD 070500Z 0706/0806 VRB03KT 3000 <span class=\"hl\">BR</span> SCT015 \n  TEMPO 0706/0708 <span class=\"hl-vis\">0800</span> BCFG BKN002 OVC008 \n  BECMG 0708/0709 9999 SCT015 BKN030 \n  TEMPO 0720/0803 5000 <span class=\"hl\">RA</span> SCT010 BKN020 \n  BECMG 0803/0805 32012KT"
    },
    {
      "icao": "LFPO",
      "iata": "ORY",
      "name": "Paris-Orly Airport",
      "updatedAt": "070730Z",
      "visibility_m": 600,
      "taf_visibility_m": 600,
      "worst_visibility_m": 600,
      "ceiling_ft": 200,
      "hazards": [
        "FG",
        "BR",
        "SN"
      ],
      "severityScore": 100,
      "metarRaw": "METAR LFPO 070730Z AUTO 19009KT 1400 1200 R02/1800D R25/1800D R07/1800D R24/1700D R06/1800U +SN BR OVC005/// ///TCU M02/M02 Q1012 TEMPO 0600 FG BKN002",
      "tafRaw": "TAF LFPO 070500Z 0706/0812 20012KT 4000 -SN BKN007 \n  TEMPO 0706/0710 1400 SN BKN004 \n  PROB30 \n  TEMPO 0707/0710 20012G25KT 0600 FG BKN002 \n  BECMG 0711/0713 9999 NSW \n  BECMG 0715/0716 BKN016",
      "metarHtml": "METAR LFPO 070730Z AUTO 19009KT 1400 1200 R02/1800D R25/1800D R07/1800D R24/1700D R06/1800U +<span class=\"hl\">SN</span> <span class=\"hl\">BR</span> OVC005/// ///TCU M02/M02 Q1012 TEMPO <span class=\"hl-vis\">0600</span> <span class=\"hl\">FG</span> BKN002",
      "tafHtml": "TAF LFPO 070500Z 0706/0812 20012KT 4000 -<span class=\"hl\">SN</span> BKN007 \n  TEMPO 0706/0710 1400 <span class=\"hl\">SN</span> BKN004 \n  PROB30 \n  TEMPO 0707/0710 20012G25KT <span class=\"hl-vis\">0600</span> <span class=\"hl\">FG</span> BKN002 \n  BECMG 0711/0713 9999 NSW \n  BECMG 0715/0716 BKN016"
    },
    {
      "icao": "LRBC",
      "iata": "BCM",
      "name": "Bacău George Enescu International  Airport",
      "updatedAt": "070730Z",
      "visibility_m": 1300,
      "taf_visibility_m": 300,
      "worst_visibility_m": 300,
      "ceiling_ft": 200,
      "hazards": [
        "BR",
        "FZFG",
        "FG"
      ],
      "severityScore": 100,
      "metarRaw": "METAR LRBC 070730Z 35005KT 1300 R34/2000D BR OVC002 00/00 Q1010",
      "tafRaw": "TAF LRBC 070500Z 0706/0715 35007KT 0600 FG OVC002 \n  TEMPO 0706/0708 0300 FZFG OVC001 \n  BECMG 0708/0710 1500 BR OVC010 \n  BECMG 0710/0712 3000 OVC015",
      "metarHtml": "METAR LRBC 070730Z 35005KT 1300 R34/2000D <span class=\"hl\">BR</span> OVC002 00/00 Q1010",
      "tafHtml": "TAF LRBC 070500Z 0706/0715 35007KT <span class=\"hl-vis\">0600</span> <span class=\"hl\">FG</span> OVC002 \n  TEMPO 0706/0708 <span class=\"hl-vis\">0300</span> <span class=\"hl\">FZFG</span> OVC001 \n  BECMG 0708/0710 1500 <span class=\"hl\">BR</span> OVC010 \n  BECMG 0710/0712 3000 OVC015"
    },
    {
      "icao": "LRBS",
      "iata": "BBU",
      "name": "Bucharest Băneasa Aurel Vlaicu International Airport",
      "updatedAt": "070730Z",
      "visibility_m": 300,
      "taf_visibility_m": 600,
      "worst_visibility_m": 300,
      "ceiling_ft": 200,
      "hazards": [
        "FG",
        "DZ",
        "BR",
        "RA",
        "SHRA"
      ],
      "severityScore": 100,
      "metarRaw": "METAR LRBS 070730Z 06005KT 0300 R07/0550N -DZ FG VV002 03/03 Q1010 NOSIG",
      "tafRaw": "TAF LRBS 070500Z 0706/0806 07010KT 3000 BR OVC005 \n  TEMPO 0706/0707 0600 FG OVC002 \n  BECMG 0709/0711 9999 NSW BKN010 \n  BECMG 0713/0715 5000 -RA BR BKN005 BKN025 \n  TEMPO 0715/0720 1500 -RA BR OVC002 \n  PROB40 \n  TEMPO 0802/0806 3000 -SHRA BKN005 SCT025CB",
      "metarHtml": "METAR LRBS 070730Z 06005KT <span class=\"hl-vis\">0300</span> R07/0550N -<span class=\"hl\">DZ</span> <span class=\"hl\">FG</span> VV002 03/03 Q1010 NOSIG",
      "tafHtml": "TAF LRBS 070500Z 0706/0806 07010KT 3000 <span class=\"hl\">BR</span> OVC005 \n  TEMPO 0706/0707 <span class=\"hl-vis\">0600</span> <span class=\"hl\">FG</span> OVC002 \n  BECMG 0709/0711 9999 NSW BKN010 \n  BECMG 0713/0715 5000 -<span class=\"hl\">RA</span> <span class=\"hl\">BR</span> BKN005 BKN025 \n  TEMPO 0715/0720 1500 -<span class=\"hl\">RA</span> <span class=\"hl\">BR</span> OVC002 \n  PROB40 \n  TEMPO 0802/0806 3000 -<span class=\"hl\">SHRA</span> BKN005 SCT025CB"
    },
    {
      "icao": "LRCV",
      "iata": "CRA",
      "name": "Craiova International Airport",
      "updatedAt": "070730Z",
      "visibility_m": 200,
      "taf_visibility_m": 300,
      "worst_visibility_m": 200,
      "ceiling_ft": 100,
      "hazards": [
        "FG",
        "BR",
        "RA",
        "DZ"
      ],
      "severityScore": 100,
      "metarRaw": "METAR LRCV 070730Z COR VRB01KT 0200 R26/0300N FG VV001 02/02 Q1010",
      "tafRaw": "TAF LRCV 070500Z 0706/0715 VRB04KT 0300 -RA FG OVC002 \n  BECMG 0706/0707 0600 \n  BECMG 0707/0709 1500 -DZ BR OVC005 \n  BECMG 0709/0711 5000 BR BKN010",
      "metarHtml": "METAR LRCV 070730Z COR VRB01KT <span class=\"hl-vis\">0200</span> R26/0300N <span class=\"hl\">FG</span> VV001 02/02 Q1010",
      "tafHtml": "TAF LRCV 070500Z 0706/0715 VRB04KT <span class=\"hl-vis\">0300</span> -<span class=\"hl\">RA</span> <span class=\"hl\">FG</span> OVC002 \n  BECMG 0706/0707 <span class=\"hl-vis\">0600</span> \n  BECMG 0707/0709 1500 -<span class=\"hl\">DZ</span> <span class=\"hl\">BR</span> OVC005 \n  BECMG 0709/0711 5000 <span class=\"hl\">BR</span> BKN010"
    },
    {
      "icao": "LROP",
      "iata": "OTP",
      "name": "Bucharest Henri Coandă International Airport",
      "updatedAt": "070730Z",
      "visibility_m": 300,
      "taf_visibility_m": 600,
      "worst_visibility_m": 300,
      "ceiling_ft": 100,
      "hazards": [
        "FG",
        "BR",
        "RA",
        "SHRA"
      ],
      "severityScore": 100,
      "metarRaw": "METAR LROP 070730Z 06008KT 0300 R08R/0550N R08L/0800N FG OVC001 03/03 Q1010 NOSIG",
      "tafRaw": "TAF LROP 070500Z 0706/0806 07010KT 3000 BR OVC005 \n  TEMPO 0706/0707 0600 FG OVC002 \n  BECMG 0709/0711 9999 NSW BKN010 \n  BECMG 0713/0715 5000 -RA BR BKN005 BKN025 \n  TEMPO 0715/0720 1500 -RA BR OVC002 \n  PROB40 \n  TEMPO 0802/0806 3000 -SHRA BKN005 SCT025CB",
      "metarHtml": "METAR LROP 070730Z 06008KT <span class=\"hl-vis\">0300</span> R08R/0550N R08L/0800N <span class=\"hl\">FG</span> OVC001 03/03 Q1010 NOSIG",
      "tafHtml": "TAF LROP 070500Z 0706/0806 07010KT 3000 <span class=\"hl\">BR</span> OVC005 \n  TEMPO 0706/0707 <span class=\"hl-vis\">0600</span> <span class=\"hl\">FG</span> OVC002 \n  BECMG 0709/0711 9999 NSW BKN010 \n  BECMG 0713/0715 5000 -<span class=\"hl\">RA</span> <span class=\"hl\">BR</span> BKN005 BKN025 \n  TEMPO 0715/0720 1500 -<span class=\"hl\">RA</span> <span class=\"hl\">BR</span> OVC002 \n  PROB40 \n  TEMPO 0802/0806 3000 -<span class=\"hl\">SHRA</span> BKN005 SCT025CB"
    },
    {
      "icao": "LRTM",
      "iata": "TGM",
      "name": "Târgu Mureş Transilvania International Airport",
      "updatedAt": "070730Z",
      "visibility_m": 3200,
      "taf_visibility_m": 300,
      "worst_visibility_m": 300,
      "ceiling_ft": 1400,
      "hazards": [
        "BR",
        "RA",
        "FZFG",
        "FG",
        "SN",
        "FZDZ"
      ],
      "severityScore": 100,
      "metarRaw": "METAR LRTM 070730Z 25005KT 3200 -RA BR FEW004 SCT007 BKN014 01/01 Q1009",
      "tafRaw": "TAF LRTM 070500Z 0706/0715 VRB04KT 0300 FG OVC001 \n  PROB30 \n  TEMPO 0706/0707 0800 -FZDZ FZFG \n  BECMG 0707/0708 0800 OVC002 \n  BECMG 0708/0710 1500 -RASN BR BKN005 OVC020 \n  BECMG 0710/0712 3000 -SN BR \n  TEMPO 0712/0715 1500 -SN BR OVC002",
      "metarHtml": "METAR LRTM 070730Z 25005KT 3200 -<span class=\"hl\">RA</span> <span class=\"hl\">BR</span> FEW004 SCT007 BKN014 01/01 Q1009",
      "tafHtml": "TAF LRTM 070500Z 0706/0715 VRB04KT <span class=\"hl-vis\">0300</span> <span class=\"hl\">FG</span> OVC001 \n  PROB30 \n  TEMPO 0706/0707 <span class=\"hl-vis\">0800</span> -<span class=\"hl\">FZDZ</span> <span class=\"hl\">FZFG</span> \n  BECMG 0707/0708 <span class=\"hl-vis\">0800</span> OVC002 \n  BECMG 0708/0710 1500 -RASN <span class=\"hl\">BR</span> BKN005 OVC020 \n  BECMG 0710/0712 3000 -<span class=\"hl\">SN</span> <span class=\"hl\">BR</span> \n  TEMPO 0712/0715 1500 -<span class=\"hl\">SN</span> <span class=\"hl\">BR</span> OVC002"
    },
    {
      "icao": "LRTR",
      "iata": "TSR",
      "name": "Timişoara Traian Vuia Airport",
      "updatedAt": "070730Z",
      "visibility_m": 3500,
      "taf_visibility_m": 600,
      "worst_visibility_m": 600,
      "ceiling_ft": 500,
      "hazards": [
        "BR",
        "FZFG",
        "SN"
      ],
      "severityScore": 100,
      "metarRaw": "METAR LRTR 070730Z 21005KT 3500 BR FEW004 BKN005 OVC009 M02/M02 Q1012",
      "tafRaw": "TAF LRTR 070500Z 0706/0806 VRB04KT 3000 -SN BR SCT010 OVC035 \n  TEMPO 0706/0708 1500 SN BR BKN005 OVC030 \n  TEMPO 0708/0712 5000 BR SCT005 BKN015 \n  BECMG 0715/0717 34010KT 1500 SN BR BKN005 OVC015 \n  TEMPO 0717/0721 0600 +SN FZFG BKN002 OVC010 \n  TEMPO 0800/0804 0800 SN FZFG BKN002 OVC010",
      "metarHtml": "METAR LRTR 070730Z 21005KT 3500 <span class=\"hl\">BR</span> FEW004 BKN005 OVC009 M02/M02 Q1012",
      "tafHtml": "TAF LRTR 070500Z 0706/0806 VRB04KT 3000 -<span class=\"hl\">SN</span> <span class=\"hl\">BR</span> SCT010 OVC035 \n  TEMPO 0706/0708 1500 <span class=\"hl\">SN</span> <span class=\"hl\">BR</span> BKN005 OVC030 \n  TEMPO 0708/0712 5000 <span class=\"hl\">BR</span> SCT005 BKN015 \n  BECMG 0715/0717 34010KT 1500 <span class=\"hl\">SN</span> <span class=\"hl\">BR</span> BKN005 OVC015 \n  TEMPO 0717/0721 <span class=\"hl-vis\">0600</span> +<span class=\"hl\">SN</span> <span class=\"hl\">FZFG</span> BKN002 OVC010 \n  TEMPO <span class=\"hl-vis\">0800</span>/0804 <span class=\"hl-vis\">0800</span> <span class=\"hl\">SN</span> <span class=\"hl\">FZFG</span> BKN002 OVC010"
    },
    {
      "icao": "LUKK",
      "iata": "RMO",
      "name": "Chişinău International Airport",
      "updatedAt": "070730Z",
      "visibility_m": 800,
      "taf_visibility_m": 800,
      "worst_visibility_m": 800,
      "ceiling_ft": 100,
      "hazards": [
        "FG",
        "DZ",
        "BR",
        "SHRA"
      ],
      "severityScore": 100,
      "metarRaw": "METAR LUKK 070730Z VRB02KT 0900 0650SW R08/0750N -DZ FG VV002 02/02 Q1010 TEMPO 0800 FG VV001",
      "tafRaw": "TAF LUKK 070516Z 0706/0806 33006KT 4000 BR OVC003 \n  TEMPO 0706/0708 0800 FG VV001 \n  BECMG 0708/0710 8000 NSW OVC006 \n  BECMG 0710/0712 BKN009 \n  TEMPO 0803/0806 3000 SHRA BKN012 SCT025CB",
      "metarHtml": "METAR LUKK 070730Z VRB02KT 0900 0650SW R08/0750N -<span class=\"hl\">DZ</span> <span class=\"hl\">FG</span> VV002 02/02 Q1010 TEMPO <span class=\"hl-vis\">0800</span> <span class=\"hl\">FG</span> VV001",
      "tafHtml": "TAF LUKK 070516Z 0706/0806 33006KT 4000 <span class=\"hl\">BR</span> OVC003 \n  TEMPO 0706/0708 <span class=\"hl-vis\">0800</span> <span class=\"hl\">FG</span> VV001 \n  BECMG 0708/0710 8000 NSW OVC006 \n  BECMG 0710/0712 BKN009 \n  TEMPO 0803/0806 3000 <span class=\"hl\">SHRA</span> BKN012 SCT025CB"
    },
    {
      "icao": "UAAA",
      "iata": "ALA",
      "name": "Almaty International Airport",
      "updatedAt": "070730Z",
      "visibility_m": 550,
      "taf_visibility_m": 200,
      "worst_visibility_m": 200,
      "ceiling_ft": 100,
      "hazards": [
        "FZFG",
        "BR"
      ],
      "severityScore": 100,
      "metarRaw": "METAR UAAA 070730Z VRB01MPS 0550 R23L/0600N FZFG VV001 M04/M05 Q1032 NOSIG RMK QBB050",
      "tafRaw": "TAF UAAA 070503Z 0706/0806 04003MPS 0800 FZFG VV003 TX02/0709Z TNM05/0801Z \n  TEMPO 0706/0710 34002MPS 0200 VV001 \n  TEMPO 0710/0713 1500 BR FU SCT011 BKN100 \n  TEMPO 0713/0801 VRB01MPS 0200 VV001 \n  TEMPO 0801/0806 29002MPS 0200 VV001",
      "metarHtml": "METAR UAAA 070730Z VRB01MPS <span class=\"hl-vis\">0550</span> R23L/0600N <span class=\"hl\">FZFG</span> VV001 M04/M05 Q1032 NOSIG RMK QBB050",
      "tafHtml": "TAF UAAA 070503Z 0706/0806 04003MPS <span class=\"hl-vis\">0800</span> <span class=\"hl\">FZFG</span> VV003 TX02/0709Z TNM05/0801Z \n  TEMPO 0706/0710 34002MPS <span class=\"hl-vis\">0200</span> VV001 \n  TEMPO 0710/0713 1500 <span class=\"hl\">BR</span> FU SCT011 BKN100 \n  TEMPO 0713/0801 VRB01MPS <span class=\"hl-vis\">0200</span> VV001 \n  TEMPO 0801/0806 29002MPS <span class=\"hl-vis\">0200</span> VV001"
    },
    {
      "icao": "LFOB",
      "iata": "BVA",
      "name": "Beauvais Tillé airport",
      "updatedAt": "070730Z",
      "visibility_m": 1100,
      "taf_visibility_m": 1100,
      "worst_visibility_m": 1100,
      "ceiling_ft": 400,
      "hazards": [
        "BR",
        "SN",
        "RA",
        "SHRA"
      ],
      "severityScore": 99,
      "metarRaw": "METAR LFOB 070730Z AUTO 19015KT 3400 -SN BR OVC005/// ///TCU M01/M01 Q1008 TEMPO 1100 +SN OVC004 BECMG 19015G25KT",
      "tafRaw": "TAF LFOB 070500Z 0706/0806 19015G25KT 9999 OVC014 \n  TEMPO 0706/0711 2000 SN OVC009 \n  PROB40 0706/0711 1100 +SN OVC004 \n  BECMG 0711/0713 22006KT NSC \n  PROB30 \n  TEMPO 0718/0721 3500 SHRA \n  BECMG 0801/0805 4500 RA BKN009",
      "metarHtml": "METAR LFOB 070730Z AUTO 19015KT 3400 -<span class=\"hl\">SN</span> <span class=\"hl\">BR</span> OVC005/// ///TCU M01/M01 Q1008 TEMPO 1100 +<span class=\"hl\">SN</span> OVC004 BECMG 19015G25KT",
      "tafHtml": "TAF LFOB 070500Z 0706/0806 19015G25KT 9999 OVC014 \n  TEMPO 0706/0711 2000 <span class=\"hl\">SN</span> OVC009 \n  PROB40 0706/0711 1100 +<span class=\"hl\">SN</span> OVC004 \n  BECMG 0711/0713 22006KT NSC \n  PROB30 \n  TEMPO 0718/0721 3500 <span class=\"hl\">SHRA</span> \n  BECMG 0801/0805 4500 <span class=\"hl\">RA</span> BKN009"
    },
    {
      "icao": "LRSB",
      "iata": "SBZ",
      "name": "Sibiu International Airport",
      "updatedAt": "070730Z",
      "visibility_m": 10000,
      "taf_visibility_m": 600,
      "worst_visibility_m": 600,
      "ceiling_ft": 600,
      "hazards": [
        "FG",
        "BR",
        "SN"
      ],
      "severityScore": 98,
      "metarRaw": "METAR LRSB 070730Z 18002KT 9999 4000SE BCFG SCT003 BKN006 01/01 Q1008",
      "tafRaw": "TAF LRSB 070500Z 0706/0806 29010KT 3000 BR OVC005 \n  TEMPO 0706/0708 1500 -SN OVC002 \n  BECMG 0709/0711 9999 NSW BKN020 \n  BECMG 0713/0715 VRB04KT 3000 BR BKN010 \n  PROB40 \n  TEMPO 0716/0720 0600 FG OVC002 \n  BECMG 0720/0722 1500 SN BKN005 OVC020 \n  BECMG 0803/0805 5000 BKN010 BKN020",
      "metarHtml": "METAR LRSB 070730Z 18002KT 9999 4000SE BCFG SCT003 BKN006 01/01 Q1008",
      "tafHtml": "TAF LRSB 070500Z 0706/0806 29010KT 3000 <span class=\"hl\">BR</span> OVC005 \n  TEMPO 0706/0708 1500 -<span class=\"hl\">SN</span> OVC002 \n  BECMG 0709/0711 9999 NSW BKN020 \n  BECMG 0713/0715 VRB04KT 3000 <span class=\"hl\">BR</span> BKN010 \n  PROB40 \n  TEMPO 0716/0720 <span class=\"hl-vis\">0600</span> <span class=\"hl\">FG</span> OVC002 \n  BECMG 0720/0722 1500 <span class=\"hl\">SN</span> BKN005 OVC020 \n  BECMG 0803/0805 5000 BKN010 BKN020"
    },
    {
      "icao": "EPMO",
      "iata": "WMI",
      "name": "Modlin Airport",
      "updatedAt": "070730Z",
      "visibility_m": 200,
      "taf_visibility_m": null,
      "worst_visibility_m": 200,
      "ceiling_ft": null,
      "hazards": [
        "FZFG"
      ],
      "severityScore": 90,
      "metarRaw": "METAR EPMO 070730Z 27006KT 0200 R08/0325N FZFG SCT001 M13/M14 Q1018",
      "tafRaw": null,
      "metarHtml": "METAR EPMO 070730Z 27006KT <span class=\"hl-vis\">0200</span> R08/0325N <span class=\"hl\">FZFG</span> SCT001 M13/M14 Q1018",
      "tafHtml": null
    },
    {
      "icao": "EPWA",
      "iata": "WAW",
      "name": "Warsaw Chopin Airport",
      "updatedAt": "070730Z",
      "visibility_m": 1300,
      "taf_visibility_m": null,
      "worst_visibility_m": 1300,
      "ceiling_ft": 200,
      "hazards": [
        "FZFG",
        "BR"
      ],
      "severityScore": 90,
      "metarRaw": "METAR EPWA 070730Z 27006KT 1300 1100SE R33/1400N BR OVC002 M11/M12 Q1017 TEMPO FZFG",
      "tafRaw": null,
      "metarHtml": "METAR EPWA 070730Z 27006KT 1300 1100SE R33/1400N <span class=\"hl\">BR</span> OVC002 M11/M12 Q1017 TEMPO <span class=\"hl\">FZFG</span>",
      "tafHtml": null
    },
    {
      "icao": "LGTS",
      "iata": "SKG",
      "name": "Thessaloniki Macedonia International Airport",
      "updatedAt": "070720Z",
      "visibility_m": 800,
      "taf_visibility_m": null,
      "worst_visibility_m": 800,
      "ceiling_ft": 300,
      "hazards": [
        "FG"
      ],
      "severityScore": 85,
      "metarRaw": "METAR LGTS 070720Z 27005KT 0800 R10/0400 R28/0500 FG BKN003 12/12 Q1009 NOSIG",
      "tafRaw": null,
      "metarHtml": "METAR LGTS 070720Z 27005KT <span class=\"hl-vis\">0800</span> R10/0400 R28/0500 <span class=\"hl\">FG</span> BKN003 12/12 Q1009 NOSIG",
      "tafHtml": null
    },
    {
      "icao": "LYNI",
      "iata": "INI",
      "name": "Niš Constantine the Great Airport",
      "updatedAt": "070730Z",
      "visibility_m": 10000,
      "taf_visibility_m": 4000,
      "worst_visibility_m": 4000,
      "ceiling_ft": 1700,
      "hazards": [
        "FZRA",
        "PL",
        "SN"
      ],
      "severityScore": 80,
      "metarRaw": "METAR LYNI 070730Z 33014KT 300V360 9999 SCT010 OVC017 M02/M04 Q1011 NOSIG",
      "tafRaw": "TAF LYNI 070500Z 0706/0806 32014KT 9999 SCT004 BKN012 BKN030 TXM00/0706Z TNM04/0806Z \n  PROB40 \n  TEMPO 0706/0709 FZRA \n  TEMPO 0714/0718 FZRA \n  TEMPO 0718/0721 33017G27KT PL \n  BECMG 0721/0723 -SN BKN005 OVC022 \n  TEMPO 0723/0802 4000 SN",
      "metarHtml": "METAR LYNI 070730Z 33014KT 300V360 9999 SCT010 OVC017 M02/M04 Q1011 NOSIG",
      "tafHtml": "TAF LYNI 070500Z 0706/0806 32014KT 9999 SCT004 BKN012 BKN030 TXM00/0706Z TNM04/0806Z \n  PROB40 \n  TEMPO 0706/0709 <span class=\"hl\">FZRA</span> \n  TEMPO 0714/0718 <span class=\"hl\">FZRA</span> \n  TEMPO 0718/0721 33017G27KT <span class=\"hl\">PL</span> \n  BECMG 0721/0723 -<span class=\"hl\">SN</span> BKN005 OVC022 \n  TEMPO 0723/0802 4000 <span class=\"hl\">SN</span>"
    },
    {
      "icao": "LJLJ",
      "iata": "LJU",
      "name": "Ljubljana Jože Pučnik Airport",
      "updatedAt": "070730Z",
      "visibility_m": 10000,
      "taf_visibility_m": 300,
      "worst_visibility_m": 300,
      "ceiling_ft": 7500,
      "hazards": [
        "FZFG"
      ],
      "severityScore": 75,
      "metarRaw": "METAR LJLJ 070730Z VRB01KT 9999 FEW007 BKN075 M07/M08 Q1013 NOSIG",
      "tafRaw": "TAF LJLJ 070500Z 0706/0806 VRB02KT 9999 FEW005 BKN080 \n  PROB40 \n  TEMPO 0802/0806 0300 FZFG VV001",
      "metarHtml": "METAR LJLJ 070730Z VRB01KT 9999 FEW007 BKN075 M07/M08 Q1013 NOSIG",
      "tafHtml": "TAF LJLJ 070500Z 0706/0806 VRB02KT 9999 FEW005 BKN080 \n  PROB40 \n  TEMPO 0802/0806 <span class=\"hl-vis\">0300</span> <span class=\"hl\">FZFG</span> VV001"
    },
    {
      "icao": "UBBB",
      "iata": "GYD",
      "name": "Heydar Aliyev International Airport",
      "updatedAt": "070730Z",
      "visibility_m": 4000,
      "taf_visibility_m": 300,
      "worst_visibility_m": 300,
      "ceiling_ft": null,
      "hazards": [
        "BR",
        "FG"
      ],
      "severityScore": 75,
      "metarRaw": "METAR UBBB 070730Z 18008KT 4000 BR FEW002 09/09 Q1022 NOSIG",
      "tafRaw": "TAF UBBB 070502Z 0706/0806 16005KT 0400 FG VV002 TX12/0710Z TN04/0803Z \n  TEMPO 0706/0708 19010KT 1200 BR BKN006 \n  BECMG 0708/0710 18005KT 9999 NSW SCT020 \n  BECMG 0713/0715 30005KT 6000 SCT014 \n  TEMPO 0718/0720 VRB04KT 3000 BR BKN006 \n  TEMPO 0720/0805 0300 FG VV002",
      "metarHtml": "METAR UBBB 070730Z 18008KT 4000 <span class=\"hl\">BR</span> FEW002 09/09 Q1022 NOSIG",
      "tafHtml": "TAF UBBB 070502Z 0706/0806 16005KT <span class=\"hl-vis\">0400</span> <span class=\"hl\">FG</span> VV002 TX12/0710Z TN04/0803Z \n  TEMPO 0706/0708 19010KT 1200 <span class=\"hl\">BR</span> BKN006 \n  BECMG 0708/0710 18005KT 9999 NSW SCT020 \n  BECMG 0713/0715 30005KT 6000 SCT014 \n  TEMPO 0718/0720 VRB04KT 3000 <span class=\"hl\">BR</span> BKN006 \n  TEMPO 0720/0805 <span class=\"hl-vis\">0300</span> <span class=\"hl\">FG</span> VV002"
    },
    {
      "icao": "EDSB",
      "iata": "FKB",
      "name": "Karlsruhe Baden-Baden Airport",
      "updatedAt": "070720Z",
      "visibility_m": 9000,
      "taf_visibility_m": 800,
      "worst_visibility_m": 800,
      "ceiling_ft": 3900,
      "hazards": [
        "FZFG",
        "SN"
      ],
      "severityScore": 73,
      "metarRaw": "METAR EDSB 070720Z 19007KT 9000 BKN039 M05/M07 Q1017",
      "tafRaw": "TAF EDSB 070500Z 0706/0806 20005KT 9999 BKN040 \n  PROB30 \n  TEMPO 0706/0707 0800 FZFG OVC001 \n  TEMPO 0718/0806 4000 -SN \n  PROB40 \n  TEMPO 0718/0720 2000 SN \n  BECMG 0721/0724 20011KT",
      "metarHtml": "METAR EDSB 070720Z 19007KT 9000 BKN039 M05/M07 Q1017",
      "tafHtml": "TAF EDSB 070500Z 0706/0806 20005KT 9999 BKN040 \n  PROB30 \n  TEMPO 0706/0707 <span class=\"hl-vis\">0800</span> <span class=\"hl\">FZFG</span> OVC001 \n  TEMPO 0718/0806 4000 -<span class=\"hl\">SN</span> \n  PROB40 \n  TEMPO 0718/0720 2000 <span class=\"hl\">SN</span> \n  BECMG 0721/0724 20011KT"
    },
    {
      "icao": "LRIA",
      "iata": "IAS",
      "name": "Iaşi Airport",
      "updatedAt": "070730Z",
      "visibility_m": 1000,
      "taf_visibility_m": null,
      "worst_visibility_m": 1000,
      "ceiling_ft": 100,
      "hazards": [
        "BR",
        "DZ"
      ],
      "severityScore": 70,
      "metarRaw": "METAR LRIA 070730Z 29003KT 260V320 1000 R14/1700N -DZ BR OVC001 00/00 Q1011",
      "tafRaw": null,
      "metarHtml": "METAR LRIA 070730Z 29003KT 260V320 1000 R14/1700N -<span class=\"hl\">DZ</span> <span class=\"hl\">BR</span> OVC001 00/00 Q1011",
      "tafHtml": null
    },
    {
      "icao": "LYBE",
      "iata": "BEG",
      "name": "Belgrade Nikola Tesla Airport",
      "updatedAt": "070730Z",
      "visibility_m": 10000,
      "taf_visibility_m": 700,
      "worst_visibility_m": 700,
      "ceiling_ft": 700,
      "hazards": [
        "SN"
      ],
      "severityScore": 68,
      "metarRaw": "METAR LYBE 070730Z 25007KT 9999 BKN007 BKN040 M03/M04 Q1014 NOSIG",
      "tafRaw": "TAF LYBE 070500Z 0706/0806 27010KT 7000 -SN BKN007 BKN035 TXM01/0713Z TNM04/0806Z \n  TEMPO 0715/0722 0700 +SN BKN002 OVC021 \n  TEMPO 0722/0803 1200 SN BKN002 OVC023",
      "metarHtml": "METAR LYBE 070730Z 25007KT 9999 BKN007 BKN040 M03/M04 Q1014 NOSIG",
      "tafHtml": "TAF LYBE 070500Z 0706/0806 27010KT 7000 -<span class=\"hl\">SN</span> BKN007 BKN035 TXM01/0713Z TNM04/0806Z \n  TEMPO 0715/0722 <span class=\"hl-vis\">0700</span> +<span class=\"hl\">SN</span> BKN002 OVC021 \n  TEMPO 0722/0803 1200 <span class=\"hl\">SN</span> BKN002 OVC023"
    },
    {
      "icao": "ENGM",
      "iata": "OSL",
      "name": "Oslo-Gardermoen International Airport",
      "updatedAt": "070720Z",
      "visibility_m": 10000,
      "taf_visibility_m": 500,
      "worst_visibility_m": 500,
      "ceiling_ft": 1600,
      "hazards": [
        "SN"
      ],
      "severityScore": 65,
      "metarRaw": "METAR ENGM 070720Z VRB01KT 9999 -SN OVC016 M11/M12 Q1010 NOSIG",
      "tafRaw": "TAF ENGM 070500Z 0706/0806 34003KT 9999 FEW015 BKN020 \n  TEMPO 0706/0718 BKN013 \n  BECMG 0718/0720 02013KT 4000 -SN OVC014 \n  TEMPO 0720/0806 0500 SN VV003",
      "metarHtml": "METAR ENGM 070720Z VRB01KT 9999 -<span class=\"hl\">SN</span> OVC016 M11/M12 Q1010 NOSIG",
      "tafHtml": "TAF ENGM 070500Z 0706/0806 34003KT 9999 FEW015 BKN020 \n  TEMPO 0706/0718 BKN013 \n  BECMG 0718/0720 02013KT 4000 -<span class=\"hl\">SN</span> OVC014 \n  TEMPO 0720/0806 <span class=\"hl-vis\">0500</span> <span class=\"hl\">SN</span> VV003"
    },
    {
      "icao": "EPRZ",
      "iata": "RZE",
      "name": "Rzeszów-Jasionka Airport",
      "updatedAt": "070730Z",
      "visibility_m": 4000,
      "taf_visibility_m": 600,
      "worst_visibility_m": 600,
      "ceiling_ft": 1300,
      "hazards": [
        "BR",
        "SN"
      ],
      "severityScore": 65,
      "metarRaw": "METAR EPRZ 070730Z 35005KT 4000 -SN BR SCT007 OVC013 M05/M06 Q1015",
      "tafRaw": "TAF EPRZ 070530Z 0706/0806 02006KT 4000 -SN BKN016 \n  PROB40 \n  TEMPO 0706/0724 2500 SN BKN006 BKN012 \n  BECMG 0800/0802 0600 +SN BKN002 BKN006",
      "metarHtml": "METAR EPRZ 070730Z 35005KT 4000 -<span class=\"hl\">SN</span> <span class=\"hl\">BR</span> SCT007 OVC013 M05/M06 Q1015",
      "tafHtml": "TAF EPRZ 070530Z 0706/0806 02006KT 4000 -<span class=\"hl\">SN</span> BKN016 \n  PROB40 \n  TEMPO 0706/0724 2500 <span class=\"hl\">SN</span> BKN006 BKN012 \n  BECMG 0800/0802 <span class=\"hl-vis\">0600</span> +<span class=\"hl\">SN</span> BKN002 BKN006"
    },
    {
      "icao": "EPSY",
      "iata": "SZY",
      "name": "Olsztyn-Mazury Airport",
      "updatedAt": "070730Z",
      "visibility_m": 3000,
      "taf_visibility_m": 600,
      "worst_visibility_m": 600,
      "ceiling_ft": null,
      "hazards": [
        "BR",
        "FZFG"
      ],
      "severityScore": 65,
      "metarRaw": "METAR EPSY 070730Z 18002KT 3000 BR NSC M18/M20 Q1016",
      "tafRaw": "TAF EPSY 070530Z 0706/0715 VRB02KT 4000 BR NSC \n  PROB40 \n  TEMPO 0706/0709 2000 BR \n  PROB30 \n  TEMPO 0706/0708 0600 FZFG BKN002 \n  BECMG 0708/0710 6000",
      "metarHtml": "METAR EPSY 070730Z 18002KT 3000 <span class=\"hl\">BR</span> NSC M18/M20 Q1016",
      "tafHtml": "TAF EPSY 070530Z 0706/0715 VRB02KT 4000 <span class=\"hl\">BR</span> NSC \n  PROB40 \n  TEMPO 0706/0709 2000 <span class=\"hl\">BR</span> \n  PROB30 \n  TEMPO 0706/0708 <span class=\"hl-vis\">0600</span> <span class=\"hl\">FZFG</span> BKN002 \n  BECMG 0708/0710 6000"
    },
    {
      "icao": "UDYZ",
      "iata": "EVN",
      "name": "Zvartnots International Airport",
      "updatedAt": "070730Z",
      "visibility_m": 1500,
      "taf_visibility_m": 600,
      "worst_visibility_m": 600,
      "ceiling_ft": null,
      "hazards": [
        "BR",
        "FZFG"
      ],
      "severityScore": 65,
      "metarRaw": "METAR UDYZ 070730Z 00000KT 1500 1300W R08/1300U BR NSC M06/M10 Q1031 NOSIG",
      "tafRaw": "TAF UDYZ 070500Z 0706/0806 VRB04KT 3500 BR FEW040 \n  TEMPO 0706/0709 0600 FZFG VV004",
      "metarHtml": "METAR UDYZ 070730Z 00000KT 1500 1300W R08/1300U <span class=\"hl\">BR</span> NSC M06/M10 Q1031 NOSIG",
      "tafHtml": "TAF UDYZ 070500Z 0706/0806 VRB04KT 3500 <span class=\"hl\">BR</span> FEW040 \n  TEMPO 0706/0709 <span class=\"hl-vis\">0600</span> <span class=\"hl\">FZFG</span> VV004"
    },
    {
      "icao": "ESKN",
      "iata": "NYO",
      "name": "Stockholm Skavsta Airport",
      "updatedAt": "070720Z",
      "visibility_m": 10000,
      "taf_visibility_m": 1200,
      "worst_visibility_m": 1200,
      "ceiling_ft": 300,
      "hazards": [
        "SN"
      ],
      "severityScore": 63,
      "metarRaw": "METAR ESKN 070720Z VRB02KT 9999 BKN003 M09/M10 Q1012",
      "tafRaw": "TAF ESKN 070530Z 0706/0806 24008KT 9999 BKN003 \n  PROB40 0706/0710 FEW003 BKN015 \n  BECMG 0710/0712 3000 -SN VV020 \n  TEMPO 0712/0715 1200 SN VV009 \n  PROB40 0715/0718 9999 BKN015 \n  BECMG 0718/0720 CAVOK",
      "metarHtml": "METAR ESKN 070720Z VRB02KT 9999 BKN003 M09/M10 Q1012",
      "tafHtml": "TAF ESKN 070530Z 0706/0806 24008KT 9999 BKN003 \n  PROB40 0706/0710 FEW003 BKN015 \n  BECMG 0710/0712 3000 -<span class=\"hl\">SN</span> VV020 \n  TEMPO 0712/0715 1200 <span class=\"hl\">SN</span> VV009 \n  PROB40 0715/0718 9999 BKN015 \n  BECMG 0718/0720 <span class=\"hl-vis\">CAVOK</span>"
    },
    {
      "icao": "LRSV",
      "iata": "SCV",
      "name": "Suceava Stefan cel Mare Airport",
      "updatedAt": "070730Z",
      "visibility_m": 1000,
      "taf_visibility_m": null,
      "worst_visibility_m": 1000,
      "ceiling_ft": 200,
      "hazards": [
        "BR"
      ],
      "severityScore": 60,
      "metarRaw": "METAR LRSV 070730Z 33008KT 1000 R34/1900D BR VV002 M02/M02 Q1009",
      "tafRaw": null,
      "metarHtml": "METAR LRSV 070730Z 33008KT 1000 R34/1900D <span class=\"hl\">BR</span> VV002 M02/M02 Q1009",
      "tafHtml": null
    },
    {
      "icao": "EHEH",
      "iata": "EIN",
      "name": "Eindhoven Airport",
      "updatedAt": "070725Z",
      "visibility_m": 10000,
      "taf_visibility_m": 1000,
      "worst_visibility_m": 1000,
      "ceiling_ft": 10000,
      "hazards": [
        "SN",
        "FZDZ"
      ],
      "severityScore": 56,
      "metarRaw": "METAR EHEH 070725Z AUTO 18013KT 140V220 9999 FEW014 SCT084 OVC100 M01/M04 Q1008 BLU NOSIG RMK TREND REMOTE BY EHWX",
      "tafRaw": "TAF EHEH 070547Z 0706/0812 19015G25KT 9999 SCT015 \n  BECMG 0707/0709 4000 -SN SCT005 BKN008 OVC010 \n  TEMPO 0708/0712 1000 SN SCT002 BKN004 OVC006 \n  TEMPO 0712/0721 2500 SN SCT002 BKN004 OVC006 \n  PROB30 \n  TEMPO 0713/0721 -FZDZ \n  BECMG 0720/0722 24010KT SCT020 BKN025",
      "metarHtml": "METAR EHEH 070725Z AUTO 18013KT 140V220 9999 FEW014 SCT084 OVC100 M01/M04 Q1008 BLU NOSIG RMK TREND REMOTE BY EHWX",
      "tafHtml": "TAF EHEH 070547Z 0706/0812 19015G25KT 9999 SCT015 \n  BECMG 0707/0709 4000 -<span class=\"hl\">SN</span> SCT005 BKN008 OVC010 \n  TEMPO 0708/0712 1000 <span class=\"hl\">SN</span> SCT002 BKN004 OVC006 \n  TEMPO 0712/0721 2500 <span class=\"hl\">SN</span> SCT002 BKN004 OVC006 \n  PROB30 \n  TEMPO 0713/0721 -<span class=\"hl\">FZDZ</span> \n  BECMG 0720/0722 24010KT SCT020 BKN025"
    },
    {
      "icao": "EPGD",
      "iata": "GDN",
      "name": "Gdańsk Lech Wałęsa Airport",
      "updatedAt": "070730Z",
      "visibility_m": 4900,
      "taf_visibility_m": 1500,
      "worst_visibility_m": 1500,
      "ceiling_ft": 200,
      "hazards": [
        "BR"
      ],
      "severityScore": 55,
      "metarRaw": "METAR EPGD 070730Z 24006KT 200V260 4900 BR BKN002 M07/M07 Q1016",
      "tafRaw": "TAF EPGD 070530Z 0706/0806 25006KT 4000 BR BKN005 \n  PROB40 0706/0708 1500 BR BKN002 \n  BECMG 0708/0711 7000 SCT015 \n  BECMG 0719/0722 4000 BR BKN005 \n  PROB40 \n  TEMPO 0722/0806 1500 BR BKN002",
      "metarHtml": "METAR EPGD 070730Z 24006KT 200V260 4900 <span class=\"hl\">BR</span> BKN002 M07/M07 Q1016",
      "tafHtml": "TAF EPGD 070530Z 0706/0806 25006KT 4000 <span class=\"hl\">BR</span> BKN005 \n  PROB40 0706/0708 1500 <span class=\"hl\">BR</span> BKN002 \n  BECMG 0708/0711 7000 SCT015 \n  BECMG 0719/0722 4000 <span class=\"hl\">BR</span> BKN005 \n  PROB40 \n  TEMPO 0722/0806 1500 <span class=\"hl\">BR</span> BKN002"
    },
    {
      "icao": "EPKK",
      "iata": "KRK",
      "name": "Kraków John Paul II International Airport",
      "updatedAt": "070730Z",
      "visibility_m": 10000,
      "taf_visibility_m": 800,
      "worst_visibility_m": 800,
      "ceiling_ft": null,
      "hazards": [
        "BR",
        "SN"
      ],
      "severityScore": 53,
      "metarRaw": "METAR EPKK 070730Z 28002KT 9999 FEW026 M05/M09 Q1016",
      "tafRaw": "TAF EPKK 070530Z 0706/0806 35004KT 9999 BKN023 \n  BECMG 0706/0709 05010KT BKN012 \n  TEMPO 0709/0715 4000 -SN BR BKN008 BKN012 \n  BECMG 0715/0717 1300 SN BR BKN004 BKN008 \n  TEMPO 0803/0806 0800 +SN BKN002 BKN008",
      "metarHtml": "METAR EPKK 070730Z 28002KT 9999 FEW026 M05/M09 Q1016",
      "tafHtml": "TAF EPKK 070530Z 0706/0806 35004KT 9999 BKN023 \n  BECMG 0706/0709 05010KT BKN012 \n  TEMPO 0709/0715 4000 -<span class=\"hl\">SN</span> <span class=\"hl\">BR</span> BKN008 BKN012 \n  BECMG 0715/0717 1300 <span class=\"hl\">SN</span> <span class=\"hl\">BR</span> BKN004 BKN008 \n  TEMPO 0803/0806 <span class=\"hl-vis\">0800</span> +<span class=\"hl\">SN</span> BKN002 BKN008"
    },
    {
      "icao": "LFSB",
      "iata": "BSL",
      "name": "EuroAirport Basel–Mulhouse–Freiburg",
      "updatedAt": "070730Z",
      "visibility_m": 4500,
      "taf_visibility_m": 3000,
      "worst_visibility_m": 3000,
      "ceiling_ft": 900,
      "hazards": [
        "BR",
        "SN"
      ],
      "severityScore": 53,
      "metarRaw": "METAR LFSB 070730Z AUTO 16006KT CAVOK M08/M09 Q1017 TEMPO 4500 BR BKN009",
      "tafRaw": "TAF LFSB 070530Z 0706/0806 18004KT 9000 FEW009 BKN020 \n  PROB40 \n  TEMPO 0706/0709 4500 BR BKN009 \n  TEMPO 0718/0801 24010KT -SN FEW008 OVC014 \n  PROB30 \n  TEMPO 0718/0722 3000 -SN BKN008",
      "metarHtml": "METAR LFSB 070730Z AUTO 16006KT <span class=\"hl-vis\">CAVOK</span> M08/M09 Q1017 TEMPO 4500 <span class=\"hl\">BR</span> BKN009",
      "tafHtml": "TAF LFSB 070530Z 0706/0806 18004KT 9000 FEW009 BKN020 \n  PROB40 \n  TEMPO 0706/0709 4500 <span class=\"hl\">BR</span> BKN009 \n  TEMPO 0718/0801 24010KT -<span class=\"hl\">SN</span> FEW008 OVC014 \n  PROB30 \n  TEMPO 0718/0722 3000 -<span class=\"hl\">SN</span> BKN008"
    },
    {
      "icao": "LQBK",
      "iata": "BNX",
      "name": "Banja Luka International Airport",
      "updatedAt": "070730Z",
      "visibility_m": 3000,
      "taf_visibility_m": 3000,
      "worst_visibility_m": 3000,
      "ceiling_ft": 700,
      "hazards": [
        "SN",
        "BR"
      ],
      "severityScore": 53,
      "metarRaw": "METAR LQBK 070730Z VRB02KT 6000 -SN BKN012 OVC027 M03/M04 Q1014 TEMPO 3000 SN BKN007 OVC015",
      "tafRaw": "TAF LQBK 070500Z 0706/0806 35006KT 8000 -SN SCT010 OVC020 TXM01/0713Z TNM07/0805Z \n  TEMPO 0706/0715 3000 SN BR BKN007 OVC015 \n  TEMPO 0722/0806 29010KT",
      "metarHtml": "METAR LQBK 070730Z VRB02KT 6000 -<span class=\"hl\">SN</span> BKN012 OVC027 M03/M04 Q1014 TEMPO 3000 <span class=\"hl\">SN</span> BKN007 OVC015",
      "tafHtml": "TAF LQBK 070500Z 0706/0806 35006KT 8000 -<span class=\"hl\">SN</span> SCT010 OVC020 TXM01/0713Z TNM07/0805Z \n  TEMPO 0706/0715 3000 <span class=\"hl\">SN</span> <span class=\"hl\">BR</span> BKN007 OVC015 \n  TEMPO 0722/0806 29010KT"
    },
    {
      "icao": "LATI",
      "iata": "TIA",
      "name": "Tirana International Airport Mother Teresa",
      "updatedAt": "070720Z",
      "visibility_m": 10000,
      "taf_visibility_m": 3000,
      "worst_visibility_m": 3000,
      "ceiling_ft": 5000,
      "hazards": [
        "TSRA",
        "RA",
        "SHRA"
      ],
      "severityScore": 51,
      "metarRaw": "METAR LATI 070720Z VRB02KT 9999 SCT035 BKN050 13/10 Q1007 NOSIG",
      "tafRaw": "TAF LATI 070500Z 0706/0806 VRB05KT 9999 RA SCT030 OVC060 TX16/0712Z TN09/0805Z \n  TEMPO 0711/0720 16014KT 3000 TSRA FEW010 SCT025CB OVC040 \n  TEMPO 0722/0806 5000 SHRA FEW020CB BKN025",
      "metarHtml": "METAR LATI 070720Z VRB02KT 9999 SCT035 BKN050 13/10 Q1007 NOSIG",
      "tafHtml": "TAF LATI 070500Z 0706/0806 VRB05KT 9999 <span class=\"hl\">RA</span> SCT030 OVC060 TX16/0712Z TN09/0805Z \n  TEMPO 0711/0720 16014KT 3000 <span class=\"hl\">TSRA</span> FEW010 SCT025CB OVC040 \n  TEMPO 0722/0806 5000 <span class=\"hl\">SHRA</span> FEW020CB BKN025"
    },
    {
      "icao": "LICJ",
      "iata": "PMO",
      "name": "Falcone–Borsellino Airport",
      "updatedAt": "070720Z",
      "visibility_m": 10000,
      "taf_visibility_m": 3000,
      "worst_visibility_m": 3000,
      "ceiling_ft": null,
      "hazards": [
        "RA",
        "TSRA",
        "SHRA"
      ],
      "severityScore": 51,
      "metarRaw": "METAR LICJ 070720Z 18008KT 9999 -RA FEW030 SCT065 12/08 Q1007",
      "tafRaw": "TAF LICJ 070500Z 0706/0806 22014KT 9999 SCT030 \n  TEMPO 0706/0718 4000 SHRA \n  TEMPO 0709/0712 3000 TSRA \n  TEMPO 0712/0806 27025G38KT",
      "metarHtml": "METAR LICJ 070720Z 18008KT 9999 -<span class=\"hl\">RA</span> FEW030 SCT065 12/08 Q1007",
      "tafHtml": "TAF LICJ 070500Z 0706/0806 22014KT 9999 SCT030 \n  TEMPO 0706/0718 4000 <span class=\"hl\">SHRA</span> \n  TEMPO 0709/0712 3000 <span class=\"hl\">TSRA</span> \n  TEMPO 0712/0806 27025G38KT"
    },
    {
      "icao": "LFBD",
      "iata": "BOD",
      "name": "Bordeaux–Mérignac Airport",
      "updatedAt": "070730Z",
      "visibility_m": 10000,
      "taf_visibility_m": 2500,
      "worst_visibility_m": 2500,
      "ceiling_ft": 7600,
      "hazards": [
        "FZRA",
        "SHRA"
      ],
      "severityScore": 49,
      "metarRaw": "METAR LFBD 070730Z AUTO 19008KT 9999 FEW048 BKN076 BKN090 M01/M03 Q1018",
      "tafRaw": "TAF LFBD 070500Z 0706/0812 19005KT CAVOK TX10/0800Z TNM01/0706Z \n  PROB30 \n  TEMPO 0706/0709 FZRA \n  BECMG 0707/0709 20010KT CAVOK \n  TEMPO 0710/0719 4500 -SHRA FEW025TCU \n  PROB40 \n  TEMPO 0712/0713 2500 SHRA BKN030TCU",
      "metarHtml": "METAR LFBD 070730Z AUTO 19008KT 9999 FEW048 BKN076 BKN090 M01/M03 Q1018",
      "tafHtml": "TAF LFBD 070500Z 0706/0812 19005KT <span class=\"hl-vis\">CAVOK</span> TX10/0800Z TNM01/0706Z \n  PROB30 \n  TEMPO 0706/0709 <span class=\"hl\">FZRA</span> \n  BECMG 0707/0709 20010KT <span class=\"hl-vis\">CAVOK</span> \n  TEMPO 0710/0719 4500 -<span class=\"hl\">SHRA</span> FEW025TCU \n  PROB40 \n  TEMPO 0712/0713 2500 <span class=\"hl\">SHRA</span> BKN030TCU"
    },
    {
      "icao": "LIBR",
      "iata": "BDS",
      "name": "Brindisi Airport",
      "updatedAt": "070720Z",
      "visibility_m": 10000,
      "taf_visibility_m": 3000,
      "worst_visibility_m": 3000,
      "ceiling_ft": 1200,
      "hazards": [
        "TSRA",
        "RA"
      ],
      "severityScore": 49,
      "metarRaw": "METAR LIBR 070720Z 35006KT 9999 BKN012 12/10 Q1007",
      "tafRaw": "TAF LIBR 070500Z 0706/0806 33008KT 6000 BKN010 \n  BECMG 0708/0710 RA \n  TEMPO 0710/0718 3000 TSRA \n  BECMG 0712/0714 33018KT \n  BECMG 0802/0804 NSW SCT030",
      "metarHtml": "METAR LIBR 070720Z 35006KT 9999 BKN012 12/10 Q1007",
      "tafHtml": "TAF LIBR 070500Z 0706/0806 33008KT 6000 BKN010 \n  BECMG 0708/0710 <span class=\"hl\">RA</span> \n  TEMPO 0710/0718 3000 <span class=\"hl\">TSRA</span> \n  BECMG 0712/0714 33018KT \n  BECMG 0802/0804 NSW SCT030"
    },
    {
      "icao": "EETN",
      "iata": "TLL",
      "name": "Lennart Meri Tallinn Airport",
      "updatedAt": "070720Z",
      "visibility_m": 10000,
      "taf_visibility_m": 1000,
      "worst_visibility_m": 1000,
      "ceiling_ft": null,
      "hazards": [
        "BR",
        "SN",
        "SHSN"
      ],
      "severityScore": 48,
      "metarRaw": "METAR EETN 070720Z 07003KT CAVOK M08/M09 Q1014 NOSIG",
      "tafRaw": "TAF EETN 070530Z 0706/0806 VRB02KT 8000 SCT008 BKN025 \n  PROB40 \n  TEMPO 0706/0712 1000 SN BR BKN003 \n  PROB40 \n  TEMPO 0712/0716 BKN004 \n  PROB40 \n  TEMPO 0716/0806 3000 SHSN BR BKN006 SCT012CB",
      "metarHtml": "METAR EETN 070720Z 07003KT <span class=\"hl-vis\">CAVOK</span> M08/M09 Q1014 NOSIG",
      "tafHtml": "TAF EETN 070530Z 0706/0806 VRB02KT 8000 SCT008 BKN025 \n  PROB40 \n  TEMPO 0706/0712 1000 <span class=\"hl\">SN</span> <span class=\"hl\">BR</span> BKN003 \n  PROB40 \n  TEMPO 0712/0716 BKN004 \n  PROB40 \n  TEMPO 0716/0806 3000 <span class=\"hl\">SHSN</span> <span class=\"hl\">BR</span> BKN006 SCT012CB"
    },
    {
      "icao": "ESGG",
      "iata": "GOT",
      "name": "Göteborg Landvetter Airport",
      "updatedAt": "070720Z",
      "visibility_m": 2300,
      "taf_visibility_m": null,
      "worst_visibility_m": 2300,
      "ceiling_ft": 600,
      "hazards": [
        "SN"
      ],
      "severityScore": 48,
      "metarRaw": "METAR ESGG 070720Z 14006KT 2300 -SN BKN006 BKN008 OVC011 M04/M04 Q1006",
      "tafRaw": null,
      "metarHtml": "METAR ESGG 070720Z 14006KT 2300 -<span class=\"hl\">SN</span> BKN006 BKN008 OVC011 M04/M04 Q1006",
      "tafHtml": null
    },
    {
      "icao": "LQSA",
      "iata": "SJJ",
      "name": "Sarajevo International Airport",
      "updatedAt": "070730Z",
      "visibility_m": 6000,
      "taf_visibility_m": 700,
      "worst_visibility_m": 700,
      "ceiling_ft": 4000,
      "hazards": [
        "SN"
      ],
      "severityScore": 43,
      "metarRaw": "METAR LQSA 070730Z VRB02KT 6000 -SN FEW015 SCT030 OVC040 M04/M05 Q1011 NOSIG",
      "tafRaw": "TAF LQSA 070500Z 0706/0806 29005KT 6000 -SN SCT012 OVC030 TXM02/0713Z TNM06/0806Z \n  PROB30 \n  TEMPO 0706/0709 2000 SN BKN006 OVC020 \n  TEMPO 0712/0724 1200 SN BKN004 OVC015 \n  PROB30 \n  TEMPO 0714/0718 35012KT 0700 +SN \n  PROB40 \n  TEMPO 0800/0806 35012KT",
      "metarHtml": "METAR LQSA 070730Z VRB02KT 6000 -<span class=\"hl\">SN</span> FEW015 SCT030 OVC040 M04/M05 Q1011 NOSIG",
      "tafHtml": "TAF LQSA 070500Z 0706/0806 29005KT 6000 -<span class=\"hl\">SN</span> SCT012 OVC030 TXM02/0713Z TNM06/0806Z \n  PROB30 \n  TEMPO 0706/0709 2000 <span class=\"hl\">SN</span> BKN006 OVC020 \n  TEMPO 0712/0724 1200 <span class=\"hl\">SN</span> BKN004 OVC015 \n  PROB30 \n  TEMPO 0714/0718 35012KT <span class=\"hl-vis\">0700</span> +<span class=\"hl\">SN</span> \n  PROB40 \n  TEMPO 0800/0806 35012KT"
    },
    {
      "icao": "EPKT",
      "iata": "KTW",
      "name": "Katowice Wojciech Korfanty International Airport",
      "updatedAt": "070730Z",
      "visibility_m": 6000,
      "taf_visibility_m": 4000,
      "worst_visibility_m": 4000,
      "ceiling_ft": 1400,
      "hazards": [
        "BR",
        "SN"
      ],
      "severityScore": 40,
      "metarRaw": "METAR EPKT 070730Z 32003KT 6000 OVC014 M06/M07 Q1016",
      "tafRaw": "TAF EPKT 070530Z 0706/0806 03006KT 6000 BKN018 \n  TEMPO 0706/0710 4000 -SN BR BKN008 BKN012 \n  BECMG 0716/0718 BKN013 \n  TEMPO 0718/0806 4000 -SN BKN008 BKN013",
      "metarHtml": "METAR EPKT 070730Z 32003KT 6000 OVC014 M06/M07 Q1016",
      "tafHtml": "TAF EPKT 070530Z 0706/0806 03006KT 6000 BKN018 \n  TEMPO 0706/0710 4000 -<span class=\"hl\">SN</span> <span class=\"hl\">BR</span> BKN008 BKN012 \n  BECMG 0716/0718 BKN013 \n  TEMPO 0718/0806 4000 -<span class=\"hl\">SN</span> BKN008 BKN013"
    },
    {
      "icao": "EPPO",
      "iata": "POZ",
      "name": "Poznań-Ławica Airport",
      "updatedAt": "070730Z",
      "visibility_m": 5000,
      "taf_visibility_m": null,
      "worst_visibility_m": 5000,
      "ceiling_ft": 500,
      "hazards": [
        "BR"
      ],
      "severityScore": 40,
      "metarRaw": "METAR EPPO 070730Z VRB01KT 5000 BR BKN005 OVC027 M05/M06 Q1017",
      "tafRaw": null,
      "metarHtml": "METAR EPPO 070730Z VRB01KT 5000 <span class=\"hl\">BR</span> BKN005 OVC027 M05/M06 Q1017",
      "tafHtml": null
    },
    {
      "icao": "ESSA",
      "iata": "ARN",
      "name": "Stockholm-Arlanda Airport",
      "updatedAt": "070720Z",
      "visibility_m": 10000,
      "taf_visibility_m": null,
      "worst_visibility_m": 10000,
      "ceiling_ft": 400,
      "hazards": [],
      "severityScore": 40,
      "metarRaw": "METAR ESSA 070720Z 25006KT 9999 BKN004 M06/M06 Q1011 TEMPO BKN015",
      "tafRaw": null,
      "metarHtml": "METAR ESSA 070720Z 25006KT 9999 BKN004 M06/M06 Q1011 TEMPO BKN015",
      "tafHtml": null
    },
    {
      "icao": "LFLL",
      "iata": "LYS",
      "name": "Lyon Saint-Exupéry Airport",
      "updatedAt": "070730Z",
      "visibility_m": 9000,
      "taf_visibility_m": 2000,
      "worst_visibility_m": 2000,
      "ceiling_ft": null,
      "hazards": [
        "BR",
        "SN",
        "RA"
      ],
      "severityScore": 40,
      "metarRaw": "METAR LFLL 070730Z 09003KT 9000 FEW033 M06/M07 Q1018 NOSIG",
      "tafRaw": "TAF LFLL 070500Z 0706/0812 VRB02KT 9999 FEW030 \n  PROB30 \n  TEMPO 0706/0709 2000 BR BKN002 \n  BECMG 0709/0712 14005KT \n  TEMPO 0714/0719 2000 -SN BR OVC004 \n  PROB40 \n  TEMPO 0719/0803 3000 BR BKN012 \n  TEMPO 0803/0807 2000 -SN BR OVC002 \n  PROB40 \n  TEMPO 0807/0812 4000 RA BKN012",
      "metarHtml": "METAR LFLL 070730Z 09003KT 9000 FEW033 M06/M07 Q1018 NOSIG",
      "tafHtml": "TAF LFLL 070500Z 0706/0812 VRB02KT 9999 FEW030 \n  PROB30 \n  TEMPO 0706/0709 2000 <span class=\"hl\">BR</span> BKN002 \n  BECMG 0709/0712 14005KT \n  TEMPO 0714/0719 2000 -<span class=\"hl\">SN</span> <span class=\"hl\">BR</span> OVC004 \n  PROB40 \n  TEMPO 0719/0803 3000 <span class=\"hl\">BR</span> BKN012 \n  TEMPO 0803/0807 2000 -<span class=\"hl\">SN</span> <span class=\"hl\">BR</span> OVC002 \n  PROB40 \n  TEMPO 0807/0812 4000 <span class=\"hl\">RA</span> BKN012"
    },
    {
      "icao": "LQTZ",
      "iata": "TZL",
      "name": "Tuzla International Airport",
      "updatedAt": "070730Z",
      "visibility_m": 3000,
      "taf_visibility_m": 2000,
      "worst_visibility_m": 2000,
      "ceiling_ft": 1000,
      "hazards": [
        "BR",
        "SN"
      ],
      "severityScore": 40,
      "metarRaw": "METAR LQTZ 070730Z 30001KT 3000 -SN BR BKN010 OVC023 M04/M04 Q1013",
      "tafRaw": "TAF LQTZ 070500Z 0706/0806 35005KT 6000 -SN SCT010 BKN015 OVC025 TXM01/0713Z TNM06/0805Z \n  PROB40 \n  TEMPO 0706/0709 4000 -SN BR BKN005 OVC015 \n  TEMPO 0713/0723 2000 SN BR BKN004 OVC015 \n  TEMPO 0723/0806 29010KT",
      "metarHtml": "METAR LQTZ 070730Z 30001KT 3000 -<span class=\"hl\">SN</span> <span class=\"hl\">BR</span> BKN010 OVC023 M04/M04 Q1013",
      "tafHtml": "TAF LQTZ 070500Z 0706/0806 35005KT 6000 -<span class=\"hl\">SN</span> SCT010 BKN015 OVC025 TXM01/0713Z TNM06/0805Z \n  PROB40 \n  TEMPO 0706/0709 4000 -<span class=\"hl\">SN</span> <span class=\"hl\">BR</span> BKN005 OVC015 \n  TEMPO 0713/0723 2000 <span class=\"hl\">SN</span> <span class=\"hl\">BR</span> BKN004 OVC015 \n  TEMPO 0723/0806 29010KT"
    },
    {
      "icao": "LZKZ",
      "iata": "KSC",
      "name": "Košice International Airport",
      "updatedAt": "070730Z",
      "visibility_m": 10000,
      "taf_visibility_m": 2500,
      "worst_visibility_m": 2500,
      "ceiling_ft": null,
      "hazards": [
        "BLSN",
        "SN"
      ],
      "severityScore": 40,
      "metarRaw": "METAR LZKZ 070730Z 36023KT 9999 BLSN NSC M03/M07 Q1011 NOSIG",
      "tafRaw": "TAF LZKZ 070515Z 0706/0806 36020KT 9999 FEW035 \n  TEMPO 0706/0714 01025G35KT 2500 BLSN \n  TEMPO 0720/0801 4000 -SN BLSN BKN035",
      "metarHtml": "METAR LZKZ 070730Z 36023KT 9999 <span class=\"hl\">BLSN</span> NSC M03/M07 Q1011 NOSIG",
      "tafHtml": "TAF LZKZ 070515Z 0706/0806 36020KT 9999 FEW035 \n  TEMPO 0706/0714 01025G35KT 2500 <span class=\"hl\">BLSN</span> \n  TEMPO 0720/0801 4000 -<span class=\"hl\">SN</span> <span class=\"hl\">BLSN</span> BKN035"
    },
    {
      "icao": "LTFM",
      "iata": "IST",
      "name": "İstanbul Airport",
      "updatedAt": "070720Z",
      "visibility_m": 10000,
      "taf_visibility_m": 4000,
      "worst_visibility_m": 4000,
      "ceiling_ft": 8000,
      "hazards": [
        "TSRA",
        "SHRA"
      ],
      "severityScore": 39,
      "metarRaw": "METAR LTFM 070720Z 19017KT 9999 FEW040 BKN080 15/09 Q1013 NOSIG RMK RWY17L 19016KT RWY34L 18016KT RWY16R 19014KT RWY36 20014KT RWY18 19014KT",
      "tafRaw": "TAF LTFM 070440Z 0706/0812 19017G27KT 9999 SCT040 BKN080 \n  TEMPO 0708/0712 -SHRA BKN030 BKN080 \n  BECMG 0712/0715 20015KT \n  TEMPO 0717/0721 19017G37KT -SHRA BKN028 BKN070 \n  BECMG 0721/0724 20028G48KT \n  BECMG 0800/0803 -SHRA FEW020TCU BKN028 \n  TEMPO 0803/0806 4000 TSRA SCT017CB BKN025 \n  BECMG 0807/0810 23025G35KT SCT035",
      "metarHtml": "METAR LTFM 070720Z 19017KT 9999 FEW040 BKN080 15/09 Q1013 NOSIG RMK RWY17L 19016KT RWY34L 18016KT RWY16R 19014KT RWY36 20014KT RWY18 19014KT",
      "tafHtml": "TAF LTFM 070440Z 0706/0812 19017G27KT 9999 SCT040 BKN080 \n  TEMPO 0708/0712 -<span class=\"hl\">SHRA</span> BKN030 BKN080 \n  BECMG 0712/0715 20015KT \n  TEMPO 0717/0721 19017G37KT -<span class=\"hl\">SHRA</span> BKN028 BKN070 \n  BECMG 0721/0724 20028G48KT \n  BECMG 0800/0803 -<span class=\"hl\">SHRA</span> FEW020TCU BKN028 \n  TEMPO 0803/0806 4000 <span class=\"hl\">TSRA</span> SCT017CB BKN025 \n  BECMG 0807/0810 23025G35KT SCT035"
    },
    {
      "icao": "EHBK",
      "iata": "MST",
      "name": "Maastricht Aachen Airport",
      "updatedAt": "070725Z",
      "visibility_m": 10000,
      "taf_visibility_m": 1000,
      "worst_visibility_m": 1000,
      "ceiling_ft": null,
      "hazards": [
        "SN",
        "SHSN"
      ],
      "severityScore": 38,
      "metarRaw": "METAR EHBK 070725Z AUTO 20016KT 9999 FEW016/// M01/M04 Q1009 NOSIG",
      "tafRaw": "TAF EHBK 070521Z 0706/0812 19016G26KT CAVOK \n  BECMG 0708/0711 2000 -SN \n  TEMPO 0710/0714 1000 SN BKN014 \n  BECMG 0713/0715 9999 NSW BKN016 \n  BECMG 0715/0718 20013KT \n  TEMPO 0715/0724 3000 -SHSN SCT008 BKN012 FEW018CB \n  BECMG 0720/0723 23010KT \n  BECMG 0804/0807 20007KT",
      "metarHtml": "METAR EHBK 070725Z AUTO 20016KT 9999 FEW016/// M01/M04 Q1009 NOSIG",
      "tafHtml": "TAF EHBK 070521Z 0706/0812 19016G26KT <span class=\"hl-vis\">CAVOK</span> \n  BECMG 0708/0711 2000 -<span class=\"hl\">SN</span> \n  TEMPO 0710/0714 1000 <span class=\"hl\">SN</span> BKN014 \n  BECMG 0713/0715 9999 NSW BKN016 \n  BECMG 0715/0718 20013KT \n  TEMPO 0715/0724 3000 -<span class=\"hl\">SHSN</span> SCT008 BKN012 FEW018CB \n  BECMG 0720/0723 23010KT \n  BECMG 0804/0807 20007KT"
    },
    {
      "icao": "EPLB",
      "iata": "LUZ",
      "name": "Lublin Airport",
      "updatedAt": "070730Z",
      "visibility_m": 2800,
      "taf_visibility_m": 1500,
      "worst_visibility_m": 1500,
      "ceiling_ft": null,
      "hazards": [
        "BR",
        "SN"
      ],
      "severityScore": 38,
      "metarRaw": "METAR EPLB 070730Z 32002KT 2800 BR FEW035 M06/M07 Q1015",
      "tafRaw": "TAF EPLB 070530Z 0706/0806 35005KT 4000 -SN BR BKN020 \n  PROB40 \n  TEMPO 0706/0709 1500 -SN BR BKN006 \n  TEMPO 0722/0806 1500 SN BR BKN006 \n  PROB40 \n  TEMPO 0800/0806 03015G25KT",
      "metarHtml": "METAR EPLB 070730Z 32002KT 2800 <span class=\"hl\">BR</span> FEW035 M06/M07 Q1015",
      "tafHtml": "TAF EPLB 070530Z 0706/0806 35005KT 4000 -<span class=\"hl\">SN</span> <span class=\"hl\">BR</span> BKN020 \n  PROB40 \n  TEMPO 0706/0709 1500 -<span class=\"hl\">SN</span> <span class=\"hl\">BR</span> BKN006 \n  TEMPO 0722/0806 1500 <span class=\"hl\">SN</span> <span class=\"hl\">BR</span> BKN006 \n  PROB40 \n  TEMPO 0800/0806 03015G25KT"
    },
    {
      "icao": "LRBV",
      "iata": "GHV",
      "name": "Brașov-Ghimbav International Airport",
      "updatedAt": "070730Z",
      "visibility_m": 10000,
      "taf_visibility_m": 1500,
      "worst_visibility_m": 1500,
      "ceiling_ft": null,
      "hazards": [
        "BR",
        "SN"
      ],
      "severityScore": 38,
      "metarRaw": "METAR LRBV 070730Z 13007KT 110V190 9999 FEW031 04/02 Q1006",
      "tafRaw": "TAF LRBV 070500Z 0706/0715 VRB04KT 5000 BR BKN035 \n  BECMG 0708/0710 9999 NSW \n  BECMG 0710/0712 31010KT 5000 -SN BKN010 OVC030 \n  TEMPO 0712/0715 1500 SN BKN005 OVC025",
      "metarHtml": "METAR LRBV 070730Z 13007KT 110V190 9999 FEW031 04/02 Q1006",
      "tafHtml": "TAF LRBV 070500Z 0706/0715 VRB04KT 5000 <span class=\"hl\">BR</span> BKN035 \n  BECMG 0708/0710 9999 NSW \n  BECMG 0710/0712 31010KT 5000 -<span class=\"hl\">SN</span> BKN010 OVC030 \n  TEMPO 0712/0715 1500 <span class=\"hl\">SN</span> BKN005 OVC025"
    },
    {
      "icao": "LYPG",
      "iata": "TGD",
      "name": "Podgorica Airport / Podgorica Golubovci Airbase",
      "updatedAt": "070730Z",
      "visibility_m": 10000,
      "taf_visibility_m": 2000,
      "worst_visibility_m": 2000,
      "ceiling_ft": 7000,
      "hazards": [
        "TSRA",
        "RA"
      ],
      "severityScore": 37,
      "metarRaw": "METAR LYPG 070730Z 14005KT 9999 FEW010 SCT040 BKN070 12/12 Q1006 NOSIG",
      "tafRaw": "TAF LYPG 070500Z 0706/0806 15009KT 9999 FEW020 BKN034 BKN070 TX14/0712Z TN03/0806Z \n  TEMPO 0706/0806 4000 RA \n  TEMPO 0713/0719 2000 TSRA FEW010 SCT025CB BKN030 \n  BECMG 0718/0720 36010KT \n  PROB30 \n  TEMPO 0801/0806 3000 RASN",
      "metarHtml": "METAR LYPG 070730Z 14005KT 9999 FEW010 SCT040 BKN070 12/12 Q1006 NOSIG",
      "tafHtml": "TAF LYPG 070500Z 0706/0806 15009KT 9999 FEW020 BKN034 BKN070 TX14/0712Z TN03/0806Z \n  TEMPO 0706/0806 4000 <span class=\"hl\">RA</span> \n  TEMPO 0713/0719 2000 <span class=\"hl\">TSRA</span> FEW010 SCT025CB BKN030 \n  BECMG 0718/0720 36010KT \n  PROB30 \n  TEMPO 0801/0806 3000 RASN"
    },
    {
      "icao": "LTAC",
      "iata": "ESB",
      "name": "Esenboğa International Airport",
      "updatedAt": "070720Z",
      "visibility_m": 2200,
      "taf_visibility_m": 4000,
      "worst_visibility_m": 2200,
      "ceiling_ft": 8000,
      "hazards": [
        "BR",
        "RA",
        "SHRA"
      ],
      "severityScore": 36,
      "metarRaw": "METAR LTAC 070720Z VRB02KT 2200 BR FEW010 SCT035 BKN080 02/01 Q1021 BECMG 6000 RMK RWY21C VRB02KT RWY03L VRB01KT RWY21R 00000KT RWY03R 17003KT RWY21L 00000KT",
      "tafRaw": "TAF LTAC 070440Z 0706/0806 VRB02KT 4000 BR SCT040 SCT100 \n  BECMG 0706/0708 9999 NSW \n  TEMPO 0709/0713 -SHRA BKN025 BKN080 \n  TEMPO 0802/0806 -RA FEW010 BKN030 BKN080",
      "metarHtml": "METAR LTAC 070720Z VRB02KT 2200 <span class=\"hl\">BR</span> FEW010 SCT035 BKN080 02/01 Q1021 BECMG 6000 RMK RWY21C VRB02KT RWY03L VRB01KT RWY21R 00000KT RWY03R 17003KT RWY21L 00000KT",
      "tafHtml": "TAF LTAC 070440Z 0706/0806 VRB02KT 4000 <span class=\"hl\">BR</span> SCT040 SCT100 \n  BECMG 0706/0708 9999 NSW \n  TEMPO 0709/0713 -<span class=\"hl\">SHRA</span> BKN025 BKN080 \n  TEMPO 0802/0806 -<span class=\"hl\">RA</span> FEW010 BKN030 BKN080"
    },
    {
      "icao": "EGPD",
      "iata": "ABZ",
      "name": "Aberdeen International Airport",
      "updatedAt": "070720Z",
      "visibility_m": 10000,
      "taf_visibility_m": 2000,
      "worst_visibility_m": 2000,
      "ceiling_ft": 1400,
      "hazards": [
        "BR",
        "RA"
      ],
      "severityScore": 34,
      "metarRaw": "METAR EGPD 070720Z COR AUTO 06014G24KT 9999 BKN014 OVC022 03/01 Q0999 NOSIG",
      "tafRaw": "TAF EGPD 070459Z 0706/0806 03012KT 9999 BKN015 \n  TEMPO 0706/0724 6000 -RA BKN008 \n  TEMPO 0706/0709 04015G25KT \n  PROB40 \n  TEMPO 0706/0709 3000 RADZ -RASN BKN004 \n  BECMG 0709/0712 30005KT \n  PROB30 \n  TEMPO 0712/0724 2000 RASN BKN004 \n  PROB30 \n  TEMPO 0800/0806 4000 BR BKN004",
      "metarHtml": "METAR EGPD 070720Z COR AUTO 06014G24KT 9999 BKN014 OVC022 03/01 Q0999 NOSIG",
      "tafHtml": "TAF EGPD 070459Z 0706/0806 03012KT 9999 BKN015 \n  TEMPO 0706/0724 6000 -<span class=\"hl\">RA</span> BKN008 \n  TEMPO 0706/0709 04015G25KT \n  PROB40 \n  TEMPO 0706/0709 3000 RADZ -RASN BKN004 \n  BECMG 0709/0712 30005KT \n  PROB30 \n  TEMPO 0712/0724 2000 RASN BKN004 \n  PROB30 \n  TEMPO 0800/0806 4000 <span class=\"hl\">BR</span> BKN004"
    },
    {
      "icao": "LPPR",
      "iata": "OPO",
      "name": "Francisco de Sá Carneiro Airport",
      "updatedAt": "070730Z",
      "visibility_m": 10000,
      "taf_visibility_m": 3000,
      "worst_visibility_m": 3000,
      "ceiling_ft": 1400,
      "hazards": [
        "BR",
        "RA"
      ],
      "severityScore": 34,
      "metarRaw": "METAR LPPR 070730Z 12004KT 080V150 9999 FEW008 BKN014 08/07 Q1022",
      "tafRaw": "TAF LPPR 070500Z 0706/0806 14007KT 6000 -RA SCT008 BKN015 \n  TEMPO 0706/0710 3000 RA BR SCT003 BKN006 \n  BECMG 0710/0712 32005KT 9999 NSW SCT015 \n  BECMG 0719/0721 VRB02KT \n  BECMG 0802/0804 14005KT FEW015 BKN030",
      "metarHtml": "METAR LPPR 070730Z 12004KT 080V150 9999 FEW008 BKN014 08/07 Q1022",
      "tafHtml": "TAF LPPR 070500Z 0706/0806 14007KT 6000 -<span class=\"hl\">RA</span> SCT008 BKN015 \n  TEMPO 0706/0710 3000 <span class=\"hl\">RA</span> <span class=\"hl\">BR</span> SCT003 BKN006 \n  BECMG 0710/0712 32005KT 9999 NSW SCT015 \n  BECMG 0719/0721 VRB02KT \n  BECMG 0802/0804 14005KT FEW015 BKN030"
    },
    {
      "icao": "EGPF",
      "iata": "GLA",
      "name": "Glasgow Airport",
      "updatedAt": "070720Z",
      "visibility_m": 10000,
      "taf_visibility_m": 1400,
      "worst_visibility_m": 1400,
      "ceiling_ft": null,
      "hazards": [
        "BR",
        "RA"
      ],
      "severityScore": 32,
      "metarRaw": "METAR EGPF 070720Z AUTO 29016G26KT 9999 NCD 04/01 Q1001",
      "tafRaw": "TAF EGPF 070454Z 0706/0806 29010KT 9999 SCT025 \n  PROB30 \n  TEMPO 0706/0709 BKN014 \n  PROB30 \n  TEMPO 0706/0708 30015G25KT \n  BECMG 0715/0718 VRB04KT \n  PROB30 \n  TEMPO 0720/0724 4000 BR \n  TEMPO 0800/0806 BKN012 \n  PROB30 \n  TEMPO 0800/0806 1400 RA RASN BKN003",
      "metarHtml": "METAR EGPF 070720Z AUTO 29016G26KT 9999 NCD 04/01 Q1001",
      "tafHtml": "TAF EGPF 070454Z 0706/0806 29010KT 9999 SCT025 \n  PROB30 \n  TEMPO 0706/0709 BKN014 \n  PROB30 \n  TEMPO 0706/0708 30015G25KT \n  BECMG 0715/0718 VRB04KT \n  PROB30 \n  TEMPO 0720/0724 4000 <span class=\"hl\">BR</span> \n  TEMPO 0800/0806 BKN012 \n  PROB30 \n  TEMPO 0800/0806 1400 <span class=\"hl\">RA</span> RASN BKN003"
    },
    {
      "icao": "EDDN",
      "iata": "NUE",
      "name": "Nuremberg Airport",
      "updatedAt": "070720Z",
      "visibility_m": 10000,
      "taf_visibility_m": null,
      "worst_visibility_m": 10000,
      "ceiling_ft": 900,
      "hazards": [],
      "severityScore": 30,
      "metarRaw": "METAR EDDN 070720Z AUTO 22003KT 180V310 9999 OVC009 OVC037 M05/M07 Q1016 BECMG BKN012",
      "tafRaw": null,
      "metarHtml": "METAR EDDN 070720Z AUTO 22003KT 180V310 9999 OVC009 OVC037 M05/M07 Q1016 BECMG BKN012",
      "tafHtml": null
    },
    {
      "icao": "LRCL",
      "iata": "CLJ",
      "name": "Cluj Avram Iancu International Airport",
      "updatedAt": "070730Z",
      "visibility_m": 9000,
      "taf_visibility_m": null,
      "worst_visibility_m": 9000,
      "ceiling_ft": 1200,
      "hazards": [
        "RA"
      ],
      "severityScore": 29,
      "metarRaw": "METAR LRCL 070730Z 00000KT 9000 -RA BKN012 OVC039 01/00 Q1009",
      "tafRaw": null,
      "metarHtml": "METAR LRCL 070730Z 00000KT 9000 -<span class=\"hl\">RA</span> BKN012 OVC039 01/00 Q1009",
      "tafHtml": null
    },
    {
      "icao": "EDDH",
      "iata": "HAM",
      "name": "Hamburg Helmut Schmidt Airport",
      "updatedAt": "070720Z",
      "visibility_m": 10000,
      "taf_visibility_m": 1000,
      "worst_visibility_m": 1000,
      "ceiling_ft": null,
      "hazards": [
        "SN"
      ],
      "severityScore": 28,
      "metarRaw": "METAR EDDH 070720Z AUTO 16012KT 9999 FEW032 M03/M06 Q1010 NOSIG",
      "tafRaw": "TAF EDDH 070500Z 0706/0812 18011KT CAVOK \n  TEMPO 0719/0806 1000 -SN BKN005 \n  BECMG 0720/0723 BKN012 \n  BECMG 0722/0801 15006KT \n  PROB30 \n  TEMPO 0723/0806 BKN015 \n  TEMPO 0806/0812 1000 -SN BKN003 \n  BECMG 0806/0809 BKN006",
      "metarHtml": "METAR EDDH 070720Z AUTO 16012KT 9999 FEW032 M03/M06 Q1010 NOSIG",
      "tafHtml": "TAF EDDH 070500Z 0706/0812 18011KT <span class=\"hl-vis\">CAVOK</span> \n  TEMPO 0719/0806 1000 -<span class=\"hl\">SN</span> BKN005 \n  BECMG 0720/0723 BKN012 \n  BECMG 0722/0801 15006KT \n  PROB30 \n  TEMPO 0723/0806 BKN015 \n  TEMPO 0806/0812 1000 -<span class=\"hl\">SN</span> BKN003 \n  BECMG 0806/0809 BKN006"
    },
    {
      "icao": "EDDK",
      "iata": "CGN",
      "name": "Cologne Bonn Airport",
      "updatedAt": "070720Z",
      "visibility_m": 10000,
      "taf_visibility_m": 1200,
      "worst_visibility_m": 1200,
      "ceiling_ft": null,
      "hazards": [
        "SN"
      ],
      "severityScore": 28,
      "metarRaw": "METAR EDDK 070720Z AUTO 15007KT CAVOK M05/M07 Q1012 NOSIG",
      "tafRaw": "TAF EDDK 070500Z 0706/0812 14007KT 9999 BKN020 \n  BECMG 0707/0710 15012KT \n  TEMPO 0712/0716 1200 SN BKN010 \n  TEMPO 0716/0803 3000 -SN BKN013 \n  BECMG 0719/0722 17007KT \n  PROB30 \n  TEMPO 0721/0801 1200 SN BKN008",
      "metarHtml": "METAR EDDK 070720Z AUTO 15007KT <span class=\"hl-vis\">CAVOK</span> M05/M07 Q1012 NOSIG",
      "tafHtml": "TAF EDDK 070500Z 0706/0812 14007KT 9999 BKN020 \n  BECMG 0707/0710 15012KT \n  TEMPO 0712/0716 1200 <span class=\"hl\">SN</span> BKN010 \n  TEMPO 0716/0803 3000 -<span class=\"hl\">SN</span> BKN013 \n  BECMG 0719/0722 17007KT \n  PROB30 \n  TEMPO 0721/0801 1200 <span class=\"hl\">SN</span> BKN008"
    },
    {
      "icao": "EDFH",
      "iata": "HHN",
      "name": "Frankfurt-Hahn Airport",
      "updatedAt": "070720Z",
      "visibility_m": 10000,
      "taf_visibility_m": 1200,
      "worst_visibility_m": 1200,
      "ceiling_ft": 3000,
      "hazards": [
        "SN"
      ],
      "severityScore": 28,
      "metarRaw": "METAR EDFH 070720Z 17006KT 9999 BKN030 M06/M08 Q1011",
      "tafRaw": "TAF EDFH 070500Z 0706/0806 21011KT 8000 BKN010 \n  TEMPO 0706/0709 BKN008 \n  BECMG 0709/0712 SCT010 \n  PROB30 \n  TEMPO 0710/0713 20015G25KT \n  TEMPO 0714/0721 3000 -SN BKN010 \n  PROB40 \n  TEMPO 0715/0718 1200 SN BKN008 \n  BECMG 0718/0721 BKN005 \n  PROB30 \n  TEMPO 0721/0806 2000 -SN BKN001",
      "metarHtml": "METAR EDFH 070720Z 17006KT 9999 BKN030 M06/M08 Q1011",
      "tafHtml": "TAF EDFH 070500Z 0706/0806 21011KT 8000 BKN010 \n  TEMPO 0706/0709 BKN008 \n  BECMG 0709/0712 SCT010 \n  PROB30 \n  TEMPO 0710/0713 20015G25KT \n  TEMPO 0714/0721 3000 -<span class=\"hl\">SN</span> BKN010 \n  PROB40 \n  TEMPO 0715/0718 1200 <span class=\"hl\">SN</span> BKN008 \n  BECMG 0718/0721 BKN005 \n  PROB30 \n  TEMPO 0721/0806 2000 -<span class=\"hl\">SN</span> BKN001"
    },
    {
      "icao": "EDLW",
      "iata": "DTM",
      "name": "Dortmund Airport",
      "updatedAt": "070720Z",
      "visibility_m": 10000,
      "taf_visibility_m": 1200,
      "worst_visibility_m": 1200,
      "ceiling_ft": null,
      "hazards": [
        "SN"
      ],
      "severityScore": 28,
      "metarRaw": "METAR EDLW 070720Z 17011KT CAVOK M02/M06 Q1010",
      "tafRaw": "TAF EDLW 070500Z 0706/0806 18015G25KT 9999 BKN020 \n  TEMPO 0713/0717 1200 SN BKN008 \n  BECMG 0715/0717 18013KT \n  TEMPO 0717/0803 4500 -SN BKN010 \n  PROB30 \n  TEMPO 0721/0803 1500 -SN BKN008 \n  PROB40 \n  TEMPO 0803/0806 BKN010",
      "metarHtml": "METAR EDLW 070720Z 17011KT <span class=\"hl-vis\">CAVOK</span> M02/M06 Q1010",
      "tafHtml": "TAF EDLW 070500Z 0706/0806 18015G25KT 9999 BKN020 \n  TEMPO 0713/0717 1200 <span class=\"hl\">SN</span> BKN008 \n  BECMG 0715/0717 18013KT \n  TEMPO 0717/0803 4500 -<span class=\"hl\">SN</span> BKN010 \n  PROB30 \n  TEMPO 0721/0803 1500 -<span class=\"hl\">SN</span> BKN008 \n  PROB40 \n  TEMPO 0803/0806 BKN010"
    },
    {
      "icao": "EPWR",
      "iata": "WRO",
      "name": "Copernicus Wrocław Airport",
      "updatedAt": "070730Z",
      "visibility_m": 10000,
      "taf_visibility_m": 4500,
      "worst_visibility_m": 4500,
      "ceiling_ft": 4000,
      "hazards": [
        "BR",
        "SN"
      ],
      "severityScore": 28,
      "metarRaw": "METAR EPWR 070730Z VRB02KT 9999 SCT030 BKN040 M05/M06 Q1017",
      "tafRaw": "TAF EPWR 070530Z 0706/0806 24003KT 9999 BKN020 \n  TEMPO 0706/0714 4500 -SN BR BKN012 \n  TEMPO 0714/0806 BKN012",
      "metarHtml": "METAR EPWR 070730Z VRB02KT 9999 SCT030 BKN040 M05/M06 Q1017",
      "tafHtml": "TAF EPWR 070530Z 0706/0806 24003KT 9999 BKN020 \n  TEMPO 0706/0714 4500 -<span class=\"hl\">SN</span> <span class=\"hl\">BR</span> BKN012 \n  TEMPO 0714/0806 BKN012"
    },
    {
      "icao": "EGBB",
      "iata": "BHX",
      "name": "Birmingham Airport",
      "updatedAt": "070720Z",
      "visibility_m": 10000,
      "taf_visibility_m": 3000,
      "worst_visibility_m": 3000,
      "ceiling_ft": 2700,
      "hazards": [
        "RA",
        "SHRA"
      ],
      "severityScore": 26,
      "metarRaw": "METAR EGBB 070720Z 27010KT 220V300 9999 BKN027 04/M00 Q1003",
      "tafRaw": "TAF EGBB 070459Z 0706/0806 28010KT 9999 SCT040 \n  TEMPO 0706/0710 8000 -SHRA \n  PROB30 \n  TEMPO 0706/0715 30015G25KT \n  PROB30 \n  TEMPO 0706/0708 4000 SHRASN BKN008 \n  BECMG 0718/0721 22005KT \n  TEMPO 0721/0724 7000 -RA -RASN \n  TEMPO 0800/0805 8000 -RA BKN010 \n  PROB40 \n  TEMPO 0800/0805 3000 RADZ BKN006",
      "metarHtml": "METAR EGBB 070720Z 27010KT 220V300 9999 BKN027 04/M00 Q1003",
      "tafHtml": "TAF EGBB 070459Z 0706/0806 28010KT 9999 SCT040 \n  TEMPO 0706/0710 8000 -<span class=\"hl\">SHRA</span> \n  PROB30 \n  TEMPO 0706/0715 30015G25KT \n  PROB30 \n  TEMPO 0706/0708 4000 SHRASN BKN008 \n  BECMG 0718/0721 22005KT \n  TEMPO 0721/0724 7000 -<span class=\"hl\">RA</span> -RASN \n  TEMPO 0800/0805 8000 -<span class=\"hl\">RA</span> BKN010 \n  PROB40 \n  TEMPO 0800/0805 3000 RADZ BKN006"
    },
    {
      "icao": "EGGP",
      "iata": "LPL",
      "name": "Liverpool John Lennon Airport",
      "updatedAt": "070720Z",
      "visibility_m": 10000,
      "taf_visibility_m": 2500,
      "worst_visibility_m": 2500,
      "ceiling_ft": 4100,
      "hazards": [
        "RA",
        "SHRA"
      ],
      "severityScore": 26,
      "metarRaw": "METAR EGGP 070720Z 29019KT 9999 VCSH FEW034 BKN041 05/02 Q1003",
      "tafRaw": "TAF EGGP 070503Z 0706/0806 29015KT 9999 FEW015 SCT025 \n  TEMPO 0706/0715 30020G32KT \n  TEMPO 0706/0709 2500 +SHRA BKN012 \n  BECMG 0718/0721 23007KT \n  TEMPO 0722/0806 6000 RA -RADZ BKN012 \n  PROB30 \n  TEMPO 0801/0806 3000 RADZ BKN004",
      "metarHtml": "METAR EGGP 070720Z 29019KT 9999 VCSH FEW034 BKN041 05/02 Q1003",
      "tafHtml": "TAF EGGP 070503Z 0706/0806 29015KT 9999 FEW015 SCT025 \n  TEMPO 0706/0715 30020G32KT \n  TEMPO 0706/0709 2500 +<span class=\"hl\">SHRA</span> BKN012 \n  BECMG 0718/0721 23007KT \n  TEMPO 0722/0806 6000 <span class=\"hl\">RA</span> -RADZ BKN012 \n  PROB30 \n  TEMPO 0801/0806 3000 RADZ BKN004"
    },
    {
      "icao": "LICA",
      "iata": "SUF",
      "name": "Lamezia Terme Sant'Eufemia International Airport",
      "updatedAt": "070720Z",
      "visibility_m": 10000,
      "taf_visibility_m": 4000,
      "worst_visibility_m": 4000,
      "ceiling_ft": null,
      "hazards": [
        "RA",
        "SHRA"
      ],
      "severityScore": 26,
      "metarRaw": "METAR LICA 070720Z AUTO 07003KT 040V100 9999 BKN019/// BKN071/// 12/12 Q1007",
      "tafRaw": "TAF LICA 070500Z 0706/0806 27013KT 9999 SCT050 \n  TEMPO 0707/0719 4000 SHRA \n  TEMPO 0712/0718 27015G25KT \n  TEMPO 0718/0806 27025G35KT \n  TEMPO 0719/0806 RA",
      "metarHtml": "METAR LICA 070720Z AUTO 07003KT 040V100 9999 BKN019/// BKN071/// 12/12 Q1007",
      "tafHtml": "TAF LICA 070500Z 0706/0806 27013KT 9999 SCT050 \n  TEMPO 0707/0719 4000 <span class=\"hl\">SHRA</span> \n  TEMPO 0712/0718 27015G25KT \n  TEMPO 0718/0806 27025G35KT \n  TEMPO 0719/0806 <span class=\"hl\">RA</span>"
    },
    {
      "icao": "LIBD",
      "iata": "BRI",
      "name": "Bari Karol Wojtyła International Airport",
      "updatedAt": "070720Z",
      "visibility_m": 10000,
      "taf_visibility_m": 4000,
      "worst_visibility_m": 4000,
      "ceiling_ft": 1500,
      "hazards": [
        "RA"
      ],
      "severityScore": 24,
      "metarRaw": "METAR LIBD 070720Z 29003KT 240V320 9999 BKN015 07/05 Q1007",
      "tafRaw": "TAF LIBD 070500Z 0706/0806 28012KT 9999 BKN010 \n  BECMG 0708/0710 4000 RA \n  BECMG 0800/0802 28015G25KT CAVOK",
      "metarHtml": "METAR LIBD 070720Z 29003KT 240V320 9999 BKN015 07/05 Q1007",
      "tafHtml": "TAF LIBD 070500Z 0706/0806 28012KT 9999 BKN010 \n  BECMG 0708/0710 4000 <span class=\"hl\">RA</span> \n  BECMG 0800/0802 28015G25KT <span class=\"hl-vis\">CAVOK</span>"
    },
    {
      "icao": "LRSM",
      "iata": "SUJ",
      "name": "Satu Mare International Airport",
      "updatedAt": "070730Z",
      "visibility_m": 9000,
      "taf_visibility_m": null,
      "worst_visibility_m": 9000,
      "ceiling_ft": 3700,
      "hazards": [
        "SN"
      ],
      "severityScore": 23,
      "metarRaw": "METAR LRSM 070730Z VRB02KT 9000 -SN FEW026 OVC037 M02/M03 Q1011",
      "tafRaw": null,
      "metarHtml": "METAR LRSM 070730Z VRB02KT 9000 -<span class=\"hl\">SN</span> FEW026 OVC037 M02/M03 Q1011",
      "tafHtml": null
    },
    {
      "icao": "EGGW",
      "iata": "LTN",
      "name": "London Luton Airport",
      "updatedAt": "070720Z",
      "visibility_m": 10000,
      "taf_visibility_m": 2000,
      "worst_visibility_m": 2000,
      "ceiling_ft": null,
      "hazards": [
        "BR",
        "RA"
      ],
      "severityScore": 22,
      "metarRaw": "METAR EGGW 070720Z AUTO 28014KT 9999 FEW031 02/M01 Q1002",
      "tafRaw": "TAF EGGW 070455Z 0706/0806 28012KT 9999 SCT030 \n  PROB30 \n  TEMPO 0706/0711 28016G26KT 4000 -SHRASN BKN008 \n  TEMPO 0711/0718 29016G26KT \n  BECMG 0800/0803 VRB04KT \n  TEMPO 0800/0806 8000 -RA BKN010 \n  PROB40 0803/0806 2000 RADZ BR BKN003",
      "metarHtml": "METAR EGGW 070720Z AUTO 28014KT 9999 FEW031 02/M01 Q1002",
      "tafHtml": "TAF EGGW 070455Z 0706/0806 28012KT 9999 SCT030 \n  PROB30 \n  TEMPO 0706/0711 28016G26KT 4000 -SHRASN BKN008 \n  TEMPO 0711/0718 29016G26KT \n  BECMG 0800/0803 VRB04KT \n  TEMPO 0800/0806 8000 -<span class=\"hl\">RA</span> BKN010 \n  PROB40 0803/0806 2000 RADZ <span class=\"hl\">BR</span> BKN003"
    },
    {
      "icao": "LEXJ",
      "iata": "SDR",
      "name": "Seve Ballesteros-Santander Airport",
      "updatedAt": "070730Z",
      "visibility_m": 10000,
      "taf_visibility_m": 1500,
      "worst_visibility_m": 1500,
      "ceiling_ft": 3500,
      "hazards": [
        "RA"
      ],
      "severityScore": 22,
      "metarRaw": "METAR LEXJ 070730Z 23009KT 200V280 9999 BKN035 06/02 Q1019",
      "tafRaw": "TAF LEXJ 070200Z 0703/0803 22009KT 9999 SCT040 BKN050 TX12/0713Z TN05/0703Z \n  TEMPO 0705/0721 3000 RA \n  TEMPO 0708/0718 30015KT \n  TEMPO 0708/0718 28018G30KT \n  PROB40 \n  TEMPO 0709/0712 1500 +RA BKN010",
      "metarHtml": "METAR LEXJ 070730Z 23009KT 200V280 9999 BKN035 06/02 Q1019",
      "tafHtml": "TAF LEXJ 070200Z 0703/0803 22009KT 9999 SCT040 BKN050 TX12/0713Z TN05/0703Z \n  TEMPO 0705/0721 3000 <span class=\"hl\">RA</span> \n  TEMPO 0708/0718 30015KT \n  TEMPO 0708/0718 28018G30KT \n  PROB40 \n  TEMPO 0709/0712 1500 +<span class=\"hl\">RA</span> BKN010"
    },
    {
      "icao": "LEZL",
      "iata": "SVQ",
      "name": "Sevilla Airport",
      "updatedAt": "070730Z",
      "visibility_m": 10000,
      "taf_visibility_m": 4000,
      "worst_visibility_m": 4000,
      "ceiling_ft": null,
      "hazards": [
        "BR",
        "RA"
      ],
      "severityScore": 22,
      "metarRaw": "METAR LEZL 070730Z 12003KT CAVOK 00/M00 Q1026 NOSIG",
      "tafRaw": "TAF LEZL 070200Z 0703/0803 VRB02KT CAVOK TX12/0715Z TN00/0707Z \n  PROB30 \n  TEMPO 0704/0709 4000 BR \n  PROB30 \n  TEMPO 0714/0719 RA",
      "metarHtml": "METAR LEZL 070730Z 12003KT <span class=\"hl-vis\">CAVOK</span> 00/M00 Q1026 NOSIG",
      "tafHtml": "TAF LEZL 070200Z 0703/0803 VRB02KT <span class=\"hl-vis\">CAVOK</span> TX12/0715Z TN00/0707Z \n  PROB30 \n  TEMPO 0704/0709 4000 <span class=\"hl\">BR</span> \n  PROB30 \n  TEMPO 0714/0719 <span class=\"hl\">RA</span>"
    },
    {
      "icao": "EDDS",
      "iata": "STR",
      "name": "Stuttgart Airport",
      "updatedAt": "070720Z",
      "visibility_m": 10000,
      "taf_visibility_m": 4000,
      "worst_visibility_m": 4000,
      "ceiling_ft": null,
      "hazards": [
        "SN"
      ],
      "severityScore": 18,
      "metarRaw": "METAR EDDS 070720Z AUTO VRB01KT CAVOK M10/M11 Q1015 NOSIG",
      "tafRaw": "TAF EDDS 070500Z 0706/0806 VRB03KT 9999 SCT030 \n  TEMPO 0720/0806 4000 -SN \n  PROB30 \n  TEMPO 0720/0806 BKN014 \n  BECMG 0800/0803 20005KT",
      "metarHtml": "METAR EDDS 070720Z AUTO VRB01KT <span class=\"hl-vis\">CAVOK</span> M10/M11 Q1015 NOSIG",
      "tafHtml": "TAF EDDS 070500Z 0706/0806 VRB03KT 9999 SCT030 \n  TEMPO 0720/0806 4000 -<span class=\"hl\">SN</span> \n  PROB30 \n  TEMPO 0720/0806 BKN014 \n  BECMG 0800/0803 20005KT"
    },
    {
      "icao": "EDNY",
      "iata": "FDH",
      "name": "Friedrichshafen Airport",
      "updatedAt": "070720Z",
      "visibility_m": 10000,
      "taf_visibility_m": 10000,
      "worst_visibility_m": 10000,
      "ceiling_ft": 4400,
      "hazards": [
        "SN"
      ],
      "severityScore": 18,
      "metarRaw": "METAR EDNY 070720Z VRB02KT 9999 -SN FEW018 OVC044 M05/M07 Q1016",
      "tafRaw": "TAF EDNY 070500Z 0706/0715 04002KT 9999 BKN020 \n  PROB40 \n  TEMPO 0708/0712 BKN011 \n  TEMPO 0709/0714 24005KT",
      "metarHtml": "METAR EDNY 070720Z VRB02KT 9999 -<span class=\"hl\">SN</span> FEW018 OVC044 M05/M07 Q1016",
      "tafHtml": "TAF EDNY 070500Z 0706/0715 04002KT 9999 BKN020 \n  PROB40 \n  TEMPO 0708/0712 BKN011 \n  TEMPO 0709/0714 24005KT"
    },
    {
      "icao": "EGNM",
      "iata": "LBA",
      "name": "Leeds Bradford Airport",
      "updatedAt": "070720Z",
      "visibility_m": 10000,
      "taf_visibility_m": 3000,
      "worst_visibility_m": 3000,
      "ceiling_ft": null,
      "hazards": [
        "SN"
      ],
      "severityScore": 18,
      "metarRaw": "METAR EGNM 070720Z 27015KT 9999 FEW032 02/00 Q0998",
      "tafRaw": "TAF EGNM 070502Z 0706/0806 28010KT 9999 FEW015 SCT025 \n  TEMPO 0706/0716 29016G26KT \n  BECMG 0800/0803 21005KT \n  TEMPO 0802/0806 3000 RASN -SN BKN007",
      "metarHtml": "METAR EGNM 070720Z 27015KT 9999 FEW032 02/00 Q0998",
      "tafHtml": "TAF EGNM 070502Z 0706/0806 28010KT 9999 FEW015 SCT025 \n  TEMPO 0706/0716 29016G26KT \n  BECMG 0800/0803 21005KT \n  TEMPO 0802/0806 3000 RASN -<span class=\"hl\">SN</span> BKN007"
    },
    {
      "icao": "LFLS",
      "iata": "GNB",
      "name": "Grenoble Alpes Isère Airport",
      "updatedAt": "070730Z",
      "visibility_m": 10000,
      "taf_visibility_m": 4000,
      "worst_visibility_m": 4000,
      "ceiling_ft": null,
      "hazards": [
        "SN"
      ],
      "severityScore": 18,
      "metarRaw": "METAR LFLS 070730Z AUTO 13003KT CAVOK M08/M10 Q1016 NOSIG",
      "tafRaw": "TAF LFLS 070200Z 0703/0803 36005KT 9999 BKN030 \n  PROB40 \n  TEMPO 0704/0707 BKN006 \n  BECMG 0707/0709 VRB02KT CAVOK \n  BECMG 0714/0716 OVC025 \n  TEMPO 0715/0722 4000 -SN OVC005",
      "metarHtml": "METAR LFLS 070730Z AUTO 13003KT <span class=\"hl-vis\">CAVOK</span> M08/M10 Q1016 NOSIG",
      "tafHtml": "TAF LFLS 070200Z 0703/0803 36005KT 9999 BKN030 \n  PROB40 \n  TEMPO 0704/0707 BKN006 \n  BECMG 0707/0709 VRB02KT <span class=\"hl-vis\">CAVOK</span> \n  BECMG 0714/0716 OVC025 \n  TEMPO 0715/0722 4000 -<span class=\"hl\">SN</span> OVC005"
    },
    {
      "icao": "LKMT",
      "iata": "OSR",
      "name": "Ostrava Leos Janáček Airport",
      "updatedAt": "070730Z",
      "visibility_m": 5000,
      "taf_visibility_m": 7000,
      "worst_visibility_m": 5000,
      "ceiling_ft": 2700,
      "hazards": [
        "SN"
      ],
      "severityScore": 18,
      "metarRaw": "METAR LKMT 070730Z 36004KT 5000 -SN FEW016 OVC027 M05/M07 Q1016 NOSIG",
      "tafRaw": "TAF LKMT 070500Z 0706/0806 03008KT 9999 BKN025 \n  PROB30 \n  TEMPO 0706/0710 BKN018 \n  BECMG 0801/0803 7000 -SN BKN010",
      "metarHtml": "METAR LKMT 070730Z 36004KT 5000 -<span class=\"hl\">SN</span> FEW016 OVC027 M05/M07 Q1016 NOSIG",
      "tafHtml": "TAF LKMT 070500Z 0706/0806 03008KT 9999 BKN025 \n  PROB30 \n  TEMPO 0706/0710 BKN018 \n  BECMG 0801/0803 7000 -<span class=\"hl\">SN</span> BKN010"
    },
    {
      "icao": "LZTT",
      "iata": "TAT",
      "name": "Poprad-Tatry Airport",
      "updatedAt": "070730Z",
      "visibility_m": 10000,
      "taf_visibility_m": 4000,
      "worst_visibility_m": 4000,
      "ceiling_ft": 8000,
      "hazards": [
        "SN"
      ],
      "severityScore": 18,
      "metarRaw": "METAR LZTT 070730Z VRB02KT 9999 -SN FEW014 SCT063 BKN080 M08/M10 Q1010 NOSIG",
      "tafRaw": "TAF LZTT 070515Z 0706/0806 09007KT 9999 FEW020 BKN060 \n  TEMPO 0706/0709 VRB02KT BKN012 \n  TEMPO 0721/0801 4000 -SN BKN040",
      "metarHtml": "METAR LZTT 070730Z VRB02KT 9999 -<span class=\"hl\">SN</span> FEW014 SCT063 BKN080 M08/M10 Q1010 NOSIG",
      "tafHtml": "TAF LZTT 070515Z 0706/0806 09007KT 9999 FEW020 BKN060 \n  TEMPO 0706/0709 VRB02KT BKN012 \n  TEMPO 0721/0801 4000 -<span class=\"hl\">SN</span> BKN040"
    },
    {
      "icao": "ENTO",
      "iata": "TRF",
      "name": "Sandefjord Airport, Torp",
      "updatedAt": "070720Z",
      "visibility_m": 10000,
      "taf_visibility_m": null,
      "worst_visibility_m": 10000,
      "ceiling_ft": 1200,
      "hazards": [],
      "severityScore": 17,
      "metarRaw": "METAR ENTO 070720Z 01010KT 9999 OVC012 M11/M13 Q1010 NOSIG",
      "tafRaw": null,
      "metarHtml": "METAR ENTO 070720Z 01010KT 9999 OVC012 M11/M13 Q1010 NOSIG",
      "tafHtml": null
    },
    {
      "icao": "ESMS",
      "iata": "MMX",
      "name": "Malmö Sturup Airport",
      "updatedAt": "070720Z",
      "visibility_m": 8000,
      "taf_visibility_m": null,
      "worst_visibility_m": 8000,
      "ceiling_ft": 1300,
      "hazards": [],
      "severityScore": 17,
      "metarRaw": "METAR ESMS 070720Z 22005KT 8000 OVC013 M00/M00 Q1010",
      "tafRaw": null,
      "metarHtml": "METAR ESMS 070720Z 22005KT 8000 OVC013 M00/M00 Q1010",
      "tafHtml": null
    },
    {
      "icao": "LHDC",
      "iata": "DEB",
      "name": "Debrecen International Airport",
      "updatedAt": "070715Z",
      "visibility_m": 10000,
      "taf_visibility_m": null,
      "worst_visibility_m": 10000,
      "ceiling_ft": 1100,
      "hazards": [],
      "severityScore": 17,
      "metarRaw": "METAR LHDC 070715Z AUTO 01006KT 330V050 9999 BKN011 BKN049 M03/M04 Q1011 NOSIG",
      "tafRaw": null,
      "metarHtml": "METAR LHDC 070715Z AUTO 01006KT 330V050 9999 BKN011 BKN049 M03/M04 Q1011 NOSIG",
      "tafHtml": null
    },
    {
      "icao": "LPPT",
      "iata": "LIS",
      "name": "Lisbon Humberto Delgado Airport",
      "updatedAt": "070730Z",
      "visibility_m": 5000,
      "taf_visibility_m": null,
      "worst_visibility_m": 5000,
      "ceiling_ft": 1500,
      "hazards": [],
      "severityScore": 17,
      "metarRaw": "METAR LPPT 070730Z 28005KT 220V330 5000 RADZ FEW002 SCT006 BKN015 09/09 Q1023",
      "tafRaw": null,
      "metarHtml": "METAR LPPT 070730Z 28005KT 220V330 5000 RADZ FEW002 SCT006 BKN015 09/09 Q1023",
      "tafHtml": null
    },
    {
      "icao": "EKBI",
      "iata": "BLL",
      "name": "Billund Airport",
      "updatedAt": "070720Z",
      "visibility_m": 4800,
      "taf_visibility_m": null,
      "worst_visibility_m": 4800,
      "ceiling_ft": null,
      "hazards": [
        "DZ"
      ],
      "severityScore": 15,
      "metarRaw": "METAR EKBI 070720Z AUTO 15010KT 120V180 4800 -DZ OVC008/// M01/M02 Q1006",
      "tafRaw": null,
      "metarHtml": "METAR EKBI 070720Z AUTO 15010KT 120V180 4800 -<span class=\"hl\">DZ</span> OVC008/// M01/M02 Q1006",
      "tafHtml": null
    },
    {
      "icao": "EYPA",
      "iata": "PLQ",
      "name": "Palanga International Airport",
      "updatedAt": "070720Z",
      "visibility_m": 3800,
      "taf_visibility_m": null,
      "worst_visibility_m": 3800,
      "ceiling_ft": null,
      "hazards": [
        "BR"
      ],
      "severityScore": 15,
      "metarRaw": "METAR EYPA 070720Z VRB02KT 3800 BR SCT033 M09/M10 Q1015",
      "tafRaw": null,
      "metarHtml": "METAR EYPA 070720Z VRB02KT 3800 <span class=\"hl\">BR</span> SCT033 M09/M10 Q1015",
      "tafHtml": null
    },
    {
      "icao": "LWSK",
      "iata": "SKP",
      "name": "Skopje International Airport",
      "updatedAt": "070720Z",
      "visibility_m": 5000,
      "taf_visibility_m": null,
      "worst_visibility_m": 5000,
      "ceiling_ft": 4000,
      "hazards": [
        "DZ"
      ],
      "severityScore": 15,
      "metarRaw": "METAR LWSK 070720Z VRB02KT 5000 -DZ SCT023 BKN040 OVC070 07/07 Q1009 NOSIG",
      "tafRaw": null,
      "metarHtml": "METAR LWSK 070720Z VRB02KT 5000 -<span class=\"hl\">DZ</span> SCT023 BKN040 OVC070 07/07 Q1009 NOSIG",
      "tafHtml": null
    },
    {
      "icao": "LICC",
      "iata": "CTA",
      "name": "Catania-Fontanarossa Airport",
      "updatedAt": "070720Z",
      "visibility_m": 10000,
      "taf_visibility_m": 7000,
      "worst_visibility_m": 7000,
      "ceiling_ft": null,
      "hazards": [
        "SHRA"
      ],
      "severityScore": 14,
      "metarRaw": "METAR LICC 070720Z 24009KT 9999 FEW040 SCT080 10/08 Q1007",
      "tafRaw": "TAF LICC 070500Z 0706/0806 26013KT 7000 FEW060 \n  TEMPO 0706/0709 SHRA \n  TEMPO 0712/0718 26018G28KT",
      "metarHtml": "METAR LICC 070720Z 24009KT 9999 FEW040 SCT080 10/08 Q1007",
      "tafHtml": "TAF LICC 070500Z 0706/0806 26013KT 7000 FEW060 \n  TEMPO 0706/0709 <span class=\"hl\">SHRA</span> \n  TEMPO 0712/0718 26018G28KT"
    },
    {
      "icao": "LMML",
      "iata": "MLA",
      "name": "Malta International Airport",
      "updatedAt": "070715Z",
      "visibility_m": 10000,
      "taf_visibility_m": 8000,
      "worst_visibility_m": 8000,
      "ceiling_ft": null,
      "hazards": [
        "SHRA"
      ],
      "severityScore": 14,
      "metarRaw": "METAR LMML 070715Z 23008KT 9999 FEW014 15/13 Q1008 NOSIG",
      "tafRaw": "TAF LMML 070500Z 0706/0806 20008KT 9999 FEW015 \n  BECMG 0707/0710 29020KT \n  TEMPO 0712/0806 29022G32KT \n  PROB40 \n  TEMPO 0710/0720 8000 SHRA BKN015TCU",
      "metarHtml": "METAR LMML 070715Z 23008KT 9999 FEW014 15/13 Q1008 NOSIG",
      "tafHtml": "TAF LMML 070500Z 0706/0806 20008KT 9999 FEW015 \n  BECMG 0707/0710 29020KT \n  TEMPO 0712/0806 29022G32KT \n  PROB40 \n  TEMPO 0710/0720 8000 <span class=\"hl\">SHRA</span> BKN015TCU"
    },
    {
      "icao": "LBSF",
      "iata": "SOF",
      "name": "Sofia Airport",
      "updatedAt": "070730Z",
      "visibility_m": 10000,
      "taf_visibility_m": 5000,
      "worst_visibility_m": 5000,
      "ceiling_ft": 8200,
      "hazards": [
        "RA"
      ],
      "severityScore": 12,
      "metarRaw": "METAR LBSF 070730Z 01004KT 330V060 9999 SCT047 BKN082 08/06 Q1008 NOSIG",
      "tafRaw": "TAF LBSF 070500Z 0706/0806 10010KT 9999 SCT040 BKN060 \n  TEMPO 0718/0724 5000 RA SCT010 BKN015 \n  BECMG 0800/0802 32012KT \n  TEMPO 0802/0806 5000 RA SCT010 BKN015",
      "metarHtml": "METAR LBSF 070730Z 01004KT 330V060 9999 SCT047 BKN082 08/06 Q1008 NOSIG",
      "tafHtml": "TAF LBSF 070500Z 0706/0806 10010KT 9999 SCT040 BKN060 \n  TEMPO 0718/0724 5000 <span class=\"hl\">RA</span> SCT010 BKN015 \n  BECMG 0800/0802 32012KT \n  TEMPO 0802/0806 5000 <span class=\"hl\">RA</span> SCT010 BKN015"
    },
    {
      "icao": "LBWN",
      "iata": "VAR",
      "name": "Varna Airport",
      "updatedAt": "070730Z",
      "visibility_m": 10000,
      "taf_visibility_m": 3000,
      "worst_visibility_m": 3000,
      "ceiling_ft": null,
      "hazards": [
        "RA"
      ],
      "severityScore": 12,
      "metarRaw": "METAR LBWN 070730Z 15005KT 120V180 9999 FEW019 14/12 Q1009 NOSIG",
      "tafRaw": "TAF LBWN 070500Z 0706/0806 13012KT 9999 SCT020 BKN040 \n  TEMPO 0710/0715 21016G26KT \n  PROB30 0711/0714 5000 RA \n  BECMG 0720/0722 19016G26KT \n  TEMPO 0800/0806 3000 RA BKN015 OVC030",
      "metarHtml": "METAR LBWN 070730Z 15005KT 120V180 9999 FEW019 14/12 Q1009 NOSIG",
      "tafHtml": "TAF LBWN 070500Z 0706/0806 13012KT 9999 SCT020 BKN040 \n  TEMPO 0710/0715 21016G26KT \n  PROB30 0711/0714 5000 <span class=\"hl\">RA</span> \n  BECMG 0720/0722 19016G26KT \n  TEMPO 0800/0806 3000 <span class=\"hl\">RA</span> BKN015 OVC030"
    },
    {
      "icao": "LEBB",
      "iata": "BIO",
      "name": "Bilbao Airport",
      "updatedAt": "070730Z",
      "visibility_m": 10000,
      "taf_visibility_m": 3000,
      "worst_visibility_m": 3000,
      "ceiling_ft": null,
      "hazards": [
        "RA"
      ],
      "severityScore": 12,
      "metarRaw": "METAR LEBB 070730Z 08004KT CAVOK 05/M00 Q1019 NOSIG",
      "tafRaw": "TAF LEBB 070500Z 0706/0806 15008KT 9999 SCT020 BKN040 TX11/0714Z TN04/0706Z \n  PROB40 \n  TEMPO 0706/0713 21010KT \n  TEMPO 0708/0724 3000 RA \n  TEMPO 0710/0718 29011KT \n  PROB40 \n  TEMPO 0711/0717 29018G30KT BKN010",
      "metarHtml": "METAR LEBB 070730Z 08004KT <span class=\"hl-vis\">CAVOK</span> 05/M00 Q1019 NOSIG",
      "tafHtml": "TAF LEBB 070500Z 0706/0806 15008KT 9999 SCT020 BKN040 TX11/0714Z TN04/0706Z \n  PROB40 \n  TEMPO 0706/0713 21010KT \n  TEMPO 0708/0724 3000 <span class=\"hl\">RA</span> \n  TEMPO 0710/0718 29011KT \n  PROB40 \n  TEMPO 0711/0717 29018G30KT BKN010"
    },
    {
      "icao": "LGAV",
      "iata": "ATH",
      "name": "Athens Eleftherios Venizelos International Airport",
      "updatedAt": "070720Z",
      "visibility_m": 9000,
      "taf_visibility_m": 5000,
      "worst_visibility_m": 5000,
      "ceiling_ft": null,
      "hazards": [
        "RA"
      ],
      "severityScore": 12,
      "metarRaw": "METAR LGAV 070720Z 24003KT 9000 -RA FEW018 SCT030 13/11 Q1014 NOSIG",
      "tafRaw": "TAF LGAV 070500Z 0706/0806 16010KT 9999 FEW020 SCT030 \n  PROB30 \n  TEMPO 0706/0709 5000 RA FEW018TCU SCT020 BKN030 \n  BECMG 0709/0711 20019KT \n  BECMG 0718/0720 20020G30KT \n  TEMPO 0714/0724 21020G30KT \n  PROB30 \n  TEMPO 0723/0806 5000 RA FEW018TCU SCT020 BKN030",
      "metarHtml": "METAR LGAV 070720Z 24003KT 9000 -<span class=\"hl\">RA</span> FEW018 SCT030 13/11 Q1014 NOSIG",
      "tafHtml": "TAF LGAV 070500Z 0706/0806 16010KT 9999 FEW020 SCT030 \n  PROB30 \n  TEMPO 0706/0709 5000 <span class=\"hl\">RA</span> FEW018TCU SCT020 BKN030 \n  BECMG 0709/0711 20019KT \n  BECMG 0718/0720 20020G30KT \n  TEMPO 0714/0724 21020G30KT \n  PROB30 \n  TEMPO 0723/0806 5000 <span class=\"hl\">RA</span> FEW018TCU SCT020 BKN030"
    },
    {
      "icao": "LIPY",
      "iata": "AOI",
      "name": "Marche Airport",
      "updatedAt": "070720Z",
      "visibility_m": 10000,
      "taf_visibility_m": 10000,
      "worst_visibility_m": 10000,
      "ceiling_ft": null,
      "hazards": [
        "RA"
      ],
      "severityScore": 12,
      "metarRaw": "METAR LIPY 070720Z AUTO 29009KT 9999 OVC028/// 02/M01 Q1009",
      "tafRaw": "TAF LIPY 070500Z 0706/0806 33013KT 9999 BKN020 \n  TEMPO 0706/0718 RA \n  BECMG 0804/0806 VRB05KT",
      "metarHtml": "METAR LIPY 070720Z AUTO 29009KT 9999 OVC028/// 02/M01 Q1009",
      "tafHtml": "TAF LIPY 070500Z 0706/0806 33013KT 9999 BKN020 \n  TEMPO 0706/0718 <span class=\"hl\">RA</span> \n  BECMG 0804/0806 VRB05KT"
    },
    {
      "icao": "LIRN",
      "iata": "NAP",
      "name": "Naples International Airport",
      "updatedAt": "070720Z",
      "visibility_m": 10000,
      "taf_visibility_m": 10000,
      "worst_visibility_m": 10000,
      "ceiling_ft": 4500,
      "hazards": [
        "RA"
      ],
      "severityScore": 12,
      "metarRaw": "METAR LIRN 070720Z VRB01KT 9999 FEW020 BKN045 10/09 Q1006 NOSIG",
      "tafRaw": "TAF LIRN 070500Z 0706/0806 VRB06KT 9999 SCT030 \n  BECMG 0710/0712 26012KT \n  TEMPO 0714/0720 RA",
      "metarHtml": "METAR LIRN 070720Z VRB01KT 9999 FEW020 BKN045 10/09 Q1006 NOSIG",
      "tafHtml": "TAF LIRN 070500Z 0706/0806 VRB06KT 9999 SCT030 \n  BECMG 0710/0712 26012KT \n  TEMPO 0714/0720 <span class=\"hl\">RA</span>"
    },
    {
      "icao": "LPFR",
      "iata": "FAO",
      "name": "Faro Airport",
      "updatedAt": "070730Z",
      "visibility_m": 10000,
      "taf_visibility_m": 6000,
      "worst_visibility_m": 6000,
      "ceiling_ft": 4000,
      "hazards": [
        "RA"
      ],
      "severityScore": 12,
      "metarRaw": "METAR LPFR 070730Z 32002KT 9999 BKN040 07/03 Q1026",
      "tafRaw": "TAF LPFR 070500Z 0706/0806 VRB05KT 9999 FEW015 SCT035 \n  TEMPO 0706/0716 6000 -RA SCT012 BKN020 \n  BECMG 0712/0714 25007KT \n  BECMG 0720/0722 VRB02KT \n  BECMG 0801/0803 03005KT SCT015",
      "metarHtml": "METAR LPFR 070730Z 32002KT 9999 BKN040 07/03 Q1026",
      "tafHtml": "TAF LPFR 070500Z 0706/0806 VRB05KT 9999 FEW015 SCT035 \n  TEMPO 0706/0716 6000 -<span class=\"hl\">RA</span> SCT012 BKN020 \n  BECMG 0712/0714 25007KT \n  BECMG 0720/0722 VRB02KT \n  BECMG 0801/0803 03005KT SCT015"
    },
    {
      "icao": "LWOH",
      "iata": "OHD",
      "name": "Ohrid St. Paul the Apostle Airport",
      "updatedAt": "070720Z",
      "visibility_m": 10000,
      "taf_visibility_m": 5000,
      "worst_visibility_m": 5000,
      "ceiling_ft": 4000,
      "hazards": [
        "RA"
      ],
      "severityScore": 12,
      "metarRaw": "METAR LWOH 070720Z 12004KT 100V180 9999 -RA SCT010 OVC040 08/07 Q1009",
      "tafRaw": "TAF LWOH 070550Z 0706/0806 14006KT 9999 RA SCT015 OVC035 \n  TEMPO 0712/0718 18015G25KT \n  TEMPO 0718/0806 5000 +RA BKN010 OVC025",
      "metarHtml": "METAR LWOH 070720Z 12004KT 100V180 9999 -<span class=\"hl\">RA</span> SCT010 OVC040 08/07 Q1009",
      "tafHtml": "TAF LWOH 070550Z 0706/0806 14006KT 9999 <span class=\"hl\">RA</span> SCT015 OVC035 \n  TEMPO 0712/0718 18015G25KT \n  TEMPO 0718/0806 5000 +<span class=\"hl\">RA</span> BKN010 OVC025"
    },
    {
      "icao": "EFTU",
      "iata": "TKU",
      "name": "Turku Airport",
      "updatedAt": "070720Z",
      "visibility_m": 10000,
      "taf_visibility_m": 3000,
      "worst_visibility_m": 3000,
      "ceiling_ft": 2700,
      "hazards": [
        "SHSN"
      ],
      "severityScore": 10,
      "metarRaw": "METAR EFTU 070720Z AUTO 09008KT 9999 BKN027 M06/M07 Q1014",
      "tafRaw": "TAF EFTU 070528Z 0706/0806 09007KT 9999 OVC009 \n  BECMG 0706/0708 BKN015 \n  PROB30 0712/0718 3000 -SHSN BKN012",
      "metarHtml": "METAR EFTU 070720Z AUTO 09008KT 9999 BKN027 M06/M07 Q1014",
      "tafHtml": "TAF EFTU 070528Z 0706/0806 09007KT 9999 OVC009 \n  BECMG 0706/0708 BKN015 \n  PROB30 0712/0718 3000 -<span class=\"hl\">SHSN</span> BKN012"
    },
    {
      "icao": "EPRA",
      "iata": "RDO",
      "name": "Warsaw Radom Airport",
      "updatedAt": "070730Z",
      "visibility_m": 4000,
      "taf_visibility_m": 4000,
      "worst_visibility_m": 4000,
      "ceiling_ft": null,
      "hazards": [
        "BR"
      ],
      "severityScore": 10,
      "metarRaw": "METAR EPRA 070730Z 32004KT 4000 BR NSC M09/M10 Q1016",
      "tafRaw": "TAF EPRA 070530Z 0706/0715 35005KT 8000 NSC \n  TEMPO 0706/0709 4000 BR",
      "metarHtml": "METAR EPRA 070730Z 32004KT 4000 <span class=\"hl\">BR</span> NSC M09/M10 Q1016",
      "tafHtml": "TAF EPRA 070530Z 0706/0715 35005KT 8000 NSC \n  TEMPO 0706/0709 4000 <span class=\"hl\">BR</span>"
    },
    {
      "icao": "EPSC",
      "iata": "SZZ",
      "name": "Solidarity Szczecin–Goleniów Airport",
      "updatedAt": "070730Z",
      "visibility_m": 6000,
      "taf_visibility_m": 4000,
      "worst_visibility_m": 4000,
      "ceiling_ft": 3900,
      "hazards": [
        "BR"
      ],
      "severityScore": 10,
      "metarRaw": "METAR EPSC 070730Z 13007KT 6000 BKN039 M05/M06 Q1015",
      "tafRaw": "TAF EPSC 070530Z 0706/0806 15008KT 4000 BR OVC010 \n  BECMG 0707/0710 7000 SCT015",
      "metarHtml": "METAR EPSC 070730Z 13007KT 6000 BKN039 M05/M06 Q1015",
      "tafHtml": "TAF EPSC 070530Z 0706/0806 15008KT 4000 <span class=\"hl\">BR</span> OVC010 \n  BECMG 0707/0710 7000 SCT015"
    },
    {
      "icao": "LEMD",
      "iata": "MAD",
      "name": "Adolfo Suárez Madrid–Barajas Airport",
      "updatedAt": "070730Z",
      "visibility_m": 10000,
      "taf_visibility_m": 1500,
      "worst_visibility_m": 1500,
      "ceiling_ft": null,
      "hazards": [],
      "severityScore": 10,
      "metarRaw": "METAR LEMD 070730Z 00000KT CAVOK M04/M06 Q1021 NOSIG",
      "tafRaw": "TAF LEMD 070500Z 0706/0812 VRB04KT CAVOK TX08/0715Z TNM00/0800Z \n  BECMG 0722/0724 BKN005 \n  PROB40 \n  TEMPO 0723/0810 1500 BCFG BKN002",
      "metarHtml": "METAR LEMD 070730Z 00000KT <span class=\"hl-vis\">CAVOK</span> M04/M06 Q1021 NOSIG",
      "tafHtml": "TAF LEMD 070500Z 0706/0812 VRB04KT <span class=\"hl-vis\">CAVOK</span> TX08/0715Z TNM00/0800Z \n  BECMG 0722/0724 BKN005 \n  PROB40 \n  TEMPO 0723/0810 1500 BCFG BKN002"
    },
    {
      "icao": "LIMC",
      "iata": "MXP",
      "name": "Milan Malpensa International Airport",
      "updatedAt": "070720Z",
      "visibility_m": 10000,
      "taf_visibility_m": 1500,
      "worst_visibility_m": 1500,
      "ceiling_ft": null,
      "hazards": [],
      "severityScore": 10,
      "metarRaw": "METAR LIMC 070720Z 01004KT CAVOK M08/M09 Q1012 NOSIG",
      "tafRaw": "TAF LIMC 070500Z 0706/0812 VRB04KT CAVOK \n  PROB30 \n  TEMPO 0706/0707 2000 BCFG \n  TEMPO 0720/0803 1500 BCFG",
      "metarHtml": "METAR LIMC 070720Z 01004KT <span class=\"hl-vis\">CAVOK</span> M08/M09 Q1012 NOSIG",
      "tafHtml": "TAF LIMC 070500Z 0706/0812 VRB04KT <span class=\"hl-vis\">CAVOK</span> \n  PROB30 \n  TEMPO 0706/0707 2000 BCFG \n  TEMPO 0720/0803 1500 BCFG"
    },
    {
      "icao": "UDSG",
      "iata": "LWN",
      "name": "Shirak International Airport",
      "updatedAt": "070730Z",
      "visibility_m": 6000,
      "taf_visibility_m": 5000,
      "worst_visibility_m": 5000,
      "ceiling_ft": null,
      "hazards": [
        "BR"
      ],
      "severityScore": 10,
      "metarRaw": "METAR UDSG 070730Z 00000KT 6000 NSC M11/M13 Q1028 NOSIG",
      "tafRaw": "TAF UDSG 070458Z 0706/0806 VRB06KT 9999 FEW040 \n  TEMPO 0706/0709 5000 BR",
      "metarHtml": "METAR UDSG 070730Z 00000KT 6000 NSC M11/M13 Q1028 NOSIG",
      "tafHtml": "TAF UDSG 070458Z 0706/0806 VRB06KT 9999 FEW040 \n  TEMPO 0706/0709 5000 <span class=\"hl\">BR</span>"
    },
    {
      "icao": "BKPR",
      "iata": "PRN",
      "name": "Priština Adem Jashari International Airport",
      "updatedAt": "070730Z",
      "visibility_m": 10000,
      "taf_visibility_m": null,
      "worst_visibility_m": 10000,
      "ceiling_ft": 5000,
      "hazards": [],
      "severityScore": 5,
      "metarRaw": "METAR BKPR 070730Z 18009KT 9999 SCT014 BKN050 08/07 Q1007 NOSIG",
      "tafRaw": null,
      "metarHtml": "METAR BKPR 070730Z 18009KT 9999 SCT014 BKN050 08/07 Q1007 NOSIG",
      "tafHtml": null
    },
    {
      "icao": "EKCH",
      "iata": "CPH",
      "name": "Copenhagen Kastrup Airport",
      "updatedAt": "070720Z",
      "visibility_m": 10000,
      "taf_visibility_m": null,
      "worst_visibility_m": 10000,
      "ceiling_ft": null,
      "hazards": [],
      "severityScore": 5,
      "metarRaw": "METAR EKCH 070720Z AUTO 21011KT 9999 OVC016/// 00/M03 Q1011 NOSIG",
      "tafRaw": null,
      "metarHtml": "METAR EKCH 070720Z AUTO 21011KT 9999 OVC016/// 00/M03 Q1011 NOSIG",
      "tafHtml": null
    },
    {
      "icao": "LECH",
      "iata": "CDT",
      "name": "Castellón-Costa Azahar Airport",
      "updatedAt": "070730Z",
      "visibility_m": 10000,
      "taf_visibility_m": null,
      "worst_visibility_m": 10000,
      "ceiling_ft": null,
      "hazards": [],
      "severityScore": 5,
      "metarRaw": "METAR LECH 070730Z AUTO 23003KT CAVOK 02/M08 Q1018",
      "tafRaw": null,
      "metarHtml": "METAR LECH 070730Z AUTO 23003KT <span class=\"hl-vis\">CAVOK</span> 02/M08 Q1018",
      "tafHtml": null
    },
    {
      "icao": "LHBP",
      "iata": "BUD",
      "name": "Budapest Liszt Ferenc International Airport",
      "updatedAt": "070730Z",
      "visibility_m": 8000,
      "taf_visibility_m": null,
      "worst_visibility_m": 8000,
      "ceiling_ft": 2500,
      "hazards": [],
      "severityScore": 5,
      "metarRaw": "METAR LHBP 070730Z 31004KT 8000 FEW005 OVC025 M03/M04 Q1013 NOSIG",
      "tafRaw": null,
      "metarHtml": "METAR LHBP 070730Z 31004KT 8000 FEW005 OVC025 M03/M04 Q1013 NOSIG",
      "tafHtml": null
    },
    {
      "icao": "LIBG",
      "iata": "TAR",
      "name": "Taranto-Grottaglie Marcello Arlotta Airport",
      "updatedAt": "070653Z",
      "visibility_m": 10000,
      "taf_visibility_m": null,
      "worst_visibility_m": 10000,
      "ceiling_ft": null,
      "hazards": [],
      "severityScore": 5,
      "metarRaw": "SPECI LIBG 070653Z 03007KT 010V070 9999 FEW005 SCT040 09/09 Q1006",
      "tafRaw": null,
      "metarHtml": "SPECI LIBG 070653Z 03007KT 010V070 9999 FEW005 SCT040 09/09 Q1006",
      "tafHtml": null
    },
    {
      "icao": "BIKF",
      "iata": "KEF",
      "name": "Keflavik International Airport",
      "updatedAt": "070731Z",
      "visibility_m": 10000,
      "taf_visibility_m": 10000,
      "worst_visibility_m": 10000,
      "ceiling_ft": 20000,
      "hazards": [],
      "severityScore": 0,
      "metarRaw": "METAR BIKF 070731Z 08020KT 9999 FEW042 OVC200 M02/M07 Q1008",
      "tafRaw": "TAF BIKF 070432Z 0706/0806 08017KT 9999 FEW035 TXM00/0806Z TNM03/0706Z",
      "metarHtml": "METAR BIKF 070731Z 08020KT 9999 FEW042 OVC200 M02/M07 Q1008",
      "tafHtml": "TAF BIKF 070432Z 0706/0806 08017KT 9999 FEW035 TXM00/0806Z TNM03/0706Z"
    },
    {
      "icao": "GCFV",
      "iata": "FUE",
      "name": "Fuerteventura Airport",
      "updatedAt": "070730Z",
      "visibility_m": 10000,
      "taf_visibility_m": 10000,
      "worst_visibility_m": 10000,
      "ceiling_ft": null,
      "hazards": [],
      "severityScore": 0,
      "metarRaw": "METAR GCFV 070730Z 01024KT 9999 SCT035 17/09 Q1026",
      "tafRaw": "TAF GCFV 070200Z 0703/0803 02022KT 9999 SCT035 TX20/0714Z TN14/0706Z \n  PROB40 \n  TEMPO 0709/0718 04022G32KT",
      "metarHtml": "METAR GCFV 070730Z 01024KT 9999 SCT035 17/09 Q1026",
      "tafHtml": "TAF GCFV 070200Z 0703/0803 02022KT 9999 SCT035 TX20/0714Z TN14/0706Z \n  PROB40 \n  TEMPO 0709/0718 04022G32KT"
    },
    {
      "icao": "GCLP",
      "iata": "LPA",
      "name": "Gran Canaria Airport",
      "updatedAt": "070730Z",
      "visibility_m": 10000,
      "taf_visibility_m": 10000,
      "worst_visibility_m": 10000,
      "ceiling_ft": 5500,
      "hazards": [],
      "severityScore": 0,
      "metarRaw": "METAR GCLP 070730Z 02023KT 9999 FEW035 BKN055 17/09 Q1026 NOSIG",
      "tafRaw": "TAF GCLP 070200Z 0703/0803 02023KT 9999 SCT045 TX18/0714Z TN15/0706Z \n  PROB40 \n  TEMPO 0703/0719 36023G33KT",
      "metarHtml": "METAR GCLP 070730Z 02023KT 9999 FEW035 BKN055 17/09 Q1026 NOSIG",
      "tafHtml": "TAF GCLP 070200Z 0703/0803 02023KT 9999 SCT045 TX18/0714Z TN15/0706Z \n  PROB40 \n  TEMPO 0703/0719 36023G33KT"
    },
    {
      "icao": "GCTS",
      "iata": "TFS",
      "name": "Tenerife Sur Airport",
      "updatedAt": "070730Z",
      "visibility_m": 10000,
      "taf_visibility_m": 10000,
      "worst_visibility_m": 10000,
      "ceiling_ft": null,
      "hazards": [],
      "severityScore": 0,
      "metarRaw": "METAR GCTS 070730Z 03013KT 9999 FEW050 16/07 Q1026 NOSIG",
      "tafRaw": "TAF GCTS 070200Z 0703/0803 04015KT 9999 SCT035 TX22/0714Z TN15/0706Z \n  BECMG 0708/0710 08025KT \n  TEMPO 0709/0721 09025G37KT",
      "metarHtml": "METAR GCTS 070730Z 03013KT 9999 FEW050 16/07 Q1026 NOSIG",
      "tafHtml": "TAF GCTS 070200Z 0703/0803 04015KT 9999 SCT035 TX22/0714Z TN15/0706Z \n  BECMG 0708/0710 08025KT \n  TEMPO 0709/0721 09025G37KT"
    },
    {
      "icao": "GMAD",
      "iata": "AGA",
      "name": "Al Massira Airport",
      "updatedAt": "070730Z",
      "visibility_m": 10000,
      "taf_visibility_m": 6000,
      "worst_visibility_m": 6000,
      "ceiling_ft": null,
      "hazards": [],
      "severityScore": 0,
      "metarRaw": "METAR GMAD 070730Z 36005KT CAVOK 05/04 Q1023 NOSIG",
      "tafRaw": "TAF GMAD 070500Z 0706/0812 22006KT 6000 SCT020",
      "metarHtml": "METAR GMAD 070730Z 36005KT <span class=\"hl-vis\">CAVOK</span> 05/04 Q1023 NOSIG",
      "tafHtml": "TAF GMAD 070500Z 0706/0812 22006KT 6000 SCT020"
    },
    {
      "icao": "GMMN",
      "iata": "CMN",
      "name": "Mohammed V International Airport",
      "updatedAt": "070730Z",
      "visibility_m": 10000,
      "taf_visibility_m": 10000,
      "worst_visibility_m": 10000,
      "ceiling_ft": 4000,
      "hazards": [],
      "severityScore": 0,
      "metarRaw": "METAR GMMN 070730Z 21005KT 9999 BKN040 05/03 Q1028 NOSIG",
      "tafRaw": "TAF GMMN 070500Z 0706/0812 20006KT CAVOK \n  BECMG 0711/0715 24012KT",
      "metarHtml": "METAR GMMN 070730Z 21005KT 9999 BKN040 05/03 Q1028 NOSIG",
      "tafHtml": "TAF GMMN 070500Z 0706/0812 20006KT <span class=\"hl-vis\">CAVOK</span> \n  BECMG 0711/0715 24012KT"
    },
    {
      "icao": "GMMX",
      "iata": "RAK",
      "name": "Menara Airport",
      "updatedAt": "070730Z",
      "visibility_m": 10000,
      "taf_visibility_m": 8000,
      "worst_visibility_m": 8000,
      "ceiling_ft": null,
      "hazards": [],
      "severityScore": 0,
      "metarRaw": "METAR GMMX 070730Z 07004KT CAVOK 03/02 Q1027 NOSIG",
      "tafRaw": "TAF GMMX 070500Z 0706/0812 06006KT 8000 NSC",
      "metarHtml": "METAR GMMX 070730Z 07004KT <span class=\"hl-vis\">CAVOK</span> 03/02 Q1027 NOSIG",
      "tafHtml": "TAF GMMX 070500Z 0706/0812 06006KT 8000 NSC"
    },
    {
      "icao": "EDDB",
      "iata": "BER",
      "name": "Berlin Brandenburg Airport",
      "updatedAt": "070720Z",
      "visibility_m": 10000,
      "taf_visibility_m": 10000,
      "worst_visibility_m": 10000,
      "ceiling_ft": null,
      "hazards": [],
      "severityScore": 0,
      "metarRaw": "METAR EDDB 070720Z AUTO 15004KT CAVOK M09/M10 Q1016 NOSIG",
      "tafRaw": "TAF EDDB 070500Z 0706/0806 18007KT CAVOK",
      "metarHtml": "METAR EDDB 070720Z AUTO 15004KT <span class=\"hl-vis\">CAVOK</span> M09/M10 Q1016 NOSIG",
      "tafHtml": "TAF EDDB 070500Z 0706/0806 18007KT <span class=\"hl-vis\">CAVOK</span>"
    },
    {
      "icao": "EDJA",
      "iata": "FMM",
      "name": "Memmingen Allgau Airport",
      "updatedAt": "070720Z",
      "visibility_m": 10000,
      "taf_visibility_m": 10000,
      "worst_visibility_m": 10000,
      "ceiling_ft": 4200,
      "hazards": [],
      "severityScore": 0,
      "metarRaw": "METAR EDJA 070720Z 22003KT 9999 OVC042 M08/M10 Q1014",
      "tafRaw": "TAF EDJA 070500Z 0706/0715 21004KT 9999 SCT012 BKN040 \n  PROB30 \n  TEMPO 0710/0713 BKN012",
      "metarHtml": "METAR EDJA 070720Z 22003KT 9999 OVC042 M08/M10 Q1014",
      "tafHtml": "TAF EDJA 070500Z 0706/0715 21004KT 9999 SCT012 BKN040 \n  PROB30 \n  TEMPO 0710/0713 BKN012"
    },
    {
      "icao": "EGKK",
      "iata": "LGW",
      "name": "London Gatwick Airport",
      "updatedAt": "070720Z",
      "visibility_m": 10000,
      "taf_visibility_m": 4000,
      "worst_visibility_m": 4000,
      "ceiling_ft": null,
      "hazards": [],
      "severityScore": 0,
      "metarRaw": "METAR EGKK 070720Z 25008KT CAVOK 02/01 Q1004",
      "tafRaw": "TAF EGKK 070454Z 0706/0812 27009KT 9999 FEW045 \n  PROB30 \n  TEMPO 0709/0716 25015G25KT \n  TEMPO 0723/0806 6000 -RADZ BKN009 \n  PROB30 \n  TEMPO 0803/0806 4000 RADZ BKN004",
      "metarHtml": "METAR EGKK 070720Z 25008KT <span class=\"hl-vis\">CAVOK</span> 02/01 Q1004",
      "tafHtml": "TAF EGKK 070454Z 0706/0812 27009KT 9999 FEW045 \n  PROB30 \n  TEMPO 0709/0716 25015G25KT \n  TEMPO 0723/0806 6000 -RADZ BKN009 \n  PROB30 \n  TEMPO 0803/0806 4000 RADZ BKN004"
    },
    {
      "icao": "ENAL",
      "iata": "AES",
      "name": "Ålesund Airport, Vigra",
      "updatedAt": "070720Z",
      "visibility_m": 10000,
      "taf_visibility_m": 10000,
      "worst_visibility_m": 10000,
      "ceiling_ft": null,
      "hazards": [],
      "severityScore": 0,
      "metarRaw": "METAR ENAL 070720Z 14009KT CAVOK M03/M12 Q1009",
      "tafRaw": "TAF ENAL 070500Z 0706/0715 12008KT CAVOK",
      "metarHtml": "METAR ENAL 070720Z 14009KT <span class=\"hl-vis\">CAVOK</span> M03/M12 Q1009",
      "tafHtml": "TAF ENAL 070500Z 0706/0715 12008KT <span class=\"hl-vis\">CAVOK</span>"
    },
    {
      "icao": "ENBR",
      "iata": "BGO",
      "name": "Bergen Airport, Flesland",
      "updatedAt": "070720Z",
      "visibility_m": 10000,
      "taf_visibility_m": 10000,
      "worst_visibility_m": 10000,
      "ceiling_ft": null,
      "hazards": [],
      "severityScore": 0,
      "metarRaw": "METAR ENBR 070720Z 06003KT CAVOK M10/M14 Q1007 NOSIG RMK WIND 1200FT 10004KT",
      "tafRaw": "TAF ENBR 070500Z 0706/0806 06005KT CAVOK",
      "metarHtml": "METAR ENBR 070720Z 06003KT <span class=\"hl-vis\">CAVOK</span> M10/M14 Q1007 NOSIG RMK WIND 1200FT 10004KT",
      "tafHtml": "TAF ENBR 070500Z 0706/0806 06005KT <span class=\"hl-vis\">CAVOK</span>"
    },
    {
      "icao": "ENHD",
      "iata": "HAU",
      "name": "Haugesund Airport, Karmøy",
      "updatedAt": "070720Z",
      "visibility_m": 10000,
      "taf_visibility_m": 10000,
      "worst_visibility_m": 10000,
      "ceiling_ft": null,
      "hazards": [],
      "severityScore": 0,
      "metarRaw": "METAR ENHD 070720Z 08009KT CAVOK M04/M11 Q1006",
      "tafRaw": "TAF ENHD 070500Z 0706/0715 09009KT CAVOK",
      "metarHtml": "METAR ENHD 070720Z 08009KT <span class=\"hl-vis\">CAVOK</span> M04/M11 Q1006",
      "tafHtml": "TAF ENHD 070500Z 0706/0715 09009KT <span class=\"hl-vis\">CAVOK</span>"
    },
    {
      "icao": "ENTC",
      "iata": "TOS",
      "name": "Tromsø Airport, Langnes",
      "updatedAt": "070720Z",
      "visibility_m": 10000,
      "taf_visibility_m": 10000,
      "worst_visibility_m": 10000,
      "ceiling_ft": null,
      "hazards": [],
      "severityScore": 0,
      "metarRaw": "METAR ENTC 070720Z 07003KT CAVOK M13/M16 Q1023 NOSIG RMK WIND 2600FT 16015KT",
      "tafRaw": "TAF ENTC 070500Z 0706/0806 VRB03KT CAVOK",
      "metarHtml": "METAR ENTC 070720Z 07003KT <span class=\"hl-vis\">CAVOK</span> M13/M16 Q1023 NOSIG RMK WIND 2600FT 16015KT",
      "tafHtml": "TAF ENTC 070500Z 0706/0806 VRB03KT <span class=\"hl-vis\">CAVOK</span>"
    },
    {
      "icao": "ENVA",
      "iata": "TRD",
      "name": "Trondheim Airport, Værnes",
      "updatedAt": "070720Z",
      "visibility_m": 10000,
      "taf_visibility_m": 10000,
      "worst_visibility_m": 10000,
      "ceiling_ft": null,
      "hazards": [],
      "severityScore": 0,
      "metarRaw": "METAR ENVA 070720Z 12006KT CAVOK M15/M17 Q1015 NOSIG RMK WIND 670FT 09010KT",
      "tafRaw": "TAF ENVA 070500Z 0706/0806 11008KT CAVOK",
      "metarHtml": "METAR ENVA 070720Z 12006KT <span class=\"hl-vis\">CAVOK</span> M15/M17 Q1015 NOSIG RMK WIND 670FT 09010KT",
      "tafHtml": "TAF ENVA 070500Z 0706/0806 11008KT <span class=\"hl-vis\">CAVOK</span>"
    },
    {
      "icao": "ENZV",
      "iata": "SVG",
      "name": "Stavanger Airport, Sola",
      "updatedAt": "070720Z",
      "visibility_m": 10000,
      "taf_visibility_m": 10000,
      "worst_visibility_m": 10000,
      "ceiling_ft": null,
      "hazards": [],
      "severityScore": 0,
      "metarRaw": "METAR ENZV 070720Z 08008KT CAVOK M03/M10 Q1006 NOSIG",
      "tafRaw": "TAF ENZV 070500Z 0706/0806 08006KT CAVOK",
      "metarHtml": "METAR ENZV 070720Z 08008KT <span class=\"hl-vis\">CAVOK</span> M03/M10 Q1006 NOSIG",
      "tafHtml": "TAF ENZV 070500Z 0706/0806 08006KT <span class=\"hl-vis\">CAVOK</span>"
    },
    {
      "icao": "HEGN",
      "iata": "HRG",
      "name": "Hurghada International Airport",
      "updatedAt": "070700Z",
      "visibility_m": 10000,
      "taf_visibility_m": 10000,
      "worst_visibility_m": 10000,
      "ceiling_ft": null,
      "hazards": [],
      "severityScore": 0,
      "metarRaw": "METAR HEGN 070700Z 31005KT CAVOK 20/04 Q1021 NOSIG",
      "tafRaw": "TAF HEGN 070500Z 0706/0812 33013KT CAVOK",
      "metarHtml": "METAR HEGN 070700Z 31005KT <span class=\"hl-vis\">CAVOK</span> 20/04 Q1021 NOSIG",
      "tafHtml": "TAF HEGN 070500Z 0706/0812 33013KT <span class=\"hl-vis\">CAVOK</span>"
    },
    {
      "icao": "HEMA",
      "iata": "RMF",
      "name": "Marsa Alam International Airport",
      "updatedAt": "070700Z",
      "visibility_m": 10000,
      "taf_visibility_m": 3000,
      "worst_visibility_m": 3000,
      "ceiling_ft": null,
      "hazards": [],
      "severityScore": 0,
      "metarRaw": "METAR HEMA 070700Z 32014KT CAVOK 23/11 Q1020 NOSIG",
      "tafRaw": "TAF HEMA 070500Z 0706/0812 33015KT 6000 NSC \n  TEMPO 0706/0918 3000 SA",
      "metarHtml": "METAR HEMA 070700Z 32014KT <span class=\"hl-vis\">CAVOK</span> 23/11 Q1020 NOSIG",
      "tafHtml": "TAF HEMA 070500Z 0706/0812 33015KT 6000 NSC \n  TEMPO 0706/0918 3000 SA"
    },
    {
      "icao": "HESH",
      "iata": "SSH",
      "name": "Sharm El Sheikh International Airport",
      "updatedAt": "070700Z",
      "visibility_m": 10000,
      "taf_visibility_m": 10000,
      "worst_visibility_m": 10000,
      "ceiling_ft": null,
      "hazards": [],
      "severityScore": 0,
      "metarRaw": "METAR HESH 070700Z 35010KT CAVOK 22/12 Q1021 NOSIG",
      "tafRaw": "TAF HESH 070500Z 0706/0812 35011KT CAVOK",
      "metarHtml": "METAR HESH 070700Z 35010KT <span class=\"hl-vis\">CAVOK</span> 22/12 Q1021 NOSIG",
      "tafHtml": "TAF HESH 070500Z 0706/0812 35011KT <span class=\"hl-vis\">CAVOK</span>"
    },
    {
      "icao": "HESX",
      "iata": "SPX",
      "name": "Sphinx International Airport",
      "updatedAt": "070700Z",
      "visibility_m": 4000,
      "taf_visibility_m": 3000,
      "worst_visibility_m": 3000,
      "ceiling_ft": null,
      "hazards": [],
      "severityScore": 0,
      "metarRaw": "METAR HESX 070700Z 33003KT 4000 HZ NSC 12/07 Q1022 NOSIG",
      "tafRaw": "TAF HESX 070500Z 0706/0812 14009KT CAVOK \n  PROB40 \n  TEMPO 0706/0710 3000 HZ NSC",
      "metarHtml": "METAR HESX 070700Z 33003KT 4000 HZ NSC 12/07 Q1022 NOSIG",
      "tafHtml": "TAF HESX 070500Z 0706/0812 14009KT <span class=\"hl-vis\">CAVOK</span> \n  PROB40 \n  TEMPO 0706/0710 3000 HZ NSC"
    },
    {
      "icao": "LCLK",
      "iata": "LCA",
      "name": "Larnaca International Airport",
      "updatedAt": "070730Z",
      "visibility_m": 10000,
      "taf_visibility_m": 10000,
      "worst_visibility_m": 10000,
      "ceiling_ft": null,
      "hazards": [],
      "severityScore": 0,
      "metarRaw": "METAR LCLK 070730Z 06010KT CAVOK 16/13 Q1023 NOSIG",
      "tafRaw": "TAF LCLK 070530Z 0706/0806 34006KT 9999 FEW035 \n  BECMG 0708/0711 10010KT \n  BECMG 0715/0718 34006KT",
      "metarHtml": "METAR LCLK 070730Z 06010KT <span class=\"hl-vis\">CAVOK</span> 16/13 Q1023 NOSIG",
      "tafHtml": "TAF LCLK 070530Z 0706/0806 34006KT 9999 FEW035 \n  BECMG 0708/0711 10010KT \n  BECMG 0715/0718 34006KT"
    },
    {
      "icao": "LCPH",
      "iata": "PFO",
      "name": "Paphos International Airport",
      "updatedAt": "070730Z",
      "visibility_m": 10000,
      "taf_visibility_m": 10000,
      "worst_visibility_m": 10000,
      "ceiling_ft": null,
      "hazards": [],
      "severityScore": 0,
      "metarRaw": "METAR LCPH 070730Z 08004KT 9999 FEW040 18/10 Q1023 NOSIG",
      "tafRaw": "TAF LCPH 070530Z 0706/0806 07008KT 9999 FEW030 \n  BECMG 0707/0711 14014KT \n  BECMG 0715/0718 07008KT",
      "metarHtml": "METAR LCPH 070730Z 08004KT 9999 FEW040 18/10 Q1023 NOSIG",
      "tafHtml": "TAF LCPH 070530Z 0706/0806 07008KT 9999 FEW030 \n  BECMG 0707/0711 14014KT \n  BECMG 0715/0718 07008KT"
    },
    {
      "icao": "LEAL",
      "iata": "ALC",
      "name": "Alicante-Elche Miguel Hernández Airport",
      "updatedAt": "070730Z",
      "visibility_m": 10000,
      "taf_visibility_m": 10000,
      "worst_visibility_m": 10000,
      "ceiling_ft": null,
      "hazards": [],
      "severityScore": 0,
      "metarRaw": "METAR LEAL 070730Z 30016KT CAVOK 05/M06 Q1020 NOSIG",
      "tafRaw": "TAF LEAL 070500Z 0706/0806 30012KT 9999 FEW030 TX13/0714Z TN03/0706Z \n  PROB40 \n  TEMPO 0712/0715 30015G25KT \n  TEMPO 0718/0721 VRB03KT \n  TEMPO 0721/0806 30015G25KT",
      "metarHtml": "METAR LEAL 070730Z 30016KT <span class=\"hl-vis\">CAVOK</span> 05/M06 Q1020 NOSIG",
      "tafHtml": "TAF LEAL 070500Z 0706/0806 30012KT 9999 FEW030 TX13/0714Z TN03/0706Z \n  PROB40 \n  TEMPO 0712/0715 30015G25KT \n  TEMPO 0718/0721 VRB03KT \n  TEMPO 0721/0806 30015G25KT"
    },
    {
      "icao": "LEBL",
      "iata": "BCN",
      "name": "Josep Tarradellas Barcelona-El Prat Airport",
      "updatedAt": "070730Z",
      "visibility_m": 10000,
      "taf_visibility_m": 10000,
      "worst_visibility_m": 10000,
      "ceiling_ft": null,
      "hazards": [],
      "severityScore": 0,
      "metarRaw": "METAR LEBL 070730Z 29009KT 260V320 CAVOK 01/M04 Q1017 NOSIG",
      "tafRaw": "TAF LEBL 070500Z 0706/0806 34013KT CAVOK TX10/0713Z TN00/0706Z \n  PROB30 \n  TEMPO 0706/0710 36017G27KT \n  TEMPO 0713/0722 27007KT \n  PROB30 \n  TEMPO 0718/0801 33020G30KT",
      "metarHtml": "METAR LEBL 070730Z 29009KT 260V320 <span class=\"hl-vis\">CAVOK</span> 01/M04 Q1017 NOSIG",
      "tafHtml": "TAF LEBL 070500Z 0706/0806 34013KT <span class=\"hl-vis\">CAVOK</span> TX10/0713Z TN00/0706Z \n  PROB30 \n  TEMPO 0706/0710 36017G27KT \n  TEMPO 0713/0722 27007KT \n  PROB30 \n  TEMPO 0718/0801 33020G30KT"
    },
    {
      "icao": "LEMG",
      "iata": "AGP",
      "name": "Málaga-Costa del Sol Airport",
      "updatedAt": "070730Z",
      "visibility_m": 10000,
      "taf_visibility_m": 10000,
      "worst_visibility_m": 10000,
      "ceiling_ft": null,
      "hazards": [],
      "severityScore": 0,
      "metarRaw": "METAR LEMG 070730Z 28016KT CAVOK 05/M05 Q1024 NOSIG",
      "tafRaw": "TAF LEMG 070500Z 0706/0806 29012KT 9999 FEW040 TX13/0714Z TN04/0706Z",
      "metarHtml": "METAR LEMG 070730Z 28016KT <span class=\"hl-vis\">CAVOK</span> 05/M05 Q1024 NOSIG",
      "tafHtml": "TAF LEMG 070500Z 0706/0806 29012KT 9999 FEW040 TX13/0714Z TN04/0706Z"
    },
    {
      "icao": "LEVC",
      "iata": "VLC",
      "name": "Valencia Airport",
      "updatedAt": "070730Z",
      "visibility_m": 10000,
      "taf_visibility_m": 10000,
      "worst_visibility_m": 10000,
      "ceiling_ft": null,
      "hazards": [],
      "severityScore": 0,
      "metarRaw": "METAR LEVC 070730Z 26007KT CAVOK 01/M04 Q1020 NOSIG",
      "tafRaw": "TAF LEVC 070500Z 0706/0806 27007KT CAVOK TX13/0714Z TNM01/0706Z \n  PROB30 \n  TEMPO 0712/0715 27015G25KT",
      "metarHtml": "METAR LEVC 070730Z 26007KT <span class=\"hl-vis\">CAVOK</span> 01/M04 Q1020 NOSIG",
      "tafHtml": "TAF LEVC 070500Z 0706/0806 27007KT <span class=\"hl-vis\">CAVOK</span> TX13/0714Z TNM01/0706Z \n  PROB30 \n  TEMPO 0712/0715 27015G25KT"
    },
    {
      "icao": "LEZG",
      "iata": "ZAZ",
      "name": "Zaragoza Airport",
      "updatedAt": "070730Z",
      "visibility_m": 10000,
      "taf_visibility_m": 10000,
      "worst_visibility_m": 10000,
      "ceiling_ft": null,
      "hazards": [],
      "severityScore": 0,
      "metarRaw": "METAR LEZG 070730Z 25011KT CAVOK 01/M05 Q1019 NOSIG",
      "tafRaw": "TAF LEZG 070500Z 0706/0806 25009KT 9999 FEW030 TX09/0715Z TNM01/0706Z \n  TEMPO 0710/0713 24015G25KT \n  BECMG 0711/0713 29008KT \n  BECMG 0720/0722 24012KT \n  TEMPO 0723/0806 24015G25KT",
      "metarHtml": "METAR LEZG 070730Z 25011KT <span class=\"hl-vis\">CAVOK</span> 01/M05 Q1019 NOSIG",
      "tafHtml": "TAF LEZG 070500Z 0706/0806 25009KT 9999 FEW030 TX09/0715Z TNM01/0706Z \n  TEMPO 0710/0713 24015G25KT \n  BECMG 0711/0713 29008KT \n  BECMG 0720/0722 24012KT \n  TEMPO 0723/0806 24015G25KT"
    },
    {
      "icao": "LFMN",
      "iata": "NCE",
      "name": "Nice-Côte d'Azur Airport",
      "updatedAt": "070730Z",
      "visibility_m": 10000,
      "taf_visibility_m": 10000,
      "worst_visibility_m": 10000,
      "ceiling_ft": null,
      "hazards": [],
      "severityScore": 0,
      "metarRaw": "METAR LFMN 070730Z 34009KT 9999 FEW093 03/M04 Q1009 NOSIG",
      "tafRaw": "TAF LFMN 070200Z 0703/0809 34015KT CAVOK \n  BECMG 0709/0712 24013KT \n  BECMG 0717/0719 32012KT",
      "metarHtml": "METAR LFMN 070730Z 34009KT 9999 FEW093 03/M04 Q1009 NOSIG",
      "tafHtml": "TAF LFMN 070200Z 0703/0809 34015KT <span class=\"hl-vis\">CAVOK</span> \n  BECMG 0709/0712 24013KT \n  BECMG 0717/0719 32012KT"
    },
    {
      "icao": "LIBP",
      "iata": "PSR",
      "name": "Abruzzo Airport",
      "updatedAt": "070720Z",
      "visibility_m": 10000,
      "taf_visibility_m": 10000,
      "worst_visibility_m": 10000,
      "ceiling_ft": null,
      "hazards": [],
      "severityScore": 0,
      "metarRaw": "METAR LIBP 070720Z AUTO 23004KT 9999 OVC048/// 04/03 Q1009",
      "tafRaw": "TAF LIBP 070500Z 0706/0806 30009KT 9999 BKN030",
      "metarHtml": "METAR LIBP 070720Z AUTO 23004KT 9999 OVC048/// 04/03 Q1009",
      "tafHtml": "TAF LIBP 070500Z 0706/0806 30009KT 9999 BKN030"
    },
    {
      "icao": "LIME",
      "iata": "BGY",
      "name": "Milan Bergamo Airport / Antonio Locatelli Air Base",
      "updatedAt": "070720Z",
      "visibility_m": 10000,
      "taf_visibility_m": 10000,
      "worst_visibility_m": 10000,
      "ceiling_ft": null,
      "hazards": [],
      "severityScore": 0,
      "metarRaw": "METAR LIME 070720Z VRB02KT CAVOK M03/M07 Q1011 NOSIG",
      "tafRaw": "TAF LIME 070500Z 0706/0806 VRB04KT 9999 FEW025",
      "metarHtml": "METAR LIME 070720Z VRB02KT <span class=\"hl-vis\">CAVOK</span> M03/M07 Q1011 NOSIG",
      "tafHtml": "TAF LIME 070500Z 0706/0806 VRB04KT 9999 FEW025"
    },
    {
      "icao": "LIMF",
      "iata": "TRN",
      "name": "Turin Airport",
      "updatedAt": "070720Z",
      "visibility_m": 10000,
      "taf_visibility_m": 10000,
      "worst_visibility_m": 10000,
      "ceiling_ft": null,
      "hazards": [],
      "severityScore": 0,
      "metarRaw": "METAR LIMF 070720Z 29006KT CAVOK M05/M11 Q1012",
      "tafRaw": "TAF LIMF 070500Z 0706/0806 VRB03KT CAVOK",
      "metarHtml": "METAR LIMF 070720Z 29006KT <span class=\"hl-vis\">CAVOK</span> M05/M11 Q1012",
      "tafHtml": "TAF LIMF 070500Z 0706/0806 VRB03KT <span class=\"hl-vis\">CAVOK</span>"
    },
    {
      "icao": "LIMJ",
      "iata": "GOA",
      "name": "Genoa Cristoforo Colombo Airport",
      "updatedAt": "070720Z",
      "visibility_m": 10000,
      "taf_visibility_m": 10000,
      "worst_visibility_m": 10000,
      "ceiling_ft": null,
      "hazards": [],
      "severityScore": 0,
      "metarRaw": "METAR LIMJ 070720Z 04019KT CAVOK 01/M04 Q1010",
      "tafRaw": "TAF LIMJ 070500Z 0706/0806 04015KT CAVOK \n  BECMG 0716/0718 06005KT",
      "metarHtml": "METAR LIMJ 070720Z 04019KT <span class=\"hl-vis\">CAVOK</span> 01/M04 Q1010",
      "tafHtml": "TAF LIMJ 070500Z 0706/0806 04015KT <span class=\"hl-vis\">CAVOK</span> \n  BECMG 0716/0718 06005KT"
    },
    {
      "icao": "LIPE",
      "iata": "BLQ",
      "name": "Bologna Guglielmo Marconi Airport",
      "updatedAt": "070720Z",
      "visibility_m": 7000,
      "taf_visibility_m": 10000,
      "worst_visibility_m": 7000,
      "ceiling_ft": null,
      "hazards": [],
      "severityScore": 0,
      "metarRaw": "METAR LIPE 070720Z 26005KT 7000 NSC M03/M03 Q1012",
      "tafRaw": "TAF LIPE 070500Z 0706/0806 26007KT 9999 BKN030",
      "metarHtml": "METAR LIPE 070720Z 26005KT 7000 NSC M03/M03 Q1012",
      "tafHtml": "TAF LIPE 070500Z 0706/0806 26007KT 9999 BKN030"
    },
    {
      "icao": "LIPH",
      "iata": "TSF",
      "name": "Treviso Antonio Canova Airport",
      "updatedAt": "070720Z",
      "visibility_m": 10000,
      "taf_visibility_m": 10000,
      "worst_visibility_m": 10000,
      "ceiling_ft": null,
      "hazards": [],
      "severityScore": 0,
      "metarRaw": "METAR LIPH 070720Z VRB02KT CAVOK M02/M04 Q1012",
      "tafRaw": "TAF LIPH 070500Z 0706/0806 VRB05KT CAVOK",
      "metarHtml": "METAR LIPH 070720Z VRB02KT <span class=\"hl-vis\">CAVOK</span> M02/M04 Q1012",
      "tafHtml": "TAF LIPH 070500Z 0706/0806 VRB05KT <span class=\"hl-vis\">CAVOK</span>"
    },
    {
      "icao": "LIPQ",
      "iata": "TRS",
      "name": "Trieste–Friuli Venezia Giulia Airport",
      "updatedAt": "070720Z",
      "visibility_m": 10000,
      "taf_visibility_m": 10000,
      "worst_visibility_m": 10000,
      "ceiling_ft": null,
      "hazards": [],
      "severityScore": 0,
      "metarRaw": "METAR LIPQ 070720Z AUTO VRB02KT 9999 OVC088/// M01/M03 Q1012",
      "tafRaw": "TAF LIPQ 070500Z 0706/0806 08006KT 9999 SCT070",
      "metarHtml": "METAR LIPQ 070720Z AUTO VRB02KT 9999 OVC088/// M01/M03 Q1012",
      "tafHtml": "TAF LIPQ 070500Z 0706/0806 08006KT 9999 SCT070"
    },
    {
      "icao": "LIPR",
      "iata": "RMI",
      "name": "Federico Fellini International Airport",
      "updatedAt": "070720Z",
      "visibility_m": 10000,
      "taf_visibility_m": 3000,
      "worst_visibility_m": 3000,
      "ceiling_ft": 3500,
      "hazards": [],
      "severityScore": 0,
      "metarRaw": "METAR LIPR 070720Z 29011KT 9999 BKN035 01/M02 Q1011",
      "tafRaw": "TAF LIPR 070500Z 0706/0806 29012KT 9999 BKN030 \n  TEMPO 0706/0714 3000 -RASN BKN008 \n  BECMG 0800/0802 VRB05KT",
      "metarHtml": "METAR LIPR 070720Z 29011KT 9999 BKN035 01/M02 Q1011",
      "tafHtml": "TAF LIPR 070500Z 0706/0806 29012KT 9999 BKN030 \n  TEMPO 0706/0714 3000 -RASN BKN008 \n  BECMG 0800/0802 VRB05KT"
    },
    {
      "icao": "LIPX",
      "iata": "VRN",
      "name": "Verona Villafranca Valerio Catullo Airport",
      "updatedAt": "070720Z",
      "visibility_m": 10000,
      "taf_visibility_m": 10000,
      "worst_visibility_m": 10000,
      "ceiling_ft": null,
      "hazards": [],
      "severityScore": 0,
      "metarRaw": "METAR LIPX 070720Z 34005KT CAVOK M04/M05 Q1012",
      "tafRaw": "TAF LIPX 070500Z 0706/0806 VRB05KT 9999 FEW030",
      "metarHtml": "METAR LIPX 070720Z 34005KT <span class=\"hl-vis\">CAVOK</span> M04/M05 Q1012",
      "tafHtml": "TAF LIPX 070500Z 0706/0806 VRB05KT 9999 FEW030"
    },
    {
      "icao": "LIPZ",
      "iata": "VCE",
      "name": "Venice Marco Polo Airport",
      "updatedAt": "070720Z",
      "visibility_m": 10000,
      "taf_visibility_m": 10000,
      "worst_visibility_m": 10000,
      "ceiling_ft": null,
      "hazards": [],
      "severityScore": 0,
      "metarRaw": "METAR LIPZ 070720Z 34007KT CAVOK M01/M05 Q1012 NOSIG",
      "tafRaw": "TAF LIPZ 070500Z 0706/0812 34006KT CAVOK",
      "metarHtml": "METAR LIPZ 070720Z 34007KT <span class=\"hl-vis\">CAVOK</span> M01/M05 Q1012 NOSIG",
      "tafHtml": "TAF LIPZ 070500Z 0706/0812 34006KT <span class=\"hl-vis\">CAVOK</span>"
    },
    {
      "icao": "LIRF",
      "iata": "FCO",
      "name": "Rome–Fiumicino Leonardo da Vinci International Airport",
      "updatedAt": "070720Z",
      "visibility_m": 10000,
      "taf_visibility_m": 10000,
      "worst_visibility_m": 10000,
      "ceiling_ft": null,
      "hazards": [],
      "severityScore": 0,
      "metarRaw": "METAR LIRF 070720Z 05006KT 9999 FEW045 04/02 Q1007 NOSIG",
      "tafRaw": "TAF LIRF 070500Z 0706/0812 04010KT 9999 SCT020 \n  BECMG 0711/0713 34013KT \n  BECMG 0800/0802 04010KT \n  BECMG 0810/0812 34010KT",
      "metarHtml": "METAR LIRF 070720Z 05006KT 9999 FEW045 04/02 Q1007 NOSIG",
      "tafHtml": "TAF LIRF 070500Z 0706/0812 04010KT 9999 SCT020 \n  BECMG 0711/0713 34013KT \n  BECMG 0800/0802 04010KT \n  BECMG 0810/0812 34010KT"
    },
    {
      "icao": "LIRP",
      "iata": "PSA",
      "name": "Pisa International Airport",
      "updatedAt": "070715Z",
      "visibility_m": 10000,
      "taf_visibility_m": 10000,
      "worst_visibility_m": 10000,
      "ceiling_ft": null,
      "hazards": [],
      "severityScore": 0,
      "metarRaw": "METAR LIRP 070715Z 12009KT CAVOK 02/M04 Q1009 NOSIG",
      "tafRaw": "TAF LIRP 070500Z 0706/0806 12007KT 9999 SCT080 \n  BECMG 0713/0715 CAVOK \n  TEMPO 0723/0805 VRB03KT 9999 FEW025 SCT080",
      "metarHtml": "METAR LIRP 070715Z 12009KT <span class=\"hl-vis\">CAVOK</span> 02/M04 Q1009 NOSIG",
      "tafHtml": "TAF LIRP 070500Z 0706/0806 12007KT 9999 SCT080 \n  BECMG 0713/0715 <span class=\"hl-vis\">CAVOK</span> \n  TEMPO 0723/0805 VRB03KT 9999 FEW025 SCT080"
    },
    {
      "icao": "LIRZ",
      "iata": "PEG",
      "name": "Perugia San Francesco d'Assisi – Umbria International Airport",
      "updatedAt": "070720Z",
      "visibility_m": 10000,
      "taf_visibility_m": 10000,
      "worst_visibility_m": 10000,
      "ceiling_ft": null,
      "hazards": [],
      "severityScore": 0,
      "metarRaw": "METAR LIRZ 070720Z AUTO 35009KT 9999 OVC050/// 02/M01 Q1008",
      "tafRaw": "TAF LIRZ 070500Z 0706/0806 01013KT 9999 BKN020 \n  BECMG 0718/0720 VRB05KT",
      "metarHtml": "METAR LIRZ 070720Z AUTO 35009KT 9999 OVC050/// 02/M01 Q1008",
      "tafHtml": "TAF LIRZ 070500Z 0706/0806 01013KT 9999 BKN020 \n  BECMG 0718/0720 VRB05KT"
    },
    {
      "icao": "LKPR",
      "iata": "PRG",
      "name": "Václav Havel Airport Prague",
      "updatedAt": "070730Z",
      "visibility_m": 10000,
      "taf_visibility_m": 10000,
      "worst_visibility_m": 10000,
      "ceiling_ft": 3400,
      "hazards": [],
      "severityScore": 0,
      "metarRaw": "METAR LKPR 070730Z 20007KT 9999 BKN034 M07/M08 Q1016 NOSIG",
      "tafRaw": "TAF LKPR 070500Z 0706/0812 21006KT 9999 BKN030 \n  TEMPO 0800/0807 CAVOK",
      "metarHtml": "METAR LKPR 070730Z 20007KT 9999 BKN034 M07/M08 Q1016 NOSIG",
      "tafHtml": "TAF LKPR 070500Z 0706/0812 21006KT 9999 BKN030 \n  TEMPO 0800/0807 <span class=\"hl-vis\">CAVOK</span>"
    },
    {
      "icao": "LLBG",
      "iata": "TLV",
      "name": "Ben Gurion International Airport",
      "updatedAt": "070720Z",
      "visibility_m": 10000,
      "taf_visibility_m": 10000,
      "worst_visibility_m": 10000,
      "ceiling_ft": null,
      "hazards": [],
      "severityScore": 0,
      "metarRaw": "METAR LLBG 070720Z VRB01KT CAVOK 17/08 Q1023 NOSIG",
      "tafRaw": "TAF LLBG 070501Z 0706/0806 VRB03KT CAVOK \n  BECMG 0707/0709 33010KT \n  BECMG 0715/0717 VRB04KT TX23/0712Z TN10/0804Z",
      "metarHtml": "METAR LLBG 070720Z VRB01KT <span class=\"hl-vis\">CAVOK</span> 17/08 Q1023 NOSIG",
      "tafHtml": "TAF LLBG 070501Z 0706/0806 VRB03KT <span class=\"hl-vis\">CAVOK</span> \n  BECMG 0707/0709 33010KT \n  BECMG 0715/0717 VRB04KT TX23/0712Z TN10/0804Z"
    },
    {
      "icao": "LOWW",
      "iata": "VIE",
      "name": "Vienna International Airport",
      "updatedAt": "070720Z",
      "visibility_m": 10000,
      "taf_visibility_m": 10000,
      "worst_visibility_m": 10000,
      "ceiling_ft": null,
      "hazards": [],
      "severityScore": 0,
      "metarRaw": "METAR LOWW 070720Z 33013KT 9999 FEW036 M03/M09 Q1016 NOSIG",
      "tafRaw": "TAF LOWW 070515Z 0706/0812 32012KT 9999 FEW050 TXM02/0812Z TNM06/0805Z \n  TEMPO 0706/0715 33015G25KT \n  BECMG 0717/0719 32007KT",
      "metarHtml": "METAR LOWW 070720Z 33013KT 9999 FEW036 M03/M09 Q1016 NOSIG",
      "tafHtml": "TAF LOWW 070515Z 0706/0812 32012KT 9999 FEW050 TXM02/0812Z TNM06/0805Z \n  TEMPO 0706/0715 33015G25KT \n  BECMG 0717/0719 32007KT"
    },
    {
      "icao": "LPMA",
      "iata": "FNC",
      "name": "Madeira International Airport Cristiano Ronaldo",
      "updatedAt": "070730Z",
      "visibility_m": 10000,
      "taf_visibility_m": 10000,
      "worst_visibility_m": 10000,
      "ceiling_ft": null,
      "hazards": [],
      "severityScore": 0,
      "metarRaw": "METAR LPMA 070730Z 01011KT 330V030 9999 SCT015 14/08 Q1031",
      "tafRaw": "TAF LPMA 070500Z 0706/0806 02012KT 9999 SCT016 \n  TEMPO 0706/0718 02017G27KT BKN014",
      "metarHtml": "METAR LPMA 070730Z 01011KT 330V030 9999 SCT015 14/08 Q1031",
      "tafHtml": "TAF LPMA 070500Z 0706/0806 02012KT 9999 SCT016 \n  TEMPO 0706/0718 02017G27KT BKN014"
    },
    {
      "icao": "LPPS",
      "iata": "PXO",
      "name": "Porto Santo Airport",
      "updatedAt": "070730Z",
      "visibility_m": 10000,
      "taf_visibility_m": 10000,
      "worst_visibility_m": 10000,
      "ceiling_ft": null,
      "hazards": [],
      "severityScore": 0,
      "metarRaw": "METAR LPPS 070730Z 04009KT 9999 SCT015 14/07 Q1031",
      "tafRaw": "TAF LPPS 070500Z 0706/0812 04010KT 9999 SCT015 \n  BECMG 0803/0806 SCT012 BKN030",
      "metarHtml": "METAR LPPS 070730Z 04009KT 9999 SCT015 14/07 Q1031",
      "tafHtml": "TAF LPPS 070500Z 0706/0812 04010KT 9999 SCT015 \n  BECMG 0803/0806 SCT012 BKN030"
    },
    {
      "icao": "LZIB",
      "iata": "BTS",
      "name": "M. R. Štefánik Airport",
      "updatedAt": "070730Z",
      "visibility_m": 10000,
      "taf_visibility_m": 10000,
      "worst_visibility_m": 10000,
      "ceiling_ft": null,
      "hazards": [],
      "severityScore": 0,
      "metarRaw": "METAR LZIB 070730Z 36007KT 9999 FEW020 M04/M08 Q1015 NOSIG",
      "tafRaw": "TAF LZIB 070515Z 0706/0806 35009KT 9999 FEW022",
      "metarHtml": "METAR LZIB 070730Z 36007KT 9999 FEW020 M04/M08 Q1015 NOSIG",
      "tafHtml": "TAF LZIB 070515Z 0706/0806 35009KT 9999 FEW022"
    },
    {
      "icao": "OEJN",
      "iata": "JED",
      "name": "King Abdulaziz International Airport",
      "updatedAt": "070700Z",
      "visibility_m": 6000,
      "taf_visibility_m": 7000,
      "worst_visibility_m": 6000,
      "ceiling_ft": null,
      "hazards": [],
      "severityScore": 0,
      "metarRaw": "METAR OEJN 070700Z 13005KT 6000 NSC 27/08 Q1018 NOSIG",
      "tafRaw": "TAF OEJN 070500Z 0706/0812 19006KT 7000 NSC \n  BECMG 0712/0714 24010KT 9999 FEW040 \n  BECMG 0718/0720 VRB03KT CAVOK",
      "metarHtml": "METAR OEJN 070700Z 13005KT 6000 NSC 27/08 Q1018 NOSIG",
      "tafHtml": "TAF OEJN 070500Z 0706/0812 19006KT 7000 NSC \n  BECMG 0712/0714 24010KT 9999 FEW040 \n  BECMG 0718/0720 VRB03KT <span class=\"hl-vis\">CAVOK</span>"
    },
    {
      "icao": "OEMA",
      "iata": "MED",
      "name": "Prince Mohammad Bin Abdulaziz Airport",
      "updatedAt": "070700Z",
      "visibility_m": 10000,
      "taf_visibility_m": 10000,
      "worst_visibility_m": 10000,
      "ceiling_ft": null,
      "hazards": [],
      "severityScore": 0,
      "metarRaw": "METAR OEMA 070700Z 06005KT CAVOK 19/M03 Q1026 NOSIG",
      "tafRaw": "TAF OEMA 070500Z 0706/0812 09010KT CAVOK \n  BECMG 0720/0722 08006KT",
      "metarHtml": "METAR OEMA 070700Z 06005KT <span class=\"hl-vis\">CAVOK</span> 19/M03 Q1026 NOSIG",
      "tafHtml": "TAF OEMA 070500Z 0706/0812 09010KT <span class=\"hl-vis\">CAVOK</span> \n  BECMG 0720/0722 08006KT"
    },
    {
      "icao": "OJAI",
      "iata": "AMM",
      "name": "Queen Alia International Airport",
      "updatedAt": "070700Z",
      "visibility_m": 4000,
      "taf_visibility_m": 5000,
      "worst_visibility_m": 4000,
      "ceiling_ft": null,
      "hazards": [],
      "severityScore": 0,
      "metarRaw": "METAR OJAI 070700Z 06005KT 4000 HZ NSC 10/03 Q1025 NOSIG",
      "tafRaw": "TAF OJAI 070447Z 0706/0812 VRB02KT 5000 HZ NSC \n  BECMG 0708/0710 10008KT",
      "metarHtml": "METAR OJAI 070700Z 06005KT 4000 HZ NSC 10/03 Q1025 NOSIG",
      "tafHtml": "TAF OJAI 070447Z 0706/0812 VRB02KT 5000 HZ NSC \n  BECMG 0708/0710 10008KT"
    },
    {
      "icao": "OMAA",
      "iata": "AUH",
      "name": "Zayed International Airport",
      "updatedAt": "070700Z",
      "visibility_m": 10000,
      "taf_visibility_m": 8000,
      "worst_visibility_m": 8000,
      "ceiling_ft": null,
      "hazards": [],
      "severityScore": 0,
      "metarRaw": "METAR OMAA 070700Z 34007KT 300V020 CAVOK 24/09 Q1022 NOSIG",
      "tafRaw": "TAF OMAA 070500Z 0706/0812 VRB02KT 8000 NSC \n  BECMG 0707/0709 34011KT \n  BECMG 0716/0718 04005KT \n  BECMG 0809/0811 33010KT",
      "metarHtml": "METAR OMAA 070700Z 34007KT 300V020 <span class=\"hl-vis\">CAVOK</span> 24/09 Q1022 NOSIG",
      "tafHtml": "TAF OMAA 070500Z 0706/0812 VRB02KT 8000 NSC \n  BECMG 0707/0709 34011KT \n  BECMG 0716/0718 04005KT \n  BECMG 0809/0811 33010KT"
    },
    {
      "icao": "OMDB",
      "iata": "DXB",
      "name": "Dubai International Airport",
      "updatedAt": "070730Z",
      "visibility_m": 10000,
      "taf_visibility_m": 8000,
      "worst_visibility_m": 8000,
      "ceiling_ft": null,
      "hazards": [],
      "severityScore": 0,
      "metarRaw": "METAR OMDB 070730Z VRB07KT 9999 FEW045 24/12 Q1022 NOSIG",
      "tafRaw": "TAF OMDB 070500Z 0706/0812 07005KT 8000 NSC \n  BECMG 0708/0710 34010KT \n  BECMG 0716/0718 12005KT \n  BECMG 0808/0810 33012KT",
      "metarHtml": "METAR OMDB 070730Z VRB07KT 9999 FEW045 24/12 Q1022 NOSIG",
      "tafHtml": "TAF OMDB 070500Z 0706/0812 07005KT 8000 NSC \n  BECMG 0708/0710 34010KT \n  BECMG 0716/0718 12005KT \n  BECMG 0808/0810 33012KT"
    },
    {
      "icao": "UGKO",
      "iata": "KUT",
      "name": "David the Builder Kutaisi International Airport",
      "updatedAt": "070730Z",
      "visibility_m": 10000,
      "taf_visibility_m": 10000,
      "worst_visibility_m": 10000,
      "ceiling_ft": null,
      "hazards": [],
      "severityScore": 0,
      "metarRaw": "METAR UGKO 070730Z 09010KT CAVOK 09/M03 Q1020 NOSIG",
      "tafRaw": "TAF UGKO 070500Z 0706/0806 09007KT CAVOK TX16/0712Z TN02/0706Z \n  TEMPO 0800/0806 08017KT",
      "metarHtml": "METAR UGKO 070730Z 09010KT <span class=\"hl-vis\">CAVOK</span> 09/M03 Q1020 NOSIG",
      "tafHtml": "TAF UGKO 070500Z 0706/0806 09007KT <span class=\"hl-vis\">CAVOK</span> TX16/0712Z TN02/0706Z \n  TEMPO 0800/0806 08017KT"
    }
  ],
  "stats": {
    "icaoCount": 159,
    "metarReturned": 159,
    "tafReturned": 135,
    "stationsWritten": 159,
    "missingMetar": 0,
    "missingTaf": 24
  },
  "errors": []
}