{
  "generatedAt": "2026-01-07T23:53:01.580Z",
  "stations": [
    {
      "icao": "EBCI",
      "iata": "CRL",
      "name": "Brussels South Charleroi Airport",
      "updatedAt": "072320Z",
      "visibility_m": 7000,
      "taf_visibility_m": 400,
      "worst_visibility_m": 400,
      "ceiling_ft": null,
      "hazards": [
        "FG",
        "BR",
        "RA",
        "SHRA",
        "FZDZ",
        "DZ"
      ],
      "severityScore": 100,
      "metarRaw": "METAR EBCI 072320Z 22009KT 7000 FEW005 M00/M01 Q1007 NOSIG",
      "tafRaw": "TAF EBCI 072300Z 0800/0906 21007KT 9999 SCT030 \n  PROB40 \n  TEMPO 0800/0805 SCT004 BKN006 \n  BECMG 0804/0806 2500 BR SCT002 BKN003 \n  PROB30 \n  TEMPO 0805/0807 -FZDZ \n  PROB40 0806/0818 1200 -DZ -DZRA BR \n  PROB40 \n  TEMPO 0808/0818 0400 FG BKN001 \n  BECMG 0818/0820 6000 RA RADZ \n  PROB30 \n  TEMPO 0818/0823 BKN004 \n  BECMG 0823/0902 19020G30KT NSW SCT014 BKN020 \n  PROB40 \n  TEMPO 0902/0906 RA SHRA 18028G45KT \n  PROB40 \n  TEMPO 0904/0906 3500 SNRA BKN003",
      "metarHtml": "METAR EBCI 072320Z 22009KT 7000 FEW005 M00/M01 Q1007 NOSIG",
      "tafHtml": "TAF EBCI 072300Z 0800/0906 21007KT 9999 SCT030 \n  PROB40 \n  TEMPO 0800/0805 SCT004 BKN006 \n  BECMG 0804/0806 2500 <span class=\"hl\">BR</span> SCT002 BKN003 \n  PROB30 \n  TEMPO 0805/0807 -<span class=\"hl\">FZDZ</span> \n  PROB40 0806/0818 1200 -<span class=\"hl\">DZ</span> -DZRA <span class=\"hl\">BR</span> \n  PROB40 \n  TEMPO 0808/0818 <span class=\"hl-vis\">0400</span> <span class=\"hl\">FG</span> BKN001 \n  BECMG 0818/0820 6000 <span class=\"hl\">RA</span> RADZ \n  PROB30 \n  TEMPO 0818/0823 BKN004 \n  BECMG 0823/0902 19020G30KT NSW SCT014 BKN020 \n  PROB40 \n  TEMPO 0902/0906 <span class=\"hl\">RA</span> <span class=\"hl\">SHRA</span> 18028G45KT \n  PROB40 \n  TEMPO 0904/0906 3500 SNRA BKN003"
    },
    {
      "icao": "EDFH",
      "iata": "HHN",
      "name": "Frankfurt-Hahn Airport",
      "updatedAt": "072320Z",
      "visibility_m": 10000,
      "taf_visibility_m": 800,
      "worst_visibility_m": 800,
      "ceiling_ft": 400,
      "hazards": [
        "SN",
        "BR",
        "FZDZ"
      ],
      "severityScore": 100,
      "metarRaw": "METAR EDFH 072320Z 25009KT 210V280 9999 -SN OVC004 M03/M04 Q1007",
      "tafRaw": "TAF EDFH 072300Z 0800/0824 24010KT 9999 OVC008 \n  TEMPO 0800/0803 1200 SN BR OVC002 \n  PROB30 \n  TEMPO 0803/0809 2000 -FZDZ OVC003 \n  TEMPO 0809/0818 2000 -SN BR OVC003 \n  BECMG 0818/0820 16013KT \n  TEMPO 0818/0824 0800 +SN OVC001",
      "metarHtml": "METAR EDFH 072320Z 25009KT 210V280 9999 -<span class=\"hl\">SN</span> OVC004 M03/M04 Q1007",
      "tafHtml": "TAF EDFH 072300Z <span class=\"hl-vis\">0800</span>/0824 24010KT 9999 OVC008 \n  TEMPO <span class=\"hl-vis\">0800</span>/0803 1200 <span class=\"hl\">SN</span> <span class=\"hl\">BR</span> OVC002 \n  PROB30 \n  TEMPO 0803/0809 2000 -<span class=\"hl\">FZDZ</span> OVC003 \n  TEMPO 0809/0818 2000 -<span class=\"hl\">SN</span> <span class=\"hl\">BR</span> OVC003 \n  BECMG 0818/0820 16013KT \n  TEMPO 0818/0824 <span class=\"hl-vis\">0800</span> +<span class=\"hl\">SN</span> OVC001"
    },
    {
      "icao": "EGBB",
      "iata": "BHX",
      "name": "Birmingham Airport",
      "updatedAt": "072320Z",
      "visibility_m": 10000,
      "taf_visibility_m": 300,
      "worst_visibility_m": 300,
      "ceiling_ft": null,
      "hazards": [
        "FG",
        "BR",
        "SN",
        "RA",
        "DZ"
      ],
      "severityScore": 100,
      "metarRaw": "METAR EGBB 072320Z 24004KT CAVOK 03/M01 Q1004",
      "tafRaw": "TAF EGBB 072304Z 0800/0824 22006KT 9999 SCT025 \n  TEMPO 0800/0803 8000 -RA BKN008 \n  BECMG 0803/0806 BKN006 \n  TEMPO 0803/0818 3000 RADZ BR BKN004 \n  PROB30 \n  TEMPO 0803/0809 0300 DZ FG BKN001 \n  BECMG 0815/0818 07013KT \n  PROB40 \n  TEMPO 0816/0818 +RA \n  TEMPO 0818/0822 08019G30KT \n  TEMPO 0818/0824 4000 RA RASN BKN004 \n  PROB30 \n  TEMPO 0818/0824 0300 +SN FG BKN000 \n  BECMG 0822/0824 03018G28KT",
      "metarHtml": "METAR EGBB 072320Z 24004KT <span class=\"hl-vis\">CAVOK</span> 03/M01 Q1004",
      "tafHtml": "TAF EGBB 072304Z 0800/0824 22006KT 9999 SCT025 \n  TEMPO 0800/0803 8000 -<span class=\"hl\">RA</span> BKN008 \n  BECMG 0803/0806 BKN006 \n  TEMPO 0803/0818 3000 RADZ <span class=\"hl\">BR</span> BKN004 \n  PROB30 \n  TEMPO 0803/0809 <span class=\"hl-vis\">0300</span> <span class=\"hl\">DZ</span> <span class=\"hl\">FG</span> BKN001 \n  BECMG 0815/0818 07013KT \n  PROB40 \n  TEMPO 0816/0818 +<span class=\"hl\">RA</span> \n  TEMPO 0818/0822 08019G30KT \n  TEMPO 0818/0824 4000 <span class=\"hl\">RA</span> RASN BKN004 \n  PROB30 \n  TEMPO 0818/0824 <span class=\"hl-vis\">0300</span> +<span class=\"hl\">SN</span> <span class=\"hl\">FG</span> BKN000 \n  BECMG 0822/0824 03018G28KT"
    },
    {
      "icao": "EPGD",
      "iata": "GDN",
      "name": "Gdańsk Lech Wałęsa Airport",
      "updatedAt": "072330Z",
      "visibility_m": 4200,
      "taf_visibility_m": 300,
      "worst_visibility_m": 300,
      "ceiling_ft": 200,
      "hazards": [
        "BR",
        "FZFG"
      ],
      "severityScore": 100,
      "metarRaw": "METAR EPGD 072330Z 18007KT 4200 BR OVC002 M09/M10 Q1014",
      "tafRaw": "TAF EPGD 072330Z 0800/0824 17005KT 6000 OVC002 \n  TEMPO 0800/0808 3500 -SG BR \n  PROB40 0800/0807 0300 FZFG BKN001 \n  BECMG 0807/0810 BKN005 \n  PROB40 0810/0815 SCT005",
      "metarHtml": "METAR EPGD 072330Z 18007KT 4200 <span class=\"hl\">BR</span> OVC002 M09/M10 Q1014",
      "tafHtml": "TAF EPGD 072330Z 0800/0824 17005KT 6000 OVC002 \n  TEMPO 0800/0808 3500 -SG <span class=\"hl\">BR</span> \n  PROB40 0800/0807 <span class=\"hl-vis\">0300</span> <span class=\"hl\">FZFG</span> BKN001 \n  BECMG 0807/0810 BKN005 \n  PROB40 0810/0815 SCT005"
    },
    {
      "icao": "EYKA",
      "iata": "KUN",
      "name": "Kaunas International Airport",
      "updatedAt": "072350Z",
      "visibility_m": 2500,
      "taf_visibility_m": 600,
      "worst_visibility_m": 600,
      "ceiling_ft": 200,
      "hazards": [
        "BR",
        "FZFG"
      ],
      "severityScore": 100,
      "metarRaw": "METAR EYKA 072350Z VRB02KT 2500 BR OVC002 M08/M09 Q1016",
      "tafRaw": "TAF EYKA 072316Z 0800/0824 VRB03KT 3000 BR OVC002 \n  TEMPO 0800/0802 1500 \n  PROB30 \n  TEMPO 0800/0802 0600 FZFG VV002 \n  BECMG 0802/0804 5000 OVC005 \n  BECMG 0804/0806 9000 NSW OVC010 \n  BECMG 0818/0821 SCT010",
      "metarHtml": "METAR EYKA 072350Z VRB02KT 2500 <span class=\"hl\">BR</span> OVC002 M08/M09 Q1016",
      "tafHtml": "TAF EYKA 072316Z 0800/0824 VRB03KT 3000 <span class=\"hl\">BR</span> OVC002 \n  TEMPO 0800/0802 1500 \n  PROB30 \n  TEMPO 0800/0802 <span class=\"hl-vis\">0600</span> <span class=\"hl\">FZFG</span> VV002 \n  BECMG 0802/0804 5000 OVC005 \n  BECMG 0804/0806 9000 NSW OVC010 \n  BECMG 0818/0821 SCT010"
    },
    {
      "icao": "EYVI",
      "iata": "VNO",
      "name": "Vilnius International Airport",
      "updatedAt": "072350Z",
      "visibility_m": 3400,
      "taf_visibility_m": 600,
      "worst_visibility_m": 600,
      "ceiling_ft": 200,
      "hazards": [
        "BR",
        "FZFG"
      ],
      "severityScore": 100,
      "metarRaw": "METAR EYVI 072350Z 03003KT 3400 BR OVC002 M08/M09 Q1015 NOSIG",
      "tafRaw": "TAF EYVI 072314Z 0800/0824 VRB03KT 5000 BR OVC002 \n  TEMPO 0800/0803 1500 OVC005 \n  PROB30 \n  TEMPO 0800/0803 0600 FZFG VV002 \n  BECMG 0803/0805 06010KT 9000 NSW OVC005 \n  TEMPO 0805/0808 3000 BR OVC002 \n  BECMG 0808/0811 OVC010",
      "metarHtml": "METAR EYVI 072350Z 03003KT 3400 <span class=\"hl\">BR</span> OVC002 M08/M09 Q1015 NOSIG",
      "tafHtml": "TAF EYVI 072314Z 0800/0824 VRB03KT 5000 <span class=\"hl\">BR</span> OVC002 \n  TEMPO 0800/0803 1500 OVC005 \n  PROB30 \n  TEMPO 0800/0803 <span class=\"hl-vis\">0600</span> <span class=\"hl\">FZFG</span> VV002 \n  BECMG 0803/0805 06010KT 9000 NSW OVC005 \n  TEMPO 0805/0808 3000 <span class=\"hl\">BR</span> OVC002 \n  BECMG 0808/0811 OVC010"
    },
    {
      "icao": "LBPD",
      "iata": "PDV",
      "name": "Plovdiv International Airport",
      "updatedAt": "072330Z",
      "visibility_m": 450,
      "taf_visibility_m": 1500,
      "worst_visibility_m": 450,
      "ceiling_ft": 200,
      "hazards": [
        "FG",
        "SHRA",
        "BR",
        "RA"
      ],
      "severityScore": 100,
      "metarRaw": "METAR LBPD 072330Z AUTO VRB01KT 0450 0400E R30/0500N -SHRA FG VV002 09/09 Q0999",
      "tafRaw": "TAF LBPD 072300Z 0800/0824 VRB04KT 1500 BR SCT040 BKN060 \n  BECMG 0802/0804 29020G35KT 9999 BKN030 OVC050 \n  TEMPO 0805/0808 5000 RA BKN020 OVC040",
      "metarHtml": "METAR LBPD 072330Z AUTO VRB01KT <span class=\"hl-vis\">0450</span> 0400E R30/0500N -<span class=\"hl\">SHRA</span> <span class=\"hl\">FG</span> VV002 09/09 Q0999",
      "tafHtml": "TAF LBPD 072300Z 0800/0824 VRB04KT 1500 <span class=\"hl\">BR</span> SCT040 BKN060 \n  BECMG 0802/0804 29020G35KT 9999 BKN030 OVC050 \n  TEMPO 0805/0808 5000 <span class=\"hl\">RA</span> BKN020 OVC040"
    },
    {
      "icao": "LEMD",
      "iata": "MAD",
      "name": "Adolfo Suárez Madrid–Barajas Airport",
      "updatedAt": "072330Z",
      "visibility_m": 10000,
      "taf_visibility_m": 200,
      "worst_visibility_m": 200,
      "ceiling_ft": null,
      "hazards": [
        "FZFG",
        "FG",
        "DZ"
      ],
      "severityScore": 100,
      "metarRaw": "METAR LEMD 072330Z VRB02KT CAVOK M01/M01 Q1027 NOSIG",
      "tafRaw": "TAF LEMD 072300Z 0800/0906 VRB03KT CAVOK TX08/0815Z TNM02/0806Z \n  BECMG 0802/0804 BKN005 \n  PROB40 \n  TEMPO 0803/0810 1500 BCFG OVC002 \n  PROB30 0804/0809 0300 FZFG VV001 \n  TEMPO 0812/0818 BKN010 \n  BECMG 0817/0819 22010KT \n  TEMPO 0902/0906 23015G25KT \n  PROB40 \n  TEMPO 0822/0906 1200 BCFG BKN003 \n  PROB30 \n  TEMPO 0823/0906 0200 DZ FG VV001",
      "metarHtml": "METAR LEMD 072330Z VRB02KT <span class=\"hl-vis\">CAVOK</span> M01/M01 Q1027 NOSIG",
      "tafHtml": "TAF LEMD 072300Z 0800/0906 VRB03KT <span class=\"hl-vis\">CAVOK</span> TX08/0815Z TNM02/0806Z \n  BECMG 0802/0804 BKN005 \n  PROB40 \n  TEMPO 0803/0810 1500 BCFG OVC002 \n  PROB30 0804/0809 <span class=\"hl-vis\">0300</span> <span class=\"hl\">FZFG</span> VV001 \n  TEMPO 0812/0818 BKN010 \n  BECMG 0817/0819 22010KT \n  TEMPO 0902/0906 23015G25KT \n  PROB40 \n  TEMPO 0822/0906 1200 BCFG BKN003 \n  PROB30 \n  TEMPO 0823/0906 <span class=\"hl-vis\">0200</span> <span class=\"hl\">DZ</span> <span class=\"hl\">FG</span> VV001"
    },
    {
      "icao": "LIPX",
      "iata": "VRN",
      "name": "Verona Villafranca Valerio Catullo Airport",
      "updatedAt": "072320Z",
      "visibility_m": 2000,
      "taf_visibility_m": 100,
      "worst_visibility_m": 100,
      "ceiling_ft": 400,
      "hazards": [
        "FZFG",
        "BR"
      ],
      "severityScore": 100,
      "metarRaw": "METAR LIPX 072320Z 22006KT 2000 0600S BCFG VV004 M05/M05 Q1011",
      "tafRaw": "TAF LIPX 072300Z 0800/0824 VRB05KT 2000 BR NSC \n  TEMPO 0800/0808 0100 FZFG BKN001 \n  BECMG 0808/0810 8000",
      "metarHtml": "METAR LIPX 072320Z 22006KT 2000 0600S BCFG VV004 M05/M05 Q1011",
      "tafHtml": "TAF LIPX 072300Z 0800/0824 VRB05KT 2000 <span class=\"hl\">BR</span> NSC \n  TEMPO 0800/0808 <span class=\"hl-vis\">0100</span> <span class=\"hl\">FZFG</span> BKN001 \n  BECMG 0808/0810 8000"
    },
    {
      "icao": "LRIA",
      "iata": "IAS",
      "name": "Iaşi Airport",
      "updatedAt": "072330Z",
      "visibility_m": 6000,
      "taf_visibility_m": 350,
      "worst_visibility_m": 350,
      "ceiling_ft": 400,
      "hazards": [
        "FZRA",
        "BR",
        "SN",
        "FZDZ"
      ],
      "severityScore": 100,
      "metarRaw": "METAR LRIA 072330Z 30007KT 6000 -FZRA OVC004 M01/M01 Q1007",
      "tafRaw": "TAF LRIA 072300Z 0800/0809 31006KT 5000 -FZRA OVC005 \n  PROB40 \n  TEMPO 0800/0803 1500 FZDZ BR OVC002 \n  BECMG 0806/0808 0350 +SN OVC001",
      "metarHtml": "METAR LRIA 072330Z 30007KT 6000 -<span class=\"hl\">FZRA</span> OVC004 M01/M01 Q1007",
      "tafHtml": "TAF LRIA 072300Z 0800/0809 31006KT 5000 -<span class=\"hl\">FZRA</span> OVC005 \n  PROB40 \n  TEMPO 0800/0803 1500 <span class=\"hl\">FZDZ</span> <span class=\"hl\">BR</span> OVC002 \n  BECMG 0806/0808 <span class=\"hl-vis\">0350</span> +<span class=\"hl\">SN</span> OVC001"
    },
    {
      "icao": "LRBC",
      "iata": "BCM",
      "name": "Bacău George Enescu International  Airport",
      "updatedAt": "072330Z",
      "visibility_m": 10000,
      "taf_visibility_m": 350,
      "worst_visibility_m": 350,
      "ceiling_ft": 1100,
      "hazards": [
        "BR",
        "FZRA",
        "SN"
      ],
      "severityScore": 100,
      "metarRaw": "METAR LRBC 072330Z 35009KT 9999 OVC011 M01/M03 Q1006",
      "tafRaw": "TAF LRBC 072300Z 0800/0809 35008KT 7000 BKN010 OVC020 \n  PROB40 \n  TEMPO 0800/0802 5000 -FZRA BR OVC005 \n  BECMG 0802/0804 1500 SN BKN002 OVC010 \n  TEMPO 0804/0806 0350 +SN OVC001",
      "metarHtml": "METAR LRBC 072330Z 35009KT 9999 OVC011 M01/M03 Q1006",
      "tafHtml": "TAF LRBC 072300Z 0800/0809 35008KT 7000 BKN010 OVC020 \n  PROB40 \n  TEMPO 0800/0802 5000 -<span class=\"hl\">FZRA</span> <span class=\"hl\">BR</span> OVC005 \n  BECMG 0802/0804 1500 <span class=\"hl\">SN</span> BKN002 OVC010 \n  TEMPO 0804/0806 <span class=\"hl-vis\">0350</span> +<span class=\"hl\">SN</span> OVC001"
    },
    {
      "icao": "LRBV",
      "iata": "GHV",
      "name": "Brașov-Ghimbav International Airport",
      "updatedAt": "072330Z",
      "visibility_m": 800,
      "taf_visibility_m": 600,
      "worst_visibility_m": 600,
      "ceiling_ft": 300,
      "hazards": [
        "FZFG",
        "BR",
        "SN"
      ],
      "severityScore": 100,
      "metarRaw": "METAR LRBV 072330Z AUTO VRB01KT 1300 0800 R21/P2000N VV003 01/00 Q0999 REUP",
      "tafRaw": "TAF LRBV 072000Z 0721/0806 VRB04KT 9999 OVC002 \n  BECMG 0721/0722 3000 BR \n  TEMPO 0722/0724 0600 FZFG VV001 \n  BECMG 0800/0802 30010KT 1500 SN BKN005 OVC025",
      "metarHtml": "METAR LRBV 072330Z AUTO VRB01KT 1300 <span class=\"hl-vis\">0800</span> R21/P2000N VV003 01/00 Q0999 REUP",
      "tafHtml": "TAF LRBV 072000Z 0721/0806 VRB04KT 9999 OVC002 \n  BECMG 0721/0722 3000 <span class=\"hl\">BR</span> \n  TEMPO 0722/0724 <span class=\"hl-vis\">0600</span> <span class=\"hl\">FZFG</span> VV001 \n  BECMG 0800/0802 30010KT 1500 <span class=\"hl\">SN</span> BKN005 OVC025"
    },
    {
      "icao": "LRSB",
      "iata": "SBZ",
      "name": "Sibiu International Airport",
      "updatedAt": "072330Z",
      "visibility_m": 5000,
      "taf_visibility_m": 1500,
      "worst_visibility_m": 1500,
      "ceiling_ft": 800,
      "hazards": [
        "BR",
        "PL",
        "FZRA",
        "SN"
      ],
      "severityScore": 100,
      "metarRaw": "METAR LRSB 072330Z 32005KT 5000 -SNRA PL BR SCT003 OVC008 M01/M01 Q1001",
      "tafRaw": "TAF LRSB 072300Z 0800/0824 33004KT 5000 -FZRA OVC005 \n  PROB40 \n  TEMPO 0801/0804 1500 +SN VV002 \n  BECMG 0805/0807 30016KT 3000 SN BKN015 OVC025 \n  BECMG 0809/0811 9999 NSW BKN035",
      "metarHtml": "METAR LRSB 072330Z 32005KT 5000 -SNRA <span class=\"hl\">PL</span> <span class=\"hl\">BR</span> SCT003 OVC008 M01/M01 Q1001",
      "tafHtml": "TAF LRSB 072300Z 0800/0824 33004KT 5000 -<span class=\"hl\">FZRA</span> OVC005 \n  PROB40 \n  TEMPO 0801/0804 1500 +<span class=\"hl\">SN</span> VV002 \n  BECMG 0805/0807 30016KT 3000 <span class=\"hl\">SN</span> BKN015 OVC025 \n  BECMG 0809/0811 9999 NSW BKN035"
    },
    {
      "icao": "LRSM",
      "iata": "SUJ",
      "name": "Satu Mare International Airport",
      "updatedAt": "072330Z",
      "visibility_m": 2300,
      "taf_visibility_m": 800,
      "worst_visibility_m": 800,
      "ceiling_ft": 800,
      "hazards": [
        "SN",
        "FZFG",
        "BR"
      ],
      "severityScore": 100,
      "metarRaw": "METAR LRSM 072330Z AUTO 30004KT 2300 -SN VV008 M03/M04 Q1005",
      "tafRaw": "TAF LRSM 071400Z 0715/0724 VRB04KT 9999 BKN010 OVC030 \n  BECMG 0715/0717 3000 -SN BR BKN005 OVC020 \n  BECMG 0718/0720 0800 SN FZFG BKN002 OVC015",
      "metarHtml": "METAR LRSM 072330Z AUTO 30004KT 2300 -<span class=\"hl\">SN</span> VV008 M03/M04 Q1005",
      "tafHtml": "TAF LRSM 071400Z 0715/0724 VRB04KT 9999 BKN010 OVC030 \n  BECMG 0715/0717 3000 -<span class=\"hl\">SN</span> <span class=\"hl\">BR</span> BKN005 OVC020 \n  BECMG 0718/0720 <span class=\"hl-vis\">0800</span> <span class=\"hl\">SN</span> <span class=\"hl\">FZFG</span> BKN002 OVC015"
    },
    {
      "icao": "LUKK",
      "iata": "RMO",
      "name": "Chişinău International Airport",
      "updatedAt": "072330Z",
      "visibility_m": 4000,
      "taf_visibility_m": 800,
      "worst_visibility_m": 800,
      "ceiling_ft": 300,
      "hazards": [
        "BR",
        "RA",
        "FG",
        "FZRA",
        "SN",
        "BLSN",
        "SHRA",
        "DZ"
      ],
      "severityScore": 100,
      "metarRaw": "METAR LUKK 072330Z 04006KT 360V070 4000 -RA BR OVC003 01/01 Q1005 NOSIG",
      "tafRaw": "TAF LUKK 072301Z 0800/0824 04005KT 4000 -DZ BR OVC003 \n  TEMPO 0802/0806 0800 -DZ FG VV/// \n  BECMG 0806/0808 31010KT 5000 -SHRA BR BKN008 BKN012CB \n  BECMG 0810/0812 29016G26KT 3000 -FZRA -SN OVC003 \n  TEMPO 0814/0819 32020G30KT 0800 +SN BLSN OVC001 \n  BECMG 0819/0821 4000 -SN BLSN BKN010",
      "metarHtml": "METAR LUKK 072330Z 04006KT 360V070 4000 -<span class=\"hl\">RA</span> <span class=\"hl\">BR</span> OVC003 01/01 Q1005 NOSIG",
      "tafHtml": "TAF LUKK 072301Z <span class=\"hl-vis\">0800</span>/0824 04005KT 4000 -<span class=\"hl\">DZ</span> <span class=\"hl\">BR</span> OVC003 \n  TEMPO 0802/0806 <span class=\"hl-vis\">0800</span> -<span class=\"hl\">DZ</span> <span class=\"hl\">FG</span> VV/// \n  BECMG 0806/0808 31010KT 5000 -<span class=\"hl\">SHRA</span> <span class=\"hl\">BR</span> BKN008 BKN012CB \n  BECMG 0810/0812 29016G26KT 3000 -<span class=\"hl\">FZRA</span> -<span class=\"hl\">SN</span> OVC003 \n  TEMPO 0814/0819 32020G30KT <span class=\"hl-vis\">0800</span> +<span class=\"hl\">SN</span> <span class=\"hl\">BLSN</span> OVC001 \n  BECMG 0819/0821 4000 -<span class=\"hl\">SN</span> <span class=\"hl\">BLSN</span> BKN010"
    },
    {
      "icao": "UAAA",
      "iata": "ALA",
      "name": "Almaty International Airport",
      "updatedAt": "072330Z",
      "visibility_m": 1100,
      "taf_visibility_m": 200,
      "worst_visibility_m": 200,
      "ceiling_ft": 300,
      "hazards": [
        "BR",
        "FZFG"
      ],
      "severityScore": 100,
      "metarRaw": "METAR UAAA 072330Z 00000MPS 1100 R23L/P2000 BR OVC003 M06/M07 Q1032 NOSIG RMK QBB090",
      "tafRaw": "TAF UAAA 072305Z 0800/0824 24003MPS 1100 BR FU BKN003 OVC011 TXM00/0809Z TNM07/0801Z \n  TEMPO 0800/0806 0200 FZFG VV001 \n  FM080700 01003MPS 3100 BR SCT011 BKN100 \n  TEMPO 0807/0814 1200 BKN004 OVC011 \n  TEMPO 0814/0824 02003MPS 0500 FZFG VV002",
      "metarHtml": "METAR UAAA 072330Z 00000MPS 1100 R23L/P2000 <span class=\"hl\">BR</span> OVC003 M06/M07 Q1032 NOSIG RMK QBB090",
      "tafHtml": "TAF UAAA 072305Z 0800/0824 24003MPS 1100 <span class=\"hl\">BR</span> FU BKN003 OVC011 TXM00/0809Z TNM07/0801Z \n  TEMPO 0800/0806 <span class=\"hl-vis\">0200</span> <span class=\"hl\">FZFG</span> VV001 \n  FM080700 01003MPS 3100 <span class=\"hl\">BR</span> SCT011 BKN100 \n  TEMPO 0807/0814 1200 BKN004 OVC011 \n  TEMPO 0814/0824 02003MPS <span class=\"hl-vis\">0500</span> <span class=\"hl\">FZFG</span> VV002"
    },
    {
      "icao": "UBBB",
      "iata": "GYD",
      "name": "Heydar Aliyev International Airport",
      "updatedAt": "072330Z",
      "visibility_m": 1500,
      "taf_visibility_m": 300,
      "worst_visibility_m": 300,
      "ceiling_ft": 200,
      "hazards": [
        "BR",
        "FG"
      ],
      "severityScore": 100,
      "metarRaw": "METAR UBBB 072330Z VRB02KT 1500 BR OVC002 05/05 Q1020 NOSIG",
      "tafRaw": "TAF UBBB 072259Z 0800/0824 17005KT 0300 FG VV002 TX09/0810Z TN04/0803Z \n  TEMPO 0800/0805 VRB04KT 0500 VV003 \n  BECMG 0805/0806 2000 BR BKN004 \n  BECMG 0806/0808 20006KT 8000 NSW SCT012 \n  TEMPO 0808/0814 21012KT \n  BECMG 0818/0820 19014KT",
      "metarHtml": "METAR UBBB 072330Z VRB02KT 1500 <span class=\"hl\">BR</span> OVC002 05/05 Q1020 NOSIG",
      "tafHtml": "TAF UBBB 072259Z 0800/0824 17005KT <span class=\"hl-vis\">0300</span> <span class=\"hl\">FG</span> VV002 TX09/0810Z TN04/0803Z \n  TEMPO 0800/0805 VRB04KT <span class=\"hl-vis\">0500</span> VV003 \n  BECMG 0805/0806 2000 <span class=\"hl\">BR</span> BKN004 \n  BECMG 0806/0808 20006KT 8000 NSW SCT012 \n  TEMPO 0808/0814 21012KT \n  BECMG 0818/0820 19014KT"
    },
    {
      "icao": "EPRZ",
      "iata": "RZE",
      "name": "Rzeszów-Jasionka Airport",
      "updatedAt": "072330Z",
      "visibility_m": 3000,
      "taf_visibility_m": 500,
      "worst_visibility_m": 500,
      "ceiling_ft": 400,
      "hazards": [
        "BR",
        "SN"
      ],
      "severityScore": 98,
      "metarRaw": "METAR EPRZ 072330Z 02006KT 3000 -SN BR BKN004 M05/M06 Q1009",
      "tafRaw": "TAF EPRZ 072330Z 0800/0824 02007KT 4000 -SN BR BKN006 \n  TEMPO 0800/0812 2000 SN OVC003 \n  PROB40 \n  TEMPO 0800/0812 0500 +SN BKN001 \n  BECMG 0812/0814 32012KT BKN016 \n  TEMPO 0812/0818 2000 SN BR BKN012 \n  PROB30 \n  TEMPO 0812/0818 33015G25KT 1200 SN DRSN BKN006 \n  TEMPO 0818/0824 33015G25KT 1200 SN DRSN BKN006",
      "metarHtml": "METAR EPRZ 072330Z 02006KT 3000 -<span class=\"hl\">SN</span> <span class=\"hl\">BR</span> BKN004 M05/M06 Q1009",
      "tafHtml": "TAF EPRZ 072330Z 0800/0824 02007KT 4000 -<span class=\"hl\">SN</span> <span class=\"hl\">BR</span> BKN006 \n  TEMPO 0800/0812 2000 <span class=\"hl\">SN</span> OVC003 \n  PROB40 \n  TEMPO 0800/0812 <span class=\"hl-vis\">0500</span> +<span class=\"hl\">SN</span> BKN001 \n  BECMG 0812/0814 32012KT BKN016 \n  TEMPO 0812/0818 2000 <span class=\"hl\">SN</span> <span class=\"hl\">BR</span> BKN012 \n  PROB30 \n  TEMPO 0812/0818 33015G25KT 1200 <span class=\"hl\">SN</span> DRSN BKN006 \n  TEMPO 0818/0824 33015G25KT 1200 <span class=\"hl\">SN</span> DRSN BKN006"
    },
    {
      "icao": "LRTR",
      "iata": "TSR",
      "name": "Timişoara Traian Vuia Airport",
      "updatedAt": "072330Z",
      "visibility_m": 2000,
      "taf_visibility_m": 800,
      "worst_visibility_m": 800,
      "ceiling_ft": 1000,
      "hazards": [
        "BR",
        "SN",
        "FZFG"
      ],
      "severityScore": 95,
      "metarRaw": "METAR LRTR 072330Z 31006KT 2000 -SN BR BKN010 OVC018 M04/M04 Q1007",
      "tafRaw": "TAF LRTR 072300Z 0800/0824 32008KT 3000 -SN BR BKN010 OVC040 \n  PROB30 \n  TEMPO 0800/0803 0800 SN FZFG BKN002 OVC015 \n  BECMG 0807/0809 7000 NSW BKN015 \n  BECMG 0820/0822 3000 BR BKN010 \n  TEMPO 0822/0824 0800 FZFG VV002",
      "metarHtml": "METAR LRTR 072330Z 31006KT 2000 -<span class=\"hl\">SN</span> <span class=\"hl\">BR</span> BKN010 OVC018 M04/M04 Q1007",
      "tafHtml": "TAF LRTR 072300Z <span class=\"hl-vis\">0800</span>/0824 32008KT 3000 -<span class=\"hl\">SN</span> <span class=\"hl\">BR</span> BKN010 OVC040 \n  PROB30 \n  TEMPO <span class=\"hl-vis\">0800</span>/0803 <span class=\"hl-vis\">0800</span> <span class=\"hl\">SN</span> <span class=\"hl\">FZFG</span> BKN002 OVC015 \n  BECMG 0807/0809 7000 NSW BKN015 \n  BECMG 0820/0822 3000 <span class=\"hl\">BR</span> BKN010 \n  TEMPO 0822/0824 <span class=\"hl-vis\">0800</span> <span class=\"hl\">FZFG</span> VV002"
    },
    {
      "icao": "UDYZ",
      "iata": "EVN",
      "name": "Zvartnots International Airport",
      "updatedAt": "072330Z",
      "visibility_m": 2900,
      "taf_visibility_m": 200,
      "worst_visibility_m": 200,
      "ceiling_ft": null,
      "hazards": [
        "BR",
        "FZFG"
      ],
      "severityScore": 95,
      "metarRaw": "METAR UDYZ 072330Z 34002KT 2900 BR NSC M10/M12 Q1027 NOSIG",
      "tafRaw": "TAF UDYZ 072300Z 0800/0824 VRB04KT 1200 BR FEW040 \n  TEMPO 0800/0806 0200 FZFG VV001",
      "metarHtml": "METAR UDYZ 072330Z 34002KT 2900 <span class=\"hl\">BR</span> NSC M10/M12 Q1027 NOSIG",
      "tafHtml": "TAF UDYZ 072300Z 0800/0824 VRB04KT 1200 <span class=\"hl\">BR</span> FEW040 \n  TEMPO 0800/0806 <span class=\"hl-vis\">0200</span> <span class=\"hl\">FZFG</span> VV001"
    },
    {
      "icao": "EPPO",
      "iata": "POZ",
      "name": "Poznań-Ławica Airport",
      "updatedAt": "072330Z",
      "visibility_m": 4700,
      "taf_visibility_m": 600,
      "worst_visibility_m": 600,
      "ceiling_ft": 600,
      "hazards": [
        "BR",
        "FZFG"
      ],
      "severityScore": 90,
      "metarRaw": "METAR EPPO 072330Z 13007KT 4700 BR OVC006 M06/M08 Q1013",
      "tafRaw": "TAF EPPO 072330Z 0800/0824 14006KT 5000 BR OVC006 \n  BECMG 0800/0803 OVC004 \n  TEMPO 0800/0809 3500 BR \n  PROB30 0805/0809 0600 FZFG OVC001 \n  BECMG 0809/0812 BKN008 \n  TEMPO 0812/0816 SCT008 \n  BECMG 0816/0818 2000 BR OVC003",
      "metarHtml": "METAR EPPO 072330Z 13007KT 4700 <span class=\"hl\">BR</span> OVC006 M06/M08 Q1013",
      "tafHtml": "TAF EPPO 072330Z 0800/0824 14006KT 5000 <span class=\"hl\">BR</span> OVC006 \n  BECMG 0800/0803 OVC004 \n  TEMPO 0800/0809 3500 <span class=\"hl\">BR</span> \n  PROB30 0805/0809 <span class=\"hl-vis\">0600</span> <span class=\"hl\">FZFG</span> OVC001 \n  BECMG 0809/0812 BKN008 \n  TEMPO 0812/0816 SCT008 \n  BECMG 0816/0818 2000 <span class=\"hl\">BR</span> OVC003"
    },
    {
      "icao": "LBSF",
      "iata": "SOF",
      "name": "Sofia Airport",
      "updatedAt": "072330Z",
      "visibility_m": 3000,
      "taf_visibility_m": 800,
      "worst_visibility_m": 800,
      "ceiling_ft": 1000,
      "hazards": [
        "FZRA",
        "SN"
      ],
      "severityScore": 90,
      "metarRaw": "METAR LBSF 072330Z AUTO 31009KT 280V340 6000 RASN FEW005/// OVC034/// 04/03 Q0999 RESHRA BECMG 3000 SNRA SCT004 BKN010",
      "tafRaw": "TAF LBSF 072300Z 0800/0824 28014G30KT 3000 SNRA SCT005 BKN010 OVC015 \n  PROB40 \n  TEMPO 0800/0801 2000 FZRA \n  TEMPO 0802/0805 0800 +SN SCT002 OVC005 \n  BECMG 0805/0807 4000 -SN SCT010 BKN020 OVC030 \n  BECMG 0810/0812 9999 NSW SCT040 BKN060",
      "metarHtml": "METAR LBSF 072330Z AUTO 31009KT 280V340 6000 RASN FEW005/// OVC034/// 04/03 Q0999 RESHRA BECMG 3000 SNRA SCT004 BKN010",
      "tafHtml": "TAF LBSF 072300Z <span class=\"hl-vis\">0800</span>/0824 28014G30KT 3000 SNRA SCT005 BKN010 OVC015 \n  PROB40 \n  TEMPO <span class=\"hl-vis\">0800</span>/0801 2000 <span class=\"hl\">FZRA</span> \n  TEMPO 0802/0805 <span class=\"hl-vis\">0800</span> +<span class=\"hl\">SN</span> SCT002 OVC005 \n  BECMG 0805/0807 4000 -<span class=\"hl\">SN</span> SCT010 BKN020 OVC030 \n  BECMG 0810/0812 9999 NSW SCT040 BKN060"
    },
    {
      "icao": "ESSA",
      "iata": "ARN",
      "name": "Stockholm-Arlanda Airport",
      "updatedAt": "072320Z",
      "visibility_m": 450,
      "taf_visibility_m": 400,
      "worst_visibility_m": 400,
      "ceiling_ft": 600,
      "hazards": [
        "SN",
        "SHSN"
      ],
      "severityScore": 88,
      "metarRaw": "METAR ESSA 072320Z 17005KT 0450 R01L/P2000N R19R/P2000N R01R/P2000N R19L/P2000N SN VV006 M02/M02 Q1011 NOSIG",
      "tafRaw": "TAF ESSA 072330Z 0800/0824 17006KT 5000 -SN SCT015 BKN030 \n  TEMPO 0800/0804 0400 SN BKN004 \n  PROB40 0807/0809 3500 SHSN BKN008 BKN020CB \n  BECMG 0810/0812 18015G25KT \n  BECMG 0816/0818 17008KT",
      "metarHtml": "METAR ESSA 072320Z 17005KT <span class=\"hl-vis\">0450</span> R01L/P2000N R19R/P2000N R01R/P2000N R19L/P2000N <span class=\"hl\">SN</span> VV006 M02/M02 Q1011 NOSIG",
      "tafHtml": "TAF ESSA 072330Z 0800/0824 17006KT 5000 -<span class=\"hl\">SN</span> SCT015 BKN030 \n  TEMPO 0800/0804 <span class=\"hl-vis\">0400</span> <span class=\"hl\">SN</span> BKN004 \n  PROB40 0807/0809 3500 <span class=\"hl\">SHSN</span> BKN008 BKN020CB \n  BECMG 0810/0812 18015G25KT \n  BECMG 0816/0818 17008KT"
    },
    {
      "icao": "LRSV",
      "iata": "SCV",
      "name": "Suceava Stefan cel Mare Airport",
      "updatedAt": "072330Z",
      "visibility_m": 7000,
      "taf_visibility_m": 350,
      "worst_visibility_m": 350,
      "ceiling_ft": 600,
      "hazards": [
        "BR",
        "SN"
      ],
      "severityScore": 88,
      "metarRaw": "METAR LRSV 072330Z 36007KT 7000 BKN006 BKN020 M04/M04 Q1005",
      "tafRaw": "TAF LRSV 072300Z 0800/0809 34010KT 5000 BR BKN005 OVC025 \n  BECMG 0801/0803 1500 SN BR \n  TEMPO 0803/0809 0350 +SN OVC001",
      "metarHtml": "METAR LRSV 072330Z 36007KT 7000 BKN006 BKN020 M04/M04 Q1005",
      "tafHtml": "TAF LRSV 072300Z 0800/0809 34010KT 5000 <span class=\"hl\">BR</span> BKN005 OVC025 \n  BECMG 0801/0803 1500 <span class=\"hl\">SN</span> <span class=\"hl\">BR</span> \n  TEMPO 0803/0809 <span class=\"hl-vis\">0350</span> +<span class=\"hl\">SN</span> OVC001"
    },
    {
      "icao": "LIPE",
      "iata": "BLQ",
      "name": "Bologna Guglielmo Marconi Airport",
      "updatedAt": "072320Z",
      "visibility_m": 10000,
      "taf_visibility_m": 200,
      "worst_visibility_m": 200,
      "ceiling_ft": null,
      "hazards": [
        "FZFG"
      ],
      "severityScore": 85,
      "metarRaw": "METAR LIPE 072320Z 25005KT CAVOK M04/M06 Q1012",
      "tafRaw": "TAF LIPE 072300Z 0800/0824 VRB05KT 9999 FEW030 \n  PROB30 \n  TEMPO 0802/0808 0200 FZFG",
      "metarHtml": "METAR LIPE 072320Z 25005KT <span class=\"hl-vis\">CAVOK</span> M04/M06 Q1012",
      "tafHtml": "TAF LIPE 072300Z 0800/0824 VRB05KT 9999 FEW030 \n  PROB30 \n  TEMPO 0802/0808 <span class=\"hl-vis\">0200</span> <span class=\"hl\">FZFG</span>"
    },
    {
      "icao": "LRCV",
      "iata": "CRA",
      "name": "Craiova International Airport",
      "updatedAt": "072330Z",
      "visibility_m": 3500,
      "taf_visibility_m": 1500,
      "worst_visibility_m": 1500,
      "ceiling_ft": 100,
      "hazards": [
        "BR",
        "RA",
        "SN"
      ],
      "severityScore": 85,
      "metarRaw": "METAR LRCV 072330Z 02004KT 320V050 3500 RA BR BKN001 BKN002 OVC005 01/01 Q1002",
      "tafRaw": "TAF LRCV 072300Z 0800/0809 VRB04KT 3000 RA BR OVC002 \n  BECMG 0801/0803 28014KT 2000 SN \n  PROB40 \n  TEMPO 0803/0806 1500 +SN BKN005 \n  BECMG 0806/0808 9999 NSW BKN035",
      "metarHtml": "METAR LRCV 072330Z 02004KT 320V050 3500 <span class=\"hl\">RA</span> <span class=\"hl\">BR</span> BKN001 BKN002 OVC005 01/01 Q1002",
      "tafHtml": "TAF LRCV 072300Z 0800/0809 VRB04KT 3000 <span class=\"hl\">RA</span> <span class=\"hl\">BR</span> OVC002 \n  BECMG 0801/0803 28014KT 2000 <span class=\"hl\">SN</span> \n  PROB40 \n  TEMPO 0803/0806 1500 +<span class=\"hl\">SN</span> BKN005 \n  BECMG 0806/0808 9999 NSW BKN035"
    },
    {
      "icao": "ENGM",
      "iata": "OSL",
      "name": "Oslo-Gardermoen International Airport",
      "updatedAt": "072320Z",
      "visibility_m": 1800,
      "taf_visibility_m": 500,
      "worst_visibility_m": 500,
      "ceiling_ft": 1000,
      "hazards": [
        "BR",
        "SN"
      ],
      "severityScore": 75,
      "metarRaw": "METAR ENGM 072320Z 01010KT 1800 SN BR VV010 M07/M09 Q1002",
      "tafRaw": "TAF ENGM 072300Z 0800/0824 02013KT 3000 -SN OVC014 \n  TEMPO 0800/0806 0500 SN VV003 \n  BECMG 0803/0805 27005KT \n  BECMG 0807/0809 9999 FEW010",
      "metarHtml": "METAR ENGM 072320Z 01010KT 1800 <span class=\"hl\">SN</span> <span class=\"hl\">BR</span> VV010 M07/M09 Q1002",
      "tafHtml": "TAF ENGM 072300Z 0800/0824 02013KT 3000 -<span class=\"hl\">SN</span> OVC014 \n  TEMPO 0800/0806 <span class=\"hl-vis\">0500</span> <span class=\"hl\">SN</span> VV003 \n  BECMG 0803/0805 27005KT \n  BECMG 0807/0809 9999 FEW010"
    },
    {
      "icao": "LJLJ",
      "iata": "LJU",
      "name": "Ljubljana Jože Pučnik Airport",
      "updatedAt": "072330Z",
      "visibility_m": 10000,
      "taf_visibility_m": 300,
      "worst_visibility_m": 300,
      "ceiling_ft": 2600,
      "hazards": [
        "FZFG"
      ],
      "severityScore": 75,
      "metarRaw": "METAR LJLJ 072330Z 00000KT 9999 FEW010 BKN026 M06/M07 Q1010 NOSIG",
      "tafRaw": "TAF LJLJ 072300Z 0800/0900 VRB02KT 9999 SCT010 OVC030 \n  PROB30 \n  TEMPO 0802/0810 0300 FZFG VV001",
      "metarHtml": "METAR LJLJ 072330Z 00000KT 9999 FEW010 BKN026 M06/M07 Q1010 NOSIG",
      "tafHtml": "TAF LJLJ 072300Z 0800/0900 VRB02KT 9999 SCT010 OVC030 \n  PROB30 \n  TEMPO 0802/0810 <span class=\"hl-vis\">0300</span> <span class=\"hl\">FZFG</span> VV001"
    },
    {
      "icao": "LFOB",
      "iata": "BVA",
      "name": "Beauvais Tillé airport",
      "updatedAt": "072330Z",
      "visibility_m": 10000,
      "taf_visibility_m": 4000,
      "worst_visibility_m": 4000,
      "ceiling_ft": 800,
      "hazards": [
        "FZRA",
        "RA"
      ],
      "severityScore": 72,
      "metarRaw": "METAR LFOB 072330Z AUTO 21005KT 9999 FEW015 BKN029 BKN038 03/02 Q1008 BECMG OVC008",
      "tafRaw": "TAF LFOB 072300Z 0800/0824 22006KT 9999 OVC008 \n  BECMG 0800/0803 VRB03KT \n  PROB40 \n  TEMPO 0803/0808 4000 RA BKN005 OVC008 \n  PROB30 \n  TEMPO 0803/0808 FZRA \n  BECMG 0808/0810 22012KT BKN013 \n  TEMPO 0813/0822 4000 RA BKN007 OVC011 \n  FM082200 21020G30KT 8000 OVC025",
      "metarHtml": "METAR LFOB 072330Z AUTO 21005KT 9999 FEW015 BKN029 BKN038 03/02 Q1008 BECMG OVC008",
      "tafHtml": "TAF LFOB 072300Z 0800/0824 22006KT 9999 OVC008 \n  BECMG 0800/0803 VRB03KT \n  PROB40 \n  TEMPO 0803/0808 4000 <span class=\"hl\">RA</span> BKN005 OVC008 \n  PROB30 \n  TEMPO 0803/0808 <span class=\"hl\">FZRA</span> \n  BECMG 0808/0810 22012KT BKN013 \n  TEMPO 0813/0822 4000 <span class=\"hl\">RA</span> BKN007 OVC011 \n  FM082200 21020G30KT 8000 OVC025"
    },
    {
      "icao": "LFPO",
      "iata": "ORY",
      "name": "Paris-Orly Airport",
      "updatedAt": "072330Z",
      "visibility_m": 6000,
      "taf_visibility_m": 2000,
      "worst_visibility_m": 2000,
      "ceiling_ft": 400,
      "hazards": [
        "BR",
        "RA",
        "SHRA"
      ],
      "severityScore": 71,
      "metarRaw": "METAR LFPO 072330Z VRB02KT 6000 SCT006 BKN018 03/02 Q1010 TEMPO BKN004",
      "tafRaw": "TAF LFPO 072300Z 0800/0906 23009KT 7000 BKN006 \n  TEMPO 0800/0807 3500 -DZRA BKN004 \n  PROB40 \n  TEMPO 0801/0806 2000 BR BKN002 \n  PROB30 \n  TEMPO 0806/0808 2000 BR \n  BECMG 0806/0809 BKN018 \n  TEMPO 0811/0817 4000 -RA BKN004 \n  BECMG 0817/0819 20015G30KT BKN012 \n  TEMPO 0819/0822 22020G40KT 4000 -RA \n  TEMPO 0822/0906 22025G45KT 4000 -SHRA BKN014TCU",
      "metarHtml": "METAR LFPO 072330Z VRB02KT 6000 SCT006 BKN018 03/02 Q1010 TEMPO BKN004",
      "tafHtml": "TAF LFPO 072300Z 0800/0906 23009KT 7000 BKN006 \n  TEMPO 0800/0807 3500 -DZRA BKN004 \n  PROB40 \n  TEMPO 0801/0806 2000 <span class=\"hl\">BR</span> BKN002 \n  PROB30 \n  TEMPO 0806/0808 2000 <span class=\"hl\">BR</span> \n  BECMG 0806/0809 BKN018 \n  TEMPO 0811/0817 4000 -<span class=\"hl\">RA</span> BKN004 \n  BECMG 0817/0819 20015G30KT BKN012 \n  TEMPO 0819/0822 22020G40KT 4000 -<span class=\"hl\">RA</span> \n  TEMPO 0822/0906 22025G45KT 4000 -<span class=\"hl\">SHRA</span> BKN014TCU"
    },
    {
      "icao": "EGGW",
      "iata": "LTN",
      "name": "London Luton Airport",
      "updatedAt": "072320Z",
      "visibility_m": 10000,
      "taf_visibility_m": 600,
      "worst_visibility_m": 600,
      "ceiling_ft": null,
      "hazards": [
        "FG",
        "BR",
        "RA"
      ],
      "severityScore": 67,
      "metarRaw": "METAR EGGW 072320Z AUTO 26009KT 9999 NCD 02/M00 Q1005",
      "tafRaw": "TAF EGGW 072258Z 0800/0824 25005KT 9999 SCT030 \n  BECMG 0803/0806 BKN008 \n  PROB30 \n  TEMPO 0803/0805 4000 RADZ BR BKN003 \n  TEMPO 0805/0815 4000 RADZ BR BKN003 \n  PROB40 \n  TEMPO 0805/0814 0600 FG BKN001 \n  PROB30 \n  TEMPO 0814/0817 0800 FG BKN001 \n  BECMG 0815/0818 11012KT \n  TEMPO 0815/0821 4000 RA BKN004 \n  TEMPO 0818/0822 09018G30KT \n  PROB30 \n  TEMPO 0821/0824 4000 -RADZ BR BKN004",
      "metarHtml": "METAR EGGW 072320Z AUTO 26009KT 9999 NCD 02/M00 Q1005",
      "tafHtml": "TAF EGGW 072258Z <span class=\"hl-vis\">0800</span>/0824 25005KT 9999 SCT030 \n  BECMG 0803/0806 BKN008 \n  PROB30 \n  TEMPO 0803/0805 4000 RADZ <span class=\"hl\">BR</span> BKN003 \n  TEMPO 0805/0815 4000 RADZ <span class=\"hl\">BR</span> BKN003 \n  PROB40 \n  TEMPO 0805/0814 <span class=\"hl-vis\">0600</span> <span class=\"hl\">FG</span> BKN001 \n  PROB30 \n  TEMPO 0814/0817 <span class=\"hl-vis\">0800</span> <span class=\"hl\">FG</span> BKN001 \n  BECMG 0815/0818 11012KT \n  TEMPO 0815/0821 4000 <span class=\"hl\">RA</span> BKN004 \n  TEMPO 0818/0822 09018G30KT \n  PROB30 \n  TEMPO 0821/0824 4000 -RADZ <span class=\"hl\">BR</span> BKN004"
    },
    {
      "icao": "EGPD",
      "iata": "ABZ",
      "name": "Aberdeen International Airport",
      "updatedAt": "072320Z",
      "visibility_m": 1800,
      "taf_visibility_m": 4000,
      "worst_visibility_m": 1800,
      "ceiling_ft": 1200,
      "hazards": [
        "SN",
        "RA",
        "BR",
        "SHRA"
      ],
      "severityScore": 66,
      "metarRaw": "METAR EGPD 072320Z AUTO VRB02KT 1800 -SN BKN005/// OVC016/// //////CB 01/00 Q1002 TEMPO 4000 RA BKN012",
      "tafRaw": "TAF EGPD 072257Z 0800/0824 17005KT 9999 BKN018 \n  TEMPO 0800/0806 6000 RA BKN012 \n  PROB30 \n  TEMPO 0800/0808 4000 BR BKN004 \n  TEMPO 0817/0824 4000 BR BKN002 \n  PROB40 \n  TEMPO 0820/0824 SHRA",
      "metarHtml": "METAR EGPD 072320Z AUTO VRB02KT 1800 -<span class=\"hl\">SN</span> BKN005/// OVC016/// //////CB 01/00 Q1002 TEMPO 4000 <span class=\"hl\">RA</span> BKN012",
      "tafHtml": "TAF EGPD 072257Z 0800/0824 17005KT 9999 BKN018 \n  TEMPO 0800/0806 6000 <span class=\"hl\">RA</span> BKN012 \n  PROB30 \n  TEMPO 0800/0808 4000 <span class=\"hl\">BR</span> BKN004 \n  TEMPO 0817/0824 4000 <span class=\"hl\">BR</span> BKN002 \n  PROB40 \n  TEMPO 0820/0824 <span class=\"hl\">SHRA</span>"
    },
    {
      "icao": "EDDS",
      "iata": "STR",
      "name": "Stuttgart Airport",
      "updatedAt": "072320Z",
      "visibility_m": 10000,
      "taf_visibility_m": 3000,
      "worst_visibility_m": 3000,
      "ceiling_ft": 1800,
      "hazards": [
        "FZRA",
        "SN"
      ],
      "severityScore": 65,
      "metarRaw": "METAR EDDS 072320Z AUTO VRB02KT 9999 OVC018 M03/M06 Q1009",
      "tafRaw": "TAF EDDS 072300Z 0800/0824 18004KT 9999 OVC020 \n  PROB30 \n  TEMPO 0800/0806 4000 -SN BKN012 \n  TEMPO 0812/0816 4000 -SN OVC010 \n  PROB30 \n  TEMPO 0816/0819 -FZRA OVC012 \n  TEMPO 0819/0824 3000 RADZ BKN010",
      "metarHtml": "METAR EDDS 072320Z AUTO VRB02KT 9999 OVC018 M03/M06 Q1009",
      "tafHtml": "TAF EDDS 072300Z 0800/0824 18004KT 9999 OVC020 \n  PROB30 \n  TEMPO 0800/0806 4000 -<span class=\"hl\">SN</span> BKN012 \n  TEMPO 0812/0816 4000 -<span class=\"hl\">SN</span> OVC010 \n  PROB30 \n  TEMPO 0816/0819 -<span class=\"hl\">FZRA</span> OVC012 \n  TEMPO 0819/0824 3000 RADZ BKN010"
    },
    {
      "icao": "EPKK",
      "iata": "KRK",
      "name": "Kraków John Paul II International Airport",
      "updatedAt": "072330Z",
      "visibility_m": 4000,
      "taf_visibility_m": 600,
      "worst_visibility_m": 600,
      "ceiling_ft": 1700,
      "hazards": [
        "BR",
        "SN"
      ],
      "severityScore": 65,
      "metarRaw": "METAR EPKK 072330Z 03002KT 4000 -SN BR BKN017 M06/M08 Q1010",
      "tafRaw": "TAF EPKK 072330Z 0800/0824 04003KT 5000 -SN BR FEW008 BKN017 \n  TEMPO 0800/0811 1400 SN BR BKN007 BKN012 \n  PROB30 \n  TEMPO 0803/0810 0600 +SN BKN004 \n  BECMG 0811/0813 33010KT \n  TEMPO 0811/0824 4500 -SN BR BKN012",
      "metarHtml": "METAR EPKK 072330Z 03002KT 4000 -<span class=\"hl\">SN</span> <span class=\"hl\">BR</span> BKN017 M06/M08 Q1010",
      "tafHtml": "TAF EPKK 072330Z 0800/0824 04003KT 5000 -<span class=\"hl\">SN</span> <span class=\"hl\">BR</span> FEW008 BKN017 \n  TEMPO 0800/0811 1400 <span class=\"hl\">SN</span> <span class=\"hl\">BR</span> BKN007 BKN012 \n  PROB30 \n  TEMPO 0803/0810 <span class=\"hl-vis\">0600</span> +<span class=\"hl\">SN</span> BKN004 \n  BECMG 0811/0813 33010KT \n  TEMPO 0811/0824 4500 -<span class=\"hl\">SN</span> <span class=\"hl\">BR</span> BKN012"
    },
    {
      "icao": "EYPA",
      "iata": "PLQ",
      "name": "Palanga International Airport",
      "updatedAt": "072350Z",
      "visibility_m": 1500,
      "taf_visibility_m": 600,
      "worst_visibility_m": 600,
      "ceiling_ft": null,
      "hazards": [
        "FZFG",
        "BR"
      ],
      "severityScore": 65,
      "metarRaw": "METAR EYPA 072350Z AUTO 16005KT 130V190 1500 OVC002/// M04/M05 Q1016",
      "tafRaw": "TAF EYPA 072325Z 0800/0824 VRB03KT 1500 BR OVC002 \n  TEMPO 0800/0808 0600 FZFG VV002 \n  PROB40 \n  TEMPO 0803/0808 5000 BR SCT002 \n  BECMG 0808/0810 9000 NSW BKN010 \n  BECMG 0817/0820 SCT010",
      "metarHtml": "METAR EYPA 072350Z AUTO 16005KT 130V190 1500 OVC002/// M04/M05 Q1016",
      "tafHtml": "TAF EYPA 072325Z 0800/0824 VRB03KT 1500 <span class=\"hl\">BR</span> OVC002 \n  TEMPO 0800/0808 <span class=\"hl-vis\">0600</span> <span class=\"hl\">FZFG</span> VV002 \n  PROB40 \n  TEMPO 0803/0808 5000 <span class=\"hl\">BR</span> SCT002 \n  BECMG 0808/0810 9000 NSW BKN010 \n  BECMG 0817/0820 SCT010"
    },
    {
      "icao": "LHDC",
      "iata": "DEB",
      "name": "Debrecen International Airport",
      "updatedAt": "072315Z",
      "visibility_m": 2800,
      "taf_visibility_m": 600,
      "worst_visibility_m": 600,
      "ceiling_ft": 1700,
      "hazards": [
        "BR",
        "SN"
      ],
      "severityScore": 65,
      "metarRaw": "METAR LHDC 072315Z AUTO 32007KT 2800 -SN BR OVC017 M04/M05 Q1006",
      "tafRaw": "TAF LHDC 071415Z 0715/0724 36006KT 9999 OVC025 \n  TEMPO 0715/0718 4000 -SN BKN006 OVC020 \n  BECMG 0718/0721 1400 SN BKN004 OVC015 \n  TEMPO 0721/0724 36012KT DRSN \n  PROB40 \n  TEMPO 0721/0724 0600 +SN VV001",
      "metarHtml": "METAR LHDC 072315Z AUTO 32007KT 2800 -<span class=\"hl\">SN</span> <span class=\"hl\">BR</span> OVC017 M04/M05 Q1006",
      "tafHtml": "TAF LHDC 071415Z 0715/0724 36006KT 9999 OVC025 \n  TEMPO 0715/0718 4000 -<span class=\"hl\">SN</span> BKN006 OVC020 \n  BECMG 0718/0721 1400 <span class=\"hl\">SN</span> BKN004 OVC015 \n  TEMPO 0721/0724 36012KT DRSN \n  PROB40 \n  TEMPO 0721/0724 <span class=\"hl-vis\">0600</span> +<span class=\"hl\">SN</span> VV001"
    },
    {
      "icao": "EKBI",
      "iata": "BLL",
      "name": "Billund Airport",
      "updatedAt": "072320Z",
      "visibility_m": 3500,
      "taf_visibility_m": 1200,
      "worst_visibility_m": 1200,
      "ceiling_ft": 700,
      "hazards": [
        "SN",
        "BR"
      ],
      "severityScore": 63,
      "metarRaw": "METAR EKBI 072320Z 15010KT 3500 -SN DRSN BKN007 M02/M03 Q1002",
      "tafRaw": "TAF EKBI 072327Z 0800/0824 16010KT 6000 -SN SCT005 BKN010 \n  TEMPO 0800/0805 1200 SN DRSN BKN005 \n  TEMPO 0805/0810 3000 BR BKN005 \n  TEMPO 0810/0821 BKN006 \n  BECMG 0821/0824 BKN015",
      "metarHtml": "METAR EKBI 072320Z 15010KT 3500 -<span class=\"hl\">SN</span> DRSN BKN007 M02/M03 Q1002",
      "tafHtml": "TAF EKBI 072327Z 0800/0824 16010KT 6000 -<span class=\"hl\">SN</span> SCT005 BKN010 \n  TEMPO 0800/0805 1200 <span class=\"hl\">SN</span> DRSN BKN005 \n  TEMPO 0805/0810 3000 <span class=\"hl\">BR</span> BKN005 \n  TEMPO 0810/0821 BKN006 \n  BECMG 0821/0824 BKN015"
    },
    {
      "icao": "LFBD",
      "iata": "BOD",
      "name": "Bordeaux–Mérignac Airport",
      "updatedAt": "072330Z",
      "visibility_m": 3000,
      "taf_visibility_m": 3000,
      "worst_visibility_m": 3000,
      "ceiling_ft": 500,
      "hazards": [
        "RA",
        "TSRA"
      ],
      "severityScore": 62,
      "metarRaw": "METAR LFBD 072330Z AUTO 25010KT 6000 -RA BKN006/// OVC014/// ///TCU 10/10 Q1018 TEMPO 27015G25KT 3000 RA BKN005 OVC015",
      "tafRaw": "TAF LFBD 072300Z 0800/0906 24005KT 9999 BKN020 TX13/0814Z TN09/0906Z \n  TEMPO 0800/0804 3000 RA BKN005 OVC015 \n  TEMPO 0800/0806 27015G25KT \n  PROB40 \n  TEMPO 0804/0821 4000 -RA BKN015 \n  TEMPO 0821/0824 27015G35KT 4000 TSRA BKN015 BKN030CB",
      "metarHtml": "METAR LFBD 072330Z AUTO 25010KT 6000 -<span class=\"hl\">RA</span> BKN006/// OVC014/// ///TCU 10/10 Q1018 TEMPO 27015G25KT 3000 <span class=\"hl\">RA</span> BKN005 OVC015",
      "tafHtml": "TAF LFBD 072300Z 0800/0906 24005KT 9999 BKN020 TX13/0814Z TN09/0906Z \n  TEMPO 0800/0804 3000 <span class=\"hl\">RA</span> BKN005 OVC015 \n  TEMPO 0800/0806 27015G25KT \n  PROB40 \n  TEMPO 0804/0821 4000 -<span class=\"hl\">RA</span> BKN015 \n  TEMPO 0821/0824 27015G35KT 4000 <span class=\"hl\">TSRA</span> BKN015 BKN030CB"
    },
    {
      "icao": "LTAC",
      "iata": "ESB",
      "name": "Esenboğa International Airport",
      "updatedAt": "072320Z",
      "visibility_m": 6000,
      "taf_visibility_m": 4000,
      "worst_visibility_m": 4000,
      "ceiling_ft": 4000,
      "hazards": [
        "BR",
        "TSRA",
        "RA",
        "SHRA"
      ],
      "severityScore": 61,
      "metarRaw": "METAR LTAC 072320Z VRB01KT 6000 BKN040 BKN100 01/00 Q1017 NOSIG RMK RWY21C 02003KT RWY03L VRB01KT RWY21R 01003KT RWY03R 00000KT RWY21L VRB02KT",
      "tafRaw": "TAF LTAC 072240Z 0800/0824 VRB02KT 9999 SCT040 BKN100 \n  TEMPO 0800/0804 4000 -RA BR FEW010 BKN025 BKN080 \n  PROB30 \n  TEMPO 0804/0807 4000 BR SCT010 BKN025 \n  BECMG 0807/0810 21012KT \n  TEMPO 0810/0814 22015G25KT -SHRA FEW025CB BKN035 BKN080 \n  TEMPO 0814/0818 22020G30KT -TSRA SCT025CB BKN035 \n  TEMPO 0820/0824 4000 -RASN BR SCT008 BKN025",
      "metarHtml": "METAR LTAC 072320Z VRB01KT 6000 BKN040 BKN100 01/00 Q1017 NOSIG RMK RWY21C 02003KT RWY03L VRB01KT RWY21R 01003KT RWY03R 00000KT RWY21L VRB02KT",
      "tafHtml": "TAF LTAC 072240Z 0800/0824 VRB02KT 9999 SCT040 BKN100 \n  TEMPO 0800/0804 4000 -<span class=\"hl\">RA</span> <span class=\"hl\">BR</span> FEW010 BKN025 BKN080 \n  PROB30 \n  TEMPO 0804/0807 4000 <span class=\"hl\">BR</span> SCT010 BKN025 \n  BECMG 0807/0810 21012KT \n  TEMPO 0810/0814 22015G25KT -<span class=\"hl\">SHRA</span> FEW025CB BKN035 BKN080 \n  TEMPO 0814/0818 22020G30KT -<span class=\"hl\">TSRA</span> SCT025CB BKN035 \n  TEMPO 0820/0824 4000 -RASN <span class=\"hl\">BR</span> SCT008 BKN025"
    },
    {
      "icao": "EPLB",
      "iata": "LUZ",
      "name": "Lublin Airport",
      "updatedAt": "072330Z",
      "visibility_m": 3000,
      "taf_visibility_m": 1200,
      "worst_visibility_m": 1200,
      "ceiling_ft": 3600,
      "hazards": [
        "BR",
        "SN",
        "BLSN"
      ],
      "severityScore": 60,
      "metarRaw": "METAR EPLB 072330Z 03010KT 3000 -SN BR BKN036 OVC041 M06/M07 Q1011",
      "tafRaw": "TAF EPLB 072330Z 0800/0824 03010KT 4000 -SN BR OVC030 \n  TEMPO 0800/0824 2000 SN BR BKN005 OVC010 \n  PROB40 \n  TEMPO 0812/0824 01017G27KT 1200 BLSN",
      "metarHtml": "METAR EPLB 072330Z 03010KT 3000 -<span class=\"hl\">SN</span> <span class=\"hl\">BR</span> BKN036 OVC041 M06/M07 Q1011",
      "tafHtml": "TAF EPLB 072330Z 0800/0824 03010KT 4000 -<span class=\"hl\">SN</span> <span class=\"hl\">BR</span> OVC030 \n  TEMPO 0800/0824 2000 <span class=\"hl\">SN</span> <span class=\"hl\">BR</span> BKN005 OVC010 \n  PROB40 \n  TEMPO 0812/0824 01017G27KT 1200 <span class=\"hl\">BLSN</span>"
    },
    {
      "icao": "LRBS",
      "iata": "BBU",
      "name": "Bucharest Băneasa Aurel Vlaicu International Airport",
      "updatedAt": "072330Z",
      "visibility_m": 8000,
      "taf_visibility_m": 5000,
      "worst_visibility_m": 5000,
      "ceiling_ft": 500,
      "hazards": [
        "RA",
        "SN"
      ],
      "severityScore": 55,
      "metarRaw": "METAR LRBS 072330Z 06013KT 8000 -RA OVC005 02/02 Q1003 NOSIG",
      "tafRaw": "TAF LRBS 072300Z 0800/0824 07015KT 9999 OVC005 \n  PROB40 \n  TEMPO 0802/0808 5000 -SHRASN BKN010 SCT025CB \n  BECMG 0808/0810 25012KT 5000 -SN BKN010 OVC020 \n  BECMG 0811/0813 9999 NSW BKN020",
      "metarHtml": "METAR LRBS 072330Z 06013KT 8000 -<span class=\"hl\">RA</span> OVC005 02/02 Q1003 NOSIG",
      "tafHtml": "TAF LRBS 072300Z 0800/0824 07015KT 9999 OVC005 \n  PROB40 \n  TEMPO 0802/0808 5000 -SHRASN BKN010 SCT025CB \n  BECMG 0808/0810 25012KT 5000 -<span class=\"hl\">SN</span> BKN010 OVC020 \n  BECMG 0811/0813 9999 NSW BKN020"
    },
    {
      "icao": "EDSB",
      "iata": "FKB",
      "name": "Karlsruhe Baden-Baden Airport",
      "updatedAt": "072320Z",
      "visibility_m": 10000,
      "taf_visibility_m": 3000,
      "worst_visibility_m": 3000,
      "ceiling_ft": null,
      "hazards": [
        "FZRA",
        "SN"
      ],
      "severityScore": 53,
      "metarRaw": "METAR EDSB 072320Z AUTO 20014KT 9999 // OVC028/// M01/M04 Q1012",
      "tafRaw": "TAF EDSB 072300Z 0800/0824 18004KT 9999 OVC020 \n  PROB30 \n  TEMPO 0800/0806 4000 -SN BKN012 \n  TEMPO 0810/0815 4000 -SNRA OVC010 \n  PROB30 \n  TEMPO 0813/0816 -FZRA \n  TEMPO 0817/0824 3000 RADZ BKN010",
      "metarHtml": "METAR EDSB 072320Z AUTO 20014KT 9999 // OVC028/// M01/M04 Q1012",
      "tafHtml": "TAF EDSB 072300Z 0800/0824 18004KT 9999 OVC020 \n  PROB30 \n  TEMPO 0800/0806 4000 -<span class=\"hl\">SN</span> BKN012 \n  TEMPO 0810/0815 4000 -SNRA OVC010 \n  PROB30 \n  TEMPO 0813/0816 -<span class=\"hl\">FZRA</span> \n  TEMPO 0817/0824 3000 RADZ BKN010"
    },
    {
      "icao": "LRTM",
      "iata": "TGM",
      "name": "Târgu Mureş Transilvania International Airport",
      "updatedAt": "072330Z",
      "visibility_m": 10000,
      "taf_visibility_m": 3000,
      "worst_visibility_m": 3000,
      "ceiling_ft": null,
      "hazards": [
        "FZRA",
        "SN"
      ],
      "severityScore": 53,
      "metarRaw": "METAR LRTM 072330Z AUTO 28005KT 9999 R25////// -FZRA FEW007/// BKN010/// BKN013/// M00/M01 Q1002",
      "tafRaw": "TAF LRTM 071400Z 0715/0724 VRB04KT 9999 BKN010 BKN035 \n  PROB40 \n  TEMPO 0715/0720 5000 -FZRA BKN005 OVC020 \n  BECMG 0721/0723 29010KT 3000 SN BKN002 OVC015",
      "metarHtml": "METAR LRTM 072330Z AUTO 28005KT 9999 R25////// -<span class=\"hl\">FZRA</span> FEW007/// BKN010/// BKN013/// M00/M01 Q1002",
      "tafHtml": "TAF LRTM 071400Z 0715/0724 VRB04KT 9999 BKN010 BKN035 \n  PROB40 \n  TEMPO 0715/0720 5000 -<span class=\"hl\">FZRA</span> BKN005 OVC020 \n  BECMG 0721/0723 29010KT 3000 <span class=\"hl\">SN</span> BKN002 OVC015"
    },
    {
      "icao": "LICJ",
      "iata": "PMO",
      "name": "Falcone–Borsellino Airport",
      "updatedAt": "072320Z",
      "visibility_m": 10000,
      "taf_visibility_m": 4000,
      "worst_visibility_m": 4000,
      "ceiling_ft": null,
      "hazards": [
        "TSRA",
        "RA",
        "SHRA"
      ],
      "severityScore": 51,
      "metarRaw": "METAR LICJ 072320Z 29018KT 9999 FEW030 SCT060 12/06 Q1014",
      "tafRaw": "TAF LICJ 072300Z 0800/0824 28025G35KT 9999 SCT020 \n  PROB40 \n  TEMPO 0800/0807 4000 TSRA \n  TEMPO 0807/0818 4000 SHRA \n  TEMPO 0818/0824 RA",
      "metarHtml": "METAR LICJ 072320Z 29018KT 9999 FEW030 SCT060 12/06 Q1014",
      "tafHtml": "TAF LICJ 072300Z 0800/0824 28025G35KT 9999 SCT020 \n  PROB40 \n  TEMPO 0800/0807 4000 <span class=\"hl\">TSRA</span> \n  TEMPO 0807/0818 4000 <span class=\"hl\">SHRA</span> \n  TEMPO 0818/0824 <span class=\"hl\">RA</span>"
    },
    {
      "icao": "EPKT",
      "iata": "KTW",
      "name": "Katowice Wojciech Korfanty International Airport",
      "updatedAt": "072330Z",
      "visibility_m": 8000,
      "taf_visibility_m": 1200,
      "worst_visibility_m": 1200,
      "ceiling_ft": 1100,
      "hazards": [
        "SN",
        "BR"
      ],
      "severityScore": 50,
      "metarRaw": "METAR EPKT 072330Z 01004KT 8000 -SN FEW007 BKN011 M07/M08 Q1010",
      "tafRaw": "TAF EPKT 072330Z 0800/0824 34005KT 8000 -SN SCT012 BKN018 \n  TEMPO 0800/0821 4000 -SN BR BKN009 BKN012 \n  PROB30 \n  TEMPO 0800/0812 2000 SN BR BKN004 \n  TEMPO 0821/0824 1200 BR BKN004",
      "metarHtml": "METAR EPKT 072330Z 01004KT 8000 -<span class=\"hl\">SN</span> FEW007 BKN011 M07/M08 Q1010",
      "tafHtml": "TAF EPKT 072330Z 0800/0824 34005KT 8000 -<span class=\"hl\">SN</span> SCT012 BKN018 \n  TEMPO 0800/0821 4000 -<span class=\"hl\">SN</span> <span class=\"hl\">BR</span> BKN009 BKN012 \n  PROB30 \n  TEMPO 0800/0812 2000 <span class=\"hl\">SN</span> <span class=\"hl\">BR</span> BKN004 \n  TEMPO 0821/0824 1200 <span class=\"hl\">BR</span> BKN004"
    },
    {
      "icao": "LRCL",
      "iata": "CLJ",
      "name": "Cluj Avram Iancu International Airport",
      "updatedAt": "072330Z",
      "visibility_m": 1800,
      "taf_visibility_m": 1500,
      "worst_visibility_m": 1500,
      "ceiling_ft": 1500,
      "hazards": [
        "BR",
        "SN"
      ],
      "severityScore": 50,
      "metarRaw": "METAR LRCL 072330Z 26007KT 1800 SN BR OVC015 M02/M03 Q1003",
      "tafRaw": "TAF LRCL 072300Z 0800/0809 29010KT 3000 SN BKN015 BKN035 \n  PROB30 \n  TEMPO 0800/0803 1500 +SN OVC002 \n  BECMG 0804/0806 9999 NSW BKN020 BKN040",
      "metarHtml": "METAR LRCL 072330Z 26007KT 1800 <span class=\"hl\">SN</span> <span class=\"hl\">BR</span> OVC015 M02/M03 Q1003",
      "tafHtml": "TAF LRCL 072300Z 0800/0809 29010KT 3000 <span class=\"hl\">SN</span> BKN015 BKN035 \n  PROB30 \n  TEMPO 0800/0803 1500 +<span class=\"hl\">SN</span> OVC002 \n  BECMG 0804/0806 9999 NSW BKN020 BKN040"
    },
    {
      "icao": "ENTO",
      "iata": "TRF",
      "name": "Sandefjord Airport, Torp",
      "updatedAt": "072320Z",
      "visibility_m": 3800,
      "taf_visibility_m": 800,
      "worst_visibility_m": 800,
      "ceiling_ft": null,
      "hazards": [
        "SN"
      ],
      "severityScore": 43,
      "metarRaw": "METAR ENTO 072320Z AUTO 35012KT 3800 -SN OVC033/// M07/M09 Q1002",
      "tafRaw": "TAF ENTO 072300Z 0800/0824 36012KT 3000 -SN BKN015 \n  TEMPO 0800/0803 0800 SN DRSN VV004 \n  BECMG 0803/0805 27005KT CAVOK \n  BECMG 0818/0820 BKN012 \n  TEMPO 0820/0824 02010KT 1200 SN VV006",
      "metarHtml": "METAR ENTO 072320Z AUTO 35012KT 3800 -<span class=\"hl\">SN</span> OVC033/// M07/M09 Q1002",
      "tafHtml": "TAF ENTO 072300Z <span class=\"hl-vis\">0800</span>/0824 36012KT 3000 -<span class=\"hl\">SN</span> BKN015 \n  TEMPO <span class=\"hl-vis\">0800</span>/0803 <span class=\"hl-vis\">0800</span> <span class=\"hl\">SN</span> DRSN VV004 \n  BECMG 0803/0805 27005KT <span class=\"hl-vis\">CAVOK</span> \n  BECMG 0818/0820 BKN012 \n  TEMPO 0820/0824 02010KT 1200 <span class=\"hl\">SN</span> VV006"
    },
    {
      "icao": "LQTZ",
      "iata": "TZL",
      "name": "Tuzla International Airport",
      "updatedAt": "072330Z",
      "visibility_m": 10000,
      "taf_visibility_m": 3000,
      "worst_visibility_m": 3000,
      "ceiling_ft": 900,
      "hazards": [
        "SN"
      ],
      "severityScore": 43,
      "metarRaw": "METAR LQTZ 072330Z 29005KT 9999 BKN009 OVC014 M05/M05 Q1009",
      "tafRaw": "TAF LQTZ 072300Z 0800/0824 27007KT 9999 SCT015 BKN030 TXM02/0813Z TNM08/0824Z \n  TEMPO 0800/0802 3000 SN BKN008 OVC020 \n  TEMPO 0802/0812 33012KT \n  PROB30 \n  TEMPO 0802/0808 4000 -SN BKN012 OVC030",
      "metarHtml": "METAR LQTZ 072330Z 29005KT 9999 BKN009 OVC014 M05/M05 Q1009",
      "tafHtml": "TAF LQTZ 072300Z 0800/0824 27007KT 9999 SCT015 BKN030 TXM02/0813Z TNM08/0824Z \n  TEMPO 0800/0802 3000 <span class=\"hl\">SN</span> BKN008 OVC020 \n  TEMPO 0802/0812 33012KT \n  PROB30 \n  TEMPO 0802/0808 4000 -<span class=\"hl\">SN</span> BKN012 OVC030"
    },
    {
      "icao": "LROP",
      "iata": "OTP",
      "name": "Bucharest Henri Coandă International Airport",
      "updatedAt": "072330Z",
      "visibility_m": 10000,
      "taf_visibility_m": 5000,
      "worst_visibility_m": 5000,
      "ceiling_ft": 700,
      "hazards": [
        "SN"
      ],
      "severityScore": 43,
      "metarRaw": "METAR LROP 072330Z 08014KT 9999 OVC007 02/02 Q1003 NOSIG",
      "tafRaw": "TAF LROP 072300Z 0800/0824 07015KT 9999 OVC005 \n  PROB40 \n  TEMPO 0802/0808 5000 -SHRASN BKN010 SCT025CB \n  BECMG 0808/0810 25012KT 5000 -SN BKN010 OVC020 \n  BECMG 0811/0813 9999 NSW BKN020",
      "metarHtml": "METAR LROP 072330Z 08014KT 9999 OVC007 02/02 Q1003 NOSIG",
      "tafHtml": "TAF LROP 072300Z 0800/0824 07015KT 9999 OVC005 \n  PROB40 \n  TEMPO 0802/0808 5000 -SHRASN BKN010 SCT025CB \n  BECMG 0808/0810 25012KT 5000 -<span class=\"hl\">SN</span> BKN010 OVC020 \n  BECMG 0811/0813 9999 NSW BKN020"
    },
    {
      "icao": "LYBE",
      "iata": "BEG",
      "name": "Belgrade Nikola Tesla Airport",
      "updatedAt": "072330Z",
      "visibility_m": 2500,
      "taf_visibility_m": 2500,
      "worst_visibility_m": 2500,
      "ceiling_ft": 500,
      "hazards": [
        "SN"
      ],
      "severityScore": 43,
      "metarRaw": "METAR LYBE 072330Z 27007KT 3500 -SN SCT005 BKN011 OVC030 M04/M04 Q1008 TEMPO 2500 SN BKN005 OVC025",
      "tafRaw": "TAF LYBE 072300Z 0800/0824 29010KT 5000 -SN BKN008 OVC027 TXM04/0800Z TNM08/0824Z \n  TEMPO 0800/0804 2500 SN BKN004 OVC025 \n  BECMG 0806/0808 9999 NSW SCT015 \n  TEMPO 0809/0813 28020KT \n  BECMG 0818/0820 23005KT",
      "metarHtml": "METAR LYBE 072330Z 27007KT 3500 -<span class=\"hl\">SN</span> SCT005 BKN011 OVC030 M04/M04 Q1008 TEMPO 2500 <span class=\"hl\">SN</span> BKN005 OVC025",
      "tafHtml": "TAF LYBE 072300Z 0800/0824 29010KT 5000 -<span class=\"hl\">SN</span> BKN008 OVC027 TXM04/0800Z TNM08/0824Z \n  TEMPO 0800/0804 2500 <span class=\"hl\">SN</span> BKN004 OVC025 \n  BECMG 0806/0808 9999 NSW SCT015 \n  TEMPO 0809/0813 28020KT \n  BECMG 0818/0820 23005KT"
    },
    {
      "icao": "LYNI",
      "iata": "INI",
      "name": "Niš Constantine the Great Airport",
      "updatedAt": "072330Z",
      "visibility_m": 7000,
      "taf_visibility_m": 2000,
      "worst_visibility_m": 2000,
      "ceiling_ft": 700,
      "hazards": [
        "SN"
      ],
      "severityScore": 43,
      "metarRaw": "METAR LYNI 072330Z 32009KT 7000 -SN SCT007 BKN050 OVC080 M03/M04 Q1006 RESN TEMPO BKN007 BKN025 OVC070",
      "tafRaw": "TAF LYNI 072300Z 0800/0824 32012KT 7000 -SN BKN010 BKN030 OVC070 TXM02/0813Z TNM08/0821Z \n  TEMPO 0800/0804 32016G26KT 2000 SN BKN004 BKN025 OVC065 \n  BECMG 0808/0810 NSW SCT017 BKN025 \n  BECMG 0816/0818 18004KT",
      "metarHtml": "METAR LYNI 072330Z 32009KT 7000 -<span class=\"hl\">SN</span> SCT007 BKN050 OVC080 M03/M04 Q1006 RESN TEMPO BKN007 BKN025 OVC070",
      "tafHtml": "TAF LYNI 072300Z 0800/0824 32012KT 7000 -<span class=\"hl\">SN</span> BKN010 BKN030 OVC070 TXM02/0813Z TNM08/0821Z \n  TEMPO 0800/0804 32016G26KT 2000 <span class=\"hl\">SN</span> BKN004 BKN025 OVC065 \n  BECMG 0808/0810 NSW SCT017 BKN025 \n  BECMG 0816/0818 18004KT"
    },
    {
      "icao": "BKPR",
      "iata": "PRN",
      "name": "Priština Adem Jashari International Airport",
      "updatedAt": "072330Z",
      "visibility_m": 10000,
      "taf_visibility_m": 1200,
      "worst_visibility_m": 1200,
      "ceiling_ft": 1500,
      "hazards": [
        "SN"
      ],
      "severityScore": 40,
      "metarRaw": "METAR BKPR 072330Z 35023KT 9999 -SN BKN015 OVC025 M03/M04 Q1002 NOSIG",
      "tafRaw": "TAF BKPR 072330Z 0800/0824 34012KT 9999 SCT020 BKN040 \n  TEMPO 0800/0809 35023KT \n  TEMPO 0800/0812 1200 SN BKN008 OVC015",
      "metarHtml": "METAR BKPR 072330Z 35023KT 9999 -<span class=\"hl\">SN</span> BKN015 OVC025 M03/M04 Q1002 NOSIG",
      "tafHtml": "TAF BKPR 072330Z 0800/0824 34012KT 9999 SCT020 BKN040 \n  TEMPO 0800/0809 35023KT \n  TEMPO 0800/0812 1200 <span class=\"hl\">SN</span> BKN008 OVC015"
    },
    {
      "icao": "EDDH",
      "iata": "HAM",
      "name": "Hamburg Helmut Schmidt Airport",
      "updatedAt": "072320Z",
      "visibility_m": 10000,
      "taf_visibility_m": 1200,
      "worst_visibility_m": 1200,
      "ceiling_ft": 1400,
      "hazards": [
        "SN"
      ],
      "severityScore": 40,
      "metarRaw": "METAR EDDH 072320Z AUTO 14010KT 9999 FEW017 BKN028 OVC032 M02/M05 Q1005 TEMPO BKN014",
      "tafRaw": "TAF EDDH 072300Z 0800/0906 15012KT 9999 BKN020 \n  BECMG 0800/0803 BKN013 \n  TEMPO 0800/0808 3000 -SN \n  TEMPO 0800/0806 BKN007 \n  PROB30 \n  TEMPO 0800/0808 1200 SN BKN004 \n  BECMG 0806/0808 13007KT BKN007 \n  PROB40 \n  TEMPO 0808/0820 4000 -SG \n  PROB30 \n  TEMPO 0812/0818 2500 -SNRA \n  BECMG 0816/0818 BKN004 \n  BECMG 0821/0824 11012KT \n  BECMG 0902/0904 10015G25KT BKN007 \n  TEMPO 0904/0906 10020G30KT 1200 SN BKN004",
      "metarHtml": "METAR EDDH 072320Z AUTO 14010KT 9999 FEW017 BKN028 OVC032 M02/M05 Q1005 TEMPO BKN014",
      "tafHtml": "TAF EDDH 072300Z 0800/0906 15012KT 9999 BKN020 \n  BECMG 0800/0803 BKN013 \n  TEMPO 0800/0808 3000 -<span class=\"hl\">SN</span> \n  TEMPO 0800/0806 BKN007 \n  PROB30 \n  TEMPO 0800/0808 1200 <span class=\"hl\">SN</span> BKN004 \n  BECMG 0806/0808 13007KT BKN007 \n  PROB40 \n  TEMPO 0808/0820 4000 -SG \n  PROB30 \n  TEMPO 0812/0818 2500 -SNRA \n  BECMG 0816/0818 BKN004 \n  BECMG 0821/0824 11012KT \n  BECMG 0902/0904 10015G25KT BKN007 \n  TEMPO 0904/0906 10020G30KT 1200 <span class=\"hl\">SN</span> BKN004"
    },
    {
      "icao": "EGGP",
      "iata": "LPL",
      "name": "Liverpool John Lennon Airport",
      "updatedAt": "072320Z",
      "visibility_m": 10000,
      "taf_visibility_m": 1200,
      "worst_visibility_m": 1200,
      "ceiling_ft": 3500,
      "hazards": [
        "SN",
        "RA"
      ],
      "severityScore": 40,
      "metarRaw": "METAR EGGP 072320Z 19002KT 9999 BKN035 02/M01 Q1004",
      "tafRaw": "TAF EGGP 072255Z 0800/0824 17003KT 9999 SCT025 \n  TEMPO 0800/0810 6000 RA -RADZ BKN012 \n  PROB30 \n  TEMPO 0801/0810 3000 RADZ BKN004 \n  PROB30 \n  TEMPO 0810/0815 6000 -RADZ BKN009 \n  BECMG 0814/0817 07010KT BKN012 \n  TEMPO 0815/0819 6000 RA -RADZ BKN009 \n  PROB30 \n  TEMPO 0815/0819 4000 RADZ BKN004 \n  BECMG 0819/0822 36012KT \n  TEMPO 0819/0824 35016G28KT 4000 RADZ RASN BKN008 \n  PROB30 \n  TEMPO 0819/0824 1200 +RASN SN BKN002",
      "metarHtml": "METAR EGGP 072320Z 19002KT 9999 BKN035 02/M01 Q1004",
      "tafHtml": "TAF EGGP 072255Z 0800/0824 17003KT 9999 SCT025 \n  TEMPO 0800/0810 6000 <span class=\"hl\">RA</span> -RADZ BKN012 \n  PROB30 \n  TEMPO 0801/0810 3000 RADZ BKN004 \n  PROB30 \n  TEMPO 0810/0815 6000 -RADZ BKN009 \n  BECMG 0814/0817 07010KT BKN012 \n  TEMPO 0815/0819 6000 <span class=\"hl\">RA</span> -RADZ BKN009 \n  PROB30 \n  TEMPO 0815/0819 4000 RADZ BKN004 \n  BECMG 0819/0822 36012KT \n  TEMPO 0819/0824 35016G28KT 4000 RADZ RASN BKN008 \n  PROB30 \n  TEMPO 0819/0824 1200 +RASN <span class=\"hl\">SN</span> BKN002"
    },
    {
      "icao": "LFLL",
      "iata": "LYS",
      "name": "Lyon Saint-Exupéry Airport",
      "updatedAt": "072330Z",
      "visibility_m": 10000,
      "taf_visibility_m": 1200,
      "worst_visibility_m": 1200,
      "ceiling_ft": 6000,
      "hazards": [
        "SN",
        "RA"
      ],
      "severityScore": 40,
      "metarRaw": "METAR LFLL 072330Z 14007KT 9999 FEW030 BKN060 M00/M04 Q1017 NOSIG",
      "tafRaw": "TAF LFLL 072300Z 0800/0906 15005KT CAVOK \n  BECMG 0802/0804 4000 -SN BKN030 \n  TEMPO 0804/0806 1200 SN OVC009 \n  FM080600 16008KT 9999 -RA BKN030 \n  PROB40 \n  TEMPO 0806/0808 4000 -SN BKN012 \n  PROB40 \n  TEMPO 0808/0815 4000 RA BKN012 \n  FM081500 18010KT CAVOK \n  BECMG 0817/0819 18015G25KT \n  PROB40 \n  TEMPO 0822/0904 18020G35KT",
      "metarHtml": "METAR LFLL 072330Z 14007KT 9999 FEW030 BKN060 M00/M04 Q1017 NOSIG",
      "tafHtml": "TAF LFLL 072300Z 0800/0906 15005KT <span class=\"hl-vis\">CAVOK</span> \n  BECMG 0802/0804 4000 -<span class=\"hl\">SN</span> BKN030 \n  TEMPO 0804/0806 1200 <span class=\"hl\">SN</span> OVC009 \n  FM080600 16008KT 9999 -<span class=\"hl\">RA</span> BKN030 \n  PROB40 \n  TEMPO 0806/0808 4000 -<span class=\"hl\">SN</span> BKN012 \n  PROB40 \n  TEMPO 0808/0815 4000 <span class=\"hl\">RA</span> BKN012 \n  FM081500 18010KT <span class=\"hl-vis\">CAVOK</span> \n  BECMG 0817/0819 18015G25KT \n  PROB40 \n  TEMPO 0822/0904 18020G35KT"
    },
    {
      "icao": "LQBK",
      "iata": "BNX",
      "name": "Banja Luka International Airport",
      "updatedAt": "072330Z",
      "visibility_m": 10000,
      "taf_visibility_m": 4000,
      "worst_visibility_m": 4000,
      "ceiling_ft": 1800,
      "hazards": [
        "BR",
        "SN"
      ],
      "severityScore": 40,
      "metarRaw": "METAR LQBK 072330Z 25005KT 9999 FEW010 OVC018 M03/M05 Q1011 NOSIG",
      "tafRaw": "TAF LQBK 072300Z 0800/0824 23006KT 9999 SCT010 BKN025 TXM03/0813Z TNM09/0824Z \n  PROB40 \n  TEMPO 0800/0806 30010KT 4000 -SN BR BKN008 OVC025",
      "metarHtml": "METAR LQBK 072330Z 25005KT 9999 FEW010 OVC018 M03/M05 Q1011 NOSIG",
      "tafHtml": "TAF LQBK 072300Z 0800/0824 23006KT 9999 SCT010 BKN025 TXM03/0813Z TNM09/0824Z \n  PROB40 \n  TEMPO 0800/0806 30010KT 4000 -<span class=\"hl\">SN</span> <span class=\"hl\">BR</span> BKN008 OVC025"
    },
    {
      "icao": "LCPH",
      "iata": "PFO",
      "name": "Paphos International Airport",
      "updatedAt": "072330Z",
      "visibility_m": 10000,
      "taf_visibility_m": 3000,
      "worst_visibility_m": 3000,
      "ceiling_ft": null,
      "hazards": [
        "TSRA",
        "SHRA"
      ],
      "severityScore": 39,
      "metarRaw": "METAR LCPH 072330Z 08006KT CAVOK 15/05 Q1020 NOSIG",
      "tafRaw": "TAF LCPH 072330Z 0800/0900 07007KT 9999 FEW025 \n  BECMG 0804/0807 12018KT \n  BECMG 0816/0819 30020KT \n  PROB40 \n  TEMPO 0818/0900 5000 SHRA BKN020TCU \n  PROB30 \n  TEMPO 0820/0900 3000 TSRA SCT020CB",
      "metarHtml": "METAR LCPH 072330Z 08006KT <span class=\"hl-vis\">CAVOK</span> 15/05 Q1020 NOSIG",
      "tafHtml": "TAF LCPH 072330Z 0800/0900 07007KT 9999 FEW025 \n  BECMG 0804/0807 12018KT \n  BECMG 0816/0819 30020KT \n  PROB40 \n  TEMPO 0818/0900 5000 <span class=\"hl\">SHRA</span> BKN020TCU \n  PROB30 \n  TEMPO 0820/0900 3000 <span class=\"hl\">TSRA</span> SCT020CB"
    },
    {
      "icao": "LTFM",
      "iata": "IST",
      "name": "İstanbul Airport",
      "updatedAt": "072320Z",
      "visibility_m": 10000,
      "taf_visibility_m": 4000,
      "worst_visibility_m": 4000,
      "ceiling_ft": 8000,
      "hazards": [
        "TSRA",
        "SHRA"
      ],
      "severityScore": 39,
      "metarRaw": "METAR LTFM 072320Z 20020KT 9999 SCT040 BKN080 17/08 Q1005 NOSIG RMK RWY17L 21021KT RWY34L 19020KT RWY16R 20021KT RWY36 20020KT RWY18 21022G32KT",
      "tafRaw": "TAF LTFM 072240Z 0800/0906 19022G32KT 9999 -SHRA SCT040 BKN080 \n  BECMG 0800/0802 20026G42KT \n  TEMPO 0804/0808 20032G52KT 4000 TSRA SCT017CB BKN025 \n  BECMG 0808/0810 22020G32KT \n  BECMG 0812/0815 27014KT \n  PROB40 \n  TEMPO 0812/0815 4000 TSRA SCT017CB BKN025 \n  PROB30 \n  TEMPO 0820/0823 -SHSNRA SCT010 BKN018",
      "metarHtml": "METAR LTFM 072320Z 20020KT 9999 SCT040 BKN080 17/08 Q1005 NOSIG RMK RWY17L 21021KT RWY34L 19020KT RWY16R 20021KT RWY36 20020KT RWY18 21022G32KT",
      "tafHtml": "TAF LTFM 072240Z 0800/0906 19022G32KT 9999 -<span class=\"hl\">SHRA</span> SCT040 BKN080 \n  BECMG 0800/0802 20026G42KT \n  TEMPO 0804/0808 20032G52KT 4000 <span class=\"hl\">TSRA</span> SCT017CB BKN025 \n  BECMG 0808/0810 22020G32KT \n  BECMG 0812/0815 27014KT \n  PROB40 \n  TEMPO 0812/0815 4000 <span class=\"hl\">TSRA</span> SCT017CB BKN025 \n  PROB30 \n  TEMPO 0820/0823 -SHSNRA SCT010 BKN018"
    },
    {
      "icao": "EGKK",
      "iata": "LGW",
      "name": "London Gatwick Airport",
      "updatedAt": "072320Z",
      "visibility_m": 10000,
      "taf_visibility_m": 2000,
      "worst_visibility_m": 2000,
      "ceiling_ft": null,
      "hazards": [
        "BR",
        "RA",
        "SHRA"
      ],
      "severityScore": 36,
      "metarRaw": "METAR EGKK 072320Z 19003KT 140V210 CAVOK 02/01 Q1006",
      "tafRaw": "TAF EGKK 072253Z 0800/0906 20004KT 9999 FEW035 \n  PROB30 \n  TEMPO 0802/0805 8000 -RA BKN014 \n  TEMPO 0805/0812 6000 -RADZ BKN005 \n  PROB30 \n  TEMPO 0805/0810 2000 RADZ BR BKN001 \n  PROB30 \n  TEMPO 0812/0814 8000 -RA BKN008 \n  BECMG 0813/0816 11011KT \n  TEMPO 0814/0821 6000 RA BKN010 \n  PROB40 \n  TEMPO 0814/0821 4000 +RA BKN006 \n  TEMPO 0817/0824 14015G25KT \n  PROB40 \n  TEMPO 0821/0824 7000 RA SHRA BKN012 \n  BECMG 0900/0903 30018G28KT \n  PROB30 \n  TEMPO 0900/0903 3000 RADZ BKN004 \n  TEMPO 0903/0906 6000 -RASN BKN008 \n  PROB30 \n  TEMPO 0903/0906 30020G38KT 2000 RASN BKN004",
      "metarHtml": "METAR EGKK 072320Z 19003KT 140V210 <span class=\"hl-vis\">CAVOK</span> 02/01 Q1006",
      "tafHtml": "TAF EGKK 072253Z 0800/0906 20004KT 9999 FEW035 \n  PROB30 \n  TEMPO 0802/0805 8000 -<span class=\"hl\">RA</span> BKN014 \n  TEMPO 0805/0812 6000 -RADZ BKN005 \n  PROB30 \n  TEMPO 0805/0810 2000 RADZ <span class=\"hl\">BR</span> BKN001 \n  PROB30 \n  TEMPO 0812/0814 8000 -<span class=\"hl\">RA</span> BKN008 \n  BECMG 0813/0816 11011KT \n  TEMPO 0814/0821 6000 <span class=\"hl\">RA</span> BKN010 \n  PROB40 \n  TEMPO 0814/0821 4000 +<span class=\"hl\">RA</span> BKN006 \n  TEMPO 0817/0824 14015G25KT \n  PROB40 \n  TEMPO 0821/0824 7000 <span class=\"hl\">RA</span> <span class=\"hl\">SHRA</span> BKN012 \n  BECMG 0900/0903 30018G28KT \n  PROB30 \n  TEMPO 0900/0903 3000 RADZ BKN004 \n  TEMPO 0903/0906 6000 -RASN BKN008 \n  PROB30 \n  TEMPO 0903/0906 30020G38KT 2000 RASN BKN004"
    },
    {
      "icao": "EGPF",
      "iata": "GLA",
      "name": "Glasgow Airport",
      "updatedAt": "072320Z",
      "visibility_m": 10000,
      "taf_visibility_m": 1400,
      "worst_visibility_m": 1400,
      "ceiling_ft": null,
      "hazards": [
        "BR",
        "RA"
      ],
      "severityScore": 32,
      "metarRaw": "METAR EGPF 072320Z AUTO VRB01KT 9999 NCD M01/M02 Q1003",
      "tafRaw": "TAF EGPF 072254Z 0800/0824 VRB04KT 9999 FEW040 \n  PROB30 \n  TEMPO 0800/0804 5000 BR \n  TEMPO 0803/0821 BKN010 \n  PROB30 \n  TEMPO 0804/0808 1400 RA RASN BKN002 \n  PROB30 \n  TEMPO 0808/0812 3000 SHRASN BKN005 \n  PROB30 \n  TEMPO 0821/0824 BKN014",
      "metarHtml": "METAR EGPF 072320Z AUTO VRB01KT 9999 NCD M01/M02 Q1003",
      "tafHtml": "TAF EGPF 072254Z 0800/0824 VRB04KT 9999 FEW040 \n  PROB30 \n  TEMPO 0800/0804 5000 <span class=\"hl\">BR</span> \n  TEMPO 0803/0821 BKN010 \n  PROB30 \n  TEMPO 0804/0808 1400 <span class=\"hl\">RA</span> RASN BKN002 \n  PROB30 \n  TEMPO 0808/0812 3000 SHRASN BKN005 \n  PROB30 \n  TEMPO 0821/0824 BKN014"
    },
    {
      "icao": "ESGG",
      "iata": "GOT",
      "name": "Göteborg Landvetter Airport",
      "updatedAt": "072320Z",
      "visibility_m": 10000,
      "taf_visibility_m": 2000,
      "worst_visibility_m": 2000,
      "ceiling_ft": 1000,
      "hazards": [
        "SN"
      ],
      "severityScore": 30,
      "metarRaw": "METAR ESGG 072320Z 16011KT 9999 OVC010 M02/M04 Q1003",
      "tafRaw": "TAF ESGG 072330Z 0800/0824 16014KT 9999 -SN SCT010 BKN015 \n  TEMPO 0800/0803 16015G25KT 2000 SN VV006 \n  TEMPO 0802/0818 2500 SN VV008",
      "metarHtml": "METAR ESGG 072320Z 16011KT 9999 OVC010 M02/M04 Q1003",
      "tafHtml": "TAF ESGG 072330Z 0800/0824 16014KT 9999 -<span class=\"hl\">SN</span> SCT010 BKN015 \n  TEMPO 0800/0803 16015G25KT 2000 <span class=\"hl\">SN</span> VV006 \n  TEMPO 0802/0818 2500 <span class=\"hl\">SN</span> VV008"
    },
    {
      "icao": "LFSB",
      "iata": "BSL",
      "name": "EuroAirport Basel–Mulhouse–Freiburg",
      "updatedAt": "072330Z",
      "visibility_m": 7000,
      "taf_visibility_m": 2000,
      "worst_visibility_m": 2000,
      "ceiling_ft": 2400,
      "hazards": [
        "SN",
        "RA"
      ],
      "severityScore": 30,
      "metarRaw": "METAR LFSB 072330Z AUTO 11003KT 7000 -SN FEW017 OVC024 M02/M04 Q1013 NOSIG",
      "tafRaw": "TAF LFSB 072300Z 0800/0824 22005KT 9999 BKN020 \n  TEMPO 0805/0811 2000 -SN BKN003 \n  TEMPO 0811/0812 -RASN BKN012 \n  PROB40 \n  TEMPO 0812/0815 4000 -RA BKN012 \n  TEMPO 0818/0824 RA",
      "metarHtml": "METAR LFSB 072330Z AUTO 11003KT 7000 -<span class=\"hl\">SN</span> FEW017 OVC024 M02/M04 Q1013 NOSIG",
      "tafHtml": "TAF LFSB 072300Z 0800/0824 22005KT 9999 BKN020 \n  TEMPO 0805/0811 2000 -<span class=\"hl\">SN</span> BKN003 \n  TEMPO 0811/0812 -RASN BKN012 \n  PROB40 \n  TEMPO 0812/0815 4000 -<span class=\"hl\">RA</span> BKN012 \n  TEMPO 0818/0824 <span class=\"hl\">RA</span>"
    },
    {
      "icao": "LKMT",
      "iata": "OSR",
      "name": "Ostrava Leos Janáček Airport",
      "updatedAt": "072330Z",
      "visibility_m": 9000,
      "taf_visibility_m": 6000,
      "worst_visibility_m": 6000,
      "ceiling_ft": 1800,
      "hazards": [
        "SN"
      ],
      "severityScore": 30,
      "metarRaw": "METAR LKMT 072330Z 02006KT 9000 OVC018 M06/M08 Q1011 NOSIG",
      "tafRaw": "TAF LKMT 072300Z 0800/0824 02008KT 9999 OVC022 \n  TEMPO 0800/0810 BKN015 \n  PROB30 \n  TEMPO 0800/0806 6000 -SN BKN009",
      "metarHtml": "METAR LKMT 072330Z 02006KT 9000 OVC018 M06/M08 Q1011 NOSIG",
      "tafHtml": "TAF LKMT 072300Z 0800/0824 02008KT 9999 OVC022 \n  TEMPO 0800/0810 BKN015 \n  PROB30 \n  TEMPO 0800/0806 6000 -<span class=\"hl\">SN</span> BKN009"
    },
    {
      "icao": "LZTT",
      "iata": "TAT",
      "name": "Poprad-Tatry Airport",
      "updatedAt": "072330Z",
      "visibility_m": 10000,
      "taf_visibility_m": 10000,
      "worst_visibility_m": 10000,
      "ceiling_ft": 1800,
      "hazards": [
        "SN"
      ],
      "severityScore": 30,
      "metarRaw": "METAR LZTT 072330Z 21004KT 180V240 9999 FEW005 OVC018 M08/M10 Q1005",
      "tafRaw": "TAF LZTT 072315Z 0800/0900 14004KT 9999 -SN FEW005 OVC025 \n  BECMG 0810/0812 26008KT SCT033",
      "metarHtml": "METAR LZTT 072330Z 21004KT 180V240 9999 FEW005 OVC018 M08/M10 Q1005",
      "tafHtml": "TAF LZTT 072315Z 0800/0900 14004KT 9999 -<span class=\"hl\">SN</span> FEW005 OVC025 \n  BECMG 0810/0812 26008KT SCT033"
    },
    {
      "icao": "EDDN",
      "iata": "NUE",
      "name": "Nuremberg Airport",
      "updatedAt": "072320Z",
      "visibility_m": 10000,
      "taf_visibility_m": 1200,
      "worst_visibility_m": 1200,
      "ceiling_ft": 4200,
      "hazards": [
        "SN"
      ],
      "severityScore": 28,
      "metarRaw": "METAR EDDN 072320Z AUTO 12005KT 9999 BKN042 M07/M11 Q1010",
      "tafRaw": "TAF EDDN 072300Z 0800/0824 13007KT 9999 FEW010 BKN020 \n  TEMPO 0800/0808 2500 -SN BKN009 \n  TEMPO 0808/0817 BKN010 \n  BECMG 0817/0819 4000 -SN BKN008 \n  TEMPO 0821/0824 1200 SN BKN004",
      "metarHtml": "METAR EDDN 072320Z AUTO 12005KT 9999 BKN042 M07/M11 Q1010",
      "tafHtml": "TAF EDDN 072300Z 0800/0824 13007KT 9999 FEW010 BKN020 \n  TEMPO 0800/0808 2500 -<span class=\"hl\">SN</span> BKN009 \n  TEMPO 0808/0817 BKN010 \n  BECMG 0817/0819 4000 -<span class=\"hl\">SN</span> BKN008 \n  TEMPO 0821/0824 1200 <span class=\"hl\">SN</span> BKN004"
    },
    {
      "icao": "EETN",
      "iata": "TLL",
      "name": "Lennart Meri Tallinn Airport",
      "updatedAt": "072350Z",
      "visibility_m": 10000,
      "taf_visibility_m": 3000,
      "worst_visibility_m": 3000,
      "ceiling_ft": 2600,
      "hazards": [
        "BR",
        "SN"
      ],
      "severityScore": 28,
      "metarRaw": "METAR EETN 072350Z VRB02KT 9999 OVC026 M07/M08 Q1017",
      "tafRaw": "TAF EETN 072330Z 0800/0824 VRB02KT 9999 OVC020 \n  TEMPO 0800/0807 SCT003 BKN010 \n  PROB40 \n  TEMPO 0800/0807 3000 SN BR \n  TEMPO 0817/0824 BKN005 OVC010 \n  BECMG 0819/0821 10010KT",
      "metarHtml": "METAR EETN 072350Z VRB02KT 9999 OVC026 M07/M08 Q1017",
      "tafHtml": "TAF EETN 072330Z 0800/0824 VRB02KT 9999 OVC020 \n  TEMPO 0800/0807 SCT003 BKN010 \n  PROB40 \n  TEMPO 0800/0807 3000 <span class=\"hl\">SN</span> <span class=\"hl\">BR</span> \n  TEMPO 0817/0824 BKN005 OVC010 \n  BECMG 0819/0821 10010KT"
    },
    {
      "icao": "EPRA",
      "iata": "RDO",
      "name": "Warsaw Radom Airport",
      "updatedAt": "072330Z",
      "visibility_m": 3800,
      "taf_visibility_m": 2500,
      "worst_visibility_m": 2500,
      "ceiling_ft": 2000,
      "hazards": [
        "BR",
        "SN"
      ],
      "severityScore": 28,
      "metarRaw": "METAR EPRA 072330Z 36004KT 3800 -SN BR SCT006 OVC020 M08/M10 Q1011",
      "tafRaw": "TAF EPRA 072330Z 0800/0809 01006KT 4000 -SN BR SCT006 OVC020 \n  TEMPO 0800/0809 2500 SN BKN004 OVC012",
      "metarHtml": "METAR EPRA 072330Z 36004KT 3800 -<span class=\"hl\">SN</span> <span class=\"hl\">BR</span> SCT006 OVC020 M08/M10 Q1011",
      "tafHtml": "TAF EPRA 072330Z 0800/0809 01006KT 4000 -<span class=\"hl\">SN</span> <span class=\"hl\">BR</span> SCT006 OVC020 \n  TEMPO 0800/0809 2500 <span class=\"hl\">SN</span> BKN004 OVC012"
    },
    {
      "icao": "LQSA",
      "iata": "SJJ",
      "name": "Sarajevo International Airport",
      "updatedAt": "072330Z",
      "visibility_m": 10000,
      "taf_visibility_m": 1500,
      "worst_visibility_m": 1500,
      "ceiling_ft": 3500,
      "hazards": [
        "SN"
      ],
      "severityScore": 28,
      "metarRaw": "METAR LQSA 072330Z 30005KT 9999 SCT020 OVC035 M05/M06 Q1006",
      "tafRaw": "TAF LQSA 072300Z 0800/0824 29005KT 7000 -SN SCT012 OVC030 TXM03/0813Z TNM07/0806Z \n  TEMPO 0800/0806 1500 SN BKN004 OVC015 \n  PROB40 \n  TEMPO 0800/0811 35010KT",
      "metarHtml": "METAR LQSA 072330Z 30005KT 9999 SCT020 OVC035 M05/M06 Q1006",
      "tafHtml": "TAF LQSA 072300Z 0800/0824 29005KT 7000 -<span class=\"hl\">SN</span> SCT012 OVC030 TXM03/0813Z TNM07/0806Z \n  TEMPO 0800/0806 1500 <span class=\"hl\">SN</span> BKN004 OVC015 \n  PROB40 \n  TEMPO 0800/0811 35010KT"
    },
    {
      "icao": "LCLK",
      "iata": "LCA",
      "name": "Larnaca International Airport",
      "updatedAt": "072330Z",
      "visibility_m": 8000,
      "taf_visibility_m": 5000,
      "worst_visibility_m": 5000,
      "ceiling_ft": null,
      "hazards": [
        "BR",
        "SHRA"
      ],
      "severityScore": 24,
      "metarRaw": "METAR LCLK 072330Z 32005KT 8000 NSC 13/12 Q1021 NOSIG",
      "tafRaw": "TAF LCLK 072330Z 0800/0900 32006KT 9999 FEW025 \n  PROB30 \n  TEMPO 0800/0805 5000 BR BKN005 \n  BECMG 0805/0808 04010KT \n  BECMG 0810/0813 20010KT \n  BECMG 0818/0821 23020KT \n  PROB30 \n  TEMPO 0820/0900 5000 SHRA SCT020TCU",
      "metarHtml": "METAR LCLK 072330Z 32005KT 8000 NSC 13/12 Q1021 NOSIG",
      "tafHtml": "TAF LCLK 072330Z 0800/0900 32006KT 9999 FEW025 \n  PROB30 \n  TEMPO 0800/0805 5000 <span class=\"hl\">BR</span> BKN005 \n  BECMG 0805/0808 04010KT \n  BECMG 0810/0813 20010KT \n  BECMG 0818/0821 23020KT \n  PROB30 \n  TEMPO 0820/0900 5000 <span class=\"hl\">SHRA</span> SCT020TCU"
    },
    {
      "icao": "EDDK",
      "iata": "CGN",
      "name": "Cologne Bonn Airport",
      "updatedAt": "072320Z",
      "visibility_m": 10000,
      "taf_visibility_m": 4000,
      "worst_visibility_m": 4000,
      "ceiling_ft": null,
      "hazards": [
        "BR",
        "RA"
      ],
      "severityScore": 22,
      "metarRaw": "METAR EDDK 072320Z AUTO 15007KT 9999 SCT021 M01/M03 Q1007 NOSIG",
      "tafRaw": "TAF EDDK 072300Z 0800/0906 16008KT 9999 OVC020 \n  BECMG 0819/0822 14013KT RA \n  TEMPO 0819/0904 4000 -RA BR BKN012 \n  BECMG 0900/0903 NSW \n  BECMG 0902/0905 19015G25KT",
      "metarHtml": "METAR EDDK 072320Z AUTO 15007KT 9999 SCT021 M01/M03 Q1007 NOSIG",
      "tafHtml": "TAF EDDK 072300Z 0800/0906 16008KT 9999 OVC020 \n  BECMG 0819/0822 14013KT <span class=\"hl\">RA</span> \n  TEMPO 0819/0904 4000 -<span class=\"hl\">RA</span> <span class=\"hl\">BR</span> BKN012 \n  BECMG 0900/0903 NSW \n  BECMG 0902/0905 19015G25KT"
    },
    {
      "icao": "LHBP",
      "iata": "BUD",
      "name": "Budapest Liszt Ferenc International Airport",
      "updatedAt": "072330Z",
      "visibility_m": 10000,
      "taf_visibility_m": 4000,
      "worst_visibility_m": 4000,
      "ceiling_ft": null,
      "hazards": [
        "BLSN"
      ],
      "severityScore": 22,
      "metarRaw": "METAR LHBP 072330Z 32003KT CAVOK M05/M07 Q1008 NOSIG",
      "tafRaw": "TAF LHBP 072315Z 0800/0824 33006KT CAVOK \n  BECMG 0803/0807 30012KT DRSN \n  TEMPO 0808/0817 30015G25KT FEW020 \n  PROB30 \n  TEMPO 0808/0817 4000 BLSN \n  BECMG 0821/0824 VRB03KT NSW",
      "metarHtml": "METAR LHBP 072330Z 32003KT <span class=\"hl-vis\">CAVOK</span> M05/M07 Q1008 NOSIG",
      "tafHtml": "TAF LHBP 072315Z 0800/0824 33006KT <span class=\"hl-vis\">CAVOK</span> \n  BECMG 0803/0807 30012KT DRSN \n  TEMPO 0808/0817 30015G25KT FEW020 \n  PROB30 \n  TEMPO 0808/0817 4000 <span class=\"hl\">BLSN</span> \n  BECMG 0821/0824 VRB03KT NSW"
    },
    {
      "icao": "LPPR",
      "iata": "OPO",
      "name": "Francisco de Sá Carneiro Airport",
      "updatedAt": "072330Z",
      "visibility_m": 10000,
      "taf_visibility_m": 3000,
      "worst_visibility_m": 3000,
      "ceiling_ft": null,
      "hazards": [
        "BR",
        "RA"
      ],
      "severityScore": 22,
      "metarRaw": "METAR LPPR 072330Z 11003KT 040V200 9999 FEW030 09/07 Q1030",
      "tafRaw": "TAF LPPR 072300Z 0800/0824 11005KT 9999 FEW015 SCT030 \n  TEMPO 0805/0815 6000 -RA SCT006 BKN012 \n  BECMG 0807/0809 17012KT \n  BECMG 0815/0817 23015KT SCT012 BKN025 \n  TEMPO 0817/0823 23017G27KT 3000 RADZ BR BKN003",
      "metarHtml": "METAR LPPR 072330Z 11003KT 040V200 9999 FEW030 09/07 Q1030",
      "tafHtml": "TAF LPPR 072300Z 0800/0824 11005KT 9999 FEW015 SCT030 \n  TEMPO 0805/0815 6000 -<span class=\"hl\">RA</span> SCT006 BKN012 \n  BECMG 0807/0809 17012KT \n  BECMG 0815/0817 23015KT SCT012 BKN025 \n  TEMPO 0817/0823 23017G27KT 3000 RADZ <span class=\"hl\">BR</span> BKN003"
    },
    {
      "icao": "LPPT",
      "iata": "LIS",
      "name": "Lisbon Humberto Delgado Airport",
      "updatedAt": "072330Z",
      "visibility_m": 10000,
      "taf_visibility_m": 1200,
      "worst_visibility_m": 1200,
      "ceiling_ft": null,
      "hazards": [
        "RA"
      ],
      "severityScore": 22,
      "metarRaw": "METAR LPPT 072330Z 31004KT 9999 FEW020 10/06 Q1031",
      "tafRaw": "TAF LPPT 072300Z 0800/0906 VRB02KT 9999 FEW025 \n  BECMG 0803/0805 6000 SCT003 \n  PROB30 \n  TEMPO 0805/0809 1200 PRFG BKN003 \n  BECMG 0810/0812 12005KT 9999 SCT012 BKN025 \n  BECMG 0814/0816 23008KT \n  PROB30 \n  TEMPO 0815/0819 6000 -RA SCT006 BKN012",
      "metarHtml": "METAR LPPT 072330Z 31004KT 9999 FEW020 10/06 Q1031",
      "tafHtml": "TAF LPPT 072300Z 0800/0906 VRB02KT 9999 FEW025 \n  BECMG 0803/0805 6000 SCT003 \n  PROB30 \n  TEMPO 0805/0809 1200 PRFG BKN003 \n  BECMG 0810/0812 12005KT 9999 SCT012 BKN025 \n  BECMG 0814/0816 23008KT \n  PROB30 \n  TEMPO 0815/0819 6000 -<span class=\"hl\">RA</span> SCT006 BKN012"
    },
    {
      "icao": "LYPG",
      "iata": "TGD",
      "name": "Podgorica Airport / Podgorica Golubovci Airbase",
      "updatedAt": "072330Z",
      "visibility_m": 10000,
      "taf_visibility_m": 3000,
      "worst_visibility_m": 3000,
      "ceiling_ft": 7000,
      "hazards": [
        "RA",
        "BR"
      ],
      "severityScore": 22,
      "metarRaw": "METAR LYPG 072330Z 32002KT 9999 -RA SCT040 OVC070 08/07 Q1001 NOSIG",
      "tafRaw": "TAF LYPG 072300Z 0800/0824 36005KT 9999 SCT040 OVC070 TX08/0800Z TN00/0824Z \n  TEMPO 0800/0806 3000 RA BR \n  TEMPO 0806/0820 02015KT",
      "metarHtml": "METAR LYPG 072330Z 32002KT 9999 -<span class=\"hl\">RA</span> SCT040 OVC070 08/07 Q1001 NOSIG",
      "tafHtml": "TAF LYPG 072300Z 0800/0824 36005KT 9999 SCT040 OVC070 TX08/0800Z TN00/0824Z \n  TEMPO 0800/0806 3000 <span class=\"hl\">RA</span> <span class=\"hl\">BR</span> \n  TEMPO 0806/0820 02015KT"
    },
    {
      "icao": "LZKZ",
      "iata": "KSC",
      "name": "Košice International Airport",
      "updatedAt": "072330Z",
      "visibility_m": 10000,
      "taf_visibility_m": 7000,
      "worst_visibility_m": 7000,
      "ceiling_ft": 4000,
      "hazards": [
        "BLSN"
      ],
      "severityScore": 22,
      "metarRaw": "METAR LZKZ 072330Z 35015KT 9999 FEW021 BKN040 M03/M08 Q1006 NOSIG",
      "tafRaw": "TAF LZKZ 072315Z 0800/0900 36025KT 9999 DRSN NSC \n  TEMPO 0800/0802 36015KT CAVOK \n  TEMPO 0802/0814 CAVOK \n  PROB30 \n  TEMPO 0802/0814 36027G37KT 7000 BLSN FEW030 \n  BECMG 0814/0816 34010KT CAVOK",
      "metarHtml": "METAR LZKZ 072330Z 35015KT 9999 FEW021 BKN040 M03/M08 Q1006 NOSIG",
      "tafHtml": "TAF LZKZ 072315Z 0800/0900 36025KT 9999 DRSN NSC \n  TEMPO 0800/0802 36015KT <span class=\"hl-vis\">CAVOK</span> \n  TEMPO 0802/0814 <span class=\"hl-vis\">CAVOK</span> \n  PROB30 \n  TEMPO 0802/0814 36027G37KT 7000 <span class=\"hl\">BLSN</span> FEW030 \n  BECMG 0814/0816 34010KT <span class=\"hl-vis\">CAVOK</span>"
    },
    {
      "icao": "EDLW",
      "iata": "DTM",
      "name": "Dortmund Airport",
      "updatedAt": "072320Z",
      "visibility_m": 10000,
      "taf_visibility_m": 1200,
      "worst_visibility_m": 1200,
      "ceiling_ft": null,
      "hazards": [
        "SHSN"
      ],
      "severityScore": 20,
      "metarRaw": "METAR EDLW 072320Z AUTO 19012KT 9999 // OVC014/// M00/M03 Q1005",
      "tafRaw": "TAF EDLW 071700Z 0718/0818 18015G25KT 9999 BKN020 \n  TEMPO 0718/0804 4000 -SHSN BKN012TCU \n  PROB30 \n  TEMPO 0718/0802 1200 SHSN BKN007TCU \n  BECMG 0719/0722 20011KT \n  BECMG 0812/0815 15006KT",
      "metarHtml": "METAR EDLW 072320Z AUTO 19012KT 9999 // OVC014/// M00/M03 Q1005",
      "tafHtml": "TAF EDLW 071700Z 0718/0818 18015G25KT 9999 BKN020 \n  TEMPO 0718/0804 4000 -<span class=\"hl\">SHSN</span> BKN012TCU \n  PROB30 \n  TEMPO 0718/0802 1200 <span class=\"hl\">SHSN</span> BKN007TCU \n  BECMG 0719/0722 20011KT \n  BECMG 0812/0815 15006KT"
    },
    {
      "icao": "EPWA",
      "iata": "WAW",
      "name": "Warsaw Chopin Airport",
      "updatedAt": "072330Z",
      "visibility_m": 4000,
      "taf_visibility_m": 1500,
      "worst_visibility_m": 1500,
      "ceiling_ft": null,
      "hazards": [
        "BR"
      ],
      "severityScore": 20,
      "metarRaw": "METAR EPWA 072330Z 03005KT 5000 BR FEW006 M10/M11 Q1013 TEMPO 4000 BR",
      "tafRaw": "TAF EPWA 072330Z 0800/0824 04004KT 5000 BR SCT006 \n  BECMG 0800/0803 BKN006 \n  TEMPO 0800/0809 3500 BR BKN004 \n  PROB40 0800/0808 1500 BR BKN002 \n  BECMG 0808/0811 BKN010",
      "metarHtml": "METAR EPWA 072330Z 03005KT 5000 <span class=\"hl\">BR</span> FEW006 M10/M11 Q1013 TEMPO 4000 <span class=\"hl\">BR</span>",
      "tafHtml": "TAF EPWA 072330Z 0800/0824 04004KT 5000 <span class=\"hl\">BR</span> SCT006 \n  BECMG 0800/0803 BKN006 \n  TEMPO 0800/0809 3500 <span class=\"hl\">BR</span> BKN004 \n  PROB40 0800/0808 1500 <span class=\"hl\">BR</span> BKN002 \n  BECMG 0808/0811 BKN010"
    },
    {
      "icao": "UDSG",
      "iata": "LWN",
      "name": "Shirak International Airport",
      "updatedAt": "072330Z",
      "visibility_m": 5000,
      "taf_visibility_m": 1000,
      "worst_visibility_m": 1000,
      "ceiling_ft": null,
      "hazards": [
        "BR"
      ],
      "severityScore": 20,
      "metarRaw": "METAR UDSG 072330Z 21001KT 5000 BR NSC M14/M15 Q1025 NOSIG",
      "tafRaw": "TAF UDSG 072258Z 0800/0824 VRB06KT 5000 BR FEW040 \n  TEMPO 0800/0806 1000 BR",
      "metarHtml": "METAR UDSG 072330Z 21001KT 5000 <span class=\"hl\">BR</span> NSC M14/M15 Q1025 NOSIG",
      "tafHtml": "TAF UDSG 072258Z 0800/0824 VRB06KT 5000 <span class=\"hl\">BR</span> FEW040 \n  TEMPO 0800/0806 1000 <span class=\"hl\">BR</span>"
    },
    {
      "icao": "EDDB",
      "iata": "BER",
      "name": "Berlin Brandenburg Airport",
      "updatedAt": "072320Z",
      "visibility_m": 10000,
      "taf_visibility_m": 4000,
      "worst_visibility_m": 4000,
      "ceiling_ft": null,
      "hazards": [
        "SN"
      ],
      "severityScore": 18,
      "metarRaw": "METAR EDDB 072320Z AUTO 14008KT CAVOK M08/M11 Q1011 NOSIG",
      "tafRaw": "TAF EDDB 072300Z 0800/0824 13006KT 9999 SCT030 BKN040 \n  PROB30 \n  TEMPO 0817/0824 4000 -SN BKN004",
      "metarHtml": "METAR EDDB 072320Z AUTO 14008KT <span class=\"hl-vis\">CAVOK</span> M08/M11 Q1011 NOSIG",
      "tafHtml": "TAF EDDB 072300Z 0800/0824 13006KT 9999 SCT030 BKN040 \n  PROB30 \n  TEMPO 0817/0824 4000 -<span class=\"hl\">SN</span> BKN004"
    },
    {
      "icao": "EDJA",
      "iata": "FMM",
      "name": "Memmingen Allgau Airport",
      "updatedAt": "072320Z",
      "visibility_m": 3100,
      "taf_visibility_m": 2500,
      "worst_visibility_m": 2500,
      "ceiling_ft": null,
      "hazards": [
        "SN"
      ],
      "severityScore": 18,
      "metarRaw": "METAR EDJA 072320Z AUTO 22013KT 3100 // BKN028/// BKN033/// OVC041/// M05/M07 Q1009",
      "tafRaw": "TAF EDJA 071700Z 0718/0803 18005KT CAVOK \n  BECMG 0721/0723 23010KT \n  TEMPO 0721/0803 2500 -SN BKN009",
      "metarHtml": "METAR EDJA 072320Z AUTO 22013KT 3100 // BKN028/// BKN033/// OVC041/// M05/M07 Q1009",
      "tafHtml": "TAF EDJA 071700Z 0718/0803 18005KT <span class=\"hl-vis\">CAVOK</span> \n  BECMG 0721/0723 23010KT \n  TEMPO 0721/0803 2500 -<span class=\"hl\">SN</span> BKN009"
    },
    {
      "icao": "EDNY",
      "iata": "FDH",
      "name": "Friedrichshafen Airport",
      "updatedAt": "072320Z",
      "visibility_m": 10000,
      "taf_visibility_m": 2500,
      "worst_visibility_m": 2500,
      "ceiling_ft": null,
      "hazards": [
        "SN"
      ],
      "severityScore": 18,
      "metarRaw": "METAR EDNY 072320Z AUTO 22011KT 9999 // FEW009/// SCT015/// OVC019/// M02/M05 Q1012",
      "tafRaw": "TAF EDNY 071700Z 0718/0803 VRB02KT CAVOK \n  BECMG 0719/0721 25005KT \n  TEMPO 0720/0803 2500 -SN BKN012",
      "metarHtml": "METAR EDNY 072320Z AUTO 22011KT 9999 // FEW009/// SCT015/// OVC019/// M02/M05 Q1012",
      "tafHtml": "TAF EDNY 071700Z 0718/0803 VRB02KT <span class=\"hl-vis\">CAVOK</span> \n  BECMG 0719/0721 25005KT \n  TEMPO 0720/0803 2500 -<span class=\"hl\">SN</span> BKN012"
    },
    {
      "icao": "ENVA",
      "iata": "TRD",
      "name": "Trondheim Airport, Værnes",
      "updatedAt": "072320Z",
      "visibility_m": 10000,
      "taf_visibility_m": 4000,
      "worst_visibility_m": 4000,
      "ceiling_ft": null,
      "hazards": [
        "SN"
      ],
      "severityScore": 18,
      "metarRaw": "METAR ENVA 072320Z 07010KT 030V090 CAVOK M07/M13 Q1010 RMK WIND 670FT 09015KT",
      "tafRaw": "TAF ENVA 072300Z 0800/0824 10008KT 9999 -SN SCT050 \n  PROB30 0820/0824 4000 -SN VV014",
      "metarHtml": "METAR ENVA 072320Z 07010KT 030V090 <span class=\"hl-vis\">CAVOK</span> M07/M13 Q1010 RMK WIND 670FT 09015KT",
      "tafHtml": "TAF ENVA 072300Z 0800/0824 10008KT 9999 -<span class=\"hl\">SN</span> SCT050 \n  PROB30 0820/0824 4000 -<span class=\"hl\">SN</span> VV014"
    },
    {
      "icao": "LKPR",
      "iata": "PRG",
      "name": "Václav Havel Airport Prague",
      "updatedAt": "072330Z",
      "visibility_m": 10000,
      "taf_visibility_m": 6000,
      "worst_visibility_m": 6000,
      "ceiling_ft": null,
      "hazards": [
        "SN"
      ],
      "severityScore": 18,
      "metarRaw": "METAR LKPR 072330Z 16004KT 9999 SCT030 M07/M10 Q1010 NOSIG",
      "tafRaw": "TAF LKPR 072300Z 0800/0906 20006KT CAVOK \n  BECMG 0807/0809 9999 BKN025 \n  TEMPO 0809/0821 BKN014 \n  PROB30 \n  TEMPO 0809/0819 6000 -SN BKN007 \n  BECMG 0820/0822 12007KT \n  BECMG 0904/0906 -SN BKN012",
      "metarHtml": "METAR LKPR 072330Z 16004KT 9999 SCT030 M07/M10 Q1010 NOSIG",
      "tafHtml": "TAF LKPR 072300Z 0800/0906 20006KT <span class=\"hl-vis\">CAVOK</span> \n  BECMG 0807/0809 9999 BKN025 \n  TEMPO 0809/0821 BKN014 \n  PROB30 \n  TEMPO 0809/0819 6000 -<span class=\"hl\">SN</span> BKN007 \n  BECMG 0820/0822 12007KT \n  BECMG 0904/0906 -<span class=\"hl\">SN</span> BKN012"
    },
    {
      "icao": "LOWW",
      "iata": "VIE",
      "name": "Vienna International Airport",
      "updatedAt": "072320Z",
      "visibility_m": 10000,
      "taf_visibility_m": 10000,
      "worst_visibility_m": 10000,
      "ceiling_ft": null,
      "hazards": [
        "SN"
      ],
      "severityScore": 18,
      "metarRaw": "METAR LOWW 072320Z 32009KT CAVOK M06/M11 Q1011 NOSIG",
      "tafRaw": "TAF LOWW 072315Z 0800/0906 33010KT 9999 FEW050 TXM02/0813Z TNM07/0806Z \n  BECMG 0816/0818 VRB03KT \n  BECMG 0901/0903 13007KT \n  TEMPO 0905/0906 -SN",
      "metarHtml": "METAR LOWW 072320Z 32009KT <span class=\"hl-vis\">CAVOK</span> M06/M11 Q1011 NOSIG",
      "tafHtml": "TAF LOWW 072315Z 0800/0906 33010KT 9999 FEW050 TXM02/0813Z TNM07/0806Z \n  BECMG 0816/0818 VRB03KT \n  BECMG 0901/0903 13007KT \n  TEMPO 0905/0906 -<span class=\"hl\">SN</span>"
    },
    {
      "icao": "EGNM",
      "iata": "LBA",
      "name": "Leeds Bradford Airport",
      "updatedAt": null,
      "visibility_m": null,
      "taf_visibility_m": 3000,
      "worst_visibility_m": 3000,
      "ceiling_ft": null,
      "hazards": [
        "RA"
      ],
      "severityScore": 12,
      "metarRaw": null,
      "tafRaw": "TAF EGNM 071656Z 0718/0818 25012KT 9999 FEW015 \n  TEMPO 0801/0808 6000 -RASN BKN010 \n  PROB30 \n  TEMPO 0801/0808 3000 RASN BKN006 \n  BECMG 0804/0807 19004KT \n  TEMPO 0808/0816 BKN012 \n  TEMPO 0816/0818 6000 RA -RADZ BKN010 \n  PROB30 \n  TEMPO 0816/0818 BKN006",
      "metarHtml": null,
      "tafHtml": "TAF EGNM 071656Z 0718/0818 25012KT 9999 FEW015 \n  TEMPO 0801/0808 6000 -RASN BKN010 \n  PROB30 \n  TEMPO 0801/0808 3000 RASN BKN006 \n  BECMG 0804/0807 19004KT \n  TEMPO 0808/0816 BKN012 \n  TEMPO 0816/0818 6000 <span class=\"hl\">RA</span> -RADZ BKN010 \n  PROB30 \n  TEMPO 0816/0818 BKN006"
    },
    {
      "icao": "EHBK",
      "iata": "MST",
      "name": "Maastricht Aachen Airport",
      "updatedAt": "072325Z",
      "visibility_m": 10000,
      "taf_visibility_m": 4000,
      "worst_visibility_m": 4000,
      "ceiling_ft": null,
      "hazards": [
        "RA"
      ],
      "severityScore": 12,
      "metarRaw": "METAR EHBK 072325Z AUTO 21014KT 9999 FEW012/// SCT029/// BKN033/// 01/M01 Q1006",
      "tafRaw": "TAF EHBK 072321Z 0800/0906 20014KT 9999 OVC015 \n  PROB30 \n  TEMPO 0800/0808 BKN008 \n  BECMG 0815/0818 15006KT 6000 RA \n  PROB40 \n  TEMPO 0817/0820 4000 BKN008 \n  BECMG 0821/0824 18015G25KT \n  BECMG 0900/0903 9999 NSW \n  TEMPO 0905/0906 7000 RA",
      "metarHtml": "METAR EHBK 072325Z AUTO 21014KT 9999 FEW012/// SCT029/// BKN033/// 01/M01 Q1006",
      "tafHtml": "TAF EHBK 072321Z 0800/0906 20014KT 9999 OVC015 \n  PROB30 \n  TEMPO 0800/0808 BKN008 \n  BECMG 0815/0818 15006KT 6000 <span class=\"hl\">RA</span> \n  PROB40 \n  TEMPO 0817/0820 4000 BKN008 \n  BECMG 0821/0824 18015G25KT \n  BECMG 0900/0903 9999 NSW \n  TEMPO 0905/0906 7000 <span class=\"hl\">RA</span>"
    },
    {
      "icao": "LATI",
      "iata": "TIA",
      "name": "Tirana International Airport Mother Teresa",
      "updatedAt": "072350Z",
      "visibility_m": 10000,
      "taf_visibility_m": 10000,
      "worst_visibility_m": 10000,
      "ceiling_ft": 4000,
      "hazards": [
        "RA"
      ],
      "severityScore": 12,
      "metarRaw": "METAR LATI 072350Z VRB04KT 9999 RA SCT012 FEW020TCU OVC040 09/08 Q1003 NOSIG",
      "tafRaw": "TAF LATI 072300Z 0800/0824 17008KT 9999 -RA SCT025 OVC050 TX09/0805Z TN02/0823Z \n  TEMPO 0800/0806 RA SCT010 FEW025TCU OVC040 \n  TEMPO 0806/0817 28016KT \n  BECMG 0817/0819 VRB03KT CAVOK",
      "metarHtml": "METAR LATI 072350Z VRB04KT 9999 <span class=\"hl\">RA</span> SCT012 FEW020TCU OVC040 09/08 Q1003 NOSIG",
      "tafHtml": "TAF LATI 072300Z 0800/0824 17008KT 9999 -<span class=\"hl\">RA</span> SCT025 OVC050 TX09/0805Z TN02/0823Z \n  TEMPO 0800/0806 <span class=\"hl\">RA</span> SCT010 FEW025TCU OVC040 \n  TEMPO 0806/0817 28016KT \n  BECMG 0817/0819 VRB03KT <span class=\"hl-vis\">CAVOK</span>"
    },
    {
      "icao": "LBWN",
      "iata": "VAR",
      "name": "Varna Airport",
      "updatedAt": "072330Z",
      "visibility_m": 10000,
      "taf_visibility_m": 3000,
      "worst_visibility_m": 3000,
      "ceiling_ft": null,
      "hazards": [
        "RA"
      ],
      "severityScore": 12,
      "metarRaw": "METAR LBWN 072330Z AUTO 10008KT 9999 FEW008/// 12/12 Q1003 NOSIG",
      "tafRaw": "TAF LBWN 072300Z 0800/0824 12010KT 9999 SCT015 BKN025 \n  TEMPO 0800/0804 13016G26KT 5000 RA SCT006 BKN015 OVC030 \n  BECMG 0805/0806 28018G28KT \n  TEMPO 0806/0812 28024G38KT 3000 RA SCT010 BKN015 OVC030",
      "metarHtml": "METAR LBWN 072330Z AUTO 10008KT 9999 FEW008/// 12/12 Q1003 NOSIG",
      "tafHtml": "TAF LBWN 072300Z 0800/0824 12010KT 9999 SCT015 BKN025 \n  TEMPO 0800/0804 13016G26KT 5000 <span class=\"hl\">RA</span> SCT006 BKN015 OVC030 \n  BECMG 0805/0806 28018G28KT \n  TEMPO 0806/0812 28024G38KT 3000 <span class=\"hl\">RA</span> SCT010 BKN015 OVC030"
    },
    {
      "icao": "LEBB",
      "iata": "BIO",
      "name": "Bilbao Airport",
      "updatedAt": "072330Z",
      "visibility_m": 10000,
      "taf_visibility_m": 3000,
      "worst_visibility_m": 3000,
      "ceiling_ft": 3300,
      "hazards": [
        "RA"
      ],
      "severityScore": 12,
      "metarRaw": "METAR LEBB 072330Z AUTO 25005KT 170V330 9999 OVC033 11/08 Q1024",
      "tafRaw": "TAF LEBB 072300Z 0800/0824 22009KT 9999 SCT020 BKN050 TX14/0814Z TN08/0803Z \n  PROB40 \n  TEMPO 0806/0812 22015G25KT \n  TEMPO 0812/0824 22020G33KT \n  PROB30 0822/0824 28012KT 3000 RA",
      "metarHtml": "METAR LEBB 072330Z AUTO 25005KT 170V330 9999 OVC033 11/08 Q1024",
      "tafHtml": "TAF LEBB 072300Z 0800/0824 22009KT 9999 SCT020 BKN050 TX14/0814Z TN08/0803Z \n  PROB40 \n  TEMPO 0806/0812 22015G25KT \n  TEMPO 0812/0824 22020G33KT \n  PROB30 0822/0824 28012KT 3000 <span class=\"hl\">RA</span>"
    },
    {
      "icao": "LEXJ",
      "iata": "SDR",
      "name": "Seve Ballesteros-Santander Airport",
      "updatedAt": "072330Z",
      "visibility_m": 9000,
      "taf_visibility_m": 3000,
      "worst_visibility_m": 3000,
      "ceiling_ft": 4200,
      "hazards": [
        "RA"
      ],
      "severityScore": 12,
      "metarRaw": "METAR LEXJ 072330Z AUTO 24006KT 210V270 9000 BKN042 OVC048 12/06 Q1024",
      "tafRaw": "TAF LEXJ 072000Z 0721/0821 24009KT 9999 SCT030 BKN060 TX12/0813Z TN08/0802Z \n  PROB30 \n  TEMPO 0721/0722 3000 RA BKN010 \n  TEMPO 0810/0821 22018G28KT \n  PROB40 \n  TEMPO 0819/0821 27020G33KT 3000 RA",
      "metarHtml": "METAR LEXJ 072330Z AUTO 24006KT 210V270 9000 BKN042 OVC048 12/06 Q1024",
      "tafHtml": "TAF LEXJ 072000Z 0721/0821 24009KT 9999 SCT030 BKN060 TX12/0813Z TN08/0802Z \n  PROB30 \n  TEMPO 0721/0722 3000 <span class=\"hl\">RA</span> BKN010 \n  TEMPO 0810/0821 22018G28KT \n  PROB40 \n  TEMPO 0819/0821 27020G33KT 3000 <span class=\"hl\">RA</span>"
    },
    {
      "icao": "LGAV",
      "iata": "ATH",
      "name": "Athens Eleftherios Venizelos International Airport",
      "updatedAt": "072320Z",
      "visibility_m": 10000,
      "taf_visibility_m": 5000,
      "worst_visibility_m": 5000,
      "ceiling_ft": null,
      "hazards": [
        "RA"
      ],
      "severityScore": 12,
      "metarRaw": "METAR LGAV 072320Z 20019KT 9999 FEW025 18/11 Q1006 NOSIG",
      "tafRaw": "TAF LGAV 072300Z 0800/0824 20018G30KT 9999 FEW020 SCT030 \n  PROB30 \n  TEMPO 0800/0803 5000 RA FEW018TCU SCT020 BKN030 \n  BECMG 0802/0804 26016KT \n  TEMPO 0806/0815 26020G30KT",
      "metarHtml": "METAR LGAV 072320Z 20019KT 9999 FEW025 18/11 Q1006 NOSIG",
      "tafHtml": "TAF LGAV 072300Z 0800/0824 20018G30KT 9999 FEW020 SCT030 \n  PROB30 \n  TEMPO 0800/0803 5000 <span class=\"hl\">RA</span> FEW018TCU SCT020 BKN030 \n  BECMG 0802/0804 26016KT \n  TEMPO 0806/0815 26020G30KT"
    },
    {
      "icao": "LGTS",
      "iata": "SKG",
      "name": "Thessaloniki Macedonia International Airport",
      "updatedAt": "072320Z",
      "visibility_m": 8000,
      "taf_visibility_m": 5000,
      "worst_visibility_m": 5000,
      "ceiling_ft": null,
      "hazards": [
        "RA"
      ],
      "severityScore": 12,
      "metarRaw": "METAR LGTS 072320Z VRB03KT 8000 -RA FEW008 SCT025 13/13 Q1001 NOSIG",
      "tafRaw": "TAF LGTS 072300Z 0800/0824 16012KT 9999 SCT025 \n  PROB30 \n  TEMPO 0800/0811 5000 RA FEW012 BKN025 \n  BECMG 0808/0810 34015KT FEW025 \n  TEMPO 0814/0824 34015G25KT",
      "metarHtml": "METAR LGTS 072320Z VRB03KT 8000 -<span class=\"hl\">RA</span> FEW008 SCT025 13/13 Q1001 NOSIG",
      "tafHtml": "TAF LGTS 072300Z 0800/0824 16012KT 9999 SCT025 \n  PROB30 \n  TEMPO 0800/0811 5000 <span class=\"hl\">RA</span> FEW012 BKN025 \n  BECMG 0808/0810 34015KT FEW025 \n  TEMPO 0814/0824 34015G25KT"
    },
    {
      "icao": "LIBD",
      "iata": "BRI",
      "name": "Bari Karol Wojtyła International Airport",
      "updatedAt": "072320Z",
      "visibility_m": 10000,
      "taf_visibility_m": 4000,
      "worst_visibility_m": 4000,
      "ceiling_ft": null,
      "hazards": [
        "RA"
      ],
      "severityScore": 12,
      "metarRaw": "METAR LIBD 072320Z 28011KT 9999 SCT040 05/03 Q1006",
      "tafRaw": "TAF LIBD 072300Z 0800/0824 28018G28KT 7000 BKN020 \n  TEMPO 0800/0804 4000 RA \n  BECMG 0818/0820 23010KT",
      "metarHtml": "METAR LIBD 072320Z 28011KT 9999 SCT040 05/03 Q1006",
      "tafHtml": "TAF LIBD 072300Z 0800/0824 28018G28KT 7000 BKN020 \n  TEMPO 0800/0804 4000 <span class=\"hl\">RA</span> \n  BECMG 0818/0820 23010KT"
    },
    {
      "icao": "LIBG",
      "iata": "TAR",
      "name": "Taranto-Grottaglie Marcello Arlotta Airport",
      "updatedAt": null,
      "visibility_m": null,
      "taf_visibility_m": 10000,
      "worst_visibility_m": 10000,
      "ceiling_ft": null,
      "hazards": [
        "RA"
      ],
      "severityScore": 12,
      "metarRaw": null,
      "tafRaw": "TAF LIBG 071700Z 0718/0803 32012KT 9999 SCT020 \n  TEMPO 0718/0720 RA BKN010",
      "metarHtml": null,
      "tafHtml": "TAF LIBG 071700Z 0718/0803 32012KT 9999 SCT020 \n  TEMPO 0718/0720 <span class=\"hl\">RA</span> BKN010"
    },
    {
      "icao": "LIBR",
      "iata": "BDS",
      "name": "Brindisi Airport",
      "updatedAt": "072320Z",
      "visibility_m": 10000,
      "taf_visibility_m": 10000,
      "worst_visibility_m": 10000,
      "ceiling_ft": null,
      "hazards": [
        "RA"
      ],
      "severityScore": 12,
      "metarRaw": "METAR LIBR 072320Z 28006KT 9999 FEW030 08/06 Q1005",
      "tafRaw": "TAF LIBR 072300Z 0800/0824 33018KT 9999 SCT030 \n  TEMPO 0800/0804 RA \n  BECMG 0802/0804 33020G32KT",
      "metarHtml": "METAR LIBR 072320Z 28006KT 9999 FEW030 08/06 Q1005",
      "tafHtml": "TAF LIBR 072300Z 0800/0824 33018KT 9999 SCT030 \n  TEMPO 0800/0804 <span class=\"hl\">RA</span> \n  BECMG 0802/0804 33020G32KT"
    },
    {
      "icao": "LICA",
      "iata": "SUF",
      "name": "Lamezia Terme Sant'Eufemia International Airport",
      "updatedAt": "072320Z",
      "visibility_m": 10000,
      "taf_visibility_m": 3000,
      "worst_visibility_m": 3000,
      "ceiling_ft": null,
      "hazards": [
        "RA"
      ],
      "severityScore": 12,
      "metarRaw": "METAR LICA 072320Z AUTO 25017G32KT 9999 RA BKN033/// 10/06 Q1008",
      "tafRaw": "TAF LICA 072300Z 0800/0824 28020G32KT 7000 BKN020 \n  TEMPO 0800/0815 3000 RA \n  BECMG 0815/0817 29013KT",
      "metarHtml": "METAR LICA 072320Z AUTO 25017G32KT 9999 <span class=\"hl\">RA</span> BKN033/// 10/06 Q1008",
      "tafHtml": "TAF LICA 072300Z 0800/0824 28020G32KT 7000 BKN020 \n  TEMPO 0800/0815 3000 <span class=\"hl\">RA</span> \n  BECMG 0815/0817 29013KT"
    },
    {
      "icao": "LMML",
      "iata": "MLA",
      "name": "Malta International Airport",
      "updatedAt": "072345Z",
      "visibility_m": 10000,
      "taf_visibility_m": 8000,
      "worst_visibility_m": 8000,
      "ceiling_ft": null,
      "hazards": [
        "RA"
      ],
      "severityScore": 12,
      "metarRaw": "METAR LMML 072345Z 28019KT 9999 FEW020 11/06 Q1016 NOSIG",
      "tafRaw": "TAF LMML 072300Z 0800/0824 29025G35KT 9999 SCT025 \n  PROB40 \n  TEMPO 0800/0824 8000 RA BKN020TCU",
      "metarHtml": "METAR LMML 072345Z 28019KT 9999 FEW020 11/06 Q1016 NOSIG",
      "tafHtml": "TAF LMML 072300Z 0800/0824 29025G35KT 9999 SCT025 \n  PROB40 \n  TEMPO 0800/0824 8000 <span class=\"hl\">RA</span> BKN020TCU"
    },
    {
      "icao": "LPPS",
      "iata": "PXO",
      "name": "Porto Santo Airport",
      "updatedAt": "072330Z",
      "visibility_m": 10000,
      "taf_visibility_m": 6000,
      "worst_visibility_m": 6000,
      "ceiling_ft": null,
      "hazards": [
        "RA"
      ],
      "severityScore": 12,
      "metarRaw": "METAR LPPS 072330Z 04006KT 010V070 9999 FEW015 15/10 Q1034",
      "tafRaw": "TAF LPPS 072300Z 0800/0906 04007KT 9999 SCT015 \n  TEMPO 0800/0906 FEW015 BKN030 \n  PROB30 \n  TEMPO 0820/0906 6000 -RA SCT006 BKN012",
      "metarHtml": "METAR LPPS 072330Z 04006KT 010V070 9999 FEW015 15/10 Q1034",
      "tafHtml": "TAF LPPS 072300Z 0800/0906 04007KT 9999 SCT015 \n  TEMPO 0800/0906 FEW015 BKN030 \n  PROB30 \n  TEMPO 0820/0906 6000 -<span class=\"hl\">RA</span> SCT006 BKN012"
    },
    {
      "icao": "LWOH",
      "iata": "OHD",
      "name": "Ohrid St. Paul the Apostle Airport",
      "updatedAt": null,
      "visibility_m": null,
      "taf_visibility_m": 5000,
      "worst_visibility_m": 5000,
      "ceiling_ft": null,
      "hazards": [
        "RA"
      ],
      "severityScore": 12,
      "metarRaw": null,
      "tafRaw": "TAF LWOH 072325Z 0800/0824 19012KT 9999 -RA SCT015 OVC035 \n  BECMG 0802/0804 25015KT \n  TEMPO 0806/0810 5000 SNRA BKN010 OVC030 \n  BECMG 0811/0813 33010KT NSW SCT030 BKN050",
      "metarHtml": null,
      "tafHtml": "TAF LWOH 072325Z 0800/0824 19012KT 9999 -<span class=\"hl\">RA</span> SCT015 OVC035 \n  BECMG 0802/0804 25015KT \n  TEMPO 0806/0810 5000 SNRA BKN010 OVC030 \n  BECMG 0811/0813 33010KT NSW SCT030 BKN050"
    },
    {
      "icao": "EHEH",
      "iata": "EIN",
      "name": "Eindhoven Airport",
      "updatedAt": "072325Z",
      "visibility_m": 10000,
      "taf_visibility_m": 2500,
      "worst_visibility_m": 2500,
      "ceiling_ft": 4700,
      "hazards": [
        "SHSN"
      ],
      "severityScore": 10,
      "metarRaw": "METAR EHEH 072325Z AUTO 22012KT 9999 SCT042 OVC047 02/M00 Q1005 BLU",
      "tafRaw": "TAF EHEH 072330Z 0800/0906 21014KT 9999 SCT025 \n  TEMPO 0800/0801 2500 -SHSN SCT003 BKN005 FEW015CB \n  BECMG 0814/0816 13005KT SCT012 BKN015 OVC018 \n  TEMPO 0817/0901 3500 RADZ RASN SCT005 BKN007 OVC010 \n  BECMG 0900/0902 17012G23KT SCT030 \n  PROB30 \n  TEMPO 0902/0904 SCT020CB \n  BECMG 0904/0906 SCT015 BKN018 \n  TEMPO 0905/0906 3500 RADZ SCT007 BKN012",
      "metarHtml": "METAR EHEH 072325Z AUTO 22012KT 9999 SCT042 OVC047 02/M00 Q1005 BLU",
      "tafHtml": "TAF EHEH 072330Z 0800/0906 21014KT 9999 SCT025 \n  TEMPO 0800/0801 2500 -<span class=\"hl\">SHSN</span> SCT003 BKN005 FEW015CB \n  BECMG 0814/0816 13005KT SCT012 BKN015 OVC018 \n  TEMPO 0817/0901 3500 RADZ RASN SCT005 BKN007 OVC010 \n  BECMG 0900/0902 17012G23KT SCT030 \n  PROB30 \n  TEMPO 0902/0904 SCT020CB \n  BECMG 0904/0906 SCT015 BKN018 \n  TEMPO 0905/0906 3500 RADZ SCT007 BKN012"
    },
    {
      "icao": "EPMO",
      "iata": "WMI",
      "name": "Modlin Airport",
      "updatedAt": "072330Z",
      "visibility_m": 3500,
      "taf_visibility_m": 2000,
      "worst_visibility_m": 2000,
      "ceiling_ft": null,
      "hazards": [
        "BR"
      ],
      "severityScore": 10,
      "metarRaw": "METAR EPMO 072330Z 36002KT 3500 BR NSC M14/M15 Q1014",
      "tafRaw": "TAF EPMO 072330Z 0800/0824 VRB02KT 3500 BR NSC \n  TEMPO 0800/0806 2000 BR \n  PROB40 0800/0809 BKN005 \n  BECMG 0806/0809 03010KT \n  BECMG 0809/0811 8000 BKN012 \n  BECMG 0811/0813 BKN015",
      "metarHtml": "METAR EPMO 072330Z 36002KT 3500 <span class=\"hl\">BR</span> NSC M14/M15 Q1014",
      "tafHtml": "TAF EPMO 072330Z 0800/0824 VRB02KT 3500 <span class=\"hl\">BR</span> NSC \n  TEMPO 0800/0806 2000 <span class=\"hl\">BR</span> \n  PROB40 0800/0809 BKN005 \n  BECMG 0806/0809 03010KT \n  BECMG 0809/0811 8000 BKN012 \n  BECMG 0811/0813 BKN015"
    },
    {
      "icao": "EPSC",
      "iata": "SZZ",
      "name": "Solidarity Szczecin–Goleniów Airport",
      "updatedAt": "072330Z",
      "visibility_m": 10000,
      "taf_visibility_m": 4500,
      "worst_visibility_m": 4500,
      "ceiling_ft": null,
      "hazards": [
        "BR"
      ],
      "severityScore": 10,
      "metarRaw": "METAR EPSC 072330Z 13010KT CAVOK M08/M10 Q1012",
      "tafRaw": "TAF EPSC 072330Z 0800/0824 13008KT CAVOK \n  PROB40 0802/0809 4500 BR BKN005",
      "metarHtml": "METAR EPSC 072330Z 13010KT <span class=\"hl-vis\">CAVOK</span> M08/M10 Q1012",
      "tafHtml": "TAF EPSC 072330Z 0800/0824 13008KT <span class=\"hl-vis\">CAVOK</span> \n  PROB40 0802/0809 4500 <span class=\"hl\">BR</span> BKN005"
    },
    {
      "icao": "EPSY",
      "iata": "SZY",
      "name": "Olsztyn-Mazury Airport",
      "updatedAt": "072330Z",
      "visibility_m": 5000,
      "taf_visibility_m": 2000,
      "worst_visibility_m": 2000,
      "ceiling_ft": null,
      "hazards": [
        "BR"
      ],
      "severityScore": 10,
      "metarRaw": "METAR EPSY 072330Z 04002KT 5000 BR SCT002 M17/M19 Q1014",
      "tafRaw": "TAF EPSY 072330Z 0800/0809 VRB02KT 5000 BR NSC \n  PROB40 \n  TEMPO 0800/0806 2000 BR BKN002",
      "metarHtml": "METAR EPSY 072330Z 04002KT 5000 <span class=\"hl\">BR</span> SCT002 M17/M19 Q1014",
      "tafHtml": "TAF EPSY 072330Z 0800/0809 VRB02KT 5000 <span class=\"hl\">BR</span> NSC \n  PROB40 \n  TEMPO 0800/0806 2000 <span class=\"hl\">BR</span> BKN002"
    },
    {
      "icao": "EPWR",
      "iata": "WRO",
      "name": "Copernicus Wrocław Airport",
      "updatedAt": "072330Z",
      "visibility_m": 4000,
      "taf_visibility_m": 3500,
      "worst_visibility_m": 3500,
      "ceiling_ft": null,
      "hazards": [
        "BR"
      ],
      "severityScore": 10,
      "metarRaw": "METAR EPWR 072330Z 01001KT 4000 BR FEW029 M10/M10 Q1013",
      "tafRaw": "TAF EPWR 072330Z 0800/0824 VRB02KT 3500 BR SCT026 \n  TEMPO 0800/0807 5000 BR \n  BECMG 0807/0810 6000",
      "metarHtml": "METAR EPWR 072330Z 01001KT 4000 <span class=\"hl\">BR</span> FEW029 M10/M10 Q1013",
      "tafHtml": "TAF EPWR 072330Z 0800/0824 VRB02KT 3500 <span class=\"hl\">BR</span> SCT026 \n  TEMPO 0800/0807 5000 <span class=\"hl\">BR</span> \n  BECMG 0807/0810 6000"
    },
    {
      "icao": "HESX",
      "iata": "SPX",
      "name": "Sphinx International Airport",
      "updatedAt": "072300Z",
      "visibility_m": 4000,
      "taf_visibility_m": 2000,
      "worst_visibility_m": 2000,
      "ceiling_ft": null,
      "hazards": [
        "BR"
      ],
      "severityScore": 10,
      "metarRaw": "METAR HESX 072300Z 08003KT 4000 BR NSC 12/09 Q1019 NOSIG",
      "tafRaw": "TAF HESX 072300Z 0800/0906 13007KT 6000 NSC \n  TEMPO 0800/0806 VRB03KT 4000 BR \n  TEMPO 0802/0806 2000 \n  PROB30 \n  TEMPO 0810/0816 13010G20KT 4000 SA",
      "metarHtml": "METAR HESX 072300Z 08003KT 4000 <span class=\"hl\">BR</span> NSC 12/09 Q1019 NOSIG",
      "tafHtml": "TAF HESX 072300Z 0800/0906 13007KT 6000 NSC \n  TEMPO 0800/0806 VRB03KT 4000 <span class=\"hl\">BR</span> \n  TEMPO 0802/0806 2000 \n  PROB30 \n  TEMPO 0810/0816 13010G20KT 4000 SA"
    },
    {
      "icao": "LEZL",
      "iata": "SVQ",
      "name": "Sevilla Airport",
      "updatedAt": "072330Z",
      "visibility_m": 10000,
      "taf_visibility_m": 4000,
      "worst_visibility_m": 4000,
      "ceiling_ft": 3000,
      "hazards": [
        "BR"
      ],
      "severityScore": 10,
      "metarRaw": "METAR LEZL 072330Z VRB02KT 9999 BKN030 OVC040 09/08 Q1032 NOSIG",
      "tafRaw": "TAF LEZL 072000Z 0721/0821 25004KT 9999 SCT020 TX14/0815Z TN04/0807Z \n  PROB30 \n  TEMPO 0800/0807 4000 BR",
      "metarHtml": "METAR LEZL 072330Z VRB02KT 9999 BKN030 OVC040 09/08 Q1032 NOSIG",
      "tafHtml": "TAF LEZL 072000Z 0721/0821 25004KT 9999 SCT020 TX14/0815Z TN04/0807Z \n  PROB30 \n  TEMPO 0800/0807 4000 <span class=\"hl\">BR</span>"
    },
    {
      "icao": "OEJN",
      "iata": "JED",
      "name": "King Abdulaziz International Airport",
      "updatedAt": "072300Z",
      "visibility_m": 10000,
      "taf_visibility_m": 3000,
      "worst_visibility_m": 3000,
      "ceiling_ft": null,
      "hazards": [
        "BR"
      ],
      "severityScore": 10,
      "metarRaw": "METAR OEJN 072300Z 36003KT CAVOK 24/17 Q1016 NOSIG",
      "tafRaw": "TAF OEJN 072300Z 0800/0906 VRB03KT 7000 NSC \n  PROB30 \n  TEMPO 0800/0805 3000 BR \n  BECMG 0808/0810 22010KT 9999 FEW040 \n  BECMG 0818/0820 VRB03KT 7000 NSC",
      "metarHtml": "METAR OEJN 072300Z 36003KT <span class=\"hl-vis\">CAVOK</span> 24/17 Q1016 NOSIG",
      "tafHtml": "TAF OEJN 072300Z 0800/0906 VRB03KT 7000 NSC \n  PROB30 \n  TEMPO 0800/0805 3000 <span class=\"hl\">BR</span> \n  BECMG 0808/0810 22010KT 9999 FEW040 \n  BECMG 0818/0820 VRB03KT 7000 NSC"
    },
    {
      "icao": "LECH",
      "iata": "CDT",
      "name": "Castellón-Costa Azahar Airport",
      "updatedAt": "072330Z",
      "visibility_m": 10000,
      "taf_visibility_m": null,
      "worst_visibility_m": 10000,
      "ceiling_ft": null,
      "hazards": [],
      "severityScore": 5,
      "metarRaw": "METAR LECH 072330Z AUTO 31010KT CAVOK 10/00 Q1022",
      "tafRaw": null,
      "metarHtml": "METAR LECH 072330Z AUTO 31010KT <span class=\"hl-vis\">CAVOK</span> 10/00 Q1022",
      "tafHtml": null
    },
    {
      "icao": "LFLS",
      "iata": "GNB",
      "name": "Grenoble Alpes Isère Airport",
      "updatedAt": "072330Z",
      "visibility_m": 10000,
      "taf_visibility_m": null,
      "worst_visibility_m": 10000,
      "ceiling_ft": 6400,
      "hazards": [],
      "severityScore": 5,
      "metarRaw": "METAR LFLS 072330Z AUTO 08009KT 9999 FEW026 OVC064 M02/M03 Q1016",
      "tafRaw": null,
      "metarHtml": "METAR LFLS 072330Z AUTO 08009KT 9999 FEW026 OVC064 M02/M03 Q1016",
      "tafHtml": null
    },
    {
      "icao": "LWSK",
      "iata": "SKP",
      "name": "Skopje International Airport",
      "updatedAt": "072350Z",
      "visibility_m": 6000,
      "taf_visibility_m": null,
      "worst_visibility_m": 6000,
      "ceiling_ft": 3000,
      "hazards": [],
      "severityScore": 5,
      "metarRaw": "METAR LWSK 072350Z 22003KT 140V300 6000 SCT015 OVC030 08/08 Q1000 NOSIG",
      "tafRaw": null,
      "metarHtml": "METAR LWSK 072350Z 22003KT 140V300 6000 SCT015 OVC030 08/08 Q1000 NOSIG",
      "tafHtml": null
    },
    {
      "icao": "BIKF",
      "iata": "KEF",
      "name": "Keflavik International Airport",
      "updatedAt": "072330Z",
      "visibility_m": 10000,
      "taf_visibility_m": 10000,
      "worst_visibility_m": 10000,
      "ceiling_ft": null,
      "hazards": [],
      "severityScore": 0,
      "metarRaw": "METAR BIKF 072330Z 06010KT CAVOK M02/M08 Q1001",
      "tafRaw": "TAF BIKF 072219Z 0800/0900 07018KT 9999 FEW045 TX02/0816Z TNM02/0800Z \n  TEMPO 0806/0810 07020G32KT \n  BECMG 0818/0820 06008KT",
      "metarHtml": "METAR BIKF 072330Z 06010KT <span class=\"hl-vis\">CAVOK</span> M02/M08 Q1001",
      "tafHtml": "TAF BIKF 072219Z 0800/0900 07018KT 9999 FEW045 TX02/0816Z TNM02/0800Z \n  TEMPO 0806/0810 07020G32KT \n  BECMG 0818/0820 06008KT"
    },
    {
      "icao": "GCFV",
      "iata": "FUE",
      "name": "Fuerteventura Airport",
      "updatedAt": "072330Z",
      "visibility_m": 10000,
      "taf_visibility_m": 10000,
      "worst_visibility_m": 10000,
      "ceiling_ft": null,
      "hazards": [],
      "severityScore": 0,
      "metarRaw": "METAR GCFV 072330Z AUTO 04022KT 9999 FEW038 17/09 Q1030",
      "tafRaw": "TAF GCFV 072000Z 0721/0821 05019KT 9999 FEW035 TX20/0814Z TN14/0806Z \n  TEMPO 0812/0819 14008KT",
      "metarHtml": "METAR GCFV 072330Z AUTO 04022KT 9999 FEW038 17/09 Q1030",
      "tafHtml": "TAF GCFV 072000Z 0721/0821 05019KT 9999 FEW035 TX20/0814Z TN14/0806Z \n  TEMPO 0812/0819 14008KT"
    },
    {
      "icao": "GCLP",
      "iata": "LPA",
      "name": "Gran Canaria Airport",
      "updatedAt": "072330Z",
      "visibility_m": 10000,
      "taf_visibility_m": 10000,
      "worst_visibility_m": 10000,
      "ceiling_ft": 4500,
      "hazards": [],
      "severityScore": 0,
      "metarRaw": "METAR GCLP 072330Z 04018KT 9999 FEW038 BKN045 17/10 Q1030 NOSIG",
      "tafRaw": "TAF GCLP 072000Z 0721/0821 03019KT 9999 SCT035 TX20/0814Z TN14/0806Z \n  BECMG 0814/0816 05009KT",
      "metarHtml": "METAR GCLP 072330Z 04018KT 9999 FEW038 BKN045 17/10 Q1030 NOSIG",
      "tafHtml": "TAF GCLP 072000Z 0721/0821 03019KT 9999 SCT035 TX20/0814Z TN14/0806Z \n  BECMG 0814/0816 05009KT"
    },
    {
      "icao": "GCTS",
      "iata": "TFS",
      "name": "Tenerife Sur Airport",
      "updatedAt": "072330Z",
      "visibility_m": 10000,
      "taf_visibility_m": 10000,
      "worst_visibility_m": 10000,
      "ceiling_ft": null,
      "hazards": [],
      "severityScore": 0,
      "metarRaw": "METAR GCTS 072330Z 07020KT 9999 SCT040 17/08 Q1029 NOSIG",
      "tafRaw": "TAF GCTS 072000Z 0721/0821 05019KT 9999 FEW035 TX23/0814Z TN16/0806Z \n  PROB40 \n  TEMPO 0721/0803 08020G30KT",
      "metarHtml": "METAR GCTS 072330Z 07020KT 9999 SCT040 17/08 Q1029 NOSIG",
      "tafHtml": "TAF GCTS 072000Z 0721/0821 05019KT 9999 FEW035 TX23/0814Z TN16/0806Z \n  PROB40 \n  TEMPO 0721/0803 08020G30KT"
    },
    {
      "icao": "GMAD",
      "iata": "AGA",
      "name": "Al Massira Airport",
      "updatedAt": "072330Z",
      "visibility_m": 10000,
      "taf_visibility_m": 10000,
      "worst_visibility_m": 10000,
      "ceiling_ft": null,
      "hazards": [],
      "severityScore": 0,
      "metarRaw": "METAR GMAD 072330Z 04006KT CAVOK 08/06 Q1028 NOSIG",
      "tafRaw": "TAF GMAD 072300Z 0800/0906 07006KT CAVOK",
      "metarHtml": "METAR GMAD 072330Z 04006KT <span class=\"hl-vis\">CAVOK</span> 08/06 Q1028 NOSIG",
      "tafHtml": "TAF GMAD 072300Z 0800/0906 07006KT <span class=\"hl-vis\">CAVOK</span>"
    },
    {
      "icao": "GMMN",
      "iata": "CMN",
      "name": "Mohammed V International Airport",
      "updatedAt": "072330Z",
      "visibility_m": 10000,
      "taf_visibility_m": 5000,
      "worst_visibility_m": 5000,
      "ceiling_ft": null,
      "hazards": [],
      "severityScore": 0,
      "metarRaw": "METAR GMMN 072330Z 16006KT CAVOK 05/03 Q1032 NOSIG",
      "tafRaw": "TAF GMMN 072300Z 0800/0906 16005KT CAVOK \n  BECMG 0810/0813 36008KT \n  BECMG 0820/0824 VRB02KT 8000 SCT010 \n  PROB40 0902/0906 5000 BKN006",
      "metarHtml": "METAR GMMN 072330Z 16006KT <span class=\"hl-vis\">CAVOK</span> 05/03 Q1032 NOSIG",
      "tafHtml": "TAF GMMN 072300Z 0800/0906 16005KT <span class=\"hl-vis\">CAVOK</span> \n  BECMG 0810/0813 36008KT \n  BECMG 0820/0824 VRB02KT 8000 SCT010 \n  PROB40 0902/0906 5000 BKN006"
    },
    {
      "icao": "GMMX",
      "iata": "RAK",
      "name": "Menara Airport",
      "updatedAt": "072330Z",
      "visibility_m": 10000,
      "taf_visibility_m": 8000,
      "worst_visibility_m": 8000,
      "ceiling_ft": null,
      "hazards": [],
      "severityScore": 0,
      "metarRaw": "METAR GMMX 072330Z VRB02KT CAVOK 07/03 Q1030 NOSIG",
      "tafRaw": "TAF GMMX 072300Z 0800/0906 22006KT 8000 NSC",
      "metarHtml": "METAR GMMX 072330Z VRB02KT <span class=\"hl-vis\">CAVOK</span> 07/03 Q1030 NOSIG",
      "tafHtml": "TAF GMMX 072300Z 0800/0906 22006KT 8000 NSC"
    },
    {
      "icao": "EFTU",
      "iata": "TKU",
      "name": "Turku Airport",
      "updatedAt": "072350Z",
      "visibility_m": 10000,
      "taf_visibility_m": 10000,
      "worst_visibility_m": 10000,
      "ceiling_ft": 2100,
      "hazards": [],
      "severityScore": 0,
      "metarRaw": "METAR EFTU 072350Z AUTO 10009KT 9999 FEW013 OVC021 M09/M11 Q1017",
      "tafRaw": "TAF EFTU 072327Z 0800/0824 10009KT 9999 BKN012 \n  BECMG 0800/0802 SCT012 \n  PROB30 \n  TEMPO 0808/0815 BKN008",
      "metarHtml": "METAR EFTU 072350Z AUTO 10009KT 9999 FEW013 OVC021 M09/M11 Q1017",
      "tafHtml": "TAF EFTU 072327Z 0800/0824 10009KT 9999 BKN012 \n  BECMG 0800/0802 SCT012 \n  PROB30 \n  TEMPO 0808/0815 BKN008"
    },
    {
      "icao": "EKCH",
      "iata": "CPH",
      "name": "Copenhagen Kastrup Airport",
      "updatedAt": "072320Z",
      "visibility_m": 10000,
      "taf_visibility_m": 10000,
      "worst_visibility_m": 10000,
      "ceiling_ft": null,
      "hazards": [],
      "severityScore": 0,
      "metarRaw": "METAR EKCH 072320Z AUTO 18016KT 9999 BKN017/// M01/M04 Q1007 TEMPO 17015G25KT",
      "tafRaw": "TAF EKCH 072327Z 0800/0824 17015KT 9999 BKN016 \n  TEMPO 0800/0804 18015G25KT \n  TEMPO 0804/0812 BKN012 \n  BECMG 0815/0818 11012KT",
      "metarHtml": "METAR EKCH 072320Z AUTO 18016KT 9999 BKN017/// M01/M04 Q1007 TEMPO 17015G25KT",
      "tafHtml": "TAF EKCH 072327Z 0800/0824 17015KT 9999 BKN016 \n  TEMPO 0800/0804 18015G25KT \n  TEMPO 0804/0812 BKN012 \n  BECMG 0815/0818 11012KT"
    },
    {
      "icao": "ENAL",
      "iata": "AES",
      "name": "Ålesund Airport, Vigra",
      "updatedAt": "072320Z",
      "visibility_m": 10000,
      "taf_visibility_m": 10000,
      "worst_visibility_m": 10000,
      "ceiling_ft": null,
      "hazards": [],
      "severityScore": 0,
      "metarRaw": "METAR ENAL 072320Z AUTO 11015KT 9999 NCD M04/M12 Q1005",
      "tafRaw": "TAF ENAL 072300Z 0800/0809 13012KT CAVOK",
      "metarHtml": "METAR ENAL 072320Z AUTO 11015KT 9999 NCD M04/M12 Q1005",
      "tafHtml": "TAF ENAL 072300Z 0800/0809 13012KT <span class=\"hl-vis\">CAVOK</span>"
    },
    {
      "icao": "ENBR",
      "iata": "BGO",
      "name": "Bergen Airport, Flesland",
      "updatedAt": "072320Z",
      "visibility_m": 10000,
      "taf_visibility_m": 10000,
      "worst_visibility_m": 10000,
      "ceiling_ft": null,
      "hazards": [],
      "severityScore": 0,
      "metarRaw": "METAR ENBR 072320Z 09003KT CAVOK M09/M15 Q1004 RMK WIND 1200FT VRB02KT",
      "tafRaw": "TAF ENBR 072300Z 0800/0824 06005KT CAVOK",
      "metarHtml": "METAR ENBR 072320Z 09003KT <span class=\"hl-vis\">CAVOK</span> M09/M15 Q1004 RMK WIND 1200FT VRB02KT",
      "tafHtml": "TAF ENBR 072300Z 0800/0824 06005KT <span class=\"hl-vis\">CAVOK</span>"
    },
    {
      "icao": "ENHD",
      "iata": "HAU",
      "name": "Haugesund Airport, Karmøy",
      "updatedAt": "072320Z",
      "visibility_m": 10000,
      "taf_visibility_m": 10000,
      "worst_visibility_m": 10000,
      "ceiling_ft": null,
      "hazards": [],
      "severityScore": 0,
      "metarRaw": "METAR ENHD 072320Z AUTO 05005KT 9999 NCD M11/M13 Q1004",
      "tafRaw": "TAF ENHD 071400Z 0715/0723 07008KT CAVOK",
      "metarHtml": "METAR ENHD 072320Z AUTO 05005KT 9999 NCD M11/M13 Q1004",
      "tafHtml": "TAF ENHD 071400Z 0715/0723 07008KT <span class=\"hl-vis\">CAVOK</span>"
    },
    {
      "icao": "ENTC",
      "iata": "TOS",
      "name": "Tromsø Airport, Langnes",
      "updatedAt": "072320Z",
      "visibility_m": 10000,
      "taf_visibility_m": 10000,
      "worst_visibility_m": 10000,
      "ceiling_ft": null,
      "hazards": [],
      "severityScore": 0,
      "metarRaw": "METAR ENTC 072320Z 09002KT CAVOK M13/M15 Q1022 RMK WIND 2600FT 08011KT",
      "tafRaw": "TAF ENTC 072300Z 0800/0824 VRB03KT CAVOK \n  BECMG 0802/0804 19014KT \n  TEMPO 0812/0818 VRB03KT",
      "metarHtml": "METAR ENTC 072320Z 09002KT <span class=\"hl-vis\">CAVOK</span> M13/M15 Q1022 RMK WIND 2600FT 08011KT",
      "tafHtml": "TAF ENTC 072300Z 0800/0824 VRB03KT <span class=\"hl-vis\">CAVOK</span> \n  BECMG 0802/0804 19014KT \n  TEMPO 0812/0818 VRB03KT"
    },
    {
      "icao": "ENZV",
      "iata": "SVG",
      "name": "Stavanger Airport, Sola",
      "updatedAt": "072320Z",
      "visibility_m": 10000,
      "taf_visibility_m": 10000,
      "worst_visibility_m": 10000,
      "ceiling_ft": null,
      "hazards": [],
      "severityScore": 0,
      "metarRaw": "METAR ENZV 072320Z AUTO 00000KT 9999 NCD M12/M14 Q1003",
      "tafRaw": "TAF ENZV 072300Z 0800/0824 05005KT CAVOK \n  BECMG 0819/0821 12015KT",
      "metarHtml": "METAR ENZV 072320Z AUTO 00000KT 9999 NCD M12/M14 Q1003",
      "tafHtml": "TAF ENZV 072300Z 0800/0824 05005KT <span class=\"hl-vis\">CAVOK</span> \n  BECMG 0819/0821 12015KT"
    },
    {
      "icao": "ESKN",
      "iata": "NYO",
      "name": "Stockholm Skavsta Airport",
      "updatedAt": "072320Z",
      "visibility_m": 10000,
      "taf_visibility_m": 10000,
      "worst_visibility_m": 10000,
      "ceiling_ft": null,
      "hazards": [],
      "severityScore": 0,
      "metarRaw": "METAR ESKN 072320Z 18006KT CAVOK M01/M02 Q1010",
      "tafRaw": "TAF ESKN 072330Z 0800/0824 18007KT 9999 BKN045 \n  BECMG 0806/0808 18015G25KT \n  BECMG 0814/0816 18009KT",
      "metarHtml": "METAR ESKN 072320Z 18006KT <span class=\"hl-vis\">CAVOK</span> M01/M02 Q1010",
      "tafHtml": "TAF ESKN 072330Z 0800/0824 18007KT 9999 BKN045 \n  BECMG 0806/0808 18015G25KT \n  BECMG 0814/0816 18009KT"
    },
    {
      "icao": "ESMS",
      "iata": "MMX",
      "name": "Malmö Sturup Airport",
      "updatedAt": "072320Z",
      "visibility_m": 10000,
      "taf_visibility_m": 10000,
      "worst_visibility_m": 10000,
      "ceiling_ft": null,
      "hazards": [],
      "severityScore": 0,
      "metarRaw": "METAR ESMS 072320Z 17013KT CAVOK M03/M06 Q1007",
      "tafRaw": "TAF ESMS 072327Z 0800/0824 17014KT 9999 BKN016 \n  BECMG 0816/0819 11006KT",
      "metarHtml": "METAR ESMS 072320Z 17013KT <span class=\"hl-vis\">CAVOK</span> M03/M06 Q1007",
      "tafHtml": "TAF ESMS 072327Z 0800/0824 17014KT 9999 BKN016 \n  BECMG 0816/0819 11006KT"
    },
    {
      "icao": "HEGN",
      "iata": "HRG",
      "name": "Hurghada International Airport",
      "updatedAt": null,
      "visibility_m": null,
      "taf_visibility_m": 10000,
      "worst_visibility_m": 10000,
      "ceiling_ft": null,
      "hazards": [],
      "severityScore": 0,
      "metarRaw": null,
      "tafRaw": "TAF HEGN 072300Z 0800/0906 28010KT CAVOK",
      "metarHtml": null,
      "tafHtml": "TAF HEGN 072300Z 0800/0906 28010KT <span class=\"hl-vis\">CAVOK</span>"
    },
    {
      "icao": "HEMA",
      "iata": "RMF",
      "name": "Marsa Alam International Airport",
      "updatedAt": "072300Z",
      "visibility_m": 10000,
      "taf_visibility_m": 4000,
      "worst_visibility_m": 4000,
      "ceiling_ft": null,
      "hazards": [],
      "severityScore": 0,
      "metarRaw": "METAR HEMA 072300Z 30010KT CAVOK 20/08 Q1018 NOSIG",
      "tafRaw": "TAF HEMA 072300Z 0800/0906 29012KT 6000 NSC \n  TEMPO 0803/0815 4000 SA",
      "metarHtml": "METAR HEMA 072300Z 30010KT <span class=\"hl-vis\">CAVOK</span> 20/08 Q1018 NOSIG",
      "tafHtml": "TAF HEMA 072300Z 0800/0906 29012KT 6000 NSC \n  TEMPO 0803/0815 4000 SA"
    },
    {
      "icao": "HESH",
      "iata": "SSH",
      "name": "Sharm El Sheikh International Airport",
      "updatedAt": "072300Z",
      "visibility_m": 10000,
      "taf_visibility_m": 10000,
      "worst_visibility_m": 10000,
      "ceiling_ft": null,
      "hazards": [],
      "severityScore": 0,
      "metarRaw": "METAR HESH 072300Z 32005KT CAVOK 19/11 Q1020 NOSIG",
      "tafRaw": "TAF HESH 072300Z 0800/0906 32009KT CAVOK",
      "metarHtml": "METAR HESH 072300Z 32005KT <span class=\"hl-vis\">CAVOK</span> 19/11 Q1020 NOSIG",
      "tafHtml": "TAF HESH 072300Z 0800/0906 32009KT <span class=\"hl-vis\">CAVOK</span>"
    },
    {
      "icao": "LEAL",
      "iata": "ALC",
      "name": "Alicante-Elche Miguel Hernández Airport",
      "updatedAt": "072330Z",
      "visibility_m": 10000,
      "taf_visibility_m": 10000,
      "worst_visibility_m": 10000,
      "ceiling_ft": null,
      "hazards": [],
      "severityScore": 0,
      "metarRaw": "METAR LEAL 072330Z 26012KT 240V300 CAVOK 11/02 Q1026 NOSIG",
      "tafRaw": "TAF LEAL 072300Z 0800/0824 29010KT CAVOK TX16/0814Z TN07/0806Z \n  TEMPO 0800/0815 29015G25KT \n  PROB40 \n  TEMPO 0802/0808 29020G30KT \n  PROB30 \n  TEMPO 0823/0824 27020G30KT",
      "metarHtml": "METAR LEAL 072330Z 26012KT 240V300 <span class=\"hl-vis\">CAVOK</span> 11/02 Q1026 NOSIG",
      "tafHtml": "TAF LEAL 072300Z 0800/0824 29010KT <span class=\"hl-vis\">CAVOK</span> TX16/0814Z TN07/0806Z \n  TEMPO 0800/0815 29015G25KT \n  PROB40 \n  TEMPO 0802/0808 29020G30KT \n  PROB30 \n  TEMPO 0823/0824 27020G30KT"
    },
    {
      "icao": "LEBL",
      "iata": "BCN",
      "name": "Josep Tarradellas Barcelona-El Prat Airport",
      "updatedAt": "072330Z",
      "visibility_m": 10000,
      "taf_visibility_m": 10000,
      "worst_visibility_m": 10000,
      "ceiling_ft": null,
      "hazards": [],
      "severityScore": 0,
      "metarRaw": "METAR LEBL 072330Z 33007KT 9999 FEW020 SCT060 05/00 Q1020 NOSIG",
      "tafRaw": "TAF LEBL 072300Z 0800/0824 33008KT 9999 FEW020 TX15/0813Z TN04/0806Z \n  TEMPO 0810/0813 32015KT \n  TEMPO 0814/0816 33018G28KT",
      "metarHtml": "METAR LEBL 072330Z 33007KT 9999 FEW020 SCT060 05/00 Q1020 NOSIG",
      "tafHtml": "TAF LEBL 072300Z 0800/0824 33008KT 9999 FEW020 TX15/0813Z TN04/0806Z \n  TEMPO 0810/0813 32015KT \n  TEMPO 0814/0816 33018G28KT"
    },
    {
      "icao": "LEMG",
      "iata": "AGP",
      "name": "Málaga-Costa del Sol Airport",
      "updatedAt": "072330Z",
      "visibility_m": 10000,
      "taf_visibility_m": 10000,
      "worst_visibility_m": 10000,
      "ceiling_ft": 4400,
      "hazards": [],
      "severityScore": 0,
      "metarRaw": "METAR LEMG 072330Z 26011KT 9999 FEW029 BKN044 09/05 Q1030 NOSIG",
      "tafRaw": "TAF LEMG 072300Z 0800/0824 29012KT 9999 SCT035 TX16/0814Z TN06/0806Z",
      "metarHtml": "METAR LEMG 072330Z 26011KT 9999 FEW029 BKN044 09/05 Q1030 NOSIG",
      "tafHtml": "TAF LEMG 072300Z 0800/0824 29012KT 9999 SCT035 TX16/0814Z TN06/0806Z"
    },
    {
      "icao": "LEVC",
      "iata": "VLC",
      "name": "Valencia Airport",
      "updatedAt": "072330Z",
      "visibility_m": 10000,
      "taf_visibility_m": 10000,
      "worst_visibility_m": 10000,
      "ceiling_ft": null,
      "hazards": [],
      "severityScore": 0,
      "metarRaw": "METAR LEVC 072330Z 26010KT CAVOK 08/01 Q1024 NOSIG",
      "tafRaw": "TAF LEVC 072300Z 0800/0824 25010KT CAVOK TX15/0814Z TN06/0806Z \n  TEMPO 0802/0822 25015G25KT \n  PROB40 \n  TEMPO 0808/0817 25020G30KT",
      "metarHtml": "METAR LEVC 072330Z 26010KT <span class=\"hl-vis\">CAVOK</span> 08/01 Q1024 NOSIG",
      "tafHtml": "TAF LEVC 072300Z 0800/0824 25010KT <span class=\"hl-vis\">CAVOK</span> TX15/0814Z TN06/0806Z \n  TEMPO 0802/0822 25015G25KT \n  PROB40 \n  TEMPO 0808/0817 25020G30KT"
    },
    {
      "icao": "LEZG",
      "iata": "ZAZ",
      "name": "Zaragoza Airport",
      "updatedAt": "072330Z",
      "visibility_m": 10000,
      "taf_visibility_m": 10000,
      "worst_visibility_m": 10000,
      "ceiling_ft": null,
      "hazards": [],
      "severityScore": 0,
      "metarRaw": "METAR LEZG 072330Z 30009KT CAVOK 07/02 Q1023 NOSIG",
      "tafRaw": "TAF LEZG 072300Z 0800/0824 30007KT 9999 FEW030 TX12/0815Z TN05/0806Z \n  BECMG 0818/0820 24012KT \n  TEMPO 0800/0812 24015G25KT \n  TEMPO 0803/0805 24020G30KT \n  PROB40 \n  TEMPO 0808/0812 24023G33KT",
      "metarHtml": "METAR LEZG 072330Z 30009KT <span class=\"hl-vis\">CAVOK</span> 07/02 Q1023 NOSIG",
      "tafHtml": "TAF LEZG 072300Z 0800/0824 30007KT 9999 FEW030 TX12/0815Z TN05/0806Z \n  BECMG 0818/0820 24012KT \n  TEMPO 0800/0812 24015G25KT \n  TEMPO 0803/0805 24020G30KT \n  PROB40 \n  TEMPO 0808/0812 24023G33KT"
    },
    {
      "icao": "LFMN",
      "iata": "NCE",
      "name": "Nice-Côte d'Azur Airport",
      "updatedAt": "072330Z",
      "visibility_m": 10000,
      "taf_visibility_m": 10000,
      "worst_visibility_m": 10000,
      "ceiling_ft": null,
      "hazards": [],
      "severityScore": 0,
      "metarRaw": "METAR LFMN 072330Z 33011KT CAVOK 03/M05 Q1010 NOSIG",
      "tafRaw": "TAF LFMN 072000Z 0721/0903 33010KT CAVOK \n  BECMG 0808/0810 VRB05KT \n  BECMG 0810/0812 09010KT \n  BECMG 0816/0818 33010KT \n  BECMG 0900/0902 24020G30KT",
      "metarHtml": "METAR LFMN 072330Z 33011KT <span class=\"hl-vis\">CAVOK</span> 03/M05 Q1010 NOSIG",
      "tafHtml": "TAF LFMN 072000Z 0721/0903 33010KT <span class=\"hl-vis\">CAVOK</span> \n  BECMG 0808/0810 VRB05KT \n  BECMG 0810/0812 09010KT \n  BECMG 0816/0818 33010KT \n  BECMG 0900/0902 24020G30KT"
    },
    {
      "icao": "LIBP",
      "iata": "PSR",
      "name": "Abruzzo Airport",
      "updatedAt": "072320Z",
      "visibility_m": 10000,
      "taf_visibility_m": 10000,
      "worst_visibility_m": 10000,
      "ceiling_ft": null,
      "hazards": [],
      "severityScore": 0,
      "metarRaw": "METAR LIBP 072320Z AUTO 29006KT 260V320 9999 OVC060/// 05/M02 Q1010",
      "tafRaw": "TAF LIBP 072300Z 0800/0824 VRB05KT 9999 BKN030",
      "metarHtml": "METAR LIBP 072320Z AUTO 29006KT 260V320 9999 OVC060/// 05/M02 Q1010",
      "tafHtml": "TAF LIBP 072300Z 0800/0824 VRB05KT 9999 BKN030"
    },
    {
      "icao": "LICC",
      "iata": "CTA",
      "name": "Catania-Fontanarossa Airport",
      "updatedAt": "072320Z",
      "visibility_m": 10000,
      "taf_visibility_m": 10000,
      "worst_visibility_m": 10000,
      "ceiling_ft": null,
      "hazards": [],
      "severityScore": 0,
      "metarRaw": "METAR LICC 072320Z 26017KT CAVOK 08/05 Q1012",
      "tafRaw": "TAF LICC 072300Z 0800/0824 27018KT 9999 FEW060 \n  PROB40 \n  TEMPO 0800/0806 26018G28KT \n  TEMPO 0812/0818 29020G33KT",
      "metarHtml": "METAR LICC 072320Z 26017KT <span class=\"hl-vis\">CAVOK</span> 08/05 Q1012",
      "tafHtml": "TAF LICC 072300Z 0800/0824 27018KT 9999 FEW060 \n  PROB40 \n  TEMPO 0800/0806 26018G28KT \n  TEMPO 0812/0818 29020G33KT"
    },
    {
      "icao": "LIMC",
      "iata": "MXP",
      "name": "Milan Malpensa International Airport",
      "updatedAt": "072320Z",
      "visibility_m": 10000,
      "taf_visibility_m": 10000,
      "worst_visibility_m": 10000,
      "ceiling_ft": null,
      "hazards": [],
      "severityScore": 0,
      "metarRaw": "METAR LIMC 072320Z 02005KT CAVOK M06/M07 Q1010 NOSIG",
      "tafRaw": "TAF LIMC 072300Z 0800/0906 VRB04KT CAVOK",
      "metarHtml": "METAR LIMC 072320Z 02005KT <span class=\"hl-vis\">CAVOK</span> M06/M07 Q1010 NOSIG",
      "tafHtml": "TAF LIMC 072300Z 0800/0906 VRB04KT <span class=\"hl-vis\">CAVOK</span>"
    },
    {
      "icao": "LIME",
      "iata": "BGY",
      "name": "Milan Bergamo Airport / Antonio Locatelli Air Base",
      "updatedAt": "072320Z",
      "visibility_m": 10000,
      "taf_visibility_m": 10000,
      "worst_visibility_m": 10000,
      "ceiling_ft": null,
      "hazards": [],
      "severityScore": 0,
      "metarRaw": "METAR LIME 072320Z 04003KT 020V100 CAVOK M04/M08 Q1010 NOSIG",
      "tafRaw": "TAF LIME 072300Z 0800/0824 VRB04KT CAVOK",
      "metarHtml": "METAR LIME 072320Z 04003KT 020V100 <span class=\"hl-vis\">CAVOK</span> M04/M08 Q1010 NOSIG",
      "tafHtml": "TAF LIME 072300Z 0800/0824 VRB04KT <span class=\"hl-vis\">CAVOK</span>"
    },
    {
      "icao": "LIMF",
      "iata": "TRN",
      "name": "Turin Airport",
      "updatedAt": "072320Z",
      "visibility_m": 10000,
      "taf_visibility_m": 10000,
      "worst_visibility_m": 10000,
      "ceiling_ft": null,
      "hazards": [],
      "severityScore": 0,
      "metarRaw": "METAR LIMF 072320Z AUTO VRB01KT 9999 NCD M03/M09 Q1010",
      "tafRaw": "TAF LIMF 072300Z 0800/0824 VRB03KT CAVOK",
      "metarHtml": "METAR LIMF 072320Z AUTO VRB01KT 9999 NCD M03/M09 Q1010",
      "tafHtml": "TAF LIMF 072300Z 0800/0824 VRB03KT <span class=\"hl-vis\">CAVOK</span>"
    },
    {
      "icao": "LIMJ",
      "iata": "GOA",
      "name": "Genoa Cristoforo Colombo Airport",
      "updatedAt": "072320Z",
      "visibility_m": 10000,
      "taf_visibility_m": 10000,
      "worst_visibility_m": 10000,
      "ceiling_ft": null,
      "hazards": [],
      "severityScore": 0,
      "metarRaw": "METAR LIMJ 072320Z 03006KT 9999 SCT048 04/M14 Q1011",
      "tafRaw": "TAF LIMJ 072300Z 0800/0824 04010KT 9999 FEW050 \n  BECMG 0810/0812 12008KT",
      "metarHtml": "METAR LIMJ 072320Z 03006KT 9999 SCT048 04/M14 Q1011",
      "tafHtml": "TAF LIMJ 072300Z 0800/0824 04010KT 9999 FEW050 \n  BECMG 0810/0812 12008KT"
    },
    {
      "icao": "LIPH",
      "iata": "TSF",
      "name": "Treviso Antonio Canova Airport",
      "updatedAt": "072320Z",
      "visibility_m": 10000,
      "taf_visibility_m": 10000,
      "worst_visibility_m": 10000,
      "ceiling_ft": null,
      "hazards": [],
      "severityScore": 0,
      "metarRaw": "METAR LIPH 072320Z AUTO 01003KT 9999 NCD M03/M06 Q1011",
      "tafRaw": "TAF LIPH 072300Z 0800/0824 VRB05KT CAVOK",
      "metarHtml": "METAR LIPH 072320Z AUTO 01003KT 9999 NCD M03/M06 Q1011",
      "tafHtml": "TAF LIPH 072300Z 0800/0824 VRB05KT <span class=\"hl-vis\">CAVOK</span>"
    },
    {
      "icao": "LIPQ",
      "iata": "TRS",
      "name": "Trieste–Friuli Venezia Giulia Airport",
      "updatedAt": "072320Z",
      "visibility_m": 10000,
      "taf_visibility_m": 10000,
      "worst_visibility_m": 10000,
      "ceiling_ft": null,
      "hazards": [],
      "severityScore": 0,
      "metarRaw": "METAR LIPQ 072320Z AUTO VRB02KT 9999 NCD M05/M09 Q1011",
      "tafRaw": "TAF LIPQ 072300Z 0800/0824 VRB05KT 9999 SCT070",
      "metarHtml": "METAR LIPQ 072320Z AUTO VRB02KT 9999 NCD M05/M09 Q1011",
      "tafHtml": "TAF LIPQ 072300Z 0800/0824 VRB05KT 9999 SCT070"
    },
    {
      "icao": "LIPR",
      "iata": "RMI",
      "name": "Federico Fellini International Airport",
      "updatedAt": "072320Z",
      "visibility_m": 10000,
      "taf_visibility_m": 10000,
      "worst_visibility_m": 10000,
      "ceiling_ft": null,
      "hazards": [],
      "severityScore": 0,
      "metarRaw": "METAR LIPR 072320Z AUTO 26009KT 9999 NCD M01/M05 Q1011",
      "tafRaw": "TAF LIPR 072300Z 0800/0824 25008KT 9999 SCT030",
      "metarHtml": "METAR LIPR 072320Z AUTO 26009KT 9999 NCD M01/M05 Q1011",
      "tafHtml": "TAF LIPR 072300Z 0800/0824 25008KT 9999 SCT030"
    },
    {
      "icao": "LIPY",
      "iata": "AOI",
      "name": "Marche Airport",
      "updatedAt": "072320Z",
      "visibility_m": 10000,
      "taf_visibility_m": 10000,
      "worst_visibility_m": 10000,
      "ceiling_ft": null,
      "hazards": [],
      "severityScore": 0,
      "metarRaw": "METAR LIPY 072320Z AUTO 27007KT 9999 BKN045/// 02/M03 Q1010",
      "tafRaw": "TAF LIPY 072300Z 0800/0824 32014KT 9999 SCT030 \n  BECMG 0803/0805 23006KT",
      "metarHtml": "METAR LIPY 072320Z AUTO 27007KT 9999 BKN045/// 02/M03 Q1010",
      "tafHtml": "TAF LIPY 072300Z 0800/0824 32014KT 9999 SCT030 \n  BECMG 0803/0805 23006KT"
    },
    {
      "icao": "LIPZ",
      "iata": "VCE",
      "name": "Venice Marco Polo Airport",
      "updatedAt": "072320Z",
      "visibility_m": 10000,
      "taf_visibility_m": 10000,
      "worst_visibility_m": 10000,
      "ceiling_ft": null,
      "hazards": [],
      "severityScore": 0,
      "metarRaw": "METAR LIPZ 072320Z 02005KT CAVOK M03/M06 Q1011 NOSIG",
      "tafRaw": "TAF LIPZ 072300Z 0800/0906 VRB05KT CAVOK",
      "metarHtml": "METAR LIPZ 072320Z 02005KT <span class=\"hl-vis\">CAVOK</span> M03/M06 Q1011 NOSIG",
      "tafHtml": "TAF LIPZ 072300Z 0800/0906 VRB05KT <span class=\"hl-vis\">CAVOK</span>"
    },
    {
      "icao": "LIRF",
      "iata": "FCO",
      "name": "Rome–Fiumicino Leonardo da Vinci International Airport",
      "updatedAt": "072320Z",
      "visibility_m": 10000,
      "taf_visibility_m": 10000,
      "worst_visibility_m": 10000,
      "ceiling_ft": null,
      "hazards": [],
      "severityScore": 0,
      "metarRaw": "METAR LIRF 072320Z 31003KT 280V360 CAVOK 00/M02 Q1012 NOSIG",
      "tafRaw": "TAF LIRF 072300Z 0800/0906 34008KT CAVOK \n  BECMG 0801/0803 04010KT \n  BECMG 0813/0815 10007KT \n  BECMG 0904/0906 25015KT",
      "metarHtml": "METAR LIRF 072320Z 31003KT 280V360 <span class=\"hl-vis\">CAVOK</span> 00/M02 Q1012 NOSIG",
      "tafHtml": "TAF LIRF 072300Z 0800/0906 34008KT <span class=\"hl-vis\">CAVOK</span> \n  BECMG 0801/0803 04010KT \n  BECMG 0813/0815 10007KT \n  BECMG 0904/0906 25015KT"
    },
    {
      "icao": "LIRN",
      "iata": "NAP",
      "name": "Naples International Airport",
      "updatedAt": "072320Z",
      "visibility_m": 10000,
      "taf_visibility_m": 10000,
      "worst_visibility_m": 10000,
      "ceiling_ft": null,
      "hazards": [],
      "severityScore": 0,
      "metarRaw": "METAR LIRN 072320Z 28007KT 250V310 CAVOK 06/01 Q1008 NOSIG",
      "tafRaw": "TAF LIRN 072300Z 0800/0824 27010KT 9999 SCT020 \n  BECMG 0804/0806 03006KT",
      "metarHtml": "METAR LIRN 072320Z 28007KT 250V310 <span class=\"hl-vis\">CAVOK</span> 06/01 Q1008 NOSIG",
      "tafHtml": "TAF LIRN 072300Z 0800/0824 27010KT 9999 SCT020 \n  BECMG 0804/0806 03006KT"
    },
    {
      "icao": "LIRP",
      "iata": "PSA",
      "name": "Pisa International Airport",
      "updatedAt": "072315Z",
      "visibility_m": 10000,
      "taf_visibility_m": 10000,
      "worst_visibility_m": 10000,
      "ceiling_ft": null,
      "hazards": [],
      "severityScore": 0,
      "metarRaw": "METAR LIRP 072315Z 04005KT CAVOK M02/M03 Q1012 NOSIG",
      "tafRaw": "TAF LIRP 072300Z 0800/0824 10006KT CAVOK \n  BECMG 0812/0814 SCT020 SCT050",
      "metarHtml": "METAR LIRP 072315Z 04005KT <span class=\"hl-vis\">CAVOK</span> M02/M03 Q1012 NOSIG",
      "tafHtml": "TAF LIRP 072300Z 0800/0824 10006KT <span class=\"hl-vis\">CAVOK</span> \n  BECMG 0812/0814 SCT020 SCT050"
    },
    {
      "icao": "LIRZ",
      "iata": "PEG",
      "name": "Perugia San Francesco d'Assisi – Umbria International Airport",
      "updatedAt": "072320Z",
      "visibility_m": 10000,
      "taf_visibility_m": 10000,
      "worst_visibility_m": 10000,
      "ceiling_ft": null,
      "hazards": [],
      "severityScore": 0,
      "metarRaw": "METAR LIRZ 072320Z AUTO VRB02KT 9999 NCD M01/M04 Q1011",
      "tafRaw": "TAF LIRZ 072300Z 0800/0824 VRB05KT 9999 FEW060",
      "metarHtml": "METAR LIRZ 072320Z AUTO VRB02KT 9999 NCD M01/M04 Q1011",
      "tafHtml": "TAF LIRZ 072300Z 0800/0824 VRB05KT 9999 FEW060"
    },
    {
      "icao": "LLBG",
      "iata": "TLV",
      "name": "Ben Gurion International Airport",
      "updatedAt": "072350Z",
      "visibility_m": 10000,
      "taf_visibility_m": 10000,
      "worst_visibility_m": 10000,
      "ceiling_ft": null,
      "hazards": [],
      "severityScore": 0,
      "metarRaw": "METAR LLBG 072350Z VRB02KT CAVOK 12/07 Q1020 NOSIG",
      "tafRaw": "TAF LLBG 072314Z 0800/0824 VRB04KT CAVOK \n  TEMPO 0800/0807 14005KT \n  TEMPO 0809/0816 25006KT \n  BECMG 0820/0822 17006KT TX26/0812Z TN11/0804Z",
      "metarHtml": "METAR LLBG 072350Z VRB02KT <span class=\"hl-vis\">CAVOK</span> 12/07 Q1020 NOSIG",
      "tafHtml": "TAF LLBG 072314Z 0800/0824 VRB04KT <span class=\"hl-vis\">CAVOK</span> \n  TEMPO 0800/0807 14005KT \n  TEMPO 0809/0816 25006KT \n  BECMG 0820/0822 17006KT TX26/0812Z TN11/0804Z"
    },
    {
      "icao": "LPFR",
      "iata": "FAO",
      "name": "Faro Airport",
      "updatedAt": "072330Z",
      "visibility_m": 10000,
      "taf_visibility_m": 10000,
      "worst_visibility_m": 10000,
      "ceiling_ft": null,
      "hazards": [],
      "severityScore": 0,
      "metarRaw": "METAR LPFR 072330Z 07004KT CAVOK 08/06 Q1031",
      "tafRaw": "TAF LPFR 072300Z 0800/0824 VRB05KT CAVOK \n  BECMG 0801/0803 04005KT \n  PROB40 \n  TEMPO 0803/0809 9999 BKN006 \n  BECMG 0809/0811 14005KT 9999 FEW020 \n  BECMG 0812/0814 20005KT \n  BECMG 0818/0820 VRB05KT",
      "metarHtml": "METAR LPFR 072330Z 07004KT <span class=\"hl-vis\">CAVOK</span> 08/06 Q1031",
      "tafHtml": "TAF LPFR 072300Z 0800/0824 VRB05KT <span class=\"hl-vis\">CAVOK</span> \n  BECMG 0801/0803 04005KT \n  PROB40 \n  TEMPO 0803/0809 9999 BKN006 \n  BECMG 0809/0811 14005KT 9999 FEW020 \n  BECMG 0812/0814 20005KT \n  BECMG 0818/0820 VRB05KT"
    },
    {
      "icao": "LPMA",
      "iata": "FNC",
      "name": "Madeira International Airport Cristiano Ronaldo",
      "updatedAt": "072330Z",
      "visibility_m": 10000,
      "taf_visibility_m": 10000,
      "worst_visibility_m": 10000,
      "ceiling_ft": null,
      "hazards": [],
      "severityScore": 0,
      "metarRaw": "METAR LPMA 072330Z 01008KT 9999 FEW015 15/08 Q1034",
      "tafRaw": "TAF LPMA 072300Z 0800/0824 01008KT 9999 SCT015 \n  TEMPO 0818/0824 BKN013",
      "metarHtml": "METAR LPMA 072330Z 01008KT 9999 FEW015 15/08 Q1034",
      "tafHtml": "TAF LPMA 072300Z 0800/0824 01008KT 9999 SCT015 \n  TEMPO 0818/0824 BKN013"
    },
    {
      "icao": "LZIB",
      "iata": "BTS",
      "name": "M. R. Štefánik Airport",
      "updatedAt": "072330Z",
      "visibility_m": 10000,
      "taf_visibility_m": 10000,
      "worst_visibility_m": 10000,
      "ceiling_ft": 2700,
      "hazards": [],
      "severityScore": 0,
      "metarRaw": "METAR LZIB 072330Z 33007KT 280V350 9999 BKN027 M04/M09 Q1011 NOSIG",
      "tafRaw": "TAF LZIB 072315Z 0800/0900 33007KT 9999 SCT028",
      "metarHtml": "METAR LZIB 072330Z 33007KT 280V350 9999 BKN027 M04/M09 Q1011 NOSIG",
      "tafHtml": "TAF LZIB 072315Z 0800/0900 33007KT 9999 SCT028"
    },
    {
      "icao": "OEMA",
      "iata": "MED",
      "name": "Prince Mohammad Bin Abdulaziz Airport",
      "updatedAt": "072300Z",
      "visibility_m": 10000,
      "taf_visibility_m": 10000,
      "worst_visibility_m": 10000,
      "ceiling_ft": null,
      "hazards": [],
      "severityScore": 0,
      "metarRaw": "METAR OEMA 072300Z 01003KT CAVOK 18/00 Q1024 NOSIG",
      "tafRaw": "TAF OEMA 072300Z 0800/0906 09010KT CAVOK",
      "metarHtml": "METAR OEMA 072300Z 01003KT <span class=\"hl-vis\">CAVOK</span> 18/00 Q1024 NOSIG",
      "tafHtml": "TAF OEMA 072300Z 0800/0906 09010KT <span class=\"hl-vis\">CAVOK</span>"
    },
    {
      "icao": "OJAI",
      "iata": "AMM",
      "name": "Queen Alia International Airport",
      "updatedAt": "072300Z",
      "visibility_m": 5000,
      "taf_visibility_m": 4000,
      "worst_visibility_m": 4000,
      "ceiling_ft": null,
      "hazards": [],
      "severityScore": 0,
      "metarRaw": "METAR OJAI 072300Z 16004KT 5000 HZ NSC 09/05 Q1024 NOSIG",
      "tafRaw": "TAF OJAI 072300Z 0800/0906 12010KT 5000 HZ NSC \n  PROB40 \n  TEMPO 0809/0815 13016KT 4000 BLDU \n  BECMG 0816/0818 23012KT",
      "metarHtml": "METAR OJAI 072300Z 16004KT 5000 HZ NSC 09/05 Q1024 NOSIG",
      "tafHtml": "TAF OJAI 072300Z 0800/0906 12010KT 5000 HZ NSC \n  PROB40 \n  TEMPO 0809/0815 13016KT 4000 BLDU \n  BECMG 0816/0818 23012KT"
    },
    {
      "icao": "OMAA",
      "iata": "AUH",
      "name": "Zayed International Airport",
      "updatedAt": "072300Z",
      "visibility_m": 10000,
      "taf_visibility_m": 8000,
      "worst_visibility_m": 8000,
      "ceiling_ft": null,
      "hazards": [],
      "severityScore": 0,
      "metarRaw": "METAR OMAA 072300Z 17002KT CAVOK 18/13 Q1020 NOSIG",
      "tafRaw": "TAF OMAA 072300Z 0800/0906 VRB02KT 8000 NSC \n  BECMG 0808/0810 34014KT \n  BECMG 0816/0818 28005KT",
      "metarHtml": "METAR OMAA 072300Z 17002KT <span class=\"hl-vis\">CAVOK</span> 18/13 Q1020 NOSIG",
      "tafHtml": "TAF OMAA 072300Z 0800/0906 VRB02KT 8000 NSC \n  BECMG 0808/0810 34014KT \n  BECMG 0816/0818 28005KT"
    },
    {
      "icao": "OMDB",
      "iata": "DXB",
      "name": "Dubai International Airport",
      "updatedAt": "072300Z",
      "visibility_m": 10000,
      "taf_visibility_m": 8000,
      "worst_visibility_m": 8000,
      "ceiling_ft": null,
      "hazards": [],
      "severityScore": 0,
      "metarRaw": "METAR OMDB 072300Z 21003KT CAVOK 18/10 Q1020 NOSIG",
      "tafRaw": "TAF OMDB 072300Z 0800/0906 12005KT 8000 NSC \n  BECMG 0808/0810 33012KT \n  BECMG 0816/0818 07005KT",
      "metarHtml": "METAR OMDB 072300Z 21003KT <span class=\"hl-vis\">CAVOK</span> 18/10 Q1020 NOSIG",
      "tafHtml": "TAF OMDB 072300Z 0800/0906 12005KT 8000 NSC \n  BECMG 0808/0810 33012KT \n  BECMG 0816/0818 07005KT"
    },
    {
      "icao": "UGKO",
      "iata": "KUT",
      "name": "David the Builder Kutaisi International Airport",
      "updatedAt": "072330Z",
      "visibility_m": 10000,
      "taf_visibility_m": 10000,
      "worst_visibility_m": 10000,
      "ceiling_ft": null,
      "hazards": [],
      "severityScore": 0,
      "metarRaw": "METAR UGKO 072330Z 13007KT 100V160 CAVOK 08/M02 Q1017 NOSIG",
      "tafRaw": "TAF UGKO 072300Z 0800/0824 07010KT CAVOK TX18/0812Z TN06/0804Z \n  TEMPO 0800/0804 BKN080 \n  BECMG 0807/0810 07019G29KT \n  TEMPO 0815/0824 SCT030 BKN050",
      "metarHtml": "METAR UGKO 072330Z 13007KT 100V160 <span class=\"hl-vis\">CAVOK</span> 08/M02 Q1017 NOSIG",
      "tafHtml": "TAF UGKO 072300Z 0800/0824 07010KT <span class=\"hl-vis\">CAVOK</span> TX18/0812Z TN06/0804Z \n  TEMPO 0800/0804 BKN080 \n  BECMG 0807/0810 07019G29KT \n  TEMPO 0815/0824 SCT030 BKN050"
    }
  ],
  "stats": {
    "icaoCount": 159,
    "metarReturned": 155,
    "tafReturned": 156,
    "stationsWritten": 159,
    "missingMetar": 4,
    "missingTaf": 3
  },
  "errors": []
}