{
  "generatedAt": "2026-01-08T08:51:23.635Z",
  "stations": [
    {
      "icao": "BKPR",
      "iata": "PRN",
      "name": "Priština Adem Jashari International Airport",
      "updatedAt": "080830Z",
      "visibility_m": 10000,
      "taf_visibility_m": 300,
      "worst_visibility_m": 300,
      "ceiling_ft": 4000,
      "hazards": [
        "SN",
        "FZFG",
        "BR"
      ],
      "severityScore": 100,
      "metarRaw": "METAR BKPR 080830Z 35007KT 9999 -SN SCT012 BKN040 M04/M06 Q1006 NOSIG",
      "tafRaw": "TAF BKPR 080530Z 0806/0906 34010KT 9999 SCT020 BKN040 \n  TEMPO 0806/0813 35020KT 1200 SN BKN008 OVC020 \n  BECMG 0902/0905 1500 BR \n  PROB30 0904/0906 0300 FZFG BKN003",
      "metarHtml": "METAR BKPR 080830Z 35007KT 9999 -<span class=\"hl\">SN</span> SCT012 BKN040 M04/M06 Q1006 NOSIG",
      "tafHtml": "TAF BKPR 080530Z 0806/0906 34010KT 9999 SCT020 BKN040 \n  TEMPO 0806/0813 35020KT 1200 <span class=\"hl\">SN</span> BKN008 OVC020 \n  BECMG 0902/0905 1500 <span class=\"hl\">BR</span> \n  PROB30 0904/0906 <span class=\"hl-vis\">0300</span> <span class=\"hl\">FZFG</span> BKN003"
    },
    {
      "icao": "EBCI",
      "iata": "CRL",
      "name": "Brussels South Charleroi Airport",
      "updatedAt": "080820Z",
      "visibility_m": 500,
      "taf_visibility_m": null,
      "worst_visibility_m": 500,
      "ceiling_ft": 100,
      "hazards": [
        "FG",
        "BR"
      ],
      "severityScore": 100,
      "metarRaw": "METAR EBCI 080820Z 20006KT 2500 BR FEW003 BKN005 01/01 Q1006 TEMPO 0500 -FZDZRA FG BKN001",
      "tafRaw": null,
      "metarHtml": "METAR EBCI 080820Z 20006KT 2500 <span class=\"hl\">BR</span> FEW003 BKN005 01/01 Q1006 TEMPO <span class=\"hl-vis\">0500</span> -FZDZRA <span class=\"hl\">FG</span> BKN001",
      "tafHtml": null
    },
    {
      "icao": "EDFH",
      "iata": "HHN",
      "name": "Frankfurt-Hahn Airport",
      "updatedAt": "080820Z",
      "visibility_m": 1200,
      "taf_visibility_m": 800,
      "worst_visibility_m": 800,
      "ceiling_ft": 100,
      "hazards": [
        "BR",
        "FZRA",
        "SN",
        "RA",
        "SHRA",
        "FZDZ"
      ],
      "severityScore": 100,
      "metarRaw": "METAR EDFH 080820Z 20008KT 1200 R21/1800D BR OVC001 M01/M01 Q1006",
      "tafRaw": "TAF EDFH 080500Z 0806/0906 24010KT 6000 OVC004 \n  TEMPO 0806/0809 0800 -FZDZ OVC001 \n  TEMPO 0809/0811 3000 BR \n  TEMPO 0811/0821 2000 -SN BR OVC001 \n  PROB30 \n  TEMPO 0816/0820 -FZRA \n  BECMG 0818/0820 16013KT \n  PROB30 \n  TEMPO 0819/0821 0800 SN \n  TEMPO 0821/0824 RA \n  BECMG 0900/0903 23020G30KT BKN015 \n  TEMPO 0902/0906 23035G50KT 4000 SHRA BKN010CB",
      "metarHtml": "METAR EDFH 080820Z 20008KT 1200 R21/1800D <span class=\"hl\">BR</span> OVC001 M01/M01 Q1006",
      "tafHtml": "TAF EDFH 080500Z 0806/0906 24010KT 6000 OVC004 \n  TEMPO 0806/0809 <span class=\"hl-vis\">0800</span> -<span class=\"hl\">FZDZ</span> OVC001 \n  TEMPO 0809/0811 3000 <span class=\"hl\">BR</span> \n  TEMPO 0811/0821 2000 -<span class=\"hl\">SN</span> <span class=\"hl\">BR</span> OVC001 \n  PROB30 \n  TEMPO 0816/0820 -<span class=\"hl\">FZRA</span> \n  BECMG 0818/0820 16013KT \n  PROB30 \n  TEMPO 0819/0821 <span class=\"hl-vis\">0800</span> <span class=\"hl\">SN</span> \n  TEMPO 0821/0824 <span class=\"hl\">RA</span> \n  BECMG 0900/0903 23020G30KT BKN015 \n  TEMPO 0902/0906 23035G50KT 4000 <span class=\"hl\">SHRA</span> BKN010CB"
    },
    {
      "icao": "EGBB",
      "iata": "BHX",
      "name": "Birmingham Airport",
      "updatedAt": "080820Z",
      "visibility_m": 200,
      "taf_visibility_m": null,
      "worst_visibility_m": 200,
      "ceiling_ft": 300,
      "hazards": [
        "FG"
      ],
      "severityScore": 100,
      "metarRaw": "METAR EGBB 080820Z 13004KT 0200 R15/0900N FG OVC003 02/02 Q1003",
      "tafRaw": null,
      "metarHtml": "METAR EGBB 080820Z 13004KT <span class=\"hl-vis\">0200</span> R15/0900N <span class=\"hl\">FG</span> OVC003 02/02 Q1003",
      "tafHtml": null
    },
    {
      "icao": "EGGW",
      "iata": "LTN",
      "name": "London Luton Airport",
      "updatedAt": "080820Z",
      "visibility_m": 900,
      "taf_visibility_m": 300,
      "worst_visibility_m": 300,
      "ceiling_ft": 400,
      "hazards": [
        "FG",
        "BR",
        "RA"
      ],
      "severityScore": 100,
      "metarRaw": "METAR EGGW 080820Z 17002KT 0900 R25/0800N FG OVC004 01/01 Q1004",
      "tafRaw": "TAF EGGW 080456Z 0806/0906 24004KT 9999 SCT030 \n  BECMG 0806/0809 BKN008 \n  TEMPO 0806/0815 4000 RADZ BR BKN003 \n  PROB40 \n  TEMPO 0806/0814 0300 FG BKN001 \n  PROB30 \n  TEMPO 0814/0817 0600 FG BKN001 \n  BECMG 0815/0818 11012KT \n  TEMPO 0815/0821 4000 RA BKN004 \n  TEMPO 0818/0822 09018G30KT \n  PROB40 \n  TEMPO 0821/0903 4000 RADZ BR BKN004 \n  BECMG 0900/0903 34012KT \n  TEMPO 0903/0906 4000 RA RASN \n  PROB30 \n  TEMPO 0903/0906 1400 +RASN BKN002 \n  TEMPO 0904/0906 33018G28KT",
      "metarHtml": "METAR EGGW 080820Z 17002KT 0900 R25/0800N <span class=\"hl\">FG</span> OVC004 01/01 Q1004",
      "tafHtml": "TAF EGGW 080456Z 0806/0906 24004KT 9999 SCT030 \n  BECMG 0806/0809 BKN008 \n  TEMPO 0806/0815 4000 RADZ <span class=\"hl\">BR</span> BKN003 \n  PROB40 \n  TEMPO 0806/0814 <span class=\"hl-vis\">0300</span> <span class=\"hl\">FG</span> BKN001 \n  PROB30 \n  TEMPO 0814/0817 <span class=\"hl-vis\">0600</span> <span class=\"hl\">FG</span> BKN001 \n  BECMG 0815/0818 11012KT \n  TEMPO 0815/0821 4000 <span class=\"hl\">RA</span> BKN004 \n  TEMPO 0818/0822 09018G30KT \n  PROB40 \n  TEMPO 0821/0903 4000 RADZ <span class=\"hl\">BR</span> BKN004 \n  BECMG 0900/0903 34012KT \n  TEMPO 0903/0906 4000 <span class=\"hl\">RA</span> RASN \n  PROB30 \n  TEMPO 0903/0906 1400 +RASN BKN002 \n  TEMPO 0904/0906 33018G28KT"
    },
    {
      "icao": "EGPD",
      "iata": "ABZ",
      "name": "Aberdeen International Airport",
      "updatedAt": "080820Z",
      "visibility_m": 10000,
      "taf_visibility_m": 200,
      "worst_visibility_m": 200,
      "ceiling_ft": 400,
      "hazards": [
        "FZFG",
        "BR",
        "SHRA"
      ],
      "severityScore": 100,
      "metarRaw": "METAR EGPD 080820Z AUTO 21006KT 180V240 9999 OVC004 M00/M01 Q1001 BECMG SCT006",
      "tafRaw": "TAF EGPD 080453Z 0806/0906 17005KT 0200 FZFG VV/// \n  BECMG 0806/0809 9999 NSW SCT020 \n  TEMPO 0809/0812 2000 BR BKN004 \n  PROB40 \n  TEMPO 0809/0812 0600 FZFG BKN001 \n  TEMPO 0817/0906 4000 BR BKN002 \n  PROB40 \n  TEMPO 0821/0824 SHRA \n  BECMG 0900/0903 30010KT \n  PROB40 \n  TEMPO 0902/0906 SHRA",
      "metarHtml": "METAR EGPD 080820Z AUTO 21006KT 180V240 9999 OVC004 M00/M01 Q1001 BECMG SCT006",
      "tafHtml": "TAF EGPD 080453Z 0806/0906 17005KT <span class=\"hl-vis\">0200</span> <span class=\"hl\">FZFG</span> VV/// \n  BECMG 0806/0809 9999 NSW SCT020 \n  TEMPO 0809/0812 2000 <span class=\"hl\">BR</span> BKN004 \n  PROB40 \n  TEMPO 0809/0812 <span class=\"hl-vis\">0600</span> <span class=\"hl\">FZFG</span> BKN001 \n  TEMPO 0817/0906 4000 <span class=\"hl\">BR</span> BKN002 \n  PROB40 \n  TEMPO 0821/0824 <span class=\"hl\">SHRA</span> \n  BECMG 0900/0903 30010KT \n  PROB40 \n  TEMPO 0902/0906 <span class=\"hl\">SHRA</span>"
    },
    {
      "icao": "EPGD",
      "iata": "GDN",
      "name": "Gdańsk Lech Wałęsa Airport",
      "updatedAt": "080830Z",
      "visibility_m": 3200,
      "taf_visibility_m": 100,
      "worst_visibility_m": 100,
      "ceiling_ft": null,
      "hazards": [
        "BR",
        "FZFG",
        "SHSN"
      ],
      "severityScore": 100,
      "metarRaw": "METAR EPGD 080830Z 29002KT 3200 BR FEW002 M10/M11 Q1013",
      "tafRaw": "TAF EPGD 080530Z 0806/0906 VRB02KT 1500 BR OVC002 \n  TEMPO 0806/0809 0100 FZFG BKN000 OVC001 \n  BECMG 0809/0812 BKN017 \n  PROB40 \n  TEMPO 0814/0818 3000 -SHSN BR BKN004 BKN008TCU \n  TEMPO 0818/0824 2000 BR BKN012",
      "metarHtml": "METAR EPGD 080830Z 29002KT 3200 <span class=\"hl\">BR</span> FEW002 M10/M11 Q1013",
      "tafHtml": "TAF EPGD 080530Z 0806/0906 VRB02KT 1500 <span class=\"hl\">BR</span> OVC002 \n  TEMPO 0806/0809 <span class=\"hl-vis\">0100</span> <span class=\"hl\">FZFG</span> BKN000 OVC001 \n  BECMG 0809/0812 BKN017 \n  PROB40 \n  TEMPO 0814/0818 3000 -<span class=\"hl\">SHSN</span> <span class=\"hl\">BR</span> BKN004 BKN008TCU \n  TEMPO 0818/0824 2000 <span class=\"hl\">BR</span> BKN012"
    },
    {
      "icao": "EPKT",
      "iata": "KTW",
      "name": "Katowice Wojciech Korfanty International Airport",
      "updatedAt": "080830Z",
      "visibility_m": 2500,
      "taf_visibility_m": 500,
      "worst_visibility_m": 500,
      "ceiling_ft": 600,
      "hazards": [
        "BR",
        "SN",
        "FZFG"
      ],
      "severityScore": 100,
      "metarRaw": "METAR EPKT 080830Z 33005KT 2500 -SN BR BKN006 BKN029 M08/M09 Q1009",
      "tafRaw": "TAF EPKT 080530Z 0806/0906 34005KT 5000 -SN BR SCT004 BKN009 \n  TEMPO 0806/0821 3000 -SN BR BKN004 OVC008 \n  PROB40 \n  TEMPO 0806/0812 1500 SN BR \n  BECMG 0821/0824 2000 BR \n  TEMPO 0821/0906 1100 BR BKN004 \n  PROB40 \n  TEMPO 0900/0906 0500 FZFG BKN001",
      "metarHtml": "METAR EPKT 080830Z 33005KT 2500 -<span class=\"hl\">SN</span> <span class=\"hl\">BR</span> BKN006 BKN029 M08/M09 Q1009",
      "tafHtml": "TAF EPKT 080530Z 0806/0906 34005KT 5000 -<span class=\"hl\">SN</span> <span class=\"hl\">BR</span> SCT004 BKN009 \n  TEMPO 0806/0821 3000 -<span class=\"hl\">SN</span> <span class=\"hl\">BR</span> BKN004 OVC008 \n  PROB40 \n  TEMPO 0806/0812 1500 <span class=\"hl\">SN</span> <span class=\"hl\">BR</span> \n  BECMG 0821/0824 2000 <span class=\"hl\">BR</span> \n  TEMPO 0821/0906 1100 <span class=\"hl\">BR</span> BKN004 \n  PROB40 \n  TEMPO 0900/0906 <span class=\"hl-vis\">0500</span> <span class=\"hl\">FZFG</span> BKN001"
    },
    {
      "icao": "LEMD",
      "iata": "MAD",
      "name": "Adolfo Suárez Madrid–Barajas Airport",
      "updatedAt": "080830Z",
      "visibility_m": 500,
      "taf_visibility_m": 200,
      "worst_visibility_m": 200,
      "ceiling_ft": 200,
      "hazards": [
        "BR",
        "FZFG",
        "FG",
        "DZ"
      ],
      "severityScore": 100,
      "metarRaw": "METAR LEMD 080830Z 35005KT 320V020 1000 0500 R32L/1900N R32R/P2000 BR BCFG BKN002 OVC004 00/00 Q1030 NOSIG",
      "tafRaw": "TAF LEMD 080500Z 0806/0912 VRB03KT 4000 BR BKN004 TX10/0912Z TNM00/0806Z \n  TEMPO 0806/0811 1000 BCFG BKN002 \n  PROB40 0806/0809 0300 FZFG VV001 \n  TEMPO 0811/0820 9999 NSW BKN010 \n  BECMG 0817/0819 22010KT \n  TEMPO 0902/0906 23015G25KT \n  PROB40 \n  TEMPO 0822/0909 1200 BCFG BKN002 \n  PROB40 \n  TEMPO 0823/0909 0200 DZ FG VV001 \n  BECMG 0909/0911 CAVOK",
      "metarHtml": "METAR LEMD 080830Z 35005KT 320V020 1000 <span class=\"hl-vis\">0500</span> R32L/1900N R32R/P2000 <span class=\"hl\">BR</span> BCFG BKN002 OVC004 00/00 Q1030 NOSIG",
      "tafHtml": "TAF LEMD 080500Z 0806/0912 VRB03KT 4000 <span class=\"hl\">BR</span> BKN004 TX10/0912Z TNM00/0806Z \n  TEMPO 0806/0811 1000 BCFG BKN002 \n  PROB40 0806/0809 <span class=\"hl-vis\">0300</span> <span class=\"hl\">FZFG</span> VV001 \n  TEMPO 0811/0820 9999 NSW BKN010 \n  BECMG 0817/0819 22010KT \n  TEMPO 0902/0906 23015G25KT \n  PROB40 \n  TEMPO 0822/0909 1200 BCFG BKN002 \n  PROB40 \n  TEMPO 0823/0909 <span class=\"hl-vis\">0200</span> <span class=\"hl\">DZ</span> <span class=\"hl\">FG</span> VV001 \n  BECMG 0909/0911 <span class=\"hl-vis\">CAVOK</span>"
    },
    {
      "icao": "LFOB",
      "iata": "BVA",
      "name": "Beauvais Tillé airport",
      "updatedAt": "080830Z",
      "visibility_m": 7000,
      "taf_visibility_m": 800,
      "worst_visibility_m": 800,
      "ceiling_ft": 500,
      "hazards": [
        "FZFG",
        "BR",
        "RA",
        "SHRA"
      ],
      "severityScore": 100,
      "metarRaw": "METAR LFOB 080830Z AUTO 25005KT 7000 BKN005 BKN010 04/04 Q1006 BECMG BKN013",
      "tafRaw": "TAF LFOB 080500Z 0806/0906 VRB03KT 9999 OVC009 \n  PROB40 \n  TEMPO 0806/0808 3000 BR BKN003 OVC006 \n  PROB30 \n  TEMPO 0806/0808 0800 FZFG VV/// \n  BECMG 0808/0810 22012KT BKN013 \n  TEMPO 0813/0820 4000 RA BKN007 OVC011 \n  BECMG 0817/0820 21020G30KT 8000 OVC025 \n  TEMPO 0820/0822 4000 RA BKN014 OVC025 \n  TEMPO 0822/0906 22030G50KT \n  PROB40 \n  TEMPO 0900/0905 3000 SHRA BKN025TCU OVC045",
      "metarHtml": "METAR LFOB 080830Z AUTO 25005KT 7000 BKN005 BKN010 04/04 Q1006 BECMG BKN013",
      "tafHtml": "TAF LFOB 080500Z 0806/0906 VRB03KT 9999 OVC009 \n  PROB40 \n  TEMPO 0806/0808 3000 <span class=\"hl\">BR</span> BKN003 OVC006 \n  PROB30 \n  TEMPO 0806/0808 <span class=\"hl-vis\">0800</span> <span class=\"hl\">FZFG</span> VV/// \n  BECMG 0808/0810 22012KT BKN013 \n  TEMPO 0813/0820 4000 <span class=\"hl\">RA</span> BKN007 OVC011 \n  BECMG 0817/0820 21020G30KT 8000 OVC025 \n  TEMPO 0820/0822 4000 <span class=\"hl\">RA</span> BKN014 OVC025 \n  TEMPO 0822/0906 22030G50KT \n  PROB40 \n  TEMPO 0900/0905 3000 <span class=\"hl\">SHRA</span> BKN025TCU OVC045"
    },
    {
      "icao": "LIPX",
      "iata": "VRN",
      "name": "Verona Villafranca Valerio Catullo Airport",
      "updatedAt": "080820Z",
      "visibility_m": 100,
      "taf_visibility_m": null,
      "worst_visibility_m": 100,
      "ceiling_ft": 200,
      "hazards": [
        "FZFG"
      ],
      "severityScore": 100,
      "metarRaw": "METAR LIPX 080820Z VRB02KT 0100 R04/0250D FZFG VV002 M05/M06 Q1013",
      "tafRaw": null,
      "metarHtml": "METAR LIPX 080820Z VRB02KT <span class=\"hl-vis\">0100</span> R04/0250D <span class=\"hl\">FZFG</span> VV002 M05/M06 Q1013",
      "tafHtml": null
    },
    {
      "icao": "LUKK",
      "iata": "RMO",
      "name": "Chişinău International Airport",
      "updatedAt": "080830Z",
      "visibility_m": 10000,
      "taf_visibility_m": 800,
      "worst_visibility_m": 800,
      "ceiling_ft": 1300,
      "hazards": [
        "BR",
        "FZRA",
        "SN",
        "BLSN",
        "RA",
        "SHRA"
      ],
      "severityScore": 100,
      "metarRaw": "METAR LUKK 080830Z 32009KT 290V350 9999 FEW005 OVC013 01/00 Q0995 NOSIG",
      "tafRaw": "TAF LUKK 080519Z 0806/0906 30010KT 3000 -RA BR OVC002 \n  TEMPO 0806/0808 1000 SHRA OVC001 BKN010CB \n  TEMPO 0808/0810 4000 -FZRA -SN \n  BECMG 0810/0812 29016G26KT 3000 -FZRA -SN OVC004 \n  BECMG 0812/0814 30018G28KT 3000 -SN BLSN OVC003 \n  TEMPO 0814/0819 0800 +SN BLSN OVC001",
      "metarHtml": "METAR LUKK 080830Z 32009KT 290V350 9999 FEW005 OVC013 01/00 Q0995 NOSIG",
      "tafHtml": "TAF LUKK 080519Z 0806/0906 30010KT 3000 -<span class=\"hl\">RA</span> <span class=\"hl\">BR</span> OVC002 \n  TEMPO 0806/0808 1000 <span class=\"hl\">SHRA</span> OVC001 BKN010CB \n  TEMPO 0808/0810 4000 -<span class=\"hl\">FZRA</span> -<span class=\"hl\">SN</span> \n  BECMG 0810/0812 29016G26KT 3000 -<span class=\"hl\">FZRA</span> -<span class=\"hl\">SN</span> OVC004 \n  BECMG 0812/0814 30018G28KT 3000 -<span class=\"hl\">SN</span> <span class=\"hl\">BLSN</span> OVC003 \n  TEMPO 0814/0819 <span class=\"hl-vis\">0800</span> +<span class=\"hl\">SN</span> <span class=\"hl\">BLSN</span> OVC001"
    },
    {
      "icao": "UAAA",
      "iata": "ALA",
      "name": "Almaty International Airport",
      "updatedAt": "080830Z",
      "visibility_m": 3100,
      "taf_visibility_m": 400,
      "worst_visibility_m": 400,
      "ceiling_ft": 800,
      "hazards": [
        "BR",
        "FZFG"
      ],
      "severityScore": 100,
      "metarRaw": "METAR UAAA 080830Z VRB01MPS 3100 BR BKN008 OVC030 M04/M05 Q1031 NOSIG",
      "tafRaw": "TAF UAAA 080504Z 0806/0906 03003MPS 2200 BR FU BKN011 OVC100 TXM01/0809Z TNM07/0901Z \n  TEMPO 0806/0811 0800 FZFG VV003 \n  BECMG 0811/0812 1200 \n  TEMPO 0812/0824 0400 FZFG VV002 \n  TEMPO 0900/0906 0600 FZFG VV003",
      "metarHtml": "METAR UAAA 080830Z VRB01MPS 3100 <span class=\"hl\">BR</span> BKN008 OVC030 M04/M05 Q1031 NOSIG",
      "tafHtml": "TAF UAAA 080504Z 0806/0906 03003MPS 2200 <span class=\"hl\">BR</span> FU BKN011 OVC100 TXM01/0809Z TNM07/0901Z \n  TEMPO 0806/0811 <span class=\"hl-vis\">0800</span> <span class=\"hl\">FZFG</span> VV003 \n  BECMG 0811/0812 1200 \n  TEMPO 0812/0824 <span class=\"hl-vis\">0400</span> <span class=\"hl\">FZFG</span> VV002 \n  TEMPO 0900/0906 <span class=\"hl-vis\">0600</span> <span class=\"hl\">FZFG</span> VV003"
    },
    {
      "icao": "LFSB",
      "iata": "BSL",
      "name": "EuroAirport Basel–Mulhouse–Freiburg",
      "updatedAt": "080830Z",
      "visibility_m": 1100,
      "taf_visibility_m": 1500,
      "worst_visibility_m": 1100,
      "ceiling_ft": 300,
      "hazards": [
        "BR",
        "SN",
        "RA",
        "SHRA"
      ],
      "severityScore": 99,
      "metarRaw": "METAR LFSB 080830Z AUTO 18003KT 1400 1100 R15/2000D R33/2000D -SN BR BKN017/// BKN025/// OVC031/// ///TCU M01/M01 Q1012 TEMPO 1500 -SN BKN003",
      "tafRaw": "TAF LFSB 080500Z 0806/0906 VRB03KT 7000 FEW010 BKN020 \n  TEMPO 0806/0811 1500 -SN BKN003 \n  TEMPO 0811/0812 3000 -RASN BKN004 \n  PROB40 \n  TEMPO 0812/0816 4000 -RA BKN008 \n  TEMPO 0816/0822 4000 RA \n  BECMG 0822/0824 21012KT \n  TEMPO 0900/0906 24020G35KT -SHRA FEW035TCU BKN050",
      "metarHtml": "METAR LFSB 080830Z AUTO 18003KT 1400 1100 R15/2000D R33/2000D -<span class=\"hl\">SN</span> <span class=\"hl\">BR</span> BKN017/// BKN025/// OVC031/// ///TCU M01/M01 Q1012 TEMPO 1500 -<span class=\"hl\">SN</span> BKN003",
      "tafHtml": "TAF LFSB 080500Z 0806/0906 VRB03KT 7000 FEW010 BKN020 \n  TEMPO 0806/0811 1500 -<span class=\"hl\">SN</span> BKN003 \n  TEMPO 0811/0812 3000 -RASN BKN004 \n  PROB40 \n  TEMPO 0812/0816 4000 -<span class=\"hl\">RA</span> BKN008 \n  TEMPO 0816/0822 4000 <span class=\"hl\">RA</span> \n  BECMG 0822/0824 21012KT \n  TEMPO 0900/0906 24020G35KT -<span class=\"hl\">SHRA</span> FEW035TCU BKN050"
    },
    {
      "icao": "LOWW",
      "iata": "VIE",
      "name": "Vienna International Airport",
      "updatedAt": "080820Z",
      "visibility_m": 10000,
      "taf_visibility_m": 800,
      "worst_visibility_m": 800,
      "ceiling_ft": null,
      "hazards": [
        "BR",
        "FZRA",
        "SN"
      ],
      "severityScore": 88,
      "metarRaw": "METAR LOWW 080820Z 33007KT 9999 FEW040 M06/M10 Q1012 NOSIG",
      "tafRaw": "TAF LOWW 080815Z 0809/0915 33010KT CAVOK TXM02/0814Z TNM06/0809Z \n  BECMG 0815/0817 VRB03KT \n  BECMG 0901/0903 12008KT \n  FM090600 12008KT 6000 -SN VV015 \n  TEMPO 0907/0911 0800 SNPL VV003 \n  PROB30 0909/0911 -FZRA \n  FM091000 13008KT 6000 SCT005 \n  TEMPO 0911/0913 2000 BR BKN003",
      "metarHtml": "METAR LOWW 080820Z 33007KT 9999 FEW040 M06/M10 Q1012 NOSIG",
      "tafHtml": "TAF LOWW 080815Z 0809/0915 33010KT <span class=\"hl-vis\">CAVOK</span> TXM02/0814Z TNM06/0809Z \n  BECMG 0815/0817 VRB03KT \n  BECMG 0901/0903 12008KT \n  FM090600 12008KT 6000 -<span class=\"hl\">SN</span> VV015 \n  TEMPO 0907/0911 <span class=\"hl-vis\">0800</span> SNPL VV003 \n  PROB30 0909/0911 -<span class=\"hl\">FZRA</span> \n  FM091000 13008KT 6000 SCT005 \n  TEMPO 0911/0913 2000 <span class=\"hl\">BR</span> BKN003"
    },
    {
      "icao": "LRBV",
      "iata": "GHV",
      "name": "Brașov-Ghimbav International Airport",
      "updatedAt": "080830Z",
      "visibility_m": 600,
      "taf_visibility_m": 800,
      "worst_visibility_m": 600,
      "ceiling_ft": 400,
      "hazards": [
        "SN",
        "BR"
      ],
      "severityScore": 88,
      "metarRaw": "METAR LRBV 080830Z 28011KT 230V310 0600 R03/0650U SN VV004 M03/M04 Q1000",
      "tafRaw": "TAF LRBV 080800Z 0809/0818 30014KT 3000 -SN BR BKN010 BKN030 \n  TEMPO 0809/0810 0800 SN DRSN BKN003 OVC020 \n  BECMG 0811/0813 9999 NSW BKN015 BKN040",
      "metarHtml": "METAR LRBV 080830Z 28011KT 230V310 <span class=\"hl-vis\">0600</span> R03/0650U <span class=\"hl\">SN</span> VV004 M03/M04 Q1000",
      "tafHtml": "TAF LRBV 080800Z 0809/0818 30014KT 3000 -<span class=\"hl\">SN</span> <span class=\"hl\">BR</span> BKN010 BKN030 \n  TEMPO 0809/0810 <span class=\"hl-vis\">0800</span> <span class=\"hl\">SN</span> DRSN BKN003 OVC020 \n  BECMG 0811/0813 9999 NSW BKN015 BKN040"
    },
    {
      "icao": "EDDN",
      "iata": "NUE",
      "name": "Nuremberg Airport",
      "updatedAt": "080820Z",
      "visibility_m": 9000,
      "taf_visibility_m": 900,
      "worst_visibility_m": 900,
      "ceiling_ft": 1400,
      "hazards": [
        "FZRA",
        "SN",
        "RA"
      ],
      "severityScore": 87,
      "metarRaw": "METAR EDDN 080820Z AUTO 13004KT 9000 OVC014 M03/M05 Q1010 NOSIG",
      "tafRaw": "TAF EDDN 080500Z 0806/0906 15005KT 9999 BKN015 \n  TEMPO 0806/0808 3000 -SN BKN009 \n  TEMPO 0808/0811 BKN012 \n  BECMG 0816/0818 4000 -SN BKN008 \n  TEMPO 0821/0902 0900 SN BKN004 \n  PROB40 \n  TEMPO 0901/0903 FZRA \n  BECMG 0902/0904 13010KT RA \n  BECMG 0904/0906 9999 NSW BKN035",
      "metarHtml": "METAR EDDN 080820Z AUTO 13004KT 9000 OVC014 M03/M05 Q1010 NOSIG",
      "tafHtml": "TAF EDDN 080500Z 0806/0906 15005KT 9999 BKN015 \n  TEMPO 0806/0808 3000 -<span class=\"hl\">SN</span> BKN009 \n  TEMPO 0808/0811 BKN012 \n  BECMG 0816/0818 4000 -<span class=\"hl\">SN</span> BKN008 \n  TEMPO 0821/0902 0900 <span class=\"hl\">SN</span> BKN004 \n  PROB40 \n  TEMPO 0901/0903 <span class=\"hl\">FZRA</span> \n  BECMG 0902/0904 13010KT <span class=\"hl\">RA</span> \n  BECMG 0904/0906 9999 NSW BKN035"
    },
    {
      "icao": "EPLB",
      "iata": "LUZ",
      "name": "Lublin Airport",
      "updatedAt": "080830Z",
      "visibility_m": 1600,
      "taf_visibility_m": 600,
      "worst_visibility_m": 600,
      "ceiling_ft": 1800,
      "hazards": [
        "BR",
        "SN",
        "BLSN"
      ],
      "severityScore": 87,
      "metarRaw": "METAR EPLB 080830Z 02007KT 350V050 1600 -SN BR OVC018 M06/M06 Q1007",
      "tafRaw": "TAF EPLB 080530Z 0806/0906 01010KT 4000 -SN BR SCT005 OVC015 \n  TEMPO 0806/0824 2000 SN BR BKN005 OVC010 \n  PROB40 0806/0810 0600 +SN OVC003 \n  PROB40 \n  TEMPO 0812/0906 35017G27KT 1200 BLSN BKN005",
      "metarHtml": "METAR EPLB 080830Z 02007KT 350V050 1600 -<span class=\"hl\">SN</span> <span class=\"hl\">BR</span> OVC018 M06/M06 Q1007",
      "tafHtml": "TAF EPLB 080530Z 0806/0906 01010KT 4000 -<span class=\"hl\">SN</span> <span class=\"hl\">BR</span> SCT005 OVC015 \n  TEMPO 0806/0824 2000 <span class=\"hl\">SN</span> <span class=\"hl\">BR</span> BKN005 OVC010 \n  PROB40 0806/0810 <span class=\"hl-vis\">0600</span> +<span class=\"hl\">SN</span> OVC003 \n  PROB40 \n  TEMPO 0812/0906 35017G27KT 1200 <span class=\"hl\">BLSN</span> BKN005"
    },
    {
      "icao": "LIPE",
      "iata": "BLQ",
      "name": "Bologna Guglielmo Marconi Airport",
      "updatedAt": "080820Z",
      "visibility_m": 10000,
      "taf_visibility_m": 200,
      "worst_visibility_m": 200,
      "ceiling_ft": null,
      "hazards": [
        "FZFG"
      ],
      "severityScore": 85,
      "metarRaw": "METAR LIPE 080820Z 21006KT CAVOK M03/M07 Q1014",
      "tafRaw": "TAF LIPE 080500Z 0806/0906 VRB05KT 9999 FEW030 \n  PROB30 \n  TEMPO 0806/0808 0200 FZFG",
      "metarHtml": "METAR LIPE 080820Z 21006KT <span class=\"hl-vis\">CAVOK</span> M03/M07 Q1014",
      "tafHtml": "TAF LIPE 080500Z 0806/0906 VRB05KT 9999 FEW030 \n  PROB30 \n  TEMPO 0806/0808 <span class=\"hl-vis\">0200</span> <span class=\"hl\">FZFG</span>"
    },
    {
      "icao": "EDDH",
      "iata": "HAM",
      "name": "Hamburg Helmut Schmidt Airport",
      "updatedAt": "080820Z",
      "visibility_m": 1200,
      "taf_visibility_m": 1200,
      "worst_visibility_m": 1200,
      "ceiling_ft": 400,
      "hazards": [
        "BR",
        "SHSN",
        "SN"
      ],
      "severityScore": 83,
      "metarRaw": "METAR EDDH 080820Z AUTO 14009KT 2500 1200 R23/P2000N R15/P2000N -SHSN BR BKN004 BKN015 FEW///TCU M02/M03 Q1005 RESHSN TEMPO 3000 BKN005",
      "tafRaw": "TAF EDDH 080500Z 0806/0912 13008KT 9999 OVC009 \n  TEMPO 0806/0809 3000 -SN \n  PROB30 \n  TEMPO 0806/0809 1200 SN OVC004 \n  PROB40 \n  TEMPO 0809/0818 4000 -SG OVC004 \n  PROB30 \n  TEMPO 0812/0818 2500 -SNRA \n  BECMG 0821/0824 11013KT \n  PROB30 \n  TEMPO 0821/0905 OVC012 \n  BECMG 0902/0905 10015G25KT \n  BECMG 0905/0907 10020G35KT \n  TEMPO 0905/0912 1200 SN OVC003",
      "metarHtml": "METAR EDDH 080820Z AUTO 14009KT 2500 1200 R23/P2000N R15/P2000N -<span class=\"hl\">SHSN</span> <span class=\"hl\">BR</span> BKN004 BKN015 FEW///TCU M02/M03 Q1005 RESHSN TEMPO 3000 BKN005",
      "tafHtml": "TAF EDDH 080500Z 0806/0912 13008KT 9999 OVC009 \n  TEMPO 0806/0809 3000 -<span class=\"hl\">SN</span> \n  PROB30 \n  TEMPO 0806/0809 1200 <span class=\"hl\">SN</span> OVC004 \n  PROB40 \n  TEMPO 0809/0818 4000 -SG OVC004 \n  PROB30 \n  TEMPO 0812/0818 2500 -SNRA \n  BECMG 0821/0824 11013KT \n  PROB30 \n  TEMPO 0821/0905 OVC012 \n  BECMG 0902/0905 10015G25KT \n  BECMG 0905/0907 10020G35KT \n  TEMPO 0905/0912 1200 <span class=\"hl\">SN</span> OVC003"
    },
    {
      "icao": "LQSA",
      "iata": "SJJ",
      "name": "Sarajevo International Airport",
      "updatedAt": "080830Z",
      "visibility_m": 10000,
      "taf_visibility_m": 500,
      "worst_visibility_m": 500,
      "ceiling_ft": 3000,
      "hazards": [
        "SN",
        "FZFG"
      ],
      "severityScore": 83,
      "metarRaw": "METAR LQSA 080830Z 32004KT 9999 -SN SCT020 OVC030 M05/M06 Q1010 NOSIG",
      "tafRaw": "TAF LQSA 080500Z 0806/0906 29005KT 7000 SCT012 OVC030 TXM03/0813Z TNM09/0901Z \n  TEMPO 0806/0810 35010KT SN \n  PROB30 0902/0906 0500 FZFG BKN004",
      "metarHtml": "METAR LQSA 080830Z 32004KT 9999 -<span class=\"hl\">SN</span> SCT020 OVC030 M05/M06 Q1010 NOSIG",
      "tafHtml": "TAF LQSA 080500Z 0806/0906 29005KT 7000 SCT012 OVC030 TXM03/0813Z TNM09/0901Z \n  TEMPO 0806/0810 35010KT <span class=\"hl\">SN</span> \n  PROB30 0902/0906 <span class=\"hl-vis\">0500</span> <span class=\"hl\">FZFG</span> BKN004"
    },
    {
      "icao": "EDDS",
      "iata": "STR",
      "name": "Stuttgart Airport",
      "updatedAt": "080820Z",
      "visibility_m": 10000,
      "taf_visibility_m": 3000,
      "worst_visibility_m": 3000,
      "ceiling_ft": 4900,
      "hazards": [
        "FZRA",
        "SN",
        "RA",
        "SHRA"
      ],
      "severityScore": 79,
      "metarRaw": "METAR EDDS 080820Z AUTO VRB01KT 9999 OVC049 00/M03 Q1009 NOSIG",
      "tafRaw": "TAF EDDS 080500Z 0806/0906 22004KT 9999 BKN020 \n  TEMPO 0812/0816 4000 -SN \n  PROB30 \n  TEMPO 0814/0816 -FZRA \n  TEMPO 0820/0902 3000 RA \n  BECMG 0822/0902 21013KT \n  TEMPO 0902/0905 23020G35KT SHRA BKN015CB",
      "metarHtml": "METAR EDDS 080820Z AUTO VRB01KT 9999 OVC049 00/M03 Q1009 NOSIG",
      "tafHtml": "TAF EDDS 080500Z 0806/0906 22004KT 9999 BKN020 \n  TEMPO 0812/0816 4000 -<span class=\"hl\">SN</span> \n  PROB30 \n  TEMPO 0814/0816 -<span class=\"hl\">FZRA</span> \n  TEMPO 0820/0902 3000 <span class=\"hl\">RA</span> \n  BECMG 0822/0902 21013KT \n  TEMPO 0902/0905 23020G35KT <span class=\"hl\">SHRA</span> BKN015CB"
    },
    {
      "icao": "EGGP",
      "iata": "LPL",
      "name": "Liverpool John Lennon Airport",
      "updatedAt": "080820Z",
      "visibility_m": 8000,
      "taf_visibility_m": 1200,
      "worst_visibility_m": 1200,
      "ceiling_ft": 800,
      "hazards": [
        "SN",
        "RA",
        "DZ"
      ],
      "severityScore": 75,
      "metarRaw": "METAR EGGP 080820Z 10004KT 8000 SCT006 BKN008 OVC010 02/01 Q1003",
      "tafRaw": "TAF EGGP 080500Z 0806/0906 17003KT 9999 SCT020 \n  TEMPO 0806/0810 6000 RA -RADZ BKN012 \n  PROB30 \n  TEMPO 0806/0810 3000 RADZ BKN001 \n  PROB30 \n  TEMPO 0810/0815 6000 -DZ BKN004 \n  BECMG 0814/0817 07010KT \n  TEMPO 0815/0819 6000 RA -RADZ BKN009 \n  PROB30 \n  TEMPO 0815/0819 4000 RADZ BKN004 \n  BECMG 0819/0822 36012KT \n  TEMPO 0819/0823 35016G28KT 4000 RADZ RASN BKN008 \n  PROB30 \n  TEMPO 0819/0823 1200 +RASN SN BKN002 \n  TEMPO 0823/0906 6000 RA BKN012 \n  PROB30 \n  TEMPO 0823/0904 4000 RADZ BKN008",
      "metarHtml": "METAR EGGP 080820Z 10004KT 8000 SCT006 BKN008 OVC010 02/01 Q1003",
      "tafHtml": "TAF EGGP 080500Z 0806/0906 17003KT 9999 SCT020 \n  TEMPO 0806/0810 6000 <span class=\"hl\">RA</span> -RADZ BKN012 \n  PROB30 \n  TEMPO 0806/0810 3000 RADZ BKN001 \n  PROB30 \n  TEMPO 0810/0815 6000 -<span class=\"hl\">DZ</span> BKN004 \n  BECMG 0814/0817 07010KT \n  TEMPO 0815/0819 6000 <span class=\"hl\">RA</span> -RADZ BKN009 \n  PROB30 \n  TEMPO 0815/0819 4000 RADZ BKN004 \n  BECMG 0819/0822 36012KT \n  TEMPO 0819/0823 35016G28KT 4000 RADZ RASN BKN008 \n  PROB30 \n  TEMPO 0819/0823 1200 +RASN <span class=\"hl\">SN</span> BKN002 \n  TEMPO 0823/0906 6000 <span class=\"hl\">RA</span> BKN012 \n  PROB30 \n  TEMPO 0823/0904 4000 RADZ BKN008"
    },
    {
      "icao": "LJLJ",
      "iata": "LJU",
      "name": "Ljubljana Jože Pučnik Airport",
      "updatedAt": "080830Z",
      "visibility_m": 10000,
      "taf_visibility_m": 300,
      "worst_visibility_m": 300,
      "ceiling_ft": null,
      "hazards": [
        "FZFG"
      ],
      "severityScore": 75,
      "metarRaw": "METAR LJLJ 080830Z 04001KT 9999 MIFG SCT003 M11/M12 Q1012 NOSIG",
      "tafRaw": "TAF LJLJ 080500Z 0806/0906 VRB02KT 9999 FEW020 \n  PROB30 \n  TEMPO 0903/0906 0300 FZFG VV001",
      "metarHtml": "METAR LJLJ 080830Z 04001KT 9999 MIFG SCT003 M11/M12 Q1012 NOSIG",
      "tafHtml": "TAF LJLJ 080500Z 0806/0906 VRB02KT 9999 FEW020 \n  PROB30 \n  TEMPO 0903/0906 <span class=\"hl-vis\">0300</span> <span class=\"hl\">FZFG</span> VV001"
    },
    {
      "icao": "EGKK",
      "iata": "LGW",
      "name": "London Gatwick Airport",
      "updatedAt": "080820Z",
      "visibility_m": 3500,
      "taf_visibility_m": 2000,
      "worst_visibility_m": 2000,
      "ceiling_ft": 200,
      "hazards": [
        "BR",
        "RA",
        "SHRA"
      ],
      "severityScore": 71,
      "metarRaw": "METAR EGKK 080820Z VRB01KT 3500 BR BKN002 03/03 Q1005",
      "tafRaw": "TAF EGKK 080452Z 0806/0912 20004KT 9999 BKN015 \n  TEMPO 0806/0812 6000 -RADZ BKN005 \n  PROB30 \n  TEMPO 0806/0810 2000 RADZ BR BKN001 \n  PROB30 \n  TEMPO 0812/0814 8000 -RA BKN008 \n  BECMG 0813/0816 11011KT \n  TEMPO 0814/0821 6000 RA BKN010 \n  PROB40 \n  TEMPO 0814/0821 4000 +RA BKN006 \n  TEMPO 0817/0824 14015G25KT \n  PROB40 \n  TEMPO 0821/0824 7000 RA SHRA BKN012 \n  BECMG 0900/0903 30018G28KT \n  PROB30 \n  TEMPO 0900/0903 3000 RADZ BKN004 \n  TEMPO 0903/0912 6000 -RASN BKN008 \n  PROB30 \n  TEMPO 0903/0911 30020G38KT 2000 RASN BKN004",
      "metarHtml": "METAR EGKK 080820Z VRB01KT 3500 <span class=\"hl\">BR</span> BKN002 03/03 Q1005",
      "tafHtml": "TAF EGKK 080452Z 0806/0912 20004KT 9999 BKN015 \n  TEMPO 0806/0812 6000 -RADZ BKN005 \n  PROB30 \n  TEMPO 0806/0810 2000 RADZ <span class=\"hl\">BR</span> BKN001 \n  PROB30 \n  TEMPO 0812/0814 8000 -<span class=\"hl\">RA</span> BKN008 \n  BECMG 0813/0816 11011KT \n  TEMPO 0814/0821 6000 <span class=\"hl\">RA</span> BKN010 \n  PROB40 \n  TEMPO 0814/0821 4000 +<span class=\"hl\">RA</span> BKN006 \n  TEMPO 0817/0824 14015G25KT \n  PROB40 \n  TEMPO 0821/0824 7000 <span class=\"hl\">RA</span> <span class=\"hl\">SHRA</span> BKN012 \n  BECMG 0900/0903 30018G28KT \n  PROB30 \n  TEMPO 0900/0903 3000 RADZ BKN004 \n  TEMPO 0903/0912 6000 -RASN BKN008 \n  PROB30 \n  TEMPO 0903/0911 30020G38KT 2000 RASN BKN004"
    },
    {
      "icao": "LTAC",
      "iata": "ESB",
      "name": "Esenboğa International Airport",
      "updatedAt": "080820Z",
      "visibility_m": 3800,
      "taf_visibility_m": 4000,
      "worst_visibility_m": 3800,
      "ceiling_ft": 3000,
      "hazards": [
        "BR",
        "TSRA",
        "SN",
        "SHRA"
      ],
      "severityScore": 67,
      "metarRaw": "METAR LTAC 080820Z VRB01KT 3800 BR BKN030 BKN080 04/04 Q1012 BECMG 9999 NSW RMK RWY21C VRB02KT RWY03L VRB03KT RWY21R 05004KT 340V100 RWY03R 00000KT RWY21L VRB02KT",
      "tafRaw": "TAF LTAC 080440Z 0806/0906 VRB02KT 4000 BR SCT040 BKN100 \n  BECMG 0806/0809 21012KT 9999 NSW \n  TEMPO 0810/0814 22015G25KT -SHRA FEW025CB BKN035 BKN080 \n  TEMPO 0814/0818 22020G30KT -TSRA SCT025CB BKN035 \n  TEMPO 0820/0824 4000 -RASN BR SCT008 BKN025 \n  TEMPO 0902/0906 4000 -SN SCT010 BKN025 BKN080",
      "metarHtml": "METAR LTAC 080820Z VRB01KT 3800 <span class=\"hl\">BR</span> BKN030 BKN080 04/04 Q1012 BECMG 9999 NSW RMK RWY21C VRB02KT RWY03L VRB03KT RWY21R 05004KT 340V100 RWY03R 00000KT RWY21L VRB02KT",
      "tafHtml": "TAF LTAC 080440Z 0806/0906 VRB02KT 4000 <span class=\"hl\">BR</span> SCT040 BKN100 \n  BECMG 0806/0809 21012KT 9999 NSW \n  TEMPO 0810/0814 22015G25KT -<span class=\"hl\">SHRA</span> FEW025CB BKN035 BKN080 \n  TEMPO 0814/0818 22020G30KT -<span class=\"hl\">TSRA</span> SCT025CB BKN035 \n  TEMPO 0820/0824 4000 -RASN <span class=\"hl\">BR</span> SCT008 BKN025 \n  TEMPO 0902/0906 4000 -<span class=\"hl\">SN</span> SCT010 BKN025 BKN080"
    },
    {
      "icao": "EGNM",
      "iata": "LBA",
      "name": "Leeds Bradford Airport",
      "updatedAt": "080820Z",
      "visibility_m": 10000,
      "taf_visibility_m": 500,
      "worst_visibility_m": 500,
      "ceiling_ft": null,
      "hazards": [
        "SN",
        "RA"
      ],
      "severityScore": 65,
      "metarRaw": "METAR EGNM 080820Z 30006KT CAVOK M02/M03 Q1002",
      "tafRaw": "TAF EGNM 080503Z 0806/0906 28003KT 9999 FEW015 \n  PROB30 \n  TEMPO 0806/0810 6000 -RASN BKN006 \n  TEMPO 0808/0817 BKN012 \n  BECMG 0818/0821 04012KT BKN009 \n  TEMPO 0818/0903 4000 RASN -SN BKN004 \n  PROB30 \n  TEMPO 0818/0903 04015G25KT 0500 +SN BKN001 \n  BECMG 0903/0906 34010KT SCT020 \n  TEMPO 0903/0906 6000 RA -RADZ \n  PROB30 \n  TEMPO 0903/0906 4000 RADZ RASN BKN004",
      "metarHtml": "METAR EGNM 080820Z 30006KT <span class=\"hl-vis\">CAVOK</span> M02/M03 Q1002",
      "tafHtml": "TAF EGNM 080503Z 0806/0906 28003KT 9999 FEW015 \n  PROB30 \n  TEMPO 0806/0810 6000 -RASN BKN006 \n  TEMPO 0808/0817 BKN012 \n  BECMG 0818/0821 04012KT BKN009 \n  TEMPO 0818/0903 4000 RASN -<span class=\"hl\">SN</span> BKN004 \n  PROB30 \n  TEMPO 0818/0903 04015G25KT <span class=\"hl-vis\">0500</span> +<span class=\"hl\">SN</span> BKN001 \n  BECMG 0903/0906 34010KT SCT020 \n  TEMPO 0903/0906 6000 <span class=\"hl\">RA</span> -RADZ \n  PROB30 \n  TEMPO 0903/0906 4000 RADZ RASN BKN004"
    },
    {
      "icao": "EYPA",
      "iata": "PLQ",
      "name": "Palanga International Airport",
      "updatedAt": "080850Z",
      "visibility_m": 10000,
      "taf_visibility_m": 400,
      "worst_visibility_m": 400,
      "ceiling_ft": null,
      "hazards": [
        "FZFG"
      ],
      "severityScore": 65,
      "metarRaw": "METAR EYPA 080850Z 09004KT CAVOK M13/M15 Q1016",
      "tafRaw": "TAF EYPA 080506Z 0806/0906 VRB04KT 6000 NSC \n  TEMPO 0806/0808 BKN003 \n  PROB30 \n  TEMPO 0806/0808 0400 FZFG VV002 \n  BECMG 0808/0810 BKN010 \n  BECMG 0810/0812 BKN015 \n  TEMPO 0812/0821 BKN010",
      "metarHtml": "METAR EYPA 080850Z 09004KT <span class=\"hl-vis\">CAVOK</span> M13/M15 Q1016",
      "tafHtml": "TAF EYPA 080506Z 0806/0906 VRB04KT 6000 NSC \n  TEMPO 0806/0808 BKN003 \n  PROB30 \n  TEMPO 0806/0808 <span class=\"hl-vis\">0400</span> <span class=\"hl\">FZFG</span> VV002 \n  BECMG 0808/0810 BKN010 \n  BECMG 0810/0812 BKN015 \n  TEMPO 0812/0821 BKN010"
    },
    {
      "icao": "LRBS",
      "iata": "BBU",
      "name": "Bucharest Băneasa Aurel Vlaicu International Airport",
      "updatedAt": "080830Z",
      "visibility_m": 9000,
      "taf_visibility_m": 3000,
      "worst_visibility_m": 3000,
      "ceiling_ft": 500,
      "hazards": [
        "SN",
        "BR",
        "RA"
      ],
      "severityScore": 65,
      "metarRaw": "METAR LRBS 080830Z 24012KT 9000 -SN BKN005 OVC035 00/M00 Q0998 NOSIG",
      "tafRaw": "TAF LRBS 080500Z 0806/0906 VRB04KT 7000 -RA BKN005 OVC015 \n  BECMG 0806/0808 26012KT 5000 -SN BR BKN010 OVC025 \n  TEMPO 0808/0812 3000 SN BR BKN005 OVC020 \n  BECMG 0812/0814 9999 NSW BKN025",
      "metarHtml": "METAR LRBS 080830Z 24012KT 9000 -<span class=\"hl\">SN</span> BKN005 OVC035 00/M00 Q0998 NOSIG",
      "tafHtml": "TAF LRBS 080500Z 0806/0906 VRB04KT 7000 -<span class=\"hl\">RA</span> BKN005 OVC015 \n  BECMG 0806/0808 26012KT 5000 -<span class=\"hl\">SN</span> <span class=\"hl\">BR</span> BKN010 OVC025 \n  TEMPO 0808/0812 3000 <span class=\"hl\">SN</span> <span class=\"hl\">BR</span> BKN005 OVC020 \n  BECMG 0812/0814 9999 NSW BKN025"
    },
    {
      "icao": "EDJA",
      "iata": "FMM",
      "name": "Memmingen Allgau Airport",
      "updatedAt": "080820Z",
      "visibility_m": 10000,
      "taf_visibility_m": 900,
      "worst_visibility_m": 900,
      "ceiling_ft": 3200,
      "hazards": [
        "FZRA",
        "SN"
      ],
      "severityScore": 63,
      "metarRaw": "METAR EDJA 080820Z 23009KT 9999 BKN032 OVC054 M03/M06 Q1010",
      "tafRaw": "TAF EDJA 080800Z 0809/0818 22008KT 9999 SCT025 BKN040 \n  BECMG 0812/0814 4000 -SN BKN008 \n  TEMPO 0814/0818 0900 SN VV002 \n  PROB40 \n  TEMPO 0817/0818 FZRA",
      "metarHtml": "METAR EDJA 080820Z 23009KT 9999 BKN032 OVC054 M03/M06 Q1010",
      "tafHtml": "TAF EDJA 080800Z 0809/0818 22008KT 9999 SCT025 BKN040 \n  BECMG 0812/0814 4000 -<span class=\"hl\">SN</span> BKN008 \n  TEMPO 0814/0818 0900 <span class=\"hl\">SN</span> VV002 \n  PROB40 \n  TEMPO 0817/0818 <span class=\"hl\">FZRA</span>"
    },
    {
      "icao": "EDNY",
      "iata": "FDH",
      "name": "Friedrichshafen Airport",
      "updatedAt": "080820Z",
      "visibility_m": 8000,
      "taf_visibility_m": 1200,
      "worst_visibility_m": 1200,
      "ceiling_ft": 5600,
      "hazards": [
        "SN",
        "FZRA"
      ],
      "severityScore": 63,
      "metarRaw": "METAR EDNY 080820Z VRB02KT 8000 -SN SCT040 SCT049 OVC056 M02/M05 Q1012",
      "tafRaw": "TAF EDNY 080800Z 0809/0818 17003KT 9000 SCT030 BKN040 \n  TEMPO 0809/0812 4000 -SN BKN012 \n  BECMG 0811/0813 4000 -SNRA BKN010 \n  TEMPO 0813/0816 1200 SN BKN002 \n  PROB40 \n  TEMPO 0815/0818 FZRA",
      "metarHtml": "METAR EDNY 080820Z VRB02KT 8000 -<span class=\"hl\">SN</span> SCT040 SCT049 OVC056 M02/M05 Q1012",
      "tafHtml": "TAF EDNY 080800Z 0809/0818 17003KT 9000 SCT030 BKN040 \n  TEMPO 0809/0812 4000 -<span class=\"hl\">SN</span> BKN012 \n  BECMG 0811/0813 4000 -SNRA BKN010 \n  TEMPO 0813/0816 1200 <span class=\"hl\">SN</span> BKN002 \n  PROB40 \n  TEMPO 0815/0818 <span class=\"hl\">FZRA</span>"
    },
    {
      "icao": "EPPO",
      "iata": "POZ",
      "name": "Poznań-Ławica Airport",
      "updatedAt": "080830Z",
      "visibility_m": 4500,
      "taf_visibility_m": 1200,
      "worst_visibility_m": 1200,
      "ceiling_ft": 600,
      "hazards": [
        "BR",
        "SN"
      ],
      "severityScore": 63,
      "metarRaw": "METAR EPPO 080830Z 16003KT 4500 BR BKN006 M07/M09 Q1012",
      "tafRaw": "TAF EPPO 080530Z 0806/0906 14004KT 6000 OVC008 \n  BECMG 0806/0809 BKN010 \n  TEMPO 0806/0809 3500 BR \n  BECMG 0809/0812 SCT012 \n  BECMG 0816/0818 3000 BR OVC005 \n  TEMPO 0820/0906 1200 -SN BR OVC002",
      "metarHtml": "METAR EPPO 080830Z 16003KT 4500 <span class=\"hl\">BR</span> BKN006 M07/M09 Q1012",
      "tafHtml": "TAF EPPO 080530Z 0806/0906 14004KT 6000 OVC008 \n  BECMG 0806/0809 BKN010 \n  TEMPO 0806/0809 3500 <span class=\"hl\">BR</span> \n  BECMG 0809/0812 SCT012 \n  BECMG 0816/0818 3000 <span class=\"hl\">BR</span> OVC005 \n  TEMPO 0820/0906 1200 -<span class=\"hl\">SN</span> <span class=\"hl\">BR</span> OVC002"
    },
    {
      "icao": "EPRZ",
      "iata": "RZE",
      "name": "Rzeszów-Jasionka Airport",
      "updatedAt": "080830Z",
      "visibility_m": 1700,
      "taf_visibility_m": 500,
      "worst_visibility_m": 500,
      "ceiling_ft": 2300,
      "hazards": [
        "BR",
        "SN"
      ],
      "severityScore": 63,
      "metarRaw": "METAR EPRZ 080830Z 33007KT 1700 -SN BR FEW009 OVC023 M05/M07 Q1006",
      "tafRaw": "TAF EPRZ 080530Z 0806/0906 35008KT 4000 -SN BR FEW009 OVC020 \n  TEMPO 0806/0812 1500 SN BR SCT003 OVC007 \n  PROB30 \n  TEMPO 0806/0812 0500 +SN BKN002 \n  TEMPO 0812/0818 2000 SN BR BKN012 \n  PROB30 \n  TEMPO 0816/0821 33015G25KT 1200 SN DRSN BKN008 \n  BECMG 0821/0824 29012KT \n  TEMPO 0821/0906 30015G28KT 1200 SN DRSN BKN008",
      "metarHtml": "METAR EPRZ 080830Z 33007KT 1700 -<span class=\"hl\">SN</span> <span class=\"hl\">BR</span> FEW009 OVC023 M05/M07 Q1006",
      "tafHtml": "TAF EPRZ 080530Z 0806/0906 35008KT 4000 -<span class=\"hl\">SN</span> <span class=\"hl\">BR</span> FEW009 OVC020 \n  TEMPO 0806/0812 1500 <span class=\"hl\">SN</span> <span class=\"hl\">BR</span> SCT003 OVC007 \n  PROB30 \n  TEMPO 0806/0812 <span class=\"hl-vis\">0500</span> +<span class=\"hl\">SN</span> BKN002 \n  TEMPO 0812/0818 2000 <span class=\"hl\">SN</span> <span class=\"hl\">BR</span> BKN012 \n  PROB30 \n  TEMPO 0816/0821 33015G25KT 1200 <span class=\"hl\">SN</span> DRSN BKN008 \n  BECMG 0821/0824 29012KT \n  TEMPO 0821/0906 30015G28KT 1200 <span class=\"hl\">SN</span> DRSN BKN008"
    },
    {
      "icao": "LFBD",
      "iata": "BOD",
      "name": "Bordeaux–Mérignac Airport",
      "updatedAt": "080830Z",
      "visibility_m": 4000,
      "taf_visibility_m": 2000,
      "worst_visibility_m": 2000,
      "ceiling_ft": 1000,
      "hazards": [
        "RA",
        "TSRA",
        "SHRA"
      ],
      "severityScore": 63,
      "metarRaw": "METAR LFBD 080830Z AUTO 27013KT 9999 BKN016 BKN021 BKN039 12/10 Q1018 TEMPO 27015G25KT 4000 -RA BKN010 OVC025",
      "tafRaw": "TAF LFBD 080500Z 0806/0912 27010KT 9999 BKN025 TX13/0814Z TN08/0906Z \n  TEMPO 0806/0818 27015G25KT 4000 -RA BKN010 OVC025 \n  BECMG 0818/0820 24015G25KT BKN040 \n  TEMPO 0821/0824 27018G35KT 4000 SHRA BKN015TCU \n  TEMPO 0900/0912 27030G50KT 2000 TSRA BKN015CB",
      "metarHtml": "METAR LFBD 080830Z AUTO 27013KT 9999 BKN016 BKN021 BKN039 12/10 Q1018 TEMPO 27015G25KT 4000 -<span class=\"hl\">RA</span> BKN010 OVC025",
      "tafHtml": "TAF LFBD 080500Z 0806/0912 27010KT 9999 BKN025 TX13/0814Z TN08/0906Z \n  TEMPO 0806/0818 27015G25KT 4000 -<span class=\"hl\">RA</span> BKN010 OVC025 \n  BECMG 0818/0820 24015G25KT BKN040 \n  TEMPO 0821/0824 27018G35KT 4000 <span class=\"hl\">SHRA</span> BKN015TCU \n  TEMPO 0900/0912 27030G50KT 2000 <span class=\"hl\">TSRA</span> BKN015CB"
    },
    {
      "icao": "EPWA",
      "iata": "WAW",
      "name": "Warsaw Chopin Airport",
      "updatedAt": "080830Z",
      "visibility_m": 2900,
      "taf_visibility_m": 2000,
      "worst_visibility_m": 2000,
      "ceiling_ft": 600,
      "hazards": [
        "BR",
        "SN"
      ],
      "severityScore": 53,
      "metarRaw": "METAR EPWA 080830Z 02005KT 330V050 2900 BR BKN006 M08/M09 Q1011 NOSIG",
      "tafRaw": "TAF EPWA 080830Z 0809/0909 02005KT 3500 BR BKN006 \n  BECMG 0809/0812 5000 BR \n  TEMPO 0809/0822 2500 -SN BR \n  PROB40 \n  TEMPO 0810/0815 BKN010 \n  TEMPO 0822/0909 2000 -SN BR BKN003",
      "metarHtml": "METAR EPWA 080830Z 02005KT 330V050 2900 <span class=\"hl\">BR</span> BKN006 M08/M09 Q1011 NOSIG",
      "tafHtml": "TAF EPWA 080830Z 0809/0909 02005KT 3500 <span class=\"hl\">BR</span> BKN006 \n  BECMG 0809/0812 5000 <span class=\"hl\">BR</span> \n  TEMPO 0809/0822 2500 -<span class=\"hl\">SN</span> <span class=\"hl\">BR</span> \n  PROB40 \n  TEMPO 0810/0815 BKN010 \n  TEMPO 0822/0909 2000 -<span class=\"hl\">SN</span> <span class=\"hl\">BR</span> BKN003"
    },
    {
      "icao": "ESGG",
      "iata": "GOT",
      "name": "Göteborg Landvetter Airport",
      "updatedAt": "080820Z",
      "visibility_m": 9000,
      "taf_visibility_m": 1200,
      "worst_visibility_m": 1200,
      "ceiling_ft": 600,
      "hazards": [
        "SN"
      ],
      "severityScore": 53,
      "metarRaw": "METAR ESGG 080820Z 16010KT 9000 -SN OVC006 M03/M04 Q1006",
      "tafRaw": "TAF ESGG 080830Z 0809/0909 16012KT 7000 -SN SCT006 BKN015 \n  TEMPO 0809/0814 1200 VV008 \n  PROB40 0814/0824 BKN012",
      "metarHtml": "METAR ESGG 080820Z 16010KT 9000 -<span class=\"hl\">SN</span> OVC006 M03/M04 Q1006",
      "tafHtml": "TAF ESGG 080830Z 0809/0909 16012KT 7000 -<span class=\"hl\">SN</span> SCT006 BKN015 \n  TEMPO 0809/0814 1200 VV008 \n  PROB40 0814/0824 BKN012"
    },
    {
      "icao": "LBSF",
      "iata": "SOF",
      "name": "Sofia Airport",
      "updatedAt": "080830Z",
      "visibility_m": 1700,
      "taf_visibility_m": 800,
      "worst_visibility_m": 800,
      "ceiling_ft": 4100,
      "hazards": [
        "SN",
        "SHSN"
      ],
      "severityScore": 53,
      "metarRaw": "METAR LBSF 080830Z 28019KT 1700 SN FEW026 SCT034 OVC041 M04/M06 Q1003 NOSIG",
      "tafRaw": "TAF LBSF 080500Z 0806/0906 28014G30KT 5000 -SN SCT012 OVC025 \n  PROB40 \n  TEMPO 0806/0808 0800 SHSN FEW020TCU OVC023 \n  BECMG 0809/0811 9999 NSW SCT040 BKN060",
      "metarHtml": "METAR LBSF 080830Z 28019KT 1700 <span class=\"hl\">SN</span> FEW026 SCT034 OVC041 M04/M06 Q1003 NOSIG",
      "tafHtml": "TAF LBSF 080500Z 0806/0906 28014G30KT 5000 -<span class=\"hl\">SN</span> SCT012 OVC025 \n  PROB40 \n  TEMPO 0806/0808 <span class=\"hl-vis\">0800</span> <span class=\"hl\">SHSN</span> FEW020TCU OVC023 \n  BECMG 0809/0811 9999 NSW SCT040 BKN060"
    },
    {
      "icao": "LICJ",
      "iata": "PMO",
      "name": "Falcone–Borsellino Airport",
      "updatedAt": "080820Z",
      "visibility_m": 10000,
      "taf_visibility_m": 4000,
      "worst_visibility_m": 4000,
      "ceiling_ft": null,
      "hazards": [
        "TSRA",
        "RA",
        "SHRA"
      ],
      "severityScore": 51,
      "metarRaw": "METAR LICJ 080820Z 27026KT 9999 SCT040 SCT070 14/07 Q1016",
      "tafRaw": "TAF LICJ 080500Z 0806/0906 28025G35KT 9999 SCT020 \n  PROB40 \n  TEMPO 0806/0808 4000 TSRA \n  TEMPO 0808/0818 4000 SHRA \n  TEMPO 0818/0824 RA",
      "metarHtml": "METAR LICJ 080820Z 27026KT 9999 SCT040 SCT070 14/07 Q1016",
      "tafHtml": "TAF LICJ 080500Z 0806/0906 28025G35KT 9999 SCT020 \n  PROB40 \n  TEMPO 0806/0808 4000 <span class=\"hl\">TSRA</span> \n  TEMPO 0808/0818 4000 <span class=\"hl\">SHRA</span> \n  TEMPO 0818/0824 <span class=\"hl\">RA</span>"
    },
    {
      "icao": "LFLS",
      "iata": "GNB",
      "name": "Grenoble Alpes Isère Airport",
      "updatedAt": "080830Z",
      "visibility_m": 3200,
      "taf_visibility_m": 1200,
      "worst_visibility_m": 1200,
      "ceiling_ft": null,
      "hazards": [
        "BR",
        "SN",
        "RA"
      ],
      "severityScore": 50,
      "metarRaw": "METAR LFLS 080830Z AUTO 08008KT 3200 -SNRA BR FEW010/// BKN019/// BKN024/// ///CB M00/M00 Q1015",
      "tafRaw": "TAF LFLS 080200Z 0803/0903 08005KT 9999 OVC050 \n  BECMG 0803/0805 -SN OVC030 \n  TEMPO 0803/0808 1200 SN BKN008 \n  FM080800 08006KT 9999 -RA OVC030 \n  TEMPO 0808/0815 4000 RA BKN012 \n  PROB30 \n  TEMPO 0815/0820 4000 -RA BR \n  BECMG 0819/0821 18012KT 9999 BKN060 \n  PROB40 \n  TEMPO 0821/0903 18020G30KT",
      "metarHtml": "METAR LFLS 080830Z AUTO 08008KT 3200 -SNRA <span class=\"hl\">BR</span> FEW010/// BKN019/// BKN024/// ///CB M00/M00 Q1015",
      "tafHtml": "TAF LFLS 080200Z 0803/0903 08005KT 9999 OVC050 \n  BECMG 0803/0805 -<span class=\"hl\">SN</span> OVC030 \n  TEMPO 0803/0808 1200 <span class=\"hl\">SN</span> BKN008 \n  FM080800 08006KT 9999 -<span class=\"hl\">RA</span> OVC030 \n  TEMPO 0808/0815 4000 <span class=\"hl\">RA</span> BKN012 \n  PROB30 \n  TEMPO 0815/0820 4000 -<span class=\"hl\">RA</span> <span class=\"hl\">BR</span> \n  BECMG 0819/0821 18012KT 9999 BKN060 \n  PROB40 \n  TEMPO 0821/0903 18020G30KT"
    },
    {
      "icao": "UBBB",
      "iata": "GYD",
      "name": "Heydar Aliyev International Airport",
      "updatedAt": "080830Z",
      "visibility_m": 1000,
      "taf_visibility_m": null,
      "worst_visibility_m": 1000,
      "ceiling_ft": 500,
      "hazards": [
        "BR"
      ],
      "severityScore": 50,
      "metarRaw": "METAR UBBB 080830Z 15006KT 1000 R16/1000 R17/P2000 BR BKN005 06/06 Q1018 NOSIG",
      "tafRaw": null,
      "metarHtml": "METAR UBBB 080830Z 15006KT 1000 R16/1000 R17/P2000 <span class=\"hl\">BR</span> BKN005 06/06 Q1018 NOSIG",
      "tafHtml": null
    },
    {
      "icao": "EYKA",
      "iata": "KUN",
      "name": "Kaunas International Airport",
      "updatedAt": "080850Z",
      "visibility_m": 4900,
      "taf_visibility_m": 3000,
      "worst_visibility_m": 3000,
      "ceiling_ft": 400,
      "hazards": [
        "BR"
      ],
      "severityScore": 45,
      "metarRaw": "METAR EYKA 080850Z VRB02KT 4900 BR OVC004 M09/M10 Q1014",
      "tafRaw": "TAF EYKA 080506Z 0806/0906 VRB05KT 5000 BR OVC005 \n  TEMPO 0806/0808 3000 OVC002 \n  BECMG 0809/0812 8000 NSW OVC010 \n  BECMG 0816/0818 04010KT BKN015",
      "metarHtml": "METAR EYKA 080850Z VRB02KT 4900 <span class=\"hl\">BR</span> OVC004 M09/M10 Q1014",
      "tafHtml": "TAF EYKA 080506Z 0806/0906 VRB05KT 5000 <span class=\"hl\">BR</span> OVC005 \n  TEMPO 0806/0808 3000 OVC002 \n  BECMG 0809/0812 8000 NSW OVC010 \n  BECMG 0816/0818 04010KT BKN015"
    },
    {
      "icao": "EYVI",
      "iata": "VNO",
      "name": "Vilnius International Airport",
      "updatedAt": "080850Z",
      "visibility_m": 10000,
      "taf_visibility_m": 1500,
      "worst_visibility_m": 1500,
      "ceiling_ft": 700,
      "hazards": [
        "BR"
      ],
      "severityScore": 45,
      "metarRaw": "METAR EYVI 080850Z 05013KT 9999 OVC007 M08/M10 Q1012 NOSIG",
      "tafRaw": "TAF EYVI 080515Z 0806/0906 06010KT 5000 BR OVC005 \n  TEMPO 0806/0809 VRB04KT 3000 OVC002 \n  PROB40 \n  TEMPO 0806/0809 1500 \n  BECMG 0809/0812 8000 NSW OVC010 \n  TEMPO 0812/0821 OVC015 \n  TEMPO 0821/0903 03015G25KT BKN015 \n  BECMG 0903/0906 03015G25KT NSC",
      "metarHtml": "METAR EYVI 080850Z 05013KT 9999 OVC007 M08/M10 Q1012 NOSIG",
      "tafHtml": "TAF EYVI 080515Z 0806/0906 06010KT 5000 <span class=\"hl\">BR</span> OVC005 \n  TEMPO 0806/0809 VRB04KT 3000 OVC002 \n  PROB40 \n  TEMPO 0806/0809 1500 \n  BECMG 0809/0812 8000 NSW OVC010 \n  TEMPO 0812/0821 OVC015 \n  TEMPO 0821/0903 03015G25KT BKN015 \n  BECMG 0903/0906 03015G25KT NSC"
    },
    {
      "icao": "LRIA",
      "iata": "IAS",
      "name": "Iaşi Airport",
      "updatedAt": "080830Z",
      "visibility_m": 10000,
      "taf_visibility_m": 3000,
      "worst_visibility_m": 3000,
      "ceiling_ft": 600,
      "hazards": [
        "SN"
      ],
      "severityScore": 43,
      "metarRaw": "METAR LRIA 080830Z 32008KT 9999 BKN006 OVC017 M02/M02 Q0998",
      "tafRaw": "TAF LRIA 080800Z 0809/0818 31010KT 8000 -SN OVC005 \n  BECMG 0809/0811 NSW BKN010 OVC030 \n  TEMPO 0811/0818 31015G25KT \n  TEMPO 0812/0816 3000 SN BKN005 OVC020",
      "metarHtml": "METAR LRIA 080830Z 32008KT 9999 BKN006 OVC017 M02/M02 Q0998",
      "tafHtml": "TAF LRIA 080800Z 0809/0818 31010KT 8000 -<span class=\"hl\">SN</span> OVC005 \n  BECMG 0809/0811 NSW BKN010 OVC030 \n  TEMPO 0811/0818 31015G25KT \n  TEMPO 0812/0816 3000 <span class=\"hl\">SN</span> BKN005 OVC020"
    },
    {
      "icao": "LQTZ",
      "iata": "TZL",
      "name": "Tuzla International Airport",
      "updatedAt": "080830Z",
      "visibility_m": 8000,
      "taf_visibility_m": 2000,
      "worst_visibility_m": 2000,
      "ceiling_ft": 1500,
      "hazards": [
        "BR",
        "SN"
      ],
      "severityScore": 40,
      "metarRaw": "METAR LQTZ 080830Z 30007KT 8000 BKN015 M05/M06 Q1012 RESN",
      "tafRaw": "TAF LQTZ 080500Z 0806/0906 23005KT 9999 SCT013 BKN030 TXM02/0813Z TNM08/0905Z \n  TEMPO 0806/0814 30010KT \n  PROB40 \n  TEMPO 0806/0809 2000 -SN BR BKN005 OVC015",
      "metarHtml": "METAR LQTZ 080830Z 30007KT 8000 BKN015 M05/M06 Q1012 RESN",
      "tafHtml": "TAF LQTZ 080500Z 0806/0906 23005KT 9999 SCT013 BKN030 TXM02/0813Z TNM08/0905Z \n  TEMPO 0806/0814 30010KT \n  PROB40 \n  TEMPO 0806/0809 2000 -<span class=\"hl\">SN</span> <span class=\"hl\">BR</span> BKN005 OVC015"
    },
    {
      "icao": "LROP",
      "iata": "OTP",
      "name": "Bucharest Henri Coandă International Airport",
      "updatedAt": "080830Z",
      "visibility_m": 8000,
      "taf_visibility_m": 3000,
      "worst_visibility_m": 3000,
      "ceiling_ft": 3700,
      "hazards": [
        "SN",
        "BR",
        "RA"
      ],
      "severityScore": 40,
      "metarRaw": "METAR LROP 080830Z 25011KT 8000 -SN SCT003 OVC037 00/00 Q0998 NOSIG",
      "tafRaw": "TAF LROP 080500Z 0806/0906 VRB04KT 7000 -RA BKN005 OVC015 \n  BECMG 0806/0808 26012KT 5000 -SN BR BKN010 OVC025 \n  TEMPO 0808/0812 3000 SN BR BKN005 OVC020 \n  BECMG 0812/0814 9999 NSW BKN025",
      "metarHtml": "METAR LROP 080830Z 25011KT 8000 -<span class=\"hl\">SN</span> SCT003 OVC037 00/00 Q0998 NOSIG",
      "tafHtml": "TAF LROP 080500Z 0806/0906 VRB04KT 7000 -<span class=\"hl\">RA</span> BKN005 OVC015 \n  BECMG 0806/0808 26012KT 5000 -<span class=\"hl\">SN</span> <span class=\"hl\">BR</span> BKN010 OVC025 \n  TEMPO 0808/0812 3000 <span class=\"hl\">SN</span> <span class=\"hl\">BR</span> BKN005 OVC020 \n  BECMG 0812/0814 9999 NSW BKN025"
    },
    {
      "icao": "LRSM",
      "iata": "SUJ",
      "name": "Satu Mare International Airport",
      "updatedAt": "080830Z",
      "visibility_m": 4000,
      "taf_visibility_m": 3000,
      "worst_visibility_m": 3000,
      "ceiling_ft": 1800,
      "hazards": [
        "BR",
        "SN"
      ],
      "severityScore": 40,
      "metarRaw": "METAR LRSM 080830Z 26012KT 4000 -SN BR SCT006 OVC018 M04/M05 Q1004",
      "tafRaw": "TAF LRSM 080800Z 0809/0818 26010KT 5000 BR SCT010 BKN025 \n  TEMPO 0809/0812 3000 -SN BR BKN010 OVC020 \n  BECMG 0813/0815 9999 NSW",
      "metarHtml": "METAR LRSM 080830Z 26012KT 4000 -<span class=\"hl\">SN</span> <span class=\"hl\">BR</span> SCT006 OVC018 M04/M05 Q1004",
      "tafHtml": "TAF LRSM 080800Z 0809/0818 26010KT 5000 <span class=\"hl\">BR</span> SCT010 BKN025 \n  TEMPO 0809/0812 3000 -<span class=\"hl\">SN</span> <span class=\"hl\">BR</span> BKN010 OVC020 \n  BECMG 0813/0815 9999 NSW"
    },
    {
      "icao": "LCPH",
      "iata": "PFO",
      "name": "Paphos International Airport",
      "updatedAt": "080830Z",
      "visibility_m": 10000,
      "taf_visibility_m": 3000,
      "worst_visibility_m": 3000,
      "ceiling_ft": null,
      "hazards": [
        "TSRA",
        "SHRA"
      ],
      "severityScore": 39,
      "metarRaw": "METAR LCPH 080830Z 10017KT CAVOK 22/06 Q1016 NOSIG",
      "tafRaw": "TAF LCPH 080530Z 0806/0906 07007KT 9999 FEW025 \n  BECMG 0806/0808 12015KT \n  BECMG 0816/0818 29010KT \n  BECMG 0818/0821 29025KT \n  PROB40 \n  TEMPO 0818/0906 29025G35KT \n  TEMPO 0818/0906 VRB15G25KT 5000 SHRA BKN020TCU \n  PROB30 \n  TEMPO 0820/0906 VRB25G35KT 3000 TSRA SCT020CB",
      "metarHtml": "METAR LCPH 080830Z 10017KT <span class=\"hl-vis\">CAVOK</span> 22/06 Q1016 NOSIG",
      "tafHtml": "TAF LCPH 080530Z 0806/0906 07007KT 9999 FEW025 \n  BECMG 0806/0808 12015KT \n  BECMG 0816/0818 29010KT \n  BECMG 0818/0821 29025KT \n  PROB40 \n  TEMPO 0818/0906 29025G35KT \n  TEMPO 0818/0906 VRB15G25KT 5000 <span class=\"hl\">SHRA</span> BKN020TCU \n  PROB30 \n  TEMPO 0820/0906 VRB25G35KT 3000 <span class=\"hl\">TSRA</span> SCT020CB"
    },
    {
      "icao": "EGPF",
      "iata": "GLA",
      "name": "Glasgow Airport",
      "updatedAt": "080820Z",
      "visibility_m": 10000,
      "taf_visibility_m": 3000,
      "worst_visibility_m": 3000,
      "ceiling_ft": 2100,
      "hazards": [
        "FZDZ",
        "BR"
      ],
      "severityScore": 38,
      "metarRaw": "METAR EGPF 080820Z 07004KT 9999 -FZDZ OVC021 M01/M01 Q1001 RERA REFZDZ",
      "tafRaw": "TAF EGPF 080455Z 0806/0906 VRB04KT 9999 SCT025 \n  TEMPO 0806/0821 BKN014 \n  PROB30 \n  TEMPO 0806/0812 3000 SHRASN BR BKN007 \n  PROB30 \n  TEMPO 0812/0820 6000",
      "metarHtml": "METAR EGPF 080820Z 07004KT 9999 -<span class=\"hl\">FZDZ</span> OVC021 M01/M01 Q1001 RERA REFZDZ",
      "tafHtml": "TAF EGPF 080455Z 0806/0906 VRB04KT 9999 SCT025 \n  TEMPO 0806/0821 BKN014 \n  PROB30 \n  TEMPO 0806/0812 3000 SHRASN <span class=\"hl\">BR</span> BKN007 \n  PROB30 \n  TEMPO 0812/0820 6000"
    },
    {
      "icao": "EPKK",
      "iata": "KRK",
      "name": "Kraków John Paul II International Airport",
      "updatedAt": "080830Z",
      "visibility_m": 2500,
      "taf_visibility_m": 1200,
      "worst_visibility_m": 1200,
      "ceiling_ft": 2500,
      "hazards": [
        "BR",
        "SN"
      ],
      "severityScore": 38,
      "metarRaw": "METAR EPKK 080830Z COR 25004KT 2500 -SN BR SCT014 BKN025 M06/M08 Q1009",
      "tafRaw": "TAF EPKK 080830Z 0809/0909 25004KT 5000 -SN BR FEW008 BKN020 \n  BECMG 0809/0812 32010KT \n  TEMPO 0809/0812 1500 SN BR BKN007 BKN012 \n  TEMPO 0812/0902 25005KT 4500 -SN BR BKN012 \n  BECMG 0902/0904 VRB02KT \n  TEMPO 0902/0907 1200 BR BKN003",
      "metarHtml": "METAR EPKK 080830Z COR 25004KT 2500 -<span class=\"hl\">SN</span> <span class=\"hl\">BR</span> SCT014 BKN025 M06/M08 Q1009",
      "tafHtml": "TAF EPKK 080830Z 0809/0909 25004KT 5000 -<span class=\"hl\">SN</span> <span class=\"hl\">BR</span> FEW008 BKN020 \n  BECMG 0809/0812 32010KT \n  TEMPO 0809/0812 1500 <span class=\"hl\">SN</span> <span class=\"hl\">BR</span> BKN007 BKN012 \n  TEMPO 0812/0902 25005KT 4500 -<span class=\"hl\">SN</span> <span class=\"hl\">BR</span> BKN012 \n  BECMG 0902/0904 VRB02KT \n  TEMPO 0902/0907 1200 <span class=\"hl\">BR</span> BKN003"
    },
    {
      "icao": "EPRA",
      "iata": "RDO",
      "name": "Warsaw Radom Airport",
      "updatedAt": "080830Z",
      "visibility_m": 1700,
      "taf_visibility_m": 1200,
      "worst_visibility_m": 1200,
      "ceiling_ft": 2000,
      "hazards": [
        "BR",
        "SN"
      ],
      "severityScore": 38,
      "metarRaw": "METAR EPRA 080830Z 35007KT 1700 -SN BR OVC020 M08/M10 Q1009",
      "tafRaw": "TAF EPRA 080830Z 0809/0818 35010KT 2500 -SN BR OVC020 \n  TEMPO 0809/0816 1200 SN BR BKN006 OVC012",
      "metarHtml": "METAR EPRA 080830Z 35007KT 1700 -<span class=\"hl\">SN</span> <span class=\"hl\">BR</span> OVC020 M08/M10 Q1009",
      "tafHtml": "TAF EPRA 080830Z 0809/0818 35010KT 2500 -<span class=\"hl\">SN</span> <span class=\"hl\">BR</span> OVC020 \n  TEMPO 0809/0816 1200 <span class=\"hl\">SN</span> <span class=\"hl\">BR</span> BKN006 OVC012"
    },
    {
      "icao": "LBWN",
      "iata": "VAR",
      "name": "Varna Airport",
      "updatedAt": "080830Z",
      "visibility_m": 10000,
      "taf_visibility_m": 2000,
      "worst_visibility_m": 2000,
      "ceiling_ft": 2200,
      "hazards": [
        "TSRA",
        "RA"
      ],
      "severityScore": 37,
      "metarRaw": "METAR LBWN 080830Z 28011G23KT 240V310 9999 SCT013 BKN022 04/03 Q0999 TEMPO 27018G30KT",
      "tafRaw": "TAF LBWN 080500Z 0806/0906 28018G28KT 9999 OVC035 \n  TEMPO 0806/0812 28028G40KT 3000 RA SCT010 BKN015 OVC030 \n  PROB40 0806/0810 2000 TSRA SCT033CB \n  PROB40 \n  TEMPO 0812/0816 2000 SNRA SCT010 BKN015 OVC030",
      "metarHtml": "METAR LBWN 080830Z 28011G23KT 240V310 9999 SCT013 BKN022 04/03 Q0999 TEMPO 27018G30KT",
      "tafHtml": "TAF LBWN 080500Z 0806/0906 28018G28KT 9999 OVC035 \n  TEMPO 0806/0812 28028G40KT 3000 <span class=\"hl\">RA</span> SCT010 BKN015 OVC030 \n  PROB40 0806/0810 2000 <span class=\"hl\">TSRA</span> SCT033CB \n  PROB40 \n  TEMPO 0812/0816 2000 SNRA SCT010 BKN015 OVC030"
    },
    {
      "icao": "LICA",
      "iata": "SUF",
      "name": "Lamezia Terme Sant'Eufemia International Airport",
      "updatedAt": "080820Z",
      "visibility_m": 10000,
      "taf_visibility_m": 3000,
      "worst_visibility_m": 3000,
      "ceiling_ft": null,
      "hazards": [
        "RA",
        "TSRA"
      ],
      "severityScore": 37,
      "metarRaw": "METAR LICA 080820Z AUTO 26016KT 9999 RA BKN023/// BKN078/// 09/07 Q1013",
      "tafRaw": "TAF LICA 080500Z 0806/0906 28020G30KT 9999 SCT030 \n  PROB40 \n  TEMPO 0806/0815 3000 TSRA \n  BECMG 0813/0815 29013KT",
      "metarHtml": "METAR LICA 080820Z AUTO 26016KT 9999 <span class=\"hl\">RA</span> BKN023/// BKN078/// 09/07 Q1013",
      "tafHtml": "TAF LICA 080500Z 0806/0906 28020G30KT 9999 SCT030 \n  PROB40 \n  TEMPO 0806/0815 3000 <span class=\"hl\">TSRA</span> \n  BECMG 0813/0815 29013KT"
    },
    {
      "icao": "LEXJ",
      "iata": "SDR",
      "name": "Seve Ballesteros-Santander Airport",
      "updatedAt": "080830Z",
      "visibility_m": 10000,
      "taf_visibility_m": 1500,
      "worst_visibility_m": 1500,
      "ceiling_ft": null,
      "hazards": [
        "RA",
        "SHRA"
      ],
      "severityScore": 36,
      "metarRaw": "METAR LEXJ 080830Z 23010KT 9999 FEW050 11/05 Q1022",
      "tafRaw": "TAF LEXJ 080800Z 0809/0909 24009KT 9999 FEW030 SCT060 TX15/0813Z TN10/0906Z \n  TEMPO 0810/0821 22018G28KT \n  TEMPO 0819/0909 27020G33KT 3000 RA \n  PROB40 \n  TEMPO 0821/0824 1500 +SHRA BKN010 SCT025TCU \n  PROB30 \n  TEMPO 0821/0909 27025G43KT \n  PROB30 \n  TEMPO 0900/0909 1500 SHRA BKN010 SCT025TCU",
      "metarHtml": "METAR LEXJ 080830Z 23010KT 9999 FEW050 11/05 Q1022",
      "tafHtml": "TAF LEXJ 080800Z 0809/0909 24009KT 9999 FEW030 SCT060 TX15/0813Z TN10/0906Z \n  TEMPO 0810/0821 22018G28KT \n  TEMPO 0819/0909 27020G33KT 3000 <span class=\"hl\">RA</span> \n  PROB40 \n  TEMPO 0821/0824 1500 +<span class=\"hl\">SHRA</span> BKN010 SCT025TCU \n  PROB30 \n  TEMPO 0821/0909 27025G43KT \n  PROB30 \n  TEMPO 0900/0909 1500 <span class=\"hl\">SHRA</span> BKN010 SCT025TCU"
    },
    {
      "icao": "LPPR",
      "iata": "OPO",
      "name": "Francisco de Sá Carneiro Airport",
      "updatedAt": "080830Z",
      "visibility_m": 5000,
      "taf_visibility_m": 2000,
      "worst_visibility_m": 2000,
      "ceiling_ft": 500,
      "hazards": [
        "BR"
      ],
      "severityScore": 35,
      "metarRaw": "METAR LPPR 080830Z 17009KT 5000 BR BKN005 BKN017 09/09 Q1030",
      "tafRaw": "TAF LPPR 080500Z 0806/0906 13007KT 9999 SCT012 BKN025 \n  TEMPO 0806/0906 5000 -RADZ BR SCT004 BKN008 \n  BECMG 0807/0809 17012KT \n  BECMG 0815/0817 23015KT \n  PROB40 \n  TEMPO 0817/0823 23017G27KT 2000 RADZ BR BKN003 \n  BECMG 0823/0901 30010KT SCT015",
      "metarHtml": "METAR LPPR 080830Z 17009KT 5000 <span class=\"hl\">BR</span> BKN005 BKN017 09/09 Q1030",
      "tafHtml": "TAF LPPR 080500Z 0806/0906 13007KT 9999 SCT012 BKN025 \n  TEMPO 0806/0906 5000 -RADZ <span class=\"hl\">BR</span> SCT004 BKN008 \n  BECMG 0807/0809 17012KT \n  BECMG 0815/0817 23015KT \n  PROB40 \n  TEMPO 0817/0823 23017G27KT 2000 RADZ <span class=\"hl\">BR</span> BKN003 \n  BECMG 0823/0901 30010KT SCT015"
    },
    {
      "icao": "LKPR",
      "iata": "PRG",
      "name": "Václav Havel Airport Prague",
      "updatedAt": "080830Z",
      "visibility_m": 10000,
      "taf_visibility_m": 2000,
      "worst_visibility_m": 2000,
      "ceiling_ft": 1800,
      "hazards": [
        "SN"
      ],
      "severityScore": 30,
      "metarRaw": "METAR LKPR 080830Z 15003KT 120V200 9999 BKN018 M07/M09 Q1009 NOSIG",
      "tafRaw": "TAF LKPR 080800Z 0809/0915 20006KT 9999 BKN018 \n  TEMPO 0809/0820 BKN025 \n  PROB30 \n  TEMPO 0809/0817 6000 -SN BKN009 \n  BECMG 0821/0823 12007KT \n  BECMG 0904/0906 BKN012 \n  TEMPO 0906/0911 4000 SN OVC006 \n  PROB30 \n  TEMPO 0906/0909 2000 SN OVC003",
      "metarHtml": "METAR LKPR 080830Z 15003KT 120V200 9999 BKN018 M07/M09 Q1009 NOSIG",
      "tafHtml": "TAF LKPR 080800Z 0809/0915 20006KT 9999 BKN018 \n  TEMPO 0809/0820 BKN025 \n  PROB30 \n  TEMPO 0809/0817 6000 -<span class=\"hl\">SN</span> BKN009 \n  BECMG 0821/0823 12007KT \n  BECMG 0904/0906 BKN012 \n  TEMPO 0906/0911 4000 <span class=\"hl\">SN</span> OVC006 \n  PROB30 \n  TEMPO 0906/0909 2000 <span class=\"hl\">SN</span> OVC003"
    },
    {
      "icao": "LRBC",
      "iata": "BCM",
      "name": "Bacău George Enescu International  Airport",
      "updatedAt": "080830Z",
      "visibility_m": 10000,
      "taf_visibility_m": 3000,
      "worst_visibility_m": 3000,
      "ceiling_ft": 1200,
      "hazards": [
        "SN"
      ],
      "severityScore": 30,
      "metarRaw": "METAR LRBC 080830Z 34009KT 9999 BKN012 M01/M04 Q0998",
      "tafRaw": "TAF LRBC 080800Z 0809/0818 34010KT 9999 BKN030 \n  TEMPO 0810/0816 3000 SN BKN010 OVC025",
      "metarHtml": "METAR LRBC 080830Z 34009KT 9999 BKN012 M01/M04 Q0998",
      "tafHtml": "TAF LRBC 080800Z 0809/0818 34010KT 9999 BKN030 \n  TEMPO 0810/0816 3000 <span class=\"hl\">SN</span> BKN010 OVC025"
    },
    {
      "icao": "LWSK",
      "iata": "SKP",
      "name": "Skopje International Airport",
      "updatedAt": "080850Z",
      "visibility_m": 2500,
      "taf_visibility_m": 3000,
      "worst_visibility_m": 2500,
      "ceiling_ft": 1500,
      "hazards": [
        "SN"
      ],
      "severityScore": 30,
      "metarRaw": "METAR LWSK 080850Z 35010KT 290V020 2500 -SN FEW005 BKN015 OVC030 00/M03 Q1006 NOSIG",
      "tafRaw": "TAF LWSK 080840Z 0809/0909 36012KT 9999 SCT020 OVC035 \n  TEMPO 0809/0811 3000 -SN SCT005 BKN015 OVC030 \n  TEMPO 0809/0816 03015G25KT \n  BECMG 0812/0814 SCT030 BKN060",
      "metarHtml": "METAR LWSK 080850Z 35010KT 290V020 2500 -<span class=\"hl\">SN</span> FEW005 BKN015 OVC030 00/M03 Q1006 NOSIG",
      "tafHtml": "TAF LWSK 080840Z 0809/0909 36012KT 9999 SCT020 OVC035 \n  TEMPO 0809/0811 3000 -<span class=\"hl\">SN</span> SCT005 BKN015 OVC030 \n  TEMPO 0809/0816 03015G25KT \n  BECMG 0812/0814 SCT030 BKN060"
    },
    {
      "icao": "ENGM",
      "iata": "OSL",
      "name": "Oslo-Gardermoen International Airport",
      "updatedAt": "080820Z",
      "visibility_m": 10000,
      "taf_visibility_m": 1200,
      "worst_visibility_m": 1200,
      "ceiling_ft": null,
      "hazards": [
        "SN"
      ],
      "severityScore": 28,
      "metarRaw": "METAR ENGM 080820Z 18007KT 9999 FEW020 M12/M13 Q1002 NOSIG",
      "tafRaw": "TAF ENGM 080500Z 0806/0906 27003KT 9999 BKN018 \n  BECMG 0820/0822 BKN012 \n  TEMPO 0822/0903 1200 -SN VV008 \n  TEMPO 0903/0906 BKN020",
      "metarHtml": "METAR ENGM 080820Z 18007KT 9999 FEW020 M12/M13 Q1002 NOSIG",
      "tafHtml": "TAF ENGM 080500Z 0806/0906 27003KT 9999 BKN018 \n  BECMG 0820/0822 BKN012 \n  TEMPO 0822/0903 1200 -<span class=\"hl\">SN</span> VV008 \n  TEMPO 0903/0906 BKN020"
    },
    {
      "icao": "ENTO",
      "iata": "TRF",
      "name": "Sandefjord Airport, Torp",
      "updatedAt": "080820Z",
      "visibility_m": 10000,
      "taf_visibility_m": 1200,
      "worst_visibility_m": 1200,
      "ceiling_ft": null,
      "hazards": [
        "SN"
      ],
      "severityScore": 28,
      "metarRaw": "METAR ENTO 080820Z 25004KT CAVOK M11/M13 Q1004 NOSIG",
      "tafRaw": "TAF ENTO 080500Z 0806/0906 27003KT CAVOK \n  BECMG 0818/0820 01010KT BKN012 \n  TEMPO 0820/0824 1200 SN VV006 \n  BECMG 0902/0904 07010KT BKN020",
      "metarHtml": "METAR ENTO 080820Z 25004KT <span class=\"hl-vis\">CAVOK</span> M11/M13 Q1004 NOSIG",
      "tafHtml": "TAF ENTO 080500Z 0806/0906 27003KT <span class=\"hl-vis\">CAVOK</span> \n  BECMG 0818/0820 01010KT BKN012 \n  TEMPO 0820/0824 1200 <span class=\"hl\">SN</span> VV006 \n  BECMG 0902/0904 07010KT BKN020"
    },
    {
      "icao": "EPMO",
      "iata": "WMI",
      "name": "Modlin Airport",
      "updatedAt": "080830Z",
      "visibility_m": 2300,
      "taf_visibility_m": 2500,
      "worst_visibility_m": 2300,
      "ceiling_ft": null,
      "hazards": [
        "BR",
        "SN"
      ],
      "severityScore": 28,
      "metarRaw": "METAR EPMO 080830Z 35004KT 2300 BR SCT006 M10/M11 Q1011",
      "tafRaw": "TAF EPMO 080530Z 0806/0906 VRB02KT 3500 BR SCT005 BKN015 \n  TEMPO 0806/0809 2500 -SN BR BKN005 \n  BECMG 0806/0808 01010KT \n  BECMG 0808/0810 8000 \n  TEMPO 0820/0906 3000 -SN BR BKN003",
      "metarHtml": "METAR EPMO 080830Z 35004KT 2300 <span class=\"hl\">BR</span> SCT006 M10/M11 Q1011",
      "tafHtml": "TAF EPMO 080530Z 0806/0906 VRB02KT 3500 <span class=\"hl\">BR</span> SCT005 BKN015 \n  TEMPO 0806/0809 2500 -<span class=\"hl\">SN</span> <span class=\"hl\">BR</span> BKN005 \n  BECMG 0806/0808 01010KT \n  BECMG 0808/0810 8000 \n  TEMPO 0820/0906 3000 -<span class=\"hl\">SN</span> <span class=\"hl\">BR</span> BKN003"
    },
    {
      "icao": "LRTR",
      "iata": "TSR",
      "name": "Timişoara Traian Vuia Airport",
      "updatedAt": "080830Z",
      "visibility_m": 6000,
      "taf_visibility_m": 3000,
      "worst_visibility_m": 3000,
      "ceiling_ft": null,
      "hazards": [
        "BR",
        "SN"
      ],
      "severityScore": 28,
      "metarRaw": "METAR LRTR 080830Z 28011KT 6000 SCT042 M06/M06 Q1008 NOSIG",
      "tafRaw": "TAF LRTR 080500Z 0806/0906 30010KT 3000 -SN BR BKN015 OVC030 \n  BECMG 0806/0808 9999 NSW BKN025 \n  BECMG 0821/0823 VRB03KT \n  TEMPO 0901/0906 3000 BR BKN010",
      "metarHtml": "METAR LRTR 080830Z 28011KT 6000 SCT042 M06/M06 Q1008 NOSIG",
      "tafHtml": "TAF LRTR 080500Z 0806/0906 30010KT 3000 -<span class=\"hl\">SN</span> <span class=\"hl\">BR</span> BKN015 OVC030 \n  BECMG 0806/0808 9999 NSW BKN025 \n  BECMG 0821/0823 VRB03KT \n  TEMPO 0901/0906 3000 <span class=\"hl\">BR</span> BKN010"
    },
    {
      "icao": "LFLL",
      "iata": "LYS",
      "name": "Lyon Saint-Exupéry Airport",
      "updatedAt": "080830Z",
      "visibility_m": 3000,
      "taf_visibility_m": null,
      "worst_visibility_m": 3000,
      "ceiling_ft": 2600,
      "hazards": [
        "BR",
        "RA"
      ],
      "severityScore": 27,
      "metarRaw": "METAR LFLL 080830Z 15005KT 120V180 3000 -RASN BR SCT008 OVC026 00/M00 Q1015 BECMG -RA",
      "tafRaw": null,
      "metarHtml": "METAR LFLL 080830Z 15005KT 120V180 3000 -RASN <span class=\"hl\">BR</span> SCT008 OVC026 00/M00 Q1015 BECMG -<span class=\"hl\">RA</span>",
      "tafHtml": null
    },
    {
      "icao": "EDSB",
      "iata": "FKB",
      "name": "Karlsruhe Baden-Baden Airport",
      "updatedAt": "080820Z",
      "visibility_m": 10000,
      "taf_visibility_m": 3000,
      "worst_visibility_m": 3000,
      "ceiling_ft": 4100,
      "hazards": [
        "RA",
        "SHRA"
      ],
      "severityScore": 26,
      "metarRaw": "METAR EDSB 080820Z 21012KT 9999 FEW033 BKN041 OVC049 02/M01 Q1010",
      "tafRaw": "TAF EDSB 080500Z 0806/0906 20010KT 9999 BKN025 \n  TEMPO 0809/0813 4000 -SNRA \n  TEMPO 0818/0901 3000 RA \n  BECMG 0820/0823 21015G25KT \n  TEMPO 0901/0904 23020G35KT SHRA BKN015CB",
      "metarHtml": "METAR EDSB 080820Z 21012KT 9999 FEW033 BKN041 OVC049 02/M01 Q1010",
      "tafHtml": "TAF EDSB 080500Z 0806/0906 20010KT 9999 BKN025 \n  TEMPO 0809/0813 4000 -SNRA \n  TEMPO 0818/0901 3000 <span class=\"hl\">RA</span> \n  BECMG 0820/0823 21015G25KT \n  TEMPO 0901/0904 23020G35KT <span class=\"hl\">SHRA</span> BKN015CB"
    },
    {
      "icao": "LEBB",
      "iata": "BIO",
      "name": "Bilbao Airport",
      "updatedAt": "080830Z",
      "visibility_m": 10000,
      "taf_visibility_m": 3000,
      "worst_visibility_m": 3000,
      "ceiling_ft": 4000,
      "hazards": [
        "RA",
        "SHRA"
      ],
      "severityScore": 26,
      "metarRaw": "METAR LEBB 080830Z VRB04KT 9999 BKN040 11/05 Q1024 NOSIG",
      "tafRaw": "TAF LEBB 080500Z 0806/0906 22009KT 9999 FEW030 SCT050 TX14/0814Z TN07/0906Z \n  PROB40 \n  TEMPO 0806/0812 22015G25KT \n  TEMPO 0812/0824 22020G33KT \n  PROB40 \n  TEMPO 0822/0902 28012KT 3000 RA \n  PROB30 \n  TEMPO 0822/0906 28010KT 3000 SHRA SCT030TCU",
      "metarHtml": "METAR LEBB 080830Z VRB04KT 9999 BKN040 11/05 Q1024 NOSIG",
      "tafHtml": "TAF LEBB 080500Z 0806/0906 22009KT 9999 FEW030 SCT050 TX14/0814Z TN07/0906Z \n  PROB40 \n  TEMPO 0806/0812 22015G25KT \n  TEMPO 0812/0824 22020G33KT \n  PROB40 \n  TEMPO 0822/0902 28012KT 3000 <span class=\"hl\">RA</span> \n  PROB30 \n  TEMPO 0822/0906 28010KT 3000 <span class=\"hl\">SHRA</span> SCT030TCU"
    },
    {
      "icao": "LLBG",
      "iata": "TLV",
      "name": "Ben Gurion International Airport",
      "updatedAt": "080820Z",
      "visibility_m": 10000,
      "taf_visibility_m": 5000,
      "worst_visibility_m": 5000,
      "ceiling_ft": null,
      "hazards": [
        "TSRA"
      ],
      "severityScore": 25,
      "metarRaw": "METAR LLBG 080820Z 12007KT CAVOK 25/07 Q1018 NOSIG",
      "tafRaw": "TAF LLBG 080503Z 0806/0906 VRB03KT CAVOK \n  TEMPO 0806/0809 15005KT \n  TEMPO 0809/0816 25006KT \n  BECMG 0820/0822 16006KT \n  BECMG 0823/0901 20010KT 9999 SCT030 \n  PROB40 \n  TEMPO 0901/0906 27018G28KT 5000 TSRA FEW020CB BKN025 TX26/0812Z TN14/0904Z",
      "metarHtml": "METAR LLBG 080820Z 12007KT <span class=\"hl-vis\">CAVOK</span> 25/07 Q1018 NOSIG",
      "tafHtml": "TAF LLBG 080503Z 0806/0906 VRB03KT <span class=\"hl-vis\">CAVOK</span> \n  TEMPO 0806/0809 15005KT \n  TEMPO 0809/0816 25006KT \n  BECMG 0820/0822 16006KT \n  BECMG 0823/0901 20010KT 9999 SCT030 \n  PROB40 \n  TEMPO 0901/0906 27018G28KT 5000 <span class=\"hl\">TSRA</span> FEW020CB BKN025 TX26/0812Z TN14/0904Z"
    },
    {
      "icao": "UDYZ",
      "iata": "EVN",
      "name": "Zvartnots International Airport",
      "updatedAt": "080830Z",
      "visibility_m": 1500,
      "taf_visibility_m": null,
      "worst_visibility_m": 1500,
      "ceiling_ft": null,
      "hazards": [
        "BR"
      ],
      "severityScore": 25,
      "metarRaw": "METAR UDYZ 080830Z 24002KT 1500 1300N R08/1500N BR NSC M04/M07 Q1027 NOSIG",
      "tafRaw": null,
      "metarHtml": "METAR UDYZ 080830Z 24002KT 1500 1300N R08/1500N <span class=\"hl\">BR</span> NSC M04/M07 Q1027 NOSIG",
      "tafHtml": null
    },
    {
      "icao": "EDDK",
      "iata": "CGN",
      "name": "Cologne Bonn Airport",
      "updatedAt": "080820Z",
      "visibility_m": 10000,
      "taf_visibility_m": 4000,
      "worst_visibility_m": 4000,
      "ceiling_ft": null,
      "hazards": [
        "BR",
        "RA"
      ],
      "severityScore": 22,
      "metarRaw": "METAR EDDK 080820Z AUTO 16008KT 9999 FEW038 01/M02 Q1007 NOSIG",
      "tafRaw": "TAF EDDK 080500Z 0806/0912 19008KT 9999 OVC040 \n  BECMG 0810/0813 13006KT \n  BECMG 0819/0822 13013KT RA \n  TEMPO 0819/0904 4000 -RA BR BKN012 \n  BECMG 0900/0903 NSW \n  BECMG 0902/0905 19015G25KT \n  TEMPO 0905/0912 19020G30KT RA",
      "metarHtml": "METAR EDDK 080820Z AUTO 16008KT 9999 FEW038 01/M02 Q1007 NOSIG",
      "tafHtml": "TAF EDDK 080500Z 0806/0912 19008KT 9999 OVC040 \n  BECMG 0810/0813 13006KT \n  BECMG 0819/0822 13013KT <span class=\"hl\">RA</span> \n  TEMPO 0819/0904 4000 -<span class=\"hl\">RA</span> <span class=\"hl\">BR</span> BKN012 \n  BECMG 0900/0903 NSW \n  BECMG 0902/0905 19015G25KT \n  TEMPO 0905/0912 19020G30KT <span class=\"hl\">RA</span>"
    },
    {
      "icao": "EHEH",
      "iata": "EIN",
      "name": "Eindhoven Airport",
      "updatedAt": "080825Z",
      "visibility_m": 7000,
      "taf_visibility_m": 2500,
      "worst_visibility_m": 2500,
      "ceiling_ft": 11000,
      "hazards": [
        "BR",
        "RA"
      ],
      "severityScore": 22,
      "metarRaw": "METAR EHEH 080825Z AUTO 17004KT 150V210 7000 BR OVC110 M00/M01 Q1006 WHT NOSIG RMK TREND REMOTE BY EHWX",
      "tafRaw": "TAF EHEH 080550Z 0806/0912 21010KT 9999 BKN030 \n  BECMG 0814/0816 13008KT SCT008 BKN012 \n  TEMPO 0816/0901 3000 RA SCT003 BKN005 OVC010 \n  TEMPO 0901/0905 18015G25KT SCT025 \n  TEMPO 0905/0910 18015G27KT 3500 RA SCT005 BKN008 OVC015 \n  TEMPO 0910/0912 2500 SNRA SCT002 BKN004 OVC010",
      "metarHtml": "METAR EHEH 080825Z AUTO 17004KT 150V210 7000 <span class=\"hl\">BR</span> OVC110 M00/M01 Q1006 WHT NOSIG RMK TREND REMOTE BY EHWX",
      "tafHtml": "TAF EHEH 080550Z 0806/0912 21010KT 9999 BKN030 \n  BECMG 0814/0816 13008KT SCT008 BKN012 \n  TEMPO 0816/0901 3000 <span class=\"hl\">RA</span> SCT003 BKN005 OVC010 \n  TEMPO 0901/0905 18015G25KT SCT025 \n  TEMPO 0905/0910 18015G27KT 3500 <span class=\"hl\">RA</span> SCT005 BKN008 OVC015 \n  TEMPO 0910/0912 2500 SNRA SCT002 BKN004 OVC010"
    },
    {
      "icao": "HESX",
      "iata": "SPX",
      "name": "Sphinx International Airport",
      "updatedAt": "080800Z",
      "visibility_m": 7000,
      "taf_visibility_m": 3000,
      "worst_visibility_m": 3000,
      "ceiling_ft": null,
      "hazards": [
        "BR",
        "RA"
      ],
      "severityScore": 22,
      "metarRaw": "METAR HESX 080800Z 18013KT 7000 NSC 21/04 Q1018 NOSIG",
      "tafRaw": "TAF HESX 080500Z 0806/0912 21010KT 9999 SCT025 \n  TEMPO 0806/0808 VRB03KT 3000 BR NSC \n  PROB30 \n  TEMPO 0809/0816 23012G22KT 4000 SA \n  TEMPO 0822/0906 6000 RA BKN020",
      "metarHtml": "METAR HESX 080800Z 18013KT 7000 NSC 21/04 Q1018 NOSIG",
      "tafHtml": "TAF HESX 080500Z 0806/0912 21010KT 9999 SCT025 \n  TEMPO 0806/0808 VRB03KT 3000 <span class=\"hl\">BR</span> NSC \n  PROB30 \n  TEMPO 0809/0816 23012G22KT 4000 SA \n  TEMPO 0822/0906 6000 <span class=\"hl\">RA</span> BKN020"
    },
    {
      "icao": "LHBP",
      "iata": "BUD",
      "name": "Budapest Liszt Ferenc International Airport",
      "updatedAt": "080830Z",
      "visibility_m": 10000,
      "taf_visibility_m": 4500,
      "worst_visibility_m": 4500,
      "ceiling_ft": null,
      "hazards": [
        "BLSN"
      ],
      "severityScore": 22,
      "metarRaw": "METAR LHBP 080830Z 31013G26KT 9999 DRSN NSC M06/M09 Q1007 NOSIG",
      "tafRaw": "TAF LHBP 080515Z 0806/0906 30013KT CAVOK \n  TEMPO 0806/0817 30016G27KT DRSN FEW020 \n  PROB30 \n  TEMPO 0811/0816 4500 BLSN \n  BECMG 0818/0821 30008KT \n  BECMG 0822/0901 VRB02KT",
      "metarHtml": "METAR LHBP 080830Z 31013G26KT 9999 DRSN NSC M06/M09 Q1007 NOSIG",
      "tafHtml": "TAF LHBP 080515Z 0806/0906 30013KT <span class=\"hl-vis\">CAVOK</span> \n  TEMPO 0806/0817 30016G27KT DRSN FEW020 \n  PROB30 \n  TEMPO 0811/0816 4500 <span class=\"hl\">BLSN</span> \n  BECMG 0818/0821 30008KT \n  BECMG 0822/0901 VRB02KT"
    },
    {
      "icao": "OJAI",
      "iata": "AMM",
      "name": "Queen Alia International Airport",
      "updatedAt": "080800Z",
      "visibility_m": 5000,
      "taf_visibility_m": 3000,
      "worst_visibility_m": 3000,
      "ceiling_ft": null,
      "hazards": [
        "BR",
        "RA"
      ],
      "severityScore": 22,
      "metarRaw": "METAR OJAI 080800Z 12010KT 5000 HZ NSC 15/05 Q1024 NOSIG",
      "tafRaw": "TAF OJAI 080500Z 0806/0912 12010KT 5000 HZ NSC \n  PROB40 \n  TEMPO 0809/0815 13016KT 4000 BLDU \n  BECMG 0816/0818 23012KT \n  BECMG 0900/0902 FEW025TCU SCT030 \n  PROB40 \n  TEMPO 0906/0912 28022KT 3000 RA BR SCT025TCU BKN030",
      "metarHtml": "METAR OJAI 080800Z 12010KT 5000 HZ NSC 15/05 Q1024 NOSIG",
      "tafHtml": "TAF OJAI 080500Z 0806/0912 12010KT 5000 HZ NSC \n  PROB40 \n  TEMPO 0809/0815 13016KT 4000 BLDU \n  BECMG 0816/0818 23012KT \n  BECMG 0900/0902 FEW025TCU SCT030 \n  PROB40 \n  TEMPO 0906/0912 28022KT 3000 <span class=\"hl\">RA</span> <span class=\"hl\">BR</span> SCT025TCU BKN030"
    },
    {
      "icao": "ENAL",
      "iata": "AES",
      "name": "Ålesund Airport, Vigra",
      "updatedAt": "080820Z",
      "visibility_m": 10000,
      "taf_visibility_m": 1200,
      "worst_visibility_m": 1200,
      "ceiling_ft": 4800,
      "hazards": [
        "SHSN"
      ],
      "severityScore": 20,
      "metarRaw": "METAR ENAL 080820Z 15010KT 130V190 9999 FEW024 SCT036 BKN048 M04/M08 Q1003",
      "tafRaw": "TAF ENAL 080800Z 0809/0818 16008KT 9999 SCT040 \n  PROB40 \n  TEMPO 0813/0818 19018KT 1200 SHSN BKN008 SCT020CB",
      "metarHtml": "METAR ENAL 080820Z 15010KT 130V190 9999 FEW024 SCT036 BKN048 M04/M08 Q1003",
      "tafHtml": "TAF ENAL 080800Z 0809/0818 16008KT 9999 SCT040 \n  PROB40 \n  TEMPO 0813/0818 19018KT 1200 <span class=\"hl\">SHSN</span> BKN008 SCT020CB"
    },
    {
      "icao": "UDSG",
      "iata": "LWN",
      "name": "Shirak International Airport",
      "updatedAt": "080830Z",
      "visibility_m": 4500,
      "taf_visibility_m": 1000,
      "worst_visibility_m": 1000,
      "ceiling_ft": null,
      "hazards": [
        "BR"
      ],
      "severityScore": 20,
      "metarRaw": "METAR UDSG 080830Z 30003KT 4500 BR FEW049 M08/M11 Q1024 NOSIG",
      "tafRaw": "TAF UDSG 080500Z 0806/0906 VRB06KT 5000 BR FEW040 \n  TEMPO 0806/0818 1000 BR SCT030",
      "metarHtml": "METAR UDSG 080830Z 30003KT 4500 <span class=\"hl\">BR</span> FEW049 M08/M11 Q1024 NOSIG",
      "tafHtml": "TAF UDSG 080500Z 0806/0906 VRB06KT 5000 <span class=\"hl\">BR</span> FEW040 \n  TEMPO 0806/0818 1000 <span class=\"hl\">BR</span> SCT030"
    },
    {
      "icao": "LTFM",
      "iata": "IST",
      "name": "İstanbul Airport",
      "updatedAt": "080820Z",
      "visibility_m": 10000,
      "taf_visibility_m": null,
      "worst_visibility_m": 10000,
      "ceiling_ft": 2800,
      "hazards": [
        "SHRA"
      ],
      "severityScore": 19,
      "metarRaw": "METAR LTFM 080820Z 19027G37KT 9999 -SHRA FEW018CB BKN028 BKN080 13/10 Q1000 NOSIG RMK RWY17L 20028G38KT RWY34L 19025KT RWY16R 19027G38KT RWY36 20026G36KT RWY18 20030KT",
      "tafRaw": null,
      "metarHtml": "METAR LTFM 080820Z 19027G37KT 9999 -<span class=\"hl\">SHRA</span> FEW018CB BKN028 BKN080 13/10 Q1000 NOSIG RMK RWY17L 20028G38KT RWY34L 19025KT RWY16R 19027G38KT RWY36 20026G36KT RWY18 20030KT",
      "tafHtml": null
    },
    {
      "icao": "EDDB",
      "iata": "BER",
      "name": "Berlin Brandenburg Airport",
      "updatedAt": "080820Z",
      "visibility_m": 10000,
      "taf_visibility_m": 4000,
      "worst_visibility_m": 4000,
      "ceiling_ft": 3000,
      "hazards": [
        "SN"
      ],
      "severityScore": 18,
      "metarRaw": "METAR EDDB 080820Z AUTO 13006KT 9999 BKN030 M09/M12 Q1010 NOSIG",
      "tafRaw": "TAF EDDB 080500Z 0806/0906 12007KT 9000 BKN035 \n  PROB30 \n  TEMPO 0812/0817 4500 -SN BKN009 \n  PROB30 \n  TEMPO 0818/0906 4000 -SG BKN004",
      "metarHtml": "METAR EDDB 080820Z AUTO 13006KT 9999 BKN030 M09/M12 Q1010 NOSIG",
      "tafHtml": "TAF EDDB 080500Z 0806/0906 12007KT 9000 BKN035 \n  PROB30 \n  TEMPO 0812/0817 4500 -<span class=\"hl\">SN</span> BKN009 \n  PROB30 \n  TEMPO 0818/0906 4000 -SG BKN004"
    },
    {
      "icao": "EKBI",
      "iata": "BLL",
      "name": "Billund Airport",
      "updatedAt": "080820Z",
      "visibility_m": 6000,
      "taf_visibility_m": 3000,
      "worst_visibility_m": 3000,
      "ceiling_ft": null,
      "hazards": [
        "SN"
      ],
      "severityScore": 18,
      "metarRaw": "METAR EKBI 080820Z AUTO 13005KT 100V170 6000 -SN FEW007/// OVC024/// M02/M03 Q1005",
      "tafRaw": "TAF EKBI 080827Z 0809/0909 12008KT 7000 BKN006 \n  TEMPO 0809/0823 SCT008 BKN020 \n  TEMPO 0823/0905 3000 -SN DRSN \n  BECMG 0901/0904 11018KT \n  FM090500 09022G36KT 9999 FEW015 \n  TEMPO 0905/0909 DRSN",
      "metarHtml": "METAR EKBI 080820Z AUTO 13005KT 100V170 6000 -<span class=\"hl\">SN</span> FEW007/// OVC024/// M02/M03 Q1005",
      "tafHtml": "TAF EKBI 080827Z 0809/0909 12008KT 7000 BKN006 \n  TEMPO 0809/0823 SCT008 BKN020 \n  TEMPO 0823/0905 3000 -<span class=\"hl\">SN</span> DRSN \n  BECMG 0901/0904 11018KT \n  FM090500 09022G36KT 9999 FEW015 \n  TEMPO 0905/0909 DRSN"
    },
    {
      "icao": "ENVA",
      "iata": "TRD",
      "name": "Trondheim Airport, Værnes",
      "updatedAt": "080820Z",
      "visibility_m": 10000,
      "taf_visibility_m": 4000,
      "worst_visibility_m": 4000,
      "ceiling_ft": null,
      "hazards": [
        "SN"
      ],
      "severityScore": 18,
      "metarRaw": "METAR ENVA 080820Z 07014KT 020V090 CAVOK M06/M13 Q1005 NOSIG RMK WIND 670FT 08016KT",
      "tafRaw": "TAF ENVA 080500Z 0806/0906 07012KT 9999 -SN SCT050 \n  PROB30 0822/0901 4000 -SN VV014 \n  BECMG 0822/0824 15012KT",
      "metarHtml": "METAR ENVA 080820Z 07014KT 020V090 <span class=\"hl-vis\">CAVOK</span> M06/M13 Q1005 NOSIG RMK WIND 670FT 08016KT",
      "tafHtml": "TAF ENVA 080500Z 0806/0906 07012KT 9999 -<span class=\"hl\">SN</span> SCT050 \n  PROB30 0822/0901 4000 -<span class=\"hl\">SN</span> VV014 \n  BECMG 0822/0824 15012KT"
    },
    {
      "icao": "LRSB",
      "iata": "SBZ",
      "name": "Sibiu International Airport",
      "updatedAt": "080830Z",
      "visibility_m": 10000,
      "taf_visibility_m": 5000,
      "worst_visibility_m": 5000,
      "ceiling_ft": 3500,
      "hazards": [
        "SN"
      ],
      "severityScore": 18,
      "metarRaw": "METAR LRSB 080830Z 30011KT 9999 BKN035 M03/M06 Q1002",
      "tafRaw": "TAF LRSB 080500Z 0806/0906 33014KT 9999 SCT035 \n  TEMPO 0806/0809 5000 -SN BKN015",
      "metarHtml": "METAR LRSB 080830Z 30011KT 9999 BKN035 M03/M06 Q1002",
      "tafHtml": "TAF LRSB 080500Z 0806/0906 33014KT 9999 SCT035 \n  TEMPO 0806/0809 5000 -<span class=\"hl\">SN</span> BKN015"
    },
    {
      "icao": "LRSV",
      "iata": "SCV",
      "name": "Suceava Stefan cel Mare Airport",
      "updatedAt": "080830Z",
      "visibility_m": 10000,
      "taf_visibility_m": 5000,
      "worst_visibility_m": 5000,
      "ceiling_ft": null,
      "hazards": [
        "SN"
      ],
      "severityScore": 18,
      "metarRaw": "METAR LRSV 080830Z 32015KT 9999 DRSN FEW041 M04/M06 Q0997",
      "tafRaw": "TAF LRSV 080800Z 0809/0818 32016KT 9999 DRSN SCT030 \n  TEMPO 0809/0818 32018G28KT \n  PROB40 \n  TEMPO 0812/0816 5000 -SN BKN010 OVC030",
      "metarHtml": "METAR LRSV 080830Z 32015KT 9999 DRSN FEW041 M04/M06 Q0997",
      "tafHtml": "TAF LRSV 080800Z 0809/0818 32016KT 9999 DRSN SCT030 \n  TEMPO 0809/0818 32018G28KT \n  PROB40 \n  TEMPO 0812/0816 5000 -<span class=\"hl\">SN</span> BKN010 OVC030"
    },
    {
      "icao": "LYBE",
      "iata": "BEG",
      "name": "Belgrade Nikola Tesla Airport",
      "updatedAt": "080830Z",
      "visibility_m": 2500,
      "taf_visibility_m": 4000,
      "worst_visibility_m": 2500,
      "ceiling_ft": 3000,
      "hazards": [
        "SN"
      ],
      "severityScore": 18,
      "metarRaw": "METAR LYBE 080830Z 28014KT 2500 SN SCT009 BKN030 M05/M06 Q1011 NOSIG",
      "tafRaw": "TAF LYBE 080500Z 0806/0906 28010KT 4000 -SN BKN007 BKN030 TXM04/0813Z TNM12/0905Z \n  BECMG 0808/0810 9999 NSW SCT013 \n  TEMPO 0809/0813 28020KT \n  BECMG 0818/0820 22005KT",
      "metarHtml": "METAR LYBE 080830Z 28014KT 2500 <span class=\"hl\">SN</span> SCT009 BKN030 M05/M06 Q1011 NOSIG",
      "tafHtml": "TAF LYBE 080500Z 0806/0906 28010KT 4000 -<span class=\"hl\">SN</span> BKN007 BKN030 TXM04/0813Z TNM12/0905Z \n  BECMG 0808/0810 9999 NSW SCT013 \n  TEMPO 0809/0813 28020KT \n  BECMG 0818/0820 22005KT"
    },
    {
      "icao": "LYNI",
      "iata": "INI",
      "name": "Niš Constantine the Great Airport",
      "updatedAt": "080830Z",
      "visibility_m": 10000,
      "taf_visibility_m": 5000,
      "worst_visibility_m": 5000,
      "ceiling_ft": 2000,
      "hazards": [
        "SN"
      ],
      "severityScore": 18,
      "metarRaw": "METAR LYNI 080830Z 30007KT 270V330 9999 -SN SCT008 BKN020 OVC063 M03/M05 Q1008 NOSIG",
      "tafRaw": "TAF LYNI 080500Z 0806/0906 32010KT 9999 BKN017 BKN027 BKN070 TXM02/0813Z TNM10/0906Z \n  TEMPO 0806/0810 5000 -SN BKN010 BKN023 OVC065 \n  TEMPO 0810/0814 32015G25KT \n  BECMG 0816/0818 18004KT",
      "metarHtml": "METAR LYNI 080830Z 30007KT 270V330 9999 -<span class=\"hl\">SN</span> SCT008 BKN020 OVC063 M03/M05 Q1008 NOSIG",
      "tafHtml": "TAF LYNI 080500Z 0806/0906 32010KT 9999 BKN017 BKN027 BKN070 TXM02/0813Z TNM10/0906Z \n  TEMPO 0806/0810 5000 -<span class=\"hl\">SN</span> BKN010 BKN023 OVC065 \n  TEMPO 0810/0814 32015G25KT \n  BECMG 0816/0818 18004KT"
    },
    {
      "icao": "LZTT",
      "iata": "TAT",
      "name": "Poprad-Tatry Airport",
      "updatedAt": "080830Z",
      "visibility_m": 10000,
      "taf_visibility_m": 10000,
      "worst_visibility_m": 10000,
      "ceiling_ft": 6600,
      "hazards": [
        "SN"
      ],
      "severityScore": 18,
      "metarRaw": "METAR LZTT 080830Z 27012KT 9999 SCT050 BKN066 M08/M11 Q1003 NOSIG",
      "tafRaw": "TAF LZTT 080515Z 0806/0906 27010KT 9999 OVC020 \n  PROB40 \n  TEMPO 0806/0808 VRB02KT -SN OVC013 \n  BECMG 0810/0812 SCT033 \n  TEMPO 0903/0906 VRB02KT",
      "metarHtml": "METAR LZTT 080830Z 27012KT 9999 SCT050 BKN066 M08/M11 Q1003 NOSIG",
      "tafHtml": "TAF LZTT 080515Z 0806/0906 27010KT 9999 OVC020 \n  PROB40 \n  TEMPO 0806/0808 VRB02KT -<span class=\"hl\">SN</span> OVC013 \n  BECMG 0810/0812 SCT033 \n  TEMPO 0903/0906 VRB02KT"
    },
    {
      "icao": "LKMT",
      "iata": "OSR",
      "name": "Ostrava Leos Janáček Airport",
      "updatedAt": "080830Z",
      "visibility_m": 9000,
      "taf_visibility_m": null,
      "worst_visibility_m": 9000,
      "ceiling_ft": 1400,
      "hazards": [],
      "severityScore": 17,
      "metarRaw": "METAR LKMT 080830Z 36005KT 330V030 9000 OVC014 M06/M08 Q1010 NOSIG",
      "tafRaw": null,
      "metarHtml": "METAR LKMT 080830Z 36005KT 330V030 9000 OVC014 M06/M08 Q1010 NOSIG",
      "tafHtml": null
    },
    {
      "icao": "LFPO",
      "iata": "ORY",
      "name": "Paris-Orly Airport",
      "updatedAt": "080830Z",
      "visibility_m": 10000,
      "taf_visibility_m": null,
      "worst_visibility_m": 10000,
      "ceiling_ft": 4000,
      "hazards": [
        "DZ"
      ],
      "severityScore": 15,
      "metarRaw": "METAR LFPO 080830Z 25006KT 9999 -DZ SCT030 BKN040 05/05 Q1008 NOSIG",
      "tafRaw": null,
      "metarHtml": "METAR LFPO 080830Z 25006KT 9999 -<span class=\"hl\">DZ</span> SCT030 BKN040 05/05 Q1008 NOSIG",
      "tafHtml": null
    },
    {
      "icao": "LCLK",
      "iata": "LCA",
      "name": "Larnaca International Airport",
      "updatedAt": "080830Z",
      "visibility_m": 8000,
      "taf_visibility_m": 5000,
      "worst_visibility_m": 5000,
      "ceiling_ft": null,
      "hazards": [
        "SHRA"
      ],
      "severityScore": 14,
      "metarRaw": "METAR LCLK 080830Z 05006KT 8000 NSC 20/16 Q1018 NOSIG",
      "tafRaw": "TAF LCLK 080530Z 0806/0906 10006KT 9999 FEW025 \n  BECMG 0813/0815 20010KT \n  BECMG 0820/0823 24020KT \n  PROB40 \n  TEMPO 0820/0903 VRB15G25KT 5000 SHRA SCT020TCU",
      "metarHtml": "METAR LCLK 080830Z 05006KT 8000 NSC 20/16 Q1018 NOSIG",
      "tafHtml": "TAF LCLK 080530Z 0806/0906 10006KT 9999 FEW025 \n  BECMG 0813/0815 20010KT \n  BECMG 0820/0823 24020KT \n  PROB40 \n  TEMPO 0820/0903 VRB15G25KT 5000 <span class=\"hl\">SHRA</span> SCT020TCU"
    },
    {
      "icao": "LMML",
      "iata": "MLA",
      "name": "Malta International Airport",
      "updatedAt": "080845Z",
      "visibility_m": 8000,
      "taf_visibility_m": 8000,
      "worst_visibility_m": 8000,
      "ceiling_ft": null,
      "hazards": [
        "SHRA"
      ],
      "severityScore": 14,
      "metarRaw": "METAR LMML 080845Z 28016G26KT 9999 SCT030TCU 11/08 Q1021 TEMPO 8000 SHRA",
      "tafRaw": "TAF LMML 080500Z 0806/0906 29025G35KT 9999 SCT025 \n  PROB40 \n  TEMPO 0806/0906 8000 SHRA BKN020TCU",
      "metarHtml": "METAR LMML 080845Z 28016G26KT 9999 SCT030TCU 11/08 Q1021 TEMPO 8000 <span class=\"hl\">SHRA</span>",
      "tafHtml": "TAF LMML 080500Z 0806/0906 29025G35KT 9999 SCT025 \n  PROB40 \n  TEMPO 0806/0906 8000 <span class=\"hl\">SHRA</span> BKN020TCU"
    },
    {
      "icao": "UGKO",
      "iata": "KUT",
      "name": "David the Builder Kutaisi International Airport",
      "updatedAt": "080830Z",
      "visibility_m": 10000,
      "taf_visibility_m": 5000,
      "worst_visibility_m": 5000,
      "ceiling_ft": null,
      "hazards": [
        "SHRA"
      ],
      "severityScore": 14,
      "metarRaw": "METAR UGKO 080830Z 09014KT CAVOK 16/03 Q1015 NOSIG",
      "tafRaw": "TAF UGKO 080500Z 0806/0906 07015KT CAVOK TX18/0812Z TN09/0823Z \n  TEMPO 0816/0820 BKN050 \n  TEMPO 0820/0906 08025G39KT 5000 SHRA SCT020CB OVC040",
      "metarHtml": "METAR UGKO 080830Z 09014KT <span class=\"hl-vis\">CAVOK</span> 16/03 Q1015 NOSIG",
      "tafHtml": "TAF UGKO 080500Z 0806/0906 07015KT <span class=\"hl-vis\">CAVOK</span> TX18/0812Z TN09/0823Z \n  TEMPO 0816/0820 BKN050 \n  TEMPO 0820/0906 08025G39KT 5000 <span class=\"hl\">SHRA</span> SCT020CB OVC040"
    },
    {
      "icao": "EDLW",
      "iata": "DTM",
      "name": "Dortmund Airport",
      "updatedAt": "080820Z",
      "visibility_m": 10000,
      "taf_visibility_m": 4000,
      "worst_visibility_m": 4000,
      "ceiling_ft": 3600,
      "hazards": [
        "RA"
      ],
      "severityScore": 12,
      "metarRaw": "METAR EDLW 080820Z 19011KT 9999 OVC036 01/M01 Q1006",
      "tafRaw": "TAF EDLW 080500Z 0806/0906 19011KT 9999 FEW015 OVC040 \n  PROB30 \n  TEMPO 0806/0810 BKN012 \n  BECMG 0814/0817 15006KT \n  TEMPO 0819/0904 4000 RA BKN012 \n  BECMG 0822/0901 16012KT",
      "metarHtml": "METAR EDLW 080820Z 19011KT 9999 OVC036 01/M01 Q1006",
      "tafHtml": "TAF EDLW 080500Z 0806/0906 19011KT 9999 FEW015 OVC040 \n  PROB30 \n  TEMPO 0806/0810 BKN012 \n  BECMG 0814/0817 15006KT \n  TEMPO 0819/0904 4000 <span class=\"hl\">RA</span> BKN012 \n  BECMG 0822/0901 16012KT"
    },
    {
      "icao": "EHBK",
      "iata": "MST",
      "name": "Maastricht Aachen Airport",
      "updatedAt": "080825Z",
      "visibility_m": 10000,
      "taf_visibility_m": 4000,
      "worst_visibility_m": 4000,
      "ceiling_ft": null,
      "hazards": [
        "RA"
      ],
      "severityScore": 12,
      "metarRaw": "METAR EHBK 080825Z AUTO 20011KT 9999 FEW010/// 01/M00 Q1006 NOSIG",
      "tafRaw": "TAF EHBK 080520Z 0806/0912 20008KT CAVOK \n  PROB40 \n  TEMPO 0812/0818 SCT008 BKN012 \n  BECMG 0816/0819 6000 RA \n  PROB40 \n  TEMPO 0817/0901 4000 BKN008 \n  BECMG 0821/0824 18015G25KT \n  BECMG 0900/0903 20018G30KT 9999 NSW \n  TEMPO 0904/0912 6000 RA BKN012",
      "metarHtml": "METAR EHBK 080825Z AUTO 20011KT 9999 FEW010/// 01/M00 Q1006 NOSIG",
      "tafHtml": "TAF EHBK 080520Z 0806/0912 20008KT <span class=\"hl-vis\">CAVOK</span> \n  PROB40 \n  TEMPO 0812/0818 SCT008 BKN012 \n  BECMG 0816/0819 6000 <span class=\"hl\">RA</span> \n  PROB40 \n  TEMPO 0817/0901 4000 BKN008 \n  BECMG 0821/0824 18015G25KT \n  BECMG 0900/0903 20018G30KT 9999 NSW \n  TEMPO 0904/0912 6000 <span class=\"hl\">RA</span> BKN012"
    },
    {
      "icao": "EKCH",
      "iata": "CPH",
      "name": "Copenhagen Kastrup Airport",
      "updatedAt": "080820Z",
      "visibility_m": 10000,
      "taf_visibility_m": 10000,
      "worst_visibility_m": 10000,
      "ceiling_ft": 1400,
      "hazards": [],
      "severityScore": 12,
      "metarRaw": "METAR EKCH 080820Z 16014KT 9999 BKN014 M01/M05 Q1009 TEMPO BKN015",
      "tafRaw": "TAF EKCH 080827Z 0809/0909 16015KT 9999 BKN016 \n  TEMPO 0809/0812 BKN012 \n  BECMG 0821/0824 10015KT \n  TEMPO 0903/0907 11016G26KT",
      "metarHtml": "METAR EKCH 080820Z 16014KT 9999 BKN014 M01/M05 Q1009 TEMPO BKN015",
      "tafHtml": "TAF EKCH 080827Z 0809/0909 16015KT 9999 BKN016 \n  TEMPO 0809/0812 BKN012 \n  BECMG 0821/0824 10015KT \n  TEMPO 0903/0907 11016G26KT"
    },
    {
      "icao": "LATI",
      "iata": "TIA",
      "name": "Tirana International Airport Mother Teresa",
      "updatedAt": "080850Z",
      "visibility_m": 10000,
      "taf_visibility_m": 10000,
      "worst_visibility_m": 10000,
      "ceiling_ft": 5500,
      "hazards": [
        "RA"
      ],
      "severityScore": 12,
      "metarRaw": "METAR LATI 080850Z 29011KT 250V320 9999 SCT036 BKN055 08/02 Q1008 NOSIG",
      "tafRaw": "TAF LATI 080500Z 0806/0906 30007KT 9999 -RA FEW025TCU SCT035 BKN070 TX08/0812Z TN00/0905Z \n  TEMPO 0806/0817 29016KT \n  BECMG 0816/0818 CAVOK",
      "metarHtml": "METAR LATI 080850Z 29011KT 250V320 9999 SCT036 BKN055 08/02 Q1008 NOSIG",
      "tafHtml": "TAF LATI 080500Z 0806/0906 30007KT 9999 -<span class=\"hl\">RA</span> FEW025TCU SCT035 BKN070 TX08/0812Z TN00/0905Z \n  TEMPO 0806/0817 29016KT \n  BECMG 0816/0818 <span class=\"hl-vis\">CAVOK</span>"
    },
    {
      "icao": "LBPD",
      "iata": "PDV",
      "name": "Plovdiv International Airport",
      "updatedAt": "080830Z",
      "visibility_m": 5000,
      "taf_visibility_m": 5000,
      "worst_visibility_m": 5000,
      "ceiling_ft": null,
      "hazards": [
        "RA"
      ],
      "severityScore": 12,
      "metarRaw": "METAR LBPD 080830Z AUTO 29024KT 9999 -RA BKN046/// OVC054/// 03/02 Q0998 TEMPO 5000 RA",
      "tafRaw": "TAF LBPD 080500Z 0806/0906 29020G35KT 9999 BKN040 \n  TEMPO 0806/0808 5000 RA SCT005 BKN020 OVC040",
      "metarHtml": "METAR LBPD 080830Z AUTO 29024KT 9999 -<span class=\"hl\">RA</span> BKN046/// OVC054/// 03/02 Q0998 TEMPO 5000 <span class=\"hl\">RA</span>",
      "tafHtml": "TAF LBPD 080500Z 0806/0906 29020G35KT 9999 BKN040 \n  TEMPO 0806/0808 5000 <span class=\"hl\">RA</span> SCT005 BKN020 OVC040"
    },
    {
      "icao": "LPPS",
      "iata": "PXO",
      "name": "Porto Santo Airport",
      "updatedAt": "080830Z",
      "visibility_m": 10000,
      "taf_visibility_m": 6000,
      "worst_visibility_m": 6000,
      "ceiling_ft": null,
      "hazards": [
        "RA"
      ],
      "severityScore": 12,
      "metarRaw": "METAR LPPS 080830Z 02006KT 9999 SCT014 14/12 Q1034",
      "tafRaw": "TAF LPPS 080500Z 0806/0912 03008KT 9999 SCT015 \n  TEMPO 0806/0912 FEW015 BKN030 \n  PROB30 \n  TEMPO 0820/0910 6000 -RA SCT006 BKN012",
      "metarHtml": "METAR LPPS 080830Z 02006KT 9999 SCT014 14/12 Q1034",
      "tafHtml": "TAF LPPS 080500Z 0806/0912 03008KT 9999 SCT015 \n  TEMPO 0806/0912 FEW015 BKN030 \n  PROB30 \n  TEMPO 0820/0910 6000 -<span class=\"hl\">RA</span> SCT006 BKN012"
    },
    {
      "icao": "LRTM",
      "iata": "TGM",
      "name": "Târgu Mureş Transilvania International Airport",
      "updatedAt": "080830Z",
      "visibility_m": 10000,
      "taf_visibility_m": 10000,
      "worst_visibility_m": 10000,
      "ceiling_ft": 1400,
      "hazards": [],
      "severityScore": 12,
      "metarRaw": "METAR LRTM 080830Z 27005KT 9999 FEW010 BKN014 BKN018 M03/M06 Q1003",
      "tafRaw": "TAF LRTM 080800Z 0809/0818 30008KT 9999 SCT020 BKN040",
      "metarHtml": "METAR LRTM 080830Z 27005KT 9999 FEW010 BKN014 BKN018 M03/M06 Q1003",
      "tafHtml": "TAF LRTM 080800Z 0809/0818 30008KT 9999 SCT020 BKN040"
    },
    {
      "icao": "EPSC",
      "iata": "SZZ",
      "name": "Solidarity Szczecin–Goleniów Airport",
      "updatedAt": "080830Z",
      "visibility_m": 5000,
      "taf_visibility_m": 4000,
      "worst_visibility_m": 4000,
      "ceiling_ft": null,
      "hazards": [
        "BR"
      ],
      "severityScore": 10,
      "metarRaw": "METAR EPSC 080830Z 11011KT 5000 BR FEW005 M08/M09 Q1011",
      "tafRaw": "TAF EPSC 080530Z 0806/0906 13008KT 5000 BR SCT007 \n  TEMPO 0806/0809 4000 BR BKN005 BKN010 \n  PROB40 0806/0808 BKN004 \n  BECMG 0900/0902 OVC007 \n  PROB40 0902/0906 BKN004",
      "metarHtml": "METAR EPSC 080830Z 11011KT 5000 <span class=\"hl\">BR</span> FEW005 M08/M09 Q1011",
      "tafHtml": "TAF EPSC 080530Z 0806/0906 13008KT 5000 <span class=\"hl\">BR</span> SCT007 \n  TEMPO 0806/0809 4000 <span class=\"hl\">BR</span> BKN005 BKN010 \n  PROB40 0806/0808 BKN004 \n  BECMG 0900/0902 OVC007 \n  PROB40 0902/0906 BKN004"
    },
    {
      "icao": "EPSY",
      "iata": "SZY",
      "name": "Olsztyn-Mazury Airport",
      "updatedAt": "080830Z",
      "visibility_m": 4100,
      "taf_visibility_m": 4000,
      "worst_visibility_m": 4000,
      "ceiling_ft": null,
      "hazards": [
        "BR"
      ],
      "severityScore": 10,
      "metarRaw": "METAR EPSY 080830Z 02004KT 4100 BR FEW025 M11/M12 Q1012",
      "tafRaw": "TAF EPSY 080830Z 0809/0818 02006KT 7000 BKN025 \n  PROB40 \n  TEMPO 0809/0811 4000 BR \n  BECMG 0814/0817 4000 BR",
      "metarHtml": "METAR EPSY 080830Z 02004KT 4100 <span class=\"hl\">BR</span> FEW025 M11/M12 Q1012",
      "tafHtml": "TAF EPSY 080830Z 0809/0818 02006KT 7000 BKN025 \n  PROB40 \n  TEMPO 0809/0811 4000 <span class=\"hl\">BR</span> \n  BECMG 0814/0817 4000 <span class=\"hl\">BR</span>"
    },
    {
      "icao": "EPWR",
      "iata": "WRO",
      "name": "Copernicus Wrocław Airport",
      "updatedAt": "080830Z",
      "visibility_m": 4000,
      "taf_visibility_m": 3000,
      "worst_visibility_m": 3000,
      "ceiling_ft": 2200,
      "hazards": [
        "BR"
      ],
      "severityScore": 10,
      "metarRaw": "METAR EPWR 080830Z VRB01KT 4000 BR FEW019 BKN022 M10/M11 Q1012",
      "tafRaw": "TAF EPWR 080830Z 0809/0909 12003KT 4000 BR BKN020 \n  BECMG 0809/0811 9999 \n  TEMPO 0820/0903 3000 BR \n  BECMG 0903/0906 10010KT \n  PROB40 0903/0907 4000 BR BKN008",
      "metarHtml": "METAR EPWR 080830Z VRB01KT 4000 <span class=\"hl\">BR</span> FEW019 BKN022 M10/M11 Q1012",
      "tafHtml": "TAF EPWR 080830Z 0809/0909 12003KT 4000 <span class=\"hl\">BR</span> BKN020 \n  BECMG 0809/0811 9999 \n  TEMPO 0820/0903 3000 <span class=\"hl\">BR</span> \n  BECMG 0903/0906 10010KT \n  PROB40 0903/0907 4000 <span class=\"hl\">BR</span> BKN008"
    },
    {
      "icao": "ESKN",
      "iata": "NYO",
      "name": "Stockholm Skavsta Airport",
      "updatedAt": "080820Z",
      "visibility_m": 10000,
      "taf_visibility_m": 2000,
      "worst_visibility_m": 2000,
      "ceiling_ft": 2400,
      "hazards": [
        "SHSN"
      ],
      "severityScore": 10,
      "metarRaw": "METAR ESKN 080820Z 18008KT 9999 BKN024 M02/M04 Q1011",
      "tafRaw": "TAF ESKN 080830Z 0809/0909 18012KT 9999 BKN020 \n  TEMPO 0809/0813 18015G25KT \n  TEMPO 0816/0822 2000 SHSN BKN009 BKN020CB",
      "metarHtml": "METAR ESKN 080820Z 18008KT 9999 BKN024 M02/M04 Q1011",
      "tafHtml": "TAF ESKN 080830Z 0809/0909 18012KT 9999 BKN020 \n  TEMPO 0809/0813 18015G25KT \n  TEMPO 0816/0822 2000 <span class=\"hl\">SHSN</span> BKN009 BKN020CB"
    },
    {
      "icao": "ESSA",
      "iata": "ARN",
      "name": "Stockholm-Arlanda Airport",
      "updatedAt": "080820Z",
      "visibility_m": 10000,
      "taf_visibility_m": 2500,
      "worst_visibility_m": 2500,
      "ceiling_ft": 3400,
      "hazards": [
        "SHSN"
      ],
      "severityScore": 10,
      "metarRaw": "METAR ESSA 080820Z 15014KT 9999 BKN034 M01/M03 Q1011 NOSIG",
      "tafRaw": "TAF ESSA 080830Z 0809/0909 15014KT 9999 BKN030 \n  TEMPO 0810/0814 16015G25KT \n  PROB40 0818/0902 2500 -SHSN BKN013 BKN025CB",
      "metarHtml": "METAR ESSA 080820Z 15014KT 9999 BKN034 M01/M03 Q1011 NOSIG",
      "tafHtml": "TAF ESSA 080830Z 0809/0909 15014KT 9999 BKN030 \n  TEMPO 0810/0814 16015G25KT \n  PROB40 0818/0902 2500 -<span class=\"hl\">SHSN</span> BKN013 BKN025CB"
    },
    {
      "icao": "LEZL",
      "iata": "SVQ",
      "name": "Sevilla Airport",
      "updatedAt": "080830Z",
      "visibility_m": 10000,
      "taf_visibility_m": 4000,
      "worst_visibility_m": 4000,
      "ceiling_ft": 2000,
      "hazards": [
        "BR"
      ],
      "severityScore": 10,
      "metarRaw": "METAR LEZL 080830Z 04005KT 9999 FEW010 OVC020 08/07 Q1033 NOSIG",
      "tafRaw": "TAF LEZL 080800Z 0809/0909 02004KT 9999 SCT020 TX14/0815Z TN09/0907Z \n  PROB30 \n  TEMPO 0900/0906 4000 BR",
      "metarHtml": "METAR LEZL 080830Z 04005KT 9999 FEW010 OVC020 08/07 Q1033 NOSIG",
      "tafHtml": "TAF LEZL 080800Z 0809/0909 02004KT 9999 SCT020 TX14/0815Z TN09/0907Z \n  PROB30 \n  TEMPO 0900/0906 4000 <span class=\"hl\">BR</span>"
    },
    {
      "icao": "LHDC",
      "iata": "DEB",
      "name": "Debrecen International Airport",
      "updatedAt": "080815Z",
      "visibility_m": 7000,
      "taf_visibility_m": 4500,
      "worst_visibility_m": 4500,
      "ceiling_ft": null,
      "hazards": [
        "BR"
      ],
      "severityScore": 10,
      "metarRaw": "METAR LHDC 080815Z AUTO 26007KT 7000 NSC M06/M07 Q1006 NOSIG",
      "tafRaw": "TAF LHDC 080815Z 0809/0818 28008KT CAVOK \n  TEMPO 0809/0818 OVC040 \n  TEMPO 0809/0812 4500 BR",
      "metarHtml": "METAR LHDC 080815Z AUTO 26007KT 7000 NSC M06/M07 Q1006 NOSIG",
      "tafHtml": "TAF LHDC 080815Z 0809/0818 28008KT <span class=\"hl-vis\">CAVOK</span> \n  TEMPO 0809/0818 OVC040 \n  TEMPO 0809/0812 4500 <span class=\"hl\">BR</span>"
    },
    {
      "icao": "LZKZ",
      "iata": "KSC",
      "name": "Košice International Airport",
      "updatedAt": "080830Z",
      "visibility_m": 10000,
      "taf_visibility_m": 4000,
      "worst_visibility_m": 4000,
      "ceiling_ft": null,
      "hazards": [
        "BR"
      ],
      "severityScore": 10,
      "metarRaw": "METAR LZKZ 080830Z 01010KT CAVOK M03/M09 Q1005 NOSIG",
      "tafRaw": "TAF LZKZ 080515Z 0806/0906 36017KT 9999 FEW035 \n  PROB30 \n  TEMPO 0806/0814 36023G33KT DRSN \n  BECMG 0814/0816 34007KT CAVOK \n  BECMG 0820/0822 VRB02KT \n  PROB30 \n  TEMPO 0904/0906 4000 BCFG BR BKN003",
      "metarHtml": "METAR LZKZ 080830Z 01010KT <span class=\"hl-vis\">CAVOK</span> M03/M09 Q1005 NOSIG",
      "tafHtml": "TAF LZKZ 080515Z 0806/0906 36017KT 9999 FEW035 \n  PROB30 \n  TEMPO 0806/0814 36023G33KT DRSN \n  BECMG 0814/0816 34007KT <span class=\"hl-vis\">CAVOK</span> \n  BECMG 0820/0822 VRB02KT \n  PROB30 \n  TEMPO 0904/0906 4000 BCFG <span class=\"hl\">BR</span> BKN003"
    },
    {
      "icao": "ENTC",
      "iata": "TOS",
      "name": "Tromsø Airport, Langnes",
      "updatedAt": "080820Z",
      "visibility_m": 10000,
      "taf_visibility_m": null,
      "worst_visibility_m": 10000,
      "ceiling_ft": null,
      "hazards": [],
      "severityScore": 5,
      "metarRaw": "METAR ENTC 080820Z 00000KT CAVOK M09/M17 Q1022 NOSIG RMK WIND 2600FT 17039KT",
      "tafRaw": null,
      "metarHtml": "METAR ENTC 080820Z 00000KT <span class=\"hl-vis\">CAVOK</span> M09/M17 Q1022 NOSIG RMK WIND 2600FT 17039KT",
      "tafHtml": null
    },
    {
      "icao": "LEAL",
      "iata": "ALC",
      "name": "Alicante-Elche Miguel Hernández Airport",
      "updatedAt": "080830Z",
      "visibility_m": 10000,
      "taf_visibility_m": null,
      "worst_visibility_m": 10000,
      "ceiling_ft": null,
      "hazards": [],
      "severityScore": 5,
      "metarRaw": "METAR LEAL 080830Z 28011KT 250V320 CAVOK 11/03 Q1028 NOSIG",
      "tafRaw": null,
      "metarHtml": "METAR LEAL 080830Z 28011KT 250V320 <span class=\"hl-vis\">CAVOK</span> 11/03 Q1028 NOSIG",
      "tafHtml": null
    },
    {
      "icao": "LECH",
      "iata": "CDT",
      "name": "Castellón-Costa Azahar Airport",
      "updatedAt": "080830Z",
      "visibility_m": 10000,
      "taf_visibility_m": null,
      "worst_visibility_m": 10000,
      "ceiling_ft": null,
      "hazards": [],
      "severityScore": 5,
      "metarRaw": "METAR LECH 080830Z AUTO 23008KT 200V280 CAVOK 12/02 Q1024",
      "tafRaw": null,
      "metarHtml": "METAR LECH 080830Z AUTO 23008KT 200V280 <span class=\"hl-vis\">CAVOK</span> 12/02 Q1024",
      "tafHtml": null
    },
    {
      "icao": "LGTS",
      "iata": "SKG",
      "name": "Thessaloniki Macedonia International Airport",
      "updatedAt": "080820Z",
      "visibility_m": 10000,
      "taf_visibility_m": null,
      "worst_visibility_m": 10000,
      "ceiling_ft": null,
      "hazards": [],
      "severityScore": 5,
      "metarRaw": "METAR LGTS 080820Z 25015G25KT 9999 FEW020 14/05 Q1001 NOSIG",
      "tafRaw": null,
      "metarHtml": "METAR LGTS 080820Z 25015G25KT 9999 FEW020 14/05 Q1001 NOSIG",
      "tafHtml": null
    },
    {
      "icao": "LPPT",
      "iata": "LIS",
      "name": "Lisbon Humberto Delgado Airport",
      "updatedAt": "080830Z",
      "visibility_m": 10000,
      "taf_visibility_m": null,
      "worst_visibility_m": 10000,
      "ceiling_ft": 2500,
      "hazards": [],
      "severityScore": 5,
      "metarRaw": "METAR LPPT 080830Z VRB01KT 9999 FEW022 BKN025 10/08 Q1032",
      "tafRaw": null,
      "metarHtml": "METAR LPPT 080830Z VRB01KT 9999 FEW022 BKN025 10/08 Q1032",
      "tafHtml": null
    },
    {
      "icao": "LYPG",
      "iata": "TGD",
      "name": "Podgorica Airport / Podgorica Golubovci Airbase",
      "updatedAt": "080830Z",
      "visibility_m": 10000,
      "taf_visibility_m": null,
      "worst_visibility_m": 10000,
      "ceiling_ft": 4000,
      "hazards": [],
      "severityScore": 5,
      "metarRaw": "METAR LYPG 080830Z 35012KT 9999 FEW026 BKN040 05/M03 Q1006 NOSIG",
      "tafRaw": null,
      "metarHtml": "METAR LYPG 080830Z 35012KT 9999 FEW026 BKN040 05/M03 Q1006 NOSIG",
      "tafHtml": null
    },
    {
      "icao": "BIKF",
      "iata": "KEF",
      "name": "Keflavik International Airport",
      "updatedAt": "080830Z",
      "visibility_m": 10000,
      "taf_visibility_m": 10000,
      "worst_visibility_m": 10000,
      "ceiling_ft": null,
      "hazards": [],
      "severityScore": 0,
      "metarRaw": "METAR BIKF 080830Z 07021KT CAVOK 02/M08 Q0999",
      "tafRaw": "TAF BIKF 080746Z 0809/0909 07015KT 9999 FEW045 TX02/0814Z TNM03/0906Z \n  PROB40 \n  TEMPO 0809/0813 07020G30KT \n  BECMG 0901/0903 03008KT",
      "metarHtml": "METAR BIKF 080830Z 07021KT <span class=\"hl-vis\">CAVOK</span> 02/M08 Q0999",
      "tafHtml": "TAF BIKF 080746Z 0809/0909 07015KT 9999 FEW045 TX02/0814Z TNM03/0906Z \n  PROB40 \n  TEMPO 0809/0813 07020G30KT \n  BECMG 0901/0903 03008KT"
    },
    {
      "icao": "GCFV",
      "iata": "FUE",
      "name": "Fuerteventura Airport",
      "updatedAt": "080830Z",
      "visibility_m": 10000,
      "taf_visibility_m": 10000,
      "worst_visibility_m": 10000,
      "ceiling_ft": 3800,
      "hazards": [],
      "severityScore": 0,
      "metarRaw": "METAR GCFV 080830Z 04016KT 9999 FEW032 BKN038 17/10 Q1030",
      "tafRaw": "TAF GCFV 080800Z 0809/0909 06015KT 9999 FEW035 TX20/0814Z TN15/0906Z \n  TEMPO 0812/0819 14008KT",
      "metarHtml": "METAR GCFV 080830Z 04016KT 9999 FEW032 BKN038 17/10 Q1030",
      "tafHtml": "TAF GCFV 080800Z 0809/0909 06015KT 9999 FEW035 TX20/0814Z TN15/0906Z \n  TEMPO 0812/0819 14008KT"
    },
    {
      "icao": "GCLP",
      "iata": "LPA",
      "name": "Gran Canaria Airport",
      "updatedAt": "080830Z",
      "visibility_m": 10000,
      "taf_visibility_m": 10000,
      "worst_visibility_m": 10000,
      "ceiling_ft": 3500,
      "hazards": [],
      "severityScore": 0,
      "metarRaw": "METAR GCLP 080830Z 04014KT 9999 BKN035 17/10 Q1030 NOSIG",
      "tafRaw": "TAF GCLP 080800Z 0809/0909 06017KT 9999 SCT035 TX20/0814Z TN15/0906Z \n  TEMPO 0818/0908 35007KT",
      "metarHtml": "METAR GCLP 080830Z 04014KT 9999 BKN035 17/10 Q1030 NOSIG",
      "tafHtml": "TAF GCLP 080800Z 0809/0909 06017KT 9999 SCT035 TX20/0814Z TN15/0906Z \n  TEMPO 0818/0908 35007KT"
    },
    {
      "icao": "GCTS",
      "iata": "TFS",
      "name": "Tenerife Sur Airport",
      "updatedAt": "080830Z",
      "visibility_m": 10000,
      "taf_visibility_m": 10000,
      "worst_visibility_m": 10000,
      "ceiling_ft": null,
      "hazards": [],
      "severityScore": 0,
      "metarRaw": "METAR GCTS 080830Z 06024KT 9999 FEW030 17/07 Q1030 NOSIG",
      "tafRaw": "TAF GCTS 080800Z 0809/0909 07019KT 9999 SCT040 TX23/0814Z TN15/0906Z \n  PROB30 \n  TEMPO 0809/0818 07020G30KT \n  PROB40 \n  TEMPO 0819/0908 03009KT",
      "metarHtml": "METAR GCTS 080830Z 06024KT 9999 FEW030 17/07 Q1030 NOSIG",
      "tafHtml": "TAF GCTS 080800Z 0809/0909 07019KT 9999 SCT040 TX23/0814Z TN15/0906Z \n  PROB30 \n  TEMPO 0809/0818 07020G30KT \n  PROB40 \n  TEMPO 0819/0908 03009KT"
    },
    {
      "icao": "GMAD",
      "iata": "AGA",
      "name": "Al Massira Airport",
      "updatedAt": "080830Z",
      "visibility_m": 10000,
      "taf_visibility_m": 10000,
      "worst_visibility_m": 10000,
      "ceiling_ft": null,
      "hazards": [],
      "severityScore": 0,
      "metarRaw": "METAR GMAD 080830Z 00000KT CAVOK 06/05 Q1030 NOSIG",
      "tafRaw": "TAF GMAD 080500Z 0806/0912 07006KT CAVOK",
      "metarHtml": "METAR GMAD 080830Z 00000KT <span class=\"hl-vis\">CAVOK</span> 06/05 Q1030 NOSIG",
      "tafHtml": "TAF GMAD 080500Z 0806/0912 07006KT <span class=\"hl-vis\">CAVOK</span>"
    },
    {
      "icao": "GMMN",
      "iata": "CMN",
      "name": "Mohammed V International Airport",
      "updatedAt": "080830Z",
      "visibility_m": 10000,
      "taf_visibility_m": 5000,
      "worst_visibility_m": 5000,
      "ceiling_ft": null,
      "hazards": [],
      "severityScore": 0,
      "metarRaw": "METAR GMMN 080830Z 15004KT 120V180 CAVOK 06/04 Q1033 NOSIG",
      "tafRaw": "TAF GMMN 080500Z 0806/0912 12004KT CAVOK \n  BECMG 0810/0813 36008KT \n  BECMG 0820/0824 VRB02KT 8000 SCT010 \n  PROB40 0902/0908 5000 BKN006",
      "metarHtml": "METAR GMMN 080830Z 15004KT 120V180 <span class=\"hl-vis\">CAVOK</span> 06/04 Q1033 NOSIG",
      "tafHtml": "TAF GMMN 080500Z 0806/0912 12004KT <span class=\"hl-vis\">CAVOK</span> \n  BECMG 0810/0813 36008KT \n  BECMG 0820/0824 VRB02KT 8000 SCT010 \n  PROB40 0902/0908 5000 BKN006"
    },
    {
      "icao": "GMMX",
      "iata": "RAK",
      "name": "Menara Airport",
      "updatedAt": "080830Z",
      "visibility_m": 10000,
      "taf_visibility_m": 8000,
      "worst_visibility_m": 8000,
      "ceiling_ft": null,
      "hazards": [],
      "severityScore": 0,
      "metarRaw": "METAR GMMX 080830Z 09003KT CAVOK 05/03 Q1031 NOSIG",
      "tafRaw": "TAF GMMX 080500Z 0806/0912 24004KT 8000 NSC \n  TEMPO 0815/0821 34016KT",
      "metarHtml": "METAR GMMX 080830Z 09003KT <span class=\"hl-vis\">CAVOK</span> 05/03 Q1031 NOSIG",
      "tafHtml": "TAF GMMX 080500Z 0806/0912 24004KT 8000 NSC \n  TEMPO 0815/0821 34016KT"
    },
    {
      "icao": "EETN",
      "iata": "TLL",
      "name": "Lennart Meri Tallinn Airport",
      "updatedAt": "080850Z",
      "visibility_m": 10000,
      "taf_visibility_m": 10000,
      "worst_visibility_m": 10000,
      "ceiling_ft": 2600,
      "hazards": [],
      "severityScore": 0,
      "metarRaw": "METAR EETN 080850Z VRB02KT 9999 OVC026 M07/M08 Q1019 NOSIG",
      "tafRaw": "TAF EETN 080530Z 0806/0906 VRB02KT 9999 OVC025 \n  PROB40 \n  TEMPO 0806/0809 BKN007 \n  BECMG 0812/0814 BKN014 \n  BECMG 0818/0820 08012KT \n  PROB40 \n  TEMPO 0901/0906 07015G25KT",
      "metarHtml": "METAR EETN 080850Z VRB02KT 9999 OVC026 M07/M08 Q1019 NOSIG",
      "tafHtml": "TAF EETN 080530Z 0806/0906 VRB02KT 9999 OVC025 \n  PROB40 \n  TEMPO 0806/0809 BKN007 \n  BECMG 0812/0814 BKN014 \n  BECMG 0818/0820 08012KT \n  PROB40 \n  TEMPO 0901/0906 07015G25KT"
    },
    {
      "icao": "EFTU",
      "iata": "TKU",
      "name": "Turku Airport",
      "updatedAt": "080850Z",
      "visibility_m": 10000,
      "taf_visibility_m": 10000,
      "worst_visibility_m": 10000,
      "ceiling_ft": 3200,
      "hazards": [],
      "severityScore": 0,
      "metarRaw": "METAR EFTU 080850Z AUTO 10008KT 9999 BKN032 M09/M11 Q1019",
      "tafRaw": "TAF EFTU 080829Z 0809/0909 10007KT 9999 BKN030 \n  PROB30 \n  TEMPO 0809/0815 BKN010",
      "metarHtml": "METAR EFTU 080850Z AUTO 10008KT 9999 BKN032 M09/M11 Q1019",
      "tafHtml": "TAF EFTU 080829Z 0809/0909 10007KT 9999 BKN030 \n  PROB30 \n  TEMPO 0809/0815 BKN010"
    },
    {
      "icao": "ENBR",
      "iata": "BGO",
      "name": "Bergen Airport, Flesland",
      "updatedAt": "080820Z",
      "visibility_m": 10000,
      "taf_visibility_m": 10000,
      "worst_visibility_m": 10000,
      "ceiling_ft": null,
      "hazards": [],
      "severityScore": 0,
      "metarRaw": "METAR ENBR 080820Z 06004KT CAVOK M10/M16 Q1005 NOSIG RMK WIND 1200FT 09003KT",
      "tafRaw": "TAF ENBR 080500Z 0806/0906 07005KT CAVOK",
      "metarHtml": "METAR ENBR 080820Z 06004KT <span class=\"hl-vis\">CAVOK</span> M10/M16 Q1005 NOSIG RMK WIND 1200FT 09003KT",
      "tafHtml": "TAF ENBR 080500Z 0806/0906 07005KT <span class=\"hl-vis\">CAVOK</span>"
    },
    {
      "icao": "ENHD",
      "iata": "HAU",
      "name": "Haugesund Airport, Karmøy",
      "updatedAt": "080820Z",
      "visibility_m": 10000,
      "taf_visibility_m": 10000,
      "worst_visibility_m": 10000,
      "ceiling_ft": null,
      "hazards": [],
      "severityScore": 0,
      "metarRaw": "METAR ENHD 080820Z 10006KT CAVOK M13/M16 Q1005",
      "tafRaw": "TAF ENHD 080800Z 0809/0818 10008KT CAVOK",
      "metarHtml": "METAR ENHD 080820Z 10006KT <span class=\"hl-vis\">CAVOK</span> M13/M16 Q1005",
      "tafHtml": "TAF ENHD 080800Z 0809/0818 10008KT <span class=\"hl-vis\">CAVOK</span>"
    },
    {
      "icao": "ENZV",
      "iata": "SVG",
      "name": "Stavanger Airport, Sola",
      "updatedAt": "080820Z",
      "visibility_m": 10000,
      "taf_visibility_m": 10000,
      "worst_visibility_m": 10000,
      "ceiling_ft": null,
      "hazards": [],
      "severityScore": 0,
      "metarRaw": "METAR ENZV 080820Z 00000KT CAVOK M14/M15 Q1005 NOSIG",
      "tafRaw": "TAF ENZV 080500Z 0806/0906 13005KT CAVOK \n  BECMG 0819/0820 12015KT \n  TEMPO 0820/0906 12015G25KT",
      "metarHtml": "METAR ENZV 080820Z 00000KT <span class=\"hl-vis\">CAVOK</span> M14/M15 Q1005 NOSIG",
      "tafHtml": "TAF ENZV 080500Z 0806/0906 13005KT <span class=\"hl-vis\">CAVOK</span> \n  BECMG 0819/0820 12015KT \n  TEMPO 0820/0906 12015G25KT"
    },
    {
      "icao": "ESMS",
      "iata": "MMX",
      "name": "Malmö Sturup Airport",
      "updatedAt": "080820Z",
      "visibility_m": 10000,
      "taf_visibility_m": 10000,
      "worst_visibility_m": 10000,
      "ceiling_ft": null,
      "hazards": [],
      "severityScore": 0,
      "metarRaw": "METAR ESMS 080820Z 15010KT CAVOK M04/M06 Q1008",
      "tafRaw": "TAF ESMS 080827Z 0809/0909 16010KT 9999 SCT015 \n  BECMG 0821/0824 10010KT",
      "metarHtml": "METAR ESMS 080820Z 15010KT <span class=\"hl-vis\">CAVOK</span> M04/M06 Q1008",
      "tafHtml": "TAF ESMS 080827Z 0809/0909 16010KT 9999 SCT015 \n  BECMG 0821/0824 10010KT"
    },
    {
      "icao": "HEGN",
      "iata": "HRG",
      "name": "Hurghada International Airport",
      "updatedAt": "080800Z",
      "visibility_m": 10000,
      "taf_visibility_m": 10000,
      "worst_visibility_m": 10000,
      "ceiling_ft": null,
      "hazards": [],
      "severityScore": 0,
      "metarRaw": "METAR HEGN 080800Z 34008KT CAVOK 23/09 Q1020 NOSIG",
      "tafRaw": "TAF HEGN 080500Z 0806/0912 33013KT CAVOK",
      "metarHtml": "METAR HEGN 080800Z 34008KT <span class=\"hl-vis\">CAVOK</span> 23/09 Q1020 NOSIG",
      "tafHtml": "TAF HEGN 080500Z 0806/0912 33013KT <span class=\"hl-vis\">CAVOK</span>"
    },
    {
      "icao": "HEMA",
      "iata": "RMF",
      "name": "Marsa Alam International Airport",
      "updatedAt": "080800Z",
      "visibility_m": 6000,
      "taf_visibility_m": 3000,
      "worst_visibility_m": 3000,
      "ceiling_ft": null,
      "hazards": [],
      "severityScore": 0,
      "metarRaw": "METAR HEMA 080800Z 34006KT 6000 NSC 26/12 Q1019 NOSIG",
      "tafRaw": "TAF HEMA 080500Z 0806/0912 33015KT 6000 NSC \n  TEMPO 0806/0815 3000 SA",
      "metarHtml": "METAR HEMA 080800Z 34006KT 6000 NSC 26/12 Q1019 NOSIG",
      "tafHtml": "TAF HEMA 080500Z 0806/0912 33015KT 6000 NSC \n  TEMPO 0806/0815 3000 SA"
    },
    {
      "icao": "HESH",
      "iata": "SSH",
      "name": "Sharm El Sheikh International Airport",
      "updatedAt": "080800Z",
      "visibility_m": 10000,
      "taf_visibility_m": 10000,
      "worst_visibility_m": 10000,
      "ceiling_ft": null,
      "hazards": [],
      "severityScore": 0,
      "metarRaw": "METAR HESH 080800Z 34008KT CAVOK 23/09 Q1020 NOSIG",
      "tafRaw": "TAF HESH 080500Z 0806/0912 35011KT CAVOK",
      "metarHtml": "METAR HESH 080800Z 34008KT <span class=\"hl-vis\">CAVOK</span> 23/09 Q1020 NOSIG",
      "tafHtml": "TAF HESH 080500Z 0806/0912 35011KT <span class=\"hl-vis\">CAVOK</span>"
    },
    {
      "icao": "LEBL",
      "iata": "BCN",
      "name": "Josep Tarradellas Barcelona-El Prat Airport",
      "updatedAt": "080830Z",
      "visibility_m": 10000,
      "taf_visibility_m": 10000,
      "worst_visibility_m": 10000,
      "ceiling_ft": null,
      "hazards": [],
      "severityScore": 0,
      "metarRaw": "METAR LEBL 080830Z 30006KT 250V330 9999 FEW020 07/04 Q1021 NOSIG",
      "tafRaw": "TAF LEBL 080500Z 0806/0906 33009KT 9999 FEW015 TX15/0813Z TN04/0806Z \n  TEMPO 0810/0813 32015KT \n  TEMPO 0814/0816 33018G28KT \n  BECMG 0816/0818 25010KT",
      "metarHtml": "METAR LEBL 080830Z 30006KT 250V330 9999 FEW020 07/04 Q1021 NOSIG",
      "tafHtml": "TAF LEBL 080500Z 0806/0906 33009KT 9999 FEW015 TX15/0813Z TN04/0806Z \n  TEMPO 0810/0813 32015KT \n  TEMPO 0814/0816 33018G28KT \n  BECMG 0816/0818 25010KT"
    },
    {
      "icao": "LEMG",
      "iata": "AGP",
      "name": "Málaga-Costa del Sol Airport",
      "updatedAt": "080830Z",
      "visibility_m": 10000,
      "taf_visibility_m": 10000,
      "worst_visibility_m": 10000,
      "ceiling_ft": null,
      "hazards": [],
      "severityScore": 0,
      "metarRaw": "METAR LEMG 080830Z 29007KT CAVOK 08/05 Q1031 NOSIG",
      "tafRaw": "TAF LEMG 080500Z 0806/0906 29012KT 9999 FEW035 TX16/0814Z TN06/0806Z \n  PROB40 \n  TEMPO 0822/0906 29015G25KT",
      "metarHtml": "METAR LEMG 080830Z 29007KT <span class=\"hl-vis\">CAVOK</span> 08/05 Q1031 NOSIG",
      "tafHtml": "TAF LEMG 080500Z 0806/0906 29012KT 9999 FEW035 TX16/0814Z TN06/0806Z \n  PROB40 \n  TEMPO 0822/0906 29015G25KT"
    },
    {
      "icao": "LEVC",
      "iata": "VLC",
      "name": "Valencia Airport",
      "updatedAt": "080830Z",
      "visibility_m": 10000,
      "taf_visibility_m": 10000,
      "worst_visibility_m": 10000,
      "ceiling_ft": null,
      "hazards": [],
      "severityScore": 0,
      "metarRaw": "METAR LEVC 080830Z 26014KT CAVOK 09/02 Q1027 NOSIG",
      "tafRaw": "TAF LEVC 080500Z 0806/0906 25012KT CAVOK TX15/0814Z TN06/0806Z \n  TEMPO 0806/0904 25015G25KT \n  PROB40 \n  TEMPO 0808/0818 25020G30KT \n  BECMG 0904/0906 VRB04KT",
      "metarHtml": "METAR LEVC 080830Z 26014KT <span class=\"hl-vis\">CAVOK</span> 09/02 Q1027 NOSIG",
      "tafHtml": "TAF LEVC 080500Z 0806/0906 25012KT <span class=\"hl-vis\">CAVOK</span> TX15/0814Z TN06/0806Z \n  TEMPO 0806/0904 25015G25KT \n  PROB40 \n  TEMPO 0808/0818 25020G30KT \n  BECMG 0904/0906 VRB04KT"
    },
    {
      "icao": "LEZG",
      "iata": "ZAZ",
      "name": "Zaragoza Airport",
      "updatedAt": "080830Z",
      "visibility_m": 10000,
      "taf_visibility_m": 10000,
      "worst_visibility_m": 10000,
      "ceiling_ft": null,
      "hazards": [],
      "severityScore": 0,
      "metarRaw": "METAR LEZG 080830Z 23010KT CAVOK 08/03 Q1025 NOSIG",
      "tafRaw": "TAF LEZG 080500Z 0806/0906 VRB04KT CAVOK TX12/0815Z TN05/0806Z \n  PROB40 \n  TEMPO 0806/0810 28010KT \n  BECMG 0809/0811 24018KT \n  TEMPO 0810/0906 24023G38KT",
      "metarHtml": "METAR LEZG 080830Z 23010KT <span class=\"hl-vis\">CAVOK</span> 08/03 Q1025 NOSIG",
      "tafHtml": "TAF LEZG 080500Z 0806/0906 VRB04KT <span class=\"hl-vis\">CAVOK</span> TX12/0815Z TN05/0806Z \n  PROB40 \n  TEMPO 0806/0810 28010KT \n  BECMG 0809/0811 24018KT \n  TEMPO 0810/0906 24023G38KT"
    },
    {
      "icao": "LFMN",
      "iata": "NCE",
      "name": "Nice-Côte d'Azur Airport",
      "updatedAt": "080830Z",
      "visibility_m": 10000,
      "taf_visibility_m": 10000,
      "worst_visibility_m": 10000,
      "ceiling_ft": null,
      "hazards": [],
      "severityScore": 0,
      "metarRaw": "METAR LFMN 080830Z 33011KT CAVOK 04/M07 Q1013 NOSIG",
      "tafRaw": "TAF LFMN 080800Z 0809/0915 32010KT CAVOK \n  BECMG 0809/0811 VRB04KT \n  BECMG 0812/0814 09010KT \n  BECMG 0816/0818 33010KT \n  BECMG 0821/0823 24010KT \n  BECMG 0823/0901 23020KT \n  TEMPO 0906/0911 23025G35KT",
      "metarHtml": "METAR LFMN 080830Z 33011KT <span class=\"hl-vis\">CAVOK</span> 04/M07 Q1013 NOSIG",
      "tafHtml": "TAF LFMN 080800Z 0809/0915 32010KT <span class=\"hl-vis\">CAVOK</span> \n  BECMG 0809/0811 VRB04KT \n  BECMG 0812/0814 09010KT \n  BECMG 0816/0818 33010KT \n  BECMG 0821/0823 24010KT \n  BECMG 0823/0901 23020KT \n  TEMPO 0906/0911 23025G35KT"
    },
    {
      "icao": "LGAV",
      "iata": "ATH",
      "name": "Athens Eleftherios Venizelos International Airport",
      "updatedAt": "080820Z",
      "visibility_m": 10000,
      "taf_visibility_m": 10000,
      "worst_visibility_m": 10000,
      "ceiling_ft": null,
      "hazards": [],
      "severityScore": 0,
      "metarRaw": "METAR LGAV 080820Z 26009KT 9999 SCT040 15/05 Q1008 NOSIG",
      "tafRaw": "TAF LGAV 080500Z 0806/0906 26014G30KT 9999 FEW020 SCT030 \n  BECMG 0902/0904 26012G22KT",
      "metarHtml": "METAR LGAV 080820Z 26009KT 9999 SCT040 15/05 Q1008 NOSIG",
      "tafHtml": "TAF LGAV 080500Z 0806/0906 26014G30KT 9999 FEW020 SCT030 \n  BECMG 0902/0904 26012G22KT"
    },
    {
      "icao": "LIBD",
      "iata": "BRI",
      "name": "Bari Karol Wojtyła International Airport",
      "updatedAt": "080820Z",
      "visibility_m": 10000,
      "taf_visibility_m": 10000,
      "worst_visibility_m": 10000,
      "ceiling_ft": null,
      "hazards": [],
      "severityScore": 0,
      "metarRaw": "METAR LIBD 080820Z 28013G23KT 9999 FEW005 SCT020 05/M01 Q1011",
      "tafRaw": "TAF LIBD 080500Z 0806/0906 28020G30KT CAVOK \n  BECMG 0816/0818 26010KT",
      "metarHtml": "METAR LIBD 080820Z 28013G23KT 9999 FEW005 SCT020 05/M01 Q1011",
      "tafHtml": "TAF LIBD 080500Z 0806/0906 28020G30KT <span class=\"hl-vis\">CAVOK</span> \n  BECMG 0816/0818 26010KT"
    },
    {
      "icao": "LIBG",
      "iata": "TAR",
      "name": "Taranto-Grottaglie Marcello Arlotta Airport",
      "updatedAt": "080750Z",
      "visibility_m": 10000,
      "taf_visibility_m": 10000,
      "worst_visibility_m": 10000,
      "ceiling_ft": null,
      "hazards": [],
      "severityScore": 0,
      "metarRaw": "METAR LIBG 080750Z 24005KT 210V310 CAVOK 06/04 Q1011",
      "tafRaw": "TAF LIBG 080800Z 0809/0818 32015KT 9999 SCT025 \n  TEMPO 0811/0815 32016G26KT",
      "metarHtml": "METAR LIBG 080750Z 24005KT 210V310 <span class=\"hl-vis\">CAVOK</span> 06/04 Q1011",
      "tafHtml": "TAF LIBG 080800Z 0809/0818 32015KT 9999 SCT025 \n  TEMPO 0811/0815 32016G26KT"
    },
    {
      "icao": "LIBP",
      "iata": "PSR",
      "name": "Abruzzo Airport",
      "updatedAt": "080820Z",
      "visibility_m": 10000,
      "taf_visibility_m": 10000,
      "worst_visibility_m": 10000,
      "ceiling_ft": null,
      "hazards": [],
      "severityScore": 0,
      "metarRaw": "METAR LIBP 080820Z AUTO 23007KT 210V270 9999 NCD 02/M02 Q1014",
      "tafRaw": "TAF LIBP 080500Z 0806/0906 23006KT 9999 BKN030",
      "metarHtml": "METAR LIBP 080820Z AUTO 23007KT 210V270 9999 NCD 02/M02 Q1014",
      "tafHtml": "TAF LIBP 080500Z 0806/0906 23006KT 9999 BKN030"
    },
    {
      "icao": "LIBR",
      "iata": "BDS",
      "name": "Brindisi Airport",
      "updatedAt": "080820Z",
      "visibility_m": 10000,
      "taf_visibility_m": 10000,
      "worst_visibility_m": 10000,
      "ceiling_ft": null,
      "hazards": [],
      "severityScore": 0,
      "metarRaw": "METAR LIBR 080820Z 29014KT 9999 FEW030 06/M01 Q1010",
      "tafRaw": "TAF LIBR 080500Z 0806/0906 31022G33KT 9999 SCT030 \n  BECMG 0818/0820 23009KT",
      "metarHtml": "METAR LIBR 080820Z 29014KT 9999 FEW030 06/M01 Q1010",
      "tafHtml": "TAF LIBR 080500Z 0806/0906 31022G33KT 9999 SCT030 \n  BECMG 0818/0820 23009KT"
    },
    {
      "icao": "LICC",
      "iata": "CTA",
      "name": "Catania-Fontanarossa Airport",
      "updatedAt": "080820Z",
      "visibility_m": 10000,
      "taf_visibility_m": 10000,
      "worst_visibility_m": 10000,
      "ceiling_ft": null,
      "hazards": [],
      "severityScore": 0,
      "metarRaw": "METAR LICC 080820Z 24011KT 200V270 CAVOK 11/07 Q1016",
      "tafRaw": "TAF LICC 080500Z 0806/0906 27015KT 9999 FEW060 \n  TEMPO 0812/0818 29020G33KT",
      "metarHtml": "METAR LICC 080820Z 24011KT 200V270 <span class=\"hl-vis\">CAVOK</span> 11/07 Q1016",
      "tafHtml": "TAF LICC 080500Z 0806/0906 27015KT 9999 FEW060 \n  TEMPO 0812/0818 29020G33KT"
    },
    {
      "icao": "LIMC",
      "iata": "MXP",
      "name": "Milan Malpensa International Airport",
      "updatedAt": "080820Z",
      "visibility_m": 10000,
      "taf_visibility_m": 10000,
      "worst_visibility_m": 10000,
      "ceiling_ft": null,
      "hazards": [],
      "severityScore": 0,
      "metarRaw": "METAR LIMC 080820Z VRB01KT CAVOK M04/M06 Q1012 NOSIG",
      "tafRaw": "TAF LIMC 080500Z 0806/0912 VRB04KT CAVOK",
      "metarHtml": "METAR LIMC 080820Z VRB01KT <span class=\"hl-vis\">CAVOK</span> M04/M06 Q1012 NOSIG",
      "tafHtml": "TAF LIMC 080500Z 0806/0912 VRB04KT <span class=\"hl-vis\">CAVOK</span>"
    },
    {
      "icao": "LIME",
      "iata": "BGY",
      "name": "Milan Bergamo Airport / Antonio Locatelli Air Base",
      "updatedAt": "080820Z",
      "visibility_m": 10000,
      "taf_visibility_m": 10000,
      "worst_visibility_m": 10000,
      "ceiling_ft": null,
      "hazards": [],
      "severityScore": 0,
      "metarRaw": "METAR LIME 080820Z 02003KT CAVOK M02/M08 Q1012 NOSIG",
      "tafRaw": "TAF LIME 080500Z 0806/0906 VRB04KT CAVOK",
      "metarHtml": "METAR LIME 080820Z 02003KT <span class=\"hl-vis\">CAVOK</span> M02/M08 Q1012 NOSIG",
      "tafHtml": "TAF LIME 080500Z 0806/0906 VRB04KT <span class=\"hl-vis\">CAVOK</span>"
    },
    {
      "icao": "LIMF",
      "iata": "TRN",
      "name": "Turin Airport",
      "updatedAt": "080820Z",
      "visibility_m": 9000,
      "taf_visibility_m": 10000,
      "worst_visibility_m": 9000,
      "ceiling_ft": null,
      "hazards": [],
      "severityScore": 0,
      "metarRaw": "METAR LIMF 080820Z VRB02KT 9000 FEW090 M02/M07 Q1012",
      "tafRaw": "TAF LIMF 080500Z 0806/0906 VRB03KT CAVOK",
      "metarHtml": "METAR LIMF 080820Z VRB02KT 9000 FEW090 M02/M07 Q1012",
      "tafHtml": "TAF LIMF 080500Z 0806/0906 VRB03KT <span class=\"hl-vis\">CAVOK</span>"
    },
    {
      "icao": "LIMJ",
      "iata": "GOA",
      "name": "Genoa Cristoforo Colombo Airport",
      "updatedAt": "080820Z",
      "visibility_m": 10000,
      "taf_visibility_m": 10000,
      "worst_visibility_m": 10000,
      "ceiling_ft": null,
      "hazards": [],
      "severityScore": 0,
      "metarRaw": "METAR LIMJ 080820Z 05007KT 9999 SCT025 05/M01 Q1013",
      "tafRaw": "TAF LIMJ 080500Z 0806/0906 04010KT CAVOK \n  BECMG 0810/0812 12008KT \n  BECMG 0904/0906 03010KT",
      "metarHtml": "METAR LIMJ 080820Z 05007KT 9999 SCT025 05/M01 Q1013",
      "tafHtml": "TAF LIMJ 080500Z 0806/0906 04010KT <span class=\"hl-vis\">CAVOK</span> \n  BECMG 0810/0812 12008KT \n  BECMG 0904/0906 03010KT"
    },
    {
      "icao": "LIPH",
      "iata": "TSF",
      "name": "Treviso Antonio Canova Airport",
      "updatedAt": "080820Z",
      "visibility_m": 10000,
      "taf_visibility_m": 10000,
      "worst_visibility_m": 10000,
      "ceiling_ft": null,
      "hazards": [],
      "severityScore": 0,
      "metarRaw": "METAR LIPH 080820Z VRB02KT CAVOK M02/M06 Q1013",
      "tafRaw": "TAF LIPH 080500Z 0806/0906 VRB05KT CAVOK",
      "metarHtml": "METAR LIPH 080820Z VRB02KT <span class=\"hl-vis\">CAVOK</span> M02/M06 Q1013",
      "tafHtml": "TAF LIPH 080500Z 0806/0906 VRB05KT <span class=\"hl-vis\">CAVOK</span>"
    },
    {
      "icao": "LIPQ",
      "iata": "TRS",
      "name": "Trieste–Friuli Venezia Giulia Airport",
      "updatedAt": "080820Z",
      "visibility_m": 10000,
      "taf_visibility_m": 10000,
      "worst_visibility_m": 10000,
      "ceiling_ft": null,
      "hazards": [],
      "severityScore": 0,
      "metarRaw": "METAR LIPQ 080820Z AUTO VRB02KT 9999 NCD M03/M07 Q1013",
      "tafRaw": "TAF LIPQ 080500Z 0806/0906 VRB05KT 9999 SCT070",
      "metarHtml": "METAR LIPQ 080820Z AUTO VRB02KT 9999 NCD M03/M07 Q1013",
      "tafHtml": "TAF LIPQ 080500Z 0806/0906 VRB05KT 9999 SCT070"
    },
    {
      "icao": "LIPR",
      "iata": "RMI",
      "name": "Federico Fellini International Airport",
      "updatedAt": "080820Z",
      "visibility_m": 10000,
      "taf_visibility_m": 10000,
      "worst_visibility_m": 10000,
      "ceiling_ft": null,
      "hazards": [],
      "severityScore": 0,
      "metarRaw": "METAR LIPR 080820Z VRB02KT CAVOK M03/M06 Q1014",
      "tafRaw": "TAF LIPR 080500Z 0806/0906 25008KT 9999 SCT030",
      "metarHtml": "METAR LIPR 080820Z VRB02KT <span class=\"hl-vis\">CAVOK</span> M03/M06 Q1014",
      "tafHtml": "TAF LIPR 080500Z 0806/0906 25008KT 9999 SCT030"
    },
    {
      "icao": "LIPY",
      "iata": "AOI",
      "name": "Marche Airport",
      "updatedAt": "080820Z",
      "visibility_m": 10000,
      "taf_visibility_m": 10000,
      "worst_visibility_m": 10000,
      "ceiling_ft": null,
      "hazards": [],
      "severityScore": 0,
      "metarRaw": "METAR LIPY 080820Z AUTO 21006KT 9999 NCD 01/M04 Q1014",
      "tafRaw": "TAF LIPY 080500Z 0806/0906 23006KT 9999 SCT030",
      "metarHtml": "METAR LIPY 080820Z AUTO 21006KT 9999 NCD 01/M04 Q1014",
      "tafHtml": "TAF LIPY 080500Z 0806/0906 23006KT 9999 SCT030"
    },
    {
      "icao": "LIPZ",
      "iata": "VCE",
      "name": "Venice Marco Polo Airport",
      "updatedAt": "080820Z",
      "visibility_m": 10000,
      "taf_visibility_m": 10000,
      "worst_visibility_m": 10000,
      "ceiling_ft": null,
      "hazards": [],
      "severityScore": 0,
      "metarRaw": "METAR LIPZ 080820Z 34003KT CAVOK M03/M07 Q1013 NOSIG",
      "tafRaw": "TAF LIPZ 080500Z 0806/0912 VRB05KT CAVOK",
      "metarHtml": "METAR LIPZ 080820Z 34003KT <span class=\"hl-vis\">CAVOK</span> M03/M07 Q1013 NOSIG",
      "tafHtml": "TAF LIPZ 080500Z 0806/0912 VRB05KT <span class=\"hl-vis\">CAVOK</span>"
    },
    {
      "icao": "LIRF",
      "iata": "FCO",
      "name": "Rome–Fiumicino Leonardo da Vinci International Airport",
      "updatedAt": "080820Z",
      "visibility_m": 10000,
      "taf_visibility_m": 10000,
      "worst_visibility_m": 10000,
      "ceiling_ft": null,
      "hazards": [],
      "severityScore": 0,
      "metarRaw": "METAR LIRF 080820Z 04007KT CAVOK 02/M03 Q1014 NOSIG",
      "tafRaw": "TAF LIRF 080500Z 0806/0912 04010KT CAVOK \n  BECMG 0813/0815 10007KT \n  BECMG 0904/0906 25015KT \n  PROB40 \n  TEMPO 0908/0912 25015G28KT",
      "metarHtml": "METAR LIRF 080820Z 04007KT <span class=\"hl-vis\">CAVOK</span> 02/M03 Q1014 NOSIG",
      "tafHtml": "TAF LIRF 080500Z 0806/0912 04010KT <span class=\"hl-vis\">CAVOK</span> \n  BECMG 0813/0815 10007KT \n  BECMG 0904/0906 25015KT \n  PROB40 \n  TEMPO 0908/0912 25015G28KT"
    },
    {
      "icao": "LIRN",
      "iata": "NAP",
      "name": "Naples International Airport",
      "updatedAt": "080820Z",
      "visibility_m": 10000,
      "taf_visibility_m": 10000,
      "worst_visibility_m": 10000,
      "ceiling_ft": null,
      "hazards": [],
      "severityScore": 0,
      "metarRaw": "METAR LIRN 080820Z VRB02KT CAVOK 04/M00 Q1013 NOSIG",
      "tafRaw": "TAF LIRN 080500Z 0806/0906 03006KT CAVOK",
      "metarHtml": "METAR LIRN 080820Z VRB02KT <span class=\"hl-vis\">CAVOK</span> 04/M00 Q1013 NOSIG",
      "tafHtml": "TAF LIRN 080500Z 0806/0906 03006KT <span class=\"hl-vis\">CAVOK</span>"
    },
    {
      "icao": "LIRP",
      "iata": "PSA",
      "name": "Pisa International Airport",
      "updatedAt": "080815Z",
      "visibility_m": 10000,
      "taf_visibility_m": 10000,
      "worst_visibility_m": 10000,
      "ceiling_ft": null,
      "hazards": [],
      "severityScore": 0,
      "metarRaw": "METAR LIRP 080815Z 08004KT 9999 FEW030 SCT050 01/M02 Q1014 NOSIG",
      "tafRaw": "TAF LIRP 080500Z 0806/0906 11007KT CAVOK \n  BECMG 0812/0814 SCT020 SCT050",
      "metarHtml": "METAR LIRP 080815Z 08004KT 9999 FEW030 SCT050 01/M02 Q1014 NOSIG",
      "tafHtml": "TAF LIRP 080500Z 0806/0906 11007KT <span class=\"hl-vis\">CAVOK</span> \n  BECMG 0812/0814 SCT020 SCT050"
    },
    {
      "icao": "LIRZ",
      "iata": "PEG",
      "name": "Perugia San Francesco d'Assisi – Umbria International Airport",
      "updatedAt": "080820Z",
      "visibility_m": 10000,
      "taf_visibility_m": 10000,
      "worst_visibility_m": 10000,
      "ceiling_ft": null,
      "hazards": [],
      "severityScore": 0,
      "metarRaw": "METAR LIRZ 080820Z AUTO 34007KT 9999 FEW055/// M03/M05 Q1014",
      "tafRaw": "TAF LIRZ 080500Z 0806/0906 VRB05KT 9999 FEW060",
      "metarHtml": "METAR LIRZ 080820Z AUTO 34007KT 9999 FEW055/// M03/M05 Q1014",
      "tafHtml": "TAF LIRZ 080500Z 0806/0906 VRB05KT 9999 FEW060"
    },
    {
      "icao": "LPFR",
      "iata": "FAO",
      "name": "Faro Airport",
      "updatedAt": "080830Z",
      "visibility_m": 10000,
      "taf_visibility_m": 10000,
      "worst_visibility_m": 10000,
      "ceiling_ft": null,
      "hazards": [],
      "severityScore": 0,
      "metarRaw": "METAR LPFR 080830Z 02005KT 360V100 9999 FEW012 06/04 Q1034",
      "tafRaw": "TAF LPFR 080500Z 0806/0906 04005KT CAVOK \n  PROB30 \n  TEMPO 0806/0809 9999 BKN006 \n  BECMG 0808/0810 VRB05KT 9999 FEW020 \n  BECMG 0812/0814 23007KT \n  BECMG 0818/0820 VRB05KT \n  BECMG 0900/0902 SCT015 BKN030",
      "metarHtml": "METAR LPFR 080830Z 02005KT 360V100 9999 FEW012 06/04 Q1034",
      "tafHtml": "TAF LPFR 080500Z 0806/0906 04005KT <span class=\"hl-vis\">CAVOK</span> \n  PROB30 \n  TEMPO 0806/0809 9999 BKN006 \n  BECMG 0808/0810 VRB05KT 9999 FEW020 \n  BECMG 0812/0814 23007KT \n  BECMG 0818/0820 VRB05KT \n  BECMG 0900/0902 SCT015 BKN030"
    },
    {
      "icao": "LPMA",
      "iata": "FNC",
      "name": "Madeira International Airport Cristiano Ronaldo",
      "updatedAt": "080830Z",
      "visibility_m": 10000,
      "taf_visibility_m": 10000,
      "worst_visibility_m": 10000,
      "ceiling_ft": null,
      "hazards": [],
      "severityScore": 0,
      "metarRaw": "METAR LPMA 080830Z 35010KT 9999 SCT015 15/10 Q1034",
      "tafRaw": "TAF LPMA 080500Z 0806/0906 01010KT 9999 SCT015 \n  TEMPO 0818/0906 BKN013",
      "metarHtml": "METAR LPMA 080830Z 35010KT 9999 SCT015 15/10 Q1034",
      "tafHtml": "TAF LPMA 080500Z 0806/0906 01010KT 9999 SCT015 \n  TEMPO 0818/0906 BKN013"
    },
    {
      "icao": "LQBK",
      "iata": "BNX",
      "name": "Banja Luka International Airport",
      "updatedAt": "080830Z",
      "visibility_m": 10000,
      "taf_visibility_m": 2000,
      "worst_visibility_m": 2000,
      "ceiling_ft": null,
      "hazards": [],
      "severityScore": 0,
      "metarRaw": "METAR LQBK 080830Z 27004KT 250V330 CAVOK M06/M09 Q1014 NOSIG",
      "tafRaw": "TAF LQBK 080500Z 0806/0906 23006KT 9999 FEW020 SCT045 TXM03/0813Z TNM09/0900Z \n  PROB30 \n  TEMPO 0821/0906 2000 BCFG",
      "metarHtml": "METAR LQBK 080830Z 27004KT 250V330 <span class=\"hl-vis\">CAVOK</span> M06/M09 Q1014 NOSIG",
      "tafHtml": "TAF LQBK 080500Z 0806/0906 23006KT 9999 FEW020 SCT045 TXM03/0813Z TNM09/0900Z \n  PROB30 \n  TEMPO 0821/0906 2000 BCFG"
    },
    {
      "icao": "LRCL",
      "iata": "CLJ",
      "name": "Cluj Avram Iancu International Airport",
      "updatedAt": "080830Z",
      "visibility_m": 10000,
      "taf_visibility_m": 10000,
      "worst_visibility_m": 10000,
      "ceiling_ft": 5400,
      "hazards": [],
      "severityScore": 0,
      "metarRaw": "METAR LRCL 080830Z 30013KT 9999 FEW036 OVC054 M04/M07 Q1003",
      "tafRaw": "TAF LRCL 080800Z 0809/0818 29010KT 9999 SCT035 BKN050",
      "metarHtml": "METAR LRCL 080830Z 30013KT 9999 FEW036 OVC054 M04/M07 Q1003",
      "tafHtml": "TAF LRCL 080800Z 0809/0818 29010KT 9999 SCT035 BKN050"
    },
    {
      "icao": "LRCV",
      "iata": "CRA",
      "name": "Craiova International Airport",
      "updatedAt": "080830Z",
      "visibility_m": 10000,
      "taf_visibility_m": 10000,
      "worst_visibility_m": 10000,
      "ceiling_ft": null,
      "hazards": [],
      "severityScore": 0,
      "metarRaw": "METAR LRCV 080830Z 28017KT 9999 FEW028 SCT044 M01/M03 Q1000",
      "tafRaw": "TAF LRCV 080800Z 0809/0818 27018KT 9999 BKN025 \n  TEMPO 0809/0818 27022G35KT",
      "metarHtml": "METAR LRCV 080830Z 28017KT 9999 FEW028 SCT044 M01/M03 Q1000",
      "tafHtml": "TAF LRCV 080800Z 0809/0818 27018KT 9999 BKN025 \n  TEMPO 0809/0818 27022G35KT"
    },
    {
      "icao": "LWOH",
      "iata": "OHD",
      "name": "Ohrid St. Paul the Apostle Airport",
      "updatedAt": "080850Z",
      "visibility_m": 6000,
      "taf_visibility_m": 5000,
      "worst_visibility_m": 5000,
      "ceiling_ft": 3300,
      "hazards": [],
      "severityScore": 0,
      "metarRaw": "METAR LWOH 080850Z 23006KT 170V270 6000 -RASN SCT010 OVC033 02/01 Q1004",
      "tafRaw": "TAF LWOH 080840Z 0809/0909 23015KT 9999 SCT015 OVC035 \n  TEMPO 0809/0818 26018G28KT 5000 SNRA FEW005 BKN010 OVC030",
      "metarHtml": "METAR LWOH 080850Z 23006KT 170V270 6000 -RASN SCT010 OVC033 02/01 Q1004",
      "tafHtml": "TAF LWOH 080840Z 0809/0909 23015KT 9999 SCT015 OVC035 \n  TEMPO 0809/0818 26018G28KT 5000 SNRA FEW005 BKN010 OVC030"
    },
    {
      "icao": "LZIB",
      "iata": "BTS",
      "name": "M. R. Štefánik Airport",
      "updatedAt": "080830Z",
      "visibility_m": 10000,
      "taf_visibility_m": 10000,
      "worst_visibility_m": 10000,
      "ceiling_ft": null,
      "hazards": [],
      "severityScore": 0,
      "metarRaw": "METAR LZIB 080830Z 31021KT CAVOK M04/M11 Q1010 NOSIG",
      "tafRaw": "TAF LZIB 080515Z 0806/0906 32012KT 9999 FEW028 \n  BECMG 0816/0818 VRB02KT",
      "metarHtml": "METAR LZIB 080830Z 31021KT <span class=\"hl-vis\">CAVOK</span> M04/M11 Q1010 NOSIG",
      "tafHtml": "TAF LZIB 080515Z 0806/0906 32012KT 9999 FEW028 \n  BECMG 0816/0818 VRB02KT"
    },
    {
      "icao": "OEJN",
      "iata": "JED",
      "name": "King Abdulaziz International Airport",
      "updatedAt": "080800Z",
      "visibility_m": 8000,
      "taf_visibility_m": 6000,
      "worst_visibility_m": 6000,
      "ceiling_ft": null,
      "hazards": [],
      "severityScore": 0,
      "metarRaw": "METAR OEJN 080800Z 14005KT 8000 NSC 29/12 Q1018 NOSIG",
      "tafRaw": "TAF OEJN 080500Z 0806/0912 20010KT 9999 FEW040 \n  BECMG 0818/0820 VRB03KT 6000 NSC \n  BECMG 0908/0910 22010KT 9999 FEW040",
      "metarHtml": "METAR OEJN 080800Z 14005KT 8000 NSC 29/12 Q1018 NOSIG",
      "tafHtml": "TAF OEJN 080500Z 0806/0912 20010KT 9999 FEW040 \n  BECMG 0818/0820 VRB03KT 6000 NSC \n  BECMG 0908/0910 22010KT 9999 FEW040"
    },
    {
      "icao": "OEMA",
      "iata": "MED",
      "name": "Prince Mohammad Bin Abdulaziz Airport",
      "updatedAt": "080800Z",
      "visibility_m": 10000,
      "taf_visibility_m": 10000,
      "worst_visibility_m": 10000,
      "ceiling_ft": null,
      "hazards": [],
      "severityScore": 0,
      "metarRaw": "METAR OEMA 080800Z 08004KT CAVOK 22/M01 Q1025 NOSIG",
      "tafRaw": "TAF OEMA 080500Z 0806/0912 09010KT CAVOK",
      "metarHtml": "METAR OEMA 080800Z 08004KT <span class=\"hl-vis\">CAVOK</span> 22/M01 Q1025 NOSIG",
      "tafHtml": "TAF OEMA 080500Z 0806/0912 09010KT <span class=\"hl-vis\">CAVOK</span>"
    },
    {
      "icao": "OMAA",
      "iata": "AUH",
      "name": "Zayed International Airport",
      "updatedAt": "080800Z",
      "visibility_m": 10000,
      "taf_visibility_m": 8000,
      "worst_visibility_m": 8000,
      "ceiling_ft": null,
      "hazards": [],
      "severityScore": 0,
      "metarRaw": "METAR OMAA 080800Z 08004KT 050V140 9999 SCT040 23/11 Q1021 BECMG 34012KT",
      "tafRaw": "TAF OMAA 080500Z 0806/0912 VRB02KT 8000 NSC \n  BECMG 0808/0810 34012KT \n  BECMG 0816/0818 VRB02KT \n  BECMG 0910/0912 33010KT",
      "metarHtml": "METAR OMAA 080800Z 08004KT 050V140 9999 SCT040 23/11 Q1021 BECMG 34012KT",
      "tafHtml": "TAF OMAA 080500Z 0806/0912 VRB02KT 8000 NSC \n  BECMG 0808/0810 34012KT \n  BECMG 0816/0818 VRB02KT \n  BECMG 0910/0912 33010KT"
    },
    {
      "icao": "OMDB",
      "iata": "DXB",
      "name": "Dubai International Airport",
      "updatedAt": "080830Z",
      "visibility_m": 10000,
      "taf_visibility_m": 10000,
      "worst_visibility_m": 10000,
      "ceiling_ft": null,
      "hazards": [],
      "severityScore": 0,
      "metarRaw": "METAR OMDB 080830Z 32008KT 270V040 9999 FEW030 24/06 Q1021 NOSIG",
      "tafRaw": "TAF OMDB 080500Z 0806/0912 08005KT CAVOK \n  BECMG 0808/0810 33010KT \n  BECMG 0816/0818 10005KT \n  BECMG 0909/0911 33010KT",
      "metarHtml": "METAR OMDB 080830Z 32008KT 270V040 9999 FEW030 24/06 Q1021 NOSIG",
      "tafHtml": "TAF OMDB 080500Z 0806/0912 08005KT <span class=\"hl-vis\">CAVOK</span> \n  BECMG 0808/0810 33010KT \n  BECMG 0816/0818 10005KT \n  BECMG 0909/0911 33010KT"
    }
  ],
  "stats": {
    "icaoCount": 159,
    "metarReturned": 159,
    "tafReturned": 144,
    "stationsWritten": 159,
    "missingMetar": 0,
    "missingTaf": 15
  },
  "errors": []
}