{
  "generatedAt": "2026-01-08T11:18:28.030Z",
  "stations": [
    {
      "icao": "EBCI",
      "iata": "CRL",
      "name": "Brussels South Charleroi Airport",
      "updatedAt": "081050Z",
      "visibility_m": 500,
      "taf_visibility_m": null,
      "worst_visibility_m": 500,
      "ceiling_ft": 100,
      "hazards": [
        "FG",
        "BR"
      ],
      "severityScore": 100,
      "metarRaw": "METAR EBCI 081050Z 19007KT 4000 BR FEW002 BKN004 02/01 Q1005 TEMPO 0500 -FZDZRA FG BKN001",
      "tafRaw": null,
      "metarHtml": "METAR EBCI 081050Z 19007KT 4000 <span class=\"hl\">BR</span> FEW002 BKN004 02/01 Q1005 TEMPO <span class=\"hl-vis\">0500</span> -FZDZRA <span class=\"hl\">FG</span> BKN001",
      "tafHtml": null
    },
    {
      "icao": "EGBB",
      "iata": "BHX",
      "name": "Birmingham Airport",
      "updatedAt": "081050Z",
      "visibility_m": 600,
      "taf_visibility_m": 300,
      "worst_visibility_m": 300,
      "ceiling_ft": 200,
      "hazards": [
        "FG",
        "BR",
        "SN",
        "RA"
      ],
      "severityScore": 100,
      "metarRaw": "METAR EGBB 081050Z 14005KT 0600 R15/P1500N FG OVC002 03/03 Q1002",
      "tafRaw": "TAF EGBB 081059Z 0812/0912 14004KT 3000 BR BKN005 \n  TEMPO 0812/0818 0500 RADZ FG BKN001 \n  BECMG 0815/0818 07015KT \n  PROB40 \n  TEMPO 0816/0818 +RA \n  TEMPO 0818/0821 07019G30KT \n  TEMPO 0818/0906 0700 RASN FG BKN001 \n  PROB30 \n  TEMPO 0818/0904 0300 +SN \n  BECMG 0821/0824 03018G28KT \n  BECMG 0900/0903 33019G30KT \n  BECMG 0905/0908 9999 NSW SCT006 \n  TEMPO 0906/0912 2000 RADZ BR BKN003",
      "metarHtml": "METAR EGBB 081050Z 14005KT <span class=\"hl-vis\">0600</span> R15/P1500N <span class=\"hl\">FG</span> OVC002 03/03 Q1002",
      "tafHtml": "TAF EGBB 081059Z 0812/0912 14004KT 3000 <span class=\"hl\">BR</span> BKN005 \n  TEMPO 0812/0818 <span class=\"hl-vis\">0500</span> RADZ <span class=\"hl\">FG</span> BKN001 \n  BECMG 0815/0818 07015KT \n  PROB40 \n  TEMPO 0816/0818 +<span class=\"hl\">RA</span> \n  TEMPO 0818/0821 07019G30KT \n  TEMPO 0818/0906 <span class=\"hl-vis\">0700</span> RASN <span class=\"hl\">FG</span> BKN001 \n  PROB30 \n  TEMPO 0818/0904 <span class=\"hl-vis\">0300</span> +<span class=\"hl\">SN</span> \n  BECMG 0821/0824 03018G28KT \n  BECMG 0900/0903 33019G30KT \n  BECMG 0905/0908 9999 NSW SCT006 \n  TEMPO 0906/0912 2000 RADZ <span class=\"hl\">BR</span> BKN003"
    },
    {
      "icao": "EGGW",
      "iata": "LTN",
      "name": "London Luton Airport",
      "updatedAt": "081050Z",
      "visibility_m": 150,
      "taf_visibility_m": 300,
      "worst_visibility_m": 150,
      "ceiling_ft": 200,
      "hazards": [
        "FG",
        "BR",
        "RA"
      ],
      "severityScore": 100,
      "metarRaw": "METAR EGGW 081050Z AUTO 15004KT 0150 R25/0350N FG OVC002 02/02 Q1002",
      "tafRaw": "TAF EGGW 081058Z 0812/0912 16008KT 9999 BKN005 \n  TEMPO 0812/0815 4000 RADZ BR BKN003 \n  PROB40 \n  TEMPO 0812/0814 0300 FG BKN001 \n  PROB30 \n  TEMPO 0814/0817 0600 FG BKN001 \n  BECMG 0815/0818 10012KT \n  TEMPO 0815/0821 4000 RA BKN004 \n  TEMPO 0818/0821 10017G27KT \n  PROB40 \n  TEMPO 0821/0904 3000 RADZ BR BKN004 \n  BECMG 0900/0903 34015KT \n  TEMPO 0904/0912 4000 RA RASN \n  TEMPO 0904/0909 33018G28KT \n  PROB30 \n  TEMPO 0904/0909 0600 +RASN BKN002 \n  BECMG 0909/0912 32018G33KT",
      "metarHtml": "METAR EGGW 081050Z AUTO 15004KT <span class=\"hl-vis\">0150</span> R25/0350N <span class=\"hl\">FG</span> OVC002 02/02 Q1002",
      "tafHtml": "TAF EGGW 081058Z 0812/0912 16008KT 9999 BKN005 \n  TEMPO 0812/0815 4000 RADZ <span class=\"hl\">BR</span> BKN003 \n  PROB40 \n  TEMPO 0812/0814 <span class=\"hl-vis\">0300</span> <span class=\"hl\">FG</span> BKN001 \n  PROB30 \n  TEMPO 0814/0817 <span class=\"hl-vis\">0600</span> <span class=\"hl\">FG</span> BKN001 \n  BECMG 0815/0818 10012KT \n  TEMPO 0815/0821 4000 <span class=\"hl\">RA</span> BKN004 \n  TEMPO 0818/0821 10017G27KT \n  PROB40 \n  TEMPO 0821/0904 3000 RADZ <span class=\"hl\">BR</span> BKN004 \n  BECMG 0900/0903 34015KT \n  TEMPO 0904/0912 4000 <span class=\"hl\">RA</span> RASN \n  TEMPO 0904/0909 33018G28KT \n  PROB30 \n  TEMPO 0904/0909 <span class=\"hl-vis\">0600</span> +RASN BKN002 \n  BECMG 0909/0912 32018G33KT"
    },
    {
      "icao": "LEMD",
      "iata": "MAD",
      "name": "Adolfo Suárez Madrid–Barajas Airport",
      "updatedAt": "081100Z",
      "visibility_m": 4000,
      "taf_visibility_m": 200,
      "worst_visibility_m": 200,
      "ceiling_ft": 200,
      "hazards": [
        "BR",
        "FZFG",
        "FG",
        "DZ"
      ],
      "severityScore": 100,
      "metarRaw": "METAR LEMD 081100Z VRB02KT 4000 BR BKN002 OVC006 02/02 Q1030 NOSIG",
      "tafRaw": "TAF LEMD 080500Z 0806/0912 VRB03KT 4000 BR BKN004 TX10/0912Z TNM00/0806Z \n  TEMPO 0806/0811 1000 BCFG BKN002 \n  PROB40 0806/0809 0300 FZFG VV001 \n  TEMPO 0811/0820 9999 NSW BKN010 \n  BECMG 0817/0819 22010KT \n  TEMPO 0902/0906 23015G25KT \n  PROB40 \n  TEMPO 0822/0909 1200 BCFG BKN002 \n  PROB40 \n  TEMPO 0823/0909 0200 DZ FG VV001 \n  BECMG 0909/0911 CAVOK",
      "metarHtml": "METAR LEMD 081100Z VRB02KT 4000 <span class=\"hl\">BR</span> BKN002 OVC006 02/02 Q1030 NOSIG",
      "tafHtml": "TAF LEMD 080500Z 0806/0912 VRB03KT 4000 <span class=\"hl\">BR</span> BKN004 TX10/0912Z TNM00/0806Z \n  TEMPO 0806/0811 1000 BCFG BKN002 \n  PROB40 0806/0809 <span class=\"hl-vis\">0300</span> <span class=\"hl\">FZFG</span> VV001 \n  TEMPO 0811/0820 9999 NSW BKN010 \n  BECMG 0817/0819 22010KT \n  TEMPO 0902/0906 23015G25KT \n  PROB40 \n  TEMPO 0822/0909 1200 BCFG BKN002 \n  PROB40 \n  TEMPO 0823/0909 <span class=\"hl-vis\">0200</span> <span class=\"hl\">DZ</span> <span class=\"hl\">FG</span> VV001 \n  BECMG 0909/0911 <span class=\"hl-vis\">CAVOK</span>"
    },
    {
      "icao": "LFOB",
      "iata": "BVA",
      "name": "Beauvais Tillé airport",
      "updatedAt": "081100Z",
      "visibility_m": 10000,
      "taf_visibility_m": 800,
      "worst_visibility_m": 800,
      "ceiling_ft": 1300,
      "hazards": [
        "FZFG",
        "BR",
        "RA",
        "SHRA"
      ],
      "severityScore": 100,
      "metarRaw": "METAR LFOB 081100Z AUTO 23009KT 9999 BKN028 OVC038 06/06 Q1006 BECMG BKN013",
      "tafRaw": "TAF LFOB 080500Z 0806/0906 VRB03KT 9999 OVC009 \n  PROB40 \n  TEMPO 0806/0808 3000 BR BKN003 OVC006 \n  PROB30 \n  TEMPO 0806/0808 0800 FZFG VV/// \n  BECMG 0808/0810 22012KT BKN013 \n  TEMPO 0813/0820 4000 RA BKN007 OVC011 \n  BECMG 0817/0820 21020G30KT 8000 OVC025 \n  TEMPO 0820/0822 4000 RA BKN014 OVC025 \n  TEMPO 0822/0906 22030G50KT \n  PROB40 \n  TEMPO 0900/0905 3000 SHRA BKN025TCU OVC045",
      "metarHtml": "METAR LFOB 081100Z AUTO 23009KT 9999 BKN028 OVC038 06/06 Q1006 BECMG BKN013",
      "tafHtml": "TAF LFOB 080500Z 0806/0906 VRB03KT 9999 OVC009 \n  PROB40 \n  TEMPO 0806/0808 3000 <span class=\"hl\">BR</span> BKN003 OVC006 \n  PROB30 \n  TEMPO 0806/0808 <span class=\"hl-vis\">0800</span> <span class=\"hl\">FZFG</span> VV/// \n  BECMG 0808/0810 22012KT BKN013 \n  TEMPO 0813/0820 4000 <span class=\"hl\">RA</span> BKN007 OVC011 \n  BECMG 0817/0820 21020G30KT 8000 OVC025 \n  TEMPO 0820/0822 4000 <span class=\"hl\">RA</span> BKN014 OVC025 \n  TEMPO 0822/0906 22030G50KT \n  PROB40 \n  TEMPO 0900/0905 3000 <span class=\"hl\">SHRA</span> BKN025TCU OVC045"
    },
    {
      "icao": "LJLJ",
      "iata": "LJU",
      "name": "Ljubljana Jože Pučnik Airport",
      "updatedAt": "081100Z",
      "visibility_m": 10000,
      "taf_visibility_m": 300,
      "worst_visibility_m": 300,
      "ceiling_ft": null,
      "hazards": [
        "FZFG",
        "BR",
        "FZRA",
        "SN"
      ],
      "severityScore": 100,
      "metarRaw": "METAR LJLJ 081100Z 32002KT 9999 FEW002 M08/M10 Q1012 NOSIG",
      "tafRaw": "TAF LJLJ 081100Z 0812/0912 VRB02KT 9999 FEW020 \n  PROB40 \n  TEMPO 0900/0908 0300 FZFG VV001 \n  TEMPO 0909/0912 4000 -FZRA BR \n  PROB40 \n  TEMPO 0909/0911 3000 -SN BR",
      "metarHtml": "METAR LJLJ 081100Z 32002KT 9999 FEW002 M08/M10 Q1012 NOSIG",
      "tafHtml": "TAF LJLJ 081100Z 0812/0912 VRB02KT 9999 FEW020 \n  PROB40 \n  TEMPO 0900/0908 <span class=\"hl-vis\">0300</span> <span class=\"hl\">FZFG</span> VV001 \n  TEMPO 0909/0912 4000 -<span class=\"hl\">FZRA</span> <span class=\"hl\">BR</span> \n  PROB40 \n  TEMPO 0909/0911 3000 -<span class=\"hl\">SN</span> <span class=\"hl\">BR</span>"
    },
    {
      "icao": "LQSA",
      "iata": "SJJ",
      "name": "Sarajevo International Airport",
      "updatedAt": "081100Z",
      "visibility_m": 10000,
      "taf_visibility_m": 500,
      "worst_visibility_m": 500,
      "ceiling_ft": null,
      "hazards": [
        "FZFG",
        "FZRA"
      ],
      "severityScore": 100,
      "metarRaw": "METAR LQSA 081100Z 29005KT 9999 SCT045 M04/M09 Q1011 NOSIG",
      "tafRaw": "TAF LQSA 081100Z 0812/0912 VRB02KT 9999 SCT050 TX01/0912Z TNM10/0901Z \n  PROB30 0903/0907 0500 FZFG BKN004 \n  PROB30 \n  TEMPO 0909/0912 FZRA",
      "metarHtml": "METAR LQSA 081100Z 29005KT 9999 SCT045 M04/M09 Q1011 NOSIG",
      "tafHtml": "TAF LQSA 081100Z 0812/0912 VRB02KT 9999 SCT050 TX01/0912Z TNM10/0901Z \n  PROB30 0903/0907 <span class=\"hl-vis\">0500</span> <span class=\"hl\">FZFG</span> BKN004 \n  PROB30 \n  TEMPO 0909/0912 <span class=\"hl\">FZRA</span>"
    },
    {
      "icao": "LUKK",
      "iata": "RMO",
      "name": "Chişinău International Airport",
      "updatedAt": "081100Z",
      "visibility_m": 10000,
      "taf_visibility_m": 800,
      "worst_visibility_m": 800,
      "ceiling_ft": 800,
      "hazards": [
        "RA",
        "BR",
        "FZRA",
        "SN",
        "BLSN",
        "SHRA"
      ],
      "severityScore": 100,
      "metarRaw": "METAR LUKK 081100Z 33011KT 9999 -RA OVC008 01/M01 Q0993 TEMPO 33016G26KT",
      "tafRaw": "TAF LUKK 080519Z 0806/0906 30010KT 3000 -RA BR OVC002 \n  TEMPO 0806/0808 1000 SHRA OVC001 BKN010CB \n  TEMPO 0808/0810 4000 -FZRA -SN \n  BECMG 0810/0812 29016G26KT 3000 -FZRA -SN OVC004 \n  BECMG 0812/0814 30018G28KT 3000 -SN BLSN OVC003 \n  TEMPO 0814/0819 0800 +SN BLSN OVC001",
      "metarHtml": "METAR LUKK 081100Z 33011KT 9999 -<span class=\"hl\">RA</span> OVC008 01/M01 Q0993 TEMPO 33016G26KT",
      "tafHtml": "TAF LUKK 080519Z 0806/0906 30010KT 3000 -<span class=\"hl\">RA</span> <span class=\"hl\">BR</span> OVC002 \n  TEMPO 0806/0808 1000 <span class=\"hl\">SHRA</span> OVC001 BKN010CB \n  TEMPO 0808/0810 4000 -<span class=\"hl\">FZRA</span> -<span class=\"hl\">SN</span> \n  BECMG 0810/0812 29016G26KT 3000 -<span class=\"hl\">FZRA</span> -<span class=\"hl\">SN</span> OVC004 \n  BECMG 0812/0814 30018G28KT 3000 -<span class=\"hl\">SN</span> <span class=\"hl\">BLSN</span> OVC003 \n  TEMPO 0814/0819 <span class=\"hl-vis\">0800</span> +<span class=\"hl\">SN</span> <span class=\"hl\">BLSN</span> OVC001"
    },
    {
      "icao": "UBBB",
      "iata": "GYD",
      "name": "Heydar Aliyev International Airport",
      "updatedAt": "081100Z",
      "visibility_m": 4000,
      "taf_visibility_m": 200,
      "worst_visibility_m": 200,
      "ceiling_ft": 700,
      "hazards": [
        "BR",
        "FG"
      ],
      "severityScore": 100,
      "metarRaw": "METAR UBBB 081100Z 15010KT 4000 BR BKN007 08/07 Q1016 NOSIG",
      "tafRaw": "TAF UBBB 081057Z 0812/0912 16010KT 3000 BR BKN005 TX08/0812Z TN04/0903Z \n  BECMG 0814/0816 VRB04KT 0600 FG VV003 \n  TEMPO 0816/0822 18005KT 0200 VV001 \n  BECMG 0822/0824 18016KT \n  TEMPO 0900/0906 20020G30KT 0300 VV001 \n  BECMG 0906/0908 19018G28KT 8000 NSW SCT020",
      "metarHtml": "METAR UBBB 081100Z 15010KT 4000 <span class=\"hl\">BR</span> BKN007 08/07 Q1016 NOSIG",
      "tafHtml": "TAF UBBB 081057Z 0812/0912 16010KT 3000 <span class=\"hl\">BR</span> BKN005 TX08/0812Z TN04/0903Z \n  BECMG 0814/0816 VRB04KT <span class=\"hl-vis\">0600</span> <span class=\"hl\">FG</span> VV003 \n  TEMPO 0816/0822 18005KT <span class=\"hl-vis\">0200</span> VV001 \n  BECMG 0822/0824 18016KT \n  TEMPO 0900/0906 20020G30KT <span class=\"hl-vis\">0300</span> VV001 \n  BECMG 0906/0908 19018G28KT 8000 NSW SCT020"
    },
    {
      "icao": "LFSB",
      "iata": "BSL",
      "name": "EuroAirport Basel–Mulhouse–Freiburg",
      "updatedAt": "081100Z",
      "visibility_m": 3700,
      "taf_visibility_m": 1500,
      "worst_visibility_m": 1500,
      "ceiling_ft": 800,
      "hazards": [
        "BR",
        "DZ",
        "SN",
        "RA",
        "SHRA"
      ],
      "severityScore": 99,
      "metarRaw": "METAR LFSB 081100Z AUTO 14005KT 120V180 3700 -DZ BR BKN015 OVC020 01/00 Q1010 TEMPO BKN008",
      "tafRaw": "TAF LFSB 080500Z 0806/0906 VRB03KT 7000 FEW010 BKN020 \n  TEMPO 0806/0811 1500 -SN BKN003 \n  TEMPO 0811/0812 3000 -RASN BKN004 \n  PROB40 \n  TEMPO 0812/0816 4000 -RA BKN008 \n  TEMPO 0816/0822 4000 RA \n  BECMG 0822/0824 21012KT \n  TEMPO 0900/0906 24020G35KT -SHRA FEW035TCU BKN050",
      "metarHtml": "METAR LFSB 081100Z AUTO 14005KT 120V180 3700 -<span class=\"hl\">DZ</span> <span class=\"hl\">BR</span> BKN015 OVC020 01/00 Q1010 TEMPO BKN008",
      "tafHtml": "TAF LFSB 080500Z 0806/0906 VRB03KT 7000 FEW010 BKN020 \n  TEMPO 0806/0811 1500 -<span class=\"hl\">SN</span> BKN003 \n  TEMPO 0811/0812 3000 -RASN BKN004 \n  PROB40 \n  TEMPO 0812/0816 4000 -<span class=\"hl\">RA</span> BKN008 \n  TEMPO 0816/0822 4000 <span class=\"hl\">RA</span> \n  BECMG 0822/0824 21012KT \n  TEMPO 0900/0906 24020G35KT -<span class=\"hl\">SHRA</span> FEW035TCU BKN050"
    },
    {
      "icao": "EGPD",
      "iata": "ABZ",
      "name": "Aberdeen International Airport",
      "updatedAt": "081050Z",
      "visibility_m": 9000,
      "taf_visibility_m": 300,
      "worst_visibility_m": 300,
      "ceiling_ft": null,
      "hazards": [
        "FZFG",
        "BR",
        "RA"
      ],
      "severityScore": 97,
      "metarRaw": "METAR EGPD 081050Z 21006KT 9000 3000S VCFG FEW004 M01/M02 Q1001 NOSIG",
      "tafRaw": "TAF EGPD 081057Z 0812/0912 19005KT 9999 FEW006 \n  PROB40 \n  TEMPO 0812/0820 4000 BR \n  TEMPO 0820/0902 6000 -RA BKN004 \n  PROB40 \n  TEMPO 0820/0902 0300 FZFG VV/// \n  BECMG 0902/0905 31010KT BKN006 \n  TEMPO 0902/0912 6000 -RA BKN004 \n  PROB40 \n  TEMPO 0909/0912 4000 RASN",
      "metarHtml": "METAR EGPD 081050Z 21006KT 9000 3000S VCFG FEW004 M01/M02 Q1001 NOSIG",
      "tafHtml": "TAF EGPD 081057Z 0812/0912 19005KT 9999 FEW006 \n  PROB40 \n  TEMPO 0812/0820 4000 <span class=\"hl\">BR</span> \n  TEMPO 0820/0902 6000 -<span class=\"hl\">RA</span> BKN004 \n  PROB40 \n  TEMPO 0820/0902 <span class=\"hl-vis\">0300</span> <span class=\"hl\">FZFG</span> VV/// \n  BECMG 0902/0905 31010KT BKN006 \n  TEMPO 0902/0912 6000 -<span class=\"hl\">RA</span> BKN004 \n  PROB40 \n  TEMPO 0909/0912 4000 RASN"
    },
    {
      "icao": "EYVI",
      "iata": "VNO",
      "name": "Vilnius International Airport",
      "updatedAt": "081050Z",
      "visibility_m": 10000,
      "taf_visibility_m": 600,
      "worst_visibility_m": 600,
      "ceiling_ft": 700,
      "hazards": [
        "SN",
        "BLSN"
      ],
      "severityScore": 90,
      "metarRaw": "METAR EYVI 081050Z 04011KT 9999 OVC007 M08/M09 Q1011 NOSIG",
      "tafRaw": "TAF EYVI 081100Z 0812/0912 03013KT 6000 BKN010 \n  TEMPO 0812/0823 BKN005 OVC015 \n  PROB40 \n  TEMPO 0812/0823 OVC002 \n  BECMG 0823/0824 OVC015 \n  TEMPO 0900/0906 03015G26KT SCT015 \n  BECMG 0906/0907 03016G26KT 1500 SN BLSN OVC010 \n  TEMPO 0907/0912 0600 +SN BKN005",
      "metarHtml": "METAR EYVI 081050Z 04011KT 9999 OVC007 M08/M09 Q1011 NOSIG",
      "tafHtml": "TAF EYVI 081100Z 0812/0912 03013KT 6000 BKN010 \n  TEMPO 0812/0823 BKN005 OVC015 \n  PROB40 \n  TEMPO 0812/0823 OVC002 \n  BECMG 0823/0824 OVC015 \n  TEMPO 0900/0906 03015G26KT SCT015 \n  BECMG 0906/0907 03016G26KT 1500 <span class=\"hl\">SN</span> <span class=\"hl\">BLSN</span> OVC010 \n  TEMPO 0907/0912 <span class=\"hl-vis\">0600</span> +<span class=\"hl\">SN</span> BKN005"
    },
    {
      "icao": "LOWW",
      "iata": "VIE",
      "name": "Vienna International Airport",
      "updatedAt": "081050Z",
      "visibility_m": 10000,
      "taf_visibility_m": 800,
      "worst_visibility_m": 800,
      "ceiling_ft": null,
      "hazards": [
        "BR",
        "FZRA",
        "SN"
      ],
      "severityScore": 88,
      "metarRaw": "METAR LOWW 081050Z 36005KT 300V030 9999 FEW040 M02/M09 Q1011 NOSIG",
      "tafRaw": "TAF LOWW 081115Z 0812/0918 35010KT CAVOK TXM02/0813Z TNM06/0909Z \n  BECMG 0815/0817 VRB03KT \n  BECMG 0901/0903 12008KT \n  FM090600 12008KT 6000 -SN VV015 \n  TEMPO 0907/0911 0800 SNPL VV003 \n  PROB30 0910/0911 -FZRA \n  FM091000 13008KT 6000 SCT005 \n  TEMPO 0911/0913 2000 BR BKN003 \n  BECMG 0916/0918 BKN007 \n  TEMPO 0916/0918 2000 BR BKN003",
      "metarHtml": "METAR LOWW 081050Z 36005KT 300V030 9999 FEW040 M02/M09 Q1011 NOSIG",
      "tafHtml": "TAF LOWW 081115Z 0812/0918 35010KT <span class=\"hl-vis\">CAVOK</span> TXM02/0813Z TNM06/0909Z \n  BECMG 0815/0817 VRB03KT \n  BECMG 0901/0903 12008KT \n  FM090600 12008KT 6000 -<span class=\"hl\">SN</span> VV015 \n  TEMPO 0907/0911 <span class=\"hl-vis\">0800</span> SNPL VV003 \n  PROB30 0910/0911 -<span class=\"hl\">FZRA</span> \n  FM091000 13008KT 6000 SCT005 \n  TEMPO 0911/0913 2000 <span class=\"hl\">BR</span> BKN003 \n  BECMG 0916/0918 BKN007 \n  TEMPO 0916/0918 2000 <span class=\"hl\">BR</span> BKN003"
    },
    {
      "icao": "EDDN",
      "iata": "NUE",
      "name": "Nuremberg Airport",
      "updatedAt": "081050Z",
      "visibility_m": 10000,
      "taf_visibility_m": 900,
      "worst_visibility_m": 900,
      "ceiling_ft": 1400,
      "hazards": [
        "FZRA",
        "SN",
        "RA"
      ],
      "severityScore": 87,
      "metarRaw": "METAR EDDN 081050Z AUTO 12005KT 9999 BKN015 M01/M03 Q1009 TEMPO OVC014",
      "tafRaw": "TAF EDDN 080500Z 0806/0906 15005KT 9999 BKN015 \n  TEMPO 0806/0808 3000 -SN BKN009 \n  TEMPO 0808/0811 BKN012 \n  BECMG 0816/0818 4000 -SN BKN008 \n  TEMPO 0821/0902 0900 SN BKN004 \n  PROB40 \n  TEMPO 0901/0903 FZRA \n  BECMG 0902/0904 13010KT RA \n  BECMG 0904/0906 9999 NSW BKN035",
      "metarHtml": "METAR EDDN 081050Z AUTO 12005KT 9999 BKN015 M01/M03 Q1009 TEMPO OVC014",
      "tafHtml": "TAF EDDN 080500Z 0806/0906 15005KT 9999 BKN015 \n  TEMPO 0806/0808 3000 -<span class=\"hl\">SN</span> BKN009 \n  TEMPO 0808/0811 BKN012 \n  BECMG 0816/0818 4000 -<span class=\"hl\">SN</span> BKN008 \n  TEMPO 0821/0902 0900 <span class=\"hl\">SN</span> BKN004 \n  PROB40 \n  TEMPO 0901/0903 <span class=\"hl\">FZRA</span> \n  BECMG 0902/0904 13010KT <span class=\"hl\">RA</span> \n  BECMG 0904/0906 9999 NSW BKN035"
    },
    {
      "icao": "UAAA",
      "iata": "ALA",
      "name": "Almaty International Airport",
      "updatedAt": "081100Z",
      "visibility_m": 3300,
      "taf_visibility_m": 400,
      "worst_visibility_m": 400,
      "ceiling_ft": 1000,
      "hazards": [
        "BR",
        "FZFG"
      ],
      "severityScore": 87,
      "metarRaw": "METAR UAAA 081100Z 01002MPS 310V110 3300 BR BKN010 OVC033 M04/M05 Q1031 NOSIG",
      "tafRaw": "TAF UAAA 080504Z 0806/0906 03003MPS 2200 BR FU BKN011 OVC100 TXM01/0809Z TNM07/0901Z \n  TEMPO 0806/0811 0800 FZFG VV003 \n  BECMG 0811/0812 1200 \n  TEMPO 0812/0824 0400 FZFG VV002 \n  TEMPO 0900/0906 0600 FZFG VV003",
      "metarHtml": "METAR UAAA 081100Z 01002MPS 310V110 3300 <span class=\"hl\">BR</span> BKN010 OVC033 M04/M05 Q1031 NOSIG",
      "tafHtml": "TAF UAAA 080504Z 0806/0906 03003MPS 2200 <span class=\"hl\">BR</span> FU BKN011 OVC100 TXM01/0809Z TNM07/0901Z \n  TEMPO 0806/0811 <span class=\"hl-vis\">0800</span> <span class=\"hl\">FZFG</span> VV003 \n  BECMG 0811/0812 1200 \n  TEMPO 0812/0824 <span class=\"hl-vis\">0400</span> <span class=\"hl\">FZFG</span> VV002 \n  TEMPO 0900/0906 <span class=\"hl-vis\">0600</span> <span class=\"hl\">FZFG</span> VV003"
    },
    {
      "icao": "EGGP",
      "iata": "LPL",
      "name": "Liverpool John Lennon Airport",
      "updatedAt": "081050Z",
      "visibility_m": 5000,
      "taf_visibility_m": 1200,
      "worst_visibility_m": 1200,
      "ceiling_ft": 400,
      "hazards": [
        "DZ",
        "SN",
        "RA"
      ],
      "severityScore": 85,
      "metarRaw": "METAR EGGP 081050Z 10007KT 5000 DZ FEW003 OVC004 02/01 Q1001",
      "tafRaw": "TAF EGGP 081104Z 0812/0912 12007KT 9999 FEW010 \n  PROB40 \n  TEMPO 0812/0815 4000 DZ BKN004 \n  BECMG 0814/0817 06010KT \n  TEMPO 0815/0819 6000 RA -RADZ BKN009 \n  PROB30 \n  TEMPO 0815/0819 4000 RADZ BKN004 \n  BECMG 0819/0822 36012KT \n  TEMPO 0819/0823 35016G28KT 4000 RADZ RASN BKN008 \n  PROB30 \n  TEMPO 0819/0823 1200 +RASN SN BKN002 \n  TEMPO 0823/0909 6000 RA BKN012 \n  PROB30 \n  TEMPO 0823/0904 4000 RADZ BKN008 \n  PROB30 \n  TEMPO 0909/0912 6000 RA BKN012",
      "metarHtml": "METAR EGGP 081050Z 10007KT 5000 <span class=\"hl\">DZ</span> FEW003 OVC004 02/01 Q1001",
      "tafHtml": "TAF EGGP 081104Z 0812/0912 12007KT 9999 FEW010 \n  PROB40 \n  TEMPO 0812/0815 4000 <span class=\"hl\">DZ</span> BKN004 \n  BECMG 0814/0817 06010KT \n  TEMPO 0815/0819 6000 <span class=\"hl\">RA</span> -RADZ BKN009 \n  PROB30 \n  TEMPO 0815/0819 4000 RADZ BKN004 \n  BECMG 0819/0822 36012KT \n  TEMPO 0819/0823 35016G28KT 4000 RADZ RASN BKN008 \n  PROB30 \n  TEMPO 0819/0823 1200 +RASN <span class=\"hl\">SN</span> BKN002 \n  TEMPO 0823/0909 6000 <span class=\"hl\">RA</span> BKN012 \n  PROB30 \n  TEMPO 0823/0904 4000 RADZ BKN008 \n  PROB30 \n  TEMPO 0909/0912 6000 <span class=\"hl\">RA</span> BKN012"
    },
    {
      "icao": "LIPE",
      "iata": "BLQ",
      "name": "Bologna Guglielmo Marconi Airport",
      "updatedAt": "081050Z",
      "visibility_m": 10000,
      "taf_visibility_m": 200,
      "worst_visibility_m": 200,
      "ceiling_ft": null,
      "hazards": [
        "FZFG"
      ],
      "severityScore": 85,
      "metarRaw": "METAR LIPE 081050Z 27003KT 240V360 CAVOK 01/M07 Q1014",
      "tafRaw": "TAF LIPE 080500Z 0806/0906 VRB05KT 9999 FEW030 \n  PROB30 \n  TEMPO 0806/0808 0200 FZFG",
      "metarHtml": "METAR LIPE 081050Z 27003KT 240V360 <span class=\"hl-vis\">CAVOK</span> 01/M07 Q1014",
      "tafHtml": "TAF LIPE 080500Z 0806/0906 VRB05KT 9999 FEW030 \n  PROB30 \n  TEMPO 0806/0808 <span class=\"hl-vis\">0200</span> <span class=\"hl\">FZFG</span>"
    },
    {
      "icao": "EDDS",
      "iata": "STR",
      "name": "Stuttgart Airport",
      "updatedAt": "081050Z",
      "visibility_m": 10000,
      "taf_visibility_m": 3000,
      "worst_visibility_m": 3000,
      "ceiling_ft": 3300,
      "hazards": [
        "FZRA",
        "SN",
        "RA",
        "SHRA"
      ],
      "severityScore": 79,
      "metarRaw": "METAR EDDS 081050Z AUTO VRB01KT 9999 BKN033 BKN042 02/M02 Q1008 NOSIG",
      "tafRaw": "TAF EDDS 080500Z 0806/0906 22004KT 9999 BKN020 \n  TEMPO 0812/0816 4000 -SN \n  PROB30 \n  TEMPO 0814/0816 -FZRA \n  TEMPO 0820/0902 3000 RA \n  BECMG 0822/0902 21013KT \n  TEMPO 0902/0905 23020G35KT SHRA BKN015CB",
      "metarHtml": "METAR EDDS 081050Z AUTO VRB01KT 9999 BKN033 BKN042 02/M02 Q1008 NOSIG",
      "tafHtml": "TAF EDDS 080500Z 0806/0906 22004KT 9999 BKN020 \n  TEMPO 0812/0816 4000 -<span class=\"hl\">SN</span> \n  PROB30 \n  TEMPO 0814/0816 -<span class=\"hl\">FZRA</span> \n  TEMPO 0820/0902 3000 <span class=\"hl\">RA</span> \n  BECMG 0822/0902 21013KT \n  TEMPO 0902/0905 23020G35KT <span class=\"hl\">SHRA</span> BKN015CB"
    },
    {
      "icao": "LRBV",
      "iata": "GHV",
      "name": "Brașov-Ghimbav International Airport",
      "updatedAt": "081100Z",
      "visibility_m": 4000,
      "taf_visibility_m": 800,
      "worst_visibility_m": 800,
      "ceiling_ft": 600,
      "hazards": [
        "BR",
        "SN"
      ],
      "severityScore": 78,
      "metarRaw": "METAR LRBV 081100Z 29008KT 260V320 4000 -SN BR BKN006 OVC012 M04/M06 Q1000",
      "tafRaw": "TAF LRBV 080800Z 0809/0818 30014KT 3000 -SN BR BKN010 BKN030 \n  TEMPO 0809/0810 0800 SN DRSN BKN003 OVC020 \n  BECMG 0811/0813 9999 NSW BKN015 BKN040",
      "metarHtml": "METAR LRBV 081100Z 29008KT 260V320 4000 -<span class=\"hl\">SN</span> <span class=\"hl\">BR</span> BKN006 OVC012 M04/M06 Q1000",
      "tafHtml": "TAF LRBV 080800Z 0809/0818 30014KT 3000 -<span class=\"hl\">SN</span> <span class=\"hl\">BR</span> BKN010 BKN030 \n  TEMPO 0809/0810 <span class=\"hl-vis\">0800</span> <span class=\"hl\">SN</span> DRSN BKN003 OVC020 \n  BECMG 0811/0813 9999 NSW BKN015 BKN040"
    },
    {
      "icao": "EDDH",
      "iata": "HAM",
      "name": "Hamburg Helmut Schmidt Airport",
      "updatedAt": "081050Z",
      "visibility_m": 1200,
      "taf_visibility_m": null,
      "worst_visibility_m": 1200,
      "ceiling_ft": 400,
      "hazards": [
        "BR",
        "SHSN"
      ],
      "severityScore": 70,
      "metarRaw": "METAR EDDH 081050Z AUTO 12005KT 100V170 3600 -SHSN BR BKN006 BKN010 FEW///CB M01/M02 Q1005 RESHSN TEMPO 1200 SHSN BKN004",
      "tafRaw": null,
      "metarHtml": "METAR EDDH 081050Z AUTO 12005KT 100V170 3600 -<span class=\"hl\">SHSN</span> <span class=\"hl\">BR</span> BKN006 BKN010 FEW///CB M01/M02 Q1005 RESHSN TEMPO 1200 <span class=\"hl\">SHSN</span> BKN004",
      "tafHtml": null
    },
    {
      "icao": "LTAC",
      "iata": "ESB",
      "name": "Esenboğa International Airport",
      "updatedAt": "081050Z",
      "visibility_m": 6000,
      "taf_visibility_m": 2500,
      "worst_visibility_m": 2500,
      "ceiling_ft": 3000,
      "hazards": [
        "BR",
        "TSRA",
        "SN",
        "SHRA"
      ],
      "severityScore": 67,
      "metarRaw": "METAR LTAC 081050Z 06007KT 020V090 6000 BKN030 BKN080 07/05 Q1008 NOSIG RMK RWY21C 04005KT RWY03L 05007KT RWY21R 03006KT RWY03R 04007KT RWY21L 04007KT",
      "tafRaw": "TAF LTAC 081040Z 0812/0912 25012KT 6000 BKN030 BKN080 \n  TEMPO 0812/0816 24015G25KT 4000 -SHRA BR \n  TEMPO 0817/0821 24020G30KT 4000 -TSRA BR FEW025CB BKN030 \n  TEMPO 0822/0902 4000 -RASN BR \n  TEMPO 0903/0907 2500 -SN BR",
      "metarHtml": "METAR LTAC 081050Z 06007KT 020V090 6000 BKN030 BKN080 07/05 Q1008 NOSIG RMK RWY21C 04005KT RWY03L 05007KT RWY21R 03006KT RWY03R 04007KT RWY21L 04007KT",
      "tafHtml": "TAF LTAC 081040Z 0812/0912 25012KT 6000 BKN030 BKN080 \n  TEMPO 0812/0816 24015G25KT 4000 -<span class=\"hl\">SHRA</span> <span class=\"hl\">BR</span> \n  TEMPO 0817/0821 24020G30KT 4000 -<span class=\"hl\">TSRA</span> <span class=\"hl\">BR</span> FEW025CB BKN030 \n  TEMPO 0822/0902 4000 -RASN <span class=\"hl\">BR</span> \n  TEMPO 0903/0907 2500 -<span class=\"hl\">SN</span> <span class=\"hl\">BR</span>"
    },
    {
      "icao": "EGNM",
      "iata": "LBA",
      "name": "Leeds Bradford Airport",
      "updatedAt": "081050Z",
      "visibility_m": 10000,
      "taf_visibility_m": 500,
      "worst_visibility_m": 500,
      "ceiling_ft": null,
      "hazards": [
        "SN",
        "RA"
      ],
      "severityScore": 65,
      "metarRaw": "METAR EGNM 081050Z VRB01KT CAVOK 00/M01 Q1001",
      "tafRaw": "TAF EGNM 081103Z 0812/0912 23004KT 9999 FEW015 \n  TEMPO 0812/0817 BKN012 \n  BECMG 0818/0821 04012KT BKN009 \n  TEMPO 0818/0903 4000 RASN -SN BKN004 \n  PROB30 \n  TEMPO 0820/0903 04015G25KT 0500 +SN BKN001 \n  TEMPO 0903/0909 6000 RA -RADZ \n  PROB30 \n  TEMPO 0903/0909 4000 RADZ RASN BKN004 \n  BECMG 0906/0909 34010KT SCT020",
      "metarHtml": "METAR EGNM 081050Z VRB01KT <span class=\"hl-vis\">CAVOK</span> 00/M01 Q1001",
      "tafHtml": "TAF EGNM 081103Z 0812/0912 23004KT 9999 FEW015 \n  TEMPO 0812/0817 BKN012 \n  BECMG 0818/0821 04012KT BKN009 \n  TEMPO 0818/0903 4000 RASN -<span class=\"hl\">SN</span> BKN004 \n  PROB30 \n  TEMPO 0820/0903 04015G25KT <span class=\"hl-vis\">0500</span> +<span class=\"hl\">SN</span> BKN001 \n  TEMPO 0903/0909 6000 <span class=\"hl\">RA</span> -RADZ \n  PROB30 \n  TEMPO 0903/0909 4000 RADZ RASN BKN004 \n  BECMG 0906/0909 34010KT SCT020"
    },
    {
      "icao": "LBSF",
      "iata": "SOF",
      "name": "Sofia Airport",
      "updatedAt": "081100Z",
      "visibility_m": 1700,
      "taf_visibility_m": 800,
      "worst_visibility_m": 800,
      "ceiling_ft": null,
      "hazards": [
        "BLSN",
        "SN"
      ],
      "severityScore": 65,
      "metarRaw": "METAR LBSF 081100Z 29023KT 1700 0900W BLSN FEW022 SCT026 M03/M08 Q1003 NOSIG",
      "tafRaw": "TAF LBSF 081100Z 0812/0912 29024G36KT 5000 -SN SCT020 BKN040 OVC060 \n  TEMPO 0812/0814 0800 BLSN \n  BECMG 0814/0816 29016KT 9999 NSW SCT030 BKN060 \n  BECMG 0904/0906 VRB04KT SCT060",
      "metarHtml": "METAR LBSF 081100Z 29023KT 1700 0900W <span class=\"hl\">BLSN</span> FEW022 SCT026 M03/M08 Q1003 NOSIG",
      "tafHtml": "TAF LBSF 081100Z 0812/0912 29024G36KT 5000 -<span class=\"hl\">SN</span> SCT020 BKN040 OVC060 \n  TEMPO 0812/0814 <span class=\"hl-vis\">0800</span> <span class=\"hl\">BLSN</span> \n  BECMG 0814/0816 29016KT 9999 NSW SCT030 BKN060 \n  BECMG 0904/0906 VRB04KT SCT060"
    },
    {
      "icao": "LRBS",
      "iata": "BBU",
      "name": "Bucharest Băneasa Aurel Vlaicu International Airport",
      "updatedAt": "081100Z",
      "visibility_m": 3000,
      "taf_visibility_m": 3000,
      "worst_visibility_m": 3000,
      "ceiling_ft": 600,
      "hazards": [
        "BR",
        "SN",
        "RA"
      ],
      "severityScore": 65,
      "metarRaw": "METAR LRBS 081100Z 25013KT 3000 -SG BR OVC006 M00/M01 Q0997 BECMG 5000",
      "tafRaw": "TAF LRBS 080500Z 0806/0906 VRB04KT 7000 -RA BKN005 OVC015 \n  BECMG 0806/0808 26012KT 5000 -SN BR BKN010 OVC025 \n  TEMPO 0808/0812 3000 SN BR BKN005 OVC020 \n  BECMG 0812/0814 9999 NSW BKN025",
      "metarHtml": "METAR LRBS 081100Z 25013KT 3000 -SG <span class=\"hl\">BR</span> OVC006 M00/M01 Q0997 BECMG 5000",
      "tafHtml": "TAF LRBS 080500Z 0806/0906 VRB04KT 7000 -<span class=\"hl\">RA</span> BKN005 OVC015 \n  BECMG 0806/0808 26012KT 5000 -<span class=\"hl\">SN</span> <span class=\"hl\">BR</span> BKN010 OVC025 \n  TEMPO 0808/0812 3000 <span class=\"hl\">SN</span> <span class=\"hl\">BR</span> BKN005 OVC020 \n  BECMG 0812/0814 9999 NSW BKN025"
    },
    {
      "icao": "LROP",
      "iata": "OTP",
      "name": "Bucharest Henri Coandă International Airport",
      "updatedAt": "081100Z",
      "visibility_m": 2000,
      "taf_visibility_m": 3000,
      "worst_visibility_m": 2000,
      "ceiling_ft": 500,
      "hazards": [
        "BR",
        "SN",
        "RA"
      ],
      "severityScore": 65,
      "metarRaw": "METAR LROP 081100Z 24011KT 2000 -SN BR OVC005 00/00 Q0997 BECMG 5000",
      "tafRaw": "TAF LROP 080500Z 0806/0906 VRB04KT 7000 -RA BKN005 OVC015 \n  BECMG 0806/0808 26012KT 5000 -SN BR BKN010 OVC025 \n  TEMPO 0808/0812 3000 SN BR BKN005 OVC020 \n  BECMG 0812/0814 9999 NSW BKN025",
      "metarHtml": "METAR LROP 081100Z 24011KT 2000 -<span class=\"hl\">SN</span> <span class=\"hl\">BR</span> OVC005 00/00 Q0997 BECMG 5000",
      "tafHtml": "TAF LROP 080500Z 0806/0906 VRB04KT 7000 -<span class=\"hl\">RA</span> BKN005 OVC015 \n  BECMG 0806/0808 26012KT 5000 -<span class=\"hl\">SN</span> <span class=\"hl\">BR</span> BKN010 OVC025 \n  TEMPO 0808/0812 3000 <span class=\"hl\">SN</span> <span class=\"hl\">BR</span> BKN005 OVC020 \n  BECMG 0812/0814 9999 NSW BKN025"
    },
    {
      "icao": "LZTT",
      "iata": "TAT",
      "name": "Poprad-Tatry Airport",
      "updatedAt": "081100Z",
      "visibility_m": 10000,
      "taf_visibility_m": 500,
      "worst_visibility_m": 500,
      "ceiling_ft": 8300,
      "hazards": [
        "FZFG"
      ],
      "severityScore": 65,
      "metarRaw": "METAR LZTT 081100Z 27015KT 9999 FEW026 BKN083 M06/M10 Q1002 NOSIG",
      "tafRaw": "TAF LZTT 081115Z 0812/0912 27010KT 9999 FEW035 \n  BECMG 0903/0905 VRB02KT \n  PROB30 \n  TEMPO 0904/0908 0500 FZFG BKN002",
      "metarHtml": "METAR LZTT 081100Z 27015KT 9999 FEW026 BKN083 M06/M10 Q1002 NOSIG",
      "tafHtml": "TAF LZTT 081115Z 0812/0912 27010KT 9999 FEW035 \n  BECMG 0903/0905 VRB02KT \n  PROB30 \n  TEMPO 0904/0908 <span class=\"hl-vis\">0500</span> <span class=\"hl\">FZFG</span> BKN002"
    },
    {
      "icao": "EDJA",
      "iata": "FMM",
      "name": "Memmingen Allgau Airport",
      "updatedAt": "081050Z",
      "visibility_m": 10000,
      "taf_visibility_m": 900,
      "worst_visibility_m": 900,
      "ceiling_ft": 3100,
      "hazards": [
        "FZRA",
        "SN"
      ],
      "severityScore": 63,
      "metarRaw": "METAR EDJA 081050Z 22012KT 9999 BKN031 BKN036 OVC043 M02/M04 Q1009",
      "tafRaw": "TAF EDJA 080800Z 0809/0818 22008KT 9999 SCT025 BKN040 \n  BECMG 0812/0814 4000 -SN BKN008 \n  TEMPO 0814/0818 0900 SN VV002 \n  PROB40 \n  TEMPO 0817/0818 FZRA",
      "metarHtml": "METAR EDJA 081050Z 22012KT 9999 BKN031 BKN036 OVC043 M02/M04 Q1009",
      "tafHtml": "TAF EDJA 080800Z 0809/0818 22008KT 9999 SCT025 BKN040 \n  BECMG 0812/0814 4000 -<span class=\"hl\">SN</span> BKN008 \n  TEMPO 0814/0818 0900 <span class=\"hl\">SN</span> VV002 \n  PROB40 \n  TEMPO 0817/0818 <span class=\"hl\">FZRA</span>"
    },
    {
      "icao": "EDNY",
      "iata": "FDH",
      "name": "Friedrichshafen Airport",
      "updatedAt": "081050Z",
      "visibility_m": 6000,
      "taf_visibility_m": 1200,
      "worst_visibility_m": 1200,
      "ceiling_ft": 3800,
      "hazards": [
        "SN",
        "FZRA"
      ],
      "severityScore": 63,
      "metarRaw": "METAR EDNY 081050Z 13005KT 6000 -SN FEW033 BKN038 OVC059 M01/M03 Q1011",
      "tafRaw": "TAF EDNY 080800Z 0809/0818 17003KT 9000 SCT030 BKN040 \n  TEMPO 0809/0812 4000 -SN BKN012 \n  BECMG 0811/0813 4000 -SNRA BKN010 \n  TEMPO 0813/0816 1200 SN BKN002 \n  PROB40 \n  TEMPO 0815/0818 FZRA",
      "metarHtml": "METAR EDNY 081050Z 13005KT 6000 -<span class=\"hl\">SN</span> FEW033 BKN038 OVC059 M01/M03 Q1011",
      "tafHtml": "TAF EDNY 080800Z 0809/0818 17003KT 9000 SCT030 BKN040 \n  TEMPO 0809/0812 4000 -<span class=\"hl\">SN</span> BKN012 \n  BECMG 0811/0813 4000 -SNRA BKN010 \n  TEMPO 0813/0816 1200 <span class=\"hl\">SN</span> BKN002 \n  PROB40 \n  TEMPO 0815/0818 <span class=\"hl\">FZRA</span>"
    },
    {
      "icao": "EPRZ",
      "iata": "RZE",
      "name": "Rzeszów-Jasionka Airport",
      "updatedAt": "081100Z",
      "visibility_m": 2700,
      "taf_visibility_m": 500,
      "worst_visibility_m": 500,
      "ceiling_ft": 2300,
      "hazards": [
        "BR",
        "SN"
      ],
      "severityScore": 63,
      "metarRaw": "METAR EPRZ 081100Z 32009KT 2700 -SN BR OVC023 M04/M06 Q1005",
      "tafRaw": "TAF EPRZ 080530Z 0806/0906 35008KT 4000 -SN BR FEW009 OVC020 \n  TEMPO 0806/0812 1500 SN BR SCT003 OVC007 \n  PROB30 \n  TEMPO 0806/0812 0500 +SN BKN002 \n  TEMPO 0812/0818 2000 SN BR BKN012 \n  PROB30 \n  TEMPO 0816/0821 33015G25KT 1200 SN DRSN BKN008 \n  BECMG 0821/0824 29012KT \n  TEMPO 0821/0906 30015G28KT 1200 SN DRSN BKN008",
      "metarHtml": "METAR EPRZ 081100Z 32009KT 2700 -<span class=\"hl\">SN</span> <span class=\"hl\">BR</span> OVC023 M04/M06 Q1005",
      "tafHtml": "TAF EPRZ 080530Z 0806/0906 35008KT 4000 -<span class=\"hl\">SN</span> <span class=\"hl\">BR</span> FEW009 OVC020 \n  TEMPO 0806/0812 1500 <span class=\"hl\">SN</span> <span class=\"hl\">BR</span> SCT003 OVC007 \n  PROB30 \n  TEMPO 0806/0812 <span class=\"hl-vis\">0500</span> +<span class=\"hl\">SN</span> BKN002 \n  TEMPO 0812/0818 2000 <span class=\"hl\">SN</span> <span class=\"hl\">BR</span> BKN012 \n  PROB30 \n  TEMPO 0816/0821 33015G25KT 1200 <span class=\"hl\">SN</span> DRSN BKN008 \n  BECMG 0821/0824 29012KT \n  TEMPO 0821/0906 30015G28KT 1200 <span class=\"hl\">SN</span> DRSN BKN008"
    },
    {
      "icao": "EGKK",
      "iata": "LGW",
      "name": "London Gatwick Airport",
      "updatedAt": "081050Z",
      "visibility_m": 4000,
      "taf_visibility_m": 2000,
      "worst_visibility_m": 2000,
      "ceiling_ft": 600,
      "hazards": [
        "BR",
        "RA",
        "SHRA"
      ],
      "severityScore": 61,
      "metarRaw": "METAR EGKK 081050Z 10002KT 4000 BR BKN006 BKN012 05/05 Q1003",
      "tafRaw": "TAF EGKK 081058Z 0812/0918 17004KT 9999 SCT007 BKN040 \n  TEMPO 0812/0814 8000 -RADZ BKN007 \n  PROB30 \n  TEMPO 0812/0814 4000 BR BKN004 \n  BECMG 0813/0816 11011KT \n  TEMPO 0814/0820 6000 RA BKN010 \n  PROB40 \n  TEMPO 0816/0820 4000 +RA BKN006 \n  PROB30 \n  TEMPO 0816/0818 12015G25KT \n  BECMG 0817/0819 19012KT \n  TEMPO 0819/0823 20016G27KT \n  PROB40 \n  TEMPO 0820/0904 7000 RA SHRA BKN012 \n  BECMG 0823/0902 30018G28KT \n  TEMPO 0904/0911 6000 -RASN BKN008 \n  PROB30 \n  TEMPO 0904/0910 30020G38KT 2000 RASN BKN004 \n  TEMPO 0911/0912 6000 RA SHRA BKN012",
      "metarHtml": "METAR EGKK 081050Z 10002KT 4000 <span class=\"hl\">BR</span> BKN006 BKN012 05/05 Q1003",
      "tafHtml": "TAF EGKK 081058Z 0812/0918 17004KT 9999 SCT007 BKN040 \n  TEMPO 0812/0814 8000 -RADZ BKN007 \n  PROB30 \n  TEMPO 0812/0814 4000 <span class=\"hl\">BR</span> BKN004 \n  BECMG 0813/0816 11011KT \n  TEMPO 0814/0820 6000 <span class=\"hl\">RA</span> BKN010 \n  PROB40 \n  TEMPO 0816/0820 4000 +<span class=\"hl\">RA</span> BKN006 \n  PROB30 \n  TEMPO 0816/0818 12015G25KT \n  BECMG 0817/0819 19012KT \n  TEMPO 0819/0823 20016G27KT \n  PROB40 \n  TEMPO 0820/0904 7000 <span class=\"hl\">RA</span> <span class=\"hl\">SHRA</span> BKN012 \n  BECMG 0823/0902 30018G28KT \n  TEMPO 0904/0911 6000 -RASN BKN008 \n  PROB30 \n  TEMPO 0904/0910 30020G38KT 2000 RASN BKN004 \n  TEMPO 0911/0912 6000 <span class=\"hl\">RA</span> <span class=\"hl\">SHRA</span> BKN012"
    },
    {
      "icao": "EDFH",
      "iata": "HHN",
      "name": "Frankfurt-Hahn Airport",
      "updatedAt": "081050Z",
      "visibility_m": 3000,
      "taf_visibility_m": null,
      "worst_visibility_m": 3000,
      "ceiling_ft": 300,
      "hazards": [
        "SN"
      ],
      "severityScore": 58,
      "metarRaw": "METAR EDFH 081050Z 22008KT 190V250 3000 -SN OVC003 M00/M00 Q1006",
      "tafRaw": null,
      "metarHtml": "METAR EDFH 081050Z 22008KT 190V250 3000 -<span class=\"hl\">SN</span> OVC003 M00/M00 Q1006",
      "tafHtml": null
    },
    {
      "icao": "OJAI",
      "iata": "AMM",
      "name": "Queen Alia International Airport",
      "updatedAt": "081100Z",
      "visibility_m": 5000,
      "taf_visibility_m": 1500,
      "worst_visibility_m": 1500,
      "ceiling_ft": null,
      "hazards": [
        "BR",
        "TSRA",
        "RA"
      ],
      "severityScore": 57,
      "metarRaw": "METAR OJAI 081100Z 12014KT 5000 HZ NSC 21/04 Q1021 NOSIG",
      "tafRaw": "TAF OJAI 081100Z 0812/0918 13008KT 5000 HZ NSC \n  PROB30 \n  TEMPO 0812/0817 12016KT 4000 BLDU \n  BECMG 0818/0820 24014KT \n  BECMG 0902/0904 3000 -RA BKN030 \n  TEMPO 0906/0918 27025G35KT 1500 TSRA BR FEW020CB OVC025",
      "metarHtml": "METAR OJAI 081100Z 12014KT 5000 HZ NSC 21/04 Q1021 NOSIG",
      "tafHtml": "TAF OJAI 081100Z 0812/0918 13008KT 5000 HZ NSC \n  PROB30 \n  TEMPO 0812/0817 12016KT 4000 BLDU \n  BECMG 0818/0820 24014KT \n  BECMG 0902/0904 3000 -<span class=\"hl\">RA</span> BKN030 \n  TEMPO 0906/0918 27025G35KT 1500 <span class=\"hl\">TSRA</span> <span class=\"hl\">BR</span> FEW020CB OVC025"
    },
    {
      "icao": "EPLB",
      "iata": "LUZ",
      "name": "Lublin Airport",
      "updatedAt": "081100Z",
      "visibility_m": 1400,
      "taf_visibility_m": null,
      "worst_visibility_m": 1400,
      "ceiling_ft": 1800,
      "hazards": [
        "BR",
        "SN"
      ],
      "severityScore": 55,
      "metarRaw": "METAR EPLB 081100Z 36011KT 1400 R25/1400N SN BR FEW009 OVC018 M06/M07 Q1006",
      "tafRaw": null,
      "metarHtml": "METAR EPLB 081100Z 36011KT 1400 R25/1400N <span class=\"hl\">SN</span> <span class=\"hl\">BR</span> FEW009 OVC018 M06/M07 Q1006",
      "tafHtml": null
    },
    {
      "icao": "ESGG",
      "iata": "GOT",
      "name": "Göteborg Landvetter Airport",
      "updatedAt": "081050Z",
      "visibility_m": 10000,
      "taf_visibility_m": 1200,
      "worst_visibility_m": 1200,
      "ceiling_ft": 600,
      "hazards": [
        "SN"
      ],
      "severityScore": 53,
      "metarRaw": "METAR ESGG 081050Z 15011KT 9999 OVC006 M03/M05 Q1007",
      "tafRaw": "TAF ESGG 080830Z 0809/0909 16012KT 7000 -SN SCT006 BKN015 \n  TEMPO 0809/0814 1200 VV008 \n  PROB40 0814/0824 BKN012",
      "metarHtml": "METAR ESGG 081050Z 15011KT 9999 OVC006 M03/M05 Q1007",
      "tafHtml": "TAF ESGG 080830Z 0809/0909 16012KT 7000 -<span class=\"hl\">SN</span> SCT006 BKN015 \n  TEMPO 0809/0814 1200 VV008 \n  PROB40 0814/0824 BKN012"
    },
    {
      "icao": "LFBD",
      "iata": "BOD",
      "name": "Bordeaux–Mérignac Airport",
      "updatedAt": "081100Z",
      "visibility_m": 3800,
      "taf_visibility_m": null,
      "worst_visibility_m": 3800,
      "ceiling_ft": 800,
      "hazards": [
        "BR",
        "RA"
      ],
      "severityScore": 52,
      "metarRaw": "METAR LFBD 081100Z AUTO 26012KT 3800 -RA BR SCT007 BKN011 BKN018 12/11 Q1018 TEMPO 27015G25KT BKN008 OVC025",
      "tafRaw": null,
      "metarHtml": "METAR LFBD 081100Z AUTO 26012KT 3800 -<span class=\"hl\">RA</span> <span class=\"hl\">BR</span> SCT007 BKN011 BKN018 12/11 Q1018 TEMPO 27015G25KT BKN008 OVC025",
      "tafHtml": null
    },
    {
      "icao": "LFLL",
      "iata": "LYS",
      "name": "Lyon Saint-Exupéry Airport",
      "updatedAt": "081100Z",
      "visibility_m": 2000,
      "taf_visibility_m": null,
      "worst_visibility_m": 2000,
      "ceiling_ft": 600,
      "hazards": [
        "BR",
        "RA"
      ],
      "severityScore": 52,
      "metarRaw": "METAR LFLL 081100Z 10003KT 050V140 2500 -RA BR BKN008 OVC026 02/01 Q1015 TEMPO 2000 RA OVC006",
      "tafRaw": null,
      "metarHtml": "METAR LFLL 081100Z 10003KT 050V140 2500 -<span class=\"hl\">RA</span> <span class=\"hl\">BR</span> BKN008 OVC026 02/01 Q1015 TEMPO 2000 <span class=\"hl\">RA</span> OVC006",
      "tafHtml": null
    },
    {
      "icao": "LICJ",
      "iata": "PMO",
      "name": "Falcone–Borsellino Airport",
      "updatedAt": "081050Z",
      "visibility_m": 10000,
      "taf_visibility_m": 4000,
      "worst_visibility_m": 4000,
      "ceiling_ft": null,
      "hazards": [
        "TSRA",
        "RA",
        "SHRA"
      ],
      "severityScore": 51,
      "metarRaw": "METAR LICJ 081050Z 29028KT 9999 VCSH SCT040 SCT060 14/07 Q1018",
      "tafRaw": "TAF LICJ 080500Z 0806/0906 28025G35KT 9999 SCT020 \n  PROB40 \n  TEMPO 0806/0808 4000 TSRA \n  TEMPO 0808/0818 4000 SHRA \n  TEMPO 0818/0824 RA",
      "metarHtml": "METAR LICJ 081050Z 29028KT 9999 VCSH SCT040 SCT060 14/07 Q1018",
      "tafHtml": "TAF LICJ 080500Z 0806/0906 28025G35KT 9999 SCT020 \n  PROB40 \n  TEMPO 0806/0808 4000 <span class=\"hl\">TSRA</span> \n  TEMPO 0808/0818 4000 <span class=\"hl\">SHRA</span> \n  TEMPO 0818/0824 <span class=\"hl\">RA</span>"
    },
    {
      "icao": "EHEH",
      "iata": "EIN",
      "name": "Eindhoven Airport",
      "updatedAt": "081055Z",
      "visibility_m": 3000,
      "taf_visibility_m": null,
      "worst_visibility_m": 3000,
      "ceiling_ft": 300,
      "hazards": [
        "BR"
      ],
      "severityScore": 50,
      "metarRaw": "METAR EHEH 081055Z AUTO 20007KT 3100 R21/P3000N BR OVC003 01/00 Q1006 YLO TEMPO 3000 BR SCT003 BKN005",
      "tafRaw": null,
      "metarHtml": "METAR EHEH 081055Z AUTO 20007KT 3100 R21/P3000N <span class=\"hl\">BR</span> OVC003 01/00 Q1006 YLO TEMPO 3000 <span class=\"hl\">BR</span> SCT003 BKN005",
      "tafHtml": null
    },
    {
      "icao": "EPRA",
      "iata": "RDO",
      "name": "Warsaw Radom Airport",
      "updatedAt": "081100Z",
      "visibility_m": 1300,
      "taf_visibility_m": 1200,
      "worst_visibility_m": 1200,
      "ceiling_ft": 1800,
      "hazards": [
        "BR",
        "SN"
      ],
      "severityScore": 50,
      "metarRaw": "METAR EPRA 081100Z 34008KT 1300 R25/1400N -SN BR OVC018 M07/M09 Q1008",
      "tafRaw": "TAF EPRA 080830Z 0809/0818 35010KT 2500 -SN BR OVC020 \n  TEMPO 0809/0816 1200 SN BR BKN006 OVC012",
      "metarHtml": "METAR EPRA 081100Z 34008KT 1300 R25/1400N -<span class=\"hl\">SN</span> <span class=\"hl\">BR</span> OVC018 M07/M09 Q1008",
      "tafHtml": "TAF EPRA 080830Z 0809/0818 35010KT 2500 -<span class=\"hl\">SN</span> <span class=\"hl\">BR</span> OVC020 \n  TEMPO 0809/0816 1200 <span class=\"hl\">SN</span> <span class=\"hl\">BR</span> BKN006 OVC012"
    },
    {
      "icao": "LFLS",
      "iata": "GNB",
      "name": "Grenoble Alpes Isère Airport",
      "updatedAt": "081100Z",
      "visibility_m": 7000,
      "taf_visibility_m": 1200,
      "worst_visibility_m": 1200,
      "ceiling_ft": null,
      "hazards": [
        "RA",
        "BR",
        "SN"
      ],
      "severityScore": 50,
      "metarRaw": "METAR LFLS 081100Z AUTO 08009KT 7000 -RA BKN011/// BKN032/// BKN040/// ///TCU 01/00 Q1015",
      "tafRaw": "TAF LFLS 080200Z 0803/0903 08005KT 9999 OVC050 \n  BECMG 0803/0805 -SN OVC030 \n  TEMPO 0803/0808 1200 SN BKN008 \n  FM080800 08006KT 9999 -RA OVC030 \n  TEMPO 0808/0815 4000 RA BKN012 \n  PROB30 \n  TEMPO 0815/0820 4000 -RA BR \n  BECMG 0819/0821 18012KT 9999 BKN060 \n  PROB40 \n  TEMPO 0821/0903 18020G30KT",
      "metarHtml": "METAR LFLS 081100Z AUTO 08009KT 7000 -<span class=\"hl\">RA</span> BKN011/// BKN032/// BKN040/// ///TCU 01/00 Q1015",
      "tafHtml": "TAF LFLS 080200Z 0803/0903 08005KT 9999 OVC050 \n  BECMG 0803/0805 -<span class=\"hl\">SN</span> OVC030 \n  TEMPO 0803/0808 1200 <span class=\"hl\">SN</span> BKN008 \n  FM080800 08006KT 9999 -<span class=\"hl\">RA</span> OVC030 \n  TEMPO 0808/0815 4000 <span class=\"hl\">RA</span> BKN012 \n  PROB30 \n  TEMPO 0815/0820 4000 -<span class=\"hl\">RA</span> <span class=\"hl\">BR</span> \n  BECMG 0819/0821 18012KT 9999 BKN060 \n  PROB40 \n  TEMPO 0821/0903 18020G30KT"
    },
    {
      "icao": "LPPR",
      "iata": "OPO",
      "name": "Francisco de Sá Carneiro Airport",
      "updatedAt": "081100Z",
      "visibility_m": 3000,
      "taf_visibility_m": 2000,
      "worst_visibility_m": 2000,
      "ceiling_ft": 400,
      "hazards": [
        "BR"
      ],
      "severityScore": 45,
      "metarRaw": "METAR LPPR 081100Z 18014KT 3000 DZRA BR BKN004 11/10 Q1030",
      "tafRaw": "TAF LPPR 081100Z 0812/0912 18015KT 9999 SCT004 BKN018 \n  TEMPO 0812/0823 2000 DZRA BR SCT002 BKN003 \n  BECMG 0814/0816 23018KT \n  PROB40 \n  TEMPO 0816/0823 23020G30KT \n  BECMG 0823/0901 30010KT SCT015",
      "metarHtml": "METAR LPPR 081100Z 18014KT 3000 DZRA <span class=\"hl\">BR</span> BKN004 11/10 Q1030",
      "tafHtml": "TAF LPPR 081100Z 0812/0912 18015KT 9999 SCT004 BKN018 \n  TEMPO 0812/0823 2000 DZRA <span class=\"hl\">BR</span> SCT002 BKN003 \n  BECMG 0814/0816 23018KT \n  PROB40 \n  TEMPO 0816/0823 23020G30KT \n  BECMG 0823/0901 30010KT SCT015"
    },
    {
      "icao": "EYKA",
      "iata": "KUN",
      "name": "Kaunas International Airport",
      "updatedAt": "081050Z",
      "visibility_m": 7000,
      "taf_visibility_m": 5000,
      "worst_visibility_m": 5000,
      "ceiling_ft": 800,
      "hazards": [
        "SN"
      ],
      "severityScore": 43,
      "metarRaw": "METAR EYKA 081050Z VRB02KT 7000 OVC008 M07/M08 Q1013",
      "tafRaw": "TAF EYKA 081100Z 0812/0912 VRB05KT 7000 OVC005 \n  BECMG 0812/0815 OVC010 \n  BECMG 0815/0818 04010KT BKN015 \n  BECMG 0821/0824 NSC \n  BECMG 0910/0912 5000 SN SCT015 BKN040",
      "metarHtml": "METAR EYKA 081050Z VRB02KT 7000 OVC008 M07/M08 Q1013",
      "tafHtml": "TAF EYKA 081100Z 0812/0912 VRB05KT 7000 OVC005 \n  BECMG 0812/0815 OVC010 \n  BECMG 0815/0818 04010KT BKN015 \n  BECMG 0821/0824 NSC \n  BECMG 0910/0912 5000 <span class=\"hl\">SN</span> SCT015 BKN040"
    },
    {
      "icao": "LRIA",
      "iata": "IAS",
      "name": "Iaşi Airport",
      "updatedAt": "081100Z",
      "visibility_m": 10000,
      "taf_visibility_m": 3000,
      "worst_visibility_m": 3000,
      "ceiling_ft": 700,
      "hazards": [
        "SN"
      ],
      "severityScore": 43,
      "metarRaw": "METAR LRIA 081100Z 30012KT 260V320 9999 BKN007 OVC032 M02/M02 Q0996",
      "tafRaw": "TAF LRIA 080800Z 0809/0818 31010KT 8000 -SN OVC005 \n  BECMG 0809/0811 NSW BKN010 OVC030 \n  TEMPO 0811/0818 31015G25KT \n  TEMPO 0812/0816 3000 SN BKN005 OVC020",
      "metarHtml": "METAR LRIA 081100Z 30012KT 260V320 9999 BKN007 OVC032 M02/M02 Q0996",
      "tafHtml": "TAF LRIA 080800Z 0809/0818 31010KT 8000 -<span class=\"hl\">SN</span> OVC005 \n  BECMG 0809/0811 NSW BKN010 OVC030 \n  TEMPO 0811/0818 31015G25KT \n  TEMPO 0812/0816 3000 <span class=\"hl\">SN</span> BKN005 OVC020"
    },
    {
      "icao": "EPPO",
      "iata": "POZ",
      "name": "Poznań-Ławica Airport",
      "updatedAt": "081100Z",
      "visibility_m": 3400,
      "taf_visibility_m": null,
      "worst_visibility_m": 3400,
      "ceiling_ft": 500,
      "hazards": [
        "BR"
      ],
      "severityScore": 40,
      "metarRaw": "METAR EPPO 081100Z 06004KT 020V100 3400 BR BKN005 M07/M09 Q1012",
      "tafRaw": null,
      "metarHtml": "METAR EPPO 081100Z 06004KT 020V100 3400 <span class=\"hl\">BR</span> BKN005 M07/M09 Q1012",
      "tafHtml": null
    },
    {
      "icao": "LRSM",
      "iata": "SUJ",
      "name": "Satu Mare International Airport",
      "updatedAt": "081100Z",
      "visibility_m": 6000,
      "taf_visibility_m": 3000,
      "worst_visibility_m": 3000,
      "ceiling_ft": 1300,
      "hazards": [
        "BR",
        "SN"
      ],
      "severityScore": 40,
      "metarRaw": "METAR LRSM 081100Z 27014KT 6000 OVC013 M04/M06 Q1003",
      "tafRaw": "TAF LRSM 080800Z 0809/0818 26010KT 5000 BR SCT010 BKN025 \n  TEMPO 0809/0812 3000 -SN BR BKN010 OVC020 \n  BECMG 0813/0815 9999 NSW",
      "metarHtml": "METAR LRSM 081100Z 27014KT 6000 OVC013 M04/M06 Q1003",
      "tafHtml": "TAF LRSM 080800Z 0809/0818 26010KT 5000 <span class=\"hl\">BR</span> SCT010 BKN025 \n  TEMPO 0809/0812 3000 -<span class=\"hl\">SN</span> <span class=\"hl\">BR</span> BKN010 OVC020 \n  BECMG 0813/0815 9999 NSW"
    },
    {
      "icao": "LCPH",
      "iata": "PFO",
      "name": "Paphos International Airport",
      "updatedAt": "081100Z",
      "visibility_m": 10000,
      "taf_visibility_m": 3000,
      "worst_visibility_m": 3000,
      "ceiling_ft": null,
      "hazards": [
        "TSRA",
        "SHRA"
      ],
      "severityScore": 39,
      "metarRaw": "METAR LCPH 081100Z 15011KT CAVOK 21/08 Q1015 NOSIG",
      "tafRaw": "TAF LCPH 080530Z 0806/0906 07007KT 9999 FEW025 \n  BECMG 0806/0808 12015KT \n  BECMG 0816/0818 29010KT \n  BECMG 0818/0821 29025KT \n  PROB40 \n  TEMPO 0818/0906 29025G35KT \n  TEMPO 0818/0906 VRB15G25KT 5000 SHRA BKN020TCU \n  PROB30 \n  TEMPO 0820/0906 VRB25G35KT 3000 TSRA SCT020CB",
      "metarHtml": "METAR LCPH 081100Z 15011KT <span class=\"hl-vis\">CAVOK</span> 21/08 Q1015 NOSIG",
      "tafHtml": "TAF LCPH 080530Z 0806/0906 07007KT 9999 FEW025 \n  BECMG 0806/0808 12015KT \n  BECMG 0816/0818 29010KT \n  BECMG 0818/0821 29025KT \n  PROB40 \n  TEMPO 0818/0906 29025G35KT \n  TEMPO 0818/0906 VRB15G25KT 5000 <span class=\"hl\">SHRA</span> BKN020TCU \n  PROB30 \n  TEMPO 0820/0906 VRB25G35KT 3000 <span class=\"hl\">TSRA</span> SCT020CB"
    },
    {
      "icao": "LTFM",
      "iata": "IST",
      "name": "İstanbul Airport",
      "updatedAt": "081050Z",
      "visibility_m": 10000,
      "taf_visibility_m": 4000,
      "worst_visibility_m": 4000,
      "ceiling_ft": 2800,
      "hazards": [
        "TSRA",
        "SHRA"
      ],
      "severityScore": 39,
      "metarRaw": "METAR LTFM 081050Z 20019KT 9999 FEW020TCU BKN028 BKN080 12/09 Q0997 RESHRA NOSIG RMK RWY17L 21019KT RWY34L 20016KT RWY16R 20017KT RWY36 20019KT RWY18 21021KT",
      "tafRaw": "TAF LTFM 081040Z 0812/0918 22022G32KT 9999 -SHRA BKN030 BKN080 \n  BECMG 0812/0814 26008KT \n  TEMPO 0813/0817 34012KT 4000 TSRA SCT017CB BKN025 \n  PROB40 \n  TEMPO 0817/0820 34012KT 4000 SHRA FEW017CB BKN022 \n  PROB30 \n  TEMPO 0820/0823 -SHSNRA SCT010 BKN018 \n  BECMG 0903/0905 FEW035 BKN100 \n  BECMG 0912/0915 20012KT",
      "metarHtml": "METAR LTFM 081050Z 20019KT 9999 FEW020TCU BKN028 BKN080 12/09 Q0997 RESHRA NOSIG RMK RWY17L 21019KT RWY34L 20016KT RWY16R 20017KT RWY36 20019KT RWY18 21021KT",
      "tafHtml": "TAF LTFM 081040Z 0812/0918 22022G32KT 9999 -<span class=\"hl\">SHRA</span> BKN030 BKN080 \n  BECMG 0812/0814 26008KT \n  TEMPO 0813/0817 34012KT 4000 <span class=\"hl\">TSRA</span> SCT017CB BKN025 \n  PROB40 \n  TEMPO 0817/0820 34012KT 4000 <span class=\"hl\">SHRA</span> FEW017CB BKN022 \n  PROB30 \n  TEMPO 0820/0823 -SHSNRA SCT010 BKN018 \n  BECMG 0903/0905 FEW035 BKN100 \n  BECMG 0912/0915 20012KT"
    },
    {
      "icao": "EPKK",
      "iata": "KRK",
      "name": "Kraków John Paul II International Airport",
      "updatedAt": "081100Z",
      "visibility_m": 3500,
      "taf_visibility_m": 1200,
      "worst_visibility_m": 1200,
      "ceiling_ft": 2300,
      "hazards": [
        "BR",
        "SN"
      ],
      "severityScore": 38,
      "metarRaw": "METAR EPKK 081100Z 30004KT 250V320 3500 -SN BR FEW010 BKN023 M05/M08 Q1008",
      "tafRaw": "TAF EPKK 080830Z 0809/0909 25004KT 5000 -SN BR FEW008 BKN020 \n  BECMG 0809/0812 32010KT \n  TEMPO 0809/0812 1500 SN BR BKN007 BKN012 \n  TEMPO 0812/0902 25005KT 4500 -SN BR BKN012 \n  BECMG 0902/0904 VRB02KT \n  TEMPO 0902/0907 1200 BR BKN003",
      "metarHtml": "METAR EPKK 081100Z 30004KT 250V320 3500 -<span class=\"hl\">SN</span> <span class=\"hl\">BR</span> FEW010 BKN023 M05/M08 Q1008",
      "tafHtml": "TAF EPKK 080830Z 0809/0909 25004KT 5000 -<span class=\"hl\">SN</span> <span class=\"hl\">BR</span> FEW008 BKN020 \n  BECMG 0809/0812 32010KT \n  TEMPO 0809/0812 1500 <span class=\"hl\">SN</span> <span class=\"hl\">BR</span> BKN007 BKN012 \n  TEMPO 0812/0902 25005KT 4500 -<span class=\"hl\">SN</span> <span class=\"hl\">BR</span> BKN012 \n  BECMG 0902/0904 VRB02KT \n  TEMPO 0902/0907 1200 <span class=\"hl\">BR</span> BKN003"
    },
    {
      "icao": "LICA",
      "iata": "SUF",
      "name": "Lamezia Terme Sant'Eufemia International Airport",
      "updatedAt": "081050Z",
      "visibility_m": 10000,
      "taf_visibility_m": 3000,
      "worst_visibility_m": 3000,
      "ceiling_ft": null,
      "hazards": [
        "RA",
        "TSRA"
      ],
      "severityScore": 37,
      "metarRaw": "METAR LICA 081050Z AUTO 28020KT 9999 -RA BKN034/// 12/06 Q1013",
      "tafRaw": "TAF LICA 080500Z 0806/0906 28020G30KT 9999 SCT030 \n  PROB40 \n  TEMPO 0806/0815 3000 TSRA \n  BECMG 0813/0815 29013KT",
      "metarHtml": "METAR LICA 081050Z AUTO 28020KT 9999 -<span class=\"hl\">RA</span> BKN034/// 12/06 Q1013",
      "tafHtml": "TAF LICA 080500Z 0806/0906 28020G30KT 9999 SCT030 \n  PROB40 \n  TEMPO 0806/0815 3000 <span class=\"hl\">TSRA</span> \n  BECMG 0813/0815 29013KT"
    },
    {
      "icao": "LEXJ",
      "iata": "SDR",
      "name": "Seve Ballesteros-Santander Airport",
      "updatedAt": "081100Z",
      "visibility_m": 10000,
      "taf_visibility_m": 1500,
      "worst_visibility_m": 1500,
      "ceiling_ft": null,
      "hazards": [
        "RA",
        "SHRA"
      ],
      "severityScore": 36,
      "metarRaw": "METAR LEXJ 081100Z 24009KT 200V270 CAVOK 13/04 Q1022",
      "tafRaw": "TAF LEXJ 080800Z 0809/0909 24009KT 9999 FEW030 SCT060 TX15/0813Z TN10/0906Z \n  TEMPO 0810/0821 22018G28KT \n  TEMPO 0819/0909 27020G33KT 3000 RA \n  PROB40 \n  TEMPO 0821/0824 1500 +SHRA BKN010 SCT025TCU \n  PROB30 \n  TEMPO 0821/0909 27025G43KT \n  PROB30 \n  TEMPO 0900/0909 1500 SHRA BKN010 SCT025TCU",
      "metarHtml": "METAR LEXJ 081100Z 24009KT 200V270 <span class=\"hl-vis\">CAVOK</span> 13/04 Q1022",
      "tafHtml": "TAF LEXJ 080800Z 0809/0909 24009KT 9999 FEW030 SCT060 TX15/0813Z TN10/0906Z \n  TEMPO 0810/0821 22018G28KT \n  TEMPO 0819/0909 27020G33KT 3000 <span class=\"hl\">RA</span> \n  PROB40 \n  TEMPO 0821/0824 1500 +<span class=\"hl\">SHRA</span> BKN010 SCT025TCU \n  PROB30 \n  TEMPO 0821/0909 27025G43KT \n  PROB30 \n  TEMPO 0900/0909 1500 <span class=\"hl\">SHRA</span> BKN010 SCT025TCU"
    },
    {
      "icao": "EPKT",
      "iata": "KTW",
      "name": "Katowice Wojciech Korfanty International Airport",
      "updatedAt": "081100Z",
      "visibility_m": 3200,
      "taf_visibility_m": null,
      "worst_visibility_m": 3200,
      "ceiling_ft": 2300,
      "hazards": [
        "BR",
        "SN"
      ],
      "severityScore": 33,
      "metarRaw": "METAR EPKT 081100Z 33007KT 3200 -SN BR FEW003 BKN023 M05/M07 Q1008",
      "tafRaw": null,
      "metarHtml": "METAR EPKT 081100Z 33007KT 3200 -<span class=\"hl\">SN</span> <span class=\"hl\">BR</span> FEW003 BKN023 M05/M07 Q1008",
      "tafHtml": null
    },
    {
      "icao": "LRTM",
      "iata": "TGM",
      "name": "Târgu Mureş Transilvania International Airport",
      "updatedAt": "081100Z",
      "visibility_m": 8000,
      "taf_visibility_m": 10000,
      "worst_visibility_m": 8000,
      "ceiling_ft": 1700,
      "hazards": [
        "SN"
      ],
      "severityScore": 30,
      "metarRaw": "METAR LRTM 081100Z 25004KT 8000 -SN BKN017 OVC026 M03/M06 Q1002",
      "tafRaw": "TAF LRTM 080800Z 0809/0818 30008KT 9999 SCT020 BKN040",
      "metarHtml": "METAR LRTM 081100Z 25004KT 8000 -<span class=\"hl\">SN</span> BKN017 OVC026 M03/M06 Q1002",
      "tafHtml": "TAF LRTM 080800Z 0809/0818 30008KT 9999 SCT020 BKN040"
    },
    {
      "icao": "EKBI",
      "iata": "BLL",
      "name": "Billund Airport",
      "updatedAt": "081050Z",
      "visibility_m": 4500,
      "taf_visibility_m": 3000,
      "worst_visibility_m": 3000,
      "ceiling_ft": null,
      "hazards": [
        "BR",
        "SN"
      ],
      "severityScore": 28,
      "metarRaw": "METAR EKBI 081050Z AUTO 11005KT 4500 BR OVC005/// M01/M02 Q1005",
      "tafRaw": "TAF EKBI 080827Z 0809/0909 12008KT 7000 BKN006 \n  TEMPO 0809/0823 SCT008 BKN020 \n  TEMPO 0823/0905 3000 -SN DRSN \n  BECMG 0901/0904 11018KT \n  FM090500 09022G36KT 9999 FEW015 \n  TEMPO 0905/0909 DRSN",
      "metarHtml": "METAR EKBI 081050Z AUTO 11005KT 4500 <span class=\"hl\">BR</span> OVC005/// M01/M02 Q1005",
      "tafHtml": "TAF EKBI 080827Z 0809/0909 12008KT 7000 BKN006 \n  TEMPO 0809/0823 SCT008 BKN020 \n  TEMPO 0823/0905 3000 -<span class=\"hl\">SN</span> DRSN \n  BECMG 0901/0904 11018KT \n  FM090500 09022G36KT 9999 FEW015 \n  TEMPO 0905/0909 DRSN"
    },
    {
      "icao": "ENGM",
      "iata": "OSL",
      "name": "Oslo-Gardermoen International Airport",
      "updatedAt": "081050Z",
      "visibility_m": 10000,
      "taf_visibility_m": 1200,
      "worst_visibility_m": 1200,
      "ceiling_ft": null,
      "hazards": [
        "SN"
      ],
      "severityScore": 28,
      "metarRaw": "METAR ENGM 081050Z VRB03KT 9999 SCT003 M10/M12 Q1004 NOSIG",
      "tafRaw": "TAF ENGM 080500Z 0806/0906 27003KT 9999 BKN018 \n  BECMG 0820/0822 BKN012 \n  TEMPO 0822/0903 1200 -SN VV008 \n  TEMPO 0903/0906 BKN020",
      "metarHtml": "METAR ENGM 081050Z VRB03KT 9999 SCT003 M10/M12 Q1004 NOSIG",
      "tafHtml": "TAF ENGM 080500Z 0806/0906 27003KT 9999 BKN018 \n  BECMG 0820/0822 BKN012 \n  TEMPO 0822/0903 1200 -<span class=\"hl\">SN</span> VV008 \n  TEMPO 0903/0906 BKN020"
    },
    {
      "icao": "ENTO",
      "iata": "TRF",
      "name": "Sandefjord Airport, Torp",
      "updatedAt": "081050Z",
      "visibility_m": 10000,
      "taf_visibility_m": 1200,
      "worst_visibility_m": 1200,
      "ceiling_ft": null,
      "hazards": [
        "SN"
      ],
      "severityScore": 28,
      "metarRaw": "METAR ENTO 081050Z 00000KT CAVOK M10/M13 Q1006 NOSIG",
      "tafRaw": "TAF ENTO 080500Z 0806/0906 27003KT CAVOK \n  BECMG 0818/0820 01010KT BKN012 \n  TEMPO 0820/0824 1200 SN VV006 \n  BECMG 0902/0904 07010KT BKN020",
      "metarHtml": "METAR ENTO 081050Z 00000KT <span class=\"hl-vis\">CAVOK</span> M10/M13 Q1006 NOSIG",
      "tafHtml": "TAF ENTO 080500Z 0806/0906 27003KT <span class=\"hl-vis\">CAVOK</span> \n  BECMG 0818/0820 01010KT BKN012 \n  TEMPO 0820/0824 1200 <span class=\"hl\">SN</span> VV006 \n  BECMG 0902/0904 07010KT BKN020"
    },
    {
      "icao": "EPWA",
      "iata": "WAW",
      "name": "Warsaw Chopin Airport",
      "updatedAt": "081100Z",
      "visibility_m": 3400,
      "taf_visibility_m": 2000,
      "worst_visibility_m": 2000,
      "ceiling_ft": null,
      "hazards": [
        "BR",
        "SN"
      ],
      "severityScore": 28,
      "metarRaw": "METAR EPWA 081100Z 33007KT 310V020 3400 BR SCT007 M08/M09 Q1010 NOSIG",
      "tafRaw": "TAF EPWA 080830Z 0809/0909 02005KT 3500 BR BKN006 \n  BECMG 0809/0812 5000 BR \n  TEMPO 0809/0822 2500 -SN BR \n  PROB40 \n  TEMPO 0810/0815 BKN010 \n  TEMPO 0822/0909 2000 -SN BR BKN003",
      "metarHtml": "METAR EPWA 081100Z 33007KT 310V020 3400 <span class=\"hl\">BR</span> SCT007 M08/M09 Q1010 NOSIG",
      "tafHtml": "TAF EPWA 080830Z 0809/0909 02005KT 3500 <span class=\"hl\">BR</span> BKN006 \n  BECMG 0809/0812 5000 <span class=\"hl\">BR</span> \n  TEMPO 0809/0822 2500 -<span class=\"hl\">SN</span> <span class=\"hl\">BR</span> \n  PROB40 \n  TEMPO 0810/0815 BKN010 \n  TEMPO 0822/0909 2000 -<span class=\"hl\">SN</span> <span class=\"hl\">BR</span> BKN003"
    },
    {
      "icao": "LRTR",
      "iata": "TSR",
      "name": "Timişoara Traian Vuia Airport",
      "updatedAt": "081100Z",
      "visibility_m": 7000,
      "taf_visibility_m": 3000,
      "worst_visibility_m": 3000,
      "ceiling_ft": null,
      "hazards": [
        "BR",
        "SN"
      ],
      "severityScore": 28,
      "metarRaw": "METAR LRTR 081100Z 28011KT 7000 FEW018 M05/M06 Q1008 NOSIG",
      "tafRaw": "TAF LRTR 080500Z 0806/0906 30010KT 3000 -SN BR BKN015 OVC030 \n  BECMG 0806/0808 9999 NSW BKN025 \n  BECMG 0821/0823 VRB03KT \n  TEMPO 0901/0906 3000 BR BKN010",
      "metarHtml": "METAR LRTR 081100Z 28011KT 7000 FEW018 M05/M06 Q1008 NOSIG",
      "tafHtml": "TAF LRTR 080500Z 0806/0906 30010KT 3000 -<span class=\"hl\">SN</span> <span class=\"hl\">BR</span> BKN015 OVC030 \n  BECMG 0806/0808 9999 NSW BKN025 \n  BECMG 0821/0823 VRB03KT \n  TEMPO 0901/0906 3000 <span class=\"hl\">BR</span> BKN010"
    },
    {
      "icao": "LZIB",
      "iata": "BTS",
      "name": "M. R. Štefánik Airport",
      "updatedAt": "081100Z",
      "visibility_m": 10000,
      "taf_visibility_m": 1400,
      "worst_visibility_m": 1400,
      "ceiling_ft": null,
      "hazards": [
        "SN"
      ],
      "severityScore": 28,
      "metarRaw": "METAR LZIB 081100Z 30017KT CAVOK M03/M10 Q1010 NOSIG",
      "tafRaw": "TAF LZIB 081115Z 0812/0912 32012KT CAVOK \n  BECMG 0816/0818 VRB02KT \n  BECMG 0907/0909 SCT008 OVC014 \n  TEMPO 0907/0912 2500 -SN \n  PROB30 \n  TEMPO 0908/0911 1400 SN BKN005",
      "metarHtml": "METAR LZIB 081100Z 30017KT <span class=\"hl-vis\">CAVOK</span> M03/M10 Q1010 NOSIG",
      "tafHtml": "TAF LZIB 081115Z 0812/0912 32012KT <span class=\"hl-vis\">CAVOK</span> \n  BECMG 0816/0818 VRB02KT \n  BECMG 0907/0909 SCT008 OVC014 \n  TEMPO 0907/0912 2500 -<span class=\"hl\">SN</span> \n  PROB30 \n  TEMPO 0908/0911 1400 <span class=\"hl\">SN</span> BKN005"
    },
    {
      "icao": "EDSB",
      "iata": "FKB",
      "name": "Karlsruhe Baden-Baden Airport",
      "updatedAt": "081050Z",
      "visibility_m": 9000,
      "taf_visibility_m": 3000,
      "worst_visibility_m": 3000,
      "ceiling_ft": 3100,
      "hazards": [
        "RA",
        "SHRA"
      ],
      "severityScore": 26,
      "metarRaw": "METAR EDSB 081050Z 21010KT 9000 -RA FEW015 BKN031 OVC038 02/00 Q1009",
      "tafRaw": "TAF EDSB 080500Z 0806/0906 20010KT 9999 BKN025 \n  TEMPO 0809/0813 4000 -SNRA \n  TEMPO 0818/0901 3000 RA \n  BECMG 0820/0823 21015G25KT \n  TEMPO 0901/0904 23020G35KT SHRA BKN015CB",
      "metarHtml": "METAR EDSB 081050Z 21010KT 9000 -<span class=\"hl\">RA</span> FEW015 BKN031 OVC038 02/00 Q1009",
      "tafHtml": "TAF EDSB 080500Z 0806/0906 20010KT 9999 BKN025 \n  TEMPO 0809/0813 4000 -SNRA \n  TEMPO 0818/0901 3000 <span class=\"hl\">RA</span> \n  BECMG 0820/0823 21015G25KT \n  TEMPO 0901/0904 23020G35KT <span class=\"hl\">SHRA</span> BKN015CB"
    },
    {
      "icao": "LEBB",
      "iata": "BIO",
      "name": "Bilbao Airport",
      "updatedAt": "081100Z",
      "visibility_m": 10000,
      "taf_visibility_m": 3000,
      "worst_visibility_m": 3000,
      "ceiling_ft": null,
      "hazards": [
        "RA",
        "SHRA"
      ],
      "severityScore": 26,
      "metarRaw": "METAR LEBB 081100Z 24003KT 150V300 9999 FEW050 13/05 Q1023 NOSIG",
      "tafRaw": "TAF LEBB 080500Z 0806/0906 22009KT 9999 FEW030 SCT050 TX14/0814Z TN07/0906Z \n  PROB40 \n  TEMPO 0806/0812 22015G25KT \n  TEMPO 0812/0824 22020G33KT \n  PROB40 \n  TEMPO 0822/0902 28012KT 3000 RA \n  PROB30 \n  TEMPO 0822/0906 28010KT 3000 SHRA SCT030TCU",
      "metarHtml": "METAR LEBB 081100Z 24003KT 150V300 9999 FEW050 13/05 Q1023 NOSIG",
      "tafHtml": "TAF LEBB 080500Z 0806/0906 22009KT 9999 FEW030 SCT050 TX14/0814Z TN07/0906Z \n  PROB40 \n  TEMPO 0806/0812 22015G25KT \n  TEMPO 0812/0824 22020G33KT \n  PROB40 \n  TEMPO 0822/0902 28012KT 3000 <span class=\"hl\">RA</span> \n  PROB30 \n  TEMPO 0822/0906 28010KT 3000 <span class=\"hl\">SHRA</span> SCT030TCU"
    },
    {
      "icao": "LLBG",
      "iata": "TLV",
      "name": "Ben Gurion International Airport",
      "updatedAt": "081050Z",
      "visibility_m": 10000,
      "taf_visibility_m": 5000,
      "worst_visibility_m": 5000,
      "ceiling_ft": null,
      "hazards": [
        "TSRA"
      ],
      "severityScore": 25,
      "metarRaw": "METAR LLBG 081050Z 19013KT CAVOK 27/07 Q1015 NOSIG",
      "tafRaw": "TAF LLBG 080503Z 0806/0906 VRB03KT CAVOK \n  TEMPO 0806/0809 15005KT \n  TEMPO 0809/0816 25006KT \n  BECMG 0820/0822 16006KT \n  BECMG 0823/0901 20010KT 9999 SCT030 \n  PROB40 \n  TEMPO 0901/0906 27018G28KT 5000 TSRA FEW020CB BKN025 TX26/0812Z TN14/0904Z",
      "metarHtml": "METAR LLBG 081050Z 19013KT <span class=\"hl-vis\">CAVOK</span> 27/07 Q1015 NOSIG",
      "tafHtml": "TAF LLBG 080503Z 0806/0906 VRB03KT <span class=\"hl-vis\">CAVOK</span> \n  TEMPO 0806/0809 15005KT \n  TEMPO 0809/0816 25006KT \n  BECMG 0820/0822 16006KT \n  BECMG 0823/0901 20010KT 9999 SCT030 \n  PROB40 \n  TEMPO 0901/0906 27018G28KT 5000 <span class=\"hl\">TSRA</span> FEW020CB BKN025 TX26/0812Z TN14/0904Z"
    },
    {
      "icao": "LRBC",
      "iata": "BCM",
      "name": "Bacău George Enescu International  Airport",
      "updatedAt": "081100Z",
      "visibility_m": 10000,
      "taf_visibility_m": null,
      "worst_visibility_m": 10000,
      "ceiling_ft": 3300,
      "hazards": [
        "SN"
      ],
      "severityScore": 23,
      "metarRaw": "METAR LRBC 081100Z 35012KT 9999 -SN OVC033 M01/M05 Q0997",
      "tafRaw": null,
      "metarHtml": "METAR LRBC 081100Z 35012KT 9999 -<span class=\"hl\">SN</span> OVC033 M01/M05 Q0997",
      "tafHtml": null
    },
    {
      "icao": "EDDK",
      "iata": "CGN",
      "name": "Cologne Bonn Airport",
      "updatedAt": "081050Z",
      "visibility_m": 10000,
      "taf_visibility_m": 4000,
      "worst_visibility_m": 4000,
      "ceiling_ft": 2200,
      "hazards": [
        "BR",
        "RA"
      ],
      "severityScore": 22,
      "metarRaw": "METAR EDDK 081050Z AUTO 14007KT 9999 OVC022 02/M01 Q1007 NOSIG",
      "tafRaw": "TAF EDDK 080500Z 0806/0912 19008KT 9999 OVC040 \n  BECMG 0810/0813 13006KT \n  BECMG 0819/0822 13013KT RA \n  TEMPO 0819/0904 4000 -RA BR BKN012 \n  BECMG 0900/0903 NSW \n  BECMG 0902/0905 19015G25KT \n  TEMPO 0905/0912 19020G30KT RA",
      "metarHtml": "METAR EDDK 081050Z AUTO 14007KT 9999 OVC022 02/M01 Q1007 NOSIG",
      "tafHtml": "TAF EDDK 080500Z 0806/0912 19008KT 9999 OVC040 \n  BECMG 0810/0813 13006KT \n  BECMG 0819/0822 13013KT <span class=\"hl\">RA</span> \n  TEMPO 0819/0904 4000 -<span class=\"hl\">RA</span> <span class=\"hl\">BR</span> BKN012 \n  BECMG 0900/0903 NSW \n  BECMG 0902/0905 19015G25KT \n  TEMPO 0905/0912 19020G30KT <span class=\"hl\">RA</span>"
    },
    {
      "icao": "EPWR",
      "iata": "WRO",
      "name": "Copernicus Wrocław Airport",
      "updatedAt": "081100Z",
      "visibility_m": 7000,
      "taf_visibility_m": 3000,
      "worst_visibility_m": 3000,
      "ceiling_ft": 1800,
      "hazards": [
        "BR"
      ],
      "severityScore": 22,
      "metarRaw": "METAR EPWR 081100Z VRB01KT 7000 BKN018 M06/M08 Q1011",
      "tafRaw": "TAF EPWR 080830Z 0809/0909 12003KT 4000 BR BKN020 \n  BECMG 0809/0811 9999 \n  TEMPO 0820/0903 3000 BR \n  BECMG 0903/0906 10010KT \n  PROB40 0903/0907 4000 BR BKN008",
      "metarHtml": "METAR EPWR 081100Z VRB01KT 7000 BKN018 M06/M08 Q1011",
      "tafHtml": "TAF EPWR 080830Z 0809/0909 12003KT 4000 <span class=\"hl\">BR</span> BKN020 \n  BECMG 0809/0811 9999 \n  TEMPO 0820/0903 3000 <span class=\"hl\">BR</span> \n  BECMG 0903/0906 10010KT \n  PROB40 0903/0907 4000 <span class=\"hl\">BR</span> BKN008"
    },
    {
      "icao": "LHBP",
      "iata": "BUD",
      "name": "Budapest Liszt Ferenc International Airport",
      "updatedAt": "081100Z",
      "visibility_m": 10000,
      "taf_visibility_m": 4500,
      "worst_visibility_m": 4500,
      "ceiling_ft": null,
      "hazards": [
        "BLSN"
      ],
      "severityScore": 22,
      "metarRaw": "METAR LHBP 081100Z 31015G25KT 9999 DRSN FEW020 M04/M08 Q1007 NOSIG",
      "tafRaw": "TAF LHBP 080515Z 0806/0906 30013KT CAVOK \n  TEMPO 0806/0817 30016G27KT DRSN FEW020 \n  PROB30 \n  TEMPO 0811/0816 4500 BLSN \n  BECMG 0818/0821 30008KT \n  BECMG 0822/0901 VRB02KT",
      "metarHtml": "METAR LHBP 081100Z 31015G25KT 9999 DRSN FEW020 M04/M08 Q1007 NOSIG",
      "tafHtml": "TAF LHBP 080515Z 0806/0906 30013KT <span class=\"hl-vis\">CAVOK</span> \n  TEMPO 0806/0817 30016G27KT DRSN FEW020 \n  PROB30 \n  TEMPO 0811/0816 4500 <span class=\"hl\">BLSN</span> \n  BECMG 0818/0821 30008KT \n  BECMG 0822/0901 VRB02KT"
    },
    {
      "icao": "LPPT",
      "iata": "LIS",
      "name": "Lisbon Humberto Delgado Airport",
      "updatedAt": "081100Z",
      "visibility_m": 10000,
      "taf_visibility_m": 3000,
      "worst_visibility_m": 3000,
      "ceiling_ft": 2500,
      "hazards": [
        "BR",
        "RA"
      ],
      "severityScore": 22,
      "metarRaw": "METAR LPPT 081100Z COR 22005KT 180V250 9999 VCSH FEW012 BKN025 12/10 Q1033",
      "tafRaw": "TAF LPPT 081100Z 0812/0918 25005KT 9999 SCT015 BKN025 \n  PROB30 \n  TEMPO 0812/0818 5000 -RA SCT006 BKN012 \n  TEMPO 0818/0907 3000 RADZ BR SCT003 BKN006 \n  BECMG 0907/0909 32010KT SCT020",
      "metarHtml": "METAR LPPT 081100Z COR 22005KT 180V250 9999 VCSH FEW012 BKN025 12/10 Q1033",
      "tafHtml": "TAF LPPT 081100Z 0812/0918 25005KT 9999 SCT015 BKN025 \n  PROB30 \n  TEMPO 0812/0818 5000 -<span class=\"hl\">RA</span> SCT006 BKN012 \n  TEMPO 0818/0907 3000 RADZ <span class=\"hl\">BR</span> SCT003 BKN006 \n  BECMG 0907/0909 32010KT SCT020"
    },
    {
      "icao": "ENAL",
      "iata": "AES",
      "name": "Ålesund Airport, Vigra",
      "updatedAt": "081050Z",
      "visibility_m": 10000,
      "taf_visibility_m": 1200,
      "worst_visibility_m": 1200,
      "ceiling_ft": 4200,
      "hazards": [
        "SHSN"
      ],
      "severityScore": 20,
      "metarRaw": "METAR ENAL 081050Z 15009KT 9999 FEW024 BKN042 M03/M08 Q1003",
      "tafRaw": "TAF ENAL 080800Z 0809/0818 16008KT 9999 SCT040 \n  PROB40 \n  TEMPO 0813/0818 19018KT 1200 SHSN BKN008 SCT020CB",
      "metarHtml": "METAR ENAL 081050Z 15009KT 9999 FEW024 BKN042 M03/M08 Q1003",
      "tafHtml": "TAF ENAL 080800Z 0809/0818 16008KT 9999 SCT040 \n  PROB40 \n  TEMPO 0813/0818 19018KT 1200 <span class=\"hl\">SHSN</span> BKN008 SCT020CB"
    },
    {
      "icao": "UDSG",
      "iata": "LWN",
      "name": "Shirak International Airport",
      "updatedAt": "081100Z",
      "visibility_m": 6000,
      "taf_visibility_m": 1000,
      "worst_visibility_m": 1000,
      "ceiling_ft": null,
      "hazards": [
        "BR"
      ],
      "severityScore": 20,
      "metarRaw": "METAR UDSG 081100Z 13003KT 6000 FEW049 M03/M09 Q1022 NOSIG",
      "tafRaw": "TAF UDSG 080500Z 0806/0906 VRB06KT 5000 BR FEW040 \n  TEMPO 0806/0818 1000 BR SCT030",
      "metarHtml": "METAR UDSG 081100Z 13003KT 6000 FEW049 M03/M09 Q1022 NOSIG",
      "tafHtml": "TAF UDSG 080500Z 0806/0906 VRB06KT 5000 <span class=\"hl\">BR</span> FEW040 \n  TEMPO 0806/0818 1000 <span class=\"hl\">BR</span> SCT030"
    },
    {
      "icao": "EDDB",
      "iata": "BER",
      "name": "Berlin Brandenburg Airport",
      "updatedAt": "081050Z",
      "visibility_m": 10000,
      "taf_visibility_m": 4000,
      "worst_visibility_m": 4000,
      "ceiling_ft": 2400,
      "hazards": [
        "SN"
      ],
      "severityScore": 18,
      "metarRaw": "METAR EDDB 081050Z AUTO 13007KT 9999 BKN024 M06/M10 Q1009 NOSIG",
      "tafRaw": "TAF EDDB 080500Z 0806/0906 12007KT 9000 BKN035 \n  PROB30 \n  TEMPO 0812/0817 4500 -SN BKN009 \n  PROB30 \n  TEMPO 0818/0906 4000 -SG BKN004",
      "metarHtml": "METAR EDDB 081050Z AUTO 13007KT 9999 BKN024 M06/M10 Q1009 NOSIG",
      "tafHtml": "TAF EDDB 080500Z 0806/0906 12007KT 9000 BKN035 \n  PROB30 \n  TEMPO 0812/0817 4500 -<span class=\"hl\">SN</span> BKN009 \n  PROB30 \n  TEMPO 0818/0906 4000 -SG BKN004"
    },
    {
      "icao": "ENVA",
      "iata": "TRD",
      "name": "Trondheim Airport, Værnes",
      "updatedAt": "081050Z",
      "visibility_m": 10000,
      "taf_visibility_m": 4000,
      "worst_visibility_m": 4000,
      "ceiling_ft": null,
      "hazards": [
        "SN"
      ],
      "severityScore": 18,
      "metarRaw": "METAR ENVA 081050Z 07012KT CAVOK M06/M11 Q1004 NOSIG RMK WIND 670FT 08018KT",
      "tafRaw": "TAF ENVA 080500Z 0806/0906 07012KT 9999 -SN SCT050 \n  PROB30 0822/0901 4000 -SN VV014 \n  BECMG 0822/0824 15012KT",
      "metarHtml": "METAR ENVA 081050Z 07012KT <span class=\"hl-vis\">CAVOK</span> M06/M11 Q1004 NOSIG RMK WIND 670FT 08018KT",
      "tafHtml": "TAF ENVA 080500Z 0806/0906 07012KT 9999 -<span class=\"hl\">SN</span> SCT050 \n  PROB30 0822/0901 4000 -<span class=\"hl\">SN</span> VV014 \n  BECMG 0822/0824 15012KT"
    },
    {
      "icao": "LKPR",
      "iata": "PRG",
      "name": "Václav Havel Airport Prague",
      "updatedAt": "081100Z",
      "visibility_m": 10000,
      "taf_visibility_m": 2000,
      "worst_visibility_m": 2000,
      "ceiling_ft": 2800,
      "hazards": [
        "SN"
      ],
      "severityScore": 18,
      "metarRaw": "METAR LKPR 081100Z 23008KT 9999 -SN FEW013 OVC028 M04/M07 Q1009 NOSIG",
      "tafRaw": "TAF LKPR 081100Z 0812/0918 20006KT 9999 OVC025 \n  TEMPO 0812/0820 BKN018 \n  PROB30 \n  TEMPO 0812/0817 6000 -SN BKN009 \n  BECMG 0821/0823 12007KT \n  BECMG 0904/0906 BKN012 \n  TEMPO 0906/0911 4000 SN OVC006 \n  PROB30 \n  TEMPO 0906/0909 2000 SN OVC003",
      "metarHtml": "METAR LKPR 081100Z 23008KT 9999 -<span class=\"hl\">SN</span> FEW013 OVC028 M04/M07 Q1009 NOSIG",
      "tafHtml": "TAF LKPR 081100Z 0812/0918 20006KT 9999 OVC025 \n  TEMPO 0812/0820 BKN018 \n  PROB30 \n  TEMPO 0812/0817 6000 -<span class=\"hl\">SN</span> BKN009 \n  BECMG 0821/0823 12007KT \n  BECMG 0904/0906 BKN012 \n  TEMPO 0906/0911 4000 <span class=\"hl\">SN</span> OVC006 \n  PROB30 \n  TEMPO 0906/0909 2000 <span class=\"hl\">SN</span> OVC003"
    },
    {
      "icao": "LRSB",
      "iata": "SBZ",
      "name": "Sibiu International Airport",
      "updatedAt": "081100Z",
      "visibility_m": 10000,
      "taf_visibility_m": 5000,
      "worst_visibility_m": 5000,
      "ceiling_ft": 3600,
      "hazards": [
        "SN"
      ],
      "severityScore": 18,
      "metarRaw": "METAR LRSB 081100Z 32014KT 9999 -SN BKN036 M03/M06 Q1000",
      "tafRaw": "TAF LRSB 080500Z 0806/0906 33014KT 9999 SCT035 \n  TEMPO 0806/0809 5000 -SN BKN015",
      "metarHtml": "METAR LRSB 081100Z 32014KT 9999 -<span class=\"hl\">SN</span> BKN036 M03/M06 Q1000",
      "tafHtml": "TAF LRSB 080500Z 0806/0906 33014KT 9999 SCT035 \n  TEMPO 0806/0809 5000 -<span class=\"hl\">SN</span> BKN015"
    },
    {
      "icao": "LRSV",
      "iata": "SCV",
      "name": "Suceava Stefan cel Mare Airport",
      "updatedAt": "081100Z",
      "visibility_m": 10000,
      "taf_visibility_m": 5000,
      "worst_visibility_m": 5000,
      "ceiling_ft": 4000,
      "hazards": [
        "SN"
      ],
      "severityScore": 18,
      "metarRaw": "METAR LRSV 081100Z 32015KT 9999 DRSN FEW014 BKN040 M04/M07 Q0996",
      "tafRaw": "TAF LRSV 080800Z 0809/0818 32016KT 9999 DRSN SCT030 \n  TEMPO 0809/0818 32018G28KT \n  PROB40 \n  TEMPO 0812/0816 5000 -SN BKN010 OVC030",
      "metarHtml": "METAR LRSV 081100Z 32015KT 9999 DRSN FEW014 BKN040 M04/M07 Q0996",
      "tafHtml": "TAF LRSV 080800Z 0809/0818 32016KT 9999 DRSN SCT030 \n  TEMPO 0809/0818 32018G28KT \n  PROB40 \n  TEMPO 0812/0816 5000 -<span class=\"hl\">SN</span> BKN010 OVC030"
    },
    {
      "icao": "LWSK",
      "iata": "SKP",
      "name": "Skopje International Airport",
      "updatedAt": "081050Z",
      "visibility_m": 10000,
      "taf_visibility_m": 3000,
      "worst_visibility_m": 3000,
      "ceiling_ft": 2600,
      "hazards": [
        "SN"
      ],
      "severityScore": 18,
      "metarRaw": "METAR LWSK 081050Z COR 36010KT 9999 FEW015 BKN026 BKN050 01/M05 Q1007 NOSIG",
      "tafRaw": "TAF LWSK 080840Z 0809/0909 36012KT 9999 SCT020 OVC035 \n  TEMPO 0809/0811 3000 -SN SCT005 BKN015 OVC030 \n  TEMPO 0809/0816 03015G25KT \n  BECMG 0812/0814 SCT030 BKN060",
      "metarHtml": "METAR LWSK 081050Z COR 36010KT 9999 FEW015 BKN026 BKN050 01/M05 Q1007 NOSIG",
      "tafHtml": "TAF LWSK 080840Z 0809/0909 36012KT 9999 SCT020 OVC035 \n  TEMPO 0809/0811 3000 -<span class=\"hl\">SN</span> SCT005 BKN015 OVC030 \n  TEMPO 0809/0816 03015G25KT \n  BECMG 0812/0814 SCT030 BKN060"
    },
    {
      "icao": "LYBE",
      "iata": "BEG",
      "name": "Belgrade Nikola Tesla Airport",
      "updatedAt": "081100Z",
      "visibility_m": 10000,
      "taf_visibility_m": 4000,
      "worst_visibility_m": 4000,
      "ceiling_ft": null,
      "hazards": [
        "SN"
      ],
      "severityScore": 18,
      "metarRaw": "METAR LYBE 081100Z 28016KT CAVOK M05/M08 Q1011 NOSIG",
      "tafRaw": "TAF LYBE 080500Z 0806/0906 28010KT 4000 -SN BKN007 BKN030 TXM04/0813Z TNM12/0905Z \n  BECMG 0808/0810 9999 NSW SCT013 \n  TEMPO 0809/0813 28020KT \n  BECMG 0818/0820 22005KT",
      "metarHtml": "METAR LYBE 081100Z 28016KT <span class=\"hl-vis\">CAVOK</span> M05/M08 Q1011 NOSIG",
      "tafHtml": "TAF LYBE 080500Z 0806/0906 28010KT 4000 -<span class=\"hl\">SN</span> BKN007 BKN030 TXM04/0813Z TNM12/0905Z \n  BECMG 0808/0810 9999 NSW SCT013 \n  TEMPO 0809/0813 28020KT \n  BECMG 0818/0820 22005KT"
    },
    {
      "icao": "LYNI",
      "iata": "INI",
      "name": "Niš Constantine the Great Airport",
      "updatedAt": "081100Z",
      "visibility_m": 10000,
      "taf_visibility_m": 5000,
      "worst_visibility_m": 5000,
      "ceiling_ft": 2700,
      "hazards": [
        "SN"
      ],
      "severityScore": 18,
      "metarRaw": "METAR LYNI 081100Z 30010KT 9999 -SN SCT010 BKN027 OVC073 M02/M05 Q1009 NOSIG",
      "tafRaw": "TAF LYNI 080500Z 0806/0906 32010KT 9999 BKN017 BKN027 BKN070 TXM02/0813Z TNM10/0906Z \n  TEMPO 0806/0810 5000 -SN BKN010 BKN023 OVC065 \n  TEMPO 0810/0814 32015G25KT \n  BECMG 0816/0818 18004KT",
      "metarHtml": "METAR LYNI 081100Z 30010KT 9999 -<span class=\"hl\">SN</span> SCT010 BKN027 OVC073 M02/M05 Q1009 NOSIG",
      "tafHtml": "TAF LYNI 080500Z 0806/0906 32010KT 9999 BKN017 BKN027 BKN070 TXM02/0813Z TNM10/0906Z \n  TEMPO 0806/0810 5000 -<span class=\"hl\">SN</span> BKN010 BKN023 OVC065 \n  TEMPO 0810/0814 32015G25KT \n  BECMG 0816/0818 18004KT"
    },
    {
      "icao": "LKMT",
      "iata": "OSR",
      "name": "Ostrava Leos Janáček Airport",
      "updatedAt": "081100Z",
      "visibility_m": 8000,
      "taf_visibility_m": null,
      "worst_visibility_m": 8000,
      "ceiling_ft": 1400,
      "hazards": [],
      "severityScore": 17,
      "metarRaw": "METAR LKMT 081100Z 02005KT 8000 OVC014 M05/M08 Q1010 NOSIG",
      "tafRaw": null,
      "metarHtml": "METAR LKMT 081100Z 02005KT 8000 OVC014 M05/M08 Q1010 NOSIG",
      "tafHtml": null
    },
    {
      "icao": "EPGD",
      "iata": "GDN",
      "name": "Gdańsk Lech Wałęsa Airport",
      "updatedAt": "081100Z",
      "visibility_m": 5000,
      "taf_visibility_m": null,
      "worst_visibility_m": 5000,
      "ceiling_ft": null,
      "hazards": [
        "BR"
      ],
      "severityScore": 15,
      "metarRaw": "METAR EPGD 081100Z 29001KT 5000 BR FEW005 M09/M10 Q1012",
      "tafRaw": null,
      "metarHtml": "METAR EPGD 081100Z 29001KT 5000 <span class=\"hl\">BR</span> FEW005 M09/M10 Q1012",
      "tafHtml": null
    },
    {
      "icao": "EPMO",
      "iata": "WMI",
      "name": "Modlin Airport",
      "updatedAt": "081100Z",
      "visibility_m": 2500,
      "taf_visibility_m": null,
      "worst_visibility_m": 2500,
      "ceiling_ft": null,
      "hazards": [
        "BR"
      ],
      "severityScore": 15,
      "metarRaw": "METAR EPMO 081100Z 36003KT 2500 BR NSC M09/M09 Q1010",
      "tafRaw": null,
      "metarHtml": "METAR EPMO 081100Z 36003KT 2500 <span class=\"hl\">BR</span> NSC M09/M09 Q1010",
      "tafHtml": null
    },
    {
      "icao": "UDYZ",
      "iata": "EVN",
      "name": "Zvartnots International Airport",
      "updatedAt": "081100Z",
      "visibility_m": 3200,
      "taf_visibility_m": null,
      "worst_visibility_m": 3200,
      "ceiling_ft": null,
      "hazards": [
        "BR"
      ],
      "severityScore": 15,
      "metarRaw": "METAR UDYZ 081100Z 00000KT 3200 BR NSC 00/M08 Q1024 NOSIG",
      "tafRaw": null,
      "metarHtml": "METAR UDYZ 081100Z 00000KT 3200 <span class=\"hl\">BR</span> NSC 00/M08 Q1024 NOSIG",
      "tafHtml": null
    },
    {
      "icao": "LCLK",
      "iata": "LCA",
      "name": "Larnaca International Airport",
      "updatedAt": "081100Z",
      "visibility_m": 6000,
      "taf_visibility_m": 5000,
      "worst_visibility_m": 5000,
      "ceiling_ft": null,
      "hazards": [
        "SHRA"
      ],
      "severityScore": 14,
      "metarRaw": "METAR LCLK 081100Z 07010KT 6000 NSC 20/16 Q1015 NOSIG",
      "tafRaw": "TAF LCLK 080530Z 0806/0906 10006KT 9999 FEW025 \n  BECMG 0813/0815 20010KT \n  BECMG 0820/0823 24020KT \n  PROB40 \n  TEMPO 0820/0903 VRB15G25KT 5000 SHRA SCT020TCU",
      "metarHtml": "METAR LCLK 081100Z 07010KT 6000 NSC 20/16 Q1015 NOSIG",
      "tafHtml": "TAF LCLK 080530Z 0806/0906 10006KT 9999 FEW025 \n  BECMG 0813/0815 20010KT \n  BECMG 0820/0823 24020KT \n  PROB40 \n  TEMPO 0820/0903 VRB15G25KT 5000 <span class=\"hl\">SHRA</span> SCT020TCU"
    },
    {
      "icao": "LMML",
      "iata": "MLA",
      "name": "Malta International Airport",
      "updatedAt": "081115Z",
      "visibility_m": 7000,
      "taf_visibility_m": 8000,
      "worst_visibility_m": 7000,
      "ceiling_ft": null,
      "hazards": [
        "SHRA"
      ],
      "severityScore": 14,
      "metarRaw": "METAR LMML 081115Z 26022G36KT 9999 SCT028TCU 13/08 Q1020 TEMPO 7000 SHRA",
      "tafRaw": "TAF LMML 080500Z 0806/0906 29025G35KT 9999 SCT025 \n  PROB40 \n  TEMPO 0806/0906 8000 SHRA BKN020TCU",
      "metarHtml": "METAR LMML 081115Z 26022G36KT 9999 SCT028TCU 13/08 Q1020 TEMPO 7000 <span class=\"hl\">SHRA</span>",
      "tafHtml": "TAF LMML 080500Z 0806/0906 29025G35KT 9999 SCT025 \n  PROB40 \n  TEMPO 0806/0906 8000 <span class=\"hl\">SHRA</span> BKN020TCU"
    },
    {
      "icao": "UGKO",
      "iata": "KUT",
      "name": "David the Builder Kutaisi International Airport",
      "updatedAt": "081100Z",
      "visibility_m": 10000,
      "taf_visibility_m": 3000,
      "worst_visibility_m": 3000,
      "ceiling_ft": null,
      "hazards": [
        "SHRA"
      ],
      "severityScore": 14,
      "metarRaw": "METAR UGKO 081100Z 10011KT CAVOK 18/03 Q1012 NOSIG",
      "tafRaw": "TAF UGKO 081100Z 0812/0912 09015KT 9999 SCT022 BKN050 TX18/0812Z TN09/0903Z \n  TEMPO 0812/0816 CAVOK \n  TEMPO 0820/0904 08025G39KT 4000 SHRA BKN017CB OVC040 \n  TEMPO 0908/0912 26010KT 3000 SHRA BKN015CB OVC030",
      "metarHtml": "METAR UGKO 081100Z 10011KT <span class=\"hl-vis\">CAVOK</span> 18/03 Q1012 NOSIG",
      "tafHtml": "TAF UGKO 081100Z 0812/0912 09015KT 9999 SCT022 BKN050 TX18/0812Z TN09/0903Z \n  TEMPO 0812/0816 <span class=\"hl-vis\">CAVOK</span> \n  TEMPO 0820/0904 08025G39KT 4000 <span class=\"hl\">SHRA</span> BKN017CB OVC040 \n  TEMPO 0908/0912 26010KT 3000 <span class=\"hl\">SHRA</span> BKN015CB OVC030"
    },
    {
      "icao": "EDLW",
      "iata": "DTM",
      "name": "Dortmund Airport",
      "updatedAt": "081050Z",
      "visibility_m": 10000,
      "taf_visibility_m": 4000,
      "worst_visibility_m": 4000,
      "ceiling_ft": 4000,
      "hazards": [
        "RA"
      ],
      "severityScore": 12,
      "metarRaw": "METAR EDLW 081050Z 18012KT 9999 FEW018 OVC040 02/M01 Q1006",
      "tafRaw": "TAF EDLW 080500Z 0806/0906 19011KT 9999 FEW015 OVC040 \n  PROB30 \n  TEMPO 0806/0810 BKN012 \n  BECMG 0814/0817 15006KT \n  TEMPO 0819/0904 4000 RA BKN012 \n  BECMG 0822/0901 16012KT",
      "metarHtml": "METAR EDLW 081050Z 18012KT 9999 FEW018 OVC040 02/M01 Q1006",
      "tafHtml": "TAF EDLW 080500Z 0806/0906 19011KT 9999 FEW015 OVC040 \n  PROB30 \n  TEMPO 0806/0810 BKN012 \n  BECMG 0814/0817 15006KT \n  TEMPO 0819/0904 4000 <span class=\"hl\">RA</span> BKN012 \n  BECMG 0822/0901 16012KT"
    },
    {
      "icao": "EGPF",
      "iata": "GLA",
      "name": "Glasgow Airport",
      "updatedAt": "081050Z",
      "visibility_m": 10000,
      "taf_visibility_m": 6000,
      "worst_visibility_m": 6000,
      "ceiling_ft": 1400,
      "hazards": [],
      "severityScore": 12,
      "metarRaw": "METAR EGPF 081050Z VRB01KT 9999 OVC014 00/M01 Q1000",
      "tafRaw": "TAF EGPF 081102Z 0812/0912 VRB03KT 9999 SCT025 \n  TEMPO 0812/0821 BKN014 \n  PROB30 \n  TEMPO 0812/0911 6000",
      "metarHtml": "METAR EGPF 081050Z VRB01KT 9999 OVC014 00/M01 Q1000",
      "tafHtml": "TAF EGPF 081102Z 0812/0912 VRB03KT 9999 SCT025 \n  TEMPO 0812/0821 BKN014 \n  PROB30 \n  TEMPO 0812/0911 6000"
    },
    {
      "icao": "EHBK",
      "iata": "MST",
      "name": "Maastricht Aachen Airport",
      "updatedAt": "081055Z",
      "visibility_m": 10000,
      "taf_visibility_m": 4000,
      "worst_visibility_m": 4000,
      "ceiling_ft": null,
      "hazards": [
        "RA"
      ],
      "severityScore": 12,
      "metarRaw": "METAR EHBK 081055Z AUTO 20009KT 9999 OVC012/// 02/01 Q1006 BECMG SCT012",
      "tafRaw": "TAF EHBK 080520Z 0806/0912 20008KT CAVOK \n  PROB40 \n  TEMPO 0812/0818 SCT008 BKN012 \n  BECMG 0816/0819 6000 RA \n  PROB40 \n  TEMPO 0817/0901 4000 BKN008 \n  BECMG 0821/0824 18015G25KT \n  BECMG 0900/0903 20018G30KT 9999 NSW \n  TEMPO 0904/0912 6000 RA BKN012",
      "metarHtml": "METAR EHBK 081055Z AUTO 20009KT 9999 OVC012/// 02/01 Q1006 BECMG SCT012",
      "tafHtml": "TAF EHBK 080520Z 0806/0912 20008KT <span class=\"hl-vis\">CAVOK</span> \n  PROB40 \n  TEMPO 0812/0818 SCT008 BKN012 \n  BECMG 0816/0819 6000 <span class=\"hl\">RA</span> \n  PROB40 \n  TEMPO 0817/0901 4000 BKN008 \n  BECMG 0821/0824 18015G25KT \n  BECMG 0900/0903 20018G30KT 9999 NSW \n  TEMPO 0904/0912 6000 <span class=\"hl\">RA</span> BKN012"
    },
    {
      "icao": "ESMS",
      "iata": "MMX",
      "name": "Malmö Sturup Airport",
      "updatedAt": "081050Z",
      "visibility_m": 10000,
      "taf_visibility_m": 10000,
      "worst_visibility_m": 10000,
      "ceiling_ft": 1900,
      "hazards": [],
      "severityScore": 12,
      "metarRaw": "METAR ESMS 081050Z 14012KT 9999 BKN019 M02/M06 Q1009",
      "tafRaw": "TAF ESMS 080827Z 0809/0909 16010KT 9999 SCT015 \n  BECMG 0821/0824 10010KT",
      "metarHtml": "METAR ESMS 081050Z 14012KT 9999 BKN019 M02/M06 Q1009",
      "tafHtml": "TAF ESMS 080827Z 0809/0909 16010KT 9999 SCT015 \n  BECMG 0821/0824 10010KT"
    },
    {
      "icao": "HESX",
      "iata": "SPX",
      "name": "Sphinx International Airport",
      "updatedAt": "081000Z",
      "visibility_m": 10000,
      "taf_visibility_m": 4000,
      "worst_visibility_m": 4000,
      "ceiling_ft": null,
      "hazards": [
        "RA"
      ],
      "severityScore": 12,
      "metarRaw": "METAR HESX 081000Z 20010KT CAVOK 23/03 Q1017 NOSIG",
      "tafRaw": "TAF HESX 081100Z 0812/0918 21010KT 9999 SCT025 \n  TEMPO 0812/0818 24012G22KT 4000 SA \n  TEMPO 0900/0908 6000 RA BKN020",
      "metarHtml": "METAR HESX 081000Z 20010KT <span class=\"hl-vis\">CAVOK</span> 23/03 Q1017 NOSIG",
      "tafHtml": "TAF HESX 081100Z 0812/0918 21010KT 9999 SCT025 \n  TEMPO 0812/0818 24012G22KT 4000 SA \n  TEMPO 0900/0908 6000 <span class=\"hl\">RA</span> BKN020"
    },
    {
      "icao": "LATI",
      "iata": "TIA",
      "name": "Tirana International Airport Mother Teresa",
      "updatedAt": null,
      "visibility_m": null,
      "taf_visibility_m": 10000,
      "worst_visibility_m": 10000,
      "ceiling_ft": null,
      "hazards": [
        "RA"
      ],
      "severityScore": 12,
      "metarRaw": null,
      "tafRaw": "TAF LATI 081100Z 0812/0912 29013KT 9999 -RA FEW030TCU BKN070 TX09/0912Z TN01/0905Z \n  BECMG 0815/0817 VRB03KT CAVOK \n  BECMG 0908/0910 15010KT",
      "metarHtml": null,
      "tafHtml": "TAF LATI 081100Z 0812/0912 29013KT 9999 -<span class=\"hl\">RA</span> FEW030TCU BKN070 TX09/0912Z TN01/0905Z \n  BECMG 0815/0817 VRB03KT <span class=\"hl-vis\">CAVOK</span> \n  BECMG 0908/0910 15010KT"
    },
    {
      "icao": "LBPD",
      "iata": "PDV",
      "name": "Plovdiv International Airport",
      "updatedAt": "081100Z",
      "visibility_m": 5000,
      "taf_visibility_m": 10000,
      "worst_visibility_m": 5000,
      "ceiling_ft": null,
      "hazards": [
        "RA"
      ],
      "severityScore": 12,
      "metarRaw": "METAR LBPD 081100Z AUTO 28025KT 9999 BKN084/// 04/M01 Q0999 TEMPO 5000 RA",
      "tafRaw": "TAF LBPD 081100Z 0812/0912 29024G36KT 9999 BKN040 \n  BECMG 0908/0910 29014KT SCT060",
      "metarHtml": "METAR LBPD 081100Z AUTO 28025KT 9999 BKN084/// 04/M01 Q0999 TEMPO 5000 <span class=\"hl\">RA</span>",
      "tafHtml": "TAF LBPD 081100Z 0812/0912 29024G36KT 9999 BKN040 \n  BECMG 0908/0910 29014KT SCT060"
    },
    {
      "icao": "LPPS",
      "iata": "PXO",
      "name": "Porto Santo Airport",
      "updatedAt": "081100Z",
      "visibility_m": 10000,
      "taf_visibility_m": 5000,
      "worst_visibility_m": 5000,
      "ceiling_ft": null,
      "hazards": [
        "RA"
      ],
      "severityScore": 12,
      "metarRaw": "METAR LPPS 081100Z 02007KT 9999 SCT014 17/13 Q1035",
      "tafRaw": "TAF LPPS 081100Z 0812/0918 03010KT 9999 SCT015 \n  TEMPO 0812/0918 FEW015 BKN030 \n  PROB30 \n  TEMPO 0812/0910 5000 -RA SCT006 BKN012",
      "metarHtml": "METAR LPPS 081100Z 02007KT 9999 SCT014 17/13 Q1035",
      "tafHtml": "TAF LPPS 081100Z 0812/0918 03010KT 9999 SCT015 \n  TEMPO 0812/0918 FEW015 BKN030 \n  PROB30 \n  TEMPO 0812/0910 5000 -<span class=\"hl\">RA</span> SCT006 BKN012"
    },
    {
      "icao": "BIKF",
      "iata": "KEF",
      "name": "Keflavik International Airport",
      "updatedAt": "081100Z",
      "visibility_m": 10000,
      "taf_visibility_m": 10000,
      "worst_visibility_m": 10000,
      "ceiling_ft": null,
      "hazards": [
        "SHSN"
      ],
      "severityScore": 10,
      "metarRaw": "METAR BIKF 081100Z 08020KT CAVOK 01/M07 Q1000",
      "tafRaw": "TAF BIKF 081044Z 0812/0912 07022KT 9999 FEW045 TX02/0814Z TNM05/0907Z \n  PROB40 \n  TEMPO 0812/0815 SHSN BKN014 \n  BECMG 0820/0822 03012KT",
      "metarHtml": "METAR BIKF 081100Z 08020KT <span class=\"hl-vis\">CAVOK</span> 01/M07 Q1000",
      "tafHtml": "TAF BIKF 081044Z 0812/0912 07022KT 9999 FEW045 TX02/0814Z TNM05/0907Z \n  PROB40 \n  TEMPO 0812/0815 <span class=\"hl\">SHSN</span> BKN014 \n  BECMG 0820/0822 03012KT"
    },
    {
      "icao": "EPSC",
      "iata": "SZZ",
      "name": "Solidarity Szczecin–Goleniów Airport",
      "updatedAt": "081100Z",
      "visibility_m": 10000,
      "taf_visibility_m": 4000,
      "worst_visibility_m": 4000,
      "ceiling_ft": null,
      "hazards": [
        "BR"
      ],
      "severityScore": 10,
      "metarRaw": "METAR EPSC 081100Z 14011KT CAVOK M06/M09 Q1011",
      "tafRaw": "TAF EPSC 080530Z 0806/0906 13008KT 5000 BR SCT007 \n  TEMPO 0806/0809 4000 BR BKN005 BKN010 \n  PROB40 0806/0808 BKN004 \n  BECMG 0900/0902 OVC007 \n  PROB40 0902/0906 BKN004",
      "metarHtml": "METAR EPSC 081100Z 14011KT <span class=\"hl-vis\">CAVOK</span> M06/M09 Q1011",
      "tafHtml": "TAF EPSC 080530Z 0806/0906 13008KT 5000 <span class=\"hl\">BR</span> SCT007 \n  TEMPO 0806/0809 4000 <span class=\"hl\">BR</span> BKN005 BKN010 \n  PROB40 0806/0808 BKN004 \n  BECMG 0900/0902 OVC007 \n  PROB40 0902/0906 BKN004"
    },
    {
      "icao": "EPSY",
      "iata": "SZY",
      "name": "Olsztyn-Mazury Airport",
      "updatedAt": "081100Z",
      "visibility_m": 7000,
      "taf_visibility_m": 4000,
      "worst_visibility_m": 4000,
      "ceiling_ft": null,
      "hazards": [
        "BR"
      ],
      "severityScore": 10,
      "metarRaw": "METAR EPSY 081100Z 01005KT 7000 FEW045 M09/M10 Q1011",
      "tafRaw": "TAF EPSY 080830Z 0809/0818 02006KT 7000 BKN025 \n  PROB40 \n  TEMPO 0809/0811 4000 BR \n  BECMG 0814/0817 4000 BR",
      "metarHtml": "METAR EPSY 081100Z 01005KT 7000 FEW045 M09/M10 Q1011",
      "tafHtml": "TAF EPSY 080830Z 0809/0818 02006KT 7000 BKN025 \n  PROB40 \n  TEMPO 0809/0811 4000 <span class=\"hl\">BR</span> \n  BECMG 0814/0817 4000 <span class=\"hl\">BR</span>"
    },
    {
      "icao": "ESKN",
      "iata": "NYO",
      "name": "Stockholm Skavsta Airport",
      "updatedAt": "081050Z",
      "visibility_m": 10000,
      "taf_visibility_m": 2000,
      "worst_visibility_m": 2000,
      "ceiling_ft": null,
      "hazards": [
        "SHSN"
      ],
      "severityScore": 10,
      "metarRaw": "METAR ESKN 081050Z 17009KT 9999 SCT029 M01/M04 Q1012",
      "tafRaw": "TAF ESKN 080830Z 0809/0909 18012KT 9999 BKN020 \n  TEMPO 0809/0813 18015G25KT \n  TEMPO 0816/0822 2000 SHSN BKN009 BKN020CB",
      "metarHtml": "METAR ESKN 081050Z 17009KT 9999 SCT029 M01/M04 Q1012",
      "tafHtml": "TAF ESKN 080830Z 0809/0909 18012KT 9999 BKN020 \n  TEMPO 0809/0813 18015G25KT \n  TEMPO 0816/0822 2000 <span class=\"hl\">SHSN</span> BKN009 BKN020CB"
    },
    {
      "icao": "ESSA",
      "iata": "ARN",
      "name": "Stockholm-Arlanda Airport",
      "updatedAt": "081050Z",
      "visibility_m": 10000,
      "taf_visibility_m": 2500,
      "worst_visibility_m": 2500,
      "ceiling_ft": 4000,
      "hazards": [
        "SHSN"
      ],
      "severityScore": 10,
      "metarRaw": "METAR ESSA 081050Z 15013KT 9999 SCT025 BKN040 M00/M03 Q1012 NOSIG",
      "tafRaw": "TAF ESSA 080830Z 0809/0909 15014KT 9999 BKN030 \n  TEMPO 0810/0814 16015G25KT \n  PROB40 0818/0902 2500 -SHSN BKN013 BKN025CB",
      "metarHtml": "METAR ESSA 081050Z 15013KT 9999 SCT025 BKN040 M00/M03 Q1012 NOSIG",
      "tafHtml": "TAF ESSA 080830Z 0809/0909 15014KT 9999 BKN030 \n  TEMPO 0810/0814 16015G25KT \n  PROB40 0818/0902 2500 -<span class=\"hl\">SHSN</span> BKN013 BKN025CB"
    },
    {
      "icao": "LEZL",
      "iata": "SVQ",
      "name": "Sevilla Airport",
      "updatedAt": "081100Z",
      "visibility_m": 10000,
      "taf_visibility_m": 4000,
      "worst_visibility_m": 4000,
      "ceiling_ft": 2500,
      "hazards": [
        "BR"
      ],
      "severityScore": 10,
      "metarRaw": "METAR LEZL 081100Z VRB02KT 9999 OVC025 09/07 Q1034 NOSIG",
      "tafRaw": "TAF LEZL 080800Z 0809/0909 02004KT 9999 SCT020 TX14/0815Z TN09/0907Z \n  PROB30 \n  TEMPO 0900/0906 4000 BR",
      "metarHtml": "METAR LEZL 081100Z VRB02KT 9999 OVC025 09/07 Q1034 NOSIG",
      "tafHtml": "TAF LEZL 080800Z 0809/0909 02004KT 9999 SCT020 TX14/0815Z TN09/0907Z \n  PROB30 \n  TEMPO 0900/0906 4000 <span class=\"hl\">BR</span>"
    },
    {
      "icao": "LHDC",
      "iata": "DEB",
      "name": "Debrecen International Airport",
      "updatedAt": "081045Z",
      "visibility_m": 7000,
      "taf_visibility_m": 4500,
      "worst_visibility_m": 4500,
      "ceiling_ft": 3200,
      "hazards": [
        "BR"
      ],
      "severityScore": 10,
      "metarRaw": "METAR LHDC 081045Z AUTO 26004KT 7000 OVC032 M05/M07 Q1006 NOSIG",
      "tafRaw": "TAF LHDC 080815Z 0809/0818 28008KT CAVOK \n  TEMPO 0809/0818 OVC040 \n  TEMPO 0809/0812 4500 BR",
      "metarHtml": "METAR LHDC 081045Z AUTO 26004KT 7000 OVC032 M05/M07 Q1006 NOSIG",
      "tafHtml": "TAF LHDC 080815Z 0809/0818 28008KT <span class=\"hl-vis\">CAVOK</span> \n  TEMPO 0809/0818 OVC040 \n  TEMPO 0809/0812 4500 <span class=\"hl\">BR</span>"
    },
    {
      "icao": "LZKZ",
      "iata": "KSC",
      "name": "Košice International Airport",
      "updatedAt": "081100Z",
      "visibility_m": 10000,
      "taf_visibility_m": 2000,
      "worst_visibility_m": 2000,
      "ceiling_ft": null,
      "hazards": [
        "BR"
      ],
      "severityScore": 10,
      "metarRaw": "METAR LZKZ 081100Z 35009KT CAVOK M02/M10 Q1004 NOSIG",
      "tafRaw": "TAF LZKZ 081115Z 0812/0912 36017KT 9999 FEW035 \n  PROB30 \n  TEMPO 0812/0814 36018G28KT DRSN \n  BECMG 0814/0816 34007KT CAVOK \n  BECMG 0820/0822 VRB02KT \n  PROB30 \n  TEMPO 0903/0908 2000 BR SCT002",
      "metarHtml": "METAR LZKZ 081100Z 35009KT <span class=\"hl-vis\">CAVOK</span> M02/M10 Q1004 NOSIG",
      "tafHtml": "TAF LZKZ 081115Z 0812/0912 36017KT 9999 FEW035 \n  PROB30 \n  TEMPO 0812/0814 36018G28KT DRSN \n  BECMG 0814/0816 34007KT <span class=\"hl-vis\">CAVOK</span> \n  BECMG 0820/0822 VRB02KT \n  PROB30 \n  TEMPO 0903/0908 2000 <span class=\"hl\">BR</span> SCT002"
    },
    {
      "icao": "BKPR",
      "iata": "PRN",
      "name": "Priština Adem Jashari International Airport",
      "updatedAt": "081100Z",
      "visibility_m": 10000,
      "taf_visibility_m": null,
      "worst_visibility_m": 10000,
      "ceiling_ft": 4500,
      "hazards": [],
      "severityScore": 5,
      "metarRaw": "METAR BKPR 081100Z 36007KT 9999 FEW014 BKN045 M03/M06 Q1007 NOSIG",
      "tafRaw": null,
      "metarHtml": "METAR BKPR 081100Z 36007KT 9999 FEW014 BKN045 M03/M06 Q1007 NOSIG",
      "tafHtml": null
    },
    {
      "icao": "ENTC",
      "iata": "TOS",
      "name": "Tromsø Airport, Langnes",
      "updatedAt": "081050Z",
      "visibility_m": 10000,
      "taf_visibility_m": null,
      "worst_visibility_m": 10000,
      "ceiling_ft": null,
      "hazards": [],
      "severityScore": 5,
      "metarRaw": "METAR ENTC 081050Z 18011KT CAVOK M07/M15 Q1023 NOSIG RMK WIND 2600FT 17040KT",
      "tafRaw": null,
      "metarHtml": "METAR ENTC 081050Z 18011KT <span class=\"hl-vis\">CAVOK</span> M07/M15 Q1023 NOSIG RMK WIND 2600FT 17040KT",
      "tafHtml": null
    },
    {
      "icao": "LEAL",
      "iata": "ALC",
      "name": "Alicante-Elche Miguel Hernández Airport",
      "updatedAt": "081100Z",
      "visibility_m": 10000,
      "taf_visibility_m": null,
      "worst_visibility_m": 10000,
      "ceiling_ft": null,
      "hazards": [],
      "severityScore": 5,
      "metarRaw": "METAR LEAL 081100Z 26015KT 230V290 CAVOK 15/03 Q1028 WS R28 NOSIG",
      "tafRaw": null,
      "metarHtml": "METAR LEAL 081100Z 26015KT 230V290 <span class=\"hl-vis\">CAVOK</span> 15/03 Q1028 WS R28 NOSIG",
      "tafHtml": null
    },
    {
      "icao": "LECH",
      "iata": "CDT",
      "name": "Castellón-Costa Azahar Airport",
      "updatedAt": "081100Z",
      "visibility_m": 10000,
      "taf_visibility_m": null,
      "worst_visibility_m": 10000,
      "ceiling_ft": null,
      "hazards": [],
      "severityScore": 5,
      "metarRaw": "METAR LECH 081100Z AUTO 26007KT 230V290 CAVOK 15/04 Q1024",
      "tafRaw": null,
      "metarHtml": "METAR LECH 081100Z AUTO 26007KT 230V290 <span class=\"hl-vis\">CAVOK</span> 15/04 Q1024",
      "tafHtml": null
    },
    {
      "icao": "LFPO",
      "iata": "ORY",
      "name": "Paris-Orly Airport",
      "updatedAt": "081100Z",
      "visibility_m": 10000,
      "taf_visibility_m": null,
      "worst_visibility_m": 10000,
      "ceiling_ft": 9300,
      "hazards": [],
      "severityScore": 5,
      "metarRaw": "METAR LFPO 081100Z 23006KT 200V260 9999 FEW043 BKN093 BKN140 06/05 Q1008 NOSIG",
      "tafRaw": null,
      "metarHtml": "METAR LFPO 081100Z 23006KT 200V260 9999 FEW043 BKN093 BKN140 06/05 Q1008 NOSIG",
      "tafHtml": null
    },
    {
      "icao": "LIPX",
      "iata": "VRN",
      "name": "Verona Villafranca Valerio Catullo Airport",
      "updatedAt": "081050Z",
      "visibility_m": 8000,
      "taf_visibility_m": null,
      "worst_visibility_m": 8000,
      "ceiling_ft": null,
      "hazards": [],
      "severityScore": 5,
      "metarRaw": "METAR LIPX 081050Z VRB02KT 8000 NSC M02/M03 Q1014",
      "tafRaw": null,
      "metarHtml": "METAR LIPX 081050Z VRB02KT 8000 NSC M02/M03 Q1014",
      "tafHtml": null
    },
    {
      "icao": "LYPG",
      "iata": "TGD",
      "name": "Podgorica Airport / Podgorica Golubovci Airbase",
      "updatedAt": "081100Z",
      "visibility_m": 10000,
      "taf_visibility_m": null,
      "worst_visibility_m": 10000,
      "ceiling_ft": 5000,
      "hazards": [],
      "severityScore": 5,
      "metarRaw": "METAR LYPG 081100Z 36015KT 9999 FEW033 BKN050 06/M05 Q1007 NOSIG",
      "tafRaw": null,
      "metarHtml": "METAR LYPG 081100Z 36015KT 9999 FEW033 BKN050 06/M05 Q1007 NOSIG",
      "tafHtml": null
    },
    {
      "icao": "GCFV",
      "iata": "FUE",
      "name": "Fuerteventura Airport",
      "updatedAt": "081100Z",
      "visibility_m": 10000,
      "taf_visibility_m": 10000,
      "worst_visibility_m": 10000,
      "ceiling_ft": null,
      "hazards": [],
      "severityScore": 0,
      "metarRaw": "METAR GCFV 081100Z 05014KT 9999 FEW032 SCT038 19/10 Q1032",
      "tafRaw": "TAF GCFV 080800Z 0809/0909 06015KT 9999 FEW035 TX20/0814Z TN15/0906Z \n  TEMPO 0812/0819 14008KT",
      "metarHtml": "METAR GCFV 081100Z 05014KT 9999 FEW032 SCT038 19/10 Q1032",
      "tafHtml": "TAF GCFV 080800Z 0809/0909 06015KT 9999 FEW035 TX20/0814Z TN15/0906Z \n  TEMPO 0812/0819 14008KT"
    },
    {
      "icao": "GCLP",
      "iata": "LPA",
      "name": "Gran Canaria Airport",
      "updatedAt": "081100Z",
      "visibility_m": 10000,
      "taf_visibility_m": 10000,
      "worst_visibility_m": 10000,
      "ceiling_ft": 3300,
      "hazards": [],
      "severityScore": 0,
      "metarRaw": "METAR GCLP 081100Z 06013KT 9999 BKN033 18/11 Q1032 NOSIG",
      "tafRaw": "TAF GCLP 080800Z 0809/0909 06017KT 9999 SCT035 TX20/0814Z TN15/0906Z \n  TEMPO 0818/0908 35007KT",
      "metarHtml": "METAR GCLP 081100Z 06013KT 9999 BKN033 18/11 Q1032 NOSIG",
      "tafHtml": "TAF GCLP 080800Z 0809/0909 06017KT 9999 SCT035 TX20/0814Z TN15/0906Z \n  TEMPO 0818/0908 35007KT"
    },
    {
      "icao": "GCTS",
      "iata": "TFS",
      "name": "Tenerife Sur Airport",
      "updatedAt": "081100Z",
      "visibility_m": 10000,
      "taf_visibility_m": 10000,
      "worst_visibility_m": 10000,
      "ceiling_ft": null,
      "hazards": [],
      "severityScore": 0,
      "metarRaw": "METAR GCTS 081100Z 07022KT 9999 FEW040 19/10 Q1031 NOSIG",
      "tafRaw": "TAF GCTS 080800Z 0809/0909 07019KT 9999 SCT040 TX23/0814Z TN15/0906Z \n  PROB30 \n  TEMPO 0809/0818 07020G30KT \n  PROB40 \n  TEMPO 0819/0908 03009KT",
      "metarHtml": "METAR GCTS 081100Z 07022KT 9999 FEW040 19/10 Q1031 NOSIG",
      "tafHtml": "TAF GCTS 080800Z 0809/0909 07019KT 9999 SCT040 TX23/0814Z TN15/0906Z \n  PROB30 \n  TEMPO 0809/0818 07020G30KT \n  PROB40 \n  TEMPO 0819/0908 03009KT"
    },
    {
      "icao": "GMAD",
      "iata": "AGA",
      "name": "Al Massira Airport",
      "updatedAt": "081100Z",
      "visibility_m": 10000,
      "taf_visibility_m": 10000,
      "worst_visibility_m": 10000,
      "ceiling_ft": null,
      "hazards": [],
      "severityScore": 0,
      "metarRaw": "METAR GMAD 081100Z 08005KT CAVOK 14/07 Q1031 NOSIG",
      "tafRaw": "TAF GMAD 080500Z 0806/0912 07006KT CAVOK",
      "metarHtml": "METAR GMAD 081100Z 08005KT <span class=\"hl-vis\">CAVOK</span> 14/07 Q1031 NOSIG",
      "tafHtml": "TAF GMAD 080500Z 0806/0912 07006KT <span class=\"hl-vis\">CAVOK</span>"
    },
    {
      "icao": "GMMN",
      "iata": "CMN",
      "name": "Mohammed V International Airport",
      "updatedAt": "081100Z",
      "visibility_m": 10000,
      "taf_visibility_m": 10000,
      "worst_visibility_m": 10000,
      "ceiling_ft": null,
      "hazards": [],
      "severityScore": 0,
      "metarRaw": "METAR GMMN 081100Z VRB02KT CAVOK 14/09 Q1033 NOSIG",
      "tafRaw": "TAF GMMN 081100Z 0812/0918 12004KT CAVOK \n  BECMG 0812/0814 36010KT \n  BECMG 0819/0822 16004KT SCT016 \n  BECMG 0910/0913 36012KT",
      "metarHtml": "METAR GMMN 081100Z VRB02KT <span class=\"hl-vis\">CAVOK</span> 14/09 Q1033 NOSIG",
      "tafHtml": "TAF GMMN 081100Z 0812/0918 12004KT <span class=\"hl-vis\">CAVOK</span> \n  BECMG 0812/0814 36010KT \n  BECMG 0819/0822 16004KT SCT016 \n  BECMG 0910/0913 36012KT"
    },
    {
      "icao": "GMMX",
      "iata": "RAK",
      "name": "Menara Airport",
      "updatedAt": "081100Z",
      "visibility_m": 10000,
      "taf_visibility_m": 8000,
      "worst_visibility_m": 8000,
      "ceiling_ft": null,
      "hazards": [],
      "severityScore": 0,
      "metarRaw": "METAR GMMX 081100Z 08007KT 050V110 CAVOK 12/03 Q1032 NOSIG",
      "tafRaw": "TAF GMMX 080500Z 0806/0912 24004KT 8000 NSC \n  TEMPO 0815/0821 34016KT",
      "metarHtml": "METAR GMMX 081100Z 08007KT 050V110 <span class=\"hl-vis\">CAVOK</span> 12/03 Q1032 NOSIG",
      "tafHtml": "TAF GMMX 080500Z 0806/0912 24004KT 8000 NSC \n  TEMPO 0815/0821 34016KT"
    },
    {
      "icao": "EETN",
      "iata": "TLL",
      "name": "Lennart Meri Tallinn Airport",
      "updatedAt": "081050Z",
      "visibility_m": 10000,
      "taf_visibility_m": 10000,
      "worst_visibility_m": 10000,
      "ceiling_ft": 2300,
      "hazards": [],
      "severityScore": 0,
      "metarRaw": "METAR EETN 081050Z 10003KT 9999 OVC023 M06/M08 Q1020 NOSIG",
      "tafRaw": "TAF EETN 080530Z 0806/0906 VRB02KT 9999 OVC025 \n  PROB40 \n  TEMPO 0806/0809 BKN007 \n  BECMG 0812/0814 BKN014 \n  BECMG 0818/0820 08012KT \n  PROB40 \n  TEMPO 0901/0906 07015G25KT",
      "metarHtml": "METAR EETN 081050Z 10003KT 9999 OVC023 M06/M08 Q1020 NOSIG",
      "tafHtml": "TAF EETN 080530Z 0806/0906 VRB02KT 9999 OVC025 \n  PROB40 \n  TEMPO 0806/0809 BKN007 \n  BECMG 0812/0814 BKN014 \n  BECMG 0818/0820 08012KT \n  PROB40 \n  TEMPO 0901/0906 07015G25KT"
    },
    {
      "icao": "EFTU",
      "iata": "TKU",
      "name": "Turku Airport",
      "updatedAt": "081050Z",
      "visibility_m": 10000,
      "taf_visibility_m": 10000,
      "worst_visibility_m": 10000,
      "ceiling_ft": null,
      "hazards": [],
      "severityScore": 0,
      "metarRaw": "METAR EFTU 081050Z AUTO 09008KT CAVOK M10/M12 Q1019",
      "tafRaw": "TAF EFTU 080829Z 0809/0909 10007KT 9999 BKN030 \n  PROB30 \n  TEMPO 0809/0815 BKN010",
      "metarHtml": "METAR EFTU 081050Z AUTO 09008KT <span class=\"hl-vis\">CAVOK</span> M10/M12 Q1019",
      "tafHtml": "TAF EFTU 080829Z 0809/0909 10007KT 9999 BKN030 \n  PROB30 \n  TEMPO 0809/0815 BKN010"
    },
    {
      "icao": "EKCH",
      "iata": "CPH",
      "name": "Copenhagen Kastrup Airport",
      "updatedAt": "081050Z",
      "visibility_m": 10000,
      "taf_visibility_m": 10000,
      "worst_visibility_m": 10000,
      "ceiling_ft": null,
      "hazards": [],
      "severityScore": 0,
      "metarRaw": "METAR EKCH 081050Z AUTO 15017KT 9999 BKN019/// M01/M04 Q1009 NOSIG",
      "tafRaw": "TAF EKCH 080827Z 0809/0909 16015KT 9999 BKN016 \n  TEMPO 0809/0812 BKN012 \n  BECMG 0821/0824 10015KT \n  TEMPO 0903/0907 11016G26KT",
      "metarHtml": "METAR EKCH 081050Z AUTO 15017KT 9999 BKN019/// M01/M04 Q1009 NOSIG",
      "tafHtml": "TAF EKCH 080827Z 0809/0909 16015KT 9999 BKN016 \n  TEMPO 0809/0812 BKN012 \n  BECMG 0821/0824 10015KT \n  TEMPO 0903/0907 11016G26KT"
    },
    {
      "icao": "ENBR",
      "iata": "BGO",
      "name": "Bergen Airport, Flesland",
      "updatedAt": "081050Z",
      "visibility_m": 10000,
      "taf_visibility_m": 10000,
      "worst_visibility_m": 10000,
      "ceiling_ft": null,
      "hazards": [],
      "severityScore": 0,
      "metarRaw": "METAR ENBR 081050Z 10004KT CAVOK M08/M15 Q1006 NOSIG RMK WIND 1200FT 14006KT",
      "tafRaw": "TAF ENBR 080500Z 0806/0906 07005KT CAVOK",
      "metarHtml": "METAR ENBR 081050Z 10004KT <span class=\"hl-vis\">CAVOK</span> M08/M15 Q1006 NOSIG RMK WIND 1200FT 14006KT",
      "tafHtml": "TAF ENBR 080500Z 0806/0906 07005KT <span class=\"hl-vis\">CAVOK</span>"
    },
    {
      "icao": "ENHD",
      "iata": "HAU",
      "name": "Haugesund Airport, Karmøy",
      "updatedAt": "081050Z",
      "visibility_m": 10000,
      "taf_visibility_m": 10000,
      "worst_visibility_m": 10000,
      "ceiling_ft": null,
      "hazards": [],
      "severityScore": 0,
      "metarRaw": "METAR ENHD 081050Z 10008KT CAVOK M07/M11 Q1006",
      "tafRaw": "TAF ENHD 080800Z 0809/0818 10008KT CAVOK",
      "metarHtml": "METAR ENHD 081050Z 10008KT <span class=\"hl-vis\">CAVOK</span> M07/M11 Q1006",
      "tafHtml": "TAF ENHD 080800Z 0809/0818 10008KT <span class=\"hl-vis\">CAVOK</span>"
    },
    {
      "icao": "ENZV",
      "iata": "SVG",
      "name": "Stavanger Airport, Sola",
      "updatedAt": "081050Z",
      "visibility_m": 10000,
      "taf_visibility_m": 10000,
      "worst_visibility_m": 10000,
      "ceiling_ft": null,
      "hazards": [],
      "severityScore": 0,
      "metarRaw": "METAR ENZV 081050Z 00000KT CAVOK M11/M13 Q1006 NOSIG",
      "tafRaw": "TAF ENZV 080500Z 0806/0906 13005KT CAVOK \n  BECMG 0819/0820 12015KT \n  TEMPO 0820/0906 12015G25KT",
      "metarHtml": "METAR ENZV 081050Z 00000KT <span class=\"hl-vis\">CAVOK</span> M11/M13 Q1006 NOSIG",
      "tafHtml": "TAF ENZV 080500Z 0806/0906 13005KT <span class=\"hl-vis\">CAVOK</span> \n  BECMG 0819/0820 12015KT \n  TEMPO 0820/0906 12015G25KT"
    },
    {
      "icao": "EYPA",
      "iata": "PLQ",
      "name": "Palanga International Airport",
      "updatedAt": "081050Z",
      "visibility_m": 10000,
      "taf_visibility_m": 6000,
      "worst_visibility_m": 6000,
      "ceiling_ft": null,
      "hazards": [],
      "severityScore": 0,
      "metarRaw": "METAR EYPA 081050Z 08004KT CAVOK M11/M13 Q1015",
      "tafRaw": "TAF EYPA 081100Z 0812/0912 VRB04KT 6000 NSC \n  TEMPO 0812/0822 BKN010 \n  BECMG 0906/0908 06010KT",
      "metarHtml": "METAR EYPA 081050Z 08004KT <span class=\"hl-vis\">CAVOK</span> M11/M13 Q1015",
      "tafHtml": "TAF EYPA 081100Z 0812/0912 VRB04KT 6000 NSC \n  TEMPO 0812/0822 BKN010 \n  BECMG 0906/0908 06010KT"
    },
    {
      "icao": "HEGN",
      "iata": "HRG",
      "name": "Hurghada International Airport",
      "updatedAt": "081000Z",
      "visibility_m": 10000,
      "taf_visibility_m": 3000,
      "worst_visibility_m": 3000,
      "ceiling_ft": null,
      "hazards": [],
      "severityScore": 0,
      "metarRaw": "METAR HEGN 081000Z 00000KT CAVOK 27/07 Q1018 NOSIG",
      "tafRaw": "TAF HEGN 081100Z 0812/0918 05008KT CAVOK \n  BECMG 0906/0908 33015G30KT \n  TEMPO 0907/0918 3000 SA NSC",
      "metarHtml": "METAR HEGN 081000Z 00000KT <span class=\"hl-vis\">CAVOK</span> 27/07 Q1018 NOSIG",
      "tafHtml": "TAF HEGN 081100Z 0812/0918 05008KT <span class=\"hl-vis\">CAVOK</span> \n  BECMG 0906/0908 33015G30KT \n  TEMPO 0907/0918 3000 SA NSC"
    },
    {
      "icao": "HEMA",
      "iata": "RMF",
      "name": "Marsa Alam International Airport",
      "updatedAt": "081000Z",
      "visibility_m": 6000,
      "taf_visibility_m": 4000,
      "worst_visibility_m": 4000,
      "ceiling_ft": null,
      "hazards": [],
      "severityScore": 0,
      "metarRaw": "METAR HEMA 081000Z 01009KT 6000 NSC 27/13 Q1017 NOSIG",
      "tafRaw": "TAF HEMA 081100Z 0812/0918 01012KT 6000 NSC \n  TEMPO 0812/0824 4000 SA",
      "metarHtml": "METAR HEMA 081000Z 01009KT 6000 NSC 27/13 Q1017 NOSIG",
      "tafHtml": "TAF HEMA 081100Z 0812/0918 01012KT 6000 NSC \n  TEMPO 0812/0824 4000 SA"
    },
    {
      "icao": "HESH",
      "iata": "SSH",
      "name": "Sharm El Sheikh International Airport",
      "updatedAt": "081000Z",
      "visibility_m": 10000,
      "taf_visibility_m": 3000,
      "worst_visibility_m": 3000,
      "ceiling_ft": null,
      "hazards": [],
      "severityScore": 0,
      "metarRaw": "METAR HESH 081000Z 03006KT CAVOK 27/13 Q1019 NOSIG",
      "tafRaw": "TAF HESH 081100Z 0812/0918 08010KT CAVOK \n  BECMG 0906/0908 35010G22KT \n  TEMPO 0907/0918 3000 SA NSC",
      "metarHtml": "METAR HESH 081000Z 03006KT <span class=\"hl-vis\">CAVOK</span> 27/13 Q1019 NOSIG",
      "tafHtml": "TAF HESH 081100Z 0812/0918 08010KT <span class=\"hl-vis\">CAVOK</span> \n  BECMG 0906/0908 35010G22KT \n  TEMPO 0907/0918 3000 SA NSC"
    },
    {
      "icao": "LBWN",
      "iata": "VAR",
      "name": "Varna Airport",
      "updatedAt": "081100Z",
      "visibility_m": 5000,
      "taf_visibility_m": 2000,
      "worst_visibility_m": 2000,
      "ceiling_ft": 3300,
      "hazards": [],
      "severityScore": 0,
      "metarRaw": "METAR LBWN 081100Z 27018KT 7000 -RASN SCT014 BKN033 OVC045 01/01 Q0997 TEMPO 27018G28KT 5000 RASN",
      "tafRaw": "TAF LBWN 081100Z 0812/0912 28016G26KT 9999 OVC035 \n  TEMPO 0812/0816 28020G36KT 2000 RASN SCT010 BKN015 OVC030 \n  TEMPO 0818/0824 28028G38KT",
      "metarHtml": "METAR LBWN 081100Z 27018KT 7000 -RASN SCT014 BKN033 OVC045 01/01 Q0997 TEMPO 27018G28KT 5000 RASN",
      "tafHtml": "TAF LBWN 081100Z 0812/0912 28016G26KT 9999 OVC035 \n  TEMPO 0812/0816 28020G36KT 2000 RASN SCT010 BKN015 OVC030 \n  TEMPO 0818/0824 28028G38KT"
    },
    {
      "icao": "LEBL",
      "iata": "BCN",
      "name": "Josep Tarradellas Barcelona-El Prat Airport",
      "updatedAt": "081100Z",
      "visibility_m": 10000,
      "taf_visibility_m": 10000,
      "worst_visibility_m": 10000,
      "ceiling_ft": null,
      "hazards": [],
      "severityScore": 0,
      "metarRaw": "METAR LEBL 081100Z 32009KT 280V340 9999 FEW020 12/06 Q1020 NOSIG",
      "tafRaw": "TAF LEBL 080500Z 0806/0906 33009KT 9999 FEW015 TX15/0813Z TN04/0806Z \n  TEMPO 0810/0813 32015KT \n  TEMPO 0814/0816 33018G28KT \n  BECMG 0816/0818 25010KT",
      "metarHtml": "METAR LEBL 081100Z 32009KT 280V340 9999 FEW020 12/06 Q1020 NOSIG",
      "tafHtml": "TAF LEBL 080500Z 0806/0906 33009KT 9999 FEW015 TX15/0813Z TN04/0806Z \n  TEMPO 0810/0813 32015KT \n  TEMPO 0814/0816 33018G28KT \n  BECMG 0816/0818 25010KT"
    },
    {
      "icao": "LEMG",
      "iata": "AGP",
      "name": "Málaga-Costa del Sol Airport",
      "updatedAt": "081100Z",
      "visibility_m": 10000,
      "taf_visibility_m": 10000,
      "worst_visibility_m": 10000,
      "ceiling_ft": null,
      "hazards": [],
      "severityScore": 0,
      "metarRaw": "METAR LEMG 081100Z 28011KT CAVOK 13/06 Q1032 NOSIG",
      "tafRaw": "TAF LEMG 080500Z 0806/0906 29012KT 9999 FEW035 TX16/0814Z TN06/0806Z \n  PROB40 \n  TEMPO 0822/0906 29015G25KT",
      "metarHtml": "METAR LEMG 081100Z 28011KT <span class=\"hl-vis\">CAVOK</span> 13/06 Q1032 NOSIG",
      "tafHtml": "TAF LEMG 080500Z 0806/0906 29012KT 9999 FEW035 TX16/0814Z TN06/0806Z \n  PROB40 \n  TEMPO 0822/0906 29015G25KT"
    },
    {
      "icao": "LEVC",
      "iata": "VLC",
      "name": "Valencia Airport",
      "updatedAt": "081100Z",
      "visibility_m": 10000,
      "taf_visibility_m": 10000,
      "worst_visibility_m": 10000,
      "ceiling_ft": null,
      "hazards": [],
      "severityScore": 0,
      "metarRaw": "METAR LEVC 081100Z 25019KT CAVOK 11/03 Q1026 NOSIG",
      "tafRaw": "TAF LEVC 080500Z 0806/0906 25012KT CAVOK TX15/0814Z TN06/0806Z \n  TEMPO 0806/0904 25015G25KT \n  PROB40 \n  TEMPO 0808/0818 25020G30KT \n  BECMG 0904/0906 VRB04KT",
      "metarHtml": "METAR LEVC 081100Z 25019KT <span class=\"hl-vis\">CAVOK</span> 11/03 Q1026 NOSIG",
      "tafHtml": "TAF LEVC 080500Z 0806/0906 25012KT <span class=\"hl-vis\">CAVOK</span> TX15/0814Z TN06/0806Z \n  TEMPO 0806/0904 25015G25KT \n  PROB40 \n  TEMPO 0808/0818 25020G30KT \n  BECMG 0904/0906 VRB04KT"
    },
    {
      "icao": "LEZG",
      "iata": "ZAZ",
      "name": "Zaragoza Airport",
      "updatedAt": "081100Z",
      "visibility_m": 10000,
      "taf_visibility_m": 10000,
      "worst_visibility_m": 10000,
      "ceiling_ft": null,
      "hazards": [],
      "severityScore": 0,
      "metarRaw": "METAR LEZG 081100Z 24013KT 220V280 CAVOK 12/04 Q1025 NOSIG",
      "tafRaw": "TAF LEZG 080500Z 0806/0906 VRB04KT CAVOK TX12/0815Z TN05/0806Z \n  PROB40 \n  TEMPO 0806/0810 28010KT \n  BECMG 0809/0811 24018KT \n  TEMPO 0810/0906 24023G38KT",
      "metarHtml": "METAR LEZG 081100Z 24013KT 220V280 <span class=\"hl-vis\">CAVOK</span> 12/04 Q1025 NOSIG",
      "tafHtml": "TAF LEZG 080500Z 0806/0906 VRB04KT <span class=\"hl-vis\">CAVOK</span> TX12/0815Z TN05/0806Z \n  PROB40 \n  TEMPO 0806/0810 28010KT \n  BECMG 0809/0811 24018KT \n  TEMPO 0810/0906 24023G38KT"
    },
    {
      "icao": "LFMN",
      "iata": "NCE",
      "name": "Nice-Côte d'Azur Airport",
      "updatedAt": "081100Z",
      "visibility_m": 10000,
      "taf_visibility_m": 10000,
      "worst_visibility_m": 10000,
      "ceiling_ft": null,
      "hazards": [],
      "severityScore": 0,
      "metarRaw": "METAR LFMN 081100Z 33007KT CAVOK 09/M05 Q1012 NOSIG",
      "tafRaw": "TAF LFMN 080800Z 0809/0915 32010KT CAVOK \n  BECMG 0809/0811 VRB04KT \n  BECMG 0812/0814 09010KT \n  BECMG 0816/0818 33010KT \n  BECMG 0821/0823 24010KT \n  BECMG 0823/0901 23020KT \n  TEMPO 0906/0911 23025G35KT",
      "metarHtml": "METAR LFMN 081100Z 33007KT <span class=\"hl-vis\">CAVOK</span> 09/M05 Q1012 NOSIG",
      "tafHtml": "TAF LFMN 080800Z 0809/0915 32010KT <span class=\"hl-vis\">CAVOK</span> \n  BECMG 0809/0811 VRB04KT \n  BECMG 0812/0814 09010KT \n  BECMG 0816/0818 33010KT \n  BECMG 0821/0823 24010KT \n  BECMG 0823/0901 23020KT \n  TEMPO 0906/0911 23025G35KT"
    },
    {
      "icao": "LGAV",
      "iata": "ATH",
      "name": "Athens Eleftherios Venizelos International Airport",
      "updatedAt": null,
      "visibility_m": null,
      "taf_visibility_m": 10000,
      "worst_visibility_m": 10000,
      "ceiling_ft": null,
      "hazards": [],
      "severityScore": 0,
      "metarRaw": null,
      "tafRaw": "TAF LGAV 081100Z 0812/0912 26012KT 9999 FEW020 SCT030 \n  TEMPO 0812/0821 26017G27KT \n  BECMG 0902/0904 VRB05KT \n  BECMG 0906/0908 26010KT",
      "metarHtml": null,
      "tafHtml": "TAF LGAV 081100Z 0812/0912 26012KT 9999 FEW020 SCT030 \n  TEMPO 0812/0821 26017G27KT \n  BECMG 0902/0904 VRB05KT \n  BECMG 0906/0908 26010KT"
    },
    {
      "icao": "LGTS",
      "iata": "SKG",
      "name": "Thessaloniki Macedonia International Airport",
      "updatedAt": "081050Z",
      "visibility_m": 10000,
      "taf_visibility_m": 10000,
      "worst_visibility_m": 10000,
      "ceiling_ft": null,
      "hazards": [],
      "severityScore": 0,
      "metarRaw": "METAR LGTS 081050Z 31017KT 9999 FEW020 SCT030 10/04 Q1002 NOSIG",
      "tafRaw": "TAF LGTS 081100Z 0812/0912 31015KT 9999 SCT025 \n  TEMPO 0814/0903 31015G25KT \n  BECMG 0907/0909 VRB03KT",
      "metarHtml": "METAR LGTS 081050Z 31017KT 9999 FEW020 SCT030 10/04 Q1002 NOSIG",
      "tafHtml": "TAF LGTS 081100Z 0812/0912 31015KT 9999 SCT025 \n  TEMPO 0814/0903 31015G25KT \n  BECMG 0907/0909 VRB03KT"
    },
    {
      "icao": "LIBD",
      "iata": "BRI",
      "name": "Bari Karol Wojtyła International Airport",
      "updatedAt": "081050Z",
      "visibility_m": 10000,
      "taf_visibility_m": 10000,
      "worst_visibility_m": 10000,
      "ceiling_ft": null,
      "hazards": [],
      "severityScore": 0,
      "metarRaw": "METAR LIBD 081050Z 28012G22KT 250V310 9999 SCT040 06/M01 Q1012",
      "tafRaw": "TAF LIBD 080500Z 0806/0906 28020G30KT CAVOK \n  BECMG 0816/0818 26010KT",
      "metarHtml": "METAR LIBD 081050Z 28012G22KT 250V310 9999 SCT040 06/M01 Q1012",
      "tafHtml": "TAF LIBD 080500Z 0806/0906 28020G30KT <span class=\"hl-vis\">CAVOK</span> \n  BECMG 0816/0818 26010KT"
    },
    {
      "icao": "LIBG",
      "iata": "TAR",
      "name": "Taranto-Grottaglie Marcello Arlotta Airport",
      "updatedAt": "081050Z",
      "visibility_m": 10000,
      "taf_visibility_m": 10000,
      "worst_visibility_m": 10000,
      "ceiling_ft": null,
      "hazards": [],
      "severityScore": 0,
      "metarRaw": "METAR LIBG 081050Z 26009KT 230V310 CAVOK 08/M01 Q1012",
      "tafRaw": "TAF LIBG 080800Z 0809/0818 32015KT 9999 SCT025 \n  TEMPO 0811/0815 32016G26KT",
      "metarHtml": "METAR LIBG 081050Z 26009KT 230V310 <span class=\"hl-vis\">CAVOK</span> 08/M01 Q1012",
      "tafHtml": "TAF LIBG 080800Z 0809/0818 32015KT 9999 SCT025 \n  TEMPO 0811/0815 32016G26KT"
    },
    {
      "icao": "LIBP",
      "iata": "PSR",
      "name": "Abruzzo Airport",
      "updatedAt": "081050Z",
      "visibility_m": 10000,
      "taf_visibility_m": 10000,
      "worst_visibility_m": 10000,
      "ceiling_ft": null,
      "hazards": [],
      "severityScore": 0,
      "metarRaw": "METAR LIBP 081050Z AUTO 31004KT 230V010 9999 NCD 08/M08 Q1015",
      "tafRaw": "TAF LIBP 080500Z 0806/0906 23006KT 9999 BKN030",
      "metarHtml": "METAR LIBP 081050Z AUTO 31004KT 230V010 9999 NCD 08/M08 Q1015",
      "tafHtml": "TAF LIBP 080500Z 0806/0906 23006KT 9999 BKN030"
    },
    {
      "icao": "LIBR",
      "iata": "BDS",
      "name": "Brindisi Airport",
      "updatedAt": "081050Z",
      "visibility_m": 10000,
      "taf_visibility_m": 10000,
      "worst_visibility_m": 10000,
      "ceiling_ft": null,
      "hazards": [],
      "severityScore": 0,
      "metarRaw": "METAR LIBR 081050Z 30019KT CAVOK 08/M01 Q1011",
      "tafRaw": "TAF LIBR 080500Z 0806/0906 31022G33KT 9999 SCT030 \n  BECMG 0818/0820 23009KT",
      "metarHtml": "METAR LIBR 081050Z 30019KT <span class=\"hl-vis\">CAVOK</span> 08/M01 Q1011",
      "tafHtml": "TAF LIBR 080500Z 0806/0906 31022G33KT 9999 SCT030 \n  BECMG 0818/0820 23009KT"
    },
    {
      "icao": "LICC",
      "iata": "CTA",
      "name": "Catania-Fontanarossa Airport",
      "updatedAt": "081050Z",
      "visibility_m": 10000,
      "taf_visibility_m": 10000,
      "worst_visibility_m": 10000,
      "ceiling_ft": null,
      "hazards": [],
      "severityScore": 0,
      "metarRaw": "METAR LICC 081050Z 26018KT 9999 FEW030 SCT050 15/11 Q1015",
      "tafRaw": "TAF LICC 080500Z 0806/0906 27015KT 9999 FEW060 \n  TEMPO 0812/0818 29020G33KT",
      "metarHtml": "METAR LICC 081050Z 26018KT 9999 FEW030 SCT050 15/11 Q1015",
      "tafHtml": "TAF LICC 080500Z 0806/0906 27015KT 9999 FEW060 \n  TEMPO 0812/0818 29020G33KT"
    },
    {
      "icao": "LIMC",
      "iata": "MXP",
      "name": "Milan Malpensa International Airport",
      "updatedAt": "081050Z",
      "visibility_m": 10000,
      "taf_visibility_m": 10000,
      "worst_visibility_m": 10000,
      "ceiling_ft": null,
      "hazards": [],
      "severityScore": 0,
      "metarRaw": "METAR LIMC 081050Z 05003KT 010V090 9999 SCT090 02/M03 Q1013 NOSIG",
      "tafRaw": "TAF LIMC 080500Z 0806/0912 VRB04KT CAVOK",
      "metarHtml": "METAR LIMC 081050Z 05003KT 010V090 9999 SCT090 02/M03 Q1013 NOSIG",
      "tafHtml": "TAF LIMC 080500Z 0806/0912 VRB04KT <span class=\"hl-vis\">CAVOK</span>"
    },
    {
      "icao": "LIME",
      "iata": "BGY",
      "name": "Milan Bergamo Airport / Antonio Locatelli Air Base",
      "updatedAt": "081050Z",
      "visibility_m": 10000,
      "taf_visibility_m": 10000,
      "worst_visibility_m": 10000,
      "ceiling_ft": null,
      "hazards": [],
      "severityScore": 0,
      "metarRaw": "METAR LIME 081050Z VRB01KT CAVOK 02/M08 Q1013 NOSIG",
      "tafRaw": "TAF LIME 080500Z 0806/0906 VRB04KT CAVOK",
      "metarHtml": "METAR LIME 081050Z VRB01KT <span class=\"hl-vis\">CAVOK</span> 02/M08 Q1013 NOSIG",
      "tafHtml": "TAF LIME 080500Z 0806/0906 VRB04KT <span class=\"hl-vis\">CAVOK</span>"
    },
    {
      "icao": "LIMF",
      "iata": "TRN",
      "name": "Turin Airport",
      "updatedAt": "081050Z",
      "visibility_m": 9000,
      "taf_visibility_m": 10000,
      "worst_visibility_m": 9000,
      "ceiling_ft": null,
      "hazards": [],
      "severityScore": 0,
      "metarRaw": "METAR LIMF 081050Z VRB01KT 9000 NSC 04/M10 Q1012",
      "tafRaw": "TAF LIMF 080500Z 0806/0906 VRB03KT CAVOK",
      "metarHtml": "METAR LIMF 081050Z VRB01KT 9000 NSC 04/M10 Q1012",
      "tafHtml": "TAF LIMF 080500Z 0806/0906 VRB03KT <span class=\"hl-vis\">CAVOK</span>"
    },
    {
      "icao": "LIMJ",
      "iata": "GOA",
      "name": "Genoa Cristoforo Colombo Airport",
      "updatedAt": "081050Z",
      "visibility_m": 10000,
      "taf_visibility_m": 10000,
      "worst_visibility_m": 10000,
      "ceiling_ft": null,
      "hazards": [],
      "severityScore": 0,
      "metarRaw": "METAR LIMJ 081050Z 10005KT 060V130 9999 FEW025 SCT030 09/02 Q1013",
      "tafRaw": "TAF LIMJ 080500Z 0806/0906 04010KT CAVOK \n  BECMG 0810/0812 12008KT \n  BECMG 0904/0906 03010KT",
      "metarHtml": "METAR LIMJ 081050Z 10005KT 060V130 9999 FEW025 SCT030 09/02 Q1013",
      "tafHtml": "TAF LIMJ 080500Z 0806/0906 04010KT <span class=\"hl-vis\">CAVOK</span> \n  BECMG 0810/0812 12008KT \n  BECMG 0904/0906 03010KT"
    },
    {
      "icao": "LIPH",
      "iata": "TSF",
      "name": "Treviso Antonio Canova Airport",
      "updatedAt": "081050Z",
      "visibility_m": 10000,
      "taf_visibility_m": 10000,
      "worst_visibility_m": 10000,
      "ceiling_ft": null,
      "hazards": [],
      "severityScore": 0,
      "metarRaw": "METAR LIPH 081050Z VRB02KT CAVOK 02/M06 Q1014",
      "tafRaw": "TAF LIPH 080500Z 0806/0906 VRB05KT CAVOK",
      "metarHtml": "METAR LIPH 081050Z VRB02KT <span class=\"hl-vis\">CAVOK</span> 02/M06 Q1014",
      "tafHtml": "TAF LIPH 080500Z 0806/0906 VRB05KT <span class=\"hl-vis\">CAVOK</span>"
    },
    {
      "icao": "LIPQ",
      "iata": "TRS",
      "name": "Trieste–Friuli Venezia Giulia Airport",
      "updatedAt": "081050Z",
      "visibility_m": 10000,
      "taf_visibility_m": 10000,
      "worst_visibility_m": 10000,
      "ceiling_ft": null,
      "hazards": [],
      "severityScore": 0,
      "metarRaw": "METAR LIPQ 081050Z AUTO VRB02KT 9999 NCD 03/M06 Q1014",
      "tafRaw": "TAF LIPQ 080500Z 0806/0906 VRB05KT 9999 SCT070",
      "metarHtml": "METAR LIPQ 081050Z AUTO VRB02KT 9999 NCD 03/M06 Q1014",
      "tafHtml": "TAF LIPQ 080500Z 0806/0906 VRB05KT 9999 SCT070"
    },
    {
      "icao": "LIPR",
      "iata": "RMI",
      "name": "Federico Fellini International Airport",
      "updatedAt": "081050Z",
      "visibility_m": 10000,
      "taf_visibility_m": 10000,
      "worst_visibility_m": 10000,
      "ceiling_ft": null,
      "hazards": [],
      "severityScore": 0,
      "metarRaw": "METAR LIPR 081050Z VRB02KT CAVOK 03/M05 Q1015",
      "tafRaw": "TAF LIPR 080500Z 0806/0906 25008KT 9999 SCT030",
      "metarHtml": "METAR LIPR 081050Z VRB02KT <span class=\"hl-vis\">CAVOK</span> 03/M05 Q1015",
      "tafHtml": "TAF LIPR 080500Z 0806/0906 25008KT 9999 SCT030"
    },
    {
      "icao": "LIPY",
      "iata": "AOI",
      "name": "Marche Airport",
      "updatedAt": "081050Z",
      "visibility_m": 10000,
      "taf_visibility_m": 10000,
      "worst_visibility_m": 10000,
      "ceiling_ft": null,
      "hazards": [],
      "severityScore": 0,
      "metarRaw": "METAR LIPY 081050Z AUTO 26006KT 9999 NCD 06/M05 Q1014",
      "tafRaw": "TAF LIPY 080500Z 0806/0906 23006KT 9999 SCT030",
      "metarHtml": "METAR LIPY 081050Z AUTO 26006KT 9999 NCD 06/M05 Q1014",
      "tafHtml": "TAF LIPY 080500Z 0806/0906 23006KT 9999 SCT030"
    },
    {
      "icao": "LIPZ",
      "iata": "VCE",
      "name": "Venice Marco Polo Airport",
      "updatedAt": "081050Z",
      "visibility_m": 10000,
      "taf_visibility_m": 10000,
      "worst_visibility_m": 10000,
      "ceiling_ft": null,
      "hazards": [],
      "severityScore": 0,
      "metarRaw": "METAR LIPZ 081050Z VRB02KT CAVOK 02/M06 Q1014 NOSIG",
      "tafRaw": "TAF LIPZ 080500Z 0806/0912 VRB05KT CAVOK",
      "metarHtml": "METAR LIPZ 081050Z VRB02KT <span class=\"hl-vis\">CAVOK</span> 02/M06 Q1014 NOSIG",
      "tafHtml": "TAF LIPZ 080500Z 0806/0912 VRB05KT <span class=\"hl-vis\">CAVOK</span>"
    },
    {
      "icao": "LIRF",
      "iata": "FCO",
      "name": "Rome–Fiumicino Leonardo da Vinci International Airport",
      "updatedAt": "081050Z",
      "visibility_m": 10000,
      "taf_visibility_m": 10000,
      "worst_visibility_m": 10000,
      "ceiling_ft": null,
      "hazards": [],
      "severityScore": 0,
      "metarRaw": "METAR LIRF 081050Z 04005KT 9999 FEW055 05/M03 Q1016 NOSIG",
      "tafRaw": "TAF LIRF 080500Z 0806/0912 04010KT CAVOK \n  BECMG 0813/0815 10007KT \n  BECMG 0904/0906 25015KT \n  PROB40 \n  TEMPO 0908/0912 25015G28KT",
      "metarHtml": "METAR LIRF 081050Z 04005KT 9999 FEW055 05/M03 Q1016 NOSIG",
      "tafHtml": "TAF LIRF 080500Z 0806/0912 04010KT <span class=\"hl-vis\">CAVOK</span> \n  BECMG 0813/0815 10007KT \n  BECMG 0904/0906 25015KT \n  PROB40 \n  TEMPO 0908/0912 25015G28KT"
    },
    {
      "icao": "LIRN",
      "iata": "NAP",
      "name": "Naples International Airport",
      "updatedAt": "081050Z",
      "visibility_m": 10000,
      "taf_visibility_m": 10000,
      "worst_visibility_m": 10000,
      "ceiling_ft": null,
      "hazards": [],
      "severityScore": 0,
      "metarRaw": "METAR LIRN 081050Z 04004KT 340V090 CAVOK 07/M00 Q1015 NOSIG",
      "tafRaw": "TAF LIRN 080500Z 0806/0906 03006KT CAVOK",
      "metarHtml": "METAR LIRN 081050Z 04004KT 340V090 <span class=\"hl-vis\">CAVOK</span> 07/M00 Q1015 NOSIG",
      "tafHtml": "TAF LIRN 080500Z 0806/0906 03006KT <span class=\"hl-vis\">CAVOK</span>"
    },
    {
      "icao": "LIRP",
      "iata": "PSA",
      "name": "Pisa International Airport",
      "updatedAt": "081045Z",
      "visibility_m": 10000,
      "taf_visibility_m": 10000,
      "worst_visibility_m": 10000,
      "ceiling_ft": null,
      "hazards": [],
      "severityScore": 0,
      "metarRaw": "METAR LIRP 081045Z 12012KT 9999 FEW030 03/M04 Q1015 NOSIG",
      "tafRaw": "TAF LIRP 080500Z 0806/0906 11007KT CAVOK \n  BECMG 0812/0814 SCT020 SCT050",
      "metarHtml": "METAR LIRP 081045Z 12012KT 9999 FEW030 03/M04 Q1015 NOSIG",
      "tafHtml": "TAF LIRP 080500Z 0806/0906 11007KT <span class=\"hl-vis\">CAVOK</span> \n  BECMG 0812/0814 SCT020 SCT050"
    },
    {
      "icao": "LIRZ",
      "iata": "PEG",
      "name": "Perugia San Francesco d'Assisi – Umbria International Airport",
      "updatedAt": "081050Z",
      "visibility_m": 10000,
      "taf_visibility_m": 10000,
      "worst_visibility_m": 10000,
      "ceiling_ft": null,
      "hazards": [],
      "severityScore": 0,
      "metarRaw": "METAR LIRZ 081050Z AUTO VRB02KT 9999 BKN036/// M00/M04 Q1016",
      "tafRaw": "TAF LIRZ 080500Z 0806/0906 VRB05KT 9999 FEW060",
      "metarHtml": "METAR LIRZ 081050Z AUTO VRB02KT 9999 BKN036/// M00/M04 Q1016",
      "tafHtml": "TAF LIRZ 080500Z 0806/0906 VRB05KT 9999 FEW060"
    },
    {
      "icao": "LPFR",
      "iata": "FAO",
      "name": "Faro Airport",
      "updatedAt": "081100Z",
      "visibility_m": 10000,
      "taf_visibility_m": 10000,
      "worst_visibility_m": 10000,
      "ceiling_ft": null,
      "hazards": [],
      "severityScore": 0,
      "metarRaw": "METAR LPFR 081100Z 00000KT 9999 FEW020 13/08 Q1034",
      "tafRaw": "TAF LPFR 081100Z 0812/0912 VRB02KT 9999 FEW020 \n  BECMG 0812/0814 19007KT \n  BECMG 0816/0818 VRB05KT \n  BECMG 0905/0907 SCT015 BKN035",
      "metarHtml": "METAR LPFR 081100Z 00000KT 9999 FEW020 13/08 Q1034",
      "tafHtml": "TAF LPFR 081100Z 0812/0912 VRB02KT 9999 FEW020 \n  BECMG 0812/0814 19007KT \n  BECMG 0816/0818 VRB05KT \n  BECMG 0905/0907 SCT015 BKN035"
    },
    {
      "icao": "LPMA",
      "iata": "FNC",
      "name": "Madeira International Airport Cristiano Ronaldo",
      "updatedAt": "081100Z",
      "visibility_m": 10000,
      "taf_visibility_m": 10000,
      "worst_visibility_m": 10000,
      "ceiling_ft": null,
      "hazards": [],
      "severityScore": 0,
      "metarRaw": "METAR LPMA 081100Z 36010KT 320V030 9999 FEW015 17/12 Q1034",
      "tafRaw": "TAF LPMA 081100Z 0812/0912 02013KT 9999 SCT015 \n  TEMPO 0818/0912 BKN013",
      "metarHtml": "METAR LPMA 081100Z 36010KT 320V030 9999 FEW015 17/12 Q1034",
      "tafHtml": "TAF LPMA 081100Z 0812/0912 02013KT 9999 SCT015 \n  TEMPO 0818/0912 BKN013"
    },
    {
      "icao": "LQBK",
      "iata": "BNX",
      "name": "Banja Luka International Airport",
      "updatedAt": "081100Z",
      "visibility_m": 10000,
      "taf_visibility_m": 2000,
      "worst_visibility_m": 2000,
      "ceiling_ft": null,
      "hazards": [],
      "severityScore": 0,
      "metarRaw": "METAR LQBK 081100Z 18004KT 100V240 CAVOK M02/M07 Q1013 NOSIG",
      "tafRaw": "TAF LQBK 081100Z 0812/0912 16005KT CAVOK TXM01/0813Z TNM09/0903Z \n  TEMPO 0812/0816 22010KT \n  PROB30 \n  TEMPO 0900/0909 2000 BCFG",
      "metarHtml": "METAR LQBK 081100Z 18004KT 100V240 <span class=\"hl-vis\">CAVOK</span> M02/M07 Q1013 NOSIG",
      "tafHtml": "TAF LQBK 081100Z 0812/0912 16005KT <span class=\"hl-vis\">CAVOK</span> TXM01/0813Z TNM09/0903Z \n  TEMPO 0812/0816 22010KT \n  PROB30 \n  TEMPO 0900/0909 2000 BCFG"
    },
    {
      "icao": "LQTZ",
      "iata": "TZL",
      "name": "Tuzla International Airport",
      "updatedAt": "081100Z",
      "visibility_m": 10000,
      "taf_visibility_m": 10000,
      "worst_visibility_m": 10000,
      "ceiling_ft": null,
      "hazards": [],
      "severityScore": 0,
      "metarRaw": "METAR LQTZ 081100Z 30005KT 9999 FEW035 M03/M06 Q1012",
      "tafRaw": "TAF LQTZ 081100Z 0812/0912 23005KT CAVOK TX00/0912Z TNM10/0905Z \n  TEMPO 0812/0815 30010KT",
      "metarHtml": "METAR LQTZ 081100Z 30005KT 9999 FEW035 M03/M06 Q1012",
      "tafHtml": "TAF LQTZ 081100Z 0812/0912 23005KT <span class=\"hl-vis\">CAVOK</span> TX00/0912Z TNM10/0905Z \n  TEMPO 0812/0815 30010KT"
    },
    {
      "icao": "LRCL",
      "iata": "CLJ",
      "name": "Cluj Avram Iancu International Airport",
      "updatedAt": "081100Z",
      "visibility_m": 10000,
      "taf_visibility_m": 10000,
      "worst_visibility_m": 10000,
      "ceiling_ft": 5600,
      "hazards": [],
      "severityScore": 0,
      "metarRaw": "METAR LRCL 081100Z 31011KT 9999 BKN056 M02/M06 Q1002",
      "tafRaw": "TAF LRCL 080800Z 0809/0818 29010KT 9999 SCT035 BKN050",
      "metarHtml": "METAR LRCL 081100Z 31011KT 9999 BKN056 M02/M06 Q1002",
      "tafHtml": "TAF LRCL 080800Z 0809/0818 29010KT 9999 SCT035 BKN050"
    },
    {
      "icao": "LRCV",
      "iata": "CRA",
      "name": "Craiova International Airport",
      "updatedAt": "081100Z",
      "visibility_m": 10000,
      "taf_visibility_m": 10000,
      "worst_visibility_m": 10000,
      "ceiling_ft": null,
      "hazards": [],
      "severityScore": 0,
      "metarRaw": "METAR LRCV 081100Z 29024KT CAVOK M01/M04 Q0999",
      "tafRaw": "TAF LRCV 080800Z 0809/0818 27018KT 9999 BKN025 \n  TEMPO 0809/0818 27022G35KT",
      "metarHtml": "METAR LRCV 081100Z 29024KT <span class=\"hl-vis\">CAVOK</span> M01/M04 Q0999",
      "tafHtml": "TAF LRCV 080800Z 0809/0818 27018KT 9999 BKN025 \n  TEMPO 0809/0818 27022G35KT"
    },
    {
      "icao": "LWOH",
      "iata": "OHD",
      "name": "Ohrid St. Paul the Apostle Airport",
      "updatedAt": null,
      "visibility_m": null,
      "taf_visibility_m": 5000,
      "worst_visibility_m": 5000,
      "ceiling_ft": null,
      "hazards": [],
      "severityScore": 0,
      "metarRaw": null,
      "tafRaw": "TAF LWOH 080840Z 0809/0909 23015KT 9999 SCT015 OVC035 \n  TEMPO 0809/0818 26018G28KT 5000 SNRA FEW005 BKN010 OVC030",
      "metarHtml": null,
      "tafHtml": "TAF LWOH 080840Z 0809/0909 23015KT 9999 SCT015 OVC035 \n  TEMPO 0809/0818 26018G28KT 5000 SNRA FEW005 BKN010 OVC030"
    },
    {
      "icao": "OEJN",
      "iata": "JED",
      "name": "King Abdulaziz International Airport",
      "updatedAt": "081100Z",
      "visibility_m": 8000,
      "taf_visibility_m": 2000,
      "worst_visibility_m": 2000,
      "ceiling_ft": null,
      "hazards": [],
      "severityScore": 0,
      "metarRaw": "METAR OEJN 081100Z 24008KT 8000 NSC 30/15 Q1016 NOSIG",
      "tafRaw": "TAF OEJN 081100Z 0812/0918 24010KT 7000 FEW040 \n  BECMG 0818/0820 VRB03KT \n  PROB30 \n  TEMPO 0822/0902 2000 HZ \n  BECMG 0906/0908 25010KT",
      "metarHtml": "METAR OEJN 081100Z 24008KT 8000 NSC 30/15 Q1016 NOSIG",
      "tafHtml": "TAF OEJN 081100Z 0812/0918 24010KT 7000 FEW040 \n  BECMG 0818/0820 VRB03KT \n  PROB30 \n  TEMPO 0822/0902 2000 HZ \n  BECMG 0906/0908 25010KT"
    },
    {
      "icao": "OEMA",
      "iata": "MED",
      "name": "Prince Mohammad Bin Abdulaziz Airport",
      "updatedAt": "081100Z",
      "visibility_m": 10000,
      "taf_visibility_m": 10000,
      "worst_visibility_m": 10000,
      "ceiling_ft": null,
      "hazards": [],
      "severityScore": 0,
      "metarRaw": "METAR OEMA 081100Z 08011KT CAVOK 26/00 Q1022 NOSIG",
      "tafRaw": "TAF OEMA 081100Z 0812/0918 09010KT CAVOK",
      "metarHtml": "METAR OEMA 081100Z 08011KT <span class=\"hl-vis\">CAVOK</span> 26/00 Q1022 NOSIG",
      "tafHtml": "TAF OEMA 081100Z 0812/0918 09010KT <span class=\"hl-vis\">CAVOK</span>"
    },
    {
      "icao": "OMAA",
      "iata": "AUH",
      "name": "Zayed International Airport",
      "updatedAt": "081100Z",
      "visibility_m": 10000,
      "taf_visibility_m": 8000,
      "worst_visibility_m": 8000,
      "ceiling_ft": null,
      "hazards": [],
      "severityScore": 0,
      "metarRaw": "METAR OMAA 081100Z 32010KT 300V360 9999 FEW045 24/10 Q1019 NOSIG",
      "tafRaw": "TAF OMAA 081100Z 0812/0918 34011KT 8000 NSC \n  BECMG 0816/0818 VRB02KT \n  BECMG 0910/0912 33010KT \n  BECMG 0915/0917 04005KT",
      "metarHtml": "METAR OMAA 081100Z 32010KT 300V360 9999 FEW045 24/10 Q1019 NOSIG",
      "tafHtml": "TAF OMAA 081100Z 0812/0918 34011KT 8000 NSC \n  BECMG 0816/0818 VRB02KT \n  BECMG 0910/0912 33010KT \n  BECMG 0915/0917 04005KT"
    },
    {
      "icao": "OMDB",
      "iata": "DXB",
      "name": "Dubai International Airport",
      "updatedAt": "081100Z",
      "visibility_m": 10000,
      "taf_visibility_m": 10000,
      "worst_visibility_m": 10000,
      "ceiling_ft": null,
      "hazards": [],
      "severityScore": 0,
      "metarRaw": "METAR OMDB 081100Z 33010KT 300V360 CAVOK 24/07 Q1019 NOSIG",
      "tafRaw": "TAF OMDB 081100Z 0812/0918 33010KT CAVOK \n  BECMG 0816/0818 10005KT \n  BECMG 0909/0911 33010KT \n  BECMG 0916/0918 08005KT",
      "metarHtml": "METAR OMDB 081100Z 33010KT 300V360 <span class=\"hl-vis\">CAVOK</span> 24/07 Q1019 NOSIG",
      "tafHtml": "TAF OMDB 081100Z 0812/0918 33010KT <span class=\"hl-vis\">CAVOK</span> \n  BECMG 0816/0818 10005KT \n  BECMG 0909/0911 33010KT \n  BECMG 0916/0918 08005KT"
    }
  ],
  "stats": {
    "icaoCount": 159,
    "metarReturned": 156,
    "tafReturned": 138,
    "stationsWritten": 159,
    "missingMetar": 3,
    "missingTaf": 21
  },
  "errors": []
}