{
  "generatedAt": "2026-01-10T11:36:09.289Z",
  "stations": [
    {
      "icao": "LJLJ",
      "iata": "LJU",
      "name": "Ljubljana Jože Pučnik Airport",
      "updatedAt": "101130Z",
      "visibility_m": 150,
      "taf_visibility_m": 200,
      "worst_visibility_m": 150,
      "ceiling_ft": 100,
      "hazards": [
        "FG",
        "BR"
      ],
      "severityScore": 100,
      "metarRaw": "METAR LJLJ 101130Z 06003KT 020V100 0150 R30/0250N FG VV001 00/M00 Q1001 NOSIG",
      "tafRaw": "TAF LJLJ 101100Z 1012/1112 VRB02KT 0200 FG VV001 \n  TEMPO 1012/1018 0600 VV002 \n  PROB30 \n  TEMPO 1012/1017 1200 BR BKN005 \n  BECMG 1108/1110 7000 NSW SCT010",
      "metarHtml": "METAR LJLJ 101130Z 06003KT 020V100 <span class=\"hl-vis\">0150</span> R30/0250N <span class=\"hl\">FG</span> VV001 00/M00 Q1001 NOSIG",
      "tafHtml": "TAF LJLJ 101100Z 1012/1112 VRB02KT <span class=\"hl-vis\">0200</span> <span class=\"hl\">FG</span> VV001 \n  TEMPO 1012/1018 <span class=\"hl-vis\">0600</span> VV002 \n  PROB30 \n  TEMPO 1012/1017 1200 <span class=\"hl\">BR</span> BKN005 \n  BECMG 1108/1110 7000 NSW SCT010"
    },
    {
      "icao": "LQBK",
      "iata": "BNX",
      "name": "Banja Luka International Airport",
      "updatedAt": "101130Z",
      "visibility_m": 400,
      "taf_visibility_m": 2000,
      "worst_visibility_m": 400,
      "ceiling_ft": 200,
      "hazards": [
        "FG",
        "SN"
      ],
      "severityScore": 100,
      "metarRaw": "METAR LQBK 101130Z 35004KT 0400 R16/0650U -SNRA FG BKN002 OVC005 01/01 Q1001 TEMPO 0700",
      "tafRaw": "TAF LQBK 101100Z 1012/1112 30005KT 7000 SCT010 BKN030 TX01/1012Z TNM07/1105Z \n  TEMPO 1012/1016 2000 -SNRA BKN003 OVC015 \n  BECMG 1022/1024 36012KT \n  PROB40 \n  TEMPO 1023/1103 34015G25KT SN",
      "metarHtml": "METAR LQBK 101130Z 35004KT <span class=\"hl-vis\">0400</span> R16/0650U -SNRA <span class=\"hl\">FG</span> BKN002 OVC005 01/01 Q1001 TEMPO <span class=\"hl-vis\">0700</span>",
      "tafHtml": "TAF LQBK 101100Z 1012/1112 30005KT 7000 SCT010 BKN030 TX01/1012Z TNM07/1105Z \n  TEMPO 1012/1016 2000 -SNRA BKN003 OVC015 \n  BECMG 1022/1024 36012KT \n  PROB40 \n  TEMPO 1023/1103 34015G25KT <span class=\"hl\">SN</span>"
    },
    {
      "icao": "LQSA",
      "iata": "SJJ",
      "name": "Sarajevo International Airport",
      "updatedAt": "101130Z",
      "visibility_m": 700,
      "taf_visibility_m": 500,
      "worst_visibility_m": 500,
      "ceiling_ft": 700,
      "hazards": [
        "FG",
        "SN",
        "FZFG",
        "BR",
        "SHRA"
      ],
      "severityScore": 100,
      "metarRaw": "METAR LQSA 101130Z 30003KT 0700 R11/1100N -SN FG SCT002 BKN007 OVC030 00/00 Q0996 RESN NOSIG",
      "tafRaw": "TAF LQSA 101100Z 1012/1112 29006KT 1000 SN BR BKN008 OVC020 TX00/1012Z TNM07/1107Z \n  PROB30 \n  TEMPO 1012/1016 0500 SHRA BKN004 FEW030TCU BKN040 \n  BECMG 1017/1020 5000 -SN BKN012 OVC030 \n  PROB30 1103/1107 0600 FZFG BKN004 \n  TEMPO 1110/1112 35011KT 9999 NSW SCT015 BKN030",
      "metarHtml": "METAR LQSA 101130Z 30003KT <span class=\"hl-vis\">0700</span> R11/1100N -<span class=\"hl\">SN</span> <span class=\"hl\">FG</span> SCT002 BKN007 OVC030 00/00 Q0996 RESN NOSIG",
      "tafHtml": "TAF LQSA 101100Z 1012/1112 29006KT 1000 <span class=\"hl\">SN</span> <span class=\"hl\">BR</span> BKN008 OVC020 TX00/1012Z TNM07/1107Z \n  PROB30 \n  TEMPO 1012/1016 <span class=\"hl-vis\">0500</span> <span class=\"hl\">SHRA</span> BKN004 FEW030TCU BKN040 \n  BECMG 1017/1020 5000 -<span class=\"hl\">SN</span> BKN012 OVC030 \n  PROB30 1103/1107 <span class=\"hl-vis\">0600</span> <span class=\"hl\">FZFG</span> BKN004 \n  TEMPO 1110/1112 35011KT 9999 NSW SCT015 BKN030"
    },
    {
      "icao": "LQTZ",
      "iata": "TZL",
      "name": "Tuzla International Airport",
      "updatedAt": "101130Z",
      "visibility_m": 650,
      "taf_visibility_m": 800,
      "worst_visibility_m": 650,
      "ceiling_ft": 100,
      "hazards": [
        "FG",
        "BR",
        "SN"
      ],
      "severityScore": 100,
      "metarRaw": "METAR LQTZ 101130Z 27002KT 0650 R09/0800N -RASN FG BKN001 OVC005 01/01 Q0999",
      "tafRaw": "TAF LQTZ 101100Z 1012/1112 27006KT 3000 BR BKN005 OVC012 TX02/1013Z TNM06/1106Z \n  TEMPO 1012/1102 1500 -SN BR BKN003 OVC010 \n  PROB30 \n  TEMPO 1012/1102 0800 SN BKN001 OVC007 \n  TEMPO 1102/1112 33012KT \n  PROB30 \n  TEMPO 1102/1112 2000 -SN BR",
      "metarHtml": "METAR LQTZ 101130Z 27002KT <span class=\"hl-vis\">0650</span> R09/0800N -RASN <span class=\"hl\">FG</span> BKN001 OVC005 01/01 Q0999",
      "tafHtml": "TAF LQTZ 101100Z 1012/1112 27006KT 3000 <span class=\"hl\">BR</span> BKN005 OVC012 TX02/1013Z TNM06/1106Z \n  TEMPO 1012/1102 1500 -<span class=\"hl\">SN</span> <span class=\"hl\">BR</span> BKN003 OVC010 \n  PROB30 \n  TEMPO 1012/1102 <span class=\"hl-vis\">0800</span> <span class=\"hl\">SN</span> BKN001 OVC007 \n  TEMPO 1102/1112 33012KT \n  PROB30 \n  TEMPO 1102/1112 2000 -<span class=\"hl\">SN</span> <span class=\"hl\">BR</span>"
    },
    {
      "icao": "LYBE",
      "iata": "BEG",
      "name": "Belgrade Nikola Tesla Airport",
      "updatedAt": "101130Z",
      "visibility_m": 200,
      "taf_visibility_m": 300,
      "worst_visibility_m": 200,
      "ceiling_ft": 100,
      "hazards": [
        "FG",
        "BR"
      ],
      "severityScore": 100,
      "metarRaw": "METAR LYBE 101130Z 36006KT 0200 R12L/0200N R30R/0225N FG VV001 00/00 Q1000 NOSIG",
      "tafRaw": "TAF LYBE 101100Z 1012/1112 36007KT 0300 FG VV001 TX01/1013Z TNM04/1106Z \n  BECMG 1013/1015 1000 BR BKN003 BKN022 \n  TEMPO 1015/1019 3000 \n  BECMG 1103/1105 6000 NSW SCT030",
      "metarHtml": "METAR LYBE 101130Z 36006KT <span class=\"hl-vis\">0200</span> R12L/0200N R30R/0225N <span class=\"hl\">FG</span> VV001 00/00 Q1000 NOSIG",
      "tafHtml": "TAF LYBE 101100Z 1012/1112 36007KT <span class=\"hl-vis\">0300</span> <span class=\"hl\">FG</span> VV001 TX01/1013Z TNM04/1106Z \n  BECMG 1013/1015 1000 <span class=\"hl\">BR</span> BKN003 BKN022 \n  TEMPO 1015/1019 3000 \n  BECMG 1103/1105 6000 NSW SCT030"
    },
    {
      "icao": "LYNI",
      "iata": "INI",
      "name": "Niš Constantine the Great Airport",
      "updatedAt": "101130Z",
      "visibility_m": 300,
      "taf_visibility_m": 1000,
      "worst_visibility_m": 300,
      "ceiling_ft": 2700,
      "hazards": [
        "FG",
        "RA",
        "BR",
        "SN"
      ],
      "severityScore": 100,
      "metarRaw": "METAR LYNI 101130Z 00000KT 0300 R29/0900N R11/2000U FG -RA FEW004 SCT007 BKN027 02/02 Q0998 NOSIG",
      "tafRaw": "TAF LYNI 101100Z 1012/1112 07004KT 4000 BR SCT015 BKN030 TX02/1012Z TNM03/1106Z \n  TEMPO 1012/1015 1000 -RASN BKN015 BKN025 \n  TEMPO 1015/1024 2000 SN BKN008 BKN025 \n  BECMG 1019/1021 33015KT 8000 NSW \n  TEMPO 1021/1112 33020G35KT",
      "metarHtml": "METAR LYNI 101130Z 00000KT <span class=\"hl-vis\">0300</span> R29/0900N R11/2000U <span class=\"hl\">FG</span> -<span class=\"hl\">RA</span> FEW004 SCT007 BKN027 02/02 Q0998 NOSIG",
      "tafHtml": "TAF LYNI 101100Z 1012/1112 07004KT 4000 <span class=\"hl\">BR</span> SCT015 BKN030 TX02/1012Z TNM03/1106Z \n  TEMPO 1012/1015 1000 -RASN BKN015 BKN025 \n  TEMPO 1015/1024 2000 <span class=\"hl\">SN</span> BKN008 BKN025 \n  BECMG 1019/1021 33015KT 8000 NSW \n  TEMPO 1021/1112 33020G35KT"
    },
    {
      "icao": "UAAA",
      "iata": "ALA",
      "name": "Almaty International Airport",
      "updatedAt": "101130Z",
      "visibility_m": 4000,
      "taf_visibility_m": 200,
      "worst_visibility_m": 200,
      "ceiling_ft": null,
      "hazards": [
        "FZFG",
        "BR"
      ],
      "severityScore": 95,
      "metarRaw": "METAR UAAA 101130Z VRB01MPS 4000 FU SCT200 02/M04 Q1018 NOSIG",
      "tafRaw": "TAF UAAA 101104Z 1012/1112 24003MPS 1600 BR FU SCT011 BKN100 TX05/1109Z TNM05/1101Z \n  TEMPO 1012/1017 04003MPS 0700 FZFG BKN005 OVC011 \n  TEMPO 1017/1105 17003MPS 0200 FZFG VV002 \n  FM110500 01003MPS 3100 BR FU SCT020 BKN050 \n  TEMPO 1105/1112 28003G08MPS",
      "metarHtml": "METAR UAAA 101130Z VRB01MPS 4000 FU SCT200 02/M04 Q1018 NOSIG",
      "tafHtml": "TAF UAAA 101104Z 1012/1112 24003MPS 1600 <span class=\"hl\">BR</span> FU SCT011 BKN100 TX05/1109Z TNM05/1101Z \n  TEMPO 1012/1017 04003MPS <span class=\"hl-vis\">0700</span> <span class=\"hl\">FZFG</span> BKN005 OVC011 \n  TEMPO 1017/1105 17003MPS <span class=\"hl-vis\">0200</span> <span class=\"hl\">FZFG</span> VV002 \n  FM110500 01003MPS 3100 <span class=\"hl\">BR</span> FU SCT020 BKN050 \n  TEMPO 1105/1112 28003G08MPS"
    },
    {
      "icao": "LRTR",
      "iata": "TSR",
      "name": "Timişoara Traian Vuia Airport",
      "updatedAt": "101130Z",
      "visibility_m": 550,
      "taf_visibility_m": 1500,
      "worst_visibility_m": 550,
      "ceiling_ft": 200,
      "hazards": [
        "FG",
        "BR"
      ],
      "severityScore": 90,
      "metarRaw": "METAR LRTR 101130Z 01005KT 0550 R29/1000N FG VV002 00/00 Q1000",
      "tafRaw": "TAF LRTR 101100Z 1012/1112 VRB04KT 1500 BR BKN002 \n  BECMG 1012/1014 34010KT 5000 BKN010 \n  BECMG 1014/1015 9999 NSW BKN020 \n  BECMG 1109/1111 27008KT",
      "metarHtml": "METAR LRTR 101130Z 01005KT <span class=\"hl-vis\">0550</span> R29/1000N <span class=\"hl\">FG</span> VV002 00/00 Q1000",
      "tafHtml": "TAF LRTR 101100Z 1012/1112 VRB04KT 1500 <span class=\"hl\">BR</span> BKN002 \n  BECMG 1012/1014 34010KT 5000 BKN010 \n  BECMG 1014/1015 9999 NSW BKN020 \n  BECMG 1109/1111 27008KT"
    },
    {
      "icao": "EGBB",
      "iata": "BHX",
      "name": "Birmingham Airport",
      "updatedAt": "101120Z",
      "visibility_m": 10000,
      "taf_visibility_m": 2000,
      "worst_visibility_m": 2000,
      "ceiling_ft": null,
      "hazards": [
        "BR",
        "FZRA",
        "RA",
        "FZDZ"
      ],
      "severityScore": 85,
      "metarRaw": "METAR EGBB 101120Z 32004KT CAVOK 02/M01 Q1017",
      "tafRaw": "TAF EGBB 101055Z 1012/1112 32006KT 9999 FEW025 \n  PROB30 \n  TEMPO 1012/1016 8000 \n  PROB40 1016/1024 2000 BR MIFG \n  BECMG 1101/1104 15010KT \n  PROB30 \n  TEMPO 1103/1105 6000 RA -RADZ BKN012 \n  TEMPO 1104/1112 17016G26KT \n  TEMPO 1105/1112 6000 RA -RADZ BKN012 \n  PROB30 \n  TEMPO 1105/1112 BKN008 \n  PROB30 \n  TEMPO 1105/1109 4000 FZRA FZDZ -RASN",
      "metarHtml": "METAR EGBB 101120Z 32004KT <span class=\"hl-vis\">CAVOK</span> 02/M01 Q1017",
      "tafHtml": "TAF EGBB 101055Z 1012/1112 32006KT 9999 FEW025 \n  PROB30 \n  TEMPO 1012/1016 8000 \n  PROB40 1016/1024 2000 <span class=\"hl\">BR</span> MIFG \n  BECMG 1101/1104 15010KT \n  PROB30 \n  TEMPO 1103/1105 6000 <span class=\"hl\">RA</span> -RADZ BKN012 \n  TEMPO 1104/1112 17016G26KT \n  TEMPO 1105/1112 6000 <span class=\"hl\">RA</span> -RADZ BKN012 \n  PROB30 \n  TEMPO 1105/1112 BKN008 \n  PROB30 \n  TEMPO 1105/1109 4000 <span class=\"hl\">FZRA</span> <span class=\"hl\">FZDZ</span> -RASN"
    },
    {
      "icao": "LBSF",
      "iata": "SOF",
      "name": "Sofia Airport",
      "updatedAt": "101130Z",
      "visibility_m": 1500,
      "taf_visibility_m": 1200,
      "worst_visibility_m": 1200,
      "ceiling_ft": 3200,
      "hazards": [
        "BR",
        "RA",
        "FZRA",
        "SN"
      ],
      "severityScore": 85,
      "metarRaw": "METAR LBSF 101130Z 15004KT 110V180 1800 RA BR FEW019 OVC032 03/03 Q0998 TEMPO 1500 RA BR",
      "tafRaw": "TAF LBSF 101100Z 1012/1112 08010KT 9999 SCT030 BKN050 \n  TEMPO 1012/1018 5000 RA BKN015 OVC040 \n  PROB30 1015/1018 4000 FZRA \n  BECMG 1018/1019 28018KT \n  BECMG 1019/1021 3000 SN BKN010 OVC025 \n  TEMPO 1022/1106 1200 SN BKN004 OVC015",
      "metarHtml": "METAR LBSF 101130Z 15004KT 110V180 1800 <span class=\"hl\">RA</span> <span class=\"hl\">BR</span> FEW019 OVC032 03/03 Q0998 TEMPO 1500 <span class=\"hl\">RA</span> <span class=\"hl\">BR</span>",
      "tafHtml": "TAF LBSF 101100Z 1012/1112 08010KT 9999 SCT030 BKN050 \n  TEMPO 1012/1018 5000 <span class=\"hl\">RA</span> BKN015 OVC040 \n  PROB30 1015/1018 4000 <span class=\"hl\">FZRA</span> \n  BECMG 1018/1019 28018KT \n  BECMG 1019/1021 3000 <span class=\"hl\">SN</span> BKN010 OVC025 \n  TEMPO 1022/1106 1200 <span class=\"hl\">SN</span> BKN004 OVC015"
    },
    {
      "icao": "EETN",
      "iata": "TLL",
      "name": "Lennart Meri Tallinn Airport",
      "updatedAt": "101120Z",
      "visibility_m": 800,
      "taf_visibility_m": 600,
      "worst_visibility_m": 600,
      "ceiling_ft": 1200,
      "hazards": [
        "SN",
        "BLSN"
      ],
      "severityScore": 77,
      "metarRaw": "METAR EETN 101120Z 03016G26KT 1400 0600E R08/2000D +SN BLSN VV012 M07/M09 Q1006 TEMPO 0800",
      "tafRaw": "TAF EETN 101130Z 1012/1112 04015G25KT 2500 SN BLSN BKN012 OVC020 \n  TEMPO 1012/1018 04020G32KT 0800 +SN BLSN VV010 \n  TEMPO 1021/1106 0600 +SN BLSN VV005 \n  BECMG 1106/1108 04015KT 4000 SN DRSN \n  PROB40 \n  TEMPO 1108/1112 1500 SN DRSN",
      "metarHtml": "METAR EETN 101120Z 03016G26KT 1400 0600E R08/2000D +<span class=\"hl\">SN</span> <span class=\"hl\">BLSN</span> VV012 M07/M09 Q1006 TEMPO <span class=\"hl-vis\">0800</span>",
      "tafHtml": "TAF EETN 101130Z 1012/1112 04015G25KT 2500 <span class=\"hl\">SN</span> <span class=\"hl\">BLSN</span> BKN012 OVC020 \n  TEMPO 1012/1018 04020G32KT <span class=\"hl-vis\">0800</span> +<span class=\"hl\">SN</span> <span class=\"hl\">BLSN</span> VV010 \n  TEMPO 1021/1106 <span class=\"hl-vis\">0600</span> +<span class=\"hl\">SN</span> <span class=\"hl\">BLSN</span> VV005 \n  BECMG 1106/1108 04015KT 4000 <span class=\"hl\">SN</span> DRSN \n  PROB40 \n  TEMPO 1108/1112 1500 <span class=\"hl\">SN</span> DRSN"
    },
    {
      "icao": "EPGD",
      "iata": "GDN",
      "name": "Gdańsk Lech Wałęsa Airport",
      "updatedAt": "101130Z",
      "visibility_m": 10000,
      "taf_visibility_m": 300,
      "worst_visibility_m": 300,
      "ceiling_ft": null,
      "hazards": [
        "SHSN",
        "BLSN"
      ],
      "severityScore": 77,
      "metarRaw": "METAR EPGD 101130Z 01011KT 340V040 9999 -SHSN FEW010 SCT021TCU M02/M05 Q1005 RESHSN",
      "tafRaw": "TAF EPGD 101130Z 1012/1112 36012KT 9999 -SHSN SCT020TCU \n  TEMPO 1012/1112 36020G33KT 0900 +SHSNGS DRSN BKN014 BKN020CB \n  PROB40 \n  TEMPO 1012/1112 0300 +SHSN BLSN BKN002 BKN009CB",
      "metarHtml": "METAR EPGD 101130Z 01011KT 340V040 9999 -<span class=\"hl\">SHSN</span> FEW010 SCT021TCU M02/M05 Q1005 RESHSN",
      "tafHtml": "TAF EPGD 101130Z 1012/1112 36012KT 9999 -<span class=\"hl\">SHSN</span> SCT020TCU \n  TEMPO 1012/1112 36020G33KT 0900 +SHSNGS DRSN BKN014 BKN020CB \n  PROB40 \n  TEMPO 1012/1112 <span class=\"hl-vis\">0300</span> +<span class=\"hl\">SHSN</span> <span class=\"hl\">BLSN</span> BKN002 BKN009CB"
    },
    {
      "icao": "EPRZ",
      "iata": "RZE",
      "name": "Rzeszów-Jasionka Airport",
      "updatedAt": "101130Z",
      "visibility_m": 10000,
      "taf_visibility_m": 400,
      "worst_visibility_m": 400,
      "ceiling_ft": 1300,
      "hazards": [
        "SN",
        "BR"
      ],
      "severityScore": 75,
      "metarRaw": "METAR EPRZ 101130Z 28010KT 260V320 9999 -SN BKN013 M10/M13 Q1003",
      "tafRaw": "TAF EPRZ 101130Z 1012/1112 27008KT 9999 BKN013 \n  BECMG 1012/1014 BKN020 \n  BECMG 1021/1024 28015G25KT 2500 -SN BR BKN007 \n  TEMPO 1100/1112 1400 SN DRSN BKN004 \n  PROB30 \n  TEMPO 1107/1112 0400 +SN",
      "metarHtml": "METAR EPRZ 101130Z 28010KT 260V320 9999 -<span class=\"hl\">SN</span> BKN013 M10/M13 Q1003",
      "tafHtml": "TAF EPRZ 101130Z 1012/1112 27008KT 9999 BKN013 \n  BECMG 1012/1014 BKN020 \n  BECMG 1021/1024 28015G25KT 2500 -<span class=\"hl\">SN</span> <span class=\"hl\">BR</span> BKN007 \n  TEMPO 1100/1112 1400 <span class=\"hl\">SN</span> DRSN BKN004 \n  PROB30 \n  TEMPO 1107/1112 <span class=\"hl-vis\">0400</span> +<span class=\"hl\">SN</span>"
    },
    {
      "icao": "EPSC",
      "iata": "SZZ",
      "name": "Solidarity Szczecin–Goleniów Airport",
      "updatedAt": "101130Z",
      "visibility_m": 10000,
      "taf_visibility_m": 700,
      "worst_visibility_m": 700,
      "ceiling_ft": 3500,
      "hazards": [
        "SN",
        "BLSN",
        "SHSN"
      ],
      "severityScore": 75,
      "metarRaw": "METAR EPSC 101130Z 35004KT 300V060 9999 -SN FEW004 SCT022 BKN035 M00/M04 Q1010",
      "tafRaw": "TAF EPSC 101130Z 1012/1112 32008KT 9999 BKN040 \n  TEMPO 1012/1020 2000 SHSN BKN020TCU \n  PROB40 \n  TEMPO 1012/1020 34016G26KT 0700 +SHSNGS BLSN DRSN BKN008 BKN014CB \n  TEMPO 1020/1112 34016G26KT 4000 -SHSN DRSN SCT020TCU",
      "metarHtml": "METAR EPSC 101130Z 35004KT 300V060 9999 -<span class=\"hl\">SN</span> FEW004 SCT022 BKN035 M00/M04 Q1010",
      "tafHtml": "TAF EPSC 101130Z 1012/1112 32008KT 9999 BKN040 \n  TEMPO 1012/1020 2000 <span class=\"hl\">SHSN</span> BKN020TCU \n  PROB40 \n  TEMPO 1012/1020 34016G26KT <span class=\"hl-vis\">0700</span> +SHSNGS <span class=\"hl\">BLSN</span> DRSN BKN008 BKN014CB \n  TEMPO 1020/1112 34016G26KT 4000 -<span class=\"hl\">SHSN</span> DRSN SCT020TCU"
    },
    {
      "icao": "LHBP",
      "iata": "BUD",
      "name": "Budapest Liszt Ferenc International Airport",
      "updatedAt": "101130Z",
      "visibility_m": 4500,
      "taf_visibility_m": 1000,
      "worst_visibility_m": 1000,
      "ceiling_ft": 700,
      "hazards": [
        "BR",
        "SN",
        "SHSN"
      ],
      "severityScore": 73,
      "metarRaw": "METAR LHBP 101130Z VRB01KT 4500 BR BKN007 OVC020 M03/M05 Q1001 TEMPO SCT007 BKN020",
      "tafRaw": "TAF LHBP 101115Z 1012/1112 VRB02KT 6000 SCT008 BKN025 \n  TEMPO 1012/1018 2500 -SN BR BKN004 OVC013 \n  PROB40 \n  TEMPO 1018/1101 10007KT 1000 SHSN BKN004 BKN010TCU \n  BECMG 1101/1104 31012KT CAVOK \n  BECMG 1106/1109 SCT020 BKN080 \n  TEMPO 1106/1112 31015G25KT DRSN",
      "metarHtml": "METAR LHBP 101130Z VRB01KT 4500 <span class=\"hl\">BR</span> BKN007 OVC020 M03/M05 Q1001 TEMPO SCT007 BKN020",
      "tafHtml": "TAF LHBP 101115Z 1012/1112 VRB02KT 6000 SCT008 BKN025 \n  TEMPO 1012/1018 2500 -<span class=\"hl\">SN</span> <span class=\"hl\">BR</span> BKN004 OVC013 \n  PROB40 \n  TEMPO 1018/1101 10007KT 1000 <span class=\"hl\">SHSN</span> BKN004 BKN010TCU \n  BECMG 1101/1104 31012KT <span class=\"hl-vis\">CAVOK</span> \n  BECMG 1106/1109 SCT020 BKN080 \n  TEMPO 1106/1112 31015G25KT DRSN"
    },
    {
      "icao": "OJAI",
      "iata": "AMM",
      "name": "Queen Alia International Airport",
      "updatedAt": "101100Z",
      "visibility_m": 4000,
      "taf_visibility_m": 800,
      "worst_visibility_m": 800,
      "ceiling_ft": 3000,
      "hazards": [
        "FG",
        "BR",
        "RA"
      ],
      "severityScore": 67,
      "metarRaw": "METAR OJAI 101100Z 26010KT 4000 HZ BKN030 13/07 Q1021 NOSIG",
      "tafRaw": "TAF OJAI 101100Z 1012/1118 26012KT 5000 HZ SCT030 \n  PROB30 \n  TEMPO 1012/1016 3000 -RA BR FEW025TCU \n  BECMG 1021/1023 16006KT \n  PROB40 1022/1107 2000 BR \n  PROB30 1102/1106 0800 FG",
      "metarHtml": "METAR OJAI 101100Z 26010KT 4000 HZ BKN030 13/07 Q1021 NOSIG",
      "tafHtml": "TAF OJAI 101100Z 1012/1118 26012KT 5000 HZ SCT030 \n  PROB30 \n  TEMPO 1012/1016 3000 -<span class=\"hl\">RA</span> <span class=\"hl\">BR</span> FEW025TCU \n  BECMG 1021/1023 16006KT \n  PROB40 1022/1107 2000 <span class=\"hl\">BR</span> \n  PROB30 1102/1106 <span class=\"hl-vis\">0800</span> <span class=\"hl\">FG</span>"
    },
    {
      "icao": "EPLB",
      "iata": "LUZ",
      "name": "Lublin Airport",
      "updatedAt": "101130Z",
      "visibility_m": 8000,
      "taf_visibility_m": 800,
      "worst_visibility_m": 800,
      "ceiling_ft": 1000,
      "hazards": [
        "SN",
        "SHSN"
      ],
      "severityScore": 65,
      "metarRaw": "METAR EPLB 101130Z 27011KT 8000 -SN BKN010 M12/M13 Q1001",
      "tafRaw": "TAF EPLB 101130Z 1012/1112 27010KT 9999 SCT010 BKN015 \n  TEMPO 1012/1015 4500 -SN BKN009 BKN012 \n  TEMPO 1015/1112 2000 SN BKN006 \n  PROB30 \n  TEMPO 1016/1106 0800 +SHSN BKN003 BKN010CB",
      "metarHtml": "METAR EPLB 101130Z 27011KT 8000 -<span class=\"hl\">SN</span> BKN010 M12/M13 Q1001",
      "tafHtml": "TAF EPLB 101130Z 1012/1112 27010KT 9999 SCT010 BKN015 \n  TEMPO 1012/1015 4500 -<span class=\"hl\">SN</span> BKN009 BKN012 \n  TEMPO 1015/1112 2000 <span class=\"hl\">SN</span> BKN006 \n  PROB30 \n  TEMPO 1016/1106 <span class=\"hl-vis\">0800</span> +<span class=\"hl\">SHSN</span> BKN003 BKN010CB"
    },
    {
      "icao": "LRBV",
      "iata": "GHV",
      "name": "Brașov-Ghimbav International Airport",
      "updatedAt": "101130Z",
      "visibility_m": 6000,
      "taf_visibility_m": 600,
      "worst_visibility_m": 600,
      "ceiling_ft": 2300,
      "hazards": [
        "FZFG",
        "BR"
      ],
      "severityScore": 65,
      "metarRaw": "METAR LRBV 101130Z VRB03KT 6000 FEW008 OVC023 M03/M04 Q0999",
      "tafRaw": "TAF LRBV 101100Z 1012/1021 VRB04KT 5000 BR OVC025 \n  BECMG 1015/1017 3000 BR \n  TEMPO 1017/1021 0600 FZFG OVC002",
      "metarHtml": "METAR LRBV 101130Z VRB03KT 6000 FEW008 OVC023 M03/M04 Q0999",
      "tafHtml": "TAF LRBV 101100Z 1012/1021 VRB04KT 5000 <span class=\"hl\">BR</span> OVC025 \n  BECMG 1015/1017 3000 <span class=\"hl\">BR</span> \n  TEMPO 1017/1021 <span class=\"hl-vis\">0600</span> <span class=\"hl\">FZFG</span> OVC002"
    },
    {
      "icao": "UDYZ",
      "iata": "EVN",
      "name": "Zvartnots International Airport",
      "updatedAt": "101130Z",
      "visibility_m": 2100,
      "taf_visibility_m": 600,
      "worst_visibility_m": 600,
      "ceiling_ft": null,
      "hazards": [
        "BR",
        "FZFG"
      ],
      "severityScore": 65,
      "metarRaw": "METAR UDYZ 101130Z 19002KT 2100 R08/1900D BR SCT043 03/00 Q1011 NOSIG",
      "tafRaw": "TAF UDYZ 101100Z 1012/1112 VRB04KT 1500 BR SCT030 \n  TEMPO 1017/1024 0600 FZFG VV005",
      "metarHtml": "METAR UDYZ 101130Z 19002KT 2100 R08/1900D <span class=\"hl\">BR</span> SCT043 03/00 Q1011 NOSIG",
      "tafHtml": "TAF UDYZ 101100Z 1012/1112 VRB04KT 1500 <span class=\"hl\">BR</span> SCT030 \n  TEMPO 1017/1024 <span class=\"hl-vis\">0600</span> <span class=\"hl\">FZFG</span> VV005"
    },
    {
      "icao": "EDFH",
      "iata": "HHN",
      "name": "Frankfurt-Hahn Airport",
      "updatedAt": "101120Z",
      "visibility_m": 8000,
      "taf_visibility_m": 1200,
      "worst_visibility_m": 1200,
      "ceiling_ft": 700,
      "hazards": [
        "SN",
        "BR"
      ],
      "severityScore": 63,
      "metarRaw": "METAR EDFH 101120Z 31008KT 280V340 8000 -SN SCT003 BKN007 M03/M03 Q1003",
      "tafRaw": "TAF EDFH 101100Z 1012/1112 33008KT 8000 BKN005 \n  TEMPO 1012/1024 2000 -SN BKN002 \n  PROB40 \n  TEMPO 1012/1017 1200 SN BKN001 \n  BECMG 1018/1021 03006KT \n  BECMG 1100/1103 12004KT CAVOK \n  PROB30 \n  TEMPO 1103/1106 3000 BR \n  BECMG 1108/1111 15009KT",
      "metarHtml": "METAR EDFH 101120Z 31008KT 280V340 8000 -<span class=\"hl\">SN</span> SCT003 BKN007 M03/M03 Q1003",
      "tafHtml": "TAF EDFH 101100Z 1012/1112 33008KT 8000 BKN005 \n  TEMPO 1012/1024 2000 -<span class=\"hl\">SN</span> BKN002 \n  PROB40 \n  TEMPO 1012/1017 1200 <span class=\"hl\">SN</span> BKN001 \n  BECMG 1018/1021 03006KT \n  BECMG 1100/1103 12004KT <span class=\"hl-vis\">CAVOK</span> \n  PROB30 \n  TEMPO 1103/1106 3000 <span class=\"hl\">BR</span> \n  BECMG 1108/1111 15009KT"
    },
    {
      "icao": "EGNM",
      "iata": "LBA",
      "name": "Leeds Bradford Airport",
      "updatedAt": "101120Z",
      "visibility_m": 10000,
      "taf_visibility_m": 600,
      "worst_visibility_m": 600,
      "ceiling_ft": null,
      "hazards": [
        "FG",
        "SN"
      ],
      "severityScore": 63,
      "metarRaw": "METAR EGNM 101120Z 29003KT CAVOK 01/M02 Q1016",
      "tafRaw": "TAF EGNM 101057Z 1012/1112 27005KT 9999 FEW040 \n  TEMPO 1015/1102 6000 \n  BECMG 1103/1106 15018G28KT \n  TEMPO 1107/1112 1000 SN BKN002 \n  PROB30 \n  TEMPO 1107/1112 0600 +SN FG VV///",
      "metarHtml": "METAR EGNM 101120Z 29003KT <span class=\"hl-vis\">CAVOK</span> 01/M02 Q1016",
      "tafHtml": "TAF EGNM 101057Z 1012/1112 27005KT 9999 FEW040 \n  TEMPO 1015/1102 6000 \n  BECMG 1103/1106 15018G28KT \n  TEMPO 1107/1112 1000 <span class=\"hl\">SN</span> BKN002 \n  PROB30 \n  TEMPO 1107/1112 <span class=\"hl-vis\">0600</span> +<span class=\"hl\">SN</span> <span class=\"hl\">FG</span> VV///"
    },
    {
      "icao": "EPMO",
      "iata": "WMI",
      "name": "Modlin Airport",
      "updatedAt": "101130Z",
      "visibility_m": 7000,
      "taf_visibility_m": 600,
      "worst_visibility_m": 600,
      "ceiling_ft": null,
      "hazards": [
        "SN",
        "BR",
        "SHSN"
      ],
      "severityScore": 63,
      "metarRaw": "METAR EPMO 101130Z 28008KT 7000 -SN FEW012 M08/M09 Q1003",
      "tafRaw": "TAF EPMO 101130Z 1012/1112 29008KT 5000 -SN BR BKN030 \n  TEMPO 1012/1104 1400 SN BR BKN006 BKN012 \n  PROB40 \n  TEMPO 1014/1024 0600 +SHSN BKN003 BKN010CB \n  PROB40 \n  TEMPO 1104/1112 2000 SHSN BKN012 BKN020TCU",
      "metarHtml": "METAR EPMO 101130Z 28008KT 7000 -<span class=\"hl\">SN</span> FEW012 M08/M09 Q1003",
      "tafHtml": "TAF EPMO 101130Z 1012/1112 29008KT 5000 -<span class=\"hl\">SN</span> <span class=\"hl\">BR</span> BKN030 \n  TEMPO 1012/1104 1400 <span class=\"hl\">SN</span> <span class=\"hl\">BR</span> BKN006 BKN012 \n  PROB40 \n  TEMPO 1014/1024 <span class=\"hl-vis\">0600</span> +<span class=\"hl\">SHSN</span> BKN003 BKN010CB \n  PROB40 \n  TEMPO 1104/1112 2000 <span class=\"hl\">SHSN</span> BKN012 BKN020TCU"
    },
    {
      "icao": "EPWA",
      "iata": "WAW",
      "name": "Warsaw Chopin Airport",
      "updatedAt": "101130Z",
      "visibility_m": 4500,
      "taf_visibility_m": 700,
      "worst_visibility_m": 700,
      "ceiling_ft": null,
      "hazards": [
        "SN",
        "BR",
        "SHSN"
      ],
      "severityScore": 63,
      "metarRaw": "METAR EPWA 101130Z 29009KT 7000 -SN SCT013 SCT042 M09/M11 Q1003 RESN TEMPO 4500 -SN",
      "tafRaw": "TAF EPWA 101130Z 1012/1112 29008KT 5000 -SN BR BKN030 \n  TEMPO 1012/1105 2000 SN BR BKN008 BKN014 \n  PROB40 \n  TEMPO 1015/1101 0700 +SHSN BKN003 BKN010CB \n  PROB40 \n  TEMPO 1105/1112 2000 SHSN BKN012 BKN020TCU",
      "metarHtml": "METAR EPWA 101130Z 29009KT 7000 -<span class=\"hl\">SN</span> SCT013 SCT042 M09/M11 Q1003 RESN TEMPO 4500 -<span class=\"hl\">SN</span>",
      "tafHtml": "TAF EPWA 101130Z 1012/1112 29008KT 5000 -<span class=\"hl\">SN</span> <span class=\"hl\">BR</span> BKN030 \n  TEMPO 1012/1105 2000 <span class=\"hl\">SN</span> <span class=\"hl\">BR</span> BKN008 BKN014 \n  PROB40 \n  TEMPO 1015/1101 <span class=\"hl-vis\">0700</span> +<span class=\"hl\">SHSN</span> BKN003 BKN010CB \n  PROB40 \n  TEMPO 1105/1112 2000 <span class=\"hl\">SHSN</span> BKN012 BKN020TCU"
    },
    {
      "icao": "EDDK",
      "iata": "CGN",
      "name": "Cologne Bonn Airport",
      "updatedAt": "101120Z",
      "visibility_m": 6000,
      "taf_visibility_m": 2000,
      "worst_visibility_m": 2000,
      "ceiling_ft": 700,
      "hazards": [
        "SN",
        "BR"
      ],
      "severityScore": 53,
      "metarRaw": "METAR EDDK 101120Z AUTO 31008KT 6000 -SN BKN007 OVC014 M01/M03 Q1007 TEMPO BKN013",
      "tafRaw": "TAF EDDK 101100Z 1012/1118 34007KT 8000 OVC012 \n  TEMPO 1012/1016 2000 -SN BR BKN008 \n  BECMG 1015/1018 04003KT SCT025 \n  BECMG 1103/1106 12005KT",
      "metarHtml": "METAR EDDK 101120Z AUTO 31008KT 6000 -<span class=\"hl\">SN</span> BKN007 OVC014 M01/M03 Q1007 TEMPO BKN013",
      "tafHtml": "TAF EDDK 101100Z 1012/1118 34007KT 8000 OVC012 \n  TEMPO 1012/1016 2000 -<span class=\"hl\">SN</span> <span class=\"hl\">BR</span> BKN008 \n  BECMG 1015/1018 04003KT SCT025 \n  BECMG 1103/1106 12005KT"
    },
    {
      "icao": "EDSB",
      "iata": "FKB",
      "name": "Karlsruhe Baden-Baden Airport",
      "updatedAt": "101120Z",
      "visibility_m": 9000,
      "taf_visibility_m": 1200,
      "worst_visibility_m": 1200,
      "ceiling_ft": 600,
      "hazards": [
        "SN"
      ],
      "severityScore": 53,
      "metarRaw": "METAR EDSB 101120Z 21010KT 9000 -SNRA BKN006 OVC012 02/01 Q1006",
      "tafRaw": "TAF EDSB 101100Z 1012/1112 23008KT 8000 BKN010 \n  TEMPO 1012/1015 4000 -SNRA BKN005 \n  TEMPO 1015/1103 2000 -SN BKN005 \n  PROB30 \n  TEMPO 1015/1018 1200 SN BKN004 \n  BECMG 1017/1020 36005KT \n  TEMPO 1103/1112 BKN005 \n  BECMG 1105/1108 06003KT",
      "metarHtml": "METAR EDSB 101120Z 21010KT 9000 -SNRA BKN006 OVC012 02/01 Q1006",
      "tafHtml": "TAF EDSB 101100Z 1012/1112 23008KT 8000 BKN010 \n  TEMPO 1012/1015 4000 -SNRA BKN005 \n  TEMPO 1015/1103 2000 -<span class=\"hl\">SN</span> BKN005 \n  PROB30 \n  TEMPO 1015/1018 1200 <span class=\"hl\">SN</span> BKN004 \n  BECMG 1017/1020 36005KT \n  TEMPO 1103/1112 BKN005 \n  BECMG 1105/1108 06003KT"
    },
    {
      "icao": "LKPR",
      "iata": "PRG",
      "name": "Václav Havel Airport Prague",
      "updatedAt": "101130Z",
      "visibility_m": 5000,
      "taf_visibility_m": 2500,
      "worst_visibility_m": 2500,
      "ceiling_ft": 900,
      "hazards": [
        "BR",
        "SN"
      ],
      "severityScore": 53,
      "metarRaw": "METAR LKPR 101130Z 05008KT 5000 -SN BR FEW005 BKN009 OVC018 M06/M08 Q1004 NOSIG",
      "tafRaw": "TAF LKPR 101100Z 1012/1118 01006KT 2500 -SN BR SCT003 OVC006 \n  TEMPO 1012/1016 5000 BR SCT008 OVC013 \n  BECMG 1016/1018 33013KT 9999 SCT020 \n  TEMPO 1022/1106 4000 -SN BR BKN012",
      "metarHtml": "METAR LKPR 101130Z 05008KT 5000 -<span class=\"hl\">SN</span> <span class=\"hl\">BR</span> FEW005 BKN009 OVC018 M06/M08 Q1004 NOSIG",
      "tafHtml": "TAF LKPR 101100Z 1012/1118 01006KT 2500 -<span class=\"hl\">SN</span> <span class=\"hl\">BR</span> SCT003 OVC006 \n  TEMPO 1012/1016 5000 <span class=\"hl\">BR</span> SCT008 OVC013 \n  BECMG 1016/1018 33013KT 9999 SCT020 \n  TEMPO 1022/1106 4000 -<span class=\"hl\">SN</span> <span class=\"hl\">BR</span> BKN012"
    },
    {
      "icao": "LYPG",
      "iata": "TGD",
      "name": "Podgorica Airport / Podgorica Golubovci Airbase",
      "updatedAt": "101130Z",
      "visibility_m": 2000,
      "taf_visibility_m": 2000,
      "worst_visibility_m": 2000,
      "ceiling_ft": 5300,
      "hazards": [
        "SHRA",
        "TSRA",
        "RA"
      ],
      "severityScore": 51,
      "metarRaw": "METAR LYPG 101130Z 08004KT 8000 -SHRA FEW006 SCT030TCU BKN053 07/06 Q0995 TEMPO 20020KT 2000 SHRA",
      "tafRaw": "TAF LYPG 101100Z 1012/1112 16005KT 7000 RA FEW010 SCT030 OVC070 TX08/1012Z TN04/1105Z \n  TEMPO 1012/1016 20015G30KT 2000 TSRA FEW010 SCT025CB BKN030 \n  BECMG 1019/1021 36015G25KT NSW \n  TEMPO 1021/1112 02020G35KT",
      "metarHtml": "METAR LYPG 101130Z 08004KT 8000 -<span class=\"hl\">SHRA</span> FEW006 SCT030TCU BKN053 07/06 Q0995 TEMPO 20020KT 2000 <span class=\"hl\">SHRA</span>",
      "tafHtml": "TAF LYPG 101100Z 1012/1112 16005KT 7000 <span class=\"hl\">RA</span> FEW010 SCT030 OVC070 TX08/1012Z TN04/1105Z \n  TEMPO 1012/1016 20015G30KT 2000 <span class=\"hl\">TSRA</span> FEW010 SCT025CB BKN030 \n  BECMG 1019/1021 36015G25KT NSW \n  TEMPO 1021/1112 02020G35KT"
    },
    {
      "icao": "EYPA",
      "iata": "PLQ",
      "name": "Palanga International Airport",
      "updatedAt": "101120Z",
      "visibility_m": 8000,
      "taf_visibility_m": 1500,
      "worst_visibility_m": 1500,
      "ceiling_ft": null,
      "hazards": [
        "SN",
        "BLSN"
      ],
      "severityScore": 50,
      "metarRaw": "METAR EYPA 101120Z 01008KT 320V040 8000 -SN NSC M05/M07 Q1004",
      "tafRaw": "TAF EYPA 101100Z 1012/1112 36008KT 8000 SCT025 \n  TEMPO 1012/1015 01018KT 5000 SN BLSN SCT010 BKN015 \n  PROB40 \n  TEMPO 1012/1015 1500 BKN010 \n  TEMPO 1023/1104 5000 SN",
      "metarHtml": "METAR EYPA 101120Z 01008KT 320V040 8000 -<span class=\"hl\">SN</span> NSC M05/M07 Q1004",
      "tafHtml": "TAF EYPA 101100Z 1012/1112 36008KT 8000 SCT025 \n  TEMPO 1012/1015 01018KT 5000 <span class=\"hl\">SN</span> <span class=\"hl\">BLSN</span> SCT010 BKN015 \n  PROB40 \n  TEMPO 1012/1015 1500 BKN010 \n  TEMPO 1023/1104 5000 <span class=\"hl\">SN</span>"
    },
    {
      "icao": "EYVI",
      "iata": "VNO",
      "name": "Vilnius International Airport",
      "updatedAt": "101120Z",
      "visibility_m": 10000,
      "taf_visibility_m": 1500,
      "worst_visibility_m": 1500,
      "ceiling_ft": 1600,
      "hazards": [
        "SN",
        "BR"
      ],
      "severityScore": 50,
      "metarRaw": "METAR EYVI 101120Z 34008KT 9999 -SN BKN016 M10/M13 Q0997 NOSIG",
      "tafRaw": "TAF EYVI 101107Z 1012/1112 35007KT 5000 SN BKN025 \n  TEMPO 1012/1021 1500 BKN010 BKN015 \n  BECMG 1021/1024 BKN005 \n  TEMPO 1102/1107 1500 BR BKN002",
      "metarHtml": "METAR EYVI 101120Z 34008KT 9999 -<span class=\"hl\">SN</span> BKN016 M10/M13 Q0997 NOSIG",
      "tafHtml": "TAF EYVI 101107Z 1012/1112 35007KT 5000 <span class=\"hl\">SN</span> BKN025 \n  TEMPO 1012/1021 1500 BKN010 BKN015 \n  BECMG 1021/1024 BKN005 \n  TEMPO 1102/1107 1500 <span class=\"hl\">BR</span> BKN002"
    },
    {
      "icao": "LFLS",
      "iata": "GNB",
      "name": "Grenoble Alpes Isère Airport",
      "updatedAt": "101130Z",
      "visibility_m": 1200,
      "taf_visibility_m": null,
      "worst_visibility_m": 1200,
      "ceiling_ft": 800,
      "hazards": [
        "SHSN"
      ],
      "severityScore": 50,
      "metarRaw": "METAR LFLS 101130Z AUTO 16003KT 110V220 9999 SCT037 BKN047 BKN062 05/M00 Q1014 TEMPO 1200 -SHSN BKN008 BKN020TCU",
      "tafRaw": null,
      "metarHtml": "METAR LFLS 101130Z AUTO 16003KT 110V220 9999 SCT037 BKN047 BKN062 05/M00 Q1014 TEMPO 1200 -<span class=\"hl\">SHSN</span> BKN008 BKN020TCU",
      "tafHtml": null
    },
    {
      "icao": "LRSB",
      "iata": "SBZ",
      "name": "Sibiu International Airport",
      "updatedAt": "101130Z",
      "visibility_m": 9000,
      "taf_visibility_m": 1500,
      "worst_visibility_m": 1500,
      "ceiling_ft": 1600,
      "hazards": [
        "BR",
        "SN"
      ],
      "severityScore": 50,
      "metarRaw": "METAR LRSB 101130Z VRB01KT 9000 FEW005 OVC016 00/M03 Q0999",
      "tafRaw": "TAF LRSB 101100Z 1012/1112 VRB04KT 9999 BKN020 \n  BECMG 1016/1018 3000 BR BKN010 BKN030 \n  TEMPO 1020/1023 1500 BR BKN005 \n  BECMG 1023/1101 5000 -SN BKN005 OVC030 \n  TEMPO 1101/1108 1500 SN BKN002 OVC020 \n  BECMG 1108/1110 9999 NSW BKN030",
      "metarHtml": "METAR LRSB 101130Z VRB01KT 9000 FEW005 OVC016 00/M03 Q0999",
      "tafHtml": "TAF LRSB 101100Z 1012/1112 VRB04KT 9999 BKN020 \n  BECMG 1016/1018 3000 <span class=\"hl\">BR</span> BKN010 BKN030 \n  TEMPO 1020/1023 1500 <span class=\"hl\">BR</span> BKN005 \n  BECMG 1023/1101 5000 -<span class=\"hl\">SN</span> BKN005 OVC030 \n  TEMPO 1101/1108 1500 <span class=\"hl\">SN</span> BKN002 OVC020 \n  BECMG 1108/1110 9999 NSW BKN030"
    },
    {
      "icao": "EDDN",
      "iata": "NUE",
      "name": "Nuremberg Airport",
      "updatedAt": "101120Z",
      "visibility_m": 10000,
      "taf_visibility_m": null,
      "worst_visibility_m": 10000,
      "ceiling_ft": 800,
      "hazards": [
        "SN"
      ],
      "severityScore": 48,
      "metarRaw": "METAR EDDN 101120Z AUTO 28006KT 9999 -SN BKN008 OVC012 01/M00 Q1003 NOSIG",
      "tafRaw": null,
      "metarHtml": "METAR EDDN 101120Z AUTO 28006KT 9999 -<span class=\"hl\">SN</span> BKN008 OVC012 01/M00 Q1003 NOSIG",
      "tafHtml": null
    },
    {
      "icao": "EGGW",
      "iata": "LTN",
      "name": "London Luton Airport",
      "updatedAt": "101120Z",
      "visibility_m": 10000,
      "taf_visibility_m": 3000,
      "worst_visibility_m": 3000,
      "ceiling_ft": 800,
      "hazards": [
        "BR",
        "RA"
      ],
      "severityScore": 47,
      "metarRaw": "METAR EGGW 101120Z AUTO 33008KT 9999 BKN008 OVC014 01/M00 Q1016",
      "tafRaw": "TAF EGGW 101101Z 1012/1112 33009KT 9999 BKN007 \n  BECMG 1013/1016 SCT025 \n  TEMPO 1018/1105 7000 \n  PROB40 1021/1104 4000 BR \n  BECMG 1103/1106 15012KT \n  TEMPO 1107/1112 7000 RA \n  PROB40 \n  TEMPO 1107/1111 3000 RASN BKN014 \n  TEMPO 1110/1112 16015G25KT",
      "metarHtml": "METAR EGGW 101120Z AUTO 33008KT 9999 BKN008 OVC014 01/M00 Q1016",
      "tafHtml": "TAF EGGW 101101Z 1012/1112 33009KT 9999 BKN007 \n  BECMG 1013/1016 SCT025 \n  TEMPO 1018/1105 7000 \n  PROB40 1021/1104 4000 <span class=\"hl\">BR</span> \n  BECMG 1103/1106 15012KT \n  TEMPO 1107/1112 7000 <span class=\"hl\">RA</span> \n  PROB40 \n  TEMPO 1107/1111 3000 RASN BKN014 \n  TEMPO 1110/1112 16015G25KT"
    },
    {
      "icao": "EGPD",
      "iata": "ABZ",
      "name": "Aberdeen International Airport",
      "updatedAt": "101120Z",
      "visibility_m": 4000,
      "taf_visibility_m": 1500,
      "worst_visibility_m": 1500,
      "ceiling_ft": 900,
      "hazards": [
        "RA"
      ],
      "severityScore": 47,
      "metarRaw": "METAR EGPD 101120Z 19011KT 5000 RA SCT011 BKN020 BKN024 02/01 Q1014 REDZ TEMPO 4000 BKN009",
      "tafRaw": "TAF EGPD 101055Z 1012/1112 17008KT 9999 FEW015 SCT025 \n  TEMPO 1012/1015 4000 -SHRASN BKN008 \n  PROB30 \n  TEMPO 1012/1014 1500 SHRASN BKN004 \n  PROB30 \n  TEMPO 1015/1021 BKN014 \n  TEMPO 1022/1104 18015G25KT \n  BECMG 1104/1106 16020G35KT BKN014 \n  TEMPO 1105/1112 6000 RA BKN006 \n  PROB40 \n  TEMPO 1105/1111 17030G45KT 3000 SNRA +RA BKN004",
      "metarHtml": "METAR EGPD 101120Z 19011KT 5000 <span class=\"hl\">RA</span> SCT011 BKN020 BKN024 02/01 Q1014 REDZ TEMPO 4000 BKN009",
      "tafHtml": "TAF EGPD 101055Z 1012/1112 17008KT 9999 FEW015 SCT025 \n  TEMPO 1012/1015 4000 -SHRASN BKN008 \n  PROB30 \n  TEMPO 1012/1014 1500 SHRASN BKN004 \n  PROB30 \n  TEMPO 1015/1021 BKN014 \n  TEMPO 1022/1104 18015G25KT \n  BECMG 1104/1106 16020G35KT BKN014 \n  TEMPO 1105/1112 6000 <span class=\"hl\">RA</span> BKN006 \n  PROB40 \n  TEMPO 1105/1111 17030G45KT 3000 SNRA +<span class=\"hl\">RA</span> BKN004"
    },
    {
      "icao": "EBCI",
      "iata": "CRL",
      "name": "Brussels South Charleroi Airport",
      "updatedAt": "101120Z",
      "visibility_m": 1600,
      "taf_visibility_m": 2000,
      "worst_visibility_m": 1600,
      "ceiling_ft": 600,
      "hazards": [
        "SN"
      ],
      "severityScore": 43,
      "metarRaw": "METAR EBCI 101120Z 33005KT 300V360 1600 -SN SCT003 BKN006 BKN008 M02/M03 Q1009 BECMG 3500 -SN",
      "tafRaw": "TAF EBCI 101100Z 1012/1118 35008KT 8000 BKN006 \n  PROB40 \n  TEMPO 1012/1018 2000 -SN \n  BECMG 1102/1104 BKN015",
      "metarHtml": "METAR EBCI 101120Z 33005KT 300V360 1600 -<span class=\"hl\">SN</span> SCT003 BKN006 BKN008 M02/M03 Q1009 BECMG 3500 -<span class=\"hl\">SN</span>",
      "tafHtml": "TAF EBCI 101100Z 1012/1118 35008KT 8000 BKN006 \n  PROB40 \n  TEMPO 1012/1018 2000 -<span class=\"hl\">SN</span> \n  BECMG 1102/1104 BKN015"
    },
    {
      "icao": "BKPR",
      "iata": "PRN",
      "name": "Priština Adem Jashari International Airport",
      "updatedAt": "101130Z",
      "visibility_m": 4000,
      "taf_visibility_m": 1000,
      "worst_visibility_m": 1000,
      "ceiling_ft": 4000,
      "hazards": [
        "RA",
        "SN"
      ],
      "severityScore": 40,
      "metarRaw": "METAR BKPR 101130Z 20006KT 7000 -RA FEW015 BKN040 02/02 Q0996 TEMPO 4000 RA",
      "tafRaw": "TAF BKPR 101130Z 1012/1112 17008KT 8000 SCT015 BKN030 \n  TEMPO 1012/1014 4000 RA \n  TEMPO 1014/1016 3000 RASN BKN010 OVC020 \n  BECMG 1014/1016 35012KT \n  TEMPO 1016/1024 1000 SN BKN007 OVC015",
      "metarHtml": "METAR BKPR 101130Z 20006KT 7000 -<span class=\"hl\">RA</span> FEW015 BKN040 02/02 Q0996 TEMPO 4000 <span class=\"hl\">RA</span>",
      "tafHtml": "TAF BKPR 101130Z 1012/1112 17008KT 8000 SCT015 BKN030 \n  TEMPO 1012/1014 4000 <span class=\"hl\">RA</span> \n  TEMPO 1014/1016 3000 RASN BKN010 OVC020 \n  BECMG 1014/1016 35012KT \n  TEMPO 1016/1024 1000 <span class=\"hl\">SN</span> BKN007 OVC015"
    },
    {
      "icao": "EDJA",
      "iata": "FMM",
      "name": "Memmingen Allgau Airport",
      "updatedAt": "101120Z",
      "visibility_m": 4000,
      "taf_visibility_m": 1500,
      "worst_visibility_m": 1500,
      "ceiling_ft": 1700,
      "hazards": [
        "SN"
      ],
      "severityScore": 40,
      "metarRaw": "METAR EDJA 101120Z 25017G29KT 4000 -SN FEW012 BKN017 OVC052 00/M02 Q1003",
      "tafRaw": "TAF EDJA 101100Z 1012/1021 25020G35KT 7000 BKN015 \n  TEMPO 1012/1021 1500 -SN OVC007 \n  BECMG 1014/1016 26010KT OVC012",
      "metarHtml": "METAR EDJA 101120Z 25017G29KT 4000 -<span class=\"hl\">SN</span> FEW012 BKN017 OVC052 00/M02 Q1003",
      "tafHtml": "TAF EDJA 101100Z 1012/1021 25020G35KT 7000 BKN015 \n  TEMPO 1012/1021 1500 -<span class=\"hl\">SN</span> OVC007 \n  BECMG 1014/1016 26010KT OVC012"
    },
    {
      "icao": "EPSY",
      "iata": "SZY",
      "name": "Olsztyn-Mazury Airport",
      "updatedAt": "101130Z",
      "visibility_m": 2100,
      "taf_visibility_m": 2000,
      "worst_visibility_m": 2000,
      "ceiling_ft": 1100,
      "hazards": [
        "SN",
        "BR"
      ],
      "severityScore": 40,
      "metarRaw": "METAR EPSY 101130Z 31005KT 280V340 2100 -SN FEW004 BKN011 M07/M09 Q1002",
      "tafRaw": "TAF EPSY 101130Z 1012/1021 33008KT 9999 BKN025 \n  TEMPO 1012/1021 4000 -SN BKN012 \n  PROB30 \n  TEMPO 1012/1018 2000 SN BR BKN007",
      "metarHtml": "METAR EPSY 101130Z 31005KT 280V340 2100 -<span class=\"hl\">SN</span> FEW004 BKN011 M07/M09 Q1002",
      "tafHtml": "TAF EPSY 101130Z 1012/1021 33008KT 9999 BKN025 \n  TEMPO 1012/1021 4000 -<span class=\"hl\">SN</span> BKN012 \n  PROB30 \n  TEMPO 1012/1018 2000 <span class=\"hl\">SN</span> <span class=\"hl\">BR</span> BKN007"
    },
    {
      "icao": "LKMT",
      "iata": "OSR",
      "name": "Ostrava Leos Janáček Airport",
      "updatedAt": "101130Z",
      "visibility_m": 6000,
      "taf_visibility_m": 4500,
      "worst_visibility_m": 4500,
      "ceiling_ft": 1300,
      "hazards": [
        "SN",
        "BR"
      ],
      "severityScore": 40,
      "metarRaw": "METAR LKMT 101130Z 03010KT 6000 -SN OVC013 M09/M12 Q1005 NOSIG",
      "tafRaw": "TAF LKMT 101100Z 1012/1112 36012KT 6000 -SN OVC013 \n  TEMPO 1012/1013 4500 SN BR BKN015 OVC025 \n  BECMG 1013/1015 8000 BKN040 \n  PROB30 \n  TEMPO 1020/1106 5000 -SN BR BKN018",
      "metarHtml": "METAR LKMT 101130Z 03010KT 6000 -<span class=\"hl\">SN</span> OVC013 M09/M12 Q1005 NOSIG",
      "tafHtml": "TAF LKMT 101100Z 1012/1112 36012KT 6000 -<span class=\"hl\">SN</span> OVC013 \n  TEMPO 1012/1013 4500 <span class=\"hl\">SN</span> <span class=\"hl\">BR</span> BKN015 OVC025 \n  BECMG 1013/1015 8000 BKN040 \n  PROB30 \n  TEMPO 1020/1106 5000 -<span class=\"hl\">SN</span> <span class=\"hl\">BR</span> BKN018"
    },
    {
      "icao": "LWSK",
      "iata": "SKP",
      "name": "Skopje International Airport",
      "updatedAt": "101120Z",
      "visibility_m": 8000,
      "taf_visibility_m": 3000,
      "worst_visibility_m": 3000,
      "ceiling_ft": null,
      "hazards": [
        "BR",
        "SN",
        "RA"
      ],
      "severityScore": 40,
      "metarRaw": "METAR LWSK 101120Z VRB02KT 8000 FEW025 SCT046 03/M00 Q0998 NOSIG",
      "tafRaw": "TAF LWSK 101125Z 1012/1112 VRB02KT 9999 FEW030 SCT045 \n  TEMPO 1012/1014 5000 -RA BR SCT015 BKN035 \n  PROB40 \n  TEMPO 1022/1104 3000 -SN BKN015 OVC030 \n  BECMG 1022/1024 34012KT",
      "metarHtml": "METAR LWSK 101120Z VRB02KT 8000 FEW025 SCT046 03/M00 Q0998 NOSIG",
      "tafHtml": "TAF LWSK 101125Z 1012/1112 VRB02KT 9999 FEW030 SCT045 \n  TEMPO 1012/1014 5000 -<span class=\"hl\">RA</span> <span class=\"hl\">BR</span> SCT015 BKN035 \n  PROB40 \n  TEMPO 1022/1104 3000 -<span class=\"hl\">SN</span> BKN015 OVC030 \n  BECMG 1022/1024 34012KT"
    },
    {
      "icao": "LICJ",
      "iata": "PMO",
      "name": "Falcone–Borsellino Airport",
      "updatedAt": "101120Z",
      "visibility_m": 10000,
      "taf_visibility_m": 4000,
      "worst_visibility_m": 4000,
      "ceiling_ft": null,
      "hazards": [
        "TSRA",
        "SHRA"
      ],
      "severityScore": 39,
      "metarRaw": "METAR LICJ 101120Z 27030KT 9999 SCT040 14/06 Q1009",
      "tafRaw": "TAF LICJ 101100Z 1012/1112 29030G40KT 9999 SCT030 \n  TEMPO 1015/1024 4000 TSRA \n  TEMPO 1100/1109 SHRA \n  BECMG 1100/1102 30020G30KT \n  BECMG 1107/1109 35018KT",
      "metarHtml": "METAR LICJ 101120Z 27030KT 9999 SCT040 14/06 Q1009",
      "tafHtml": "TAF LICJ 101100Z 1012/1112 29030G40KT 9999 SCT030 \n  TEMPO 1015/1024 4000 <span class=\"hl\">TSRA</span> \n  TEMPO 1100/1109 <span class=\"hl\">SHRA</span> \n  BECMG 1100/1102 30020G30KT \n  BECMG 1107/1109 35018KT"
    },
    {
      "icao": "LTFM",
      "iata": "IST",
      "name": "İstanbul Airport",
      "updatedAt": "101120Z",
      "visibility_m": 10000,
      "taf_visibility_m": 4000,
      "worst_visibility_m": 4000,
      "ceiling_ft": 9000,
      "hazards": [
        "TSRA",
        "SHRA"
      ],
      "severityScore": 39,
      "metarRaw": "METAR LTFM 101120Z 21024KT 9999 SCT035 BKN090 14/09 Q0999 NOSIG RMK RWY17L 21019KT RWY34L 20020KT RWY16R 20018KT RWY36 21020G32KT RWY18 21023KT",
      "tafRaw": "TAF LTFM 101040Z 1012/1118 21020G35KT 9999 -SHRA SCT035 BKN090 \n  TEMPO 1012/1014 4000 SHRA FEW020CB BKN025 \n  TEMPO 1014/1018 21028G45KT 4000 TSRA FEW018CB BKN022 \n  BECMG 1020/1023 21015G25KT \n  PROB40 \n  TEMPO 1103/1106 30016G26KT -TSRA SCT010 FEW018CB BKN022 \n  BECMG 1106/1108 34015G25KT BKN008 BKN020 \n  PROB30 \n  TEMPO 1108/1111 -SHSNRA \n  TEMPO 1115/1118 -SHSNRA",
      "metarHtml": "METAR LTFM 101120Z 21024KT 9999 SCT035 BKN090 14/09 Q0999 NOSIG RMK RWY17L 21019KT RWY34L 20020KT RWY16R 20018KT RWY36 21020G32KT RWY18 21023KT",
      "tafHtml": "TAF LTFM 101040Z 1012/1118 21020G35KT 9999 -<span class=\"hl\">SHRA</span> SCT035 BKN090 \n  TEMPO 1012/1014 4000 <span class=\"hl\">SHRA</span> FEW020CB BKN025 \n  TEMPO 1014/1018 21028G45KT 4000 <span class=\"hl\">TSRA</span> FEW018CB BKN022 \n  BECMG 1020/1023 21015G25KT \n  PROB40 \n  TEMPO 1103/1106 30016G26KT -<span class=\"hl\">TSRA</span> SCT010 FEW018CB BKN022 \n  BECMG 1106/1108 34015G25KT BKN008 BKN020 \n  PROB30 \n  TEMPO 1108/1111 -SHSNRA \n  TEMPO 1115/1118 -SHSNRA"
    },
    {
      "icao": "EDDS",
      "iata": "STR",
      "name": "Stuttgart Airport",
      "updatedAt": "101120Z",
      "visibility_m": 10000,
      "taf_visibility_m": 1200,
      "worst_visibility_m": 1200,
      "ceiling_ft": 3000,
      "hazards": [
        "DZ",
        "SN"
      ],
      "severityScore": 38,
      "metarRaw": "METAR EDDS 101120Z AUTO 23007KT 170V270 9999 -DZ SCT015 BKN030 02/M00 Q1003",
      "tafRaw": "TAF EDDS 101100Z 1012/1112 26007KT 9999 SCT014 BKN030 \n  TEMPO 1012/1103 2000 -SN BKN005 \n  PROB40 \n  TEMPO 1012/1015 1200 SN \n  BECMG 1018/1021 33008KT \n  TEMPO 1103/1112 BKN005 \n  BECMG 1105/1108 05003KT",
      "metarHtml": "METAR EDDS 101120Z AUTO 23007KT 170V270 9999 -<span class=\"hl\">DZ</span> SCT015 BKN030 02/M00 Q1003",
      "tafHtml": "TAF EDDS 101100Z 1012/1112 26007KT 9999 SCT014 BKN030 \n  TEMPO 1012/1103 2000 -<span class=\"hl\">SN</span> BKN005 \n  PROB40 \n  TEMPO 1012/1015 1200 <span class=\"hl\">SN</span> \n  BECMG 1018/1021 33008KT \n  TEMPO 1103/1112 BKN005 \n  BECMG 1105/1108 05003KT"
    },
    {
      "icao": "EPKK",
      "iata": "KRK",
      "name": "Kraków John Paul II International Airport",
      "updatedAt": "101130Z",
      "visibility_m": 10000,
      "taf_visibility_m": 1400,
      "worst_visibility_m": 1400,
      "ceiling_ft": null,
      "hazards": [
        "BR",
        "SN"
      ],
      "severityScore": 38,
      "metarRaw": "METAR EPKK 101130Z 21007KT 9999 SCT017 M09/M13 Q1004",
      "tafRaw": "TAF EPKK 101130Z 1012/1112 25005KT 9999 SCT020 \n  BECMG 1021/1024 27015KT 2500 -SN BR BKN007 \n  TEMPO 1100/1112 1400 SN DRSN BKN004",
      "metarHtml": "METAR EPKK 101130Z 21007KT 9999 SCT017 M09/M13 Q1004",
      "tafHtml": "TAF EPKK 101130Z 1012/1112 25005KT 9999 SCT020 \n  BECMG 1021/1024 27015KT 2500 -<span class=\"hl\">SN</span> <span class=\"hl\">BR</span> BKN007 \n  TEMPO 1100/1112 1400 <span class=\"hl\">SN</span> DRSN BKN004"
    },
    {
      "icao": "EPKT",
      "iata": "KTW",
      "name": "Katowice Wojciech Korfanty International Airport",
      "updatedAt": "101130Z",
      "visibility_m": 10000,
      "taf_visibility_m": 1200,
      "worst_visibility_m": 1200,
      "ceiling_ft": null,
      "hazards": [
        "BR",
        "SN"
      ],
      "severityScore": 38,
      "metarRaw": "METAR EPKT 101130Z 32005KT 290V350 9999 FEW018 M08/M13 Q1004",
      "tafRaw": "TAF EPKT 101130Z 1012/1112 34005KT 9999 SCT030 \n  BECMG 1017/1020 28010KT 2000 -SN BR BKN005 \n  TEMPO 1020/1024 1400 SN BR BKN003 \n  TEMPO 1100/1112 28015G25KT 1200 SN DRSN BKN003",
      "metarHtml": "METAR EPKT 101130Z 32005KT 290V350 9999 FEW018 M08/M13 Q1004",
      "tafHtml": "TAF EPKT 101130Z 1012/1112 34005KT 9999 SCT030 \n  BECMG 1017/1020 28010KT 2000 -<span class=\"hl\">SN</span> <span class=\"hl\">BR</span> BKN005 \n  TEMPO 1020/1024 1400 <span class=\"hl\">SN</span> <span class=\"hl\">BR</span> BKN003 \n  TEMPO 1100/1112 28015G25KT 1200 <span class=\"hl\">SN</span> DRSN BKN003"
    },
    {
      "icao": "EPPO",
      "iata": "POZ",
      "name": "Poznań-Ławica Airport",
      "updatedAt": "101130Z",
      "visibility_m": 10000,
      "taf_visibility_m": 1400,
      "worst_visibility_m": 1400,
      "ceiling_ft": 3200,
      "hazards": [
        "SN",
        "SHSN"
      ],
      "severityScore": 38,
      "metarRaw": "METAR EPPO 101130Z 28009KT 9999 FEW026 BKN032 M06/M11 Q1008",
      "tafRaw": "TAF EPPO 101130Z 1012/1112 33010KT 9999 BKN035 \n  TEMPO 1016/1021 -SN BKN013 \n  TEMPO 1021/1024 33015G25KT 3000 -SHSN BKN013CB \n  TEMPO 1100/1112 33020G35KT 1400 SHSN DRSN BKN006 BKN013CB",
      "metarHtml": "METAR EPPO 101130Z 28009KT 9999 FEW026 BKN032 M06/M11 Q1008",
      "tafHtml": "TAF EPPO 101130Z 1012/1112 33010KT 9999 BKN035 \n  TEMPO 1016/1021 -<span class=\"hl\">SN</span> BKN013 \n  TEMPO 1021/1024 33015G25KT 3000 -<span class=\"hl\">SHSN</span> BKN013CB \n  TEMPO 1100/1112 33020G35KT 1400 <span class=\"hl\">SHSN</span> DRSN BKN006 BKN013CB"
    },
    {
      "icao": "EPWR",
      "iata": "WRO",
      "name": "Copernicus Wrocław Airport",
      "updatedAt": "101130Z",
      "visibility_m": 10000,
      "taf_visibility_m": 1400,
      "worst_visibility_m": 1400,
      "ceiling_ft": null,
      "hazards": [
        "BR",
        "SN"
      ],
      "severityScore": 38,
      "metarRaw": "METAR EPWR 101130Z 31009KT CAVOK M07/M12 Q1008",
      "tafRaw": "TAF EPWR 101130Z 1012/1112 34007KT CAVOK \n  BECMG 1017/1019 BKN012 \n  TEMPO 1019/1021 -SN BKN006 BKN012 \n  BECMG 1021/1024 30015G25KT 3000 -SN BR BKN006 BKN012 \n  TEMPO 1103/1112 31020G35KT 1400 SN DRSN BKN004",
      "metarHtml": "METAR EPWR 101130Z 31009KT <span class=\"hl-vis\">CAVOK</span> M07/M12 Q1008",
      "tafHtml": "TAF EPWR 101130Z 1012/1112 34007KT <span class=\"hl-vis\">CAVOK</span> \n  BECMG 1017/1019 BKN012 \n  TEMPO 1019/1021 -<span class=\"hl\">SN</span> BKN006 BKN012 \n  BECMG 1021/1024 30015G25KT 3000 -<span class=\"hl\">SN</span> <span class=\"hl\">BR</span> BKN006 BKN012 \n  TEMPO 1103/1112 31020G35KT 1400 <span class=\"hl\">SN</span> DRSN BKN004"
    },
    {
      "icao": "LBWN",
      "iata": "VAR",
      "name": "Varna Airport",
      "updatedAt": "101130Z",
      "visibility_m": 10000,
      "taf_visibility_m": 2000,
      "worst_visibility_m": 2000,
      "ceiling_ft": 4500,
      "hazards": [
        "TSRA",
        "RA"
      ],
      "severityScore": 37,
      "metarRaw": "METAR LBWN 101130Z 15003KT 120V180 9999 BKN045 08/04 Q0998 NOSIG",
      "tafRaw": "TAF LBWN 101100Z 1012/1112 06008KT 9999 BKN040 \n  TEMPO 1012/1023 5000 RA BKN015 OVC040 \n  PROB30 1016/1021 4000 TSRA FEW030CB BKN040 \n  BECMG 1021/1023 34015G28KT \n  TEMPO 1101/1107 2000 SNRA BKN005 OVC020",
      "metarHtml": "METAR LBWN 101130Z 15003KT 120V180 9999 BKN045 08/04 Q0998 NOSIG",
      "tafHtml": "TAF LBWN 101100Z 1012/1112 06008KT 9999 BKN040 \n  TEMPO 1012/1023 5000 <span class=\"hl\">RA</span> BKN015 OVC040 \n  PROB30 1016/1021 4000 <span class=\"hl\">TSRA</span> FEW030CB BKN040 \n  BECMG 1021/1023 34015G28KT \n  TEMPO 1101/1107 2000 SNRA BKN005 OVC020"
    },
    {
      "icao": "LIRN",
      "iata": "NAP",
      "name": "Naples International Airport",
      "updatedAt": "101120Z",
      "visibility_m": 5000,
      "taf_visibility_m": 4000,
      "worst_visibility_m": 4000,
      "ceiling_ft": 5000,
      "hazards": [
        "RA",
        "TSRA"
      ],
      "severityScore": 37,
      "metarRaw": "METAR LIRN 101120Z 23007G19KT 160V290 5000 RA SCT020 BKN050 09/05 Q1000 NOSIG",
      "tafRaw": "TAF LIRN 101100Z 1012/1112 34016KT 9999 SCT030 \n  PROB40 \n  TEMPO 1012/1014 4000 TSRA \n  BECMG 1018/1020 VRB05KT \n  BECMG 1104/1106 05010KT",
      "metarHtml": "METAR LIRN 101120Z 23007G19KT 160V290 5000 <span class=\"hl\">RA</span> SCT020 BKN050 09/05 Q1000 NOSIG",
      "tafHtml": "TAF LIRN 101100Z 1012/1112 34016KT 9999 SCT030 \n  PROB40 \n  TEMPO 1012/1014 4000 <span class=\"hl\">TSRA</span> \n  BECMG 1018/1020 VRB05KT \n  BECMG 1104/1106 05010KT"
    },
    {
      "icao": "LICA",
      "iata": "SUF",
      "name": "Lamezia Terme Sant'Eufemia International Airport",
      "updatedAt": "101120Z",
      "visibility_m": 2200,
      "taf_visibility_m": 4000,
      "worst_visibility_m": 2200,
      "ceiling_ft": null,
      "hazards": [
        "BR",
        "TSRA"
      ],
      "severityScore": 35,
      "metarRaw": "METAR LICA 101120Z AUTO 26035G49KT 230V290 2200 TSRA BR BKN034/// 08/06 Q1004",
      "tafRaw": "TAF LICA 101100Z 1012/1112 25025G37KT 9999 SCT020 \n  TEMPO 1012/1021 4000 TSRA \n  BECMG 1017/1019 26018KT \n  BECMG 1103/1105 VRB05KT",
      "metarHtml": "METAR LICA 101120Z AUTO 26035G49KT 230V290 2200 <span class=\"hl\">TSRA</span> <span class=\"hl\">BR</span> BKN034/// 08/06 Q1004",
      "tafHtml": "TAF LICA 101100Z 1012/1112 25025G37KT 9999 SCT020 \n  TEMPO 1012/1021 4000 <span class=\"hl\">TSRA</span> \n  BECMG 1017/1019 26018KT \n  BECMG 1103/1105 VRB05KT"
    },
    {
      "icao": "EGKK",
      "iata": "LGW",
      "name": "London Gatwick Airport",
      "updatedAt": "101120Z",
      "visibility_m": 10000,
      "taf_visibility_m": 3000,
      "worst_visibility_m": 3000,
      "ceiling_ft": 1100,
      "hazards": [
        "BR",
        "RA"
      ],
      "severityScore": 34,
      "metarRaw": "METAR EGKK 101120Z 32010KT 9999 BKN011 02/M00 Q1016",
      "tafRaw": "TAF EGKK 101054Z 1012/1118 33010KT 9999 SCT015 \n  PROB30 \n  TEMPO 1012/1013 BKN011 \n  BECMG 1015/1018 VRB03KT \n  TEMPO 1018/1105 7000 \n  PROB40 1021/1103 4000 BR \n  BECMG 1105/1108 15010KT \n  PROB30 \n  TEMPO 1108/1112 9000 -RA \n  PROB30 \n  TEMPO 1110/1114 16015G25KT \n  BECMG 1111/1114 BKN012 \n  TEMPO 1112/1118 6000 -RADZ BKN006 \n  TEMPO 1114/1118 17017G29KT \n  PROB40 \n  TEMPO 1114/1118 3000 RADZ",
      "metarHtml": "METAR EGKK 101120Z 32010KT 9999 BKN011 02/M00 Q1016",
      "tafHtml": "TAF EGKK 101054Z 1012/1118 33010KT 9999 SCT015 \n  PROB30 \n  TEMPO 1012/1013 BKN011 \n  BECMG 1015/1018 VRB03KT \n  TEMPO 1018/1105 7000 \n  PROB40 1021/1103 4000 <span class=\"hl\">BR</span> \n  BECMG 1105/1108 15010KT \n  PROB30 \n  TEMPO 1108/1112 9000 -<span class=\"hl\">RA</span> \n  PROB30 \n  TEMPO 1110/1114 16015G25KT \n  BECMG 1111/1114 BKN012 \n  TEMPO 1112/1118 6000 -RADZ BKN006 \n  TEMPO 1114/1118 17017G29KT \n  PROB40 \n  TEMPO 1114/1118 3000 RADZ"
    },
    {
      "icao": "EGPF",
      "iata": "GLA",
      "name": "Glasgow Airport",
      "updatedAt": "101120Z",
      "visibility_m": 8000,
      "taf_visibility_m": 3000,
      "worst_visibility_m": 3000,
      "ceiling_ft": 1900,
      "hazards": [
        "BR",
        "RA"
      ],
      "severityScore": 34,
      "metarRaw": "METAR EGPF 101120Z AUTO 09005KT 020V120 8000 SCT015 BKN019 OVC034 03/02 Q1015",
      "tafRaw": "TAF EGPF 101104Z 1012/1112 VRB04KT 9999 FEW015 SCT030 \n  PROB30 \n  TEMPO 1012/1018 3000 SHRASN BR BKN008 \n  PROB30 \n  TEMPO 1018/1023 BKN014 \n  BECMG 1022/1101 14013KT \n  PROB30 \n  TEMPO 1023/1103 6000 RA -RASN BKN014 \n  TEMPO 1103/1112 16020G30KT 6000 RA -RADZ BKN010 \n  PROB30 \n  TEMPO 1103/1112 3000 +RA RADZ BKN006",
      "metarHtml": "METAR EGPF 101120Z AUTO 09005KT 020V120 8000 SCT015 BKN019 OVC034 03/02 Q1015",
      "tafHtml": "TAF EGPF 101104Z 1012/1112 VRB04KT 9999 FEW015 SCT030 \n  PROB30 \n  TEMPO 1012/1018 3000 SHRASN <span class=\"hl\">BR</span> BKN008 \n  PROB30 \n  TEMPO 1018/1023 BKN014 \n  BECMG 1022/1101 14013KT \n  PROB30 \n  TEMPO 1023/1103 6000 <span class=\"hl\">RA</span> -RASN BKN014 \n  TEMPO 1103/1112 16020G30KT 6000 <span class=\"hl\">RA</span> -RADZ BKN010 \n  PROB30 \n  TEMPO 1103/1112 3000 +<span class=\"hl\">RA</span> RADZ BKN006"
    },
    {
      "icao": "EHEH",
      "iata": "EIN",
      "name": "Eindhoven Airport",
      "updatedAt": "101125Z",
      "visibility_m": 3500,
      "taf_visibility_m": 3500,
      "worst_visibility_m": 3500,
      "ceiling_ft": 1200,
      "hazards": [
        "SN"
      ],
      "severityScore": 30,
      "metarRaw": "METAR EHEH 101125Z AUTO 02010KT 350V050 9999 BKN013 OVC015 M03/M05 Q1010 GRN TEMPO 3500 SCT008 BKN012 RMK TREND REMOTE BY EHWX",
      "tafRaw": "TAF EHEH 100525Z 1006/1112 02009KT 8000 -SN BKN012 \n  TEMPO 1003/1010 3500 -SN SCT006 BKN009 \n  BECMG 1010/1013 9999 NSW BKN025 \n  BECMG 1021/1023 12006KT",
      "metarHtml": "METAR EHEH 101125Z AUTO 02010KT 350V050 9999 BKN013 OVC015 M03/M05 Q1010 GRN TEMPO 3500 SCT008 BKN012 RMK TREND REMOTE BY EHWX",
      "tafHtml": "TAF EHEH 100525Z 1006/1112 02009KT 8000 -<span class=\"hl\">SN</span> BKN012 \n  TEMPO 1003/1010 3500 -<span class=\"hl\">SN</span> SCT006 BKN009 \n  BECMG 1010/1013 9999 NSW BKN025 \n  BECMG 1021/1023 12006KT"
    },
    {
      "icao": "EPRA",
      "iata": "RDO",
      "name": "Warsaw Radom Airport",
      "updatedAt": "101130Z",
      "visibility_m": 10000,
      "taf_visibility_m": 3000,
      "worst_visibility_m": 3000,
      "ceiling_ft": 1200,
      "hazards": [
        "SN"
      ],
      "severityScore": 30,
      "metarRaw": "METAR EPRA 101130Z 29008KT 260V330 9999 -SN BKN012 M11/M13 Q1003",
      "tafRaw": "TAF EPRA 101130Z 1012/1021 28008KT 9999 SCT010 BKN020 \n  BECMG 1012/1014 6000 -SN BKN014 \n  PROB40 \n  TEMPO 1014/1021 3000 SN OVC008",
      "metarHtml": "METAR EPRA 101130Z 29008KT 260V330 9999 -<span class=\"hl\">SN</span> BKN012 M11/M13 Q1003",
      "tafHtml": "TAF EPRA 101130Z 1012/1021 28008KT 9999 SCT010 BKN020 \n  BECMG 1012/1014 6000 -<span class=\"hl\">SN</span> BKN014 \n  PROB40 \n  TEMPO 1014/1021 3000 <span class=\"hl\">SN</span> OVC008"
    },
    {
      "icao": "LWOH",
      "iata": "OHD",
      "name": "Ohrid St. Paul the Apostle Airport",
      "updatedAt": "101120Z",
      "visibility_m": 10000,
      "taf_visibility_m": 3000,
      "worst_visibility_m": 3000,
      "ceiling_ft": 3500,
      "hazards": [
        "RA",
        "SN"
      ],
      "severityScore": 30,
      "metarRaw": "METAR LWOH 101120Z 15013KT 9999 -RA SCT010 OVC035 06/04 Q0997",
      "tafRaw": "TAF LWOH 101125Z 1012/1112 15015KT 9999 -RA SCT010 OVC035 \n  TEMPO 1012/1016 22020KT RA \n  BECMG 1021/1023 VRB02KT 3000 -SN SCT005 OVC020",
      "metarHtml": "METAR LWOH 101120Z 15013KT 9999 -<span class=\"hl\">RA</span> SCT010 OVC035 06/04 Q0997",
      "tafHtml": "TAF LWOH 101125Z 1012/1112 15015KT 9999 -<span class=\"hl\">RA</span> SCT010 OVC035 \n  TEMPO 1012/1016 22020KT <span class=\"hl\">RA</span> \n  BECMG 1021/1023 VRB02KT 3000 -<span class=\"hl\">SN</span> SCT005 OVC020"
    },
    {
      "icao": "EYKA",
      "iata": "KUN",
      "name": "Kaunas International Airport",
      "updatedAt": "101120Z",
      "visibility_m": 9000,
      "taf_visibility_m": 1500,
      "worst_visibility_m": 1500,
      "ceiling_ft": 4700,
      "hazards": [
        "SN"
      ],
      "severityScore": 28,
      "metarRaw": "METAR EYKA 101120Z 36006KT 320V040 9000 -SN SCT016 OVC047 M09/M12 Q1000",
      "tafRaw": "TAF EYKA 101100Z 1012/1112 VRB04KT 5000 SN SCT010 BKN015 \n  TEMPO 1012/1016 35010KT 3000 FEW005 SCT015 \n  PROB40 \n  TEMPO 1012/1016 1500 BKN010 \n  BECMG 1016/1019 8000 NSW NSC \n  BECMG 1023/1024 SCT010 \n  TEMPO 1102/1109 5000 SN SCT005 \n  PROB40 \n  TEMPO 1102/1109 BKN005 \n  BECMG 1109/1112 33010KT SCT015",
      "metarHtml": "METAR EYKA 101120Z 36006KT 320V040 9000 -<span class=\"hl\">SN</span> SCT016 OVC047 M09/M12 Q1000",
      "tafHtml": "TAF EYKA 101100Z 1012/1112 VRB04KT 5000 <span class=\"hl\">SN</span> SCT010 BKN015 \n  TEMPO 1012/1016 35010KT 3000 FEW005 SCT015 \n  PROB40 \n  TEMPO 1012/1016 1500 BKN010 \n  BECMG 1016/1019 8000 NSW NSC \n  BECMG 1023/1024 SCT010 \n  TEMPO 1102/1109 5000 <span class=\"hl\">SN</span> SCT005 \n  PROB40 \n  TEMPO 1102/1109 BKN005 \n  BECMG 1109/1112 33010KT SCT015"
    },
    {
      "icao": "LRBS",
      "iata": "BBU",
      "name": "Bucharest Băneasa Aurel Vlaicu International Airport",
      "updatedAt": "101130Z",
      "visibility_m": 10000,
      "taf_visibility_m": 1500,
      "worst_visibility_m": 1500,
      "ceiling_ft": null,
      "hazards": [
        "SN"
      ],
      "severityScore": 28,
      "metarRaw": "METAR LRBS 101130Z VRB02KT 9999 FEW018 04/00 Q0998 NOSIG",
      "tafRaw": "TAF LRBS 101100Z 1012/1112 VRB04KT 9999 BKN020 \n  BECMG 1013/1015 06014KT \n  BECMG 1018/1020 5000 -SN BKN010 OVC020 \n  BECMG 1022/1024 3000 SN BKN005 OVC015 \n  TEMPO 1100/1106 1500 SN BKN002 OVC015 \n  BECMG 1107/1109 VRB04KT 9999 -SN BKN010 OVC020",
      "metarHtml": "METAR LRBS 101130Z VRB02KT 9999 FEW018 04/00 Q0998 NOSIG",
      "tafHtml": "TAF LRBS 101100Z 1012/1112 VRB04KT 9999 BKN020 \n  BECMG 1013/1015 06014KT \n  BECMG 1018/1020 5000 -<span class=\"hl\">SN</span> BKN010 OVC020 \n  BECMG 1022/1024 3000 <span class=\"hl\">SN</span> BKN005 OVC015 \n  TEMPO 1100/1106 1500 <span class=\"hl\">SN</span> BKN002 OVC015 \n  BECMG 1107/1109 VRB04KT 9999 -<span class=\"hl\">SN</span> BKN010 OVC020"
    },
    {
      "icao": "LROP",
      "iata": "OTP",
      "name": "Bucharest Henri Coandă International Airport",
      "updatedAt": "101130Z",
      "visibility_m": 10000,
      "taf_visibility_m": 1500,
      "worst_visibility_m": 1500,
      "ceiling_ft": null,
      "hazards": [
        "SN"
      ],
      "severityScore": 28,
      "metarRaw": "METAR LROP 101130Z 27003KT 240V340 9999 FEW015 04/M01 Q0998 NOSIG",
      "tafRaw": "TAF LROP 101100Z 1012/1112 VRB04KT 9999 BKN020 \n  BECMG 1013/1015 06014KT \n  BECMG 1018/1020 5000 -SN BKN010 OVC020 \n  BECMG 1022/1024 3000 SN BKN005 OVC015 \n  TEMPO 1100/1106 1500 SN BKN002 OVC015 \n  BECMG 1107/1109 VRB04KT 9999 -SN BKN010 OVC020",
      "metarHtml": "METAR LROP 101130Z 27003KT 240V340 9999 FEW015 04/M01 Q0998 NOSIG",
      "tafHtml": "TAF LROP 101100Z 1012/1112 VRB04KT 9999 BKN020 \n  BECMG 1013/1015 06014KT \n  BECMG 1018/1020 5000 -<span class=\"hl\">SN</span> BKN010 OVC020 \n  BECMG 1022/1024 3000 <span class=\"hl\">SN</span> BKN005 OVC015 \n  TEMPO 1100/1106 1500 <span class=\"hl\">SN</span> BKN002 OVC015 \n  BECMG 1107/1109 VRB04KT 9999 -<span class=\"hl\">SN</span> BKN010 OVC020"
    },
    {
      "icao": "LEBB",
      "iata": "BIO",
      "name": "Bilbao Airport",
      "updatedAt": "101130Z",
      "visibility_m": 10000,
      "taf_visibility_m": 3000,
      "worst_visibility_m": 3000,
      "ceiling_ft": 5000,
      "hazards": [
        "SHRA",
        "RA"
      ],
      "severityScore": 26,
      "metarRaw": "METAR LEBB 101130Z 27007KT 200V300 9999 FEW020TCU SCT025 BKN050 09/07 Q1026 RESHRA TEMPO SHRA",
      "tafRaw": "TAF LEBB 101100Z 1012/1112 27010KT 9999 FEW020 BKN040 TX13/1112Z TN04/1105Z \n  TEMPO 1012/1020 3000 SHRA FEW020TCU \n  BECMG 1018/1020 20005KT \n  PROB30 \n  TEMPO 1107/1110 RA",
      "metarHtml": "METAR LEBB 101130Z 27007KT 200V300 9999 FEW020TCU SCT025 BKN050 09/07 Q1026 RESHRA TEMPO <span class=\"hl\">SHRA</span>",
      "tafHtml": "TAF LEBB 101100Z 1012/1112 27010KT 9999 FEW020 BKN040 TX13/1112Z TN04/1105Z \n  TEMPO 1012/1020 3000 <span class=\"hl\">SHRA</span> FEW020TCU \n  BECMG 1018/1020 20005KT \n  PROB30 \n  TEMPO 1107/1110 <span class=\"hl\">RA</span>"
    },
    {
      "icao": "LEXJ",
      "iata": "SDR",
      "name": "Seve Ballesteros-Santander Airport",
      "updatedAt": "101130Z",
      "visibility_m": 10000,
      "taf_visibility_m": 3000,
      "worst_visibility_m": 3000,
      "ceiling_ft": 3000,
      "hazards": [
        "RA",
        "SHRA"
      ],
      "severityScore": 26,
      "metarRaw": "METAR LEXJ 101130Z 29015KT 9999 BKN030 BKN060 11/06 Q1026",
      "tafRaw": "TAF LEXJ 100800Z 1009/1109 27011KT 9999 BKN035 TX12/1015Z TN07/1101Z \n  TEMPO 1009/1015 28017G27KT \n  PROB40 \n  TEMPO 1009/1017 3000 SHRA SCT025TCU \n  BECMG 1019/1021 20009KT \n  PROB30 \n  TEMPO 1105/1109 RA",
      "metarHtml": "METAR LEXJ 101130Z 29015KT 9999 BKN030 BKN060 11/06 Q1026",
      "tafHtml": "TAF LEXJ 100800Z 1009/1109 27011KT 9999 BKN035 TX12/1015Z TN07/1101Z \n  TEMPO 1009/1015 28017G27KT \n  PROB40 \n  TEMPO 1009/1017 3000 <span class=\"hl\">SHRA</span> SCT025TCU \n  BECMG 1019/1021 20009KT \n  PROB30 \n  TEMPO 1105/1109 <span class=\"hl\">RA</span>"
    },
    {
      "icao": "LIBP",
      "iata": "PSR",
      "name": "Abruzzo Airport",
      "updatedAt": "101120Z",
      "visibility_m": 10000,
      "taf_visibility_m": 10000,
      "worst_visibility_m": 10000,
      "ceiling_ft": null,
      "hazards": [
        "RA",
        "SHRA"
      ],
      "severityScore": 26,
      "metarRaw": "METAR LIBP 101120Z AUTO 32005KT 280V360 9999 -RA OVC022/// 08/05 Q1000",
      "tafRaw": "TAF LIBP 101100Z 1012/1112 33012KT 9999 SCT040 \n  PROB40 \n  TEMPO 1012/1015 33015G25KT \n  BECMG 1020/1022 25005KT \n  TEMPO 1103/1112 SHRA \n  BECMG 1110/1112 33013KT",
      "metarHtml": "METAR LIBP 101120Z AUTO 32005KT 280V360 9999 -<span class=\"hl\">RA</span> OVC022/// 08/05 Q1000",
      "tafHtml": "TAF LIBP 101100Z 1012/1112 33012KT 9999 SCT040 \n  PROB40 \n  TEMPO 1012/1015 33015G25KT \n  BECMG 1020/1022 25005KT \n  TEMPO 1103/1112 <span class=\"hl\">SHRA</span> \n  BECMG 1110/1112 33013KT"
    },
    {
      "icao": "EHBK",
      "iata": "MST",
      "name": "Maastricht Aachen Airport",
      "updatedAt": "101125Z",
      "visibility_m": 7000,
      "taf_visibility_m": 10000,
      "worst_visibility_m": 7000,
      "ceiling_ft": 600,
      "hazards": [],
      "severityScore": 25,
      "metarRaw": "METAR EHBK 101125Z AUTO 35007KT 300V030 7000 BKN006 OVC008 M03/M04 Q1008 TEMPO 8000",
      "tafRaw": "TAF EHBK 101119Z 1012/1118 35007KT 9999 BKN012 \n  PROB30 \n  TEMPO 1012/1014 BKN008 \n  BECMG 1023/1102 VRB02KT BKN018 \n  BECMG 1115/1118 18007KT",
      "metarHtml": "METAR EHBK 101125Z AUTO 35007KT 300V030 7000 BKN006 OVC008 M03/M04 Q1008 TEMPO 8000",
      "tafHtml": "TAF EHBK 101119Z 1012/1118 35007KT 9999 BKN012 \n  PROB30 \n  TEMPO 1012/1014 BKN008 \n  BECMG 1023/1102 VRB02KT BKN018 \n  BECMG 1115/1118 18007KT"
    },
    {
      "icao": "LFBD",
      "iata": "BOD",
      "name": "Bordeaux–Mérignac Airport",
      "updatedAt": "101130Z",
      "visibility_m": 2000,
      "taf_visibility_m": 2000,
      "worst_visibility_m": 2000,
      "ceiling_ft": null,
      "hazards": [
        "SHRA",
        "BR"
      ],
      "severityScore": 24,
      "metarRaw": "METAR LFBD 101130Z AUTO 30006KT 270V340 9999 FEW033/// BKN044/// BKN058/// ///TCU 11/08 Q1021 TEMPO VRB15G30KT 2000 SHRA BKN025CB",
      "tafRaw": "TAF LFBD 100500Z 1006/1112 30005KT 9999 SCT030 TX09/1013Z TN02/1022Z \n  TEMPO 1006/1018 4000 SHRA BKN030TCU \n  PROB40 \n  TEMPO 1009/1018 VRB15G30KT 2000 SHRA BKN025CB \n  BECMG 1018/1020 VRB02KT \n  PROB40 \n  TEMPO 1100/1105 4000 BR \n  BECMG 1105/1107 14005KT \n  TEMPO 1107/1112 4000 BR BKN002",
      "metarHtml": "METAR LFBD 101130Z AUTO 30006KT 270V340 9999 FEW033/// BKN044/// BKN058/// ///TCU 11/08 Q1021 TEMPO VRB15G30KT 2000 <span class=\"hl\">SHRA</span> BKN025CB",
      "tafHtml": "TAF LFBD 100500Z 1006/1112 30005KT 9999 SCT030 TX09/1013Z TN02/1022Z \n  TEMPO 1006/1018 4000 <span class=\"hl\">SHRA</span> BKN030TCU \n  PROB40 \n  TEMPO 1009/1018 VRB15G30KT 2000 <span class=\"hl\">SHRA</span> BKN025CB \n  BECMG 1018/1020 VRB02KT \n  PROB40 \n  TEMPO 1100/1105 4000 <span class=\"hl\">BR</span> \n  BECMG 1105/1107 14005KT \n  TEMPO 1107/1112 4000 <span class=\"hl\">BR</span> BKN002"
    },
    {
      "icao": "LFLL",
      "iata": "LYS",
      "name": "Lyon Saint-Exupéry Airport",
      "updatedAt": "101130Z",
      "visibility_m": 10000,
      "taf_visibility_m": 4000,
      "worst_visibility_m": 4000,
      "ceiling_ft": 5300,
      "hazards": [
        "SHRA",
        "SHSN"
      ],
      "severityScore": 24,
      "metarRaw": "METAR LFLL 101130Z 33006KT 300V010 9999 SCT035 BKN053 BKN200 06/M00 Q1014 NOSIG",
      "tafRaw": "TAF LFLL 101100Z 1012/1118 31010KT 9999 BKN035 \n  PROB30 \n  TEMPO 1012/1017 -SHRA FEW025TCU BKN030 \n  PROB40 \n  TEMPO 1017/1021 -SHSNRA BKN014 SCT018TCU BKN020 \n  PROB30 \n  TEMPO 1018/1023 4000 -SHSN BKN012 \n  BECMG 1104/1106 BKN012 \n  PROB40 \n  TEMPO 1107/1110 BKN008 \n  BECMG 1111/1114 SCT015",
      "metarHtml": "METAR LFLL 101130Z 33006KT 300V010 9999 SCT035 BKN053 BKN200 06/M00 Q1014 NOSIG",
      "tafHtml": "TAF LFLL 101100Z 1012/1118 31010KT 9999 BKN035 \n  PROB30 \n  TEMPO 1012/1017 -<span class=\"hl\">SHRA</span> FEW025TCU BKN030 \n  PROB40 \n  TEMPO 1017/1021 -SHSNRA BKN014 SCT018TCU BKN020 \n  PROB30 \n  TEMPO 1018/1023 4000 -<span class=\"hl\">SHSN</span> BKN012 \n  BECMG 1104/1106 BKN012 \n  PROB40 \n  TEMPO 1107/1110 BKN008 \n  BECMG 1111/1114 SCT015"
    },
    {
      "icao": "EGGP",
      "iata": "LPL",
      "name": "Liverpool John Lennon Airport",
      "updatedAt": "101120Z",
      "visibility_m": 10000,
      "taf_visibility_m": 2000,
      "worst_visibility_m": 2000,
      "ceiling_ft": null,
      "hazards": [
        "BR",
        "RA"
      ],
      "severityScore": 22,
      "metarRaw": "METAR EGGP 101120Z 13003KT 9999 FEW048 02/00 Q1017",
      "tafRaw": "TAF EGGP 101057Z 1012/1112 15005KT 9999 SCT040 \n  TEMPO 1012/1104 6000 \n  PROB30 1017/1024 4000 BR \n  BECMG 1022/1101 14015KT \n  BECMG 1101/1104 14015G25KT \n  TEMPO 1104/1112 15025G35KT 6000 RA BKN008 \n  PROB30 \n  TEMPO 1104/1107 2000 RASN BKN004",
      "metarHtml": "METAR EGGP 101120Z 13003KT 9999 FEW048 02/00 Q1017",
      "tafHtml": "TAF EGGP 101057Z 1012/1112 15005KT 9999 SCT040 \n  TEMPO 1012/1104 6000 \n  PROB30 1017/1024 4000 <span class=\"hl\">BR</span> \n  BECMG 1022/1101 14015KT \n  BECMG 1101/1104 14015G25KT \n  TEMPO 1104/1112 15025G35KT 6000 <span class=\"hl\">RA</span> BKN008 \n  PROB30 \n  TEMPO 1104/1107 2000 RASN BKN004"
    },
    {
      "icao": "LPPR",
      "iata": "OPO",
      "name": "Francisco de Sá Carneiro Airport",
      "updatedAt": "101130Z",
      "visibility_m": 10000,
      "taf_visibility_m": 5000,
      "worst_visibility_m": 5000,
      "ceiling_ft": null,
      "hazards": [
        "BR",
        "RA"
      ],
      "severityScore": 22,
      "metarRaw": "METAR LPPR 101130Z 14006KT 100V160 9999 FEW028 SCT045 11/08 Q1030",
      "tafRaw": "TAF LPPR 101100Z 1012/1112 19010KT 9999 FEW020 BKN035 \n  BECMG 1100/1102 16010KT SCT008 BKN015 \n  TEMPO 1102/1112 5000 RA BR SCT004 BKN008",
      "metarHtml": "METAR LPPR 101130Z 14006KT 100V160 9999 FEW028 SCT045 11/08 Q1030",
      "tafHtml": "TAF LPPR 101100Z 1012/1112 19010KT 9999 FEW020 BKN035 \n  BECMG 1100/1102 16010KT SCT008 BKN015 \n  TEMPO 1102/1112 5000 <span class=\"hl\">RA</span> <span class=\"hl\">BR</span> SCT004 BKN008"
    },
    {
      "icao": "LRCV",
      "iata": "CRA",
      "name": "Craiova International Airport",
      "updatedAt": "101130Z",
      "visibility_m": 10000,
      "taf_visibility_m": 3000,
      "worst_visibility_m": 3000,
      "ceiling_ft": null,
      "hazards": [
        "BR",
        "RA"
      ],
      "severityScore": 22,
      "metarRaw": "METAR LRCV 101130Z VRB02KT 9999 FEW009 SCT040 01/00 Q0998",
      "tafRaw": "TAF LRCV 101100Z 1012/1021 VRB04KT 9999 SCT035 \n  BECMG 1015/1017 5000 BR BKN010 \n  TEMPO 1017/1020 3000 -RA BR BKN005 OVC020",
      "metarHtml": "METAR LRCV 101130Z VRB02KT 9999 FEW009 SCT040 01/00 Q0998",
      "tafHtml": "TAF LRCV 101100Z 1012/1021 VRB04KT 9999 SCT035 \n  BECMG 1015/1017 5000 <span class=\"hl\">BR</span> BKN010 \n  TEMPO 1017/1020 3000 -<span class=\"hl\">RA</span> <span class=\"hl\">BR</span> BKN005 OVC020"
    },
    {
      "icao": "UBBB",
      "iata": "GYD",
      "name": "Heydar Aliyev International Airport",
      "updatedAt": "101130Z",
      "visibility_m": 10000,
      "taf_visibility_m": 4000,
      "worst_visibility_m": 4000,
      "ceiling_ft": 4900,
      "hazards": [
        "BR",
        "RA"
      ],
      "severityScore": 22,
      "metarRaw": "METAR UBBB 101130Z 34018KT 9999 FEW012 FEW049CB BKN049 08/05 Q1011 NOSIG",
      "tafRaw": "TAF UBBB 101055Z 1012/1112 33018KT 9999 SCT017 BKN030 TX09/1012Z TN04/1102Z \n  TEMPO 1014/1021 35012KT -RA BKN012 OVC020 \n  BECMG 1021/1023 VRB04KT \n  TEMPO 1023/1102 4000 BR SCT006 \n  BECMG 1102/1104 18012KT \n  BECMG 1104/1106 20020G30KT SCT025",
      "metarHtml": "METAR UBBB 101130Z 34018KT 9999 FEW012 FEW049CB BKN049 08/05 Q1011 NOSIG",
      "tafHtml": "TAF UBBB 101055Z 1012/1112 33018KT 9999 SCT017 BKN030 TX09/1012Z TN04/1102Z \n  TEMPO 1014/1021 35012KT -<span class=\"hl\">RA</span> BKN012 OVC020 \n  BECMG 1021/1023 VRB04KT \n  TEMPO 1023/1102 4000 <span class=\"hl\">BR</span> SCT006 \n  BECMG 1102/1104 18012KT \n  BECMG 1104/1106 20020G30KT SCT025"
    },
    {
      "icao": "LFSB",
      "iata": "BSL",
      "name": "EuroAirport Basel–Mulhouse–Freiburg",
      "updatedAt": "101130Z",
      "visibility_m": 10000,
      "taf_visibility_m": 1200,
      "worst_visibility_m": 1200,
      "ceiling_ft": 4800,
      "hazards": [
        "SHSN"
      ],
      "severityScore": 20,
      "metarRaw": "METAR LFSB 101130Z AUTO 24010KT 9999 FEW014 SCT020 BKN048 01/M00 Q1008 NOSIG",
      "tafRaw": "TAF LFSB 101100Z 1012/1112 25015KT 9999 SCT025 BKN040 \n  TEMPO 1012/1018 -SHSNRA \n  BECMG 1018/1020 32007KT \n  TEMPO 1018/1106 4000 -SHSN BKN014 SCT015TCU \n  PROB30 \n  TEMPO 1020/1024 1200 SHSN BKN005 \n  BECMG 1105/1108 06003KT",
      "metarHtml": "METAR LFSB 101130Z AUTO 24010KT 9999 FEW014 SCT020 BKN048 01/M00 Q1008 NOSIG",
      "tafHtml": "TAF LFSB 101100Z 1012/1112 25015KT 9999 SCT025 BKN040 \n  TEMPO 1012/1018 -SHSNRA \n  BECMG 1018/1020 32007KT \n  TEMPO 1018/1106 4000 -<span class=\"hl\">SHSN</span> BKN014 SCT015TCU \n  PROB30 \n  TEMPO 1020/1024 1200 <span class=\"hl\">SHSN</span> BKN005 \n  BECMG 1105/1108 06003KT"
    },
    {
      "icao": "LHDC",
      "iata": "DEB",
      "name": "Debrecen International Airport",
      "updatedAt": "101115Z",
      "visibility_m": 6000,
      "taf_visibility_m": 4000,
      "worst_visibility_m": 4000,
      "ceiling_ft": 2500,
      "hazards": [
        "BR",
        "SHSN"
      ],
      "severityScore": 20,
      "metarRaw": "METAR LHDC 101115Z AUTO 04005KT 6000 OVC025 M03/M06 Q1001 NOSIG",
      "tafRaw": "TAF LHDC 101115Z 1012/1021 04005KT 7000 BKN025 BKN060 \n  PROB30 \n  TEMPO 1012/1016 4000 BR \n  BECMG 1016/1019 03012G22KT \n  TEMPO 1018/1021 5000 -SHSN",
      "metarHtml": "METAR LHDC 101115Z AUTO 04005KT 6000 OVC025 M03/M06 Q1001 NOSIG",
      "tafHtml": "TAF LHDC 101115Z 1012/1021 04005KT 7000 BKN025 BKN060 \n  PROB30 \n  TEMPO 1012/1016 4000 <span class=\"hl\">BR</span> \n  BECMG 1016/1019 03012G22KT \n  TEMPO 1018/1021 5000 -<span class=\"hl\">SHSN</span>"
    },
    {
      "icao": "LOWW",
      "iata": "VIE",
      "name": "Vienna International Airport",
      "updatedAt": "101120Z",
      "visibility_m": 5000,
      "taf_visibility_m": 2000,
      "worst_visibility_m": 2000,
      "ceiling_ft": 4000,
      "hazards": [
        "BR",
        "SHSN"
      ],
      "severityScore": 20,
      "metarRaw": "METAR LOWW 101120Z 03008KT 5000 BR FEW020 BKN040 M03/M05 Q1002 NOSIG",
      "tafRaw": "TAF LOWW 101115Z 1012/1118 12003KT 6000 SCT004 BKN050 TXM02/1012Z TNM07/1100Z \n  FM101300 34012KT 9999 FEW030 \n  TEMPO 1014/1019 36015G25KT 2000 SHSN BKN008 \n  BECMG 1101/1103 32015G25KT \n  TEMPO 1106/1118 31020G35KT",
      "metarHtml": "METAR LOWW 101120Z 03008KT 5000 <span class=\"hl\">BR</span> FEW020 BKN040 M03/M05 Q1002 NOSIG",
      "tafHtml": "TAF LOWW 101115Z 1012/1118 12003KT 6000 SCT004 BKN050 TXM02/1012Z TNM07/1100Z \n  FM101300 34012KT 9999 FEW030 \n  TEMPO 1014/1019 36015G25KT 2000 <span class=\"hl\">SHSN</span> BKN008 \n  BECMG 1101/1103 32015G25KT \n  TEMPO 1106/1118 31020G35KT"
    },
    {
      "icao": "LRTM",
      "iata": "TGM",
      "name": "Târgu Mureş Transilvania International Airport",
      "updatedAt": "101130Z",
      "visibility_m": 8000,
      "taf_visibility_m": 1500,
      "worst_visibility_m": 1500,
      "ceiling_ft": 2800,
      "hazards": [
        "BR"
      ],
      "severityScore": 20,
      "metarRaw": "METAR LRTM 101130Z 24002KT 8000 SCT022 OVC028 M03/M06 Q1000",
      "tafRaw": "TAF LRTM 101100Z 1012/1021 VRB04KT 9999 SCT020 BKN030 \n  BECMG 1014/1016 5000 BR \n  TEMPO 1018/1021 1500 BR",
      "metarHtml": "METAR LRTM 101130Z 24002KT 8000 SCT022 OVC028 M03/M06 Q1000",
      "tafHtml": "TAF LRTM 101100Z 1012/1021 VRB04KT 9999 SCT020 BKN030 \n  BECMG 1014/1016 5000 <span class=\"hl\">BR</span> \n  TEMPO 1018/1021 1500 <span class=\"hl\">BR</span>"
    },
    {
      "icao": "UDSG",
      "iata": "LWN",
      "name": "Shirak International Airport",
      "updatedAt": "101130Z",
      "visibility_m": 10000,
      "taf_visibility_m": 1000,
      "worst_visibility_m": 1000,
      "ceiling_ft": null,
      "hazards": [
        "BR"
      ],
      "severityScore": 20,
      "metarRaw": "METAR UDSG 101130Z 30002KT 9999 SCT040 M00/M06 Q1011 NOSIG",
      "tafRaw": "TAF UDSG 101058Z 1012/1112 VRB06KT 5000 BR SCT030 \n  TEMPO 1015/1020 1000 BR BKN030",
      "metarHtml": "METAR UDSG 101130Z 30002KT 9999 SCT040 M00/M06 Q1011 NOSIG",
      "tafHtml": "TAF UDSG 101058Z 1012/1112 VRB06KT 5000 <span class=\"hl\">BR</span> SCT030 \n  TEMPO 1015/1020 1000 <span class=\"hl\">BR</span> BKN030"
    },
    {
      "icao": "EDNY",
      "iata": "FDH",
      "name": "Friedrichshafen Airport",
      "updatedAt": "101120Z",
      "visibility_m": 10000,
      "taf_visibility_m": 2000,
      "worst_visibility_m": 2000,
      "ceiling_ft": 2600,
      "hazards": [
        "SN"
      ],
      "severityScore": 18,
      "metarRaw": "METAR EDNY 101120Z 24014KT 9999 SCT008 BKN026 OVC034 01/00 Q1006",
      "tafRaw": "TAF EDNY 101100Z 1012/1021 25015G25KT 7000 BKN015 \n  BECMG 1012/1014 25012KT \n  TEMPO 1012/1015 4000 -SNRA OVC010 \n  BECMG 1015/1017 OVC012 \n  TEMPO 1015/1021 2000 -SN OVC006",
      "metarHtml": "METAR EDNY 101120Z 24014KT 9999 SCT008 BKN026 OVC034 01/00 Q1006",
      "tafHtml": "TAF EDNY 101100Z 1012/1021 25015G25KT 7000 BKN015 \n  BECMG 1012/1014 25012KT \n  TEMPO 1012/1015 4000 -SNRA OVC010 \n  BECMG 1015/1017 OVC012 \n  TEMPO 1015/1021 2000 -<span class=\"hl\">SN</span> OVC006"
    },
    {
      "icao": "LZIB",
      "iata": "BTS",
      "name": "M. R. Štefánik Airport",
      "updatedAt": "101130Z",
      "visibility_m": 7000,
      "taf_visibility_m": 3500,
      "worst_visibility_m": 3500,
      "ceiling_ft": 3300,
      "hazards": [
        "SN"
      ],
      "severityScore": 18,
      "metarRaw": "METAR LZIB 101130Z VRB03KT 7000 FEW010 SCT018 BKN033 M02/M05 Q1002 NOSIG",
      "tafRaw": "TAF LZIB 101115Z 1012/1112 06004KT 9999 SCT010 BKN035 \n  PROB40 \n  TEMPO 1013/1016 3500 -SN BKN009 OVC025 \n  BECMG 1015/1017 03011KT SCT030 \n  BECMG 1020/1022 33015KT \n  TEMPO 1103/1112 31020G30KT",
      "metarHtml": "METAR LZIB 101130Z VRB03KT 7000 FEW010 SCT018 BKN033 M02/M05 Q1002 NOSIG",
      "tafHtml": "TAF LZIB 101115Z 1012/1112 06004KT 9999 SCT010 BKN035 \n  PROB40 \n  TEMPO 1013/1016 3500 -<span class=\"hl\">SN</span> BKN009 OVC025 \n  BECMG 1015/1017 03011KT SCT030 \n  BECMG 1020/1022 33015KT \n  TEMPO 1103/1112 31020G30KT"
    },
    {
      "icao": "LZTT",
      "iata": "TAT",
      "name": "Poprad-Tatry Airport",
      "updatedAt": "101130Z",
      "visibility_m": 10000,
      "taf_visibility_m": 3000,
      "worst_visibility_m": 3000,
      "ceiling_ft": 2300,
      "hazards": [
        "SN"
      ],
      "severityScore": 18,
      "metarRaw": "METAR LZTT 101130Z VRB02KT 9999 OVC023 M06/M10 Q0997 NOSIG",
      "tafRaw": "TAF LZTT 101115Z 1012/1112 07005KT 9999 SCT015 BKN045 \n  TEMPO 1012/1013 4500 -SN BKN011 \n  BECMG 1019/1021 25009KT SCT025 \n  TEMPO 1100/1112 27018KT 3000 SN BKN013",
      "metarHtml": "METAR LZTT 101130Z VRB02KT 9999 OVC023 M06/M10 Q0997 NOSIG",
      "tafHtml": "TAF LZTT 101115Z 1012/1112 07005KT 9999 SCT015 BKN045 \n  TEMPO 1012/1013 4500 -<span class=\"hl\">SN</span> BKN011 \n  BECMG 1019/1021 25009KT SCT025 \n  TEMPO 1100/1112 27018KT 3000 <span class=\"hl\">SN</span> BKN013"
    },
    {
      "icao": "LFOB",
      "iata": "BVA",
      "name": "Beauvais Tillé airport",
      "updatedAt": "101130Z",
      "visibility_m": 10000,
      "taf_visibility_m": null,
      "worst_visibility_m": 10000,
      "ceiling_ft": 1800,
      "hazards": [],
      "severityScore": 17,
      "metarRaw": "METAR LFOB 101130Z AUTO 32017KT 9999 BKN018 BKN025 BKN037 03/01 Q1012",
      "tafRaw": null,
      "metarHtml": "METAR LFOB 101130Z AUTO 32017KT 9999 BKN018 BKN025 BKN037 03/01 Q1012",
      "tafHtml": null
    },
    {
      "icao": "LCLK",
      "iata": "LCA",
      "name": "Larnaca International Airport",
      "updatedAt": "101130Z",
      "visibility_m": 10000,
      "taf_visibility_m": 5000,
      "worst_visibility_m": 5000,
      "ceiling_ft": null,
      "hazards": [
        "SHRA"
      ],
      "severityScore": 14,
      "metarRaw": "METAR LCLK 101130Z 22020KT 9999 FEW030 FEW032TCU SCT035 20/13 Q1015 NOSIG",
      "tafRaw": "TAF LCLK 101130Z 1012/1112 22018KT 9999 FEW030 \n  PROB30 \n  TEMPO 1012/1014 22020G30KT \n  PROB30 \n  TEMPO 1012/1017 5000 SHRA SCT020TCU \n  BECMG 1015/1017 23007KT \n  BECMG 1107/1109 21021KT \n  PROB30 \n  TEMPO 1107/1112 5000 SHRA SCT020TCU",
      "metarHtml": "METAR LCLK 101130Z 22020KT 9999 FEW030 FEW032TCU SCT035 20/13 Q1015 NOSIG",
      "tafHtml": "TAF LCLK 101130Z 1012/1112 22018KT 9999 FEW030 \n  PROB30 \n  TEMPO 1012/1014 22020G30KT \n  PROB30 \n  TEMPO 1012/1017 5000 <span class=\"hl\">SHRA</span> SCT020TCU \n  BECMG 1015/1017 23007KT \n  BECMG 1107/1109 21021KT \n  PROB30 \n  TEMPO 1107/1112 5000 <span class=\"hl\">SHRA</span> SCT020TCU"
    },
    {
      "icao": "LCPH",
      "iata": "PFO",
      "name": "Paphos International Airport",
      "updatedAt": "101130Z",
      "visibility_m": 10000,
      "taf_visibility_m": 4000,
      "worst_visibility_m": 4000,
      "ceiling_ft": 5000,
      "hazards": [
        "SHRA"
      ],
      "severityScore": 14,
      "metarRaw": "METAR LCPH 101130Z 24011KT 170V260 9999 FEW014 SCT030 FEW035TCU BKN050 18/15 Q1015 NOSIG",
      "tafRaw": "TAF LCPH 101130Z 1012/1112 24016KT 9999 SCT030 SCT050 \n  PROB40 \n  TEMPO 1012/1112 VRB15G25KT 4000 SHRA SCT020TCU",
      "metarHtml": "METAR LCPH 101130Z 24011KT 170V260 9999 FEW014 SCT030 FEW035TCU BKN050 18/15 Q1015 NOSIG",
      "tafHtml": "TAF LCPH 101130Z 1012/1112 24016KT 9999 SCT030 SCT050 \n  PROB40 \n  TEMPO 1012/1112 VRB15G25KT 4000 <span class=\"hl\">SHRA</span> SCT020TCU"
    },
    {
      "icao": "LIBD",
      "iata": "BRI",
      "name": "Bari Karol Wojtyła International Airport",
      "updatedAt": "101120Z",
      "visibility_m": 10000,
      "taf_visibility_m": 10000,
      "worst_visibility_m": 10000,
      "ceiling_ft": null,
      "hazards": [
        "SHRA"
      ],
      "severityScore": 14,
      "metarRaw": "METAR LIBD 101120Z 25017G30KT CAVOK 11/03 Q0997",
      "tafRaw": "TAF LIBD 101100Z 1012/1112 28018G30KT 9999 SCT040 \n  TEMPO 1012/1018 SHRA \n  TEMPO 1022/1112 SHRA \n  BECMG 1101/1103 30015KT",
      "metarHtml": "METAR LIBD 101120Z 25017G30KT <span class=\"hl-vis\">CAVOK</span> 11/03 Q0997",
      "tafHtml": "TAF LIBD 101100Z 1012/1112 28018G30KT 9999 SCT040 \n  TEMPO 1012/1018 <span class=\"hl\">SHRA</span> \n  TEMPO 1022/1112 <span class=\"hl\">SHRA</span> \n  BECMG 1101/1103 30015KT"
    },
    {
      "icao": "LIBR",
      "iata": "BDS",
      "name": "Brindisi Airport",
      "updatedAt": "101120Z",
      "visibility_m": 10000,
      "taf_visibility_m": 10000,
      "worst_visibility_m": 10000,
      "ceiling_ft": null,
      "hazards": [
        "SHRA"
      ],
      "severityScore": 14,
      "metarRaw": "METAR LIBR 101120Z 25021G37KT 9999 FEW045 13/04 Q0998",
      "tafRaw": "TAF LIBR 101100Z 1012/1112 26015KT 9999 SCT040 \n  TEMPO 1012/1015 26020G35KT \n  TEMPO 1012/1018 SHRA \n  BECMG 1100/1102 33015G28KT \n  TEMPO 1102/1106 SHRA",
      "metarHtml": "METAR LIBR 101120Z 25021G37KT 9999 FEW045 13/04 Q0998",
      "tafHtml": "TAF LIBR 101100Z 1012/1112 26015KT 9999 SCT040 \n  TEMPO 1012/1015 26020G35KT \n  TEMPO 1012/1018 <span class=\"hl\">SHRA</span> \n  BECMG 1100/1102 33015G28KT \n  TEMPO 1102/1106 <span class=\"hl\">SHRA</span>"
    },
    {
      "icao": "LMML",
      "iata": "MLA",
      "name": "Malta International Airport",
      "updatedAt": "101115Z",
      "visibility_m": 10000,
      "taf_visibility_m": 4000,
      "worst_visibility_m": 4000,
      "ceiling_ft": 4000,
      "hazards": [
        "SHRA"
      ],
      "severityScore": 14,
      "metarRaw": "METAR LMML 101115Z 28024G34KT 9999 -SHRA FEW022 BKN040 14/08 Q1012 NOSIG",
      "tafRaw": "TAF LMML 101100Z 1012/1112 29026G36KT 9999 FEW020 SCT045 \n  TEMPO 1016/1112 7000 SHRA FEW020TCU \n  PROB40 \n  TEMPO 1018/1112 4000 +SHRAGS SCT017CB",
      "metarHtml": "METAR LMML 101115Z 28024G34KT 9999 -<span class=\"hl\">SHRA</span> FEW022 BKN040 14/08 Q1012 NOSIG",
      "tafHtml": "TAF LMML 101100Z 1012/1112 29026G36KT 9999 FEW020 SCT045 \n  TEMPO 1016/1112 7000 <span class=\"hl\">SHRA</span> FEW020TCU \n  PROB40 \n  TEMPO 1018/1112 4000 +SHRAGS SCT017CB"
    },
    {
      "icao": "GMMN",
      "iata": "CMN",
      "name": "Mohammed V International Airport",
      "updatedAt": "101130Z",
      "visibility_m": 10000,
      "taf_visibility_m": 8000,
      "worst_visibility_m": 8000,
      "ceiling_ft": 1600,
      "hazards": [],
      "severityScore": 12,
      "metarRaw": "METAR GMMN 101130Z 06004KT 360V120 9999 BKN016 14/11 Q1030 NOSIG",
      "tafRaw": "TAF GMMN 101100Z 1012/1118 02010KT 9999 BKN016 \n  BECMG 1019/1022 06005KT 8000 SCT014 \n  BECMG 1110/1113 06010KT CAVOK",
      "metarHtml": "METAR GMMN 101130Z 06004KT 360V120 9999 BKN016 14/11 Q1030 NOSIG",
      "tafHtml": "TAF GMMN 101100Z 1012/1118 02010KT 9999 BKN016 \n  BECMG 1019/1022 06005KT 8000 SCT014 \n  BECMG 1110/1113 06010KT <span class=\"hl-vis\">CAVOK</span>"
    },
    {
      "icao": "EDLW",
      "iata": "DTM",
      "name": "Dortmund Airport",
      "updatedAt": "101120Z",
      "visibility_m": 10000,
      "taf_visibility_m": 6000,
      "worst_visibility_m": 6000,
      "ceiling_ft": 1400,
      "hazards": [],
      "severityScore": 12,
      "metarRaw": "METAR EDLW 101120Z 03012KT 9999 SCT012 BKN014 M04/M06 Q1008",
      "tafRaw": "TAF EDLW 101100Z 1012/1112 05010KT 6000 SCT004 BKN007 \n  BECMG 1012/1014 SCT020 \n  BECMG 1018/1020 09004KT \n  BECMG 1102/1105 15005KT",
      "metarHtml": "METAR EDLW 101120Z 03012KT 9999 SCT012 BKN014 M04/M06 Q1008",
      "tafHtml": "TAF EDLW 101100Z 1012/1112 05010KT 6000 SCT004 BKN007 \n  BECMG 1012/1014 SCT020 \n  BECMG 1018/1020 09004KT \n  BECMG 1102/1105 15005KT"
    },
    {
      "icao": "LBPD",
      "iata": "PDV",
      "name": "Plovdiv International Airport",
      "updatedAt": "101130Z",
      "visibility_m": 10000,
      "taf_visibility_m": 5000,
      "worst_visibility_m": 5000,
      "ceiling_ft": null,
      "hazards": [
        "RA"
      ],
      "severityScore": 12,
      "metarRaw": "METAR LBPD 101130Z AUTO 10003KT 070V130 9999 -RA SCT050/// BKN061/// OVC076/// 05/01 Q0998 NOSIG",
      "tafRaw": "TAF LBPD 101100Z 1012/1112 VRB03KT 9999 SCT050 \n  TEMPO 1012/1017 5000 RA BKN015 OVC030 \n  BECMG 1017/1019 28014KT \n  BECMG 1021/1023 28017G27KT \n  TEMPO 1104/1110 5000 RA BKN015 OVC020",
      "metarHtml": "METAR LBPD 101130Z AUTO 10003KT 070V130 9999 -<span class=\"hl\">RA</span> SCT050/// BKN061/// OVC076/// 05/01 Q0998 NOSIG",
      "tafHtml": "TAF LBPD 101100Z 1012/1112 VRB03KT 9999 SCT050 \n  TEMPO 1012/1017 5000 <span class=\"hl\">RA</span> BKN015 OVC030 \n  BECMG 1017/1019 28014KT \n  BECMG 1021/1023 28017G27KT \n  TEMPO 1104/1110 5000 <span class=\"hl\">RA</span> BKN015 OVC020"
    },
    {
      "icao": "LGAV",
      "iata": "ATH",
      "name": "Athens Eleftherios Venizelos International Airport",
      "updatedAt": "101120Z",
      "visibility_m": 10000,
      "taf_visibility_m": 5000,
      "worst_visibility_m": 5000,
      "ceiling_ft": null,
      "hazards": [
        "RA"
      ],
      "severityScore": 12,
      "metarRaw": "METAR LGAV 101120Z 23036KT 9999 SCT025 19/06 Q1001 NOSIG",
      "tafRaw": "TAF LGAV 101100Z 1012/1112 24020KT 9999 SCT025 SCT080 \n  TEMPO 1012/1015 24025G40KT \n  PROB30 \n  TEMPO 1013/1016 5000 RA SCT020 SCT070 \n  BECMG 1106/1108 27015KT",
      "metarHtml": "METAR LGAV 101120Z 23036KT 9999 SCT025 19/06 Q1001 NOSIG",
      "tafHtml": "TAF LGAV 101100Z 1012/1112 24020KT 9999 SCT025 SCT080 \n  TEMPO 1012/1015 24025G40KT \n  PROB30 \n  TEMPO 1013/1016 5000 <span class=\"hl\">RA</span> SCT020 SCT070 \n  BECMG 1106/1108 27015KT"
    },
    {
      "icao": "LGTS",
      "iata": "SKG",
      "name": "Thessaloniki Macedonia International Airport",
      "updatedAt": "101120Z",
      "visibility_m": 10000,
      "taf_visibility_m": 5000,
      "worst_visibility_m": 5000,
      "ceiling_ft": 3000,
      "hazards": [
        "RA"
      ],
      "severityScore": 12,
      "metarRaw": "METAR LGTS 101120Z 30004KT 9999 FEW018 BKN030 07/06 Q0999 NOSIG",
      "tafRaw": "TAF LGTS 101100Z 1012/1112 22010KT 9999 SCT030 \n  PROB40 \n  TEMPO 1012/1017 5000 RA FEW010 BKN025 \n  BECMG 1101/1103 34015KT \n  TEMPO 1106/1112 34020G30KT",
      "metarHtml": "METAR LGTS 101120Z 30004KT 9999 FEW018 BKN030 07/06 Q0999 NOSIG",
      "tafHtml": "TAF LGTS 101100Z 1012/1112 22010KT 9999 SCT030 \n  PROB40 \n  TEMPO 1012/1017 5000 <span class=\"hl\">RA</span> FEW010 BKN025 \n  BECMG 1101/1103 34015KT \n  TEMPO 1106/1112 34020G30KT"
    },
    {
      "icao": "LIBG",
      "iata": "TAR",
      "name": "Taranto-Grottaglie Marcello Arlotta Airport",
      "updatedAt": "101050Z",
      "visibility_m": 10000,
      "taf_visibility_m": 10000,
      "worst_visibility_m": 10000,
      "ceiling_ft": null,
      "hazards": [
        "RA"
      ],
      "severityScore": 12,
      "metarRaw": "METAR LIBG 101050Z 24013KT 210V280 9999 FEW040 11/06 Q0999",
      "tafRaw": "TAF LIBG 101100Z 1012/1021 23013KT 9999 SCT040 \n  TEMPO 1012/1015 23018G28KT \n  PROB30 \n  TEMPO 1013/1016 RA \n  BECMG 1016/1018 29011KT",
      "metarHtml": "METAR LIBG 101050Z 24013KT 210V280 9999 FEW040 11/06 Q0999",
      "tafHtml": "TAF LIBG 101100Z 1012/1021 23013KT 9999 SCT040 \n  TEMPO 1012/1015 23018G28KT \n  PROB30 \n  TEMPO 1013/1016 <span class=\"hl\">RA</span> \n  BECMG 1016/1018 29011KT"
    },
    {
      "icao": "LIPR",
      "iata": "RMI",
      "name": "Federico Fellini International Airport",
      "updatedAt": "101120Z",
      "visibility_m": 10000,
      "taf_visibility_m": 6000,
      "worst_visibility_m": 6000,
      "ceiling_ft": null,
      "hazards": [
        "RA"
      ],
      "severityScore": 12,
      "metarRaw": "METAR LIPR 101120Z 30012KT 9999 FEW035 05/00 Q1002",
      "tafRaw": "TAF LIPR 101100Z 1012/1112 30010KT 6000 SCT040 \n  BECMG 1018/1020 24005KT \n  BECMG 1104/1106 30010KT \n  TEMPO 1106/1112 RA",
      "metarHtml": "METAR LIPR 101120Z 30012KT 9999 FEW035 05/00 Q1002",
      "tafHtml": "TAF LIPR 101100Z 1012/1112 30010KT 6000 SCT040 \n  BECMG 1018/1020 24005KT \n  BECMG 1104/1106 30010KT \n  TEMPO 1106/1112 <span class=\"hl\">RA</span>"
    },
    {
      "icao": "LIPY",
      "iata": "AOI",
      "name": "Marche Airport",
      "updatedAt": "101120Z",
      "visibility_m": 10000,
      "taf_visibility_m": 10000,
      "worst_visibility_m": 10000,
      "ceiling_ft": null,
      "hazards": [
        "RA"
      ],
      "severityScore": 12,
      "metarRaw": "METAR LIPY 101120Z AUTO 31012KT 9999 SCT025/// BKN043/// 05/M00 Q1002",
      "tafRaw": "TAF LIPY 101100Z 1012/1112 30012KT 9999 SCT050 \n  PROB40 \n  TEMPO 1012/1015 30015G25KT \n  BECMG 1018/1020 25005KT \n  TEMPO 1109/1112 RA",
      "metarHtml": "METAR LIPY 101120Z AUTO 31012KT 9999 SCT025/// BKN043/// 05/M00 Q1002",
      "tafHtml": "TAF LIPY 101100Z 1012/1112 30012KT 9999 SCT050 \n  PROB40 \n  TEMPO 1012/1015 30015G25KT \n  BECMG 1018/1020 25005KT \n  TEMPO 1109/1112 <span class=\"hl\">RA</span>"
    },
    {
      "icao": "LLBG",
      "iata": "TLV",
      "name": "Ben Gurion International Airport",
      "updatedAt": "101120Z",
      "visibility_m": 10000,
      "taf_visibility_m": 10000,
      "worst_visibility_m": 10000,
      "ceiling_ft": null,
      "hazards": [
        "RA"
      ],
      "severityScore": 12,
      "metarRaw": "METAR LLBG 101120Z 19012KT 9999 FEW025 18/12 Q1019 NOSIG",
      "tafRaw": "TAF LLBG 101102Z 1012/1112 21012KT 9999 SCT030 \n  PROB40 \n  TEMPO 1012/1015 RA BKN025 \n  BECMG 1015/1017 16005KT FEW045 \n  BECMG 1108/1110 26010KT CAVOK TX18/1012Z TN11/1104Z",
      "metarHtml": "METAR LLBG 101120Z 19012KT 9999 FEW025 18/12 Q1019 NOSIG",
      "tafHtml": "TAF LLBG 101102Z 1012/1112 21012KT 9999 SCT030 \n  PROB40 \n  TEMPO 1012/1015 <span class=\"hl\">RA</span> BKN025 \n  BECMG 1015/1017 16005KT FEW045 \n  BECMG 1108/1110 26010KT <span class=\"hl-vis\">CAVOK</span> TX18/1012Z TN11/1104Z"
    },
    {
      "icao": "LPMA",
      "iata": "FNC",
      "name": "Madeira International Airport Cristiano Ronaldo",
      "updatedAt": "101130Z",
      "visibility_m": 10000,
      "taf_visibility_m": 6000,
      "worst_visibility_m": 6000,
      "ceiling_ft": null,
      "hazards": [
        "RA"
      ],
      "severityScore": 12,
      "metarRaw": "METAR LPMA 101130Z 02007KT 340V040 9999 SCT014 17/12 Q1032",
      "tafRaw": "TAF LPMA 101100Z 1012/1112 01007KT 9999 SCT015 \n  PROB30 \n  TEMPO 1100/1112 6000 -RA BKN013 \n  BECMG 1101/1103 VRB05KT",
      "metarHtml": "METAR LPMA 101130Z 02007KT 340V040 9999 SCT014 17/12 Q1032",
      "tafHtml": "TAF LPMA 101100Z 1012/1112 01007KT 9999 SCT015 \n  PROB30 \n  TEMPO 1100/1112 6000 -<span class=\"hl\">RA</span> BKN013 \n  BECMG 1101/1103 VRB05KT"
    },
    {
      "icao": "LPPS",
      "iata": "PXO",
      "name": "Porto Santo Airport",
      "updatedAt": "101130Z",
      "visibility_m": 10000,
      "taf_visibility_m": 6000,
      "worst_visibility_m": 6000,
      "ceiling_ft": null,
      "hazards": [
        "RA"
      ],
      "severityScore": 12,
      "metarRaw": "METAR LPPS 101130Z 06004KT 360V110 9999 SCT015 17/11 Q1032",
      "tafRaw": "TAF LPPS 101100Z 1012/1118 02008KT 9999 SCT015 SCT030 \n  PROB30 1100/1118 6000 -RA BKN012",
      "metarHtml": "METAR LPPS 101130Z 06004KT 360V110 9999 SCT015 17/11 Q1032",
      "tafHtml": "TAF LPPS 101100Z 1012/1118 02008KT 9999 SCT015 SCT030 \n  PROB30 1100/1118 6000 -<span class=\"hl\">RA</span> BKN012"
    },
    {
      "icao": "LPPT",
      "iata": "LIS",
      "name": "Lisbon Humberto Delgado Airport",
      "updatedAt": "101130Z",
      "visibility_m": 10000,
      "taf_visibility_m": 6000,
      "worst_visibility_m": 6000,
      "ceiling_ft": 3800,
      "hazards": [
        "RA"
      ],
      "severityScore": 12,
      "metarRaw": "METAR LPPT 101130Z 32003KT 280V360 9999 FEW032 BKN038 13/08 Q1031",
      "tafRaw": "TAF LPPT 101100Z 1012/1118 29005KT 9999 FEW020 BKN035 \n  BECMG 1100/1103 VRB02KT SCT012 BKN025 \n  TEMPO 1103/1118 6000 -RA SCT006 BKN012 \n  BECMG 1112/1114 21010KT",
      "metarHtml": "METAR LPPT 101130Z 32003KT 280V360 9999 FEW032 BKN038 13/08 Q1031",
      "tafHtml": "TAF LPPT 101100Z 1012/1118 29005KT 9999 FEW020 BKN035 \n  BECMG 1100/1103 VRB02KT SCT012 BKN025 \n  TEMPO 1103/1118 6000 -<span class=\"hl\">RA</span> SCT006 BKN012 \n  BECMG 1112/1114 21010KT"
    },
    {
      "icao": "LTAC",
      "iata": "ESB",
      "name": "Esenboğa International Airport",
      "updatedAt": "101120Z",
      "visibility_m": 6000,
      "taf_visibility_m": 4000,
      "worst_visibility_m": 4000,
      "ceiling_ft": 2300,
      "hazards": [
        "RA"
      ],
      "severityScore": 12,
      "metarRaw": "METAR LTAC 101120Z 02005KT 6000 FEW010 BKN023 BKN090 00/M02 Q1010 RERASN NOSIG RMK RWY21C 01004KT RWY03L 01004KT RWY21R 36003KT RWY03R 01003KT 340V050 RWY21L 36005KT 350V050",
      "tafRaw": "TAF LTAC 101040Z 1012/1112 VRB02KT 9999 SCT035 BKN090 \n  BECMG 1012/1014 20012KT \n  TEMPO 1012/1016 -RA FEW010 BKN030 BKN080 \n  TEMPO 1018/1022 20020G30KT \n  TEMPO 1022/1102 20020G30KT \n  TEMPO 1102/1106 20020G30KT -RASN FEW010 BKN030 BKN080 \n  TEMPO 1106/1110 4000 RA FEW010 BKN030 BKN080",
      "metarHtml": "METAR LTAC 101120Z 02005KT 6000 FEW010 BKN023 BKN090 00/M02 Q1010 RERASN NOSIG RMK RWY21C 01004KT RWY03L 01004KT RWY21R 36003KT RWY03R 01003KT 340V050 RWY21L 36005KT 350V050",
      "tafHtml": "TAF LTAC 101040Z 1012/1112 VRB02KT 9999 SCT035 BKN090 \n  BECMG 1012/1014 20012KT \n  TEMPO 1012/1016 -<span class=\"hl\">RA</span> FEW010 BKN030 BKN080 \n  TEMPO 1018/1022 20020G30KT \n  TEMPO 1022/1102 20020G30KT \n  TEMPO 1102/1106 20020G30KT -RASN FEW010 BKN030 BKN080 \n  TEMPO 1106/1110 4000 <span class=\"hl\">RA</span> FEW010 BKN030 BKN080"
    },
    {
      "icao": "EDDB",
      "iata": "BER",
      "name": "Berlin Brandenburg Airport",
      "updatedAt": "101120Z",
      "visibility_m": 10000,
      "taf_visibility_m": 2000,
      "worst_visibility_m": 2000,
      "ceiling_ft": null,
      "hazards": [
        "SHSN"
      ],
      "severityScore": 10,
      "metarRaw": "METAR EDDB 101120Z AUTO 24003KT CAVOK M05/M10 Q1011 NOSIG",
      "tafRaw": "TAF EDDB 101100Z 1012/1112 34005KT CAVOK \n  PROB40 \n  TEMPO 1016/1018 2000 SHSN BKN008 BKN015CB \n  BECMG 1110/1112 34010KT",
      "metarHtml": "METAR EDDB 101120Z AUTO 24003KT <span class=\"hl-vis\">CAVOK</span> M05/M10 Q1011 NOSIG",
      "tafHtml": "TAF EDDB 101100Z 1012/1112 34005KT <span class=\"hl-vis\">CAVOK</span> \n  PROB40 \n  TEMPO 1016/1018 2000 <span class=\"hl\">SHSN</span> BKN008 BKN015CB \n  BECMG 1110/1112 34010KT"
    },
    {
      "icao": "LEZL",
      "iata": "SVQ",
      "name": "Sevilla Airport",
      "updatedAt": "101130Z",
      "visibility_m": 10000,
      "taf_visibility_m": 2000,
      "worst_visibility_m": 2000,
      "ceiling_ft": null,
      "hazards": [
        "BR"
      ],
      "severityScore": 10,
      "metarRaw": "METAR LEZL 101130Z 03001KT CAVOK 13/07 Q1030 NOSIG",
      "tafRaw": "TAF LEZL 100800Z 1009/1109 01003KT CAVOK TX15/1015Z TN04/1107Z \n  PROB30 \n  TEMPO 1105/1109 2000 BR BKN005",
      "metarHtml": "METAR LEZL 101130Z 03001KT <span class=\"hl-vis\">CAVOK</span> 13/07 Q1030 NOSIG",
      "tafHtml": "TAF LEZL 100800Z 1009/1109 01003KT <span class=\"hl-vis\">CAVOK</span> TX15/1015Z TN04/1107Z \n  PROB30 \n  TEMPO 1105/1109 2000 <span class=\"hl\">BR</span> BKN005"
    },
    {
      "icao": "LRCL",
      "iata": "CLJ",
      "name": "Cluj Avram Iancu International Airport",
      "updatedAt": "101130Z",
      "visibility_m": 10000,
      "taf_visibility_m": 3000,
      "worst_visibility_m": 3000,
      "ceiling_ft": 2300,
      "hazards": [
        "BR"
      ],
      "severityScore": 10,
      "metarRaw": "METAR LRCL 101130Z 06004KT 9999 FEW015 OVC023 M03/M06 Q1000",
      "tafRaw": "TAF LRCL 101100Z 1012/1021 VRB04KT 9999 OVC025 \n  TEMPO 1015/1020 3000 BR BKN010",
      "metarHtml": "METAR LRCL 101130Z 06004KT 9999 FEW015 OVC023 M03/M06 Q1000",
      "tafHtml": "TAF LRCL 101100Z 1012/1021 VRB04KT 9999 OVC025 \n  TEMPO 1015/1020 3000 <span class=\"hl\">BR</span> BKN010"
    },
    {
      "icao": "EFTU",
      "iata": "TKU",
      "name": "Turku Airport",
      "updatedAt": "101120Z",
      "visibility_m": 10000,
      "taf_visibility_m": null,
      "worst_visibility_m": 10000,
      "ceiling_ft": null,
      "hazards": [],
      "severityScore": 5,
      "metarRaw": "METAR EFTU 101120Z AUTO 03010KT 350V070 CAVOK M09/M12 Q1013",
      "tafRaw": null,
      "metarHtml": "METAR EFTU 101120Z AUTO 03010KT 350V070 <span class=\"hl-vis\">CAVOK</span> M09/M12 Q1013",
      "tafHtml": null
    },
    {
      "icao": "LATI",
      "iata": "TIA",
      "name": "Tirana International Airport Mother Teresa",
      "updatedAt": "101120Z",
      "visibility_m": 10000,
      "taf_visibility_m": null,
      "worst_visibility_m": 10000,
      "ceiling_ft": 6600,
      "hazards": [],
      "severityScore": 5,
      "metarRaw": "METAR LATI 101120Z 28009KT 240V310 9999 SCT025 FEW030CB BKN066 12/05 Q0997 NOSIG",
      "tafRaw": null,
      "metarHtml": "METAR LATI 101120Z 28009KT 240V310 9999 SCT025 FEW030CB BKN066 12/05 Q0997 NOSIG",
      "tafHtml": null
    },
    {
      "icao": "LECH",
      "iata": "CDT",
      "name": "Castellón-Costa Azahar Airport",
      "updatedAt": "101130Z",
      "visibility_m": 9000,
      "taf_visibility_m": null,
      "worst_visibility_m": 9000,
      "ceiling_ft": null,
      "hazards": [],
      "severityScore": 5,
      "metarRaw": "METAR LECH 101130Z AUTO 26006KT 210V310 9000 SCT070 12/M03 Q1023",
      "tafRaw": null,
      "metarHtml": "METAR LECH 101130Z AUTO 26006KT 210V310 9000 SCT070 12/M03 Q1023",
      "tafHtml": null
    },
    {
      "icao": "LRSM",
      "iata": "SUJ",
      "name": "Satu Mare International Airport",
      "updatedAt": "101130Z",
      "visibility_m": 10000,
      "taf_visibility_m": null,
      "worst_visibility_m": 10000,
      "ceiling_ft": null,
      "hazards": [],
      "severityScore": 5,
      "metarRaw": "METAR LRSM 101130Z AUTO VRB02KT 9999 OVC035/// M02/M06 Q1000",
      "tafRaw": null,
      "metarHtml": "METAR LRSM 101130Z AUTO VRB02KT 9999 OVC035/// M02/M06 Q1000",
      "tafHtml": null
    },
    {
      "icao": "BIKF",
      "iata": "KEF",
      "name": "Keflavik International Airport",
      "updatedAt": "101130Z",
      "visibility_m": 10000,
      "taf_visibility_m": 10000,
      "worst_visibility_m": 10000,
      "ceiling_ft": null,
      "hazards": [],
      "severityScore": 0,
      "metarRaw": "METAR BIKF 101130Z 06002KT 9999 FEW030 M04/M07 Q1010",
      "tafRaw": "TAF BIKF 101043Z 1012/1112 04005KT 9999 FEW040 TXM01/1112Z TNM06/1012Z \n  BECMG 1104/1106 02012KT",
      "metarHtml": "METAR BIKF 101130Z 06002KT 9999 FEW030 M04/M07 Q1010",
      "tafHtml": "TAF BIKF 101043Z 1012/1112 04005KT 9999 FEW040 TXM01/1112Z TNM06/1012Z \n  BECMG 1104/1106 02012KT"
    },
    {
      "icao": "GCFV",
      "iata": "FUE",
      "name": "Fuerteventura Airport",
      "updatedAt": "101130Z",
      "visibility_m": 10000,
      "taf_visibility_m": 10000,
      "worst_visibility_m": 10000,
      "ceiling_ft": 3300,
      "hazards": [],
      "severityScore": 0,
      "metarRaw": "METAR GCFV 101130Z 03015KT 9999 SCT025 BKN033 19/10 Q1028",
      "tafRaw": "TAF GCFV 100800Z 1009/1109 05015KT 9999 SCT025 TX20/1014Z TN15/1106Z \n  PROB30 \n  TEMPO 1012/1024 05015G25KT",
      "metarHtml": "METAR GCFV 101130Z 03015KT 9999 SCT025 BKN033 19/10 Q1028",
      "tafHtml": "TAF GCFV 100800Z 1009/1109 05015KT 9999 SCT025 TX20/1014Z TN15/1106Z \n  PROB30 \n  TEMPO 1012/1024 05015G25KT"
    },
    {
      "icao": "GCLP",
      "iata": "LPA",
      "name": "Gran Canaria Airport",
      "updatedAt": "101130Z",
      "visibility_m": 10000,
      "taf_visibility_m": 10000,
      "worst_visibility_m": 10000,
      "ceiling_ft": 5500,
      "hazards": [],
      "severityScore": 0,
      "metarRaw": "METAR GCLP 101130Z 02016KT 9999 SCT035 BKN055 20/11 Q1029 NOSIG",
      "tafRaw": "TAF GCLP 100800Z 1009/1109 03013KT 9999 SCT030 TX19/1014Z TN15/1106Z \n  PROB30 \n  TEMPO 1015/1021 03015G25KT",
      "metarHtml": "METAR GCLP 101130Z 02016KT 9999 SCT035 BKN055 20/11 Q1029 NOSIG",
      "tafHtml": "TAF GCLP 100800Z 1009/1109 03013KT 9999 SCT030 TX19/1014Z TN15/1106Z \n  PROB30 \n  TEMPO 1015/1021 03015G25KT"
    },
    {
      "icao": "GCTS",
      "iata": "TFS",
      "name": "Tenerife Sur Airport",
      "updatedAt": "101130Z",
      "visibility_m": 10000,
      "taf_visibility_m": 10000,
      "worst_visibility_m": 10000,
      "ceiling_ft": null,
      "hazards": [],
      "severityScore": 0,
      "metarRaw": "METAR GCTS 101130Z 07016KT 040V100 9999 SCT045 20/08 Q1029 NOSIG",
      "tafRaw": "TAF GCTS 100800Z 1009/1109 09017KT 9999 FEW030 TX23/1014Z TN16/1106Z \n  TEMPO 1009/1011 03009KT \n  PROB30 \n  TEMPO 1009/1015 10017G27KT \n  BECMG 1019/1021 03010KT",
      "metarHtml": "METAR GCTS 101130Z 07016KT 040V100 9999 SCT045 20/08 Q1029 NOSIG",
      "tafHtml": "TAF GCTS 100800Z 1009/1109 09017KT 9999 FEW030 TX23/1014Z TN16/1106Z \n  TEMPO 1009/1011 03009KT \n  PROB30 \n  TEMPO 1009/1015 10017G27KT \n  BECMG 1019/1021 03010KT"
    },
    {
      "icao": "GMAD",
      "iata": "AGA",
      "name": "Al Massira Airport",
      "updatedAt": "101130Z",
      "visibility_m": 10000,
      "taf_visibility_m": 10000,
      "worst_visibility_m": 10000,
      "ceiling_ft": null,
      "hazards": [],
      "severityScore": 0,
      "metarRaw": "METAR GMAD 101130Z 20005KT CAVOK 15/09 Q1027 NOSIG",
      "tafRaw": "TAF GMAD 101100Z 1012/1118 28008KT CAVOK",
      "metarHtml": "METAR GMAD 101130Z 20005KT <span class=\"hl-vis\">CAVOK</span> 15/09 Q1027 NOSIG",
      "tafHtml": "TAF GMAD 101100Z 1012/1118 28008KT <span class=\"hl-vis\">CAVOK</span>"
    },
    {
      "icao": "GMMX",
      "iata": "RAK",
      "name": "Menara Airport",
      "updatedAt": "101130Z",
      "visibility_m": 8000,
      "taf_visibility_m": 8000,
      "worst_visibility_m": 8000,
      "ceiling_ft": null,
      "hazards": [],
      "severityScore": 0,
      "metarRaw": "METAR GMMX 101130Z 06005KT 360V110 8000 NSC 14/08 Q1028 NOSIG",
      "tafRaw": "TAF GMMX 101100Z 1012/1118 06008KT 8000 NSC \n  TEMPO 1016/1021 34016KT",
      "metarHtml": "METAR GMMX 101130Z 06005KT 360V110 8000 NSC 14/08 Q1028 NOSIG",
      "tafHtml": "TAF GMMX 101100Z 1012/1118 06008KT 8000 NSC \n  TEMPO 1016/1021 34016KT"
    },
    {
      "icao": "EDDH",
      "iata": "HAM",
      "name": "Hamburg Helmut Schmidt Airport",
      "updatedAt": "101120Z",
      "visibility_m": 10000,
      "taf_visibility_m": 2000,
      "worst_visibility_m": 2000,
      "ceiling_ft": 4100,
      "hazards": [],
      "severityScore": 0,
      "metarRaw": "METAR EDDH 101120Z AUTO 05004KT 020V090 9999 OVC041 M01/M06 Q1014 NOSIG",
      "tafRaw": "TAF EDDH 101100Z 1012/1118 03006KT 9999 SCT040 \n  BECMG 1015/1017 33004KT \n  PROB30 \n  TEMPO 1106/1110 2000 BCFG \n  BECMG 1115/1117 18005KT",
      "metarHtml": "METAR EDDH 101120Z AUTO 05004KT 020V090 9999 OVC041 M01/M06 Q1014 NOSIG",
      "tafHtml": "TAF EDDH 101100Z 1012/1118 03006KT 9999 SCT040 \n  BECMG 1015/1017 33004KT \n  PROB30 \n  TEMPO 1106/1110 2000 BCFG \n  BECMG 1115/1117 18005KT"
    },
    {
      "icao": "EKBI",
      "iata": "BLL",
      "name": "Billund Airport",
      "updatedAt": "101120Z",
      "visibility_m": 10000,
      "taf_visibility_m": 10000,
      "worst_visibility_m": 10000,
      "ceiling_ft": null,
      "hazards": [],
      "severityScore": 0,
      "metarRaw": "METAR EKBI 101120Z AUTO 05011KT 9999 NCD M01/M06 Q1018",
      "tafRaw": "TAF EKBI 101127Z 1012/1112 05010KT CAVOK \n  BECMG 1021/1023 35005KT",
      "metarHtml": "METAR EKBI 101120Z AUTO 05011KT 9999 NCD M01/M06 Q1018",
      "tafHtml": "TAF EKBI 101127Z 1012/1112 05010KT <span class=\"hl-vis\">CAVOK</span> \n  BECMG 1021/1023 35005KT"
    },
    {
      "icao": "EKCH",
      "iata": "CPH",
      "name": "Copenhagen Kastrup Airport",
      "updatedAt": "101120Z",
      "visibility_m": 10000,
      "taf_visibility_m": 10000,
      "worst_visibility_m": 10000,
      "ceiling_ft": null,
      "hazards": [],
      "severityScore": 0,
      "metarRaw": "METAR EKCH 101120Z AUTO 01015KT 9999 NCD M03/M09 Q1017 NOSIG",
      "tafRaw": "TAF EKCH 101127Z 1012/1112 02015KT CAVOK \n  TEMPO 1017/1106 35016G26KT",
      "metarHtml": "METAR EKCH 101120Z AUTO 01015KT 9999 NCD M03/M09 Q1017 NOSIG",
      "tafHtml": "TAF EKCH 101127Z 1012/1112 02015KT <span class=\"hl-vis\">CAVOK</span> \n  TEMPO 1017/1106 35016G26KT"
    },
    {
      "icao": "ENAL",
      "iata": "AES",
      "name": "Ålesund Airport, Vigra",
      "updatedAt": "101120Z",
      "visibility_m": 10000,
      "taf_visibility_m": 10000,
      "worst_visibility_m": 10000,
      "ceiling_ft": null,
      "hazards": [],
      "severityScore": 0,
      "metarRaw": "METAR ENAL 101120Z 19008KT CAVOK 00/M07 Q1020",
      "tafRaw": "TAF ENAL 101100Z 1012/1021 19012KT CAVOK \n  BECMG 1016/1018 13005KT",
      "metarHtml": "METAR ENAL 101120Z 19008KT <span class=\"hl-vis\">CAVOK</span> 00/M07 Q1020",
      "tafHtml": "TAF ENAL 101100Z 1012/1021 19012KT <span class=\"hl-vis\">CAVOK</span> \n  BECMG 1016/1018 13005KT"
    },
    {
      "icao": "ENBR",
      "iata": "BGO",
      "name": "Bergen Airport, Flesland",
      "updatedAt": "101120Z",
      "visibility_m": 10000,
      "taf_visibility_m": 10000,
      "worst_visibility_m": 10000,
      "ceiling_ft": null,
      "hazards": [],
      "severityScore": 0,
      "metarRaw": "METAR ENBR 101120Z 12006KT CAVOK M04/M10 Q1023 NOSIG RMK WIND 1200FT 16014KT",
      "tafRaw": "TAF ENBR 101100Z 1012/1112 12005KT CAVOK \n  TEMPO 1103/1105 14015G25KT",
      "metarHtml": "METAR ENBR 101120Z 12006KT <span class=\"hl-vis\">CAVOK</span> M04/M10 Q1023 NOSIG RMK WIND 1200FT 16014KT",
      "tafHtml": "TAF ENBR 101100Z 1012/1112 12005KT <span class=\"hl-vis\">CAVOK</span> \n  TEMPO 1103/1105 14015G25KT"
    },
    {
      "icao": "ENGM",
      "iata": "OSL",
      "name": "Oslo-Gardermoen International Airport",
      "updatedAt": "101120Z",
      "visibility_m": 10000,
      "taf_visibility_m": 2000,
      "worst_visibility_m": 2000,
      "ceiling_ft": null,
      "hazards": [],
      "severityScore": 0,
      "metarRaw": "METAR ENGM 101120Z 04004KT CAVOK M13/M15 Q1023 NOSIG",
      "tafRaw": "TAF ENGM 101100Z 1012/1112 35005KT CAVOK \n  PROB30 1016/1112 2000 BCFG BKN002",
      "metarHtml": "METAR ENGM 101120Z 04004KT <span class=\"hl-vis\">CAVOK</span> M13/M15 Q1023 NOSIG",
      "tafHtml": "TAF ENGM 101100Z 1012/1112 35005KT <span class=\"hl-vis\">CAVOK</span> \n  PROB30 1016/1112 2000 BCFG BKN002"
    },
    {
      "icao": "ENHD",
      "iata": "HAU",
      "name": "Haugesund Airport, Karmøy",
      "updatedAt": "101120Z",
      "visibility_m": 10000,
      "taf_visibility_m": 10000,
      "worst_visibility_m": 10000,
      "ceiling_ft": null,
      "hazards": [],
      "severityScore": 0,
      "metarRaw": "METAR ENHD 101120Z 12015KT CAVOK M02/M11 Q1023",
      "tafRaw": "TAF ENHD 101100Z 1012/1021 13012KT 9999 FEW040",
      "metarHtml": "METAR ENHD 101120Z 12015KT <span class=\"hl-vis\">CAVOK</span> M02/M11 Q1023",
      "tafHtml": "TAF ENHD 101100Z 1012/1021 13012KT 9999 FEW040"
    },
    {
      "icao": "ENTC",
      "iata": "TOS",
      "name": "Tromsø Airport, Langnes",
      "updatedAt": "101120Z",
      "visibility_m": 10000,
      "taf_visibility_m": 10000,
      "worst_visibility_m": 10000,
      "ceiling_ft": null,
      "hazards": [],
      "severityScore": 0,
      "metarRaw": "METAR ENTC 101120Z 00000KT CAVOK M13/M15 Q1020 NOSIG RMK WIND 2600FT 15010KT",
      "tafRaw": "TAF ENTC 101100Z 1012/1112 20005KT CAVOK",
      "metarHtml": "METAR ENTC 101120Z 00000KT <span class=\"hl-vis\">CAVOK</span> M13/M15 Q1020 NOSIG RMK WIND 2600FT 15010KT",
      "tafHtml": "TAF ENTC 101100Z 1012/1112 20005KT <span class=\"hl-vis\">CAVOK</span>"
    },
    {
      "icao": "ENTO",
      "iata": "TRF",
      "name": "Sandefjord Airport, Torp",
      "updatedAt": "101120Z",
      "visibility_m": 10000,
      "taf_visibility_m": 10000,
      "worst_visibility_m": 10000,
      "ceiling_ft": null,
      "hazards": [],
      "severityScore": 0,
      "metarRaw": "METAR ENTO 101120Z 36008KT CAVOK M08/M12 Q1023 NOSIG",
      "tafRaw": "TAF ENTO 101100Z 1012/1112 36005KT CAVOK",
      "metarHtml": "METAR ENTO 101120Z 36008KT <span class=\"hl-vis\">CAVOK</span> M08/M12 Q1023 NOSIG",
      "tafHtml": "TAF ENTO 101100Z 1012/1112 36005KT <span class=\"hl-vis\">CAVOK</span>"
    },
    {
      "icao": "ENVA",
      "iata": "TRD",
      "name": "Trondheim Airport, Værnes",
      "updatedAt": "101120Z",
      "visibility_m": 10000,
      "taf_visibility_m": 10000,
      "worst_visibility_m": 10000,
      "ceiling_ft": null,
      "hazards": [],
      "severityScore": 0,
      "metarRaw": "METAR ENVA 101120Z 11004KT CAVOK M07/M12 Q1021 NOSIG RMK WIND 670FT 13008KT",
      "tafRaw": "TAF ENVA 101100Z 1012/1112 10006KT CAVOK",
      "metarHtml": "METAR ENVA 101120Z 11004KT <span class=\"hl-vis\">CAVOK</span> M07/M12 Q1021 NOSIG RMK WIND 670FT 13008KT",
      "tafHtml": "TAF ENVA 101100Z 1012/1112 10006KT <span class=\"hl-vis\">CAVOK</span>"
    },
    {
      "icao": "ENZV",
      "iata": "SVG",
      "name": "Stavanger Airport, Sola",
      "updatedAt": "101120Z",
      "visibility_m": 10000,
      "taf_visibility_m": 10000,
      "worst_visibility_m": 10000,
      "ceiling_ft": 4100,
      "hazards": [],
      "severityScore": 0,
      "metarRaw": "METAR ENZV 101120Z 07012KT 9999 BKN041 M04/M12 Q1023 NOSIG",
      "tafRaw": "TAF ENZV 101100Z 1012/1112 10012KT 9999 SCT040 \n  BECMG 1103/1105 14018G30KT",
      "metarHtml": "METAR ENZV 101120Z 07012KT 9999 BKN041 M04/M12 Q1023 NOSIG",
      "tafHtml": "TAF ENZV 101100Z 1012/1112 10012KT 9999 SCT040 \n  BECMG 1103/1105 14018G30KT"
    },
    {
      "icao": "ESGG",
      "iata": "GOT",
      "name": "Göteborg Landvetter Airport",
      "updatedAt": "101120Z",
      "visibility_m": 10000,
      "taf_visibility_m": 10000,
      "worst_visibility_m": 10000,
      "ceiling_ft": null,
      "hazards": [],
      "severityScore": 0,
      "metarRaw": "METAR ESGG 101120Z 01010KT CAVOK M07/M10 Q1020",
      "tafRaw": "TAF ESGG 101130Z 1012/1112 02009KT CAVOK \n  PROB40 1017/1021 BKN009",
      "metarHtml": "METAR ESGG 101120Z 01010KT <span class=\"hl-vis\">CAVOK</span> M07/M10 Q1020",
      "tafHtml": "TAF ESGG 101130Z 1012/1112 02009KT <span class=\"hl-vis\">CAVOK</span> \n  PROB40 1017/1021 BKN009"
    },
    {
      "icao": "ESKN",
      "iata": "NYO",
      "name": "Stockholm Skavsta Airport",
      "updatedAt": "101120Z",
      "visibility_m": 10000,
      "taf_visibility_m": 10000,
      "worst_visibility_m": 10000,
      "ceiling_ft": null,
      "hazards": [],
      "severityScore": 0,
      "metarRaw": "METAR ESKN 101120Z 34012KT CAVOK M05/M08 Q1017",
      "tafRaw": "TAF ESKN 101130Z 1012/1112 35012KT CAVOK \n  BECMG 1012/1014 35015G25KT \n  PROB40 1018/1021 BKN009",
      "metarHtml": "METAR ESKN 101120Z 34012KT <span class=\"hl-vis\">CAVOK</span> M05/M08 Q1017",
      "tafHtml": "TAF ESKN 101130Z 1012/1112 35012KT <span class=\"hl-vis\">CAVOK</span> \n  BECMG 1012/1014 35015G25KT \n  PROB40 1018/1021 BKN009"
    },
    {
      "icao": "ESMS",
      "iata": "MMX",
      "name": "Malmö Sturup Airport",
      "updatedAt": "101120Z",
      "visibility_m": 10000,
      "taf_visibility_m": 10000,
      "worst_visibility_m": 10000,
      "ceiling_ft": null,
      "hazards": [],
      "severityScore": 0,
      "metarRaw": "METAR ESMS 101120Z 36010KT CAVOK M05/M10 Q1015",
      "tafRaw": "TAF ESMS 101127Z 1012/1112 36010KT CAVOK",
      "metarHtml": "METAR ESMS 101120Z 36010KT <span class=\"hl-vis\">CAVOK</span> M05/M10 Q1015",
      "tafHtml": "TAF ESMS 101127Z 1012/1112 36010KT <span class=\"hl-vis\">CAVOK</span>"
    },
    {
      "icao": "ESSA",
      "iata": "ARN",
      "name": "Stockholm-Arlanda Airport",
      "updatedAt": "101120Z",
      "visibility_m": 10000,
      "taf_visibility_m": 10000,
      "worst_visibility_m": 10000,
      "ceiling_ft": null,
      "hazards": [],
      "severityScore": 0,
      "metarRaw": "METAR ESSA 101120Z 34012KT CAVOK M07/M09 Q1017 NOSIG",
      "tafRaw": "TAF ESSA 101130Z 1012/1112 35012G22KT CAVOK \n  PROB40 1015/1103 BKN013",
      "metarHtml": "METAR ESSA 101120Z 34012KT <span class=\"hl-vis\">CAVOK</span> M07/M09 Q1017 NOSIG",
      "tafHtml": "TAF ESSA 101130Z 1012/1112 35012G22KT <span class=\"hl-vis\">CAVOK</span> \n  PROB40 1015/1103 BKN013"
    },
    {
      "icao": "HEGN",
      "iata": "HRG",
      "name": "Hurghada International Airport",
      "updatedAt": "101100Z",
      "visibility_m": 10000,
      "taf_visibility_m": 10000,
      "worst_visibility_m": 10000,
      "ceiling_ft": null,
      "hazards": [],
      "severityScore": 0,
      "metarRaw": "METAR HEGN 101100Z 36012KT CAVOK 21/07 Q1019 NOSIG",
      "tafRaw": "TAF HEGN 101100Z 1012/1118 36010G20KT CAVOK",
      "metarHtml": "METAR HEGN 101100Z 36012KT <span class=\"hl-vis\">CAVOK</span> 21/07 Q1019 NOSIG",
      "tafHtml": "TAF HEGN 101100Z 1012/1118 36010G20KT <span class=\"hl-vis\">CAVOK</span>"
    },
    {
      "icao": "HEMA",
      "iata": "RMF",
      "name": "Marsa Alam International Airport",
      "updatedAt": "101100Z",
      "visibility_m": 10000,
      "taf_visibility_m": 4000,
      "worst_visibility_m": 4000,
      "ceiling_ft": null,
      "hazards": [],
      "severityScore": 0,
      "metarRaw": "METAR HEMA 101100Z 33018KT 9999 SCT025 21/12 Q1021 NOSIG",
      "tafRaw": "TAF HEMA 101100Z 1012/1118 35012G26KT 6000 SCT020 \n  TEMPO 1012/1021 4000 SA",
      "metarHtml": "METAR HEMA 101100Z 33018KT 9999 SCT025 21/12 Q1021 NOSIG",
      "tafHtml": "TAF HEMA 101100Z 1012/1118 35012G26KT 6000 SCT020 \n  TEMPO 1012/1021 4000 SA"
    },
    {
      "icao": "HESH",
      "iata": "SSH",
      "name": "Sharm El Sheikh International Airport",
      "updatedAt": "101100Z",
      "visibility_m": 10000,
      "taf_visibility_m": 10000,
      "worst_visibility_m": 10000,
      "ceiling_ft": null,
      "hazards": [],
      "severityScore": 0,
      "metarRaw": "METAR HESH 101100Z 35010KT CAVOK 22/05 Q1020 NOSIG",
      "tafRaw": "TAF HESH 101100Z 1012/1118 01016KT CAVOK",
      "metarHtml": "METAR HESH 101100Z 35010KT <span class=\"hl-vis\">CAVOK</span> 22/05 Q1020 NOSIG",
      "tafHtml": "TAF HESH 101100Z 1012/1118 01016KT <span class=\"hl-vis\">CAVOK</span>"
    },
    {
      "icao": "HESX",
      "iata": "SPX",
      "name": "Sphinx International Airport",
      "updatedAt": "101100Z",
      "visibility_m": 10000,
      "taf_visibility_m": 3000,
      "worst_visibility_m": 3000,
      "ceiling_ft": null,
      "hazards": [],
      "severityScore": 0,
      "metarRaw": "METAR HESX 101100Z 24008KT CAVOK 18/08 Q1021 NOSIG",
      "tafRaw": "TAF HESX 101100Z 1012/1118 24010KT 9999 FEW020 \n  TEMPO 1100/1106 3000 HZ SCT020",
      "metarHtml": "METAR HESX 101100Z 24008KT <span class=\"hl-vis\">CAVOK</span> 18/08 Q1021 NOSIG",
      "tafHtml": "TAF HESX 101100Z 1012/1118 24010KT 9999 FEW020 \n  TEMPO 1100/1106 3000 HZ SCT020"
    },
    {
      "icao": "LEAL",
      "iata": "ALC",
      "name": "Alicante-Elche Miguel Hernández Airport",
      "updatedAt": "101130Z",
      "visibility_m": 10000,
      "taf_visibility_m": 10000,
      "worst_visibility_m": 10000,
      "ceiling_ft": null,
      "hazards": [],
      "severityScore": 0,
      "metarRaw": "METAR LEAL 101130Z 31025G36KT 9999 FEW020 14/02 Q1024 NOSIG",
      "tafRaw": "TAF LEAL 101100Z 1012/1112 29017KT CAVOK TX16/1014Z TN07/1106Z \n  TEMPO 1012/1014 31022G35KT \n  BECMG 1013/1016 28008KT",
      "metarHtml": "METAR LEAL 101130Z 31025G36KT 9999 FEW020 14/02 Q1024 NOSIG",
      "tafHtml": "TAF LEAL 101100Z 1012/1112 29017KT <span class=\"hl-vis\">CAVOK</span> TX16/1014Z TN07/1106Z \n  TEMPO 1012/1014 31022G35KT \n  BECMG 1013/1016 28008KT"
    },
    {
      "icao": "LEBL",
      "iata": "BCN",
      "name": "Josep Tarradellas Barcelona-El Prat Airport",
      "updatedAt": "101130Z",
      "visibility_m": 10000,
      "taf_visibility_m": 10000,
      "worst_visibility_m": 10000,
      "ceiling_ft": null,
      "hazards": [],
      "severityScore": 0,
      "metarRaw": "METAR LEBL 101130Z 31017KT 9999 FEW027 12/02 Q1019 NOSIG",
      "tafRaw": "TAF LEBL 101100Z 1012/1112 30010KT 9999 FEW020 TX15/1013Z TN05/1106Z \n  PROB30 \n  TEMPO 1012/1016 32015G25KT \n  BECMG 1022/1024 35008KT",
      "metarHtml": "METAR LEBL 101130Z 31017KT 9999 FEW027 12/02 Q1019 NOSIG",
      "tafHtml": "TAF LEBL 101100Z 1012/1112 30010KT 9999 FEW020 TX15/1013Z TN05/1106Z \n  PROB30 \n  TEMPO 1012/1016 32015G25KT \n  BECMG 1022/1024 35008KT"
    },
    {
      "icao": "LEMD",
      "iata": "MAD",
      "name": "Adolfo Suárez Madrid–Barajas Airport",
      "updatedAt": "101130Z",
      "visibility_m": 10000,
      "taf_visibility_m": 10000,
      "worst_visibility_m": 10000,
      "ceiling_ft": null,
      "hazards": [],
      "severityScore": 0,
      "metarRaw": "METAR LEMD 101130Z 33001KT CAVOK 08/M01 Q1027 NOSIG",
      "tafRaw": "TAF LEMD 101100Z 1012/1118 VRB03KT CAVOK TX10/1014Z TNM03/1106Z",
      "metarHtml": "METAR LEMD 101130Z 33001KT <span class=\"hl-vis\">CAVOK</span> 08/M01 Q1027 NOSIG",
      "tafHtml": "TAF LEMD 101100Z 1012/1118 VRB03KT <span class=\"hl-vis\">CAVOK</span> TX10/1014Z TNM03/1106Z"
    },
    {
      "icao": "LEMG",
      "iata": "AGP",
      "name": "Málaga-Costa del Sol Airport",
      "updatedAt": "101130Z",
      "visibility_m": 10000,
      "taf_visibility_m": 10000,
      "worst_visibility_m": 10000,
      "ceiling_ft": null,
      "hazards": [],
      "severityScore": 0,
      "metarRaw": "METAR LEMG 101130Z 29020KT CAVOK 13/05 Q1028 NOSIG",
      "tafRaw": "TAF LEMG 101100Z 1012/1112 29014KT CAVOK TX16/1014Z TN06/1107Z \n  BECMG 1110/1112 29004KT",
      "metarHtml": "METAR LEMG 101130Z 29020KT <span class=\"hl-vis\">CAVOK</span> 13/05 Q1028 NOSIG",
      "tafHtml": "TAF LEMG 101100Z 1012/1112 29014KT <span class=\"hl-vis\">CAVOK</span> TX16/1014Z TN06/1107Z \n  BECMG 1110/1112 29004KT"
    },
    {
      "icao": "LEVC",
      "iata": "VLC",
      "name": "Valencia Airport",
      "updatedAt": "101130Z",
      "visibility_m": 10000,
      "taf_visibility_m": 10000,
      "worst_visibility_m": 10000,
      "ceiling_ft": null,
      "hazards": [],
      "severityScore": 0,
      "metarRaw": "METAR LEVC 101130Z 31016KT CAVOK 14/M02 Q1024 NOSIG",
      "tafRaw": "TAF LEVC 101100Z 1012/1112 29008KT CAVOK TX16/1014Z TN04/1106Z \n  PROB30 \n  TEMPO 1012/1016 29015G25KT",
      "metarHtml": "METAR LEVC 101130Z 31016KT <span class=\"hl-vis\">CAVOK</span> 14/M02 Q1024 NOSIG",
      "tafHtml": "TAF LEVC 101100Z 1012/1112 29008KT <span class=\"hl-vis\">CAVOK</span> TX16/1014Z TN04/1106Z \n  PROB30 \n  TEMPO 1012/1016 29015G25KT"
    },
    {
      "icao": "LEZG",
      "iata": "ZAZ",
      "name": "Zaragoza Airport",
      "updatedAt": "101130Z",
      "visibility_m": 10000,
      "taf_visibility_m": 10000,
      "worst_visibility_m": 10000,
      "ceiling_ft": 6000,
      "hazards": [],
      "severityScore": 0,
      "metarRaw": "METAR LEZG 101130Z 29015KT 9999 BKN060 11/01 Q1024 NOSIG",
      "tafRaw": "TAF LEZG 101100Z 1012/1112 28012KT 9999 FEW040 TX12/1015Z TN03/1106Z \n  TEMPO 1012/1017 31020G30KT",
      "metarHtml": "METAR LEZG 101130Z 29015KT 9999 BKN060 11/01 Q1024 NOSIG",
      "tafHtml": "TAF LEZG 101100Z 1012/1112 28012KT 9999 FEW040 TX12/1015Z TN03/1106Z \n  TEMPO 1012/1017 31020G30KT"
    },
    {
      "icao": "LFMN",
      "iata": "NCE",
      "name": "Nice-Côte d'Azur Airport",
      "updatedAt": "101130Z",
      "visibility_m": 10000,
      "taf_visibility_m": 10000,
      "worst_visibility_m": 10000,
      "ceiling_ft": null,
      "hazards": [],
      "severityScore": 0,
      "metarRaw": "METAR LFMN 101130Z 36006KT 310V050 CAVOK 15/M08 Q1004 NOSIG",
      "tafRaw": "TAF LFMN 100800Z 1009/1115 33013KT CAVOK \n  PROB40 \n  TEMPO 1009/1018 30015G25KT \n  BECMG 1111/1114 24010KT",
      "metarHtml": "METAR LFMN 101130Z 36006KT 310V050 <span class=\"hl-vis\">CAVOK</span> 15/M08 Q1004 NOSIG",
      "tafHtml": "TAF LFMN 100800Z 1009/1115 33013KT <span class=\"hl-vis\">CAVOK</span> \n  PROB40 \n  TEMPO 1009/1018 30015G25KT \n  BECMG 1111/1114 24010KT"
    },
    {
      "icao": "LFPO",
      "iata": "ORY",
      "name": "Paris-Orly Airport",
      "updatedAt": "101130Z",
      "visibility_m": 10000,
      "taf_visibility_m": 10000,
      "worst_visibility_m": 10000,
      "ceiling_ft": 2600,
      "hazards": [],
      "severityScore": 0,
      "metarRaw": "METAR LFPO 101130Z 32017KT 280V360 9999 BKN026 BKN040 04/M01 Q1013 NOSIG",
      "tafRaw": "TAF LFPO 100500Z 1006/1112 30010KT 9999 BKN025 \n  TEMPO 1006/1016 30015G25KT \n  BECMG 1022/1024 22005KT \n  BECMG 1106/1108 16010KT",
      "metarHtml": "METAR LFPO 101130Z 32017KT 280V360 9999 BKN026 BKN040 04/M01 Q1013 NOSIG",
      "tafHtml": "TAF LFPO 100500Z 1006/1112 30010KT 9999 BKN025 \n  TEMPO 1006/1016 30015G25KT \n  BECMG 1022/1024 22005KT \n  BECMG 1106/1108 16010KT"
    },
    {
      "icao": "LICC",
      "iata": "CTA",
      "name": "Catania-Fontanarossa Airport",
      "updatedAt": "101120Z",
      "visibility_m": 10000,
      "taf_visibility_m": 10000,
      "worst_visibility_m": 10000,
      "ceiling_ft": null,
      "hazards": [],
      "severityScore": 0,
      "metarRaw": "METAR LICC 101120Z 26018G28KT 9999 FEW040 16/11 Q1007",
      "tafRaw": "TAF LICC 101100Z 1012/1112 26018G30KT 9999 FEW050",
      "metarHtml": "METAR LICC 101120Z 26018G28KT 9999 FEW040 16/11 Q1007",
      "tafHtml": "TAF LICC 101100Z 1012/1112 26018G30KT 9999 FEW050"
    },
    {
      "icao": "LIMC",
      "iata": "MXP",
      "name": "Milan Malpensa International Airport",
      "updatedAt": "101120Z",
      "visibility_m": 10000,
      "taf_visibility_m": 7000,
      "worst_visibility_m": 7000,
      "ceiling_ft": null,
      "hazards": [],
      "severityScore": 0,
      "metarRaw": "METAR LIMC 101120Z 02004KT CAVOK 04/01 Q1003 NOSIG",
      "tafRaw": "TAF LIMC 101100Z 1012/1118 VRB04KT 7000 NSC \n  BECMG 1021/1023 01010KT",
      "metarHtml": "METAR LIMC 101120Z 02004KT <span class=\"hl-vis\">CAVOK</span> 04/01 Q1003 NOSIG",
      "tafHtml": "TAF LIMC 101100Z 1012/1118 VRB04KT 7000 NSC \n  BECMG 1021/1023 01010KT"
    },
    {
      "icao": "LIME",
      "iata": "BGY",
      "name": "Milan Bergamo Airport / Antonio Locatelli Air Base",
      "updatedAt": "101120Z",
      "visibility_m": 10000,
      "taf_visibility_m": 8000,
      "worst_visibility_m": 8000,
      "ceiling_ft": null,
      "hazards": [],
      "severityScore": 0,
      "metarRaw": "METAR LIME 101120Z 32003KT 290V350 CAVOK 05/M03 Q1003 NOSIG",
      "tafRaw": "TAF LIME 101100Z 1012/1112 VRB04KT 8000 NSC \n  BECMG 1020/1022 33010KT \n  BECMG 1108/1110 VRB05KT",
      "metarHtml": "METAR LIME 101120Z 32003KT 290V350 <span class=\"hl-vis\">CAVOK</span> 05/M03 Q1003 NOSIG",
      "tafHtml": "TAF LIME 101100Z 1012/1112 VRB04KT 8000 NSC \n  BECMG 1020/1022 33010KT \n  BECMG 1108/1110 VRB05KT"
    },
    {
      "icao": "LIMF",
      "iata": "TRN",
      "name": "Turin Airport",
      "updatedAt": "101120Z",
      "visibility_m": 10000,
      "taf_visibility_m": 8000,
      "worst_visibility_m": 8000,
      "ceiling_ft": null,
      "hazards": [],
      "severityScore": 0,
      "metarRaw": "METAR LIMF 101120Z 13004KT 090V170 CAVOK 04/M03 Q1003",
      "tafRaw": "TAF LIMF 101100Z 1012/1112 30010KT 8000 NSC \n  TEMPO 1012/1016 30016G26KT \n  BECMG 1020/1022 VRB05KT",
      "metarHtml": "METAR LIMF 101120Z 13004KT 090V170 <span class=\"hl-vis\">CAVOK</span> 04/M03 Q1003",
      "tafHtml": "TAF LIMF 101100Z 1012/1112 30010KT 8000 NSC \n  TEMPO 1012/1016 30016G26KT \n  BECMG 1020/1022 VRB05KT"
    },
    {
      "icao": "LIMJ",
      "iata": "GOA",
      "name": "Genoa Cristoforo Colombo Airport",
      "updatedAt": "101120Z",
      "visibility_m": 10000,
      "taf_visibility_m": 10000,
      "worst_visibility_m": 10000,
      "ceiling_ft": null,
      "hazards": [],
      "severityScore": 0,
      "metarRaw": "METAR LIMJ 101120Z 29010KT 260V330 CAVOK 13/M05 Q1003",
      "tafRaw": "TAF LIMJ 101100Z 1012/1112 04013KT CAVOK \n  BECMG 1012/1014 34013KT",
      "metarHtml": "METAR LIMJ 101120Z 29010KT 260V330 <span class=\"hl-vis\">CAVOK</span> 13/M05 Q1003",
      "tafHtml": "TAF LIMJ 101100Z 1012/1112 04013KT <span class=\"hl-vis\">CAVOK</span> \n  BECMG 1012/1014 34013KT"
    },
    {
      "icao": "LIPE",
      "iata": "BLQ",
      "name": "Bologna Guglielmo Marconi Airport",
      "updatedAt": "101120Z",
      "visibility_m": 8000,
      "taf_visibility_m": 7000,
      "worst_visibility_m": 7000,
      "ceiling_ft": null,
      "hazards": [],
      "severityScore": 0,
      "metarRaw": "METAR LIPE 101120Z 28008KT 8000 NSC 05/M00 Q1003",
      "tafRaw": "TAF LIPE 101100Z 1012/1112 28006KT 7000 NSC",
      "metarHtml": "METAR LIPE 101120Z 28008KT 8000 NSC 05/M00 Q1003",
      "tafHtml": "TAF LIPE 101100Z 1012/1112 28006KT 7000 NSC"
    },
    {
      "icao": "LIPH",
      "iata": "TSF",
      "name": "Treviso Antonio Canova Airport",
      "updatedAt": "101120Z",
      "visibility_m": 10000,
      "taf_visibility_m": 10000,
      "worst_visibility_m": 10000,
      "ceiling_ft": null,
      "hazards": [],
      "severityScore": 0,
      "metarRaw": "METAR LIPH 101120Z 27006KT 240V300 CAVOK 09/M00 Q1001",
      "tafRaw": "TAF LIPH 101100Z 1012/1112 VRB05KT 9999 SCT040",
      "metarHtml": "METAR LIPH 101120Z 27006KT 240V300 <span class=\"hl-vis\">CAVOK</span> 09/M00 Q1001",
      "tafHtml": "TAF LIPH 101100Z 1012/1112 VRB05KT 9999 SCT040"
    },
    {
      "icao": "LIPQ",
      "iata": "TRS",
      "name": "Trieste–Friuli Venezia Giulia Airport",
      "updatedAt": "101120Z",
      "visibility_m": 10000,
      "taf_visibility_m": 10000,
      "worst_visibility_m": 10000,
      "ceiling_ft": null,
      "hazards": [],
      "severityScore": 0,
      "metarRaw": "METAR LIPQ 101120Z AUTO 36004KT 330V050 9999 NCD 10/01 Q1001",
      "tafRaw": "TAF LIPQ 101100Z 1012/1112 VRB05KT 9999 BKN030",
      "metarHtml": "METAR LIPQ 101120Z AUTO 36004KT 330V050 9999 NCD 10/01 Q1001",
      "tafHtml": "TAF LIPQ 101100Z 1012/1112 VRB05KT 9999 BKN030"
    },
    {
      "icao": "LIPX",
      "iata": "VRN",
      "name": "Verona Villafranca Valerio Catullo Airport",
      "updatedAt": "101120Z",
      "visibility_m": 10000,
      "taf_visibility_m": 8000,
      "worst_visibility_m": 8000,
      "ceiling_ft": null,
      "hazards": [],
      "severityScore": 0,
      "metarRaw": "METAR LIPX 101120Z 28012KT 9999 FEW080 07/M00 Q1002",
      "tafRaw": "TAF LIPX 101100Z 1012/1112 VRB05KT 8000 NSC",
      "metarHtml": "METAR LIPX 101120Z 28012KT 9999 FEW080 07/M00 Q1002",
      "tafHtml": "TAF LIPX 101100Z 1012/1112 VRB05KT 8000 NSC"
    },
    {
      "icao": "LIPZ",
      "iata": "VCE",
      "name": "Venice Marco Polo Airport",
      "updatedAt": "101120Z",
      "visibility_m": 10000,
      "taf_visibility_m": 10000,
      "worst_visibility_m": 10000,
      "ceiling_ft": null,
      "hazards": [],
      "severityScore": 0,
      "metarRaw": "METAR LIPZ 101120Z 23004KT 190V270 CAVOK 09/M00 Q1002 NOSIG",
      "tafRaw": "TAF LIPZ 101100Z 1012/1118 VRB05KT CAVOK \n  BECMG 1110/1112 19012KT",
      "metarHtml": "METAR LIPZ 101120Z 23004KT 190V270 <span class=\"hl-vis\">CAVOK</span> 09/M00 Q1002 NOSIG",
      "tafHtml": "TAF LIPZ 101100Z 1012/1118 VRB05KT <span class=\"hl-vis\">CAVOK</span> \n  BECMG 1110/1112 19012KT"
    },
    {
      "icao": "LIRF",
      "iata": "FCO",
      "name": "Rome–Fiumicino Leonardo da Vinci International Airport",
      "updatedAt": "101120Z",
      "visibility_m": 10000,
      "taf_visibility_m": 10000,
      "worst_visibility_m": 10000,
      "ceiling_ft": null,
      "hazards": [],
      "severityScore": 0,
      "metarRaw": "METAR LIRF 101120Z 34006KT 9999 SCT035 09/05 Q1002 NOSIG",
      "tafRaw": "TAF LIRF 101100Z 1012/1118 36010KT 9999 SCT025",
      "metarHtml": "METAR LIRF 101120Z 34006KT 9999 SCT035 09/05 Q1002 NOSIG",
      "tafHtml": "TAF LIRF 101100Z 1012/1118 36010KT 9999 SCT025"
    },
    {
      "icao": "LIRP",
      "iata": "PSA",
      "name": "Pisa International Airport",
      "updatedAt": "101115Z",
      "visibility_m": 10000,
      "taf_visibility_m": 10000,
      "worst_visibility_m": 10000,
      "ceiling_ft": null,
      "hazards": [],
      "severityScore": 0,
      "metarRaw": "METAR LIRP 101115Z 34003KT CAVOK 10/03 Q1001 NOSIG",
      "tafRaw": "TAF LIRP 101100Z 1012/1112 34005KT CAVOK",
      "metarHtml": "METAR LIRP 101115Z 34003KT <span class=\"hl-vis\">CAVOK</span> 10/03 Q1001 NOSIG",
      "tafHtml": "TAF LIRP 101100Z 1012/1112 34005KT <span class=\"hl-vis\">CAVOK</span>"
    },
    {
      "icao": "LIRZ",
      "iata": "PEG",
      "name": "Perugia San Francesco d'Assisi – Umbria International Airport",
      "updatedAt": "101120Z",
      "visibility_m": 10000,
      "taf_visibility_m": 10000,
      "worst_visibility_m": 10000,
      "ceiling_ft": null,
      "hazards": [],
      "severityScore": 0,
      "metarRaw": "METAR LIRZ 101120Z AUTO 22003KT 160V280 9999 BKN019/// 08/04 Q1001",
      "tafRaw": "TAF LIRZ 101100Z 1012/1112 35011KT 9999 BKN040 \n  BECMG 1017/1019 VRB05KT \n  BECMG 1109/1111 02013KT",
      "metarHtml": "METAR LIRZ 101120Z AUTO 22003KT 160V280 9999 BKN019/// 08/04 Q1001",
      "tafHtml": "TAF LIRZ 101100Z 1012/1112 35011KT 9999 BKN040 \n  BECMG 1017/1019 VRB05KT \n  BECMG 1109/1111 02013KT"
    },
    {
      "icao": "LPFR",
      "iata": "FAO",
      "name": "Faro Airport",
      "updatedAt": "101130Z",
      "visibility_m": 10000,
      "taf_visibility_m": 10000,
      "worst_visibility_m": 10000,
      "ceiling_ft": null,
      "hazards": [],
      "severityScore": 0,
      "metarRaw": "METAR LPFR 101130Z 02004KT 330V070 9999 FEW014 15/09 Q1031",
      "tafRaw": "TAF LPFR 101100Z 1012/1112 34005KT 9999 FEW025 \n  BECMG 1012/1014 25010KT SCT030 \n  BECMG 1019/1021 36005KT \n  BECMG 1023/1101 VRB02KT \n  BECMG 1108/1110 03005KT",
      "metarHtml": "METAR LPFR 101130Z 02004KT 330V070 9999 FEW014 15/09 Q1031",
      "tafHtml": "TAF LPFR 101100Z 1012/1112 34005KT 9999 FEW025 \n  BECMG 1012/1014 25010KT SCT030 \n  BECMG 1019/1021 36005KT \n  BECMG 1023/1101 VRB02KT \n  BECMG 1108/1110 03005KT"
    },
    {
      "icao": "LRIA",
      "iata": "IAS",
      "name": "Iaşi Airport",
      "updatedAt": "101130Z",
      "visibility_m": 10000,
      "taf_visibility_m": 10000,
      "worst_visibility_m": 10000,
      "ceiling_ft": null,
      "hazards": [],
      "severityScore": 0,
      "metarRaw": "METAR LRIA 101130Z VRB01KT CAVOK M00/M05 Q1001",
      "tafRaw": "TAF LRIA 101100Z 1012/1021 VRB04KT CAVOK \n  BECMG 1017/1019 35010KT",
      "metarHtml": "METAR LRIA 101130Z VRB01KT <span class=\"hl-vis\">CAVOK</span> M00/M05 Q1001",
      "tafHtml": "TAF LRIA 101100Z 1012/1021 VRB04KT <span class=\"hl-vis\">CAVOK</span> \n  BECMG 1017/1019 35010KT"
    },
    {
      "icao": "LRBC",
      "iata": "BCM",
      "name": "Bacău George Enescu International  Airport",
      "updatedAt": "101130Z",
      "visibility_m": 10000,
      "taf_visibility_m": 10000,
      "worst_visibility_m": 10000,
      "ceiling_ft": 4700,
      "hazards": [],
      "severityScore": 0,
      "metarRaw": "METAR LRBC 101130Z 02004KT 340V050 9999 BKN047 M02/M06 Q1000",
      "tafRaw": "TAF LRBC 101100Z 1012/1021 VRB04KT 9999 BKN050 \n  BECMG 1016/1018 35012KT",
      "metarHtml": "METAR LRBC 101130Z 02004KT 340V050 9999 BKN047 M02/M06 Q1000",
      "tafHtml": "TAF LRBC 101100Z 1012/1021 VRB04KT 9999 BKN050 \n  BECMG 1016/1018 35012KT"
    },
    {
      "icao": "LRSV",
      "iata": "SCV",
      "name": "Suceava Stefan cel Mare Airport",
      "updatedAt": "101130Z",
      "visibility_m": 10000,
      "taf_visibility_m": 10000,
      "worst_visibility_m": 10000,
      "ceiling_ft": null,
      "hazards": [],
      "severityScore": 0,
      "metarRaw": "METAR LRSV 101130Z 04006KT CAVOK M06/M10 Q0998",
      "tafRaw": "TAF LRSV 101100Z 1012/1021 03008KT CAVOK",
      "metarHtml": "METAR LRSV 101130Z 04006KT <span class=\"hl-vis\">CAVOK</span> M06/M10 Q0998",
      "tafHtml": "TAF LRSV 101100Z 1012/1021 03008KT <span class=\"hl-vis\">CAVOK</span>"
    },
    {
      "icao": "LUKK",
      "iata": "RMO",
      "name": "Chişinău International Airport",
      "updatedAt": "101130Z",
      "visibility_m": 10000,
      "taf_visibility_m": 10000,
      "worst_visibility_m": 10000,
      "ceiling_ft": null,
      "hazards": [],
      "severityScore": 0,
      "metarRaw": "METAR LUKK 101130Z 13002KT CAVOK M03/M05 Q1000 NOSIG",
      "tafRaw": "TAF LUKK 101105Z 1012/1112 VRB05KT CAVOK \n  BECMG 1022/1024 33012KT \n  TEMPO 1101/1112 34016G26KT",
      "metarHtml": "METAR LUKK 101130Z 13002KT <span class=\"hl-vis\">CAVOK</span> M03/M05 Q1000 NOSIG",
      "tafHtml": "TAF LUKK 101105Z 1012/1112 VRB05KT <span class=\"hl-vis\">CAVOK</span> \n  BECMG 1022/1024 33012KT \n  TEMPO 1101/1112 34016G26KT"
    },
    {
      "icao": "LZKZ",
      "iata": "KSC",
      "name": "Košice International Airport",
      "updatedAt": "101130Z",
      "visibility_m": 7000,
      "taf_visibility_m": 10000,
      "worst_visibility_m": 7000,
      "ceiling_ft": 3000,
      "hazards": [],
      "severityScore": 0,
      "metarRaw": "METAR LZKZ 101130Z VRB02KT 7000 OVC030 M05/M08 Q1001 NOSIG",
      "tafRaw": "TAF LZKZ 101115Z 1012/1112 03006KT 9999 SCT010 BKN030 \n  BECMG 1012/1014 02013KT \n  TEMPO 1013/1020 02018G28KT \n  BECMG 1023/1101 21006KT BKN010 \n  TEMPO 1101/1108 OVC005",
      "metarHtml": "METAR LZKZ 101130Z VRB02KT 7000 OVC030 M05/M08 Q1001 NOSIG",
      "tafHtml": "TAF LZKZ 101115Z 1012/1112 03006KT 9999 SCT010 BKN030 \n  BECMG 1012/1014 02013KT \n  TEMPO 1013/1020 02018G28KT \n  BECMG 1023/1101 21006KT BKN010 \n  TEMPO 1101/1108 OVC005"
    },
    {
      "icao": "OEJN",
      "iata": "JED",
      "name": "King Abdulaziz International Airport",
      "updatedAt": "101100Z",
      "visibility_m": 10000,
      "taf_visibility_m": 10000,
      "worst_visibility_m": 10000,
      "ceiling_ft": null,
      "hazards": [],
      "severityScore": 0,
      "metarRaw": "METAR OEJN 101100Z 33009KT 9999 SCT040 30/14 Q1013 NOSIG",
      "tafRaw": "TAF OEJN 101100Z 1012/1118 32010KT 9999 SCT040 \n  BECMG 1018/1020 03005KT FEW040 \n  BECMG 1109/1111 24010KT",
      "metarHtml": "METAR OEJN 101100Z 33009KT 9999 SCT040 30/14 Q1013 NOSIG",
      "tafHtml": "TAF OEJN 101100Z 1012/1118 32010KT 9999 SCT040 \n  BECMG 1018/1020 03005KT FEW040 \n  BECMG 1109/1111 24010KT"
    },
    {
      "icao": "OEMA",
      "iata": "MED",
      "name": "Prince Mohammad Bin Abdulaziz Airport",
      "updatedAt": "101100Z",
      "visibility_m": 10000,
      "taf_visibility_m": 7000,
      "worst_visibility_m": 7000,
      "ceiling_ft": null,
      "hazards": [],
      "severityScore": 0,
      "metarRaw": "METAR OEMA 101100Z 09004KT CAVOK 23/03 Q1019 NOSIG",
      "tafRaw": "TAF OEMA 101100Z 1012/1118 07010KT 7000 NSC \n  BECMG 1106/1108 13013KT",
      "metarHtml": "METAR OEMA 101100Z 09004KT <span class=\"hl-vis\">CAVOK</span> 23/03 Q1019 NOSIG",
      "tafHtml": "TAF OEMA 101100Z 1012/1118 07010KT 7000 NSC \n  BECMG 1106/1108 13013KT"
    },
    {
      "icao": "OMAA",
      "iata": "AUH",
      "name": "Zayed International Airport",
      "updatedAt": "101100Z",
      "visibility_m": 10000,
      "taf_visibility_m": 8000,
      "worst_visibility_m": 8000,
      "ceiling_ft": null,
      "hazards": [],
      "severityScore": 0,
      "metarRaw": "METAR OMAA 101100Z 24007KT 200V270 CAVOK 25/03 Q1017 BECMG 33011KT",
      "tafRaw": "TAF OMAA 101100Z 1012/1118 VRB02KT 8000 FEW045 \n  BECMG 1012/1014 32011KT \n  BECMG 1017/1019 06005KT \n  BECMG 1110/1112 34012KT",
      "metarHtml": "METAR OMAA 101100Z 24007KT 200V270 <span class=\"hl-vis\">CAVOK</span> 25/03 Q1017 BECMG 33011KT",
      "tafHtml": "TAF OMAA 101100Z 1012/1118 VRB02KT 8000 FEW045 \n  BECMG 1012/1014 32011KT \n  BECMG 1017/1019 06005KT \n  BECMG 1110/1112 34012KT"
    },
    {
      "icao": "OMDB",
      "iata": "DXB",
      "name": "Dubai International Airport",
      "updatedAt": "101130Z",
      "visibility_m": 10000,
      "taf_visibility_m": 4000,
      "worst_visibility_m": 4000,
      "ceiling_ft": null,
      "hazards": [],
      "severityScore": 0,
      "metarRaw": "METAR OMDB 101130Z 30008KT 270V330 CAVOK 24/13 Q1017 NOSIG",
      "tafRaw": "TAF OMDB 101100Z 1012/1118 31010KT 8000 NSC \n  BECMG 1016/1018 15005KT \n  PROB30 1101/1105 4000 HZ \n  BECMG 1108/1110 30010KT \n  BECMG 1116/1118 05005KT",
      "metarHtml": "METAR OMDB 101130Z 30008KT 270V330 <span class=\"hl-vis\">CAVOK</span> 24/13 Q1017 NOSIG",
      "tafHtml": "TAF OMDB 101100Z 1012/1118 31010KT 8000 NSC \n  BECMG 1016/1018 15005KT \n  PROB30 1101/1105 4000 HZ \n  BECMG 1108/1110 30010KT \n  BECMG 1116/1118 05005KT"
    },
    {
      "icao": "UGKO",
      "iata": "KUT",
      "name": "David the Builder Kutaisi International Airport",
      "updatedAt": "101130Z",
      "visibility_m": 10000,
      "taf_visibility_m": 10000,
      "worst_visibility_m": 10000,
      "ceiling_ft": null,
      "hazards": [],
      "severityScore": 0,
      "metarRaw": "METAR UGKO 101130Z VRB02KT 9999 SCT064 08/02 Q1015 NOSIG",
      "tafRaw": "TAF UGKO 101100Z 1012/1112 08010KT CAVOK TX15/1111Z TN03/1022Z \n  TEMPO 1012/1015 26010KT SCT050 \n  BECMG 1018/1021 08017G27KT \n  TEMPO 1100/1106 08024G37KT BKN050",
      "metarHtml": "METAR UGKO 101130Z VRB02KT 9999 SCT064 08/02 Q1015 NOSIG",
      "tafHtml": "TAF UGKO 101100Z 1012/1112 08010KT <span class=\"hl-vis\">CAVOK</span> TX15/1111Z TN03/1022Z \n  TEMPO 1012/1015 26010KT SCT050 \n  BECMG 1018/1021 08017G27KT \n  TEMPO 1100/1106 08024G37KT BKN050"
    }
  ],
  "stats": {
    "icaoCount": 159,
    "metarReturned": 159,
    "tafReturned": 152,
    "stationsWritten": 159,
    "missingMetar": 0,
    "missingTaf": 7
  },
  "errors": []
}