{
  "generatedAt": "2026-01-06T21:12:29.981Z",
  "stations": [
    {
      "icao": "EKBI",
      "iata": "BLL",
      "name": "Billund Airport",
      "updatedAt": "062050Z",
      "visibility_m": 10000,
      "taf_visibility_m": 300,
      "worst_visibility_m": 300,
      "ceiling_ft": null,
      "hazards": [
        "FZFG",
        "SN",
        "SHSN"
      ],
      "severityScore": 100,
      "metarRaw": "METAR EKBI 062050Z AUTO 17009KT 9999 SCT030/// M02/M02 Q1008",
      "tafRaw": "TAF EKBI 062027Z 0621/0721 17009KT 9999 BKN020 \n  TEMPO 0621/0704 1200 SHSN BKN008 SCT020CB \n  PROB40 0704/0710 0300 FZFG VV003 \n  BECMG 0710/0712 2000 SN BKN008 \n  TEMPO 0712/0721 5000 NSW BKN010",
      "metarHtml": "METAR EKBI 062050Z AUTO 17009KT 9999 SCT030/// M02/M02 Q1008",
      "tafHtml": "TAF EKBI 062027Z 0621/0721 17009KT 9999 BKN020 \n  TEMPO 0621/0704 1200 <span class=\"hl\">SHSN</span> BKN008 SCT020CB \n  PROB40 0704/0710 <span class=\"hl-vis\">0300</span> <span class=\"hl\">FZFG</span> VV003 \n  BECMG 0710/0712 2000 <span class=\"hl\">SN</span> BKN008 \n  TEMPO 0712/0721 5000 NSW BKN010"
    },
    {
      "icao": "EPPO",
      "iata": "POZ",
      "name": "Poznań-Ławica Airport",
      "updatedAt": "062100Z",
      "visibility_m": 10000,
      "taf_visibility_m": 100,
      "worst_visibility_m": 100,
      "ceiling_ft": 700,
      "hazards": [
        "FZFG",
        "BR",
        "SN"
      ],
      "severityScore": 100,
      "metarRaw": "METAR EPPO 062100Z 29005KT 9999 OVC007 M05/M06 Q1016",
      "tafRaw": "TAF EPPO 061730Z 0618/0718 28003KT 9999 BKN011 \n  TEMPO 0618/0622 4000 -SN BR BKN008 \n  BECMG 0622/0624 3000 BR BKN030 \n  PROB40 \n  TEMPO 0700/0708 0100 FZFG BKN001 \n  BECMG 0709/0712 7000 \n  BECMG 0715/0718 4000 BR",
      "metarHtml": "METAR EPPO 062100Z 29005KT 9999 OVC007 M05/M06 Q1016",
      "tafHtml": "TAF EPPO 061730Z 0618/0718 28003KT 9999 BKN011 \n  TEMPO 0618/0622 4000 -<span class=\"hl\">SN</span> <span class=\"hl\">BR</span> BKN008 \n  BECMG 0622/0624 3000 <span class=\"hl\">BR</span> BKN030 \n  PROB40 \n  TEMPO 0700/0708 <span class=\"hl-vis\">0100</span> <span class=\"hl\">FZFG</span> BKN001 \n  BECMG 0709/0712 7000 \n  BECMG 0715/0718 4000 <span class=\"hl\">BR</span>"
    },
    {
      "icao": "LFPO",
      "iata": "ORY",
      "name": "Paris-Orly Airport",
      "updatedAt": "062100Z",
      "visibility_m": 3800,
      "taf_visibility_m": 600,
      "worst_visibility_m": 600,
      "ceiling_ft": 200,
      "hazards": [
        "BR",
        "FZFG",
        "FG",
        "SN"
      ],
      "severityScore": 100,
      "metarRaw": "METAR LFPO 062100Z AUTO 21006KT 3800 BR OVC002 M03/M03 Q1019",
      "tafRaw": "TAF LFPO 061700Z 0618/0724 19005KT 8000 FEW030 \n  TEMPO 0618/0706 2500 BKN002 \n  PROB40 \n  TEMPO 0618/0706 0800 FZFG VV/// \n  BECMG 0705/0707 27012KT -SN \n  TEMPO 0706/0712 3500 BKN006 \n  PROB40 \n  TEMPO 0706/0712 20012G25KT 1500 BKN004 \n  PROB30 \n  TEMPO 0707/0710 0600 SN FG BKN002 \n  BECMG 0711/0713 NSW \n  TEMPO 0712/0715 BKN008",
      "metarHtml": "METAR LFPO 062100Z AUTO 21006KT 3800 <span class=\"hl\">BR</span> OVC002 M03/M03 Q1019",
      "tafHtml": "TAF LFPO 061700Z 0618/0724 19005KT 8000 FEW030 \n  TEMPO 0618/0706 2500 BKN002 \n  PROB40 \n  TEMPO 0618/0706 <span class=\"hl-vis\">0800</span> <span class=\"hl\">FZFG</span> VV/// \n  BECMG 0705/0707 27012KT -<span class=\"hl\">SN</span> \n  TEMPO 0706/0712 3500 BKN006 \n  PROB40 \n  TEMPO 0706/0712 20012G25KT 1500 BKN004 \n  PROB30 \n  TEMPO 0707/0710 <span class=\"hl-vis\">0600</span> <span class=\"hl\">SN</span> <span class=\"hl\">FG</span> BKN002 \n  BECMG 0711/0713 NSW \n  TEMPO 0712/0715 BKN008"
    },
    {
      "icao": "LHDC",
      "iata": "DEB",
      "name": "Debrecen International Airport",
      "updatedAt": "062045Z",
      "visibility_m": 4700,
      "taf_visibility_m": 700,
      "worst_visibility_m": 700,
      "ceiling_ft": 800,
      "hazards": [
        "BR",
        "FZDZ",
        "SN"
      ],
      "severityScore": 100,
      "metarRaw": "METAR LHDC 062045Z AUTO 02011KT 340V050 4700 -FZDZ BR BKN008 BKN026 M02/M03 Q1010 NOSIG",
      "tafRaw": "TAF LHDC 061415Z 0615/0624 05008KT 9999 SCT012 OVC020 \n  TEMPO 0615/0624 4000 -SN BKN007 OVC020 \n  PROB30 \n  TEMPO 0617/0621 0700 SN BKN002 OVC010",
      "metarHtml": "METAR LHDC 062045Z AUTO 02011KT 340V050 4700 -<span class=\"hl\">FZDZ</span> <span class=\"hl\">BR</span> BKN008 BKN026 M02/M03 Q1010 NOSIG",
      "tafHtml": "TAF LHDC 061415Z 0615/0624 05008KT 9999 SCT012 OVC020 \n  TEMPO 0615/0624 4000 -<span class=\"hl\">SN</span> BKN007 OVC020 \n  PROB30 \n  TEMPO 0617/0621 <span class=\"hl-vis\">0700</span> <span class=\"hl\">SN</span> BKN002 OVC010"
    },
    {
      "icao": "LQSA",
      "iata": "SJJ",
      "name": "Sarajevo International Airport",
      "updatedAt": "062100Z",
      "visibility_m": 6000,
      "taf_visibility_m": 500,
      "worst_visibility_m": 500,
      "ceiling_ft": 1300,
      "hazards": [
        "FZRA",
        "SN"
      ],
      "severityScore": 100,
      "metarRaw": "METAR LQSA 062100Z 30009KT 6000 -FZRA OVC013 M02/M03 Q1007 NOSIG",
      "tafRaw": "TAF LQSA 061700Z 0618/0718 29005KT 7000 SCT010 OVC030 TXM01/0618Z TNM06/0705Z \n  TEMPO 0618/0709 1200 SN BKN004 OVC015 \n  PROB40 \n  TEMPO 0620/0701 35012KT 0500 +SN \n  PROB40 \n  TEMPO 0712/0718 1200 SN BKN004 OVC015 \n  PROB30 \n  TEMPO 0714/0718 35010KT 0700 +SN",
      "metarHtml": "METAR LQSA 062100Z 30009KT 6000 -<span class=\"hl\">FZRA</span> OVC013 M02/M03 Q1007 NOSIG",
      "tafHtml": "TAF LQSA 061700Z 0618/0718 29005KT 7000 SCT010 OVC030 TXM01/0618Z TNM06/0705Z \n  TEMPO 0618/0709 1200 <span class=\"hl\">SN</span> BKN004 OVC015 \n  PROB40 \n  TEMPO 0620/0701 35012KT <span class=\"hl-vis\">0500</span> +<span class=\"hl\">SN</span> \n  PROB40 \n  TEMPO 0712/0718 1200 <span class=\"hl\">SN</span> BKN004 OVC015 \n  PROB30 \n  TEMPO 0714/0718 35010KT <span class=\"hl-vis\">0700</span> +<span class=\"hl\">SN</span>"
    },
    {
      "icao": "LRIA",
      "iata": "IAS",
      "name": "Iaşi Airport",
      "updatedAt": "062100Z",
      "visibility_m": 200,
      "taf_visibility_m": 300,
      "worst_visibility_m": 200,
      "ceiling_ft": 100,
      "hazards": [
        "FG"
      ],
      "severityScore": 100,
      "metarRaw": "METAR LRIA 062100Z 30005KT 0200 R14/0750N FG VV001 01/01 Q1012",
      "tafRaw": "TAF LRIA 062000Z 0621/0706 31007KT 0300 FG OVC001 \n  PROB30 \n  TEMPO 0622/0703 0800 OVC002",
      "metarHtml": "METAR LRIA 062100Z 30005KT <span class=\"hl-vis\">0200</span> R14/0750N <span class=\"hl\">FG</span> VV001 01/01 Q1012",
      "tafHtml": "TAF LRIA 062000Z 0621/0706 31007KT <span class=\"hl-vis\">0300</span> <span class=\"hl\">FG</span> OVC001 \n  PROB30 \n  TEMPO 0622/0703 <span class=\"hl-vis\">0800</span> OVC002"
    },
    {
      "icao": "LRCL",
      "iata": "CLJ",
      "name": "Cluj Avram Iancu International Airport",
      "updatedAt": "062100Z",
      "visibility_m": 400,
      "taf_visibility_m": 300,
      "worst_visibility_m": 300,
      "ceiling_ft": 200,
      "hazards": [
        "FG",
        "FZFG",
        "BR",
        "FZRA"
      ],
      "severityScore": 100,
      "metarRaw": "METAR LRCL 062100Z 04003KT 0400 R25/0600N FG VV002 01/00 Q1009",
      "tafRaw": "TAF LRCL 062000Z 0621/0706 VRB04KT 0300 FG OVC001 \n  BECMG 0622/0624 FZFG \n  BECMG 0702/0704 0600 OVC002 \n  PROB30 \n  TEMPO 0704/0706 1000 -FZRA BR",
      "metarHtml": "METAR LRCL 062100Z 04003KT <span class=\"hl-vis\">0400</span> R25/0600N <span class=\"hl\">FG</span> VV002 01/00 Q1009",
      "tafHtml": "TAF LRCL 062000Z 0621/0706 VRB04KT <span class=\"hl-vis\">0300</span> <span class=\"hl\">FG</span> OVC001 \n  BECMG 0622/0624 <span class=\"hl\">FZFG</span> \n  BECMG 0702/0704 <span class=\"hl-vis\">0600</span> OVC002 \n  PROB30 \n  TEMPO 0704/0706 1000 -<span class=\"hl\">FZRA</span> <span class=\"hl\">BR</span>"
    },
    {
      "icao": "LRCV",
      "iata": "CRA",
      "name": "Craiova International Airport",
      "updatedAt": "062100Z",
      "visibility_m": 200,
      "taf_visibility_m": 300,
      "worst_visibility_m": 200,
      "ceiling_ft": 200,
      "hazards": [
        "FG",
        "DZ"
      ],
      "severityScore": 100,
      "metarRaw": "METAR LRCV 062100Z 26001KT 0200 R26/0350N FG VV002 02/02 Q1009",
      "tafRaw": "TAF LRCV 062000Z 0621/0706 VRB04KT 0300 FG OVC002 \n  BECMG 0622/0624 OVC001 \n  PROB40 \n  TEMPO 0702/0706 0800 -DZ FG OVC005",
      "metarHtml": "METAR LRCV 062100Z 26001KT <span class=\"hl-vis\">0200</span> R26/0350N <span class=\"hl\">FG</span> VV002 02/02 Q1009",
      "tafHtml": "TAF LRCV 062000Z 0621/0706 VRB04KT <span class=\"hl-vis\">0300</span> <span class=\"hl\">FG</span> OVC002 \n  BECMG 0622/0624 OVC001 \n  PROB40 \n  TEMPO 0702/0706 <span class=\"hl-vis\">0800</span> -<span class=\"hl\">DZ</span> <span class=\"hl\">FG</span> OVC005"
    },
    {
      "icao": "LRSB",
      "iata": "SBZ",
      "name": "Sibiu International Airport",
      "updatedAt": "062100Z",
      "visibility_m": 3500,
      "taf_visibility_m": 600,
      "worst_visibility_m": 600,
      "ceiling_ft": 600,
      "hazards": [
        "BR",
        "FZFG",
        "FG"
      ],
      "severityScore": 100,
      "metarRaw": "METAR LRSB 062100Z 32002KT 3500 BR SCT001 OVC006 01/01 Q1008",
      "tafRaw": "TAF LRSB 061700Z 0618/0718 VRB04KT 5000 BR BKN005 OVC015 \n  BECMG 0619/0621 1500 BR OVC002 \n  TEMPO 0621/0707 0600 FG OVC001 \n  BECMG 0707/0709 30010KT 5000 BKN010 \n  BECMG 0709/0711 VRB04KT 9999 NSW BKN020 \n  BECMG 0713/0715 3000 BR BKN010 \n  BECMG 0716/0718 0600 FZFG OVC002",
      "metarHtml": "METAR LRSB 062100Z 32002KT 3500 <span class=\"hl\">BR</span> SCT001 OVC006 01/01 Q1008",
      "tafHtml": "TAF LRSB 061700Z 0618/0718 VRB04KT 5000 <span class=\"hl\">BR</span> BKN005 OVC015 \n  BECMG 0619/0621 1500 <span class=\"hl\">BR</span> OVC002 \n  TEMPO 0621/0707 <span class=\"hl-vis\">0600</span> <span class=\"hl\">FG</span> OVC001 \n  BECMG 0707/0709 30010KT 5000 BKN010 \n  BECMG 0709/0711 VRB04KT 9999 NSW BKN020 \n  BECMG 0713/0715 3000 <span class=\"hl\">BR</span> BKN010 \n  BECMG 0716/0718 <span class=\"hl-vis\">0600</span> <span class=\"hl\">FZFG</span> OVC002"
    },
    {
      "icao": "LRTM",
      "iata": "TGM",
      "name": "Târgu Mureş Transilvania International Airport",
      "updatedAt": "062100Z",
      "visibility_m": 550,
      "taf_visibility_m": 300,
      "worst_visibility_m": 300,
      "ceiling_ft": 100,
      "hazards": [
        "FG",
        "FZFG",
        "BR"
      ],
      "severityScore": 100,
      "metarRaw": "METAR LRTM 062100Z AUTO 25001KT 0550 R07/0650N FG VV001 01/00 Q1009",
      "tafRaw": "TAF LRTM 061400Z 0615/0624 VRB04KT 1500 BR BKN010 BKN035 \n  BECMG 0615/0617 0800 FG OVC005 \n  BECMG 0617/0619 0600 FG OVC002 \n  PROB40 \n  TEMPO 0619/0624 0300 FZFG VV001",
      "metarHtml": "METAR LRTM 062100Z AUTO 25001KT <span class=\"hl-vis\">0550</span> R07/0650N <span class=\"hl\">FG</span> VV001 01/00 Q1009",
      "tafHtml": "TAF LRTM 061400Z 0615/0624 VRB04KT 1500 <span class=\"hl\">BR</span> BKN010 BKN035 \n  BECMG 0615/0617 <span class=\"hl-vis\">0800</span> <span class=\"hl\">FG</span> OVC005 \n  BECMG 0617/0619 <span class=\"hl-vis\">0600</span> <span class=\"hl\">FG</span> OVC002 \n  PROB40 \n  TEMPO 0619/0624 <span class=\"hl-vis\">0300</span> <span class=\"hl\">FZFG</span> VV001"
    },
    {
      "icao": "LRTR",
      "iata": "TSR",
      "name": "Timişoara Traian Vuia Airport",
      "updatedAt": "062100Z",
      "visibility_m": 1500,
      "taf_visibility_m": 600,
      "worst_visibility_m": 600,
      "ceiling_ft": 200,
      "hazards": [
        "BR",
        "FZDZ",
        "FZRA",
        "SN"
      ],
      "severityScore": 100,
      "metarRaw": "METAR LRTR 062100Z 25003KT 1500 -FZDZ BR OVC002 M00/M00 Q1010",
      "tafRaw": "TAF LRTR 061700Z 0618/0718 VRB04KT 3000 BR BKN005 OVC010 \n  TEMPO 0620/0624 1500 -FZRA BKN002 \n  BECMG 0700/0702 1500 -SN BR BKN002 OVC010 \n  PROB30 \n  TEMPO 0703/0707 0600 SN VV001 \n  BECMG 0708/0710 3000 BR BKN005 \n  BECMG 0710/0712 5000 BKN015 \n  BECMG 0716/0718 34010KT 3000 -SN BR BKN005 OVC015",
      "metarHtml": "METAR LRTR 062100Z 25003KT 1500 -<span class=\"hl\">FZDZ</span> <span class=\"hl\">BR</span> OVC002 M00/M00 Q1010",
      "tafHtml": "TAF LRTR 061700Z 0618/0718 VRB04KT 3000 <span class=\"hl\">BR</span> BKN005 OVC010 \n  TEMPO 0620/0624 1500 -<span class=\"hl\">FZRA</span> BKN002 \n  BECMG 0700/0702 1500 -<span class=\"hl\">SN</span> <span class=\"hl\">BR</span> BKN002 OVC010 \n  PROB30 \n  TEMPO 0703/0707 <span class=\"hl-vis\">0600</span> <span class=\"hl\">SN</span> VV001 \n  BECMG 0708/0710 3000 <span class=\"hl\">BR</span> BKN005 \n  BECMG 0710/0712 5000 BKN015 \n  BECMG 0716/0718 34010KT 3000 -<span class=\"hl\">SN</span> <span class=\"hl\">BR</span> BKN005 OVC015"
    },
    {
      "icao": "LUKK",
      "iata": "RMO",
      "name": "Chişinău International Airport",
      "updatedAt": "062100Z",
      "visibility_m": 900,
      "taf_visibility_m": 300,
      "worst_visibility_m": 300,
      "ceiling_ft": 200,
      "hazards": [
        "FG",
        "FZFG",
        "BR",
        "RA",
        "FZDZ"
      ],
      "severityScore": 100,
      "metarRaw": "METAR LUKK 062100Z VRB01KT 0900 0800SW R08/1000N FG VV002 03/03 Q1012 NOSIG",
      "tafRaw": "TAF LUKK 061721Z 0618/0718 VRB05KT 0300 FG VV001 \n  PROB40 \n  TEMPO 0700/0706 0300 -FZDZ FZFG \n  BECMG 0706/0708 0500 -RA FG VV003 \n  TEMPO 0714/0718 1000 RA BR OVC005",
      "metarHtml": "METAR LUKK 062100Z VRB01KT 0900 0800SW R08/1000N <span class=\"hl\">FG</span> VV002 03/03 Q1012 NOSIG",
      "tafHtml": "TAF LUKK 061721Z 0618/0718 VRB05KT <span class=\"hl-vis\">0300</span> <span class=\"hl\">FG</span> VV001 \n  PROB40 \n  TEMPO 0700/0706 <span class=\"hl-vis\">0300</span> -<span class=\"hl\">FZDZ</span> <span class=\"hl\">FZFG</span> \n  BECMG 0706/0708 <span class=\"hl-vis\">0500</span> -<span class=\"hl\">RA</span> <span class=\"hl\">FG</span> VV003 \n  TEMPO 0714/0718 1000 <span class=\"hl\">RA</span> <span class=\"hl\">BR</span> OVC005"
    },
    {
      "icao": "LYBE",
      "iata": "BEG",
      "name": "Belgrade Nikola Tesla Airport",
      "updatedAt": "062100Z",
      "visibility_m": 2500,
      "taf_visibility_m": 700,
      "worst_visibility_m": 700,
      "ceiling_ft": 300,
      "hazards": [
        "BR",
        "FZRA",
        "SN"
      ],
      "severityScore": 100,
      "metarRaw": "METAR LYBE 062100Z 00000KT 2500 BR OVC003 M02/M02 Q1011 NOSIG",
      "tafRaw": "TAF LYBE 061700Z 0618/0718 32007KT 5000 BR BKN010 BKN025 TXM01/0713Z TNM03/0706Z \n  TEMPO 0618/0624 3000 -FZRA BKN005 OVC023 \n  BECMG 0700/0702 3000 -SN BKN005 OVC023 \n  TEMPO 0702/0705 1500 SN BKN002 OVC023 \n  TEMPO 0714/0718 0700 +SN BKN001 OVC021",
      "metarHtml": "METAR LYBE 062100Z 00000KT 2500 <span class=\"hl\">BR</span> OVC003 M02/M02 Q1011 NOSIG",
      "tafHtml": "TAF LYBE 061700Z 0618/0718 32007KT 5000 <span class=\"hl\">BR</span> BKN010 BKN025 TXM01/0713Z TNM03/0706Z \n  TEMPO 0618/0624 3000 -<span class=\"hl\">FZRA</span> BKN005 OVC023 \n  BECMG <span class=\"hl-vis\">0700</span>/0702 3000 -<span class=\"hl\">SN</span> BKN005 OVC023 \n  TEMPO 0702/0705 1500 <span class=\"hl\">SN</span> BKN002 OVC023 \n  TEMPO 0714/0718 <span class=\"hl-vis\">0700</span> +<span class=\"hl\">SN</span> BKN001 OVC021"
    },
    {
      "icao": "EBCI",
      "iata": "CRL",
      "name": "Brussels South Charleroi Airport",
      "updatedAt": "062050Z",
      "visibility_m": 4000,
      "taf_visibility_m": 800,
      "worst_visibility_m": 800,
      "ceiling_ft": 400,
      "hazards": [
        "BR",
        "SN",
        "SHSN"
      ],
      "severityScore": 98,
      "metarRaw": "METAR EBCI 062050Z 19011KT 4000 BR BKN005 M03/M04 Q1016 TEMPO BKN004",
      "tafRaw": "TAF EBCI 061700Z 0618/0724 19011KT 6000 SCT005 \n  BECMG 0619/0621 SCT004 BKN006 \n  PROB40 \n  TEMPO 0623/0705 2000 -SG BR BKN004 \n  BECMG 0705/0707 3000 -SN BKN003 \n  PROB40 \n  TEMPO 0706/0713 19015G25KT \n  PROB40 \n  TEMPO 0708/0712 0800 SN \n  BECMG 0712/0714 6000 NSW \n  PROB40 \n  TEMPO 0712/0722 2000 SN SHSN \n  BECMG 0719/0721 SCT030 \n  PROB30 \n  TEMPO 0719/0722 2000 SN SHSN",
      "metarHtml": "METAR EBCI 062050Z 19011KT 4000 <span class=\"hl\">BR</span> BKN005 M03/M04 Q1016 TEMPO BKN004",
      "tafHtml": "TAF EBCI 061700Z 0618/0724 19011KT 6000 SCT005 \n  BECMG 0619/0621 SCT004 BKN006 \n  PROB40 \n  TEMPO 0623/0705 2000 -SG <span class=\"hl\">BR</span> BKN004 \n  BECMG 0705/0707 3000 -<span class=\"hl\">SN</span> BKN003 \n  PROB40 \n  TEMPO 0706/0713 19015G25KT \n  PROB40 \n  TEMPO 0708/0712 <span class=\"hl-vis\">0800</span> <span class=\"hl\">SN</span> \n  BECMG 0712/0714 6000 NSW \n  PROB40 \n  TEMPO 0712/0722 2000 <span class=\"hl\">SN</span> <span class=\"hl\">SHSN</span> \n  BECMG 0719/0721 SCT030 \n  PROB30 \n  TEMPO 0719/0722 2000 <span class=\"hl\">SN</span> <span class=\"hl\">SHSN</span>"
    },
    {
      "icao": "EDJA",
      "iata": "FMM",
      "name": "Memmingen Allgau Airport",
      "updatedAt": "062050Z",
      "visibility_m": 9000,
      "taf_visibility_m": 600,
      "worst_visibility_m": 600,
      "ceiling_ft": 1400,
      "hazards": [
        "FZFG",
        "BR",
        "SN"
      ],
      "severityScore": 95,
      "metarRaw": "METAR EDJA 062050Z 22004KT 9000 SCT009 OVC014 M06/M08 Q1015",
      "tafRaw": "TAF EDJA 061700Z 0618/0703 VRB03KT 9999 OVC035 \n  TEMPO 0618/0621 3000 -SN OVC010 \n  PROB40 \n  TEMPO 0621/0624 2500 -SG BR BKN007 \n  PROB30 \n  TEMPO 0700/0703 0600 FZFG VV001",
      "metarHtml": "METAR EDJA 062050Z 22004KT 9000 SCT009 OVC014 M06/M08 Q1015",
      "tafHtml": "TAF EDJA 061700Z 0618/0703 VRB03KT 9999 OVC035 \n  TEMPO 0618/0621 3000 -<span class=\"hl\">SN</span> OVC010 \n  PROB40 \n  TEMPO 0621/0624 2500 -SG <span class=\"hl\">BR</span> BKN007 \n  PROB30 \n  TEMPO 0700/0703 <span class=\"hl-vis\">0600</span> <span class=\"hl\">FZFG</span> VV001"
    },
    {
      "icao": "EPMO",
      "iata": "WMI",
      "name": "Modlin Airport",
      "updatedAt": "062100Z",
      "visibility_m": 1700,
      "taf_visibility_m": 200,
      "worst_visibility_m": 200,
      "ceiling_ft": null,
      "hazards": [
        "BR",
        "FZFG"
      ],
      "severityScore": 95,
      "metarRaw": "METAR EPMO 062100Z 23004KT 1700 MIFG BR NSC M09/M09 Q1016",
      "tafRaw": "TAF EPMO 061730Z 0618/0718 24003KT 1800 BR NSC \n  TEMPO 0618/0709 0200 FZFG BKN001 \n  BECMG 0709/0711 4000 BR \n  PROB40 \n  TEMPO 0709/0718 BKN004",
      "metarHtml": "METAR EPMO 062100Z 23004KT 1700 MIFG <span class=\"hl\">BR</span> NSC M09/M09 Q1016",
      "tafHtml": "TAF EPMO 061730Z 0618/0718 24003KT 1800 <span class=\"hl\">BR</span> NSC \n  TEMPO 0618/0709 <span class=\"hl-vis\">0200</span> <span class=\"hl\">FZFG</span> BKN001 \n  BECMG 0709/0711 4000 <span class=\"hl\">BR</span> \n  PROB40 \n  TEMPO 0709/0718 BKN004"
    },
    {
      "icao": "UAAA",
      "iata": "ALA",
      "name": "Almaty International Airport",
      "updatedAt": "062100Z",
      "visibility_m": 2100,
      "taf_visibility_m": 200,
      "worst_visibility_m": 200,
      "ceiling_ft": null,
      "hazards": [
        "BR",
        "FZFG"
      ],
      "severityScore": 95,
      "metarRaw": "METAR UAAA 062100Z 15002MPS 2100 BR FU FEW200 M05/M06 Q1030 NOSIG",
      "tafRaw": "TAF UAAA 061702Z 0618/0718 22003MPS 1200 BR FU BKN011 BKN050 TX03/0709Z TNM04/0701Z \n  TEMPO 0618/0705 0200 FZFG VV002 \n  FM070600 04003G08MPS 6000 SCT011 SCT100 \n  FM071200 16003MPS 3100 BR FU SCT011 SCT100 \n  TEMPO 0715/0718 1500",
      "metarHtml": "METAR UAAA 062100Z 15002MPS 2100 <span class=\"hl\">BR</span> FU FEW200 M05/M06 Q1030 NOSIG",
      "tafHtml": "TAF UAAA 061702Z 0618/0718 22003MPS 1200 <span class=\"hl\">BR</span> FU BKN011 BKN050 TX03/0709Z TNM04/0701Z \n  TEMPO 0618/0705 <span class=\"hl-vis\">0200</span> <span class=\"hl\">FZFG</span> VV002 \n  FM070600 04003G08MPS 6000 SCT011 SCT100 \n  FM071200 16003MPS 3100 <span class=\"hl\">BR</span> FU SCT011 SCT100 \n  TEMPO 0715/0718 1500"
    },
    {
      "icao": "LRBS",
      "iata": "BBU",
      "name": "Bucharest Băneasa Aurel Vlaicu International Airport",
      "updatedAt": "062100Z",
      "visibility_m": 3000,
      "taf_visibility_m": 600,
      "worst_visibility_m": 600,
      "ceiling_ft": 500,
      "hazards": [
        "BR",
        "DZ",
        "FG"
      ],
      "severityScore": 90,
      "metarRaw": "METAR LRBS 062100Z VRB01KT 5000 -DZ BR FEW005 04/03 Q1010 BECMG 3000 -DZ BR BKN005",
      "tafRaw": "TAF LRBS 061700Z 0618/0718 VRB04KT 5000 BR SCT005 \n  BECMG 0619/0621 1500 BR BKN002 \n  TEMPO 0621/0701 0600 FG OVC001 \n  BECMG 0700/0701 07010KT \n  BECMG 0704/0706 3000 BKN005 \n  BECMG 0707/0709 9999 NSW BKN010 \n  BECMG 0713/0715 3000 BR BKN005 \n  BECMG 0715/0717 0600 FG OVC002",
      "metarHtml": "METAR LRBS 062100Z VRB01KT 5000 -<span class=\"hl\">DZ</span> <span class=\"hl\">BR</span> FEW005 04/03 Q1010 BECMG 3000 -<span class=\"hl\">DZ</span> <span class=\"hl\">BR</span> BKN005",
      "tafHtml": "TAF LRBS 061700Z 0618/0718 VRB04KT 5000 <span class=\"hl\">BR</span> SCT005 \n  BECMG 0619/0621 1500 <span class=\"hl\">BR</span> BKN002 \n  TEMPO 0621/0701 <span class=\"hl-vis\">0600</span> <span class=\"hl\">FG</span> OVC001 \n  BECMG 0700/0701 07010KT \n  BECMG 0704/0706 3000 BKN005 \n  BECMG 0707/0709 9999 NSW BKN010 \n  BECMG 0713/0715 3000 <span class=\"hl\">BR</span> BKN005 \n  BECMG 0715/0717 <span class=\"hl-vis\">0600</span> <span class=\"hl\">FG</span> OVC002"
    },
    {
      "icao": "LROP",
      "iata": "OTP",
      "name": "Bucharest Henri Coandă International Airport",
      "updatedAt": "062100Z",
      "visibility_m": 3000,
      "taf_visibility_m": 600,
      "worst_visibility_m": 600,
      "ceiling_ft": 500,
      "hazards": [
        "BR",
        "DZ",
        "FG"
      ],
      "severityScore": 90,
      "metarRaw": "METAR LROP 062100Z VRB02KT 5000 -DZ BR SCT010 SCT047 04/04 Q1010 BECMG 3000 -DZ BR BKN005",
      "tafRaw": "TAF LROP 061700Z 0618/0718 VRB04KT 5000 BR SCT005 \n  BECMG 0619/0621 1500 BR BKN002 \n  TEMPO 0621/0701 0600 FG OVC001 \n  BECMG 0700/0701 07010KT \n  BECMG 0704/0706 3000 BKN005 \n  BECMG 0707/0709 9999 NSW BKN010 \n  BECMG 0713/0715 3000 BR BKN005 \n  BECMG 0715/0717 0600 FG OVC002",
      "metarHtml": "METAR LROP 062100Z VRB02KT 5000 -<span class=\"hl\">DZ</span> <span class=\"hl\">BR</span> SCT010 SCT047 04/04 Q1010 BECMG 3000 -<span class=\"hl\">DZ</span> <span class=\"hl\">BR</span> BKN005",
      "tafHtml": "TAF LROP 061700Z 0618/0718 VRB04KT 5000 <span class=\"hl\">BR</span> SCT005 \n  BECMG 0619/0621 1500 <span class=\"hl\">BR</span> BKN002 \n  TEMPO 0621/0701 <span class=\"hl-vis\">0600</span> <span class=\"hl\">FG</span> OVC001 \n  BECMG 0700/0701 07010KT \n  BECMG 0704/0706 3000 BKN005 \n  BECMG 0707/0709 9999 NSW BKN010 \n  BECMG 0713/0715 3000 <span class=\"hl\">BR</span> BKN005 \n  BECMG 0715/0717 <span class=\"hl-vis\">0600</span> <span class=\"hl\">FG</span> OVC002"
    },
    {
      "icao": "LHBP",
      "iata": "BUD",
      "name": "Budapest Liszt Ferenc International Airport",
      "updatedAt": "062100Z",
      "visibility_m": 500,
      "taf_visibility_m": 500,
      "worst_visibility_m": 500,
      "ceiling_ft": 300,
      "hazards": [
        "SN"
      ],
      "severityScore": 88,
      "metarRaw": "METAR LHBP 062100Z 31005KT 1300 R31L/P2000N R31R/P2000N +SN VV012 M02/M03 Q1012 TEMPO 0500 +SN VV003",
      "tafRaw": "TAF LHBP 061715Z 0618/0718 32007KT 5000 -SN BKN018 OVC050 \n  TEMPO 0618/0706 0500 +SN VV003 \n  TEMPO 0706/0710 7000 NSW BKN006 BKN050 \n  BECMG 0710/0712 8000 NSW SCT030 BKN050 \n  TEMPO 0712/0718 -SN NSC",
      "metarHtml": "METAR LHBP 062100Z 31005KT 1300 R31L/P2000N R31R/P2000N +<span class=\"hl\">SN</span> VV012 M02/M03 Q1012 TEMPO <span class=\"hl-vis\">0500</span> +<span class=\"hl\">SN</span> VV003",
      "tafHtml": "TAF LHBP 061715Z 0618/0718 32007KT 5000 -<span class=\"hl\">SN</span> BKN018 OVC050 \n  TEMPO 0618/0706 <span class=\"hl-vis\">0500</span> +<span class=\"hl\">SN</span> VV003 \n  TEMPO 0706/0710 7000 NSW BKN006 BKN050 \n  BECMG 0710/0712 8000 NSW SCT030 BKN050 \n  TEMPO 0712/0718 -<span class=\"hl\">SN</span> NSC"
    },
    {
      "icao": "UBBB",
      "iata": "GYD",
      "name": "Heydar Aliyev International Airport",
      "updatedAt": "062100Z",
      "visibility_m": 450,
      "taf_visibility_m": 200,
      "worst_visibility_m": 200,
      "ceiling_ft": 1700,
      "hazards": [
        "FG"
      ],
      "severityScore": 87,
      "metarRaw": "METAR UBBB 062100Z 17006KT 0450 R16/P2000 R17/1100 FG SCT003 BKN017 08/08 Q1023 NOSIG",
      "tafRaw": "TAF UBBB 061656Z 0617/0718 16006KT 0200 FG VV002 TX12/0710Z TN04/0703Z \n  TEMPO 0617/0624 18012KT 0400 BKN004 \n  BECMG 0705/0707 19012KT 6000 NSW SCT008 \n  TEMPO 0713/0718 21005KT SCT030",
      "metarHtml": "METAR UBBB 062100Z 17006KT <span class=\"hl-vis\">0450</span> R16/P2000 R17/1100 <span class=\"hl\">FG</span> SCT003 BKN017 08/08 Q1023 NOSIG",
      "tafHtml": "TAF UBBB 061656Z 0617/0718 16006KT <span class=\"hl-vis\">0200</span> <span class=\"hl\">FG</span> VV002 TX12/0710Z TN04/0703Z \n  TEMPO 0617/0624 18012KT <span class=\"hl-vis\">0400</span> BKN004 \n  BECMG 0705/0707 19012KT 6000 NSW SCT008 \n  TEMPO 0713/0718 21005KT SCT030"
    },
    {
      "icao": "EYPA",
      "iata": "PLQ",
      "name": "Palanga International Airport",
      "updatedAt": "062050Z",
      "visibility_m": 9000,
      "taf_visibility_m": 500,
      "worst_visibility_m": 500,
      "ceiling_ft": null,
      "hazards": [
        "FZFG",
        "BR",
        "SHSN"
      ],
      "severityScore": 85,
      "metarRaw": "METAR EYPA 062050Z 16006KT 9000 NSC M08/M09 Q1012",
      "tafRaw": "TAF EYPA 061710Z 0618/0718 15010KT 5000 BR SCT005 BKN020 \n  TEMPO 0618/0624 VRB20KT 0800 +SHSN BKN002 BKN010CB \n  BECMG 0700/0702 30010KT 9000 NSW BKN030 \n  BECMG 0706/0708 VRB04KT \n  BECMG 0713/0715 0500 FZFG VV001",
      "metarHtml": "METAR EYPA 062050Z 16006KT 9000 NSC M08/M09 Q1012",
      "tafHtml": "TAF EYPA 061710Z 0618/0718 15010KT 5000 <span class=\"hl\">BR</span> SCT005 BKN020 \n  TEMPO 0618/0624 VRB20KT <span class=\"hl-vis\">0800</span> +<span class=\"hl\">SHSN</span> BKN002 BKN010CB \n  BECMG 0700/0702 30010KT 9000 NSW BKN030 \n  BECMG 0706/0708 VRB04KT \n  BECMG 0713/0715 <span class=\"hl-vis\">0500</span> <span class=\"hl\">FZFG</span> VV001"
    },
    {
      "icao": "LQBK",
      "iata": "BNX",
      "name": "Banja Luka International Airport",
      "updatedAt": "062100Z",
      "visibility_m": 1200,
      "taf_visibility_m": null,
      "worst_visibility_m": 1200,
      "ceiling_ft": 400,
      "hazards": [
        "BR",
        "SN"
      ],
      "severityScore": 78,
      "metarRaw": "METAR LQBK 062100Z 29006KT 1200 R16/1200D SN BR OVC004 M04/M04 Q1013 NOSIG",
      "tafRaw": null,
      "metarHtml": "METAR LQBK 062100Z 29006KT 1200 R16/1200D <span class=\"hl\">SN</span> <span class=\"hl\">BR</span> OVC004 M04/M04 Q1013 NOSIG",
      "tafHtml": null
    },
    {
      "icao": "EDDB",
      "iata": "BER",
      "name": "Berlin Brandenburg Airport",
      "updatedAt": "062050Z",
      "visibility_m": 300,
      "taf_visibility_m": 1200,
      "worst_visibility_m": 300,
      "ceiling_ft": null,
      "hazards": [
        "FZFG"
      ],
      "severityScore": 75,
      "metarRaw": "METAR EDDB 062050Z AUTO VRB02KT 1000 0300 R24R/1600N R24L/0300N BCFG NCD M07/M08 Q1016 TEMPO 0600 FZFG",
      "tafRaw": "TAF EDDB 061700Z 0618/0718 22005KT 8000 BKN030 \n  TEMPO 0618/0708 1200 BCFG \n  BECMG 0714/0716 16007KT",
      "metarHtml": "METAR EDDB 062050Z AUTO VRB02KT 1000 <span class=\"hl-vis\">0300</span> R24R/1600N R24L/0300N BCFG NCD M07/M08 Q1016 TEMPO <span class=\"hl-vis\">0600</span> <span class=\"hl\">FZFG</span>",
      "tafHtml": "TAF EDDB 061700Z 0618/0718 22005KT 8000 BKN030 \n  TEMPO 0618/0708 1200 BCFG \n  BECMG 0714/0716 16007KT"
    },
    {
      "icao": "EPRZ",
      "iata": "RZE",
      "name": "Rzeszów-Jasionka Airport",
      "updatedAt": "062100Z",
      "visibility_m": 2400,
      "taf_visibility_m": 500,
      "worst_visibility_m": 500,
      "ceiling_ft": 1500,
      "hazards": [
        "SN",
        "BR"
      ],
      "severityScore": 75,
      "metarRaw": "METAR EPRZ 062100Z 33007KT 2400 SN BKN015 OVC028 M04/M06 Q1014",
      "tafRaw": "TAF EPRZ 061730Z 0618/0718 32005KT CAVOK \n  BECMG 0621/0624 03010KT 4000 -SN BR BKN006 \n  TEMPO 0623/0709 1500 SN BR BKN003 \n  PROB30 \n  TEMPO 0700/0709 0500 +SN BKN001 \n  PROB30 \n  TEMPO 0709/0712 1500 SN BR BKN003 \n  TEMPO 0712/0718 2500 -SN BR BKN003",
      "metarHtml": "METAR EPRZ 062100Z 33007KT 2400 <span class=\"hl\">SN</span> BKN015 OVC028 M04/M06 Q1014",
      "tafHtml": "TAF EPRZ 061730Z 0618/0718 32005KT <span class=\"hl-vis\">CAVOK</span> \n  BECMG 0621/0624 03010KT 4000 -<span class=\"hl\">SN</span> <span class=\"hl\">BR</span> BKN006 \n  TEMPO 0623/0709 1500 <span class=\"hl\">SN</span> <span class=\"hl\">BR</span> BKN003 \n  PROB30 \n  TEMPO 0700/0709 <span class=\"hl-vis\">0500</span> +<span class=\"hl\">SN</span> BKN001 \n  PROB30 \n  TEMPO 0709/0712 1500 <span class=\"hl\">SN</span> <span class=\"hl\">BR</span> BKN003 \n  TEMPO 0712/0718 2500 -<span class=\"hl\">SN</span> <span class=\"hl\">BR</span> BKN003"
    },
    {
      "icao": "EPSY",
      "iata": "SZY",
      "name": "Olsztyn-Mazury Airport",
      "updatedAt": "062100Z",
      "visibility_m": 4600,
      "taf_visibility_m": 500,
      "worst_visibility_m": 500,
      "ceiling_ft": null,
      "hazards": [
        "BR",
        "FZFG"
      ],
      "severityScore": 75,
      "metarRaw": "METAR EPSY 062100Z VRB01KT 4600 BR NSC M12/M14 Q1015",
      "tafRaw": "TAF EPSY 062030Z 0621/0706 20003KT 4000 BR NSC \n  TEMPO 0621/0706 2000 BR \n  PROB40 \n  TEMPO 0621/0706 0500 FZFG BKN002",
      "metarHtml": "METAR EPSY 062100Z VRB01KT 4600 <span class=\"hl\">BR</span> NSC M12/M14 Q1015",
      "tafHtml": "TAF EPSY 062030Z 0621/0706 20003KT 4000 <span class=\"hl\">BR</span> NSC \n  TEMPO 0621/0706 2000 <span class=\"hl\">BR</span> \n  PROB40 \n  TEMPO 0621/0706 <span class=\"hl-vis\">0500</span> <span class=\"hl\">FZFG</span> BKN002"
    },
    {
      "icao": "ESSA",
      "iata": "ARN",
      "name": "Stockholm-Arlanda Airport",
      "updatedAt": "062050Z",
      "visibility_m": 10000,
      "taf_visibility_m": 600,
      "worst_visibility_m": 600,
      "ceiling_ft": 400,
      "hazards": [
        "SHSN"
      ],
      "severityScore": 70,
      "metarRaw": "METAR ESSA 062050Z 31003KT 9999 BKN004 M02/M02 Q1008 TEMPO BKN005",
      "tafRaw": "TAF ESSA 062030Z 0621/0721 25003KT 9999 BKN015 \n  TEMPO 0621/0706 BKN004 \n  TEMPO 0715/0719 0600 SHSN BKN009 BKN040CB",
      "metarHtml": "METAR ESSA 062050Z 31003KT 9999 BKN004 M02/M02 Q1008 TEMPO BKN005",
      "tafHtml": "TAF ESSA 062030Z 0621/0721 25003KT 9999 BKN015 \n  TEMPO 0621/0706 BKN004 \n  TEMPO 0715/0719 <span class=\"hl-vis\">0600</span> <span class=\"hl\">SHSN</span> BKN009 BKN040CB"
    },
    {
      "icao": "EPWA",
      "iata": "WAW",
      "name": "Warsaw Chopin Airport",
      "updatedAt": "062100Z",
      "visibility_m": 4400,
      "taf_visibility_m": 600,
      "worst_visibility_m": 600,
      "ceiling_ft": null,
      "hazards": [
        "BR",
        "FZFG"
      ],
      "severityScore": 65,
      "metarRaw": "METAR EPWA 062100Z VRB01KT 4400 BR NSC M08/M09 Q1016 NOSIG",
      "tafRaw": "TAF EPWA 062030Z 0621/0721 30004KT 6000 NSC \n  TEMPO 0621/0709 2500 BR \n  PROB40 0700/0708 0600 FZFG BKN001 \n  PROB40 \n  TEMPO 0708/0712 BKN003",
      "metarHtml": "METAR EPWA 062100Z VRB01KT 4400 <span class=\"hl\">BR</span> NSC M08/M09 Q1016 NOSIG",
      "tafHtml": "TAF EPWA 062030Z 0621/0721 30004KT 6000 NSC \n  TEMPO 0621/0709 2500 <span class=\"hl\">BR</span> \n  PROB40 0700/0708 <span class=\"hl-vis\">0600</span> <span class=\"hl\">FZFG</span> BKN001 \n  PROB40 \n  TEMPO 0708/0712 BKN003"
    },
    {
      "icao": "UDYZ",
      "iata": "EVN",
      "name": "Zvartnots International Airport",
      "updatedAt": "062100Z",
      "visibility_m": 2500,
      "taf_visibility_m": 600,
      "worst_visibility_m": 600,
      "ceiling_ft": null,
      "hazards": [
        "BR",
        "FZFG"
      ],
      "severityScore": 65,
      "metarRaw": "METAR UDYZ 062100Z 29001KT 2500 BR NSC M12/M14 Q1030 NOSIG",
      "tafRaw": "TAF UDYZ 061700Z 0618/0718 VRB04KT 2300 BR FEW040 \n  TEMPO 0618/0624 0600 FZFG VV003",
      "metarHtml": "METAR UDYZ 062100Z 29001KT 2500 <span class=\"hl\">BR</span> NSC M12/M14 Q1030 NOSIG",
      "tafHtml": "TAF UDYZ 061700Z 0618/0718 VRB04KT 2300 <span class=\"hl\">BR</span> FEW040 \n  TEMPO 0618/0624 <span class=\"hl-vis\">0600</span> <span class=\"hl\">FZFG</span> VV003"
    },
    {
      "icao": "LRSV",
      "iata": "SCV",
      "name": "Suceava Stefan cel Mare Airport",
      "updatedAt": "062100Z",
      "visibility_m": 5000,
      "taf_visibility_m": 3000,
      "worst_visibility_m": 3000,
      "ceiling_ft": 600,
      "hazards": [
        "BR",
        "FZDZ"
      ],
      "severityScore": 63,
      "metarRaw": "METAR LRSV 062100Z 33008KT 5000 BR OVC006 M01/M02 Q1011",
      "tafRaw": "TAF LRSV 062000Z 0621/0706 33008KT 5000 BR OVC010 \n  PROB30 \n  TEMPO 0622/0702 3000 -FZDZ BR OVC005",
      "metarHtml": "METAR LRSV 062100Z 33008KT 5000 <span class=\"hl\">BR</span> OVC006 M01/M02 Q1011",
      "tafHtml": "TAF LRSV 062000Z 0621/0706 33008KT 5000 <span class=\"hl\">BR</span> OVC010 \n  PROB30 \n  TEMPO 0622/0702 3000 -<span class=\"hl\">FZDZ</span> <span class=\"hl\">BR</span> OVC005"
    },
    {
      "icao": "EYVI",
      "iata": "VNO",
      "name": "Vilnius International Airport",
      "updatedAt": "062050Z",
      "visibility_m": 8000,
      "taf_visibility_m": null,
      "worst_visibility_m": 8000,
      "ceiling_ft": 300,
      "hazards": [
        "SN"
      ],
      "severityScore": 58,
      "metarRaw": "METAR EYVI 062050Z 25004KT 8000 -SN OVC003 M05/M06 Q1012 NOSIG",
      "tafRaw": null,
      "metarHtml": "METAR EYVI 062050Z 25004KT 8000 -<span class=\"hl\">SN</span> OVC003 M05/M06 Q1012 NOSIG",
      "tafHtml": null
    },
    {
      "icao": "ESKN",
      "iata": "NYO",
      "name": "Stockholm Skavsta Airport",
      "updatedAt": "062050Z",
      "visibility_m": 10000,
      "taf_visibility_m": 1200,
      "worst_visibility_m": 1200,
      "ceiling_ft": 500,
      "hazards": [
        "SN"
      ],
      "severityScore": 53,
      "metarRaw": "METAR ESKN 062050Z 27010KT 9999 BKN005 M06/M07 Q1009",
      "tafRaw": "TAF ESKN 062030Z 0621/0721 28008KT 9999 SCT005 BKN015 \n  TEMPO 0621/0622 BKN004 \n  BECMG 0710/0712 3000 -SN VV012 \n  TEMPO 0712/0715 1200 SN VV009 \n  PROB40 0715/0718 9999 NSW BKN015 \n  BECMG 0718/0720 CAVOK",
      "metarHtml": "METAR ESKN 062050Z 27010KT 9999 BKN005 M06/M07 Q1009",
      "tafHtml": "TAF ESKN 062030Z 0621/0721 28008KT 9999 SCT005 BKN015 \n  TEMPO 0621/0622 BKN004 \n  BECMG 0710/0712 3000 -<span class=\"hl\">SN</span> VV012 \n  TEMPO 0712/0715 1200 <span class=\"hl\">SN</span> VV009 \n  PROB40 0715/0718 9999 NSW BKN015 \n  BECMG 0718/0720 <span class=\"hl-vis\">CAVOK</span>"
    },
    {
      "icao": "LFOB",
      "iata": "BVA",
      "name": "Beauvais Tillé airport",
      "updatedAt": "062100Z",
      "visibility_m": 2000,
      "taf_visibility_m": 1100,
      "worst_visibility_m": 1100,
      "ceiling_ft": 800,
      "hazards": [
        "SN"
      ],
      "severityScore": 53,
      "metarRaw": "METAR LFOB 062100Z AUTO 20005KT 180V240 9999 OVC046 00/M02 Q1017 TEMPO 2000 SN BKN008",
      "tafRaw": "TAF LFOB 061700Z 0618/0718 23007KT 6000 NSC \n  PROB40 \n  TEMPO 0620/0623 2000 SN BKN008 \n  BECMG 0703/0706 19015G25KT OVC011 \n  TEMPO 0705/0711 2000 SN BKN008 OVC011 \n  PROB40 0705/0711 1100 +SN OVC004 \n  BECMG 0710/0712 22006KT NSC",
      "metarHtml": "METAR LFOB 062100Z AUTO 20005KT 180V240 9999 OVC046 00/M02 Q1017 TEMPO 2000 <span class=\"hl\">SN</span> BKN008",
      "tafHtml": "TAF LFOB 061700Z 0618/0718 23007KT 6000 NSC \n  PROB40 \n  TEMPO 0620/0623 2000 <span class=\"hl\">SN</span> BKN008 \n  BECMG 0703/0706 19015G25KT OVC011 \n  TEMPO 0705/0711 2000 <span class=\"hl\">SN</span> BKN008 OVC011 \n  PROB40 0705/0711 1100 +<span class=\"hl\">SN</span> OVC004 \n  BECMG 0710/0712 22006KT NSC"
    },
    {
      "icao": "EGBB",
      "iata": "BHX",
      "name": "Birmingham Airport",
      "updatedAt": "062050Z",
      "visibility_m": 8000,
      "taf_visibility_m": 4000,
      "worst_visibility_m": 4000,
      "ceiling_ft": 900,
      "hazards": [
        "RA",
        "SHRA"
      ],
      "severityScore": 51,
      "metarRaw": "METAR EGBB 062050Z 21009KT 170V250 8000 -RA BKN009 OVC017 04/02 Q1005 RESHRA",
      "tafRaw": "TAF EGBB 061656Z 0618/0718 21012KT 9999 SCT035 \n  BECMG 0618/0621 22015G25KT \n  TEMPO 0618/0624 7000 RA BKN012 \n  PROB30 \n  TEMPO 0620/0624 4000 +RA BKN008 \n  BECMG 0622/0701 27012KT \n  TEMPO 0700/0710 29015G25KT 8000 -SHRA \n  PROB30 \n  TEMPO 0700/0708 4000 SHRASN BKN008",
      "metarHtml": "METAR EGBB 062050Z 21009KT 170V250 8000 -<span class=\"hl\">RA</span> BKN009 OVC017 04/02 Q1005 RESHRA",
      "tafHtml": "TAF EGBB 061656Z 0618/0718 21012KT 9999 SCT035 \n  BECMG 0618/0621 22015G25KT \n  TEMPO 0618/0624 7000 <span class=\"hl\">RA</span> BKN012 \n  PROB30 \n  TEMPO 0620/0624 4000 +<span class=\"hl\">RA</span> BKN008 \n  BECMG 0622/0701 27012KT \n  TEMPO 0700/0710 29015G25KT 8000 -<span class=\"hl\">SHRA</span> \n  PROB30 \n  TEMPO 0700/0708 4000 SHRASN BKN008"
    },
    {
      "icao": "LIBD",
      "iata": "BRI",
      "name": "Bari Karol Wojtyła International Airport",
      "updatedAt": "062020Z",
      "visibility_m": 2000,
      "taf_visibility_m": null,
      "worst_visibility_m": 2000,
      "ceiling_ft": 100,
      "hazards": [
        "BR"
      ],
      "severityScore": 50,
      "metarRaw": "METAR LIBD 062020Z COR 33007KT 2000 BR BKN001 12/12 Q1002",
      "tafRaw": null,
      "metarHtml": "METAR LIBD 062020Z COR 33007KT 2000 <span class=\"hl\">BR</span> BKN001 12/12 Q1002",
      "tafHtml": null
    },
    {
      "icao": "LZKZ",
      "iata": "KSC",
      "name": "Košice International Airport",
      "updatedAt": "062100Z",
      "visibility_m": 4000,
      "taf_visibility_m": 1400,
      "worst_visibility_m": 1400,
      "ceiling_ft": 4400,
      "hazards": [
        "SN",
        "BLSN"
      ],
      "severityScore": 50,
      "metarRaw": "METAR LZKZ 062100Z 36022KT 4000 -SN BLSN OVC044 M03/M06 Q1012 NOSIG",
      "tafRaw": "TAF LZKZ 061715Z 0618/0718 03015KT 9999 BKN040 \n  TEMPO 0618/0709 02025G35KT 2500 SN BLSN BKN013 \n  PROB30 \n  TEMPO 0621/0706 02030G40KT 1400 +SN BLSN OVC007",
      "metarHtml": "METAR LZKZ 062100Z 36022KT 4000 -<span class=\"hl\">SN</span> <span class=\"hl\">BLSN</span> OVC044 M03/M06 Q1012 NOSIG",
      "tafHtml": "TAF LZKZ 061715Z 0618/0718 03015KT 9999 BKN040 \n  TEMPO 0618/0709 02025G35KT 2500 <span class=\"hl\">SN</span> <span class=\"hl\">BLSN</span> BKN013 \n  PROB30 \n  TEMPO 0621/0706 02030G40KT 1400 +<span class=\"hl\">SN</span> <span class=\"hl\">BLSN</span> OVC007"
    },
    {
      "icao": "LFBD",
      "iata": "BOD",
      "name": "Bordeaux–Mérignac Airport",
      "updatedAt": "062100Z",
      "visibility_m": 8000,
      "taf_visibility_m": 2500,
      "worst_visibility_m": 2500,
      "ceiling_ft": null,
      "hazards": [
        "FZRA",
        "SHRA"
      ],
      "severityScore": 49,
      "metarRaw": "METAR LFBD 062100Z AUTO 10003KT 8000 NSC M04/M05 Q1022 NOSIG",
      "tafRaw": "TAF LFBD 061700Z 0618/0724 35004KT CAVOK TX10/0800Z TNM03/0700Z \n  PROB30 \n  TEMPO 0706/0709 FZRA \n  BECMG 0707/0709 20010KT CAVOK \n  TEMPO 0710/0719 4500 -SHRA FEW025TCU \n  PROB40 \n  TEMPO 0712/0713 2500 SHRA BKN030TCU",
      "metarHtml": "METAR LFBD 062100Z AUTO 10003KT 8000 NSC M04/M05 Q1022 NOSIG",
      "tafHtml": "TAF LFBD 061700Z 0618/0724 35004KT <span class=\"hl-vis\">CAVOK</span> TX10/0800Z TNM03/0700Z \n  PROB30 \n  TEMPO 0706/0709 <span class=\"hl\">FZRA</span> \n  BECMG 0707/0709 20010KT <span class=\"hl-vis\">CAVOK</span> \n  TEMPO 0710/0719 4500 -<span class=\"hl\">SHRA</span> FEW025TCU \n  PROB40 \n  TEMPO 0712/0713 2500 <span class=\"hl\">SHRA</span> BKN030TCU"
    },
    {
      "icao": "EHEH",
      "iata": "EIN",
      "name": "Eindhoven Airport",
      "updatedAt": "062055Z",
      "visibility_m": 5000,
      "taf_visibility_m": 1000,
      "worst_visibility_m": 1000,
      "ceiling_ft": null,
      "hazards": [
        "BR",
        "SN",
        "SHSN"
      ],
      "severityScore": 48,
      "metarRaw": "METAR EHEH 062055Z AUTO 18007KT 5000 BR NCD M03/M04 Q1015 WHT NOSIG RMK TREND REMOTE BY EHWX",
      "tafRaw": "TAF EHEH 061728Z 0618/0724 21006KT 9999 BKN020 \n  TEMPO 0618/0619 SCT015 \n  TEMPO 0701/0704 SCT005 BKN007 \n  BECMG 0703/0705 18016KT \n  BECMG 0707/0709 2000 -SN SCT005 BKN010 \n  TEMPO 0708/0712 1000 SN SCT003 SCT005 BKN010 \n  BECMG 0712/0714 6000 NSC BKN015 \n  PROB30 \n  TEMPO 0712/0717 2000 SHSN BKN006 SCT020CB",
      "metarHtml": "METAR EHEH 062055Z AUTO 18007KT 5000 <span class=\"hl\">BR</span> NCD M03/M04 Q1015 WHT NOSIG RMK TREND REMOTE BY EHWX",
      "tafHtml": "TAF EHEH 061728Z 0618/0724 21006KT 9999 BKN020 \n  TEMPO 0618/0619 SCT015 \n  TEMPO 0701/0704 SCT005 BKN007 \n  BECMG 0703/0705 18016KT \n  BECMG 0707/0709 2000 -<span class=\"hl\">SN</span> SCT005 BKN010 \n  TEMPO 0708/0712 1000 <span class=\"hl\">SN</span> SCT003 SCT005 BKN010 \n  BECMG 0712/0714 6000 NSC BKN015 \n  PROB30 \n  TEMPO 0712/0717 2000 <span class=\"hl\">SHSN</span> BKN006 SCT020CB"
    },
    {
      "icao": "LQTZ",
      "iata": "TZL",
      "name": "Tuzla International Airport",
      "updatedAt": "062100Z",
      "visibility_m": 7000,
      "taf_visibility_m": null,
      "worst_visibility_m": 7000,
      "ceiling_ft": 700,
      "hazards": [
        "SN"
      ],
      "severityScore": 48,
      "metarRaw": "METAR LQTZ 062100Z 29006KT 7000 -SN BKN007 OVC015 M03/M03 Q1011",
      "tafRaw": null,
      "metarHtml": "METAR LQTZ 062100Z 29006KT 7000 -<span class=\"hl\">SN</span> BKN007 OVC015 M03/M03 Q1011",
      "tafHtml": null
    },
    {
      "icao": "LYNI",
      "iata": "INI",
      "name": "Niš Constantine the Great Airport",
      "updatedAt": "062100Z",
      "visibility_m": 8000,
      "taf_visibility_m": 10000,
      "worst_visibility_m": 8000,
      "ceiling_ft": 3000,
      "hazards": [
        "RA",
        "FZRA"
      ],
      "severityScore": 47,
      "metarRaw": "METAR LYNI 062100Z 32006KT 290V350 8000 -RA SCT004 BKN030 OVC070 01/01 Q1009 NOSIG",
      "tafRaw": "TAF LYNI 061700Z 0618/0718 33010KT 9999 BKN010 BKN030 BKN070 TX01/0618Z TNM02/0706Z \n  PROB40 \n  TEMPO 0700/0708 -FZRA BKN005 OVC023 \n  TEMPO 0704/0708 33020KT \n  TEMPO 0712/0718 FZRA BKN005 OVC023 \n  BECMG 0716/0718 33020KT",
      "metarHtml": "METAR LYNI 062100Z 32006KT 290V350 8000 -<span class=\"hl\">RA</span> SCT004 BKN030 OVC070 01/01 Q1009 NOSIG",
      "tafHtml": "TAF LYNI 061700Z 0618/0718 33010KT 9999 BKN010 BKN030 BKN070 TX01/0618Z TNM02/0706Z \n  PROB40 \n  TEMPO 0700/0708 -<span class=\"hl\">FZRA</span> BKN005 OVC023 \n  TEMPO 0704/0708 33020KT \n  TEMPO 0712/0718 <span class=\"hl\">FZRA</span> BKN005 OVC023 \n  BECMG 0716/0718 33020KT"
    },
    {
      "icao": "EYKA",
      "iata": "KUN",
      "name": "Kaunas International Airport",
      "updatedAt": "062050Z",
      "visibility_m": 6000,
      "taf_visibility_m": 1500,
      "worst_visibility_m": 1500,
      "ceiling_ft": 700,
      "hazards": [
        "BR"
      ],
      "severityScore": 45,
      "metarRaw": "METAR EYKA 062050Z 25005KT 6000 OVC007 M05/M06 Q1013",
      "tafRaw": "TAF EYKA 061714Z 0618/0718 VRB04KT 5000 BR OVC010 \n  TEMPO 0618/0624 3000 BKN005 OVC015 \n  TEMPO 0700/0706 1500 OVC005 \n  BECMG 0706/0708 9000 NSW OVC005 \n  BECMG 0712/0714 SCT005 BKN010 \n  TEMPO 0715/0718 3000 BR BKN005",
      "metarHtml": "METAR EYKA 062050Z 25005KT 6000 OVC007 M05/M06 Q1013",
      "tafHtml": "TAF EYKA 061714Z 0618/0718 VRB04KT 5000 <span class=\"hl\">BR</span> OVC010 \n  TEMPO 0618/0624 3000 BKN005 OVC015 \n  TEMPO 0700/0706 1500 OVC005 \n  BECMG 0706/0708 9000 NSW OVC005 \n  BECMG 0712/0714 SCT005 BKN010 \n  TEMPO 0715/0718 3000 <span class=\"hl\">BR</span> BKN005"
    },
    {
      "icao": "EDDH",
      "iata": "HAM",
      "name": "Hamburg Helmut Schmidt Airport",
      "updatedAt": "062050Z",
      "visibility_m": 10000,
      "taf_visibility_m": 4500,
      "worst_visibility_m": 4500,
      "ceiling_ft": 800,
      "hazards": [
        "SN"
      ],
      "severityScore": 43,
      "metarRaw": "METAR EDDH 062050Z AUTO 22011KT 9999 OVC008 M00/M02 Q1013 NOSIG",
      "tafRaw": "TAF EDDH 061700Z 0618/0724 20008KT 9999 BKN012 \n  PROB30 \n  TEMPO 0618/0620 SCT012 BKN020 \n  TEMPO 0619/0701 BKN005 \n  BECMG 0702/0704 SCT020 \n  BECMG 0706/0708 16013KT \n  BECMG 0718/0721 BKN014 \n  TEMPO 0721/0724 4500 -SN BKN008",
      "metarHtml": "METAR EDDH 062050Z AUTO 22011KT 9999 OVC008 M00/M02 Q1013 NOSIG",
      "tafHtml": "TAF EDDH 061700Z 0618/0724 20008KT 9999 BKN012 \n  PROB30 \n  TEMPO 0618/0620 SCT012 BKN020 \n  TEMPO 0619/0701 BKN005 \n  BECMG 0702/0704 SCT020 \n  BECMG 0706/0708 16013KT \n  BECMG 0718/0721 BKN014 \n  TEMPO 0721/0724 4500 -<span class=\"hl\">SN</span> BKN008"
    },
    {
      "icao": "LZTT",
      "iata": "TAT",
      "name": "Poprad-Tatry Airport",
      "updatedAt": "062100Z",
      "visibility_m": 2000,
      "taf_visibility_m": 2500,
      "worst_visibility_m": 2000,
      "ceiling_ft": 500,
      "hazards": [
        "SN"
      ],
      "severityScore": 43,
      "metarRaw": "METAR LZTT 062100Z 07009KT 2000 -SN BKN005 OVC016 M07/M08 Q1010",
      "tafRaw": "TAF LZTT 061715Z 0618/0718 08008KT 9999 SCT016 BKN040 \n  TEMPO 0618/0706 2500 SN BKN009",
      "metarHtml": "METAR LZTT 062100Z 07009KT 2000 -<span class=\"hl\">SN</span> BKN005 OVC016 M07/M08 Q1010",
      "tafHtml": "TAF LZTT 061715Z 0618/0718 08008KT 9999 SCT016 BKN040 \n  TEMPO 0618/0706 2500 <span class=\"hl\">SN</span> BKN009"
    },
    {
      "icao": "EFTU",
      "iata": "TKU",
      "name": "Turku Airport",
      "updatedAt": "062050Z",
      "visibility_m": 5000,
      "taf_visibility_m": 3000,
      "worst_visibility_m": 3000,
      "ceiling_ft": 1800,
      "hazards": [
        "SN",
        "SHSN"
      ],
      "severityScore": 40,
      "metarRaw": "METAR EFTU 062050Z AUTO 10009KT 5000 -SN OVC018 M04/M05 Q1014",
      "tafRaw": "TAF EFTU 062022Z 0621/0721 11010KT 9999 -SN FEW006 BKN020 \n  TEMPO 0621/0706 4000 BKN010 \n  PROB30 \n  TEMPO 0712/0718 3000 -SHSN BKN012",
      "metarHtml": "METAR EFTU 062050Z AUTO 10009KT 5000 -<span class=\"hl\">SN</span> OVC018 M04/M05 Q1014",
      "tafHtml": "TAF EFTU 062022Z 0621/0721 11010KT 9999 -<span class=\"hl\">SN</span> FEW006 BKN020 \n  TEMPO 0621/0706 4000 BKN010 \n  PROB30 \n  TEMPO 0712/0718 3000 -<span class=\"hl\">SHSN</span> BKN012"
    },
    {
      "icao": "LFMN",
      "iata": "NCE",
      "name": "Nice-Côte d'Azur Airport",
      "updatedAt": "062100Z",
      "visibility_m": 10000,
      "taf_visibility_m": 4000,
      "worst_visibility_m": 4000,
      "ceiling_ft": null,
      "hazards": [
        "SHRA",
        "TSRA"
      ],
      "severityScore": 39,
      "metarRaw": "METAR LFMN 062100Z 32012KT 9999 FEW040CB SCT050 05/M01 Q1006 TEMPO SHRA",
      "tafRaw": "TAF LFMN 062000Z 0621/0803 34015KT 9999 FEW030TCU SCT040 \n  TEMPO 0621/0624 SHRA \n  PROB40 \n  TEMPO 0621/0624 VRB15G25KT 4000 -TSRA SCT030CB \n  PROB30 \n  TEMPO 0621/0624 4000 -TSRAGR SCT030CB \n  BECMG 0700/0702 CAVOK \n  BECMG 0709/0712 24013KT \n  BECMG 0717/0719 32012KT",
      "metarHtml": "METAR LFMN 062100Z 32012KT 9999 FEW040CB SCT050 05/M01 Q1006 TEMPO <span class=\"hl\">SHRA</span>",
      "tafHtml": "TAF LFMN 062000Z 0621/0803 34015KT 9999 FEW030TCU SCT040 \n  TEMPO 0621/0624 <span class=\"hl\">SHRA</span> \n  PROB40 \n  TEMPO 0621/0624 VRB15G25KT 4000 -<span class=\"hl\">TSRA</span> SCT030CB \n  PROB30 \n  TEMPO 0621/0624 4000 -TSRAGR SCT030CB \n  BECMG 0700/0702 <span class=\"hl-vis\">CAVOK</span> \n  BECMG 0709/0712 24013KT \n  BECMG 0717/0719 32012KT"
    },
    {
      "icao": "LJLJ",
      "iata": "LJU",
      "name": "Ljubljana Jože Pučnik Airport",
      "updatedAt": "062100Z",
      "visibility_m": 2500,
      "taf_visibility_m": 1500,
      "worst_visibility_m": 1500,
      "ceiling_ft": 2000,
      "hazards": [
        "BR",
        "SN"
      ],
      "severityScore": 38,
      "metarRaw": "METAR LJLJ 062100Z 30002KT 2500 SN BR SCT003 SCT009 OVC020 M04/M05 Q1012 BECMG 3500 -SN BR",
      "tafRaw": "TAF LJLJ 061700Z 0618/0718 13005KT 1500 -SN BKN006 OVC020 \n  PROB30 \n  TEMPO 0621/0623 3000 NSW BKN012 OVC025 \n  TEMPO 0623/0715 -SN",
      "metarHtml": "METAR LJLJ 062100Z 30002KT 2500 <span class=\"hl\">SN</span> <span class=\"hl\">BR</span> SCT003 SCT009 OVC020 M04/M05 Q1012 BECMG 3500 -<span class=\"hl\">SN</span> <span class=\"hl\">BR</span>",
      "tafHtml": "TAF LJLJ 061700Z 0618/0718 13005KT 1500 -<span class=\"hl\">SN</span> BKN006 OVC020 \n  PROB30 \n  TEMPO 0621/0623 3000 NSW BKN012 OVC025 \n  TEMPO 0623/0715 -<span class=\"hl\">SN</span>"
    },
    {
      "icao": "EGNM",
      "iata": "LBA",
      "name": "Leeds Bradford Airport",
      "updatedAt": "062050Z",
      "visibility_m": 8000,
      "taf_visibility_m": 3000,
      "worst_visibility_m": 3000,
      "ceiling_ft": 600,
      "hazards": [
        "RA"
      ],
      "severityScore": 37,
      "metarRaw": "METAR EGNM 062050Z 23013KT 8000 -RA BKN006 02/02 Q1000",
      "tafRaw": "TAF EGNM 061655Z 0618/0718 21009KT 9999 SCT018 \n  TEMPO 0618/0623 6000 -RASN RA BKN008 \n  PROB30 \n  TEMPO 0618/0622 21015G25KT 3000 RASN +RA BKN004 \n  BECMG 0621/0624 28010KT \n  TEMPO 0700/0712 27015G25KT \n  PROB30 \n  TEMPO 0700/0703 6000 SHRASN BKN010",
      "metarHtml": "METAR EGNM 062050Z 23013KT 8000 -<span class=\"hl\">RA</span> BKN006 02/02 Q1000",
      "tafHtml": "TAF EGNM 061655Z 0618/0718 21009KT 9999 SCT018 \n  TEMPO 0618/0623 6000 -RASN <span class=\"hl\">RA</span> BKN008 \n  PROB30 \n  TEMPO 0618/0622 21015G25KT 3000 RASN +<span class=\"hl\">RA</span> BKN004 \n  BECMG 0621/0624 28010KT \n  TEMPO 0700/0712 27015G25KT \n  PROB30 \n  TEMPO 0700/0703 6000 SHRASN BKN010"
    },
    {
      "icao": "LYPG",
      "iata": "TGD",
      "name": "Podgorica Airport / Podgorica Golubovci Airbase",
      "updatedAt": "062100Z",
      "visibility_m": 5000,
      "taf_visibility_m": 3000,
      "worst_visibility_m": 3000,
      "ceiling_ft": 7000,
      "hazards": [
        "RA",
        "TSRA"
      ],
      "severityScore": 37,
      "metarRaw": "METAR LYPG 062100Z 13016KT 7000 RA FEW020 SCT040 BKN070 14/12 Q1002 TEMPO 5000",
      "tafRaw": "TAF LYPG 061700Z 0618/0718 18005KT 7000 RA FEW010 BKN030 OVC070 TX13/0700Z TN09/0718Z \n  TEMPO 0618/0704 16015G25KT 3000 TSRA FEW010 SCT025CB BKN030",
      "metarHtml": "METAR LYPG 062100Z 13016KT 7000 <span class=\"hl\">RA</span> FEW020 SCT040 BKN070 14/12 Q1002 TEMPO 5000",
      "tafHtml": "TAF LYPG 061700Z 0618/0718 18005KT 7000 <span class=\"hl\">RA</span> FEW010 BKN030 OVC070 TX13/0700Z TN09/0718Z \n  TEMPO 0618/0704 16015G25KT 3000 <span class=\"hl\">TSRA</span> FEW010 SCT025CB BKN030"
    },
    {
      "icao": "EPSC",
      "iata": "SZZ",
      "name": "Solidarity Szczecin–Goleniów Airport",
      "updatedAt": "062100Z",
      "visibility_m": 6000,
      "taf_visibility_m": 3000,
      "worst_visibility_m": 3000,
      "ceiling_ft": 500,
      "hazards": [
        "BR"
      ],
      "severityScore": 35,
      "metarRaw": "METAR EPSC 062100Z 17003KT 140V200 6000 OVC005 M04/M05 Q1015",
      "tafRaw": "TAF EPSC 061730Z 0618/0718 20003KT 9999 OVC010 \n  PROB40 \n  TEMPO 0618/0708 3000 BR OVC006",
      "metarHtml": "METAR EPSC 062100Z 17003KT 140V200 6000 OVC005 M04/M05 Q1015",
      "tafHtml": "TAF EPSC 061730Z 0618/0718 20003KT 9999 OVC010 \n  PROB40 \n  TEMPO 0618/0708 3000 <span class=\"hl\">BR</span> OVC006"
    },
    {
      "icao": "LTAC",
      "iata": "ESB",
      "name": "Esenboğa International Airport",
      "updatedAt": "062050Z",
      "visibility_m": 6000,
      "taf_visibility_m": 1000,
      "worst_visibility_m": 1000,
      "ceiling_ft": null,
      "hazards": [
        "BR",
        "SHRA"
      ],
      "severityScore": 34,
      "metarRaw": "METAR LTAC 062050Z VRB01KT 6000 NSC 02/M00 Q1021 NOSIG RMK RWY21C 00000KT RWY03L 00000KT RWY21R 00000KT RWY03R 00000KT RWY21L 00000KT",
      "tafRaw": "TAF LTAC 061640Z 0618/0718 VRB02KT 7000 SCT040 SCT100 \n  BECMG 0621/0624 4000 BR \n  PROB30 \n  TEMPO 0703/0707 1000 BCFG BKN002 \n  BECMG 0707/0709 9999 NSW \n  PROB30 \n  TEMPO 0711/0715 -SHRA BKN030 BKN080",
      "metarHtml": "METAR LTAC 062050Z VRB01KT 6000 NSC 02/M00 Q1021 NOSIG RMK RWY21C 00000KT RWY03L 00000KT RWY21R 00000KT RWY03R 00000KT RWY21L 00000KT",
      "tafHtml": "TAF LTAC 061640Z 0618/0718 VRB02KT 7000 SCT040 SCT100 \n  BECMG 0621/0624 4000 <span class=\"hl\">BR</span> \n  PROB30 \n  TEMPO 0703/0707 1000 BCFG BKN002 \n  BECMG 0707/0709 9999 NSW \n  PROB30 \n  TEMPO 0711/0715 -<span class=\"hl\">SHRA</span> BKN030 BKN080"
    },
    {
      "icao": "EPLB",
      "iata": "LUZ",
      "name": "Lublin Airport",
      "updatedAt": "062100Z",
      "visibility_m": 1900,
      "taf_visibility_m": null,
      "worst_visibility_m": 1900,
      "ceiling_ft": 2000,
      "hazards": [
        "BR",
        "SN"
      ],
      "severityScore": 33,
      "metarRaw": "METAR EPLB 062100Z 30006KT 1900 -SN BR SCT016 OVC020 M05/M06 Q1015",
      "tafRaw": null,
      "metarHtml": "METAR EPLB 062100Z 30006KT 1900 -<span class=\"hl\">SN</span> <span class=\"hl\">BR</span> SCT016 OVC020 M05/M06 Q1015",
      "tafHtml": null
    },
    {
      "icao": "EDDN",
      "iata": "NUE",
      "name": "Nuremberg Airport",
      "updatedAt": "062050Z",
      "visibility_m": 10000,
      "taf_visibility_m": 4000,
      "worst_visibility_m": 4000,
      "ceiling_ft": 1200,
      "hazards": [
        "SN"
      ],
      "severityScore": 30,
      "metarRaw": "METAR EDDN 062050Z AUTO 23003KT 200V270 9999 BKN016 M05/M07 Q1017 BECMG BKN012",
      "tafRaw": "TAF EDDN 061700Z 0618/0718 VRB03KT 9999 BKN015 \n  BECMG 0618/0620 BKN012 \n  PROB30 \n  TEMPO 0622/0704 4000 -SN \n  TEMPO 0704/0710 15005KT BKN008 \n  BECMG 0710/0712 15005KT BKN015",
      "metarHtml": "METAR EDDN 062050Z AUTO 23003KT 200V270 9999 BKN016 M05/M07 Q1017 BECMG BKN012",
      "tafHtml": "TAF EDDN 061700Z 0618/0718 VRB03KT 9999 BKN015 \n  BECMG 0618/0620 BKN012 \n  PROB30 \n  TEMPO 0622/0704 4000 -<span class=\"hl\">SN</span> \n  TEMPO 0704/0710 15005KT BKN008 \n  BECMG 0710/0712 15005KT BKN015"
    },
    {
      "icao": "EDDS",
      "iata": "STR",
      "name": "Stuttgart Airport",
      "updatedAt": "062050Z",
      "visibility_m": 7000,
      "taf_visibility_m": 10000,
      "worst_visibility_m": 7000,
      "ceiling_ft": 1600,
      "hazards": [
        "SN"
      ],
      "severityScore": 30,
      "metarRaw": "METAR EDDS 062050Z AUTO VRB01KT 7000 -SN BKN016 BKN021 M04/M06 Q1017 NOSIG",
      "tafRaw": "TAF EDDS 061700Z 0618/0718 VRB03KT 9999 BKN012 \n  TEMPO 0618/0621 BKN008 \n  BECMG 0621/0624 SCT012 BKN030",
      "metarHtml": "METAR EDDS 062050Z AUTO VRB01KT 7000 -<span class=\"hl\">SN</span> BKN016 BKN021 M04/M06 Q1017 NOSIG",
      "tafHtml": "TAF EDDS 061700Z 0618/0718 VRB03KT 9999 BKN012 \n  TEMPO 0618/0621 BKN008 \n  BECMG 0621/0624 SCT012 BKN030"
    },
    {
      "icao": "EGPD",
      "iata": "ABZ",
      "name": "Aberdeen International Airport",
      "updatedAt": "062050Z",
      "visibility_m": 4000,
      "taf_visibility_m": null,
      "worst_visibility_m": 4000,
      "ceiling_ft": 500,
      "hazards": [],
      "severityScore": 30,
      "metarRaw": "METAR EGPD 062050Z AUTO 31012KT 9999 BKN005 01/M00 Q0995 TEMPO 4000 -RASN",
      "tafRaw": null,
      "metarHtml": "METAR EGPD 062050Z AUTO 31012KT 9999 BKN005 01/M00 Q0995 TEMPO 4000 -RASN",
      "tafHtml": null
    },
    {
      "icao": "ENGM",
      "iata": "OSL",
      "name": "Oslo-Gardermoen International Airport",
      "updatedAt": "062050Z",
      "visibility_m": 10000,
      "taf_visibility_m": 4000,
      "worst_visibility_m": 4000,
      "ceiling_ft": 1300,
      "hazards": [
        "SN"
      ],
      "severityScore": 30,
      "metarRaw": "METAR ENGM 062050Z 34003KT 300V360 9999 BKN013 M12/M14 Q1011 TEMPO BKN015",
      "tafRaw": "TAF ENGM 061700Z 0618/0718 01008KT 9999 SCT012 BKN025 \n  TEMPO 0618/0718 4000 -SN OVC012",
      "metarHtml": "METAR ENGM 062050Z 34003KT 300V360 9999 BKN013 M12/M14 Q1011 TEMPO BKN015",
      "tafHtml": "TAF ENGM 061700Z 0618/0718 01008KT 9999 SCT012 BKN025 \n  TEMPO 0618/0718 4000 -<span class=\"hl\">SN</span> OVC012"
    },
    {
      "icao": "ESMS",
      "iata": "MMX",
      "name": "Malmö Sturup Airport",
      "updatedAt": "062050Z",
      "visibility_m": 5000,
      "taf_visibility_m": 1200,
      "worst_visibility_m": 1200,
      "ceiling_ft": null,
      "hazards": [
        "BR",
        "SHSN"
      ],
      "severityScore": 30,
      "metarRaw": "METAR ESMS 062050Z 10001KT 5000 BR FEW024 SCT036 M07/M07 Q1012",
      "tafRaw": "TAF ESMS 062027Z 0621/0721 VRB03KT 5000 BKN020 \n  TEMPO 0621/0705 2000 SHSN BKN008 SCT020CB \n  TEMPO 0705/0710 1200 SHSN BKN005 BKN020CB \n  TEMPO 0710/0713 BKN008 \n  BECMG 0710/0712 18010KT",
      "metarHtml": "METAR ESMS 062050Z 10001KT 5000 <span class=\"hl\">BR</span> FEW024 SCT036 M07/M07 Q1012",
      "tafHtml": "TAF ESMS 062027Z 0621/0721 VRB03KT 5000 BKN020 \n  TEMPO 0621/0705 2000 <span class=\"hl\">SHSN</span> BKN008 SCT020CB \n  TEMPO 0705/0710 1200 <span class=\"hl\">SHSN</span> BKN005 BKN020CB \n  TEMPO 0710/0713 BKN008 \n  BECMG 0710/0712 18010KT"
    },
    {
      "icao": "EDDK",
      "iata": "CGN",
      "name": "Cologne Bonn Airport",
      "updatedAt": "062050Z",
      "visibility_m": 10000,
      "taf_visibility_m": 1200,
      "worst_visibility_m": 1200,
      "ceiling_ft": null,
      "hazards": [
        "SN"
      ],
      "severityScore": 28,
      "metarRaw": "METAR EDDK 062050Z AUTO 17005KT CAVOK M02/M05 Q1017 NOSIG",
      "tafRaw": "TAF EDDK 061700Z 0618/0724 14005KT 9999 BKN020 \n  BECMG 0705/0707 15011KT \n  TEMPO 0710/0715 1200 SN BKN010 \n  TEMPO 0715/0724 3000 -SN BKN013 \n  PROB30 \n  TEMPO 0721/0724 1200 SN BKN008",
      "metarHtml": "METAR EDDK 062050Z AUTO 17005KT <span class=\"hl-vis\">CAVOK</span> M02/M05 Q1017 NOSIG",
      "tafHtml": "TAF EDDK 061700Z 0618/0724 14005KT 9999 BKN020 \n  BECMG 0705/0707 15011KT \n  TEMPO 0710/0715 1200 <span class=\"hl\">SN</span> BKN010 \n  TEMPO 0715/0724 3000 -<span class=\"hl\">SN</span> BKN013 \n  PROB30 \n  TEMPO 0721/0724 1200 <span class=\"hl\">SN</span> BKN008"
    },
    {
      "icao": "EDFH",
      "iata": "HHN",
      "name": "Frankfurt-Hahn Airport",
      "updatedAt": "062050Z",
      "visibility_m": 10000,
      "taf_visibility_m": 2000,
      "worst_visibility_m": 2000,
      "ceiling_ft": null,
      "hazards": [
        "BR",
        "SN"
      ],
      "severityScore": 28,
      "metarRaw": "METAR EDFH 062050Z 23006KT 200V260 9999 SCT007 M03/M05 Q1015",
      "tafRaw": "TAF EDFH 061700Z 0618/0718 23005KT 9999 SCT012 BKN035 \n  BECMG 0618/0621 BKN012 \n  TEMPO 0620/0705 2000 BR BKN004 \n  BECMG 0703/0706 20010KT \n  TEMPO 0712/0718 20015G25KT 4000 -SN \n  PROB30 \n  TEMPO 0714/0716 2000 SN BKN008",
      "metarHtml": "METAR EDFH 062050Z 23006KT 200V260 9999 SCT007 M03/M05 Q1015",
      "tafHtml": "TAF EDFH 061700Z 0618/0718 23005KT 9999 SCT012 BKN035 \n  BECMG 0618/0621 BKN012 \n  TEMPO 0620/0705 2000 <span class=\"hl\">BR</span> BKN004 \n  BECMG 0703/0706 20010KT \n  TEMPO 0712/0718 20015G25KT 4000 -<span class=\"hl\">SN</span> \n  PROB30 \n  TEMPO 0714/0716 2000 <span class=\"hl\">SN</span> BKN008"
    },
    {
      "icao": "EDNY",
      "iata": "FDH",
      "name": "Friedrichshafen Airport",
      "updatedAt": "062050Z",
      "visibility_m": 7000,
      "taf_visibility_m": 2500,
      "worst_visibility_m": 2500,
      "ceiling_ft": null,
      "hazards": [
        "SN",
        "BR"
      ],
      "severityScore": 28,
      "metarRaw": "METAR EDNY 062050Z AUTO 04002KT 7000 -SN OVC025/// M05/M06 Q1017",
      "tafRaw": "TAF EDNY 061700Z 0618/0703 VRB03KT 7000 FEW020 BKN030 \n  PROB40 \n  TEMPO 0618/0623 3000 -SN BKN011 \n  BECMG 0623/0701 BKN010 \n  PROB40 \n  TEMPO 0623/0703 2500 -SG BR BKN007",
      "metarHtml": "METAR EDNY 062050Z AUTO 04002KT 7000 -<span class=\"hl\">SN</span> OVC025/// M05/M06 Q1017",
      "tafHtml": "TAF EDNY 061700Z 0618/0703 VRB03KT 7000 FEW020 BKN030 \n  PROB40 \n  TEMPO 0618/0623 3000 -<span class=\"hl\">SN</span> BKN011 \n  BECMG 0623/0701 BKN010 \n  PROB40 \n  TEMPO 0623/0703 2500 -SG <span class=\"hl\">BR</span> BKN007"
    },
    {
      "icao": "EHBK",
      "iata": "MST",
      "name": "Maastricht Aachen Airport",
      "updatedAt": "062055Z",
      "visibility_m": 10000,
      "taf_visibility_m": 2000,
      "worst_visibility_m": 2000,
      "ceiling_ft": null,
      "hazards": [
        "SN",
        "SHSN"
      ],
      "severityScore": 28,
      "metarRaw": "METAR EHBK 062055Z AUTO 20013KT 9999 NCD M03/M05 Q1015 NOSIG",
      "tafRaw": "TAF EHBK 061720Z 0618/0724 22008KT CAVOK \n  PROB30 \n  TEMPO 0621/0703 BKN008 \n  BECMG 0703/0706 19015G25KT \n  BECMG 0708/0711 4000 -SN \n  TEMPO 0711/0714 2000 SN BKN014 \n  BECMG 0713/0716 21014KT 9999 NSW BKN012 \n  TEMPO 0714/0724 3000 -SHSN FEW018CB \n  BECMG 0721/0724 6000 BKN006",
      "metarHtml": "METAR EHBK 062055Z AUTO 20013KT 9999 NCD M03/M05 Q1015 NOSIG",
      "tafHtml": "TAF EHBK 061720Z 0618/0724 22008KT <span class=\"hl-vis\">CAVOK</span> \n  PROB30 \n  TEMPO 0621/0703 BKN008 \n  BECMG 0703/0706 19015G25KT \n  BECMG 0708/0711 4000 -<span class=\"hl\">SN</span> \n  TEMPO 0711/0714 2000 <span class=\"hl\">SN</span> BKN014 \n  BECMG 0713/0716 21014KT 9999 NSW BKN012 \n  TEMPO 0714/0724 3000 -<span class=\"hl\">SHSN</span> FEW018CB \n  BECMG 0721/0724 6000 BKN006"
    },
    {
      "icao": "EPKK",
      "iata": "KRK",
      "name": "Kraków John Paul II International Airport",
      "updatedAt": "062100Z",
      "visibility_m": 6000,
      "taf_visibility_m": 2000,
      "worst_visibility_m": 2000,
      "ceiling_ft": null,
      "hazards": [
        "BR",
        "SN"
      ],
      "severityScore": 28,
      "metarRaw": "METAR EPKK 062100Z 22002KT 6000 NSC M04/M06 Q1015",
      "tafRaw": "TAF EPKK 062030Z 0621/0721 VRB02KT 6000 BKN026 \n  TEMPO 0621/0709 4000 -SN BKN013 \n  BECMG 0709/0711 04010KT BKN012 \n  TEMPO 0709/0721 4000 -SN BR BKN006 BKN012 \n  PROB40 \n  TEMPO 0715/0721 2000 SN BR BKN004 BKN008",
      "metarHtml": "METAR EPKK 062100Z 22002KT 6000 NSC M04/M06 Q1015",
      "tafHtml": "TAF EPKK 062030Z 0621/0721 VRB02KT 6000 BKN026 \n  TEMPO 0621/0709 4000 -<span class=\"hl\">SN</span> BKN013 \n  BECMG 0709/0711 04010KT BKN012 \n  TEMPO 0709/0721 4000 -<span class=\"hl\">SN</span> <span class=\"hl\">BR</span> BKN006 BKN012 \n  PROB40 \n  TEMPO 0715/0721 2000 <span class=\"hl\">SN</span> <span class=\"hl\">BR</span> BKN004 BKN008"
    },
    {
      "icao": "EPKT",
      "iata": "KTW",
      "name": "Katowice Wojciech Korfanty International Airport",
      "updatedAt": "062100Z",
      "visibility_m": 7000,
      "taf_visibility_m": 4000,
      "worst_visibility_m": 4000,
      "ceiling_ft": null,
      "hazards": [
        "BR",
        "SN"
      ],
      "severityScore": 28,
      "metarRaw": "METAR EPKT 062100Z VRB01KT 7000 NSC M07/M09 Q1015",
      "tafRaw": "TAF EPKT 061730Z 0618/0718 32004KT CAVOK \n  PROB30 \n  TEMPO 0703/0714 4000 -SG BR BKN008 \n  BECMG 0714/0717 -SN BKN008",
      "metarHtml": "METAR EPKT 062100Z VRB01KT 7000 NSC M07/M09 Q1015",
      "tafHtml": "TAF EPKT 061730Z 0618/0718 32004KT <span class=\"hl-vis\">CAVOK</span> \n  PROB30 \n  TEMPO 0703/0714 4000 -SG <span class=\"hl\">BR</span> BKN008 \n  BECMG 0714/0717 -<span class=\"hl\">SN</span> BKN008"
    },
    {
      "icao": "EPWR",
      "iata": "WRO",
      "name": "Copernicus Wrocław Airport",
      "updatedAt": "062100Z",
      "visibility_m": 10000,
      "taf_visibility_m": 4000,
      "worst_visibility_m": 4000,
      "ceiling_ft": 2500,
      "hazards": [
        "BR",
        "SN"
      ],
      "severityScore": 28,
      "metarRaw": "METAR EPWR 062100Z 23006KT 9999 BKN025 M04/M08 Q1017",
      "tafRaw": "TAF EPWR 062030Z 0621/0721 24003KT 9999 BKN030 \n  PROB30 \n  TEMPO 0621/0708 4500 -SN BR BKN012 \n  PROB40 \n  TEMPO 0714/0718 4000 -SN BR BKN008 \n  TEMPO 0718/0721 BKN008",
      "metarHtml": "METAR EPWR 062100Z 23006KT 9999 BKN025 M04/M08 Q1017",
      "tafHtml": "TAF EPWR 062030Z 0621/0721 24003KT 9999 BKN030 \n  PROB30 \n  TEMPO 0621/0708 4500 -<span class=\"hl\">SN</span> <span class=\"hl\">BR</span> BKN012 \n  PROB40 \n  TEMPO 0714/0718 4000 -<span class=\"hl\">SN</span> <span class=\"hl\">BR</span> BKN008 \n  TEMPO 0718/0721 BKN008"
    },
    {
      "icao": "LRBV",
      "iata": "GHV",
      "name": "Brașov-Ghimbav International Airport",
      "updatedAt": "062100Z",
      "visibility_m": 7000,
      "taf_visibility_m": 3000,
      "worst_visibility_m": 3000,
      "ceiling_ft": 8300,
      "hazards": [
        "BR",
        "SN"
      ],
      "severityScore": 28,
      "metarRaw": "METAR LRBV 062100Z 15005KT 7000 FEW003 SCT045 BKN083 02/01 Q1008",
      "tafRaw": "TAF LRBV 062000Z 0621/0706 10007KT 5000 BR SCT035 BKN060 \n  TEMPO 0621/0703 3000 -SN BR BKN005 BKN060",
      "metarHtml": "METAR LRBV 062100Z 15005KT 7000 FEW003 SCT045 BKN083 02/01 Q1008",
      "tafHtml": "TAF LRBV 062000Z 0621/0706 10007KT 5000 <span class=\"hl\">BR</span> SCT035 BKN060 \n  TEMPO 0621/0703 3000 -<span class=\"hl\">SN</span> <span class=\"hl\">BR</span> BKN005 BKN060"
    },
    {
      "icao": "EGGP",
      "iata": "LPL",
      "name": "Liverpool John Lennon Airport",
      "updatedAt": "062050Z",
      "visibility_m": 10000,
      "taf_visibility_m": 4000,
      "worst_visibility_m": 4000,
      "ceiling_ft": 2200,
      "hazards": [
        "RA",
        "SHRA"
      ],
      "severityScore": 26,
      "metarRaw": "METAR EGGP 062050Z 21007KT 9999 -RA BKN022 OVC044 03/02 Q1003",
      "tafRaw": "TAF EGGP 061658Z 0618/0718 20005KT 9999 SCT025 \n  TEMPO 0618/0623 6000 RA BKN010 \n  PROB30 \n  TEMPO 0619/0623 21015G25KT 4000 +RA BKN006 \n  BECMG 0621/0624 28015KT \n  TEMPO 0623/0706 28018G28KT \n  PROB30 \n  TEMPO 0623/0708 8000 -SHRA BKN012 \n  BECMG 0716/0718 29005KT",
      "metarHtml": "METAR EGGP 062050Z 21007KT 9999 -<span class=\"hl\">RA</span> BKN022 OVC044 03/02 Q1003",
      "tafHtml": "TAF EGGP 061658Z 0618/0718 20005KT 9999 SCT025 \n  TEMPO 0618/0623 6000 <span class=\"hl\">RA</span> BKN010 \n  PROB30 \n  TEMPO 0619/0623 21015G25KT 4000 +<span class=\"hl\">RA</span> BKN006 \n  BECMG 0621/0624 28015KT \n  TEMPO 0623/0706 28018G28KT \n  PROB30 \n  TEMPO 0623/0708 8000 -<span class=\"hl\">SHRA</span> BKN012 \n  BECMG 0716/0718 29005KT"
    },
    {
      "icao": "LATI",
      "iata": "TIA",
      "name": "Tirana International Airport Mother Teresa",
      "updatedAt": "062050Z",
      "visibility_m": 10000,
      "taf_visibility_m": 2000,
      "worst_visibility_m": 2000,
      "ceiling_ft": null,
      "hazards": [
        "TSRA"
      ],
      "severityScore": 25,
      "metarRaw": "METAR LATI 062050Z 18007KT 9999 FEW070 SCT120 14/08 Q1006 NOSIG",
      "tafRaw": "TAF LATI 061700Z 0618/0718 16010KT 9999 SCT030 OVC060 TX15/0712Z TN12/0704Z \n  PROB40 \n  TEMPO 0619/0706 -TSRA FEW025CB \n  TEMPO 0708/0718 VRB10G25KT 4000 TSRA FEW015 SCT025CB OVC050 \n  PROB40 \n  TEMPO 0715/0718 2000 +TSRA SCT008 BKN025",
      "metarHtml": "METAR LATI 062050Z 18007KT 9999 FEW070 SCT120 14/08 Q1006 NOSIG",
      "tafHtml": "TAF LATI 061700Z 0618/0718 16010KT 9999 SCT030 OVC060 TX15/0712Z TN12/0704Z \n  PROB40 \n  TEMPO 0619/0706 -<span class=\"hl\">TSRA</span> FEW025CB \n  TEMPO 0708/0718 VRB10G25KT 4000 <span class=\"hl\">TSRA</span> FEW015 SCT025CB OVC050 \n  PROB40 \n  TEMPO 0715/0718 2000 +<span class=\"hl\">TSRA</span> SCT008 BKN025"
    },
    {
      "icao": "LIBR",
      "iata": "BDS",
      "name": "Brindisi Airport",
      "updatedAt": "062050Z",
      "visibility_m": 7000,
      "taf_visibility_m": 4000,
      "worst_visibility_m": 4000,
      "ceiling_ft": null,
      "hazards": [
        "TSRA"
      ],
      "severityScore": 25,
      "metarRaw": "METAR LIBR 062050Z 21016KT 7000 SCT015 16/14 Q1003",
      "tafRaw": "TAF LIBR 061700Z 0618/0718 18013KT 9999 BKN015 \n  BECMG 0702/0704 34008KT \n  BECMG 0708/0710 16016KT \n  TEMPO 0708/0718 4000 TSRA \n  BECMG 0712/0714 34015G25KT",
      "metarHtml": "METAR LIBR 062050Z 21016KT 7000 SCT015 16/14 Q1003",
      "tafHtml": "TAF LIBR 061700Z 0618/0718 18013KT 9999 BKN015 \n  BECMG 0702/0704 34008KT \n  BECMG 0708/0710 16016KT \n  TEMPO 0708/0718 4000 <span class=\"hl\">TSRA</span> \n  BECMG 0712/0714 34015G25KT"
    },
    {
      "icao": "LGTS",
      "iata": "SKG",
      "name": "Thessaloniki Macedonia International Airport",
      "updatedAt": "062050Z",
      "visibility_m": 10000,
      "taf_visibility_m": 5000,
      "worst_visibility_m": 5000,
      "ceiling_ft": null,
      "hazards": [
        "BR",
        "SHRA"
      ],
      "severityScore": 24,
      "metarRaw": "METAR LGTS 062050Z VRB02KT 9999 FEW020 11/11 Q1010 NOSIG",
      "tafRaw": "TAF LGTS 061700Z 0618/0718 16013KT 9999 SCT030 \n  PROB40 \n  TEMPO 0618/0703 5000 SHRA FEW020TCU BKN025 \n  PROB30 \n  TEMPO 0703/0706 5000 BR SCT008 SCT020 \n  TEMPO 0714/0718 16015G25KT",
      "metarHtml": "METAR LGTS 062050Z VRB02KT 9999 FEW020 11/11 Q1010 NOSIG",
      "tafHtml": "TAF LGTS 061700Z 0618/0718 16013KT 9999 SCT030 \n  PROB40 \n  TEMPO 0618/0703 5000 <span class=\"hl\">SHRA</span> FEW020TCU BKN025 \n  PROB30 \n  TEMPO 0703/0706 5000 <span class=\"hl\">BR</span> SCT008 SCT020 \n  TEMPO 0714/0718 16015G25KT"
    },
    {
      "icao": "LWSK",
      "iata": "SKP",
      "name": "Skopje International Airport",
      "updatedAt": "062050Z",
      "visibility_m": 8000,
      "taf_visibility_m": 10000,
      "worst_visibility_m": 8000,
      "ceiling_ft": 1700,
      "hazards": [
        "RA"
      ],
      "severityScore": 24,
      "metarRaw": "METAR LWSK 062050Z 27003KT 240V300 8000 BKN017 OVC040 09/08 Q1009 NOSIG",
      "tafRaw": "TAF LWSK 062015Z 0621/0721 VRB02KT 9999 SCT015 OVC040 \n  BECMG 0708/0711 13010KT \n  TEMPO 0713/0721 14020KT \n  BECMG 0717/0719 RA BKN010 OVC025",
      "metarHtml": "METAR LWSK 062050Z 27003KT 240V300 8000 BKN017 OVC040 09/08 Q1009 NOSIG",
      "tafHtml": "TAF LWSK 062015Z 0621/0721 VRB02KT 9999 SCT015 OVC040 \n  BECMG 0708/0711 13010KT \n  TEMPO 0713/0721 14020KT \n  BECMG 0717/0719 <span class=\"hl\">RA</span> BKN010 OVC025"
    },
    {
      "icao": "EETN",
      "iata": "TLL",
      "name": "Lennart Meri Tallinn Airport",
      "updatedAt": "062050Z",
      "visibility_m": 4000,
      "taf_visibility_m": null,
      "worst_visibility_m": 4000,
      "ceiling_ft": 4900,
      "hazards": [
        "SN"
      ],
      "severityScore": 23,
      "metarRaw": "METAR EETN 062050Z 11008KT 6000 -SN SCT036 OVC049 M05/M06 Q1015 TEMPO 4000 SN",
      "tafRaw": null,
      "metarHtml": "METAR EETN 062050Z 11008KT 6000 -<span class=\"hl\">SN</span> SCT036 OVC049 M05/M06 Q1015 TEMPO 4000 <span class=\"hl\">SN</span>",
      "tafHtml": null
    },
    {
      "icao": "LEBB",
      "iata": "BIO",
      "name": "Bilbao Airport",
      "updatedAt": "062100Z",
      "visibility_m": 10000,
      "taf_visibility_m": 1500,
      "worst_visibility_m": 1500,
      "ceiling_ft": null,
      "hazards": [
        "RA"
      ],
      "severityScore": 22,
      "metarRaw": "METAR LEBB 062100Z 09004KT 020V120 CAVOK 02/02 Q1022 NOSIG",
      "tafRaw": "TAF LEBB 061700Z 0618/0718 15006KT 9999 SCT020 BKN040 TX11/0714Z TN01/0619Z \n  PROB30 0618/0706 21010KT \n  TEMPO 0706/0713 21010KT \n  TEMPO 0708/0718 3000 RA \n  TEMPO 0710/0718 29012KT \n  PROB40 \n  TEMPO 0710/0716 29018G30KT 1500 +RA BKN010",
      "metarHtml": "METAR LEBB 062100Z 09004KT 020V120 <span class=\"hl-vis\">CAVOK</span> 02/02 Q1022 NOSIG",
      "tafHtml": "TAF LEBB 061700Z 0618/0718 15006KT 9999 SCT020 BKN040 TX11/0714Z TN01/0619Z \n  PROB30 0618/0706 21010KT \n  TEMPO 0706/0713 21010KT \n  TEMPO 0708/0718 3000 <span class=\"hl\">RA</span> \n  TEMPO 0710/0718 29012KT \n  PROB40 \n  TEMPO 0710/0716 29018G30KT 1500 +<span class=\"hl\">RA</span> BKN010"
    },
    {
      "icao": "LEXJ",
      "iata": "SDR",
      "name": "Seve Ballesteros-Santander Airport",
      "updatedAt": "062100Z",
      "visibility_m": 10000,
      "taf_visibility_m": 1500,
      "worst_visibility_m": 1500,
      "ceiling_ft": 5000,
      "hazards": [
        "RA"
      ],
      "severityScore": 22,
      "metarRaw": "METAR LEXJ 062100Z 24006KT 9999 -RA BKN050 OVC065 05/02 Q1022",
      "tafRaw": "TAF LEXJ 062000Z 0621/0721 22009KT 9999 SCT040 BKN070 TX12/0713Z TN04/0621Z \n  PROB30 \n  TEMPO 0621/0701 RA \n  TEMPO 0705/0721 3000 RA \n  TEMPO 0708/0718 30015KT \n  TEMPO 0708/0716 28018G30KT \n  PROB40 \n  TEMPO 0709/0712 1500 +RA BKN010",
      "metarHtml": "METAR LEXJ 062100Z 24006KT 9999 -<span class=\"hl\">RA</span> BKN050 OVC065 05/02 Q1022",
      "tafHtml": "TAF LEXJ 062000Z 0621/0721 22009KT 9999 SCT040 BKN070 TX12/0713Z TN04/0621Z \n  PROB30 \n  TEMPO 0621/0701 <span class=\"hl\">RA</span> \n  TEMPO 0705/0721 3000 <span class=\"hl\">RA</span> \n  TEMPO 0708/0718 30015KT \n  TEMPO 0708/0716 28018G30KT \n  PROB40 \n  TEMPO 0709/0712 1500 +<span class=\"hl\">RA</span> BKN010"
    },
    {
      "icao": "LEZL",
      "iata": "SVQ",
      "name": "Sevilla Airport",
      "updatedAt": "062100Z",
      "visibility_m": 10000,
      "taf_visibility_m": 4000,
      "worst_visibility_m": 4000,
      "ceiling_ft": null,
      "hazards": [
        "BR",
        "RA"
      ],
      "severityScore": 22,
      "metarRaw": "METAR LEZL 062100Z 32006KT 290V350 CAVOK 06/01 Q1023 NOSIG",
      "tafRaw": "TAF LEZL 062000Z 0621/0721 33004KT CAVOK TX12/0715Z TN00/0707Z \n  PROB30 \n  TEMPO 0704/0709 4000 BR \n  PROB30 \n  TEMPO 0714/0719 RA",
      "metarHtml": "METAR LEZL 062100Z 32006KT 290V350 <span class=\"hl-vis\">CAVOK</span> 06/01 Q1023 NOSIG",
      "tafHtml": "TAF LEZL 062000Z 0621/0721 33004KT <span class=\"hl-vis\">CAVOK</span> TX12/0715Z TN00/0707Z \n  PROB30 \n  TEMPO 0704/0709 4000 <span class=\"hl\">BR</span> \n  PROB30 \n  TEMPO 0714/0719 <span class=\"hl\">RA</span>"
    },
    {
      "icao": "LFSB",
      "iata": "BSL",
      "name": "EuroAirport Basel–Mulhouse–Freiburg",
      "updatedAt": "062100Z",
      "visibility_m": 10000,
      "taf_visibility_m": 5000,
      "worst_visibility_m": 5000,
      "ceiling_ft": 1100,
      "hazards": [
        "BR"
      ],
      "severityScore": 22,
      "metarRaw": "METAR LFSB 062100Z AUTO 33002KT 9999 OVC026 M03/M05 Q1019 TEMPO BKN011",
      "tafRaw": "TAF LFSB 061700Z 0618/0718 27004KT 9999 BKN025 \n  PROB40 \n  TEMPO 0620/0708 5000 BR BKN011",
      "metarHtml": "METAR LFSB 062100Z AUTO 33002KT 9999 OVC026 M03/M05 Q1019 TEMPO BKN011",
      "tafHtml": "TAF LFSB 061700Z 0618/0718 27004KT 9999 BKN025 \n  PROB40 \n  TEMPO 0620/0708 5000 <span class=\"hl\">BR</span> BKN011"
    },
    {
      "icao": "LPPR",
      "iata": "OPO",
      "name": "Francisco de Sá Carneiro Airport",
      "updatedAt": "062100Z",
      "visibility_m": 10000,
      "taf_visibility_m": 3000,
      "worst_visibility_m": 3000,
      "ceiling_ft": null,
      "hazards": [
        "BR",
        "RA"
      ],
      "severityScore": 22,
      "metarRaw": "METAR LPPR 062100Z VRB02KT 9999 FEW040 08/03 Q1024",
      "tafRaw": "TAF LPPR 061700Z 0618/0718 34008KT 9999 SCT040 \n  BECMG 0618/0620 VRB02KT 9999 SCT015 BKN030 \n  BECMG 0623/0701 13008KT 6000 RA SCT012 BKN025 \n  TEMPO 0700/0707 3000 RA BR SCT006 BKN012 \n  BECMG 0708/0710 VRB02KT 9999 NSW SCT015 \n  BECMG 0712/0714 33005KT",
      "metarHtml": "METAR LPPR 062100Z VRB02KT 9999 FEW040 08/03 Q1024",
      "tafHtml": "TAF LPPR 061700Z 0618/0718 34008KT 9999 SCT040 \n  BECMG 0618/0620 VRB02KT 9999 SCT015 BKN030 \n  BECMG 0623/0701 13008KT 6000 <span class=\"hl\">RA</span> SCT012 BKN025 \n  TEMPO 0700/0707 3000 <span class=\"hl\">RA</span> <span class=\"hl\">BR</span> SCT006 BKN012 \n  BECMG 0708/0710 VRB02KT 9999 NSW SCT015 \n  BECMG 0712/0714 33005KT"
    },
    {
      "icao": "LRBC",
      "iata": "BCM",
      "name": "Bacău George Enescu International  Airport",
      "updatedAt": "062100Z",
      "visibility_m": 10000,
      "taf_visibility_m": 3000,
      "worst_visibility_m": 3000,
      "ceiling_ft": 1100,
      "hazards": [
        "BR"
      ],
      "severityScore": 22,
      "metarRaw": "METAR LRBC 062100Z 36008KT 9999 OVC011 01/01 Q1012",
      "tafRaw": "TAF LRBC 062000Z 0621/0706 01010KT 9999 OVC010 \n  TEMPO 0621/0624 OVC005 \n  TEMPO 0700/0706 3000 BR OVC002",
      "metarHtml": "METAR LRBC 062100Z 36008KT 9999 OVC011 01/01 Q1012",
      "tafHtml": "TAF LRBC 062000Z 0621/0706 01010KT 9999 OVC010 \n  TEMPO 0621/0624 OVC005 \n  TEMPO 0700/0706 3000 <span class=\"hl\">BR</span> OVC002"
    },
    {
      "icao": "EKCH",
      "iata": "CPH",
      "name": "Copenhagen Kastrup Airport",
      "updatedAt": "062050Z",
      "visibility_m": 10000,
      "taf_visibility_m": 1200,
      "worst_visibility_m": 1200,
      "ceiling_ft": null,
      "hazards": [
        "SHSN"
      ],
      "severityScore": 20,
      "metarRaw": "METAR EKCH 062050Z AUTO 20007KT 9999 SCT020/// M01/M04 Q1012 TEMPO MIFG",
      "tafRaw": "TAF EKCH 062027Z 0621/0721 19013KT 9000 BKN020 \n  TEMPO 0621/0704 2000 SHSN BKN008 SCT020CB \n  TEMPO 0704/0707 1200 SHSN BKN005 BKN020CB \n  TEMPO 0707/0710 BKN008 \n  TEMPO 0712/0721 18018G30KT",
      "metarHtml": "METAR EKCH 062050Z AUTO 20007KT 9999 SCT020/// M01/M04 Q1012 TEMPO MIFG",
      "tafHtml": "TAF EKCH 062027Z 0621/0721 19013KT 9000 BKN020 \n  TEMPO 0621/0704 2000 <span class=\"hl\">SHSN</span> BKN008 SCT020CB \n  TEMPO 0704/0707 1200 <span class=\"hl\">SHSN</span> BKN005 BKN020CB \n  TEMPO 0707/0710 BKN008 \n  TEMPO 0712/0721 18018G30KT"
    },
    {
      "icao": "ESGG",
      "iata": "GOT",
      "name": "Göteborg Landvetter Airport",
      "updatedAt": "062050Z",
      "visibility_m": 10000,
      "taf_visibility_m": 1200,
      "worst_visibility_m": 1200,
      "ceiling_ft": 4600,
      "hazards": [
        "SHSN"
      ],
      "severityScore": 20,
      "metarRaw": "METAR ESGG 062050Z 11005KT 9999 BKN046 M08/M09 Q1010",
      "tafRaw": "TAF ESGG 062030Z 0621/0721 12003KT 9999 BKN004 \n  TEMPO 0621/0623 BKN040 \n  TEMPO 0623/0721 1200 SHSN BKN008 BKN020CB",
      "metarHtml": "METAR ESGG 062050Z 11005KT 9999 BKN046 M08/M09 Q1010",
      "tafHtml": "TAF ESGG 062030Z 0621/0721 12003KT 9999 BKN004 \n  TEMPO 0621/0623 BKN040 \n  TEMPO 0623/0721 1200 <span class=\"hl\">SHSN</span> BKN008 BKN020CB"
    },
    {
      "icao": "LBPD",
      "iata": "PDV",
      "name": "Plovdiv International Airport",
      "updatedAt": "062100Z",
      "visibility_m": 10000,
      "taf_visibility_m": 1200,
      "worst_visibility_m": 1200,
      "ceiling_ft": null,
      "hazards": [
        "BR"
      ],
      "severityScore": 20,
      "metarRaw": "METAR LBPD 062100Z AUTO 09004KT 040V170 9999 FEW064/// BKN130/// 09/09 Q1009",
      "tafRaw": "TAF LBPD 061700Z 0618/0718 VRB03KT 9999 BKN060 \n  BECMG 0622/0624 3000 BR BKN015 \n  TEMPO 0700/0707 1200 BR SCT006 BKN010 \n  BECMG 0708/0710 9999 BKN050",
      "metarHtml": "METAR LBPD 062100Z AUTO 09004KT 040V170 9999 FEW064/// BKN130/// 09/09 Q1009",
      "tafHtml": "TAF LBPD 061700Z 0618/0718 VRB03KT 9999 BKN060 \n  BECMG 0622/0624 3000 <span class=\"hl\">BR</span> BKN015 \n  TEMPO 0700/0707 1200 <span class=\"hl\">BR</span> SCT006 BKN010 \n  BECMG 0708/0710 9999 BKN050"
    },
    {
      "icao": "LBWN",
      "iata": "VAR",
      "name": "Varna Airport",
      "updatedAt": "062100Z",
      "visibility_m": 10000,
      "taf_visibility_m": 4000,
      "worst_visibility_m": 4000,
      "ceiling_ft": null,
      "hazards": [
        "BR",
        "DZ"
      ],
      "severityScore": 20,
      "metarRaw": "METAR LBWN 062100Z AUTO 15005KT 9999 NSC 13/09 Q1011 NOSIG",
      "tafRaw": "TAF LBWN 061700Z 0618/0718 19010KT 9999 SCT015 SCT030 \n  PROB30 \n  TEMPO 0619/0624 20016G26KT \n  PROB40 \n  TEMPO 0700/0707 4000 DZ BR BKN012 OVC025 \n  PROB40 \n  TEMPO 0707/0713 20016G26KT",
      "metarHtml": "METAR LBWN 062100Z AUTO 15005KT 9999 NSC 13/09 Q1011 NOSIG",
      "tafHtml": "TAF LBWN 061700Z 0618/0718 19010KT 9999 SCT015 SCT030 \n  PROB30 \n  TEMPO 0619/0624 20016G26KT \n  PROB40 \n  TEMPO 0700/0707 4000 <span class=\"hl\">DZ</span> <span class=\"hl\">BR</span> BKN012 OVC025 \n  PROB40 \n  TEMPO 0707/0713 20016G26KT"
    },
    {
      "icao": "UDSG",
      "iata": "LWN",
      "name": "Shirak International Airport",
      "updatedAt": "062100Z",
      "visibility_m": 3300,
      "taf_visibility_m": 1000,
      "worst_visibility_m": 1000,
      "ceiling_ft": null,
      "hazards": [
        "BR"
      ],
      "severityScore": 20,
      "metarRaw": "METAR UDSG 062100Z 07005KT 3300 BR FEW049 M19/M21 Q1028 NOSIG",
      "tafRaw": "TAF UDSG 061658Z 0618/0718 VRB06KT 5000 BR FEW040 \n  TEMPO 0618/0624 1000 BR",
      "metarHtml": "METAR UDSG 062100Z 07005KT 3300 <span class=\"hl\">BR</span> FEW049 M19/M21 Q1028 NOSIG",
      "tafHtml": "TAF UDSG 061658Z 0618/0718 VRB06KT 5000 <span class=\"hl\">BR</span> FEW040 \n  TEMPO 0618/0624 1000 <span class=\"hl\">BR</span>"
    },
    {
      "icao": "EDLW",
      "iata": "DTM",
      "name": "Dortmund Airport",
      "updatedAt": "062050Z",
      "visibility_m": 10000,
      "taf_visibility_m": 4500,
      "worst_visibility_m": 4500,
      "ceiling_ft": null,
      "hazards": [
        "SN"
      ],
      "severityScore": 18,
      "metarRaw": "METAR EDLW 062050Z 19008KT 9999 FEW017 M02/M04 Q1015",
      "tafRaw": "TAF EDLW 061700Z 0618/0718 21008KT 9999 BKN010 \n  BECMG 0618/0620 SCT020 \n  BECMG 0623/0701 18013KT \n  TEMPO 0708/0716 18015G25KT \n  PROB30 \n  TEMPO 0713/0716 4500 -SN BKN012 \n  TEMPO 0716/0718 BKN012",
      "metarHtml": "METAR EDLW 062050Z 19008KT 9999 FEW017 M02/M04 Q1015",
      "tafHtml": "TAF EDLW 061700Z 0618/0718 21008KT 9999 BKN010 \n  BECMG 0618/0620 SCT020 \n  BECMG 0623/0701 18013KT \n  TEMPO 0708/0716 18015G25KT \n  PROB30 \n  TEMPO 0713/0716 4500 -<span class=\"hl\">SN</span> BKN012 \n  TEMPO 0716/0718 BKN012"
    },
    {
      "icao": "EDSB",
      "iata": "FKB",
      "name": "Karlsruhe Baden-Baden Airport",
      "updatedAt": "062050Z",
      "visibility_m": 10000,
      "taf_visibility_m": 4000,
      "worst_visibility_m": 4000,
      "ceiling_ft": 2800,
      "hazards": [
        "SN"
      ],
      "severityScore": 18,
      "metarRaw": "METAR EDSB 062050Z 21004KT 9999 -SN BKN028 OVC036 M03/M05 Q1019",
      "tafRaw": "TAF EDSB 061700Z 0618/0718 20004KT 9999 SCT012 BKN020 \n  TEMPO 0618/0624 BKN012 \n  TEMPO 0716/0718 4000 -SN BKN014",
      "metarHtml": "METAR EDSB 062050Z 21004KT 9999 -<span class=\"hl\">SN</span> BKN028 OVC036 M03/M05 Q1019",
      "tafHtml": "TAF EDSB 061700Z 0618/0718 20004KT 9999 SCT012 BKN020 \n  TEMPO 0618/0624 BKN012 \n  TEMPO 0716/0718 4000 -<span class=\"hl\">SN</span> BKN014"
    },
    {
      "icao": "ENTO",
      "iata": "TRF",
      "name": "Sandefjord Airport, Torp",
      "updatedAt": "062050Z",
      "visibility_m": 10000,
      "taf_visibility_m": 2000,
      "worst_visibility_m": 2000,
      "ceiling_ft": null,
      "hazards": [
        "SN"
      ],
      "severityScore": 18,
      "metarRaw": "METAR ENTO 062050Z 01007KT 9999 FEW031 SCT039 M10/M12 Q1012 NOSIG",
      "tafRaw": "TAF ENTO 061700Z 0618/0718 36008KT 9999 BKN025 \n  TEMPO 0618/0708 3000 -SN OVC012 \n  PROB40 0715/0718 2000 SN VV010",
      "metarHtml": "METAR ENTO 062050Z 01007KT 9999 FEW031 SCT039 M10/M12 Q1012 NOSIG",
      "tafHtml": "TAF ENTO 061700Z 0618/0718 36008KT 9999 BKN025 \n  TEMPO 0618/0708 3000 -<span class=\"hl\">SN</span> OVC012 \n  PROB40 0715/0718 2000 <span class=\"hl\">SN</span> VV010"
    },
    {
      "icao": "LKMT",
      "iata": "OSR",
      "name": "Ostrava Leos Janáček Airport",
      "updatedAt": "062100Z",
      "visibility_m": 10000,
      "taf_visibility_m": 6000,
      "worst_visibility_m": 6000,
      "ceiling_ft": null,
      "hazards": [
        "SN"
      ],
      "severityScore": 18,
      "metarRaw": "METAR LKMT 062100Z 04004KT CAVOK M06/M08 Q1015 NOSIG",
      "tafRaw": "TAF LKMT 061700Z 0618/0718 VRB02KT CAVOK \n  PROB30 \n  TEMPO 0621/0703 6000 -SN SCT026 BKN040 \n  BECMG 0703/0705 9999 BKN020 \n  PROB40 0705/0718 -SN OVC010",
      "metarHtml": "METAR LKMT 062100Z 04004KT <span class=\"hl-vis\">CAVOK</span> M06/M08 Q1015 NOSIG",
      "tafHtml": "TAF LKMT 061700Z 0618/0718 VRB02KT <span class=\"hl-vis\">CAVOK</span> \n  PROB30 \n  TEMPO 0621/0703 6000 -<span class=\"hl\">SN</span> SCT026 BKN040 \n  BECMG 0703/0705 9999 BKN020 \n  PROB40 0705/0718 -<span class=\"hl\">SN</span> OVC010"
    },
    {
      "icao": "BKPR",
      "iata": "PRN",
      "name": "Priština Adem Jashari International Airport",
      "updatedAt": "062100Z",
      "visibility_m": 10000,
      "taf_visibility_m": null,
      "worst_visibility_m": 10000,
      "ceiling_ft": 5000,
      "hazards": [
        "RA"
      ],
      "severityScore": 17,
      "metarRaw": "METAR BKPR 062100Z 24003KT 9999 -RA SCT020 BKN050 07/06 Q1007 NOSIG",
      "tafRaw": null,
      "metarHtml": "METAR BKPR 062100Z 24003KT 9999 -<span class=\"hl\">RA</span> SCT020 BKN050 07/06 Q1007 NOSIG",
      "tafHtml": null
    },
    {
      "icao": "LIPR",
      "iata": "RMI",
      "name": "Federico Fellini International Airport",
      "updatedAt": "062050Z",
      "visibility_m": 4000,
      "taf_visibility_m": null,
      "worst_visibility_m": 4000,
      "ceiling_ft": 1000,
      "hazards": [],
      "severityScore": 17,
      "metarRaw": "METAR LIPR 062050Z 30008KT 4000 -RASN SCT003 BKN010 01/00 Q1009",
      "tafRaw": null,
      "metarHtml": "METAR LIPR 062050Z 30008KT 4000 -RASN SCT003 BKN010 01/00 Q1009",
      "tafHtml": null
    },
    {
      "icao": "EGPF",
      "iata": "GLA",
      "name": "Glasgow Airport",
      "updatedAt": "062050Z",
      "visibility_m": 10000,
      "taf_visibility_m": 6000,
      "worst_visibility_m": 6000,
      "ceiling_ft": null,
      "hazards": [
        "SHRA"
      ],
      "severityScore": 14,
      "metarRaw": "METAR EGPF 062050Z AUTO 30006KT 260V330 9999 SG SCT019 SCT026 04/01 Q0998",
      "tafRaw": "TAF EGPF 061700Z 0618/0718 28010KT 9999 SCT030 \n  PROB30 \n  TEMPO 0618/0623 6000 SHRA BKN012 \n  PROB30 \n  TEMPO 0700/0710 30015G27KT",
      "metarHtml": "METAR EGPF 062050Z AUTO 30006KT 260V330 9999 SG SCT019 SCT026 04/01 Q0998",
      "tafHtml": "TAF EGPF 061700Z 0618/0718 28010KT 9999 SCT030 \n  PROB30 \n  TEMPO 0618/0623 6000 <span class=\"hl\">SHRA</span> BKN012 \n  PROB30 \n  TEMPO 0700/0710 30015G27KT"
    },
    {
      "icao": "LICA",
      "iata": "SUF",
      "name": "Lamezia Terme Sant'Eufemia International Airport",
      "updatedAt": "062050Z",
      "visibility_m": 10000,
      "taf_visibility_m": 4000,
      "worst_visibility_m": 4000,
      "ceiling_ft": null,
      "hazards": [
        "SHRA"
      ],
      "severityScore": 14,
      "metarRaw": "METAR LICA 062050Z AUTO 26010KT 9999 OVC035/// 16/12 Q1006",
      "tafRaw": "TAF LICA 061700Z 0618/0718 07010KT 9999 SCT050 \n  BECMG 0620/0622 27013KT \n  TEMPO 0709/0718 4000 SHRA \n  TEMPO 0712/0718 27015G25KT",
      "metarHtml": "METAR LICA 062050Z AUTO 26010KT 9999 OVC035/// 16/12 Q1006",
      "tafHtml": "TAF LICA 061700Z 0618/0718 07010KT 9999 SCT050 \n  BECMG 0620/0622 27013KT \n  TEMPO 0709/0718 4000 <span class=\"hl\">SHRA</span> \n  TEMPO 0712/0718 27015G25KT"
    },
    {
      "icao": "LICJ",
      "iata": "PMO",
      "name": "Falcone–Borsellino Airport",
      "updatedAt": "062050Z",
      "visibility_m": 10000,
      "taf_visibility_m": 4000,
      "worst_visibility_m": 4000,
      "ceiling_ft": null,
      "hazards": [
        "SHRA"
      ],
      "severityScore": 14,
      "metarRaw": "METAR LICJ 062050Z 19011KT 9999 FEW025 SCT035 14/09 Q1007",
      "tafRaw": "TAF LICJ 061700Z 0618/0718 22014KT 9999 SCT030 \n  TEMPO 0703/0718 4000 SHRA \n  TEMPO 0712/0718 27025G38KT",
      "metarHtml": "METAR LICJ 062050Z 19011KT 9999 FEW025 SCT035 14/09 Q1007",
      "tafHtml": "TAF LICJ 061700Z 0618/0718 22014KT 9999 SCT030 \n  TEMPO 0703/0718 4000 <span class=\"hl\">SHRA</span> \n  TEMPO 0712/0718 27025G38KT"
    },
    {
      "icao": "LIRF",
      "iata": "FCO",
      "name": "Rome–Fiumicino Leonardo da Vinci International Airport",
      "updatedAt": "062050Z",
      "visibility_m": 10000,
      "taf_visibility_m": 3000,
      "worst_visibility_m": 3000,
      "ceiling_ft": null,
      "hazards": [
        "SHRA"
      ],
      "severityScore": 14,
      "metarRaw": "METAR LIRF 062050Z 06005KT 9999 SCT025 06/05 Q1004 NOSIG",
      "tafRaw": "TAF LIRF 061700Z 0618/0724 34008KT 9999 SCT020 \n  BECMG 0619/0621 04010KT \n  TEMPO 0712/0718 3000 SHRA \n  BECMG 0713/0715 34013KT",
      "metarHtml": "METAR LIRF 062050Z 06005KT 9999 SCT025 06/05 Q1004 NOSIG",
      "tafHtml": "TAF LIRF 061700Z 0618/0724 34008KT 9999 SCT020 \n  BECMG 0619/0621 04010KT \n  TEMPO 0712/0718 3000 <span class=\"hl\">SHRA</span> \n  BECMG 0713/0715 34013KT"
    },
    {
      "icao": "LMML",
      "iata": "MLA",
      "name": "Malta International Airport",
      "updatedAt": "062045Z",
      "visibility_m": 10000,
      "taf_visibility_m": 8000,
      "worst_visibility_m": 8000,
      "ceiling_ft": null,
      "hazards": [
        "SHRA"
      ],
      "severityScore": 14,
      "metarRaw": "METAR LMML 062045Z 28003KT CAVOK 13/12 Q1008 NOSIG",
      "tafRaw": "TAF LMML 061700Z 0618/0718 23015KT 8000 FEW015 \n  BECMG 0618/0621 29010KT \n  PROB30 \n  TEMPO 0618/0718 SHRA BKN015TCU \n  BECMG 0700/0703 VRB05KT 9999 FEW015 \n  BECMG 0709/0712 29020KT \n  BECMG 0715/0718 31025G35KT",
      "metarHtml": "METAR LMML 062045Z 28003KT <span class=\"hl-vis\">CAVOK</span> 13/12 Q1008 NOSIG",
      "tafHtml": "TAF LMML 061700Z 0618/0718 23015KT 8000 FEW015 \n  BECMG 0618/0621 29010KT \n  PROB30 \n  TEMPO 0618/0718 <span class=\"hl\">SHRA</span> BKN015TCU \n  BECMG 0700/0703 VRB05KT 9999 FEW015 \n  BECMG 0709/0712 29020KT \n  BECMG 0715/0718 31025G35KT"
    },
    {
      "icao": "LTFM",
      "iata": "IST",
      "name": "İstanbul Airport",
      "updatedAt": "062050Z",
      "visibility_m": 10000,
      "taf_visibility_m": 10000,
      "worst_visibility_m": 10000,
      "ceiling_ft": 10000,
      "hazards": [
        "SHRA"
      ],
      "severityScore": 14,
      "metarRaw": "METAR LTFM 062050Z 19010KT 9999 FEW040 BKN100 12/09 Q1014 NOSIG RMK RWY17L 19013KT RWY34L 18008KT RWY16R 18012KT RWY36 19011KT RWY18 19011KT",
      "tafRaw": "TAF LTFM 061640Z 0618/0724 17012KT 9999 SCT040 BKN100 \n  TEMPO 0618/0621 -SHRA BKN028 BKN080 \n  BECMG 0702/0705 20018G35KT \n  PROB30 \n  TEMPO 0703/0707 -SHRA BKN028 BKN080 \n  BECMG 0713/0715 19013KT \n  BECMG 0717/0720 20015G30KT \n  BECMG 0720/0724 20030G48KT",
      "metarHtml": "METAR LTFM 062050Z 19010KT 9999 FEW040 BKN100 12/09 Q1014 NOSIG RMK RWY17L 19013KT RWY34L 18008KT RWY16R 18012KT RWY36 19011KT RWY18 19011KT",
      "tafHtml": "TAF LTFM 061640Z 0618/0724 17012KT 9999 SCT040 BKN100 \n  TEMPO 0618/0621 -<span class=\"hl\">SHRA</span> BKN028 BKN080 \n  BECMG 0702/0705 20018G35KT \n  PROB30 \n  TEMPO 0703/0707 -<span class=\"hl\">SHRA</span> BKN028 BKN080 \n  BECMG 0713/0715 19013KT \n  BECMG 0717/0720 20015G30KT \n  BECMG 0720/0724 20030G48KT"
    },
    {
      "icao": "EGGW",
      "iata": "LTN",
      "name": "London Luton Airport",
      "updatedAt": "062050Z",
      "visibility_m": 10000,
      "taf_visibility_m": 3000,
      "worst_visibility_m": 3000,
      "ceiling_ft": null,
      "hazards": [
        "RA"
      ],
      "severityScore": 12,
      "metarRaw": "METAR EGGW 062050Z AUTO 21013KT 9999 -RA SCT024/// OVC033/// //////TCU 02/01 Q1008",
      "tafRaw": "TAF EGGW 061654Z 0618/0718 21007KT 9999 SCT030 \n  BECMG 0618/0620 20017G27KT \n  PROB30 \n  TEMPO 0618/0620 8000 -RA \n  TEMPO 0620/0704 6000 RA BKN010 \n  PROB30 \n  TEMPO 0622/0703 3000 +RA BKN004 \n  BECMG 0700/0703 28010KT \n  PROB30 \n  TEMPO 0704/0707 8000 BKN008 \n  TEMPO 0706/0718 28016G26KT",
      "metarHtml": "METAR EGGW 062050Z AUTO 21013KT 9999 -<span class=\"hl\">RA</span> SCT024/// OVC033/// //////TCU 02/01 Q1008",
      "tafHtml": "TAF EGGW 061654Z 0618/0718 21007KT 9999 SCT030 \n  BECMG 0618/0620 20017G27KT \n  PROB30 \n  TEMPO 0618/0620 8000 -<span class=\"hl\">RA</span> \n  TEMPO 0620/0704 6000 <span class=\"hl\">RA</span> BKN010 \n  PROB30 \n  TEMPO 0622/0703 3000 +<span class=\"hl\">RA</span> BKN004 \n  BECMG 0700/0703 28010KT \n  PROB30 \n  TEMPO 0704/0707 8000 BKN008 \n  TEMPO 0706/0718 28016G26KT"
    },
    {
      "icao": "EGKK",
      "iata": "LGW",
      "name": "London Gatwick Airport",
      "updatedAt": "062050Z",
      "visibility_m": 10000,
      "taf_visibility_m": 4000,
      "worst_visibility_m": 4000,
      "ceiling_ft": null,
      "hazards": [
        "RA"
      ],
      "severityScore": 12,
      "metarRaw": "METAR EGKK 062050Z 21009KT 9999 SCT035 05/01 Q1011",
      "tafRaw": "TAF EGKK 061700Z 0618/0724 22005KT 9999 FEW040 \n  BECMG 0619/0622 21015G25KT \n  TEMPO 0622/0705 7000 -RA BKN012 \n  PROB30 \n  TEMPO 0623/0704 4000 +RA BKN006 \n  BECMG 0701/0704 29010KT \n  PROB30 \n  TEMPO 0709/0716 25015G25KT",
      "metarHtml": "METAR EGKK 062050Z 21009KT 9999 SCT035 05/01 Q1011",
      "tafHtml": "TAF EGKK 061700Z 0618/0724 22005KT 9999 FEW040 \n  BECMG 0619/0622 21015G25KT \n  TEMPO 0622/0705 7000 -<span class=\"hl\">RA</span> BKN012 \n  PROB30 \n  TEMPO 0623/0704 4000 +<span class=\"hl\">RA</span> BKN006 \n  BECMG 0701/0704 29010KT \n  PROB30 \n  TEMPO 0709/0716 25015G25KT"
    },
    {
      "icao": "LGAV",
      "iata": "ATH",
      "name": "Athens Eleftherios Venizelos International Airport",
      "updatedAt": "062050Z",
      "visibility_m": 10000,
      "taf_visibility_m": 5000,
      "worst_visibility_m": 5000,
      "ceiling_ft": null,
      "hazards": [
        "RA"
      ],
      "severityScore": 12,
      "metarRaw": "METAR LGAV 062050Z VRB01KT 9999 FEW020 SCT030 15/12 Q1013 NOSIG",
      "tafRaw": "TAF LGAV 061700Z 0618/0718 18012KT 9999 FEW018 SCT030 \n  PROB30 \n  TEMPO 0622/0706 5000 RA FEW018TCU BKN020 BKN070 \n  TEMPO 0708/0718 20015G25KT",
      "metarHtml": "METAR LGAV 062050Z VRB01KT 9999 FEW020 SCT030 15/12 Q1013 NOSIG",
      "tafHtml": "TAF LGAV 061700Z 0618/0718 18012KT 9999 FEW018 SCT030 \n  PROB30 \n  TEMPO 0622/0706 5000 <span class=\"hl\">RA</span> FEW018TCU BKN020 BKN070 \n  TEMPO 0708/0718 20015G25KT"
    },
    {
      "icao": "LIBP",
      "iata": "PSR",
      "name": "Abruzzo Airport",
      "updatedAt": "062050Z",
      "visibility_m": 10000,
      "taf_visibility_m": 6000,
      "worst_visibility_m": 6000,
      "ceiling_ft": null,
      "hazards": [
        "RA"
      ],
      "severityScore": 12,
      "metarRaw": "METAR LIBP 062050Z AUTO 28005KT 240V320 9999 -RA OVC028/// 05/03 Q1006",
      "tafRaw": "TAF LIBP 061700Z 0618/0718 31009KT 6000 RA OVC010 \n  BECMG 0620/0622 NSW BKN016",
      "metarHtml": "METAR LIBP 062050Z AUTO 28005KT 240V320 9999 -<span class=\"hl\">RA</span> OVC028/// 05/03 Q1006",
      "tafHtml": "TAF LIBP 061700Z 0618/0718 31009KT 6000 <span class=\"hl\">RA</span> OVC010 \n  BECMG 0620/0622 NSW BKN016"
    },
    {
      "icao": "LICC",
      "iata": "CTA",
      "name": "Catania-Fontanarossa Airport",
      "updatedAt": "062050Z",
      "visibility_m": 10000,
      "taf_visibility_m": 7000,
      "worst_visibility_m": 7000,
      "ceiling_ft": null,
      "hazards": [
        "RA"
      ],
      "severityScore": 12,
      "metarRaw": "METAR LICC 062050Z 24011KT CAVOK 13/10 Q1007",
      "tafRaw": "TAF LICC 061700Z 0618/0718 26013KT 7000 FEW060 \n  TEMPO 0703/0708 RA \n  TEMPO 0712/0718 26018G28KT",
      "metarHtml": "METAR LICC 062050Z 24011KT <span class=\"hl-vis\">CAVOK</span> 13/10 Q1007",
      "tafHtml": "TAF LICC 061700Z 0618/0718 26013KT 7000 FEW060 \n  TEMPO 0703/0708 <span class=\"hl\">RA</span> \n  TEMPO 0712/0718 26018G28KT"
    },
    {
      "icao": "LIPY",
      "iata": "AOI",
      "name": "Marche Airport",
      "updatedAt": "062050Z",
      "visibility_m": 10000,
      "taf_visibility_m": 6000,
      "worst_visibility_m": 6000,
      "ceiling_ft": null,
      "hazards": [
        "RA"
      ],
      "severityScore": 12,
      "metarRaw": "METAR LIPY 062050Z AUTO 35012KT 9999 -RA SCT016/// BKN035/// BKN068/// 05/03 Q1007",
      "tafRaw": "TAF LIPY 061700Z 0618/0718 VRB05KT 6000 RA OVC005 \n  BECMG 0622/0624 34013KT NSW BKN015",
      "metarHtml": "METAR LIPY 062050Z AUTO 35012KT 9999 -<span class=\"hl\">RA</span> SCT016/// BKN035/// BKN068/// 05/03 Q1007",
      "tafHtml": "TAF LIPY 061700Z 0618/0718 VRB05KT 6000 <span class=\"hl\">RA</span> OVC005 \n  BECMG 0622/0624 34013KT NSW BKN015"
    },
    {
      "icao": "LIRN",
      "iata": "NAP",
      "name": "Naples International Airport",
      "updatedAt": "062050Z",
      "visibility_m": 10000,
      "taf_visibility_m": 4000,
      "worst_visibility_m": 4000,
      "ceiling_ft": null,
      "hazards": [
        "RA"
      ],
      "severityScore": 12,
      "metarRaw": "METAR LIRN 062050Z 23007KT 9999 SCT025 13/10 Q1004 NOSIG",
      "tafRaw": "TAF LIRN 061700Z 0618/0718 21011KT 9999 SCT030 \n  PROB40 \n  TEMPO 0618/0624 4000 -RA \n  BECMG 0702/0704 VRB05KT \n  BECMG 0710/0712 26012KT \n  TEMPO 0712/0716 RA",
      "metarHtml": "METAR LIRN 062050Z 23007KT 9999 SCT025 13/10 Q1004 NOSIG",
      "tafHtml": "TAF LIRN 061700Z 0618/0718 21011KT 9999 SCT030 \n  PROB40 \n  TEMPO 0618/0624 4000 -<span class=\"hl\">RA</span> \n  BECMG 0702/0704 VRB05KT \n  BECMG 0710/0712 26012KT \n  TEMPO 0712/0716 <span class=\"hl\">RA</span>"
    },
    {
      "icao": "LIRZ",
      "iata": "PEG",
      "name": "Perugia San Francesco d'Assisi – Umbria International Airport",
      "updatedAt": "062050Z",
      "visibility_m": 10000,
      "taf_visibility_m": 3000,
      "worst_visibility_m": 3000,
      "ceiling_ft": null,
      "hazards": [
        "RA"
      ],
      "severityScore": 12,
      "metarRaw": "METAR LIRZ 062050Z AUTO 01013KT 330V030 9999 OVC051/// 04/00 Q1005",
      "tafRaw": "TAF LIRZ 061700Z 0618/0718 01013KT 8000 BKN020 \n  PROB40 \n  TEMPO 0618/0624 3000 -RA",
      "metarHtml": "METAR LIRZ 062050Z AUTO 01013KT 330V030 9999 OVC051/// 04/00 Q1005",
      "tafHtml": "TAF LIRZ 061700Z 0618/0718 01013KT 8000 BKN020 \n  PROB40 \n  TEMPO 0618/0624 3000 -<span class=\"hl\">RA</span>"
    },
    {
      "icao": "LPFR",
      "iata": "FAO",
      "name": "Faro Airport",
      "updatedAt": "062100Z",
      "visibility_m": 10000,
      "taf_visibility_m": 5000,
      "worst_visibility_m": 5000,
      "ceiling_ft": null,
      "hazards": [
        "RA"
      ],
      "severityScore": 12,
      "metarRaw": "METAR LPFR 062100Z 33005KT CAVOK 07/01 Q1025",
      "tafRaw": "TAF LPFR 061700Z 0618/0718 34008KT CAVOK \n  BECMG 0622/0624 VRB02KT \n  BECMG 0705/0707 9999 FEW015 BKN030 \n  PROB40 \n  TEMPO 0707/0716 5000 RA SCT012 BKN025 \n  BECMG 0709/0711 04008KT",
      "metarHtml": "METAR LPFR 062100Z 33005KT <span class=\"hl-vis\">CAVOK</span> 07/01 Q1025",
      "tafHtml": "TAF LPFR 061700Z 0618/0718 34008KT <span class=\"hl-vis\">CAVOK</span> \n  BECMG 0622/0624 VRB02KT \n  BECMG 0705/0707 9999 FEW015 BKN030 \n  PROB40 \n  TEMPO 0707/0716 5000 <span class=\"hl\">RA</span> SCT012 BKN025 \n  BECMG 0709/0711 04008KT"
    },
    {
      "icao": "LPPT",
      "iata": "LIS",
      "name": "Lisbon Humberto Delgado Airport",
      "updatedAt": "062100Z",
      "visibility_m": 10000,
      "taf_visibility_m": 5000,
      "worst_visibility_m": 5000,
      "ceiling_ft": 3800,
      "hazards": [
        "RA"
      ],
      "severityScore": 12,
      "metarRaw": "METAR LPPT 062100Z 35010KT 9999 BKN038 09/04 Q1025",
      "tafRaw": "TAF LPPT 061700Z 0618/0724 34015KT CAVOK \n  BECMG 0622/0624 25005KT 9999 FEW015 BKN035 \n  TEMPO 0702/0709 5000 RA SCT008 BKN015 \n  BECMG 0704/0706 20007KT \n  BECMG 0709/0711 34010KT SCT018 \n  BECMG 0713/0715 02007KT FEW030 \n  BECMG 0720/0722 VRB02KT",
      "metarHtml": "METAR LPPT 062100Z 35010KT 9999 BKN038 09/04 Q1025",
      "tafHtml": "TAF LPPT 061700Z 0618/0724 34015KT <span class=\"hl-vis\">CAVOK</span> \n  BECMG 0622/0624 25005KT 9999 FEW015 BKN035 \n  TEMPO 0702/0709 5000 <span class=\"hl\">RA</span> SCT008 BKN015 \n  BECMG 0704/0706 20007KT \n  BECMG 0709/0711 34010KT SCT018 \n  BECMG 0713/0715 02007KT FEW030 \n  BECMG 0720/0722 VRB02KT"
    },
    {
      "icao": "LWOH",
      "iata": "OHD",
      "name": "Ohrid St. Paul the Apostle Airport",
      "updatedAt": "061950Z",
      "visibility_m": 10000,
      "taf_visibility_m": 5000,
      "worst_visibility_m": 5000,
      "ceiling_ft": 4000,
      "hazards": [
        "RA"
      ],
      "severityScore": 12,
      "metarRaw": "METAR LWOH 061950Z 13014KT 9999 -RA FEW015 OVC040 09/07 Q1009",
      "tafRaw": "TAF LWOH 062015Z 0621/0721 14015KT 9999 RA SCT015 OVC035 \n  TEMPO 0712/0718 18015G25KT \n  TEMPO 0718/0721 5000 +RA BKN010 OVC025",
      "metarHtml": "METAR LWOH 061950Z 13014KT 9999 -<span class=\"hl\">RA</span> FEW015 OVC040 09/07 Q1009",
      "tafHtml": "TAF LWOH 062015Z 0621/0721 14015KT 9999 <span class=\"hl\">RA</span> SCT015 OVC035 \n  TEMPO 0712/0718 18015G25KT \n  TEMPO 0718/0721 5000 +<span class=\"hl\">RA</span> BKN010 OVC025"
    },
    {
      "icao": "EPGD",
      "iata": "GDN",
      "name": "Gdańsk Lech Wałęsa Airport",
      "updatedAt": "062100Z",
      "visibility_m": 10000,
      "taf_visibility_m": 2000,
      "worst_visibility_m": 2000,
      "ceiling_ft": null,
      "hazards": [
        "BR"
      ],
      "severityScore": 10,
      "metarRaw": "METAR EPGD 062100Z VRB02KT CAVOK M07/M08 Q1013",
      "tafRaw": "TAF EPGD 061730Z 0618/0718 24005KT CAVOK \n  PROB40 \n  TEMPO 0618/0709 4000 BR BKN007 BKN012 \n  PROB40 \n  TEMPO 0716/0718 2000 BR BKN010",
      "metarHtml": "METAR EPGD 062100Z VRB02KT <span class=\"hl-vis\">CAVOK</span> M07/M08 Q1013",
      "tafHtml": "TAF EPGD 061730Z 0618/0718 24005KT <span class=\"hl-vis\">CAVOK</span> \n  PROB40 \n  TEMPO 0618/0709 4000 <span class=\"hl\">BR</span> BKN007 BKN012 \n  PROB40 \n  TEMPO 0716/0718 2000 <span class=\"hl\">BR</span> BKN010"
    },
    {
      "icao": "EPRA",
      "iata": "RDO",
      "name": "Warsaw Radom Airport",
      "updatedAt": "062100Z",
      "visibility_m": 9000,
      "taf_visibility_m": 4000,
      "worst_visibility_m": 4000,
      "ceiling_ft": null,
      "hazards": [
        "BR"
      ],
      "severityScore": 10,
      "metarRaw": "METAR EPRA 062100Z 31004KT 9000 NSC M05/M08 Q1015",
      "tafRaw": "TAF EPRA 062030Z 0621/0706 29005KT 8000 NSC \n  BECMG 0623/0701 4000 BR \n  BECMG 0702/0704 36008KT",
      "metarHtml": "METAR EPRA 062100Z 31004KT 9000 NSC M05/M08 Q1015",
      "tafHtml": "TAF EPRA 062030Z 0621/0706 29005KT 8000 NSC \n  BECMG 0623/0701 4000 <span class=\"hl\">BR</span> \n  BECMG 0702/0704 36008KT"
    },
    {
      "icao": "HESX",
      "iata": "SPX",
      "name": "Sphinx International Airport",
      "updatedAt": "062000Z",
      "visibility_m": 6000,
      "taf_visibility_m": 1000,
      "worst_visibility_m": 1000,
      "ceiling_ft": null,
      "hazards": [],
      "severityScore": 10,
      "metarRaw": "METAR HESX 062000Z 06006KT 6000 NSC 12/04 Q1021 NOSIG",
      "tafRaw": "TAF HESX 061700Z 0618/0724 VRB03KT 6000 NSC \n  TEMPO 0621/0709 3000 HZ \n  PROB30 \n  TEMPO 0702/0707 1000",
      "metarHtml": "METAR HESX 062000Z 06006KT 6000 NSC 12/04 Q1021 NOSIG",
      "tafHtml": "TAF HESX 061700Z 0618/0724 VRB03KT 6000 NSC \n  TEMPO 0621/0709 3000 HZ \n  PROB30 \n  TEMPO 0702/0707 1000"
    },
    {
      "icao": "LFLS",
      "iata": "GNB",
      "name": "Grenoble Alpes Isère Airport",
      "updatedAt": "062100Z",
      "visibility_m": 10000,
      "taf_visibility_m": 3000,
      "worst_visibility_m": 3000,
      "ceiling_ft": 3700,
      "hazards": [
        "BR"
      ],
      "severityScore": 10,
      "metarRaw": "METAR LFLS 062100Z AUTO 34015KT 9999 FEW015 OVC037 M04/M06 Q1016",
      "tafRaw": "TAF LFLS 061400Z 0615/0715 36010KT 9999 BKN007 \n  TEMPO 0615/0621 36015G25KT \n  PROB40 \n  TEMPO 0615/0617 BKN011 \n  PROB30 \n  TEMPO 0617/0621 SCT007 \n  PROB40 \n  TEMPO 0703/0709 VRB02KT 3000 BR OVC004 \n  BECMG 0708/0710 VRB03KT CAVOK \n  BECMG 0714/0715 OVC025",
      "metarHtml": "METAR LFLS 062100Z AUTO 34015KT 9999 FEW015 OVC037 M04/M06 Q1016",
      "tafHtml": "TAF LFLS 061400Z 0615/0715 36010KT 9999 BKN007 \n  TEMPO 0615/0621 36015G25KT \n  PROB40 \n  TEMPO 0615/0617 BKN011 \n  PROB30 \n  TEMPO 0617/0621 SCT007 \n  PROB40 \n  TEMPO 0703/0709 VRB02KT 3000 <span class=\"hl\">BR</span> OVC004 \n  BECMG 0708/0710 VRB03KT <span class=\"hl-vis\">CAVOK</span> \n  BECMG 0714/0715 OVC025"
    },
    {
      "icao": "LLBG",
      "iata": "TLV",
      "name": "Ben Gurion International Airport",
      "updatedAt": "062050Z",
      "visibility_m": 9000,
      "taf_visibility_m": 5000,
      "worst_visibility_m": 5000,
      "ceiling_ft": null,
      "hazards": [
        "BR"
      ],
      "severityScore": 10,
      "metarRaw": "METAR LLBG 062050Z VRB02KT 9000 NSC 13/11 Q1021 NOSIG",
      "tafRaw": "TAF LLBG 061704Z 0618/0718 VRB03KT CAVOK \n  PROB40 \n  TEMPO 0621/0706 13004KT 5000 BR SCT005 \n  BECMG 0707/0709 32008KT \n  BECMG 0714/0716 VRB03KT TX22/0712Z TN10/0704Z",
      "metarHtml": "METAR LLBG 062050Z VRB02KT 9000 NSC 13/11 Q1021 NOSIG",
      "tafHtml": "TAF LLBG 061704Z 0618/0718 VRB03KT <span class=\"hl-vis\">CAVOK</span> \n  PROB40 \n  TEMPO 0621/0706 13004KT 5000 <span class=\"hl\">BR</span> SCT005 \n  BECMG 0707/0709 32008KT \n  BECMG 0714/0716 VRB03KT TX22/0712Z TN10/0704Z"
    },
    {
      "icao": "LECH",
      "iata": "CDT",
      "name": "Castellón-Costa Azahar Airport",
      "updatedAt": "062100Z",
      "visibility_m": 10000,
      "taf_visibility_m": null,
      "worst_visibility_m": 10000,
      "ceiling_ft": null,
      "hazards": [],
      "severityScore": 5,
      "metarRaw": "METAR LECH 062100Z AUTO 33019G34KT 270V360 CAVOK 05/M08 Q1015",
      "tafRaw": null,
      "metarHtml": "METAR LECH 062100Z AUTO 33019G34KT 270V360 <span class=\"hl-vis\">CAVOK</span> 05/M08 Q1015",
      "tafHtml": null
    },
    {
      "icao": "LEMD",
      "iata": "MAD",
      "name": "Adolfo Suárez Madrid–Barajas Airport",
      "updatedAt": "062100Z",
      "visibility_m": 10000,
      "taf_visibility_m": null,
      "worst_visibility_m": 10000,
      "ceiling_ft": null,
      "hazards": [],
      "severityScore": 5,
      "metarRaw": "METAR LEMD 062100Z 35007KT CAVOK 01/M08 Q1020 NOSIG",
      "tafRaw": null,
      "metarHtml": "METAR LEMD 062100Z 35007KT <span class=\"hl-vis\">CAVOK</span> 01/M08 Q1020 NOSIG",
      "tafHtml": null
    },
    {
      "icao": "LFLL",
      "iata": "LYS",
      "name": "Lyon Saint-Exupéry Airport",
      "updatedAt": "062100Z",
      "visibility_m": 10000,
      "taf_visibility_m": null,
      "worst_visibility_m": 10000,
      "ceiling_ft": 2800,
      "hazards": [],
      "severityScore": 5,
      "metarRaw": "METAR LFLL 062100Z 35013KT 9999 SCT019 OVC028 M02/M05 Q1018 NOSIG",
      "tafRaw": null,
      "metarHtml": "METAR LFLL 062100Z 35013KT 9999 SCT019 OVC028 M02/M05 Q1018 NOSIG",
      "tafHtml": null
    },
    {
      "icao": "LIPE",
      "iata": "BLQ",
      "name": "Bologna Guglielmo Marconi Airport",
      "updatedAt": "062050Z",
      "visibility_m": 6000,
      "taf_visibility_m": null,
      "worst_visibility_m": 6000,
      "ceiling_ft": 2500,
      "hazards": [],
      "severityScore": 5,
      "metarRaw": "METAR LIPE 062050Z 27007KT 6000 OVC025 01/01 Q1011",
      "tafRaw": null,
      "metarHtml": "METAR LIPE 062050Z 27007KT 6000 OVC025 01/01 Q1011",
      "tafHtml": null
    },
    {
      "icao": "LRSM",
      "iata": "SUJ",
      "name": "Satu Mare International Airport",
      "updatedAt": "062100Z",
      "visibility_m": 2900,
      "taf_visibility_m": null,
      "worst_visibility_m": 2900,
      "ceiling_ft": null,
      "hazards": [],
      "severityScore": 5,
      "metarRaw": "METAR LRSM 062100Z AUTO 00000KT 2900 SCT001/// BKN005/// BKN008/// M00/M01 Q1010 REFZRA",
      "tafRaw": null,
      "metarHtml": "METAR LRSM 062100Z AUTO 00000KT 2900 SCT001/// BKN005/// BKN008/// M00/M01 Q1010 REFZRA",
      "tafHtml": null
    },
    {
      "icao": "BIKF",
      "iata": "KEF",
      "name": "Keflavik International Airport",
      "updatedAt": "062100Z",
      "visibility_m": 10000,
      "taf_visibility_m": 10000,
      "worst_visibility_m": 10000,
      "ceiling_ft": null,
      "hazards": [],
      "severityScore": 0,
      "metarRaw": "METAR BIKF 062100Z 09010KT CAVOK M06/M10 Q1015",
      "tafRaw": "TAF BIKF 061944Z 0621/0721 08017KT CAVOK TXM01/0721Z TNM05/0700Z",
      "metarHtml": "METAR BIKF 062100Z 09010KT <span class=\"hl-vis\">CAVOK</span> M06/M10 Q1015",
      "tafHtml": "TAF BIKF 061944Z 0621/0721 08017KT <span class=\"hl-vis\">CAVOK</span> TXM01/0721Z TNM05/0700Z"
    },
    {
      "icao": "GCFV",
      "iata": "FUE",
      "name": "Fuerteventura Airport",
      "updatedAt": "062100Z",
      "visibility_m": 10000,
      "taf_visibility_m": 10000,
      "worst_visibility_m": 10000,
      "ceiling_ft": null,
      "hazards": [],
      "severityScore": 0,
      "metarRaw": "METAR GCFV 062100Z 01021KT 9999 SCT038 17/08 Q1024",
      "tafRaw": "TAF GCFV 062000Z 0621/0721 02020KT 9999 SCT035 TX20/0714Z TN14/0706Z \n  PROB30 \n  TEMPO 0709/0718 04022G32KT",
      "metarHtml": "METAR GCFV 062100Z 01021KT 9999 SCT038 17/08 Q1024",
      "tafHtml": "TAF GCFV 062000Z 0621/0721 02020KT 9999 SCT035 TX20/0714Z TN14/0706Z \n  PROB30 \n  TEMPO 0709/0718 04022G32KT"
    },
    {
      "icao": "GCLP",
      "iata": "LPA",
      "name": "Gran Canaria Airport",
      "updatedAt": "062100Z",
      "visibility_m": 10000,
      "taf_visibility_m": 10000,
      "worst_visibility_m": 10000,
      "ceiling_ft": 5000,
      "hazards": [],
      "severityScore": 0,
      "metarRaw": "METAR GCLP 062100Z 03022KT 9999 SCT035 BKN050 17/10 Q1025 NOSIG",
      "tafRaw": "TAF GCLP 062000Z 0621/0721 02020KT 9999 SCT035 BKN050 TX18/0714Z TN15/0706Z \n  PROB30 \n  TEMPO 0621/0719 36020G30KT",
      "metarHtml": "METAR GCLP 062100Z 03022KT 9999 SCT035 BKN050 17/10 Q1025 NOSIG",
      "tafHtml": "TAF GCLP 062000Z 0621/0721 02020KT 9999 SCT035 BKN050 TX18/0714Z TN15/0706Z \n  PROB30 \n  TEMPO 0621/0719 36020G30KT"
    },
    {
      "icao": "GCTS",
      "iata": "TFS",
      "name": "Tenerife Sur Airport",
      "updatedAt": "062100Z",
      "visibility_m": 10000,
      "taf_visibility_m": 10000,
      "worst_visibility_m": 10000,
      "ceiling_ft": null,
      "hazards": [],
      "severityScore": 0,
      "metarRaw": "METAR GCTS 062100Z 04015KT 9999 FEW030 16/10 Q1025 NOSIG",
      "tafRaw": "TAF GCTS 062000Z 0621/0721 05015KT 9999 SCT035 TX22/0714Z TN15/0706Z \n  BECMG 0708/0710 07025KT \n  PROB40 \n  TEMPO 0709/0719 09025G35KT",
      "metarHtml": "METAR GCTS 062100Z 04015KT 9999 FEW030 16/10 Q1025 NOSIG",
      "tafHtml": "TAF GCTS 062000Z 0621/0721 05015KT 9999 SCT035 TX22/0714Z TN15/0706Z \n  BECMG 0708/0710 07025KT \n  PROB40 \n  TEMPO 0709/0719 09025G35KT"
    },
    {
      "icao": "GMAD",
      "iata": "AGA",
      "name": "Al Massira Airport",
      "updatedAt": "062100Z",
      "visibility_m": 10000,
      "taf_visibility_m": 6000,
      "worst_visibility_m": 6000,
      "ceiling_ft": null,
      "hazards": [],
      "severityScore": 0,
      "metarRaw": "METAR GMAD 062100Z 00000KT CAVOK 13/M00 Q1018 NOSIG",
      "tafRaw": "TAF GMAD 061700Z 0618/0724 20008KT 6000 SCT016 \n  TEMPO 0702/0708 SCT010 BKN016",
      "metarHtml": "METAR GMAD 062100Z 00000KT <span class=\"hl-vis\">CAVOK</span> 13/M00 Q1018 NOSIG",
      "tafHtml": "TAF GMAD 061700Z 0618/0724 20008KT 6000 SCT016 \n  TEMPO 0702/0708 SCT010 BKN016"
    },
    {
      "icao": "GMMN",
      "iata": "CMN",
      "name": "Mohammed V International Airport",
      "updatedAt": "062100Z",
      "visibility_m": 10000,
      "taf_visibility_m": 10000,
      "worst_visibility_m": 10000,
      "ceiling_ft": null,
      "hazards": [],
      "severityScore": 0,
      "metarRaw": "METAR GMMN 062100Z 23003KT 9999 SCT030 06/03 Q1025 NOSIG",
      "tafRaw": "TAF GMMN 061700Z 0618/0724 36006KT 9999 BKN030 \n  BECMG 0620/0622 18006KT \n  BECMG 0711/0715 24012KT",
      "metarHtml": "METAR GMMN 062100Z 23003KT 9999 SCT030 06/03 Q1025 NOSIG",
      "tafHtml": "TAF GMMN 061700Z 0618/0724 36006KT 9999 BKN030 \n  BECMG 0620/0622 18006KT \n  BECMG 0711/0715 24012KT"
    },
    {
      "icao": "GMMX",
      "iata": "RAK",
      "name": "Menara Airport",
      "updatedAt": "062100Z",
      "visibility_m": 10000,
      "taf_visibility_m": 8000,
      "worst_visibility_m": 8000,
      "ceiling_ft": null,
      "hazards": [],
      "severityScore": 0,
      "metarRaw": "METAR GMMX 062100Z 05004KT CAVOK 08/05 Q1024 NOSIG",
      "tafRaw": "TAF GMMX 061700Z 0618/0724 22004KT 8000 BKN023 \n  TEMPO 0619/0706 34016KT SCT020",
      "metarHtml": "METAR GMMX 062100Z 05004KT <span class=\"hl-vis\">CAVOK</span> 08/05 Q1024 NOSIG",
      "tafHtml": "TAF GMMX 061700Z 0618/0724 22004KT 8000 BKN023 \n  TEMPO 0619/0706 34016KT SCT020"
    },
    {
      "icao": "ENAL",
      "iata": "AES",
      "name": "Ålesund Airport, Vigra",
      "updatedAt": "062050Z",
      "visibility_m": 10000,
      "taf_visibility_m": 10000,
      "worst_visibility_m": 10000,
      "ceiling_ft": null,
      "hazards": [],
      "severityScore": 0,
      "metarRaw": "METAR ENAL 062050Z 10006KT 040V140 CAVOK M04/M14 Q1011",
      "tafRaw": "TAF ENAL 062000Z 0621/0706 12010KT CAVOK",
      "metarHtml": "METAR ENAL 062050Z 10006KT 040V140 <span class=\"hl-vis\">CAVOK</span> M04/M14 Q1011",
      "tafHtml": "TAF ENAL 062000Z 0621/0706 12010KT <span class=\"hl-vis\">CAVOK</span>"
    },
    {
      "icao": "ENBR",
      "iata": "BGO",
      "name": "Bergen Airport, Flesland",
      "updatedAt": "062050Z",
      "visibility_m": 10000,
      "taf_visibility_m": 10000,
      "worst_visibility_m": 10000,
      "ceiling_ft": null,
      "hazards": [],
      "severityScore": 0,
      "metarRaw": "METAR ENBR 062050Z 00000KT CAVOK M08/M13 Q1009 RMK WIND 1200FT 12010KT",
      "tafRaw": "TAF ENBR 061700Z 0618/0718 08006KT CAVOK",
      "metarHtml": "METAR ENBR 062050Z 00000KT <span class=\"hl-vis\">CAVOK</span> M08/M13 Q1009 RMK WIND 1200FT 12010KT",
      "tafHtml": "TAF ENBR 061700Z 0618/0718 08006KT <span class=\"hl-vis\">CAVOK</span>"
    },
    {
      "icao": "ENHD",
      "iata": "HAU",
      "name": "Haugesund Airport, Karmøy",
      "updatedAt": "062050Z",
      "visibility_m": 10000,
      "taf_visibility_m": 10000,
      "worst_visibility_m": 10000,
      "ceiling_ft": null,
      "hazards": [],
      "severityScore": 0,
      "metarRaw": "METAR ENHD 062050Z 09009KT CAVOK M05/M09 Q1009",
      "tafRaw": "TAF ENHD 061400Z 0615/0623 09008KT 9999 FEW040",
      "metarHtml": "METAR ENHD 062050Z 09009KT <span class=\"hl-vis\">CAVOK</span> M05/M09 Q1009",
      "tafHtml": "TAF ENHD 061400Z 0615/0623 09008KT 9999 FEW040"
    },
    {
      "icao": "ENTC",
      "iata": "TOS",
      "name": "Tromsø Airport, Langnes",
      "updatedAt": "062050Z",
      "visibility_m": 10000,
      "taf_visibility_m": 10000,
      "worst_visibility_m": 10000,
      "ceiling_ft": null,
      "hazards": [],
      "severityScore": 0,
      "metarRaw": "METAR ENTC 062050Z VRB02KT CAVOK M13/M16 Q1022 NOSIG RMK WIND 2600FT 16014KT",
      "tafRaw": "TAF ENTC 061700Z 0618/0718 VRB03KT CAVOK",
      "metarHtml": "METAR ENTC 062050Z VRB02KT <span class=\"hl-vis\">CAVOK</span> M13/M16 Q1022 NOSIG RMK WIND 2600FT 16014KT",
      "tafHtml": "TAF ENTC 061700Z 0618/0718 VRB03KT <span class=\"hl-vis\">CAVOK</span>"
    },
    {
      "icao": "ENVA",
      "iata": "TRD",
      "name": "Trondheim Airport, Værnes",
      "updatedAt": "062050Z",
      "visibility_m": 10000,
      "taf_visibility_m": 10000,
      "worst_visibility_m": 10000,
      "ceiling_ft": null,
      "hazards": [],
      "severityScore": 0,
      "metarRaw": "METAR ENVA 062050Z 11006KT CAVOK M15/M17 Q1017 RMK WIND 670FT 10010KT",
      "tafRaw": "TAF ENVA 061700Z 0618/0718 11008KT CAVOK",
      "metarHtml": "METAR ENVA 062050Z 11006KT <span class=\"hl-vis\">CAVOK</span> M15/M17 Q1017 RMK WIND 670FT 10010KT",
      "tafHtml": "TAF ENVA 061700Z 0618/0718 11008KT <span class=\"hl-vis\">CAVOK</span>"
    },
    {
      "icao": "ENZV",
      "iata": "SVG",
      "name": "Stavanger Airport, Sola",
      "updatedAt": "062050Z",
      "visibility_m": 10000,
      "taf_visibility_m": 10000,
      "worst_visibility_m": 10000,
      "ceiling_ft": null,
      "hazards": [],
      "severityScore": 0,
      "metarRaw": "METAR ENZV 062050Z 00000KT CAVOK M09/M10 Q1009",
      "tafRaw": "TAF ENZV 061700Z 0618/0718 13005KT 9999 FEW035",
      "metarHtml": "METAR ENZV 062050Z 00000KT <span class=\"hl-vis\">CAVOK</span> M09/M10 Q1009",
      "tafHtml": "TAF ENZV 061700Z 0618/0718 13005KT 9999 FEW035"
    },
    {
      "icao": "HEGN",
      "iata": "HRG",
      "name": "Hurghada International Airport",
      "updatedAt": "062000Z",
      "visibility_m": 10000,
      "taf_visibility_m": 10000,
      "worst_visibility_m": 10000,
      "ceiling_ft": null,
      "hazards": [],
      "severityScore": 0,
      "metarRaw": "METAR HEGN 062000Z 29007KT CAVOK 17/11 Q1020 NOSIG",
      "tafRaw": "TAF HEGN 061700Z 0618/0724 33012KT CAVOK",
      "metarHtml": "METAR HEGN 062000Z 29007KT <span class=\"hl-vis\">CAVOK</span> 17/11 Q1020 NOSIG",
      "tafHtml": "TAF HEGN 061700Z 0618/0724 33012KT <span class=\"hl-vis\">CAVOK</span>"
    },
    {
      "icao": "HEMA",
      "iata": "RMF",
      "name": "Marsa Alam International Airport",
      "updatedAt": "062000Z",
      "visibility_m": 6000,
      "taf_visibility_m": 4000,
      "worst_visibility_m": 4000,
      "ceiling_ft": null,
      "hazards": [],
      "severityScore": 0,
      "metarRaw": "METAR HEMA 062000Z 29007KT 6000 NSC 18/15 Q1019 NOSIG",
      "tafRaw": "TAF HEMA 061700Z 0618/0724 33013KT 6000 NSC \n  TEMPO 0618/0621 4000 SA",
      "metarHtml": "METAR HEMA 062000Z 29007KT 6000 NSC 18/15 Q1019 NOSIG",
      "tafHtml": "TAF HEMA 061700Z 0618/0724 33013KT 6000 NSC \n  TEMPO 0618/0621 4000 SA"
    },
    {
      "icao": "HESH",
      "iata": "SSH",
      "name": "Sharm El Sheikh International Airport",
      "updatedAt": "062000Z",
      "visibility_m": 10000,
      "taf_visibility_m": 10000,
      "worst_visibility_m": 10000,
      "ceiling_ft": null,
      "hazards": [],
      "severityScore": 0,
      "metarRaw": "METAR HESH 062000Z 33004KT CAVOK 19/13 Q1020 NOSIG",
      "tafRaw": "TAF HESH 061700Z 0618/0724 36011KT CAVOK",
      "metarHtml": "METAR HESH 062000Z 33004KT <span class=\"hl-vis\">CAVOK</span> 19/13 Q1020 NOSIG",
      "tafHtml": "TAF HESH 061700Z 0618/0724 36011KT <span class=\"hl-vis\">CAVOK</span>"
    },
    {
      "icao": "LBSF",
      "iata": "SOF",
      "name": "Sofia Airport",
      "updatedAt": "062100Z",
      "visibility_m": 10000,
      "taf_visibility_m": 10000,
      "worst_visibility_m": 10000,
      "ceiling_ft": null,
      "hazards": [],
      "severityScore": 0,
      "metarRaw": "METAR LBSF 062100Z AUTO 34003KT 310V030 9999 SCT038/// 08/07 Q1008 NOSIG",
      "tafRaw": "TAF LBSF 061700Z 0618/0718 03008KT 9999 SCT040 BKN060 \n  BECMG 0700/0701 10010KT",
      "metarHtml": "METAR LBSF 062100Z AUTO 34003KT 310V030 9999 SCT038/// 08/07 Q1008 NOSIG",
      "tafHtml": "TAF LBSF 061700Z 0618/0718 03008KT 9999 SCT040 BKN060 \n  BECMG 0700/0701 10010KT"
    },
    {
      "icao": "LCLK",
      "iata": "LCA",
      "name": "Larnaca International Airport",
      "updatedAt": "062100Z",
      "visibility_m": 10000,
      "taf_visibility_m": 10000,
      "worst_visibility_m": 10000,
      "ceiling_ft": null,
      "hazards": [],
      "severityScore": 0,
      "metarRaw": "METAR LCLK 062100Z 31007KT CAVOK 13/10 Q1022 NOSIG",
      "tafRaw": "TAF LCLK 061730Z 0618/0718 04010KT 9999 FEW035 \n  BECMG 0618/0619 34006KT \n  BECMG 0706/0709 08010KT",
      "metarHtml": "METAR LCLK 062100Z 31007KT <span class=\"hl-vis\">CAVOK</span> 13/10 Q1022 NOSIG",
      "tafHtml": "TAF LCLK 061730Z 0618/0718 04010KT 9999 FEW035 \n  BECMG 0618/0619 34006KT \n  BECMG 0706/0709 08010KT"
    },
    {
      "icao": "LCPH",
      "iata": "PFO",
      "name": "Paphos International Airport",
      "updatedAt": "062100Z",
      "visibility_m": 10000,
      "taf_visibility_m": 10000,
      "worst_visibility_m": 10000,
      "ceiling_ft": null,
      "hazards": [],
      "severityScore": 0,
      "metarRaw": "METAR LCPH 062100Z 02006KT 010V080 9999 FEW040 14/10 Q1021 NOSIG",
      "tafRaw": "TAF LCPH 061730Z 0618/0718 12010KT 9999 FEW030 \n  BECMG 0618/0619 06009KT \n  BECMG 0707/0710 14015KT",
      "metarHtml": "METAR LCPH 062100Z 02006KT 010V080 9999 FEW040 14/10 Q1021 NOSIG",
      "tafHtml": "TAF LCPH 061730Z 0618/0718 12010KT 9999 FEW030 \n  BECMG 0618/0619 06009KT \n  BECMG 0707/0710 14015KT"
    },
    {
      "icao": "LEAL",
      "iata": "ALC",
      "name": "Alicante-Elche Miguel Hernández Airport",
      "updatedAt": "062100Z",
      "visibility_m": 10000,
      "taf_visibility_m": 10000,
      "worst_visibility_m": 10000,
      "ceiling_ft": null,
      "hazards": [],
      "severityScore": 0,
      "metarRaw": "METAR LEAL 062100Z 29006KT 9999 FEW025 05/00 Q1017 NOSIG",
      "tafRaw": "TAF LEAL 061700Z 0618/0718 VRB03KT 9999 FEW030 TX13/0714Z TN04/0706Z \n  BECMG 0618/0620 30010KT",
      "metarHtml": "METAR LEAL 062100Z 29006KT 9999 FEW025 05/00 Q1017 NOSIG",
      "tafHtml": "TAF LEAL 061700Z 0618/0718 VRB03KT 9999 FEW030 TX13/0714Z TN04/0706Z \n  BECMG 0618/0620 30010KT"
    },
    {
      "icao": "LEBL",
      "iata": "BCN",
      "name": "Josep Tarradellas Barcelona-El Prat Airport",
      "updatedAt": "062100Z",
      "visibility_m": 10000,
      "taf_visibility_m": 10000,
      "worst_visibility_m": 10000,
      "ceiling_ft": null,
      "hazards": [],
      "severityScore": 0,
      "metarRaw": "METAR LEBL 062100Z 32012KT CAVOK 04/M02 Q1015 NOSIG",
      "tafRaw": "TAF LEBL 061700Z 0618/0718 34013KT CAVOK TX10/0713Z TN01/0706Z \n  PROB30 \n  TEMPO 0618/0710 36017G27KT",
      "metarHtml": "METAR LEBL 062100Z 32012KT <span class=\"hl-vis\">CAVOK</span> 04/M02 Q1015 NOSIG",
      "tafHtml": "TAF LEBL 061700Z 0618/0718 34013KT <span class=\"hl-vis\">CAVOK</span> TX10/0713Z TN01/0706Z \n  PROB30 \n  TEMPO 0618/0710 36017G27KT"
    },
    {
      "icao": "LEMG",
      "iata": "AGP",
      "name": "Málaga-Costa del Sol Airport",
      "updatedAt": "062100Z",
      "visibility_m": 10000,
      "taf_visibility_m": 10000,
      "worst_visibility_m": 10000,
      "ceiling_ft": null,
      "hazards": [],
      "severityScore": 0,
      "metarRaw": "METAR LEMG 062100Z 28013KT CAVOK 07/M04 Q1021 NOSIG",
      "tafRaw": "TAF LEMG 061700Z 0618/0718 30012KT CAVOK TX13/0714Z TN04/0706Z",
      "metarHtml": "METAR LEMG 062100Z 28013KT <span class=\"hl-vis\">CAVOK</span> 07/M04 Q1021 NOSIG",
      "tafHtml": "TAF LEMG 061700Z 0618/0718 30012KT <span class=\"hl-vis\">CAVOK</span> TX13/0714Z TN04/0706Z"
    },
    {
      "icao": "LEVC",
      "iata": "VLC",
      "name": "Valencia Airport",
      "updatedAt": "062100Z",
      "visibility_m": 10000,
      "taf_visibility_m": 10000,
      "worst_visibility_m": 10000,
      "ceiling_ft": null,
      "hazards": [],
      "severityScore": 0,
      "metarRaw": "METAR LEVC 062100Z 34018KT CAVOK 08/M08 Q1017 NOSIG",
      "tafRaw": "TAF LEVC 061700Z 0618/0718 31008KT CAVOK TX13/0714Z TNM01/0706Z \n  BECMG 0700/0702 26004KT \n  BECMG 0710/0712 27010KT \n  PROB30 \n  TEMPO 0712/0715 27015G25KT",
      "metarHtml": "METAR LEVC 062100Z 34018KT <span class=\"hl-vis\">CAVOK</span> 08/M08 Q1017 NOSIG",
      "tafHtml": "TAF LEVC 061700Z 0618/0718 31008KT <span class=\"hl-vis\">CAVOK</span> TX13/0714Z TNM01/0706Z \n  BECMG 0700/0702 26004KT \n  BECMG 0710/0712 27010KT \n  PROB30 \n  TEMPO 0712/0715 27015G25KT"
    },
    {
      "icao": "LEZG",
      "iata": "ZAZ",
      "name": "Zaragoza Airport",
      "updatedAt": "062100Z",
      "visibility_m": 10000,
      "taf_visibility_m": 10000,
      "worst_visibility_m": 10000,
      "ceiling_ft": null,
      "hazards": [],
      "severityScore": 0,
      "metarRaw": "METAR LEZG 062100Z 29022KT CAVOK 02/M03 Q1019 NOSIG",
      "tafRaw": "TAF LEZG 061700Z 0618/0718 32020KT 9999 FEW030 TX09/0715Z TN00/0706Z \n  TEMPO 0618/0620 32023G33KT \n  BECMG 0619/0621 30010KT \n  BECMG 0702/0704 25009KT \n  TEMPO 0710/0713 24015G25KT \n  BECMG 0712/0714 29008KT",
      "metarHtml": "METAR LEZG 062100Z 29022KT <span class=\"hl-vis\">CAVOK</span> 02/M03 Q1019 NOSIG",
      "tafHtml": "TAF LEZG 061700Z 0618/0718 32020KT 9999 FEW030 TX09/0715Z TN00/0706Z \n  TEMPO 0618/0620 32023G33KT \n  BECMG 0619/0621 30010KT \n  BECMG 0702/0704 25009KT \n  TEMPO 0710/0713 24015G25KT \n  BECMG 0712/0714 29008KT"
    },
    {
      "icao": "LIBG",
      "iata": "TAR",
      "name": "Taranto-Grottaglie Marcello Arlotta Airport",
      "updatedAt": null,
      "visibility_m": null,
      "taf_visibility_m": 10000,
      "worst_visibility_m": 10000,
      "ceiling_ft": null,
      "hazards": [],
      "severityScore": 0,
      "metarRaw": null,
      "tafRaw": "TAF LIBG 061700Z 0618/0703 15009KT 9999 SCT015",
      "metarHtml": null,
      "tafHtml": "TAF LIBG 061700Z 0618/0703 15009KT 9999 SCT015"
    },
    {
      "icao": "LIMC",
      "iata": "MXP",
      "name": "Milan Malpensa International Airport",
      "updatedAt": "062050Z",
      "visibility_m": 10000,
      "taf_visibility_m": 10000,
      "worst_visibility_m": 10000,
      "ceiling_ft": null,
      "hazards": [],
      "severityScore": 0,
      "metarRaw": "METAR LIMC 062050Z 05002KT CAVOK M04/M07 Q1011 NOSIG",
      "tafRaw": "TAF LIMC 061700Z 0618/0724 VRB04KT CAVOK",
      "metarHtml": "METAR LIMC 062050Z 05002KT <span class=\"hl-vis\">CAVOK</span> M04/M07 Q1011 NOSIG",
      "tafHtml": "TAF LIMC 061700Z 0618/0724 VRB04KT <span class=\"hl-vis\">CAVOK</span>"
    },
    {
      "icao": "LIME",
      "iata": "BGY",
      "name": "Milan Bergamo Airport / Antonio Locatelli Air Base",
      "updatedAt": "062050Z",
      "visibility_m": 10000,
      "taf_visibility_m": 10000,
      "worst_visibility_m": 10000,
      "ceiling_ft": null,
      "hazards": [],
      "severityScore": 0,
      "metarRaw": "METAR LIME 062050Z 01003KT CAVOK M03/M05 Q1011 NOSIG",
      "tafRaw": "TAF LIME 061700Z 0618/0718 VRB04KT CAVOK",
      "metarHtml": "METAR LIME 062050Z 01003KT <span class=\"hl-vis\">CAVOK</span> M03/M05 Q1011 NOSIG",
      "tafHtml": "TAF LIME 061700Z 0618/0718 VRB04KT <span class=\"hl-vis\">CAVOK</span>"
    },
    {
      "icao": "LIMF",
      "iata": "TRN",
      "name": "Turin Airport",
      "updatedAt": "062050Z",
      "visibility_m": 10000,
      "taf_visibility_m": 10000,
      "worst_visibility_m": 10000,
      "ceiling_ft": null,
      "hazards": [],
      "severityScore": 0,
      "metarRaw": "METAR LIMF 062050Z 30003KT CAVOK M01/M08 Q1010",
      "tafRaw": "TAF LIMF 061700Z 0618/0718 VRB03KT CAVOK",
      "metarHtml": "METAR LIMF 062050Z 30003KT <span class=\"hl-vis\">CAVOK</span> M01/M08 Q1010",
      "tafHtml": "TAF LIMF 061700Z 0618/0718 VRB03KT <span class=\"hl-vis\">CAVOK</span>"
    },
    {
      "icao": "LIMJ",
      "iata": "GOA",
      "name": "Genoa Cristoforo Colombo Airport",
      "updatedAt": "062050Z",
      "visibility_m": 10000,
      "taf_visibility_m": 10000,
      "worst_visibility_m": 10000,
      "ceiling_ft": null,
      "hazards": [],
      "severityScore": 0,
      "metarRaw": "METAR LIMJ 062050Z 06013KT CAVOK 03/M06 Q1008",
      "tafRaw": "TAF LIMJ 061700Z 0618/0718 03015KT CAVOK",
      "metarHtml": "METAR LIMJ 062050Z 06013KT <span class=\"hl-vis\">CAVOK</span> 03/M06 Q1008",
      "tafHtml": "TAF LIMJ 061700Z 0618/0718 03015KT <span class=\"hl-vis\">CAVOK</span>"
    },
    {
      "icao": "LIPH",
      "iata": "TSF",
      "name": "Treviso Antonio Canova Airport",
      "updatedAt": "062050Z",
      "visibility_m": 10000,
      "taf_visibility_m": 10000,
      "worst_visibility_m": 10000,
      "ceiling_ft": null,
      "hazards": [],
      "severityScore": 0,
      "metarRaw": "METAR LIPH 062050Z 31005KT 290V350 CAVOK 01/M02 Q1011",
      "tafRaw": "TAF LIPH 061700Z 0618/0718 05006KT 9999 SCT070",
      "metarHtml": "METAR LIPH 062050Z 31005KT 290V350 <span class=\"hl-vis\">CAVOK</span> 01/M02 Q1011",
      "tafHtml": "TAF LIPH 061700Z 0618/0718 05006KT 9999 SCT070"
    },
    {
      "icao": "LIPQ",
      "iata": "TRS",
      "name": "Trieste–Friuli Venezia Giulia Airport",
      "updatedAt": "062050Z",
      "visibility_m": 10000,
      "taf_visibility_m": 10000,
      "worst_visibility_m": 10000,
      "ceiling_ft": null,
      "hazards": [],
      "severityScore": 0,
      "metarRaw": "METAR LIPQ 062050Z AUTO 09004KT 050V110 9999 BKN085/// OVC110/// 01/M04 Q1010",
      "tafRaw": "TAF LIPQ 061700Z 0618/0718 VRB05KT 9999 SCT030",
      "metarHtml": "METAR LIPQ 062050Z AUTO 09004KT 050V110 9999 BKN085/// OVC110/// 01/M04 Q1010",
      "tafHtml": "TAF LIPQ 061700Z 0618/0718 VRB05KT 9999 SCT030"
    },
    {
      "icao": "LIPX",
      "iata": "VRN",
      "name": "Verona Villafranca Valerio Catullo Airport",
      "updatedAt": "062050Z",
      "visibility_m": 9000,
      "taf_visibility_m": 10000,
      "worst_visibility_m": 9000,
      "ceiling_ft": null,
      "hazards": [],
      "severityScore": 0,
      "metarRaw": "METAR LIPX 062050Z 36003KT 9000 NSC M03/M04 Q1011",
      "tafRaw": "TAF LIPX 061700Z 0618/0718 VRB04KT CAVOK \n  BECMG 0710/0712 27010KT \n  BECMG 0715/0717 VRB04KT",
      "metarHtml": "METAR LIPX 062050Z 36003KT 9000 NSC M03/M04 Q1011",
      "tafHtml": "TAF LIPX 061700Z 0618/0718 VRB04KT <span class=\"hl-vis\">CAVOK</span> \n  BECMG 0710/0712 27010KT \n  BECMG 0715/0717 VRB04KT"
    },
    {
      "icao": "LIPZ",
      "iata": "VCE",
      "name": "Venice Marco Polo Airport",
      "updatedAt": "062050Z",
      "visibility_m": 10000,
      "taf_visibility_m": 10000,
      "worst_visibility_m": 10000,
      "ceiling_ft": null,
      "hazards": [],
      "severityScore": 0,
      "metarRaw": "METAR LIPZ 062050Z 35006KT CAVOK 01/M02 Q1011 NOSIG",
      "tafRaw": "TAF LIPZ 061700Z 0618/0724 03010KT 9999 SCT040 \n  BECMG 0619/0621 34006KT",
      "metarHtml": "METAR LIPZ 062050Z 35006KT <span class=\"hl-vis\">CAVOK</span> 01/M02 Q1011 NOSIG",
      "tafHtml": "TAF LIPZ 061700Z 0618/0724 03010KT 9999 SCT040 \n  BECMG 0619/0621 34006KT"
    },
    {
      "icao": "LIRP",
      "iata": "PSA",
      "name": "Pisa International Airport",
      "updatedAt": "062045Z",
      "visibility_m": 10000,
      "taf_visibility_m": 10000,
      "worst_visibility_m": 10000,
      "ceiling_ft": null,
      "hazards": [],
      "severityScore": 0,
      "metarRaw": "METAR LIRP 062045Z 13010KT 9999 SCT070 04/M00 Q1007 NOSIG",
      "tafRaw": "TAF LIRP 061700Z 0618/0718 12008KT 9999 BKN070 \n  BECMG 0705/0707 09005KT SCT080 \n  BECMG 0711/0713 CAVOK",
      "metarHtml": "METAR LIRP 062045Z 13010KT 9999 SCT070 04/M00 Q1007 NOSIG",
      "tafHtml": "TAF LIRP 061700Z 0618/0718 12008KT 9999 BKN070 \n  BECMG 0705/0707 09005KT SCT080 \n  BECMG 0711/0713 <span class=\"hl-vis\">CAVOK</span>"
    },
    {
      "icao": "LKPR",
      "iata": "PRG",
      "name": "Václav Havel Airport Prague",
      "updatedAt": "062100Z",
      "visibility_m": 10000,
      "taf_visibility_m": 10000,
      "worst_visibility_m": 10000,
      "ceiling_ft": 3200,
      "hazards": [],
      "severityScore": 0,
      "metarRaw": "METAR LKPR 062100Z VRB02KT 9999 BKN032 M06/M09 Q1016 NOSIG",
      "tafRaw": "TAF LKPR 062000Z 0621/0803 24005KT 9999 BKN025",
      "metarHtml": "METAR LKPR 062100Z VRB02KT 9999 BKN032 M06/M09 Q1016 NOSIG",
      "tafHtml": "TAF LKPR 062000Z 0621/0803 24005KT 9999 BKN025"
    },
    {
      "icao": "LOWW",
      "iata": "VIE",
      "name": "Vienna International Airport",
      "updatedAt": "062050Z",
      "visibility_m": 10000,
      "taf_visibility_m": 10000,
      "worst_visibility_m": 10000,
      "ceiling_ft": null,
      "hazards": [],
      "severityScore": 0,
      "metarRaw": "METAR LOWW 062050Z 33010KT CAVOK M03/M09 Q1015 NOSIG",
      "tafRaw": "TAF LOWW 062015Z 0621/0803 32012KT 9999 FEW050 TXM02/0712Z TNM05/0803Z \n  TEMPO 0623/0715 33015G25KT",
      "metarHtml": "METAR LOWW 062050Z 33010KT <span class=\"hl-vis\">CAVOK</span> M03/M09 Q1015 NOSIG",
      "tafHtml": "TAF LOWW 062015Z 0621/0803 32012KT 9999 FEW050 TXM02/0712Z TNM05/0803Z \n  TEMPO 0623/0715 33015G25KT"
    },
    {
      "icao": "LPMA",
      "iata": "FNC",
      "name": "Madeira International Airport Cristiano Ronaldo",
      "updatedAt": "062100Z",
      "visibility_m": 10000,
      "taf_visibility_m": 10000,
      "worst_visibility_m": 10000,
      "ceiling_ft": null,
      "hazards": [],
      "severityScore": 0,
      "metarRaw": "METAR LPMA 062100Z 02014KT 340V060 9999 SCT015 15/08 Q1029",
      "tafRaw": "TAF LPMA 061700Z 0618/0718 02015KT 9999 SCT015 \n  TEMPO 0618/0718 02018G30KT",
      "metarHtml": "METAR LPMA 062100Z 02014KT 340V060 9999 SCT015 15/08 Q1029",
      "tafHtml": "TAF LPMA 061700Z 0618/0718 02015KT 9999 SCT015 \n  TEMPO 0618/0718 02018G30KT"
    },
    {
      "icao": "LPPS",
      "iata": "PXO",
      "name": "Porto Santo Airport",
      "updatedAt": "062100Z",
      "visibility_m": 10000,
      "taf_visibility_m": 10000,
      "worst_visibility_m": 10000,
      "ceiling_ft": null,
      "hazards": [],
      "severityScore": 0,
      "metarRaw": "METAR LPPS 062100Z 05010KT 020V100 9999 SCT015 14/07 Q1030",
      "tafRaw": "TAF LPPS 061700Z 0618/0724 03013KT 9999 SCT015 \n  TEMPO 0618/0624 03015G27KT",
      "metarHtml": "METAR LPPS 062100Z 05010KT 020V100 9999 SCT015 14/07 Q1030",
      "tafHtml": "TAF LPPS 061700Z 0618/0724 03013KT 9999 SCT015 \n  TEMPO 0618/0624 03015G27KT"
    },
    {
      "icao": "LZIB",
      "iata": "BTS",
      "name": "M. R. Štefánik Airport",
      "updatedAt": "062100Z",
      "visibility_m": 10000,
      "taf_visibility_m": 10000,
      "worst_visibility_m": 10000,
      "ceiling_ft": null,
      "hazards": [],
      "severityScore": 0,
      "metarRaw": "METAR LZIB 062100Z 33008KT CAVOK M02/M09 Q1014 NOSIG",
      "tafRaw": "TAF LZIB 061715Z 0618/0718 33009KT 9999 FEW020",
      "metarHtml": "METAR LZIB 062100Z 33008KT <span class=\"hl-vis\">CAVOK</span> M02/M09 Q1014 NOSIG",
      "tafHtml": "TAF LZIB 061715Z 0618/0718 33009KT 9999 FEW020"
    },
    {
      "icao": "OEJN",
      "iata": "JED",
      "name": "King Abdulaziz International Airport",
      "updatedAt": "062100Z",
      "visibility_m": 10000,
      "taf_visibility_m": 7000,
      "worst_visibility_m": 7000,
      "ceiling_ft": null,
      "hazards": [],
      "severityScore": 0,
      "metarRaw": "METAR OEJN 062100Z 36004KT CAVOK 25/14 Q1016 NOSIG",
      "tafRaw": "TAF OEJN 061700Z 0618/0724 02006KT 7000 FEW040 \n  BECMG 0704/0706 16008KT \n  BECMG 0708/0710 24010KT \n  BECMG 0716/0718 VRB03KT",
      "metarHtml": "METAR OEJN 062100Z 36004KT <span class=\"hl-vis\">CAVOK</span> 25/14 Q1016 NOSIG",
      "tafHtml": "TAF OEJN 061700Z 0618/0724 02006KT 7000 FEW040 \n  BECMG 0704/0706 16008KT \n  BECMG 0708/0710 24010KT \n  BECMG 0716/0718 VRB03KT"
    },
    {
      "icao": "OEMA",
      "iata": "MED",
      "name": "Prince Mohammad Bin Abdulaziz Airport",
      "updatedAt": "062100Z",
      "visibility_m": 10000,
      "taf_visibility_m": 7000,
      "worst_visibility_m": 7000,
      "ceiling_ft": null,
      "hazards": [],
      "severityScore": 0,
      "metarRaw": "METAR OEMA 062100Z 04005KT CAVOK 21/00 Q1023 NOSIG",
      "tafRaw": "TAF OEMA 061700Z 0618/0724 09010KT 7000 NSC",
      "metarHtml": "METAR OEMA 062100Z 04005KT <span class=\"hl-vis\">CAVOK</span> 21/00 Q1023 NOSIG",
      "tafHtml": "TAF OEMA 061700Z 0618/0724 09010KT 7000 NSC"
    },
    {
      "icao": "OJAI",
      "iata": "AMM",
      "name": "Queen Alia International Airport",
      "updatedAt": "062100Z",
      "visibility_m": 5000,
      "taf_visibility_m": 5000,
      "worst_visibility_m": 5000,
      "ceiling_ft": null,
      "hazards": [],
      "severityScore": 0,
      "metarRaw": "METAR OJAI 062100Z 05006KT 5000 HZ NSC 09/M01 Q1024 NOSIG",
      "tafRaw": "TAF OJAI 061643Z 0618/0724 11008KT 5000 HZ NSC \n  TEMPO 0700/0706 VRB02KT",
      "metarHtml": "METAR OJAI 062100Z 05006KT 5000 HZ NSC 09/M01 Q1024 NOSIG",
      "tafHtml": "TAF OJAI 061643Z 0618/0724 11008KT 5000 HZ NSC \n  TEMPO 0700/0706 VRB02KT"
    },
    {
      "icao": "OMAA",
      "iata": "AUH",
      "name": "Zayed International Airport",
      "updatedAt": "062100Z",
      "visibility_m": 10000,
      "taf_visibility_m": 4000,
      "worst_visibility_m": 4000,
      "ceiling_ft": null,
      "hazards": [],
      "severityScore": 0,
      "metarRaw": "METAR OMAA 062100Z 32003KT CAVOK 20/13 Q1020 NOSIG",
      "tafRaw": "TAF OMAA 061700Z 0618/0800 VRB02KT 8000 NSC \n  PROB30 0700/0705 4000 HZ \n  BECMG 0709/0711 34011KT \n  BECMG 0718/0720 VRB02KT",
      "metarHtml": "METAR OMAA 062100Z 32003KT <span class=\"hl-vis\">CAVOK</span> 20/13 Q1020 NOSIG",
      "tafHtml": "TAF OMAA 061700Z 0618/0800 VRB02KT 8000 NSC \n  PROB30 0700/0705 4000 HZ \n  BECMG 0709/0711 34011KT \n  BECMG 0718/0720 VRB02KT"
    },
    {
      "icao": "OMDB",
      "iata": "DXB",
      "name": "Dubai International Airport",
      "updatedAt": "062100Z",
      "visibility_m": 10000,
      "taf_visibility_m": 8000,
      "worst_visibility_m": 8000,
      "ceiling_ft": null,
      "hazards": [],
      "severityScore": 0,
      "metarRaw": "METAR OMDB 062100Z 08004KT 050V110 CAVOK 21/10 Q1020 NOSIG",
      "tafRaw": "TAF OMDB 061700Z 0618/0800 07005KT 8000 NSC \n  BECMG 0708/0710 34010KT \n  BECMG 0716/0718 12005KT",
      "metarHtml": "METAR OMDB 062100Z 08004KT 050V110 <span class=\"hl-vis\">CAVOK</span> 21/10 Q1020 NOSIG",
      "tafHtml": "TAF OMDB 061700Z 0618/0800 07005KT 8000 NSC \n  BECMG 0708/0710 34010KT \n  BECMG 0716/0718 12005KT"
    },
    {
      "icao": "UGKO",
      "iata": "KUT",
      "name": "David the Builder Kutaisi International Airport",
      "updatedAt": "062100Z",
      "visibility_m": 10000,
      "taf_visibility_m": 10000,
      "worst_visibility_m": 10000,
      "ceiling_ft": null,
      "hazards": [],
      "severityScore": 0,
      "metarRaw": "METAR UGKO 062100Z 07003KT CAVOK 03/M03 Q1021 NOSIG",
      "tafRaw": "TAF UGKO 061700Z 0618/0718 09007KT CAVOK TX16/0712Z TN03/0703Z",
      "metarHtml": "METAR UGKO 062100Z 07003KT <span class=\"hl-vis\">CAVOK</span> 03/M03 Q1021 NOSIG",
      "tafHtml": "TAF UGKO 061700Z 0618/0718 09007KT <span class=\"hl-vis\">CAVOK</span> TX16/0712Z TN03/0703Z"
    }
  ],
  "stats": {
    "icaoCount": 159,
    "metarReturned": 158,
    "tafReturned": 145,
    "stationsWritten": 159,
    "missingMetar": 1,
    "missingTaf": 14
  },
  "errors": []
}