{
  "generatedAt": "2026-01-10T07:51:47.945Z",
  "stations": [
    {
      "icao": "EBCI",
      "iata": "CRL",
      "name": "Brussels South Charleroi Airport",
      "updatedAt": "100720Z",
      "visibility_m": 1200,
      "taf_visibility_m": 300,
      "worst_visibility_m": 300,
      "ceiling_ft": 300,
      "hazards": [
        "SN",
        "FZFG"
      ],
      "severityScore": 100,
      "metarRaw": "METAR EBCI 100720Z 33005KT 300V360 1200 R24/P2000N -SN BKN003 BKN005 M01/M01 Q1003 NOSIG",
      "tafRaw": "TAF EBCI 100515Z 1006/1112 33009KT 3500 -SN SCT001 BKN003 \n  TEMPO 1006/1009 1200 SN BKN001 \n  PROB30 \n  TEMPO 1006/1009 0300 FZFG SG \n  BECMG 1011/1013 6000 NSW \n  PROB40 \n  TEMPO 1013/1018 4500 -SG -SN \n  BECMG 1016/1018 SCT004 BKN007 \n  BECMG 1021/1023 SCT008 BKN012 \n  TEMPO 1103/1106 BKN016",
      "metarHtml": "METAR EBCI 100720Z 33005KT 300V360 1200 R24/P2000N -<span class=\"hl\">SN</span> BKN003 BKN005 M01/M01 Q1003 NOSIG",
      "tafHtml": "TAF EBCI 100515Z 1006/1112 33009KT 3500 -<span class=\"hl\">SN</span> SCT001 BKN003 \n  TEMPO 1006/1009 1200 <span class=\"hl\">SN</span> BKN001 \n  PROB30 \n  TEMPO 1006/1009 <span class=\"hl-vis\">0300</span> <span class=\"hl\">FZFG</span> SG \n  BECMG 1011/1013 6000 NSW \n  PROB40 \n  TEMPO 1013/1018 4500 -SG -<span class=\"hl\">SN</span> \n  BECMG 1016/1018 SCT004 BKN007 \n  BECMG 1021/1023 SCT008 BKN012 \n  TEMPO 1103/1106 BKN016"
    },
    {
      "icao": "EPGD",
      "iata": "GDN",
      "name": "Gdańsk Lech Wałęsa Airport",
      "updatedAt": "100730Z",
      "visibility_m": 3100,
      "taf_visibility_m": 100,
      "worst_visibility_m": 100,
      "ceiling_ft": 2800,
      "hazards": [
        "SHSN",
        "SN",
        "BLSN"
      ],
      "severityScore": 100,
      "metarRaw": "METAR EPGD 100730Z 01013KT 3100 -SHSN DRSN FEW019TCU BKN028 M02/M06 Q1005",
      "tafRaw": "TAF EPGD 100530Z 1006/1106 02015KT 7000 -SN BKN030 \n  TEMPO 1006/1012 03022G32KT 2000 SN DRSN BKN012 \n  PROB40 \n  TEMPO 1006/1012 0100 +SHSN BLSN BKN001 BKN010CB \n  TEMPO 1012/1106 35025G36KT 0100 +SHSN BLSN BKN001 BKN007CB",
      "metarHtml": "METAR EPGD 100730Z 01013KT 3100 -<span class=\"hl\">SHSN</span> DRSN FEW019TCU BKN028 M02/M06 Q1005",
      "tafHtml": "TAF EPGD 100530Z 1006/1106 02015KT 7000 -<span class=\"hl\">SN</span> BKN030 \n  TEMPO 1006/1012 03022G32KT 2000 <span class=\"hl\">SN</span> DRSN BKN012 \n  PROB40 \n  TEMPO 1006/1012 <span class=\"hl-vis\">0100</span> +<span class=\"hl\">SHSN</span> <span class=\"hl\">BLSN</span> BKN001 BKN010CB \n  TEMPO 1012/1106 35025G36KT <span class=\"hl-vis\">0100</span> +<span class=\"hl\">SHSN</span> <span class=\"hl\">BLSN</span> BKN001 BKN007CB"
    },
    {
      "icao": "LQBK",
      "iata": "BNX",
      "name": "Banja Luka International Airport",
      "updatedAt": "100730Z",
      "visibility_m": 200,
      "taf_visibility_m": 400,
      "worst_visibility_m": 200,
      "ceiling_ft": 300,
      "hazards": [
        "FG",
        "BR",
        "SN",
        "RA"
      ],
      "severityScore": 100,
      "metarRaw": "METAR LQBK 100730Z 32005KT 0200 R16/0350N FG VV003 01/01 Q1001 NOSIG",
      "tafRaw": "TAF LQBK 100500Z 1006/1106 30005KT 7000 SCT010 BKN030 TX02/1011Z TNM06/1105Z \n  TEMPO 1006/1009 3000 -RA BR BKN003 OVC010 \n  PROB40 \n  TEMPO 1006/1009 0400 FG BKN001 \n  TEMPO 1010/1016 3000 -SNRA BKN003 OVC015 \n  BECMG 1022/1024 36012KT \n  PROB40 \n  TEMPO 1023/1103 34015G25KT SN",
      "metarHtml": "METAR LQBK 100730Z 32005KT <span class=\"hl-vis\">0200</span> R16/0350N <span class=\"hl\">FG</span> VV003 01/01 Q1001 NOSIG",
      "tafHtml": "TAF LQBK 100500Z 1006/1106 30005KT 7000 SCT010 BKN030 TX02/1011Z TNM06/1105Z \n  TEMPO 1006/1009 3000 -<span class=\"hl\">RA</span> <span class=\"hl\">BR</span> BKN003 OVC010 \n  PROB40 \n  TEMPO 1006/1009 <span class=\"hl-vis\">0400</span> <span class=\"hl\">FG</span> BKN001 \n  TEMPO 1010/1016 3000 -SNRA BKN003 OVC015 \n  BECMG 1022/1024 36012KT \n  PROB40 \n  TEMPO 1023/1103 34015G25KT <span class=\"hl\">SN</span>"
    },
    {
      "icao": "LQSA",
      "iata": "SJJ",
      "name": "Sarajevo International Airport",
      "updatedAt": "100730Z",
      "visibility_m": 200,
      "taf_visibility_m": null,
      "worst_visibility_m": 200,
      "ceiling_ft": 200,
      "hazards": [
        "FZFG",
        "FZRA"
      ],
      "severityScore": 100,
      "metarRaw": "METAR LQSA 100730Z VRB02KT 0200 R11/0275N FZFG VV002 M01/M01 Q0997 TEMPO 0600 -FZRA",
      "tafRaw": null,
      "metarHtml": "METAR LQSA 100730Z VRB02KT <span class=\"hl-vis\">0200</span> R11/0275N <span class=\"hl\">FZFG</span> VV002 M01/M01 Q0997 TEMPO <span class=\"hl-vis\">0600</span> -<span class=\"hl\">FZRA</span>",
      "tafHtml": null
    },
    {
      "icao": "LRTR",
      "iata": "TSR",
      "name": "Timişoara Traian Vuia Airport",
      "updatedAt": "100730Z",
      "visibility_m": 300,
      "taf_visibility_m": 600,
      "worst_visibility_m": 300,
      "ceiling_ft": 200,
      "hazards": [
        "FZFG",
        "BR"
      ],
      "severityScore": 100,
      "metarRaw": "METAR LRTR 100730Z VRB02KT 0300 R29/0450N FZFG VV002 M01/M01 Q1001",
      "tafRaw": "TAF LRTR 100500Z 1006/1106 VRB04KT 3000 BR BKN002 OVC010 \n  PROB40 \n  TEMPO 1006/1009 0600 FZFG VV001 \n  BECMG 1009/1011 01010KT 9999 NSW BKN010 \n  BECMG 1011/1013 SCT020",
      "metarHtml": "METAR LRTR 100730Z VRB02KT <span class=\"hl-vis\">0300</span> R29/0450N <span class=\"hl\">FZFG</span> VV002 M01/M01 Q1001",
      "tafHtml": "TAF LRTR 100500Z 1006/1106 VRB04KT 3000 <span class=\"hl\">BR</span> BKN002 OVC010 \n  PROB40 \n  TEMPO 1006/1009 <span class=\"hl-vis\">0600</span> <span class=\"hl\">FZFG</span> VV001 \n  BECMG 1009/1011 01010KT 9999 NSW BKN010 \n  BECMG 1011/1013 SCT020"
    },
    {
      "icao": "LYBE",
      "iata": "BEG",
      "name": "Belgrade Nikola Tesla Airport",
      "updatedAt": "100730Z",
      "visibility_m": 150,
      "taf_visibility_m": null,
      "worst_visibility_m": 150,
      "ceiling_ft": 100,
      "hazards": [
        "FG"
      ],
      "severityScore": 100,
      "metarRaw": "METAR LYBE 100730Z 00000KT 0150 R12L/0200N R30R/0200N FG VV001 00/00 Q1001 NOSIG",
      "tafRaw": null,
      "metarHtml": "METAR LYBE 100730Z 00000KT <span class=\"hl-vis\">0150</span> R12L/0200N R30R/0200N <span class=\"hl\">FG</span> VV001 00/00 Q1001 NOSIG",
      "tafHtml": null
    },
    {
      "icao": "UDSG",
      "iata": "LWN",
      "name": "Shirak International Airport",
      "updatedAt": "100730Z",
      "visibility_m": 4300,
      "taf_visibility_m": 200,
      "worst_visibility_m": 200,
      "ceiling_ft": 600,
      "hazards": [
        "BR",
        "SN",
        "FZFG"
      ],
      "severityScore": 100,
      "metarRaw": "METAR UDSG 100730Z 34002KT 4300 -SN BR OVC006 M01/M01 Q1009 NOSIG",
      "tafRaw": "TAF UDSG 100458Z 1006/1106 VRB06KT 1000 BR OVC010 \n  TEMPO 1006/1012 0200 SN FZFG VV002",
      "metarHtml": "METAR UDSG 100730Z 34002KT 4300 -<span class=\"hl\">SN</span> <span class=\"hl\">BR</span> OVC006 M01/M01 Q1009 NOSIG",
      "tafHtml": "TAF UDSG 100458Z 1006/1106 VRB06KT 1000 <span class=\"hl\">BR</span> OVC010 \n  TEMPO 1006/1012 <span class=\"hl-vis\">0200</span> <span class=\"hl\">SN</span> <span class=\"hl\">FZFG</span> VV002"
    },
    {
      "icao": "UDYZ",
      "iata": "EVN",
      "name": "Zvartnots International Airport",
      "updatedAt": "100730Z",
      "visibility_m": 900,
      "taf_visibility_m": 200,
      "worst_visibility_m": 200,
      "ceiling_ft": null,
      "hazards": [
        "FG",
        "SHSN",
        "FZFG",
        "BR",
        "SN"
      ],
      "severityScore": 100,
      "metarRaw": "METAR UDYZ 100730Z 07002KT 0900 R08/0900U -SHSN FG OVC013CB 00/M01 Q1010 NOSIG",
      "tafRaw": "TAF UDYZ 100500Z 1006/1106 VRB04KT 1000 BR BKN030 \n  TEMPO 1006/1012 0200 SN FZFG VV001",
      "metarHtml": "METAR UDYZ 100730Z 07002KT 0900 R08/0900U -<span class=\"hl\">SHSN</span> <span class=\"hl\">FG</span> OVC013CB 00/M01 Q1010 NOSIG",
      "tafHtml": "TAF UDYZ 100500Z 1006/1106 VRB04KT 1000 <span class=\"hl\">BR</span> BKN030 \n  TEMPO 1006/1012 <span class=\"hl-vis\">0200</span> <span class=\"hl\">SN</span> <span class=\"hl\">FZFG</span> VV001"
    },
    {
      "icao": "LQTZ",
      "iata": "TZL",
      "name": "Tuzla International Airport",
      "updatedAt": "100730Z",
      "visibility_m": 1200,
      "taf_visibility_m": 500,
      "worst_visibility_m": 500,
      "ceiling_ft": 1800,
      "hazards": [
        "BR",
        "FG",
        "SN"
      ],
      "severityScore": 95,
      "metarRaw": "METAR LQTZ 100730Z 34003KT 1200 R09/1700D BR FEW002 SCT010 BKN018 00/00 Q1000",
      "tafRaw": "TAF LQTZ 100500Z 1006/1106 27005KT 6000 SCT005 BKN025 TX02/1013Z TNM06/1106Z \n  TEMPO 1006/1008 3000 BR BKN005 OVC015 \n  PROB30 \n  TEMPO 1006/1008 0500 FG BKN001 \n  TEMPO 1008/1012 1500 -SNRA BR BKN003 OVC010 \n  PROB40 \n  TEMPO 1012/1018 0800 SN FG BKN002 OVC010 \n  BECMG 1101/1103 33012KT SN",
      "metarHtml": "METAR LQTZ 100730Z 34003KT 1200 R09/1700D <span class=\"hl\">BR</span> FEW002 SCT010 BKN018 00/00 Q1000",
      "tafHtml": "TAF LQTZ 100500Z 1006/1106 27005KT 6000 SCT005 BKN025 TX02/1013Z TNM06/1106Z \n  TEMPO 1006/1008 3000 <span class=\"hl\">BR</span> BKN005 OVC015 \n  PROB30 \n  TEMPO 1006/1008 <span class=\"hl-vis\">0500</span> <span class=\"hl\">FG</span> BKN001 \n  TEMPO 1008/1012 1500 -SNRA <span class=\"hl\">BR</span> BKN003 OVC010 \n  PROB40 \n  TEMPO 1012/1018 <span class=\"hl-vis\">0800</span> <span class=\"hl\">SN</span> <span class=\"hl\">FG</span> BKN002 OVC010 \n  BECMG 1101/1103 33012KT <span class=\"hl\">SN</span>"
    },
    {
      "icao": "UAAA",
      "iata": "ALA",
      "name": "Almaty International Airport",
      "updatedAt": "100730Z",
      "visibility_m": 3000,
      "taf_visibility_m": 200,
      "worst_visibility_m": 200,
      "ceiling_ft": null,
      "hazards": [
        "BR",
        "FZFG"
      ],
      "severityScore": 95,
      "metarRaw": "METAR UAAA 100730Z 02002MPS 330V060 3000 BR FEW016 M01/M03 Q1018 NOSIG",
      "tafRaw": "TAF UAAA 100505Z 1006/1106 23003MPS 1600 BR FU BKN011 OVC020 TX04/1009Z TNM05/1101Z \n  TEMPO 1006/1007 VRB01MPS 0600 FZFG VV003 \n  FM100800 35003G08MPS 5000 BR FU SCT050 BKN100 \n  TEMPO 1008/1012 05003MPS 2000 FEW006 SCT011 \n  FM101200 22003MPS 1800 BR FU SCT011 BKN020 \n  TEMPO 1015/1103 16003MPS 0200 FZFG VV002",
      "metarHtml": "METAR UAAA 100730Z 02002MPS 330V060 3000 <span class=\"hl\">BR</span> FEW016 M01/M03 Q1018 NOSIG",
      "tafHtml": "TAF UAAA 100505Z 1006/1106 23003MPS 1600 <span class=\"hl\">BR</span> FU BKN011 OVC020 TX04/1009Z TNM05/1101Z \n  TEMPO 1006/1007 VRB01MPS <span class=\"hl-vis\">0600</span> <span class=\"hl\">FZFG</span> VV003 \n  FM100800 35003G08MPS 5000 <span class=\"hl\">BR</span> FU SCT050 BKN100 \n  TEMPO 1008/1012 05003MPS 2000 FEW006 SCT011 \n  FM101200 22003MPS 1800 <span class=\"hl\">BR</span> FU SCT011 BKN020 \n  TEMPO 1015/1103 16003MPS <span class=\"hl-vis\">0200</span> <span class=\"hl\">FZFG</span> VV002"
    },
    {
      "icao": "LJLJ",
      "iata": "LJU",
      "name": "Ljubljana Jože Pučnik Airport",
      "updatedAt": "100730Z",
      "visibility_m": 300,
      "taf_visibility_m": 300,
      "worst_visibility_m": 300,
      "ceiling_ft": 14000,
      "hazards": [
        "FZFG",
        "BR"
      ],
      "severityScore": 85,
      "metarRaw": "METAR LJLJ 100730Z VRB02KT 0300 R30/0300D FZFG FEW001 SCT015 BKN140 M01/M02 Q1000 NOSIG",
      "tafRaw": "TAF LJLJ 100500Z 1006/1106 30003KT 4000 BR SCT001 BKN015 BKN030 \n  PROB40 \n  TEMPO 1006/1009 1500 BKN002 BKN012 \n  PROB40 \n  TEMPO 1020/1102 0300 FZFG VV002",
      "metarHtml": "METAR LJLJ 100730Z VRB02KT <span class=\"hl-vis\">0300</span> R30/0300D <span class=\"hl\">FZFG</span> FEW001 SCT015 BKN140 M01/M02 Q1000 NOSIG",
      "tafHtml": "TAF LJLJ 100500Z 1006/1106 30003KT 4000 <span class=\"hl\">BR</span> SCT001 BKN015 BKN030 \n  PROB40 \n  TEMPO 1006/1009 1500 BKN002 BKN012 \n  PROB40 \n  TEMPO 1020/1102 <span class=\"hl-vis\">0300</span> <span class=\"hl\">FZFG</span> VV002"
    },
    {
      "icao": "EPLB",
      "iata": "LUZ",
      "name": "Lublin Airport",
      "updatedAt": "100730Z",
      "visibility_m": 6000,
      "taf_visibility_m": 600,
      "worst_visibility_m": 600,
      "ceiling_ft": 600,
      "hazards": [
        "SN",
        "SHSN"
      ],
      "severityScore": 78,
      "metarRaw": "METAR EPLB 100730Z 28009KT 6000 -SN FEW003 BKN006 M14/M15 Q1001",
      "tafRaw": "TAF EPLB 100530Z 1006/1106 29010KT 9999 SCT005 \n  PROB40 \n  TEMPO 1006/1012 4000 -SN BKN003 BKN007 \n  BECMG 1012/1014 -SN BKN010 \n  TEMPO 1014/1106 2000 SN BKN006 \n  PROB30 \n  TEMPO 1015/1106 0600 +SHSN BKN002 BKN008CB",
      "metarHtml": "METAR EPLB 100730Z 28009KT 6000 -<span class=\"hl\">SN</span> FEW003 BKN006 M14/M15 Q1001",
      "tafHtml": "TAF EPLB 100530Z 1006/1106 29010KT 9999 SCT005 \n  PROB40 \n  TEMPO 1006/1012 4000 -<span class=\"hl\">SN</span> BKN003 BKN007 \n  BECMG 1012/1014 -<span class=\"hl\">SN</span> BKN010 \n  TEMPO 1014/1106 2000 <span class=\"hl\">SN</span> BKN006 \n  PROB30 \n  TEMPO 1015/1106 <span class=\"hl-vis\">0600</span> +<span class=\"hl\">SHSN</span> BKN002 BKN008CB"
    },
    {
      "icao": "EETN",
      "iata": "TLL",
      "name": "Lennart Meri Tallinn Airport",
      "updatedAt": "100750Z",
      "visibility_m": 2000,
      "taf_visibility_m": 600,
      "worst_visibility_m": 600,
      "ceiling_ft": 1600,
      "hazards": [
        "SN",
        "BLSN"
      ],
      "severityScore": 77,
      "metarRaw": "METAR EETN 100750Z 03016G26KT 360V070 5000 SN BLSN BKN016 OVC022 M06/M09 Q1008 TEMPO 04020G30KT 2000",
      "tafRaw": "TAF EETN 100530Z 1006/1106 03016G26KT 9999 DRSN BKN015 BKN020 \n  TEMPO 1006/1019 03020G35KT \n  BECMG 1007/1009 2000 SN BLSN OVC012 \n  TEMPO 1009/1023 1000 +SN BLSN VV005 \n  TEMPO 1023/1106 0600 +SN BLSN",
      "metarHtml": "METAR EETN 100750Z 03016G26KT 360V070 5000 <span class=\"hl\">SN</span> <span class=\"hl\">BLSN</span> BKN016 OVC022 M06/M09 Q1008 TEMPO 04020G30KT 2000",
      "tafHtml": "TAF EETN 100530Z 1006/1106 03016G26KT 9999 DRSN BKN015 BKN020 \n  TEMPO 1006/1019 03020G35KT \n  BECMG 1007/1009 2000 <span class=\"hl\">SN</span> <span class=\"hl\">BLSN</span> OVC012 \n  TEMPO 1009/1023 1000 +<span class=\"hl\">SN</span> <span class=\"hl\">BLSN</span> VV005 \n  TEMPO 1023/1106 <span class=\"hl-vis\">0600</span> +<span class=\"hl\">SN</span> <span class=\"hl\">BLSN</span>"
    },
    {
      "icao": "EDDH",
      "iata": "HAM",
      "name": "Hamburg Helmut Schmidt Airport",
      "updatedAt": "100720Z",
      "visibility_m": 10000,
      "taf_visibility_m": 400,
      "worst_visibility_m": 400,
      "ceiling_ft": 4000,
      "hazards": [
        "FZFG",
        "SHSN"
      ],
      "severityScore": 75,
      "metarRaw": "METAR EDDH 100720Z AUTO 06007KT 9999 BKN040 M03/M07 Q1011 NOSIG",
      "tafRaw": "TAF EDDH 100500Z 1006/1112 08015G25KT 9999 SCT030 \n  BECMG 1006/1008 07010KT \n  BECMG 1011/1013 03005KT \n  PROB30 \n  TEMPO 1012/1015 2500 -SHSN BKN009CB \n  BECMG 1017/1019 31002KT \n  PROB40 \n  TEMPO 1102/1106 0400 FZFG VV001 \n  BECMG 1110/1112 24005KT",
      "metarHtml": "METAR EDDH 100720Z AUTO 06007KT 9999 BKN040 M03/M07 Q1011 NOSIG",
      "tafHtml": "TAF EDDH 100500Z 1006/1112 08015G25KT 9999 SCT030 \n  BECMG 1006/1008 07010KT \n  BECMG 1011/1013 03005KT \n  PROB30 \n  TEMPO 1012/1015 2500 -<span class=\"hl\">SHSN</span> BKN009CB \n  BECMG 1017/1019 31002KT \n  PROB40 \n  TEMPO 1102/1106 <span class=\"hl-vis\">0400</span> <span class=\"hl\">FZFG</span> VV001 \n  BECMG 1110/1112 24005KT"
    },
    {
      "icao": "EPSC",
      "iata": "SZZ",
      "name": "Solidarity Szczecin–Goleniów Airport",
      "updatedAt": "100730Z",
      "visibility_m": 10000,
      "taf_visibility_m": 800,
      "worst_visibility_m": 800,
      "ceiling_ft": 4000,
      "hazards": [
        "SN",
        "BLSN",
        "SHSN"
      ],
      "severityScore": 75,
      "metarRaw": "METAR EPSC 100730Z VRB01KT 9999 BKN040 M06/M08 Q1009",
      "tafRaw": "TAF EPSC 100530Z 1006/1106 06005KT 9999 BKN030 \n  BECMG 1010/1013 36010KT \n  TEMPO 1013/1022 35022G32KT 3000 SN BKN012 \n  PROB40 \n  TEMPO 1014/1022 0800 SHSN BLSN BKN001 BKN010CB \n  PROB40 \n  TEMPO 1022/1106 34015G28KT 2000 SHSN BLSN BKN003 BKN013CB",
      "metarHtml": "METAR EPSC 100730Z VRB01KT 9999 BKN040 M06/M08 Q1009",
      "tafHtml": "TAF EPSC 100530Z 1006/1106 06005KT 9999 BKN030 \n  BECMG 1010/1013 36010KT \n  TEMPO 1013/1022 35022G32KT 3000 <span class=\"hl\">SN</span> BKN012 \n  PROB40 \n  TEMPO 1014/1022 <span class=\"hl-vis\">0800</span> <span class=\"hl\">SHSN</span> <span class=\"hl\">BLSN</span> BKN001 BKN010CB \n  PROB40 \n  TEMPO 1022/1106 34015G28KT 2000 <span class=\"hl\">SHSN</span> <span class=\"hl\">BLSN</span> BKN003 BKN013CB"
    },
    {
      "icao": "EDDK",
      "iata": "CGN",
      "name": "Cologne Bonn Airport",
      "updatedAt": "100720Z",
      "visibility_m": 2500,
      "taf_visibility_m": 1400,
      "worst_visibility_m": 1400,
      "ceiling_ft": 300,
      "hazards": [
        "BR",
        "SN"
      ],
      "severityScore": 73,
      "metarRaw": "METAR EDDK 100720Z AUTO 30009KT 4100 -SN BR OVC003 M00/M01 Q1001 TEMPO 2500 SN",
      "tafRaw": "TAF EDDK 100500Z 1006/1112 24005KT 4000 -SN BR OVC008 \n  BECMG 1006/1008 33007KT \n  TEMPO 1006/1010 1400 SN BKN004 \n  TEMPO 1010/1016 2000 -SN BR BKN003 \n  BECMG 1014/1016 BKN010 \n  BECMG 1016/1019 04003KT 9999 SCT025 \n  BECMG 1103/1106 12005KT",
      "metarHtml": "METAR EDDK 100720Z AUTO 30009KT 4100 -<span class=\"hl\">SN</span> <span class=\"hl\">BR</span> OVC003 M00/M01 Q1001 TEMPO 2500 <span class=\"hl\">SN</span>",
      "tafHtml": "TAF EDDK 100500Z 1006/1112 24005KT 4000 -<span class=\"hl\">SN</span> <span class=\"hl\">BR</span> OVC008 \n  BECMG 1006/1008 33007KT \n  TEMPO 1006/1010 1400 <span class=\"hl\">SN</span> BKN004 \n  TEMPO 1010/1016 2000 -<span class=\"hl\">SN</span> <span class=\"hl\">BR</span> BKN003 \n  BECMG 1014/1016 BKN010 \n  BECMG 1016/1019 04003KT 9999 SCT025 \n  BECMG 1103/1106 12005KT"
    },
    {
      "icao": "LHBP",
      "iata": "BUD",
      "name": "Budapest Liszt Ferenc International Airport",
      "updatedAt": "100730Z",
      "visibility_m": 1400,
      "taf_visibility_m": 2500,
      "worst_visibility_m": 1400,
      "ceiling_ft": 400,
      "hazards": [
        "BR",
        "SN"
      ],
      "severityScore": 73,
      "metarRaw": "METAR LHBP 100730Z 01004KT 2500 BR OVC005 M06/M07 Q1002 TEMPO 1400 BR OVC004",
      "tafRaw": "TAF LHBP 100515Z 1006/1106 VRB03KT 8000 BKN016 OVC045 \n  TEMPO 1006/1012 2500 BR OVC003 \n  TEMPO 1012/1018 23005KT 4000 BR BKN008 OVC025 \n  PROB30 \n  TEMPO 1018/1024 3500 -SN BR OVC008 \n  TEMPO 1100/1106 DRSN SCT025 \n  BECMG 1100/1103 31008KT",
      "metarHtml": "METAR LHBP 100730Z 01004KT 2500 <span class=\"hl\">BR</span> OVC005 M06/M07 Q1002 TEMPO 1400 <span class=\"hl\">BR</span> OVC004",
      "tafHtml": "TAF LHBP 100515Z 1006/1106 VRB03KT 8000 BKN016 OVC045 \n  TEMPO 1006/1012 2500 <span class=\"hl\">BR</span> OVC003 \n  TEMPO 1012/1018 23005KT 4000 <span class=\"hl\">BR</span> BKN008 OVC025 \n  PROB30 \n  TEMPO 1018/1024 3500 -<span class=\"hl\">SN</span> <span class=\"hl\">BR</span> OVC008 \n  TEMPO 1100/1106 DRSN SCT025 \n  BECMG 1100/1103 31008KT"
    },
    {
      "icao": "LKPR",
      "iata": "PRG",
      "name": "Václav Havel Airport Prague",
      "updatedAt": "100730Z",
      "visibility_m": 1200,
      "taf_visibility_m": 1200,
      "worst_visibility_m": 1200,
      "ceiling_ft": 200,
      "hazards": [
        "BR",
        "SN"
      ],
      "severityScore": 73,
      "metarRaw": "METAR LKPR 100730Z 01005KT 350V050 1200 R24/1900D R30/1200D SN BR BKN002 OVC004 M04/M05 Q1000 NOSIG",
      "tafRaw": "TAF LKPR 100500Z 1006/1112 06005KT 5000 BR SCT008 OVC013 \n  TEMPO 1006/1015 04009KT 2500 -SN BR SCT002 OVC004 \n  PROB30 \n  TEMPO 1006/1010 1200 SN BR BKN002 \n  BECMG 1016/1018 35013KT 9000 SCT020 \n  PROB30 \n  TEMPO 1021/1106 5000 -SN BR BKN012",
      "metarHtml": "METAR LKPR 100730Z 01005KT 350V050 1200 R24/1900D R30/1200D <span class=\"hl\">SN</span> <span class=\"hl\">BR</span> BKN002 OVC004 M04/M05 Q1000 NOSIG",
      "tafHtml": "TAF LKPR 100500Z 1006/1112 06005KT 5000 <span class=\"hl\">BR</span> SCT008 OVC013 \n  TEMPO 1006/1015 04009KT 2500 -<span class=\"hl\">SN</span> <span class=\"hl\">BR</span> SCT002 OVC004 \n  PROB30 \n  TEMPO 1006/1010 1200 <span class=\"hl\">SN</span> <span class=\"hl\">BR</span> BKN002 \n  BECMG 1016/1018 35013KT 9000 SCT020 \n  PROB30 \n  TEMPO 1021/1106 5000 -<span class=\"hl\">SN</span> <span class=\"hl\">BR</span> BKN012"
    },
    {
      "icao": "EDDN",
      "iata": "NUE",
      "name": "Nuremberg Airport",
      "updatedAt": "100720Z",
      "visibility_m": 3500,
      "taf_visibility_m": 800,
      "worst_visibility_m": 800,
      "ceiling_ft": 800,
      "hazards": [
        "SN"
      ],
      "severityScore": 68,
      "metarRaw": "METAR EDDN 100720Z AUTO 18004KT 9999 -SN FEW005 BKN028 OVC033 01/M00 Q0999 TEMPO 3500 -SN BKN008",
      "tafRaw": "TAF EDDN 100500Z 1006/1106 24007KT 9999 SCT008 BKN020 \n  BECMG 1006/1008 3500 -SN BKN008 \n  TEMPO 1007/1015 0800 SN VV002 \n  BECMG 1013/1015 35005KT \n  BECMG 1016/1018 6000 BKN020",
      "metarHtml": "METAR EDDN 100720Z AUTO 18004KT 9999 -<span class=\"hl\">SN</span> FEW005 BKN028 OVC033 01/M00 Q0999 TEMPO 3500 -<span class=\"hl\">SN</span> BKN008",
      "tafHtml": "TAF EDDN 100500Z 1006/1106 24007KT 9999 SCT008 BKN020 \n  BECMG 1006/1008 3500 -<span class=\"hl\">SN</span> BKN008 \n  TEMPO 1007/1015 <span class=\"hl-vis\">0800</span> <span class=\"hl\">SN</span> VV002 \n  BECMG 1013/1015 35005KT \n  BECMG 1016/1018 6000 BKN020"
    },
    {
      "icao": "EPRZ",
      "iata": "RZE",
      "name": "Rzeszów-Jasionka Airport",
      "updatedAt": "100730Z",
      "visibility_m": 5000,
      "taf_visibility_m": null,
      "worst_visibility_m": 5000,
      "ceiling_ft": 300,
      "hazards": [
        "BR",
        "SN"
      ],
      "severityScore": 68,
      "metarRaw": "METAR EPRZ 100730Z 28007KT 5000 -SN BR BKN003 OVC013 M11/M14 Q1003",
      "tafRaw": null,
      "metarHtml": "METAR EPRZ 100730Z 28007KT 5000 -<span class=\"hl\">SN</span> <span class=\"hl\">BR</span> BKN003 OVC013 M11/M14 Q1003",
      "tafHtml": null
    },
    {
      "icao": "EDJA",
      "iata": "FMM",
      "name": "Memmingen Allgau Airport",
      "updatedAt": "100720Z",
      "visibility_m": 10000,
      "taf_visibility_m": 800,
      "worst_visibility_m": 800,
      "ceiling_ft": 1300,
      "hazards": [
        "SN",
        "SHSN"
      ],
      "severityScore": 65,
      "metarRaw": "METAR EDJA 100720Z COR 24019G29KT 9999 -SN BKN013 BKN020 OVC039 01/M02 Q1000",
      "tafRaw": "TAF EDJA 100500Z 1006/1015 24015G25KT 9999 FEW015 OVC020 \n  TEMPO 1006/1013 24020G35KT 4000 -SN BKN012 \n  TEMPO 1013/1015 0800 SHSN BKN007TCU",
      "metarHtml": "METAR EDJA 100720Z COR 24019G29KT 9999 -<span class=\"hl\">SN</span> BKN013 BKN020 OVC039 01/M02 Q1000",
      "tafHtml": "TAF EDJA 100500Z 1006/1015 24015G25KT 9999 FEW015 OVC020 \n  TEMPO 1006/1013 24020G35KT 4000 -<span class=\"hl\">SN</span> BKN012 \n  TEMPO 1013/1015 <span class=\"hl-vis\">0800</span> <span class=\"hl\">SHSN</span> BKN007TCU"
    },
    {
      "icao": "EDFH",
      "iata": "HHN",
      "name": "Frankfurt-Hahn Airport",
      "updatedAt": "100720Z",
      "visibility_m": 2000,
      "taf_visibility_m": 1000,
      "worst_visibility_m": 1000,
      "ceiling_ft": 200,
      "hazards": [
        "SN"
      ],
      "severityScore": 63,
      "metarRaw": "METAR EDFH 100720Z 28010KT 250V310 2000 SN BKN002 OVC006 M02/M03 Q0998",
      "tafRaw": "TAF EDFH 100500Z 1006/1106 26012KT 7000 OVC005 \n  TEMPO 1006/1013 2000 -SN OVC002 \n  PROB40 \n  TEMPO 1006/1010 1000 SN OVC001 \n  BECMG 1009/1012 32008KT \n  TEMPO 1013/1020 4000 -SG BKN002 \n  BECMG 1017/1020 02004KT \n  TEMPO 1100/1106 SCT005 BKN040",
      "metarHtml": "METAR EDFH 100720Z 28010KT 250V310 2000 <span class=\"hl\">SN</span> BKN002 OVC006 M02/M03 Q0998",
      "tafHtml": "TAF EDFH 100500Z 1006/1106 26012KT 7000 OVC005 \n  TEMPO 1006/1013 2000 -<span class=\"hl\">SN</span> OVC002 \n  PROB40 \n  TEMPO 1006/1010 1000 <span class=\"hl\">SN</span> OVC001 \n  BECMG 1009/1012 32008KT \n  TEMPO 1013/1020 4000 -SG BKN002 \n  BECMG 1017/1020 02004KT \n  TEMPO 1100/1106 SCT005 BKN040"
    },
    {
      "icao": "EDLW",
      "iata": "DTM",
      "name": "Dortmund Airport",
      "updatedAt": "100720Z",
      "visibility_m": 4000,
      "taf_visibility_m": 1400,
      "worst_visibility_m": 1400,
      "ceiling_ft": 800,
      "hazards": [
        "SN",
        "BR"
      ],
      "severityScore": 63,
      "metarRaw": "METAR EDLW 100720Z 01010KT 350V050 4000 -SN SCT006 OVC008 M03/M04 Q1002",
      "tafRaw": "TAF EDLW 100500Z 1006/1106 05010KT 6000 SCT004 BKN007 \n  TEMPO 1006/1011 1400 SN BR BKN003 \n  BECMG 1011/1014 SCT020 \n  BECMG 1018/1020 08004KT \n  BECMG 1102/1105 15005KT",
      "metarHtml": "METAR EDLW 100720Z 01010KT 350V050 4000 -<span class=\"hl\">SN</span> SCT006 OVC008 M03/M04 Q1002",
      "tafHtml": "TAF EDLW 100500Z 1006/1106 05010KT 6000 SCT004 BKN007 \n  TEMPO 1006/1011 1400 <span class=\"hl\">SN</span> <span class=\"hl\">BR</span> BKN003 \n  BECMG 1011/1014 SCT020 \n  BECMG 1018/1020 08004KT \n  BECMG 1102/1105 15005KT"
    },
    {
      "icao": "EPKK",
      "iata": "KRK",
      "name": "Kraków John Paul II International Airport",
      "updatedAt": "100730Z",
      "visibility_m": 6000,
      "taf_visibility_m": 1400,
      "worst_visibility_m": 1400,
      "ceiling_ft": 800,
      "hazards": [
        "SN",
        "BR"
      ],
      "severityScore": 63,
      "metarRaw": "METAR EPKK 100730Z VRB01KT 6000 -SN OVC008 M11/M13 Q1003",
      "tafRaw": "TAF EPKK 100530Z 1006/1106 07007KT 6000 OVC006 \n  TEMPO 1006/1011 3000 -SN BR \n  BECMG 1009/1011 BKN020 \n  BECMG 1012/1015 27010KT \n  BECMG 1021/1024 27015G25KT 2500 -SN BR BKN007 \n  TEMPO 1100/1106 1400 SN DRSN BKN004",
      "metarHtml": "METAR EPKK 100730Z VRB01KT 6000 -<span class=\"hl\">SN</span> OVC008 M11/M13 Q1003",
      "tafHtml": "TAF EPKK 100530Z 1006/1106 07007KT 6000 OVC006 \n  TEMPO 1006/1011 3000 -<span class=\"hl\">SN</span> <span class=\"hl\">BR</span> \n  BECMG 1009/1011 BKN020 \n  BECMG 1012/1015 27010KT \n  BECMG 1021/1024 27015G25KT 2500 -<span class=\"hl\">SN</span> <span class=\"hl\">BR</span> BKN007 \n  TEMPO 1100/1106 1400 <span class=\"hl\">SN</span> DRSN BKN004"
    },
    {
      "icao": "EPMO",
      "iata": "WMI",
      "name": "Modlin Airport",
      "updatedAt": "100730Z",
      "visibility_m": 10000,
      "taf_visibility_m": 600,
      "worst_visibility_m": 600,
      "ceiling_ft": null,
      "hazards": [
        "BR",
        "SN",
        "SHSN"
      ],
      "severityScore": 63,
      "metarRaw": "METAR EPMO 100730Z 28006KT 9999 FEW014 SCT022 M15/M16 Q1003",
      "tafRaw": "TAF EPMO 100530Z 1006/1106 29007KT CAVOK \n  PROB40 \n  TEMPO 1006/1012 3000 -SN DRSN BKN010 \n  TEMPO 1009/1106 2000 SN BR BKN006 BKN012 \n  PROB40 \n  TEMPO 1014/1022 0600 +SHSN BKN003 BKN010CB",
      "metarHtml": "METAR EPMO 100730Z 28006KT 9999 FEW014 SCT022 M15/M16 Q1003",
      "tafHtml": "TAF EPMO 100530Z 1006/1106 29007KT <span class=\"hl-vis\">CAVOK</span> \n  PROB40 \n  TEMPO 1006/1012 3000 -<span class=\"hl\">SN</span> DRSN BKN010 \n  TEMPO 1009/1106 2000 <span class=\"hl\">SN</span> <span class=\"hl\">BR</span> BKN006 BKN012 \n  PROB40 \n  TEMPO 1014/1022 <span class=\"hl-vis\">0600</span> +<span class=\"hl\">SHSN</span> BKN003 BKN010CB"
    },
    {
      "icao": "EPWA",
      "iata": "WAW",
      "name": "Warsaw Chopin Airport",
      "updatedAt": "100730Z",
      "visibility_m": 10000,
      "taf_visibility_m": 600,
      "worst_visibility_m": 600,
      "ceiling_ft": null,
      "hazards": [
        "BR",
        "SN",
        "SHSN"
      ],
      "severityScore": 63,
      "metarRaw": "METAR EPWA 100730Z 26004KT CAVOK M15/M17 Q1003 NOSIG",
      "tafRaw": "TAF EPWA 100530Z 1006/1106 28005KT CAVOK \n  PROB40 \n  TEMPO 1007/1011 3500 -SN DRSN BKN010 \n  TEMPO 1011/1106 2000 SN BR BKN006 BKN012 \n  PROB40 \n  TEMPO 1015/1024 0600 +SHSN BKN003 BKN010CB",
      "metarHtml": "METAR EPWA 100730Z 26004KT <span class=\"hl-vis\">CAVOK</span> M15/M17 Q1003 NOSIG",
      "tafHtml": "TAF EPWA 100530Z 1006/1106 28005KT <span class=\"hl-vis\">CAVOK</span> \n  PROB40 \n  TEMPO 1007/1011 3500 -<span class=\"hl\">SN</span> DRSN BKN010 \n  TEMPO 1011/1106 2000 <span class=\"hl\">SN</span> <span class=\"hl\">BR</span> BKN006 BKN012 \n  PROB40 \n  TEMPO 1015/1024 <span class=\"hl-vis\">0600</span> +<span class=\"hl\">SHSN</span> BKN003 BKN010CB"
    },
    {
      "icao": "BKPR",
      "iata": "PRN",
      "name": "Priština Adem Jashari International Airport",
      "updatedAt": "100730Z",
      "visibility_m": 6000,
      "taf_visibility_m": 800,
      "worst_visibility_m": 800,
      "ceiling_ft": 3000,
      "hazards": [
        "SN",
        "RA"
      ],
      "severityScore": 55,
      "metarRaw": "METAR BKPR 100730Z 15005KT 6000 SCT010 BKN030 01/01 Q0999 NOSIG",
      "tafRaw": "TAF BKPR 100530Z 1006/1106 17008KT 9999 SCT020 BKN040 \n  TEMPO 1006/1012 4000 RA \n  TEMPO 1012/1015 3000 RASN BKN010 OVC020 \n  BECMG 1013/1015 35012KT \n  TEMPO 1015/1024 0800 SN BKN007 OVC015",
      "metarHtml": "METAR BKPR 100730Z 15005KT 6000 SCT010 BKN030 01/01 Q0999 NOSIG",
      "tafHtml": "TAF BKPR 100530Z 1006/1106 17008KT 9999 SCT020 BKN040 \n  TEMPO 1006/1012 4000 <span class=\"hl\">RA</span> \n  TEMPO 1012/1015 3000 RASN BKN010 OVC020 \n  BECMG 1013/1015 35012KT \n  TEMPO 1015/1024 <span class=\"hl-vis\">0800</span> <span class=\"hl\">SN</span> BKN007 OVC015"
    },
    {
      "icao": "EHBK",
      "iata": "MST",
      "name": "Maastricht Aachen Airport",
      "updatedAt": "100725Z",
      "visibility_m": 2800,
      "taf_visibility_m": 2000,
      "worst_visibility_m": 2000,
      "ceiling_ft": 800,
      "hazards": [
        "SN",
        "BR"
      ],
      "severityScore": 53,
      "metarRaw": "METAR EHBK 100725Z AUTO 34007KT 2800 -SN FEW006 SCT007 BKN008 M03/M03 Q1003 BECMG 6000 NSW TEMPO BKN012",
      "tafRaw": "TAF EHBK 100513Z 1006/1112 32007KT 4000 -SN BR BKN008 \n  PROB40 \n  TEMPO 1006/1009 2000 BKN004 \n  BECMG 1009/1012 9999 NSW BKN012 \n  BECMG 1014/1017 VRB02KT BKN018",
      "metarHtml": "METAR EHBK 100725Z AUTO 34007KT 2800 -<span class=\"hl\">SN</span> FEW006 SCT007 BKN008 M03/M03 Q1003 BECMG 6000 NSW TEMPO BKN012",
      "tafHtml": "TAF EHBK 100513Z 1006/1112 32007KT 4000 -<span class=\"hl\">SN</span> <span class=\"hl\">BR</span> BKN008 \n  PROB40 \n  TEMPO 1006/1009 2000 BKN004 \n  BECMG 1009/1012 9999 NSW BKN012 \n  BECMG 1014/1017 VRB02KT BKN018"
    },
    {
      "icao": "EDSB",
      "iata": "FKB",
      "name": "Karlsruhe Baden-Baden Airport",
      "updatedAt": "100720Z",
      "visibility_m": 8000,
      "taf_visibility_m": 1200,
      "worst_visibility_m": 1200,
      "ceiling_ft": 1100,
      "hazards": [
        "RA",
        "SN"
      ],
      "severityScore": 52,
      "metarRaw": "METAR EDSB 100720Z 20013KT 8000 RA FEW008 OVC011 02/01 Q1002",
      "tafRaw": "TAF EDSB 100500Z 1006/1106 21013KT 9999 BKN020 \n  TEMPO 1006/1008 21015G25KT 4500 RA BKN012 \n  TEMPO 1008/1014 3500 RASN BKN009 \n  BECMG 1011/1013 23008KT \n  TEMPO 1014/1018 3000 -SN BKN009 \n  PROB30 \n  TEMPO 1014/1017 1200 SN BKN004 \n  BECMG 1017/1020 33005KT BKN010 \n  TEMPO 1019/1106 BKN005 \n  BECMG 1022/1101 03006KT",
      "metarHtml": "METAR EDSB 100720Z 20013KT 8000 <span class=\"hl\">RA</span> FEW008 OVC011 02/01 Q1002",
      "tafHtml": "TAF EDSB 100500Z 1006/1106 21013KT 9999 BKN020 \n  TEMPO 1006/1008 21015G25KT 4500 <span class=\"hl\">RA</span> BKN012 \n  TEMPO 1008/1014 3500 RASN BKN009 \n  BECMG 1011/1013 23008KT \n  TEMPO 1014/1018 3000 -<span class=\"hl\">SN</span> BKN009 \n  PROB30 \n  TEMPO 1014/1017 1200 <span class=\"hl\">SN</span> BKN004 \n  BECMG 1017/1020 33005KT BKN010 \n  TEMPO 1019/1106 BKN005 \n  BECMG 1022/1101 03006KT"
    },
    {
      "icao": "LATI",
      "iata": "TIA",
      "name": "Tirana International Airport Mother Teresa",
      "updatedAt": "100750Z",
      "visibility_m": 10000,
      "taf_visibility_m": 3000,
      "worst_visibility_m": 3000,
      "ceiling_ft": 3500,
      "hazards": [
        "RA",
        "TSRA",
        "SHRA"
      ],
      "severityScore": 51,
      "metarRaw": "METAR LATI 100750Z 17006KT 9999 -RA FEW020 BKN035 OVC055 10/08 Q1000 NOSIG",
      "tafRaw": "TAF LATI 100500Z 1006/1106 12008KT 9999 BKN080 TX11/1012Z TN05/1106Z \n  TEMPO 1008/1020 VRB15G25KT 3000 TSRA SCT020CB OVC040 \n  TEMPO 1020/1106 SHRA FEW025CB BKN050",
      "metarHtml": "METAR LATI 100750Z 17006KT 9999 -<span class=\"hl\">RA</span> FEW020 BKN035 OVC055 10/08 Q1000 NOSIG",
      "tafHtml": "TAF LATI 100500Z 1006/1106 12008KT 9999 BKN080 TX11/1012Z TN05/1106Z \n  TEMPO 1008/1020 VRB15G25KT 3000 <span class=\"hl\">TSRA</span> SCT020CB OVC040 \n  TEMPO 1020/1106 <span class=\"hl\">SHRA</span> FEW025CB BKN050"
    },
    {
      "icao": "LFLS",
      "iata": "GNB",
      "name": "Grenoble Alpes Isère Airport",
      "updatedAt": "100730Z",
      "visibility_m": 1500,
      "taf_visibility_m": null,
      "worst_visibility_m": 1500,
      "ceiling_ft": 800,
      "hazards": [
        "SHSN"
      ],
      "severityScore": 50,
      "metarRaw": "METAR LFLS 100730Z AUTO 00000KT 9999 -RADZ BKN027 BKN036 OVC042 01/00 Q1012 TEMPO 1500 -SHSN BKN008 SCT030TCU",
      "tafRaw": null,
      "metarHtml": "METAR LFLS 100730Z AUTO 00000KT 9999 -RADZ BKN027 BKN036 OVC042 01/00 Q1012 TEMPO 1500 -<span class=\"hl\">SHSN</span> BKN008 SCT030TCU",
      "tafHtml": null
    },
    {
      "icao": "LRSB",
      "iata": "SBZ",
      "name": "Sibiu International Airport",
      "updatedAt": "100730Z",
      "visibility_m": 7000,
      "taf_visibility_m": 1500,
      "worst_visibility_m": 1500,
      "ceiling_ft": 1500,
      "hazards": [
        "BR",
        "SN"
      ],
      "severityScore": 50,
      "metarRaw": "METAR LRSB 100730Z 36005KT 7000 FEW005 BKN015 M04/M05 Q1000",
      "tafRaw": "TAF LRSB 100500Z 1006/1106 VRB04KT 9999 BKN020 \n  TEMPO 1006/1008 5000 -SN BKN010 OVC020 \n  BECMG 1016/1018 3000 BR BKN010 BKN030 \n  TEMPO 1020/1023 1500 BR BKN005 \n  BECMG 1023/1101 5000 -SN BKN005 OVC030 \n  TEMPO 1101/1106 3000 SN BKN002 OVC020",
      "metarHtml": "METAR LRSB 100730Z 36005KT 7000 FEW005 BKN015 M04/M05 Q1000",
      "tafHtml": "TAF LRSB 100500Z 1006/1106 VRB04KT 9999 BKN020 \n  TEMPO 1006/1008 5000 -<span class=\"hl\">SN</span> BKN010 OVC020 \n  BECMG 1016/1018 3000 <span class=\"hl\">BR</span> BKN010 BKN030 \n  TEMPO 1020/1023 1500 <span class=\"hl\">BR</span> BKN005 \n  BECMG 1023/1101 5000 -<span class=\"hl\">SN</span> BKN005 OVC030 \n  TEMPO 1101/1106 3000 <span class=\"hl\">SN</span> BKN002 OVC020"
    },
    {
      "icao": "LYPG",
      "iata": "TGD",
      "name": "Podgorica Airport / Podgorica Golubovci Airbase",
      "updatedAt": "100730Z",
      "visibility_m": 2000,
      "taf_visibility_m": 2000,
      "worst_visibility_m": 2000,
      "ceiling_ft": 5000,
      "hazards": [
        "BR",
        "RA",
        "TSRA"
      ],
      "severityScore": 47,
      "metarRaw": "METAR LYPG 100730Z VRB01KT 3000 -RA BR FEW006 SCT030 BKN050 05/05 Q0998 TEMPO 2000 RA",
      "tafRaw": "TAF LYPG 100500Z 1006/1106 16005KT 9999 FEW010 BKN030 OVC070 TX08/1012Z TN04/1105Z \n  TEMPO 1006/1024 5000 RA \n  PROB40 \n  TEMPO 1006/1016 VRB15G25KT 2000 TSRA FEW010 SCT025CB BKN030 \n  BECMG 1017/1019 36015G30KT",
      "metarHtml": "METAR LYPG 100730Z VRB01KT 3000 -<span class=\"hl\">RA</span> <span class=\"hl\">BR</span> FEW006 SCT030 BKN050 05/05 Q0998 TEMPO 2000 <span class=\"hl\">RA</span>",
      "tafHtml": "TAF LYPG 100500Z 1006/1106 16005KT 9999 FEW010 BKN030 OVC070 TX08/1012Z TN04/1105Z \n  TEMPO 1006/1024 5000 <span class=\"hl\">RA</span> \n  PROB40 \n  TEMPO 1006/1016 VRB15G25KT 2000 <span class=\"hl\">TSRA</span> FEW010 SCT025CB BKN030 \n  BECMG 1017/1019 36015G30KT"
    },
    {
      "icao": "LZKZ",
      "iata": "KSC",
      "name": "Košice International Airport",
      "updatedAt": "100730Z",
      "visibility_m": 5000,
      "taf_visibility_m": 10000,
      "worst_visibility_m": 5000,
      "ceiling_ft": 400,
      "hazards": [
        "BR"
      ],
      "severityScore": 45,
      "metarRaw": "METAR LZKZ 100730Z 01006KT 5000 BR OVC006 M08/M09 Q1001 TEMPO OVC004",
      "tafRaw": "TAF LZKZ 100515Z 1006/1106 03006KT 9999 BKN009 \n  BECMG 1007/1009 BKN016 \n  BECMG 1012/1014 02013KT FEW045 \n  PROB30 \n  TEMPO 1013/1019 02018G28KT \n  BECMG 1023/1101 19004KT",
      "metarHtml": "METAR LZKZ 100730Z 01006KT 5000 <span class=\"hl\">BR</span> OVC006 M08/M09 Q1001 TEMPO OVC004",
      "tafHtml": "TAF LZKZ 100515Z 1006/1106 03006KT 9999 BKN009 \n  BECMG 1007/1009 BKN016 \n  BECMG 1012/1014 02013KT FEW045 \n  PROB30 \n  TEMPO 1013/1019 02018G28KT \n  BECMG 1023/1101 19004KT"
    },
    {
      "icao": "EYKA",
      "iata": "KUN",
      "name": "Kaunas International Airport",
      "updatedAt": "100750Z",
      "visibility_m": 9000,
      "taf_visibility_m": 800,
      "worst_visibility_m": 800,
      "ceiling_ft": 4700,
      "hazards": [
        "SN"
      ],
      "severityScore": 43,
      "metarRaw": "METAR EYKA 100750Z 36005KT 320V030 9000 -SN BKN047 M09/M12 Q1000",
      "tafRaw": "TAF EYKA 100500Z 1006/1106 36010KT 5000 SN SCT010 BKN015 \n  TEMPO 1006/1014 1500 SCT005 BKN015 \n  PROB40 \n  TEMPO 1006/1014 0800 +SN BKN010 \n  BECMG 1014/1015 8000 NSW NSC \n  BECMG 1018/1019 VRB04KT \n  BECMG 1023/1024 SCT010 \n  TEMPO 1103/1106 5000 SN SCT005",
      "metarHtml": "METAR EYKA 100750Z 36005KT 320V030 9000 -<span class=\"hl\">SN</span> BKN047 M09/M12 Q1000",
      "tafHtml": "TAF EYKA 100500Z 1006/1106 36010KT 5000 <span class=\"hl\">SN</span> SCT010 BKN015 \n  TEMPO 1006/1014 1500 SCT005 BKN015 \n  PROB40 \n  TEMPO 1006/1014 <span class=\"hl-vis\">0800</span> +<span class=\"hl\">SN</span> BKN010 \n  BECMG 1014/1015 8000 NSW NSC \n  BECMG 1018/1019 VRB04KT \n  BECMG 1023/1024 SCT010 \n  TEMPO 1103/1106 5000 <span class=\"hl\">SN</span> SCT005"
    },
    {
      "icao": "LZIB",
      "iata": "BTS",
      "name": "M. R. Štefánik Airport",
      "updatedAt": "100730Z",
      "visibility_m": 7000,
      "taf_visibility_m": 3500,
      "worst_visibility_m": 3500,
      "ceiling_ft": 700,
      "hazards": [
        "SN"
      ],
      "severityScore": 43,
      "metarRaw": "METAR LZIB 100730Z VRB02KT 7000 FEW007 M04/M06 Q1002 TEMPO BKN007",
      "tafRaw": "TAF LZIB 100515Z 1006/1106 06004KT 9999 BKN007 OVC012 \n  BECMG 1007/1009 SCT010 SCT030 \n  PROB30 \n  TEMPO 1013/1016 3500 -SN BKN012 OVC025 \n  BECMG 1014/1016 01011KT FEW040 \n  BECMG 1020/1022 31018KT \n  TEMPO 1103/1106 31022G32KT",
      "metarHtml": "METAR LZIB 100730Z VRB02KT 7000 FEW007 M04/M06 Q1002 TEMPO BKN007",
      "tafHtml": "TAF LZIB 100515Z 1006/1106 06004KT 9999 BKN007 OVC012 \n  BECMG 1007/1009 SCT010 SCT030 \n  PROB30 \n  TEMPO 1013/1016 3500 -<span class=\"hl\">SN</span> BKN012 OVC025 \n  BECMG 1014/1016 01011KT FEW040 \n  BECMG 1020/1022 31018KT \n  TEMPO 1103/1106 31022G32KT"
    },
    {
      "icao": "EHEH",
      "iata": "EIN",
      "name": "Eindhoven Airport",
      "updatedAt": "100725Z",
      "visibility_m": 3500,
      "taf_visibility_m": 3500,
      "worst_visibility_m": 3500,
      "ceiling_ft": 1200,
      "hazards": [
        "BR",
        "SN"
      ],
      "severityScore": 40,
      "metarRaw": "METAR EHEH 100725Z AUTO 36008KT 320V040 7000 BR FEW009 SCT010 BKN013 M02/M04 Q1004 GRN TEMPO 3500 SCT008 BKN012 RMK TREND REMOTE BY EHWX",
      "tafRaw": "TAF EHEH 100525Z 1006/1112 02009KT 8000 -SN BKN012 \n  TEMPO 1003/1010 3500 -SN SCT006 BKN009 \n  BECMG 1010/1013 9999 NSW BKN025 \n  BECMG 1021/1023 12006KT",
      "metarHtml": "METAR EHEH 100725Z AUTO 36008KT 320V040 7000 <span class=\"hl\">BR</span> FEW009 SCT010 BKN013 M02/M04 Q1004 GRN TEMPO 3500 SCT008 BKN012 RMK TREND REMOTE BY EHWX",
      "tafHtml": "TAF EHEH 100525Z 1006/1112 02009KT 8000 -<span class=\"hl\">SN</span> BKN012 \n  TEMPO 1003/1010 3500 -<span class=\"hl\">SN</span> SCT006 BKN009 \n  BECMG 1010/1013 9999 NSW BKN025 \n  BECMG 1021/1023 12006KT"
    },
    {
      "icao": "LBSF",
      "iata": "SOF",
      "name": "Sofia Airport",
      "updatedAt": "100730Z",
      "visibility_m": 10000,
      "taf_visibility_m": 1500,
      "worst_visibility_m": 1500,
      "ceiling_ft": 3600,
      "hazards": [
        "RA",
        "SN"
      ],
      "severityScore": 40,
      "metarRaw": "METAR LBSF 100730Z 09004KT 9999 -RA FEW032 OVC036 02/01 Q1001 NOSIG",
      "tafRaw": "TAF LBSF 100500Z 1006/1106 VRB03KT 7000 SCT030 BKN050 \n  TEMPO 1006/1008 2000 SNRA BKN010 OVC030 \n  TEMPO 1008/1015 5000 RA SCT015 BKN030 OVC050 \n  BECMG 1018/1020 30016KT \n  TEMPO 1020/1024 3000 RASN SCT015 BKN030 OVC050 \n  TEMPO 1100/1106 1500 SN SCT008 BKN015 OVC030",
      "metarHtml": "METAR LBSF 100730Z 09004KT 9999 -<span class=\"hl\">RA</span> FEW032 OVC036 02/01 Q1001 NOSIG",
      "tafHtml": "TAF LBSF 100500Z 1006/1106 VRB03KT 7000 SCT030 BKN050 \n  TEMPO 1006/1008 2000 SNRA BKN010 OVC030 \n  TEMPO 1008/1015 5000 <span class=\"hl\">RA</span> SCT015 BKN030 OVC050 \n  BECMG 1018/1020 30016KT \n  TEMPO 1020/1024 3000 RASN SCT015 BKN030 OVC050 \n  TEMPO 1100/1106 1500 <span class=\"hl\">SN</span> SCT008 BKN015 OVC030"
    },
    {
      "icao": "LTFM",
      "iata": "IST",
      "name": "İstanbul Airport",
      "updatedAt": "100720Z",
      "visibility_m": 8000,
      "taf_visibility_m": 4000,
      "worst_visibility_m": 4000,
      "ceiling_ft": 9000,
      "hazards": [
        "SHRA",
        "TSRA"
      ],
      "severityScore": 39,
      "metarRaw": "METAR LTFM 100720Z 21020KT 8000 -SHRA SCT035 BKN090 11/08 Q1003 NOSIG RMK RWY17L 20020KT RWY34L 19018KT RWY16R 20020KT RWY36 21021KT RWY18 21025KT",
      "tafRaw": "TAF LTFM 100440Z 1006/1112 20020KT 9999 SCT035 BKN090 \n  BECMG 1007/1009 21025G44KT \n  BECMG 1009/1012 -SHRA BKN025 BKN090 \n  BECMG 1012/1014 21022G34KT \n  TEMPO 1014/1018 4000 TSRA FEW018CB BKN022 \n  BECMG 1020/1022 21014G24KT \n  BECMG 1104/1107 34015KT BKN008 BKN022 \n  TEMPO 1104/1108 28015G25KT -TSRA FEW018CB BKN022",
      "metarHtml": "METAR LTFM 100720Z 21020KT 8000 -<span class=\"hl\">SHRA</span> SCT035 BKN090 11/08 Q1003 NOSIG RMK RWY17L 20020KT RWY34L 19018KT RWY16R 20020KT RWY36 21021KT RWY18 21025KT",
      "tafHtml": "TAF LTFM 100440Z 1006/1112 20020KT 9999 SCT035 BKN090 \n  BECMG 1007/1009 21025G44KT \n  BECMG 1009/1012 -<span class=\"hl\">SHRA</span> BKN025 BKN090 \n  BECMG 1012/1014 21022G34KT \n  TEMPO 1014/1018 4000 <span class=\"hl\">TSRA</span> FEW018CB BKN022 \n  BECMG 1020/1022 21014G24KT \n  BECMG 1104/1107 34015KT BKN008 BKN022 \n  TEMPO 1104/1108 28015G25KT -<span class=\"hl\">TSRA</span> FEW018CB BKN022"
    },
    {
      "icao": "EPKT",
      "iata": "KTW",
      "name": "Katowice Wojciech Korfanty International Airport",
      "updatedAt": "100730Z",
      "visibility_m": 8000,
      "taf_visibility_m": 1200,
      "worst_visibility_m": 1200,
      "ceiling_ft": null,
      "hazards": [
        "BR",
        "SN"
      ],
      "severityScore": 38,
      "metarRaw": "METAR EPKT 100730Z 35004KT 8000 SCT006 M12/M14 Q1003",
      "tafRaw": "TAF EPKT 100530Z 1006/1106 04004KT 9999 OVC007 \n  TEMPO 1006/1008 4000 -SN BR \n  BECMG 1008/1011 34010KT SCT030 \n  BECMG 1017/1020 28010KT 2000 -SN BR BKN005 \n  TEMPO 1020/1024 1400 SN BR BKN003 \n  TEMPO 1100/1106 28015G25KT 1200 SN DRSN BKN003",
      "metarHtml": "METAR EPKT 100730Z 35004KT 8000 SCT006 M12/M14 Q1003",
      "tafHtml": "TAF EPKT 100530Z 1006/1106 04004KT 9999 OVC007 \n  TEMPO 1006/1008 4000 -<span class=\"hl\">SN</span> <span class=\"hl\">BR</span> \n  BECMG 1008/1011 34010KT SCT030 \n  BECMG 1017/1020 28010KT 2000 -<span class=\"hl\">SN</span> <span class=\"hl\">BR</span> BKN005 \n  TEMPO 1020/1024 1400 <span class=\"hl\">SN</span> <span class=\"hl\">BR</span> BKN003 \n  TEMPO 1100/1106 28015G25KT 1200 <span class=\"hl\">SN</span> DRSN BKN003"
    },
    {
      "icao": "LBWN",
      "iata": "VAR",
      "name": "Varna Airport",
      "updatedAt": "100730Z",
      "visibility_m": 10000,
      "taf_visibility_m": 3000,
      "worst_visibility_m": 3000,
      "ceiling_ft": 4500,
      "hazards": [
        "RA",
        "TSRA"
      ],
      "severityScore": 37,
      "metarRaw": "METAR LBWN 100730Z VRB02KT 9999 -RA OVC045 05/01 Q1000 NOSIG",
      "tafRaw": "TAF LBWN 100500Z 1006/1106 VRB04KT 9999 BKN040 \n  TEMPO 1006/1012 5000 RA \n  BECMG 1012/1014 5000 RA BKN015 OVC040 \n  PROB40 \n  TEMPO 1016/1021 4000 TSRA FEW030CB BKN040 \n  BECMG 1022/1024 35015G25KT \n  PROB40 \n  TEMPO 1102/1106 3000 RASN BKN005 OVC020",
      "metarHtml": "METAR LBWN 100730Z VRB02KT 9999 -<span class=\"hl\">RA</span> OVC045 05/01 Q1000 NOSIG",
      "tafHtml": "TAF LBWN 100500Z 1006/1106 VRB04KT 9999 BKN040 \n  TEMPO 1006/1012 5000 <span class=\"hl\">RA</span> \n  BECMG 1012/1014 5000 <span class=\"hl\">RA</span> BKN015 OVC040 \n  PROB40 \n  TEMPO 1016/1021 4000 <span class=\"hl\">TSRA</span> FEW030CB BKN040 \n  BECMG 1022/1024 35015G25KT \n  PROB40 \n  TEMPO 1102/1106 3000 RASN BKN005 OVC020"
    },
    {
      "icao": "LIRF",
      "iata": "FCO",
      "name": "Rome–Fiumicino Leonardo da Vinci International Airport",
      "updatedAt": "100720Z",
      "visibility_m": 9000,
      "taf_visibility_m": 3000,
      "worst_visibility_m": 3000,
      "ceiling_ft": 2500,
      "hazards": [
        "RA",
        "TSRA"
      ],
      "severityScore": 37,
      "metarRaw": "METAR LIRF 100720Z 33011G21KT 300V010 9000 RA SCT010CB BKN025 07/06 Q1000 RETS NOSIG",
      "tafRaw": "TAF LIRF 100500Z 1006/1112 25023G35KT 9999 SCT025 \n  TEMPO 1006/1010 3000 TSRA \n  BECMG 1006/1008 30020G30KT \n  BECMG 1012/1014 32015KT \n  BECMG 1014/1016 02008KT",
      "metarHtml": "METAR LIRF 100720Z 33011G21KT 300V010 9000 <span class=\"hl\">RA</span> SCT010CB BKN025 07/06 Q1000 RETS NOSIG",
      "tafHtml": "TAF LIRF 100500Z 1006/1112 25023G35KT 9999 SCT025 \n  TEMPO 1006/1010 3000 <span class=\"hl\">TSRA</span> \n  BECMG 1006/1008 30020G30KT \n  BECMG 1012/1014 32015KT \n  BECMG 1014/1016 02008KT"
    },
    {
      "icao": "LIRN",
      "iata": "NAP",
      "name": "Naples International Airport",
      "updatedAt": "100720Z",
      "visibility_m": 7000,
      "taf_visibility_m": 4000,
      "worst_visibility_m": 4000,
      "ceiling_ft": 4000,
      "hazards": [
        "RA",
        "TSRA"
      ],
      "severityScore": 37,
      "metarRaw": "METAR LIRN 100720Z 26017KT 230V290 7000 -RA BKN040 11/06 Q1000 NOSIG",
      "tafRaw": "TAF LIRN 100500Z 1006/1106 26020G32KT 9999 SCT030 \n  TEMPO 1006/1012 4000 TSRA",
      "metarHtml": "METAR LIRN 100720Z 26017KT 230V290 7000 -<span class=\"hl\">RA</span> BKN040 11/06 Q1000 NOSIG",
      "tafHtml": "TAF LIRN 100500Z 1006/1106 26020G32KT 9999 SCT030 \n  TEMPO 1006/1012 4000 <span class=\"hl\">TSRA</span>"
    },
    {
      "icao": "LFBD",
      "iata": "BOD",
      "name": "Bordeaux–Mérignac Airport",
      "updatedAt": "100730Z",
      "visibility_m": 2000,
      "taf_visibility_m": 2000,
      "worst_visibility_m": 2000,
      "ceiling_ft": null,
      "hazards": [
        "RA",
        "SHRA",
        "BR"
      ],
      "severityScore": 36,
      "metarRaw": "METAR LFBD 100730Z AUTO 22004KT 180V310 9999 -RA BKN030/// BKN039/// BKN048/// ///TCU 05/04 Q1019 TEMPO VRB15G30KT 2000 SHRA BKN025CB",
      "tafRaw": "TAF LFBD 100500Z 1006/1112 30005KT 9999 SCT030 TX09/1013Z TN02/1022Z \n  TEMPO 1006/1018 4000 SHRA BKN030TCU \n  PROB40 \n  TEMPO 1009/1018 VRB15G30KT 2000 SHRA BKN025CB \n  BECMG 1018/1020 VRB02KT \n  PROB40 \n  TEMPO 1100/1105 4000 BR \n  BECMG 1105/1107 14005KT \n  TEMPO 1107/1112 4000 BR BKN002",
      "metarHtml": "METAR LFBD 100730Z AUTO 22004KT 180V310 9999 -<span class=\"hl\">RA</span> BKN030/// BKN039/// BKN048/// ///TCU 05/04 Q1019 TEMPO VRB15G30KT 2000 <span class=\"hl\">SHRA</span> BKN025CB",
      "tafHtml": "TAF LFBD 100500Z 1006/1112 30005KT 9999 SCT030 TX09/1013Z TN02/1022Z \n  TEMPO 1006/1018 4000 <span class=\"hl\">SHRA</span> BKN030TCU \n  PROB40 \n  TEMPO 1009/1018 VRB15G30KT 2000 <span class=\"hl\">SHRA</span> BKN025CB \n  BECMG 1018/1020 VRB02KT \n  PROB40 \n  TEMPO 1100/1105 4000 <span class=\"hl\">BR</span> \n  BECMG 1105/1107 14005KT \n  TEMPO 1107/1112 4000 <span class=\"hl\">BR</span> BKN002"
    },
    {
      "icao": "EGGW",
      "iata": "LTN",
      "name": "London Luton Airport",
      "updatedAt": "100720Z",
      "visibility_m": 10000,
      "taf_visibility_m": 4000,
      "worst_visibility_m": 4000,
      "ceiling_ft": 600,
      "hazards": [
        "BR"
      ],
      "severityScore": 35,
      "metarRaw": "METAR EGGW 100720Z AUTO 33013KT 300V360 9999 BKN006 M00/M01 Q1012",
      "tafRaw": "TAF EGGW 100455Z 1006/1106 34012KT 9999 SCT010 \n  TEMPO 1006/1012 BKN006 \n  PROB30 \n  TEMPO 1006/1010 BKN004 \n  BECMG 1015/1018 VRB04KT \n  TEMPO 1018/1105 7000 \n  PROB40 1021/1104 4000 BR \n  BECMG 1103/1106 15012KT",
      "metarHtml": "METAR EGGW 100720Z AUTO 33013KT 300V360 9999 BKN006 M00/M01 Q1012",
      "tafHtml": "TAF EGGW 100455Z 1006/1106 34012KT 9999 SCT010 \n  TEMPO 1006/1012 BKN006 \n  PROB30 \n  TEMPO 1006/1010 BKN004 \n  BECMG 1015/1018 VRB04KT \n  TEMPO 1018/1105 7000 \n  PROB40 1021/1104 4000 <span class=\"hl\">BR</span> \n  BECMG 1103/1106 15012KT"
    },
    {
      "icao": "EGKK",
      "iata": "LGW",
      "name": "London Gatwick Airport",
      "updatedAt": "100720Z",
      "visibility_m": 10000,
      "taf_visibility_m": 4000,
      "worst_visibility_m": 4000,
      "ceiling_ft": 1200,
      "hazards": [
        "BR",
        "RA"
      ],
      "severityScore": 34,
      "metarRaw": "METAR EGKK 100720Z 33010KT 9999 BKN012 01/M01 Q1012",
      "tafRaw": "TAF EGKK 100457Z 1006/1112 33010KT 9999 SCT015 \n  PROB30 \n  TEMPO 1006/1012 BKN011 \n  BECMG 1015/1018 VRB03KT \n  TEMPO 1018/1104 7000 \n  PROB40 1022/1103 4000 BR \n  BECMG 1105/1108 15010KT \n  PROB30 \n  TEMPO 1110/1112 16015G25KT 9000 -RA",
      "metarHtml": "METAR EGKK 100720Z 33010KT 9999 BKN012 01/M01 Q1012",
      "tafHtml": "TAF EGKK 100457Z 1006/1112 33010KT 9999 SCT015 \n  PROB30 \n  TEMPO 1006/1012 BKN011 \n  BECMG 1015/1018 VRB03KT \n  TEMPO 1018/1104 7000 \n  PROB40 1022/1103 4000 <span class=\"hl\">BR</span> \n  BECMG 1105/1108 15010KT \n  PROB30 \n  TEMPO 1110/1112 16015G25KT 9000 -<span class=\"hl\">RA</span>"
    },
    {
      "icao": "LKMT",
      "iata": "OSR",
      "name": "Ostrava Leos Janáček Airport",
      "updatedAt": "100730Z",
      "visibility_m": 1800,
      "taf_visibility_m": null,
      "worst_visibility_m": 1800,
      "ceiling_ft": 2700,
      "hazards": [
        "BR",
        "SN"
      ],
      "severityScore": 33,
      "metarRaw": "METAR LKMT 100730Z 01008KT 1800 -SN BR FEW010 SCT019 OVC027 M09/M11 Q1003 NOSIG",
      "tafRaw": null,
      "metarHtml": "METAR LKMT 100730Z 01008KT 1800 -<span class=\"hl\">SN</span> <span class=\"hl\">BR</span> FEW010 SCT019 OVC027 M09/M11 Q1003 NOSIG",
      "tafHtml": null
    },
    {
      "icao": "LFSB",
      "iata": "BSL",
      "name": "EuroAirport Basel–Mulhouse–Freiburg",
      "updatedAt": "100730Z",
      "visibility_m": 3000,
      "taf_visibility_m": 1200,
      "worst_visibility_m": 1200,
      "ceiling_ft": null,
      "hazards": [
        "RA",
        "SHSN"
      ],
      "severityScore": 32,
      "metarRaw": "METAR LFSB 100730Z AUTO 27014KT 230V310 9999 RA FEW008/// BKN016/// BKN021/// //////TCU 02/00 Q1005 TEMPO 25015G30KT 3000 -SHRASN",
      "tafRaw": "TAF LFSB 100500Z 1006/1106 25015KT 9999 SCT025 BKN040 \n  TEMPO 1006/1018 3000 -SHRASN SCT025TCU \n  PROB40 \n  TEMPO 1006/1017 25015G30KT \n  BECMG 1018/1020 31006KT \n  TEMPO 1018/1106 2000 -SHSN BKN012 SCT015TCU \n  PROB40 \n  TEMPO 1020/1022 1200 SHSN BKN005",
      "metarHtml": "METAR LFSB 100730Z AUTO 27014KT 230V310 9999 <span class=\"hl\">RA</span> FEW008/// BKN016/// BKN021/// //////TCU 02/00 Q1005 TEMPO 25015G30KT 3000 -SHRASN",
      "tafHtml": "TAF LFSB 100500Z 1006/1106 25015KT 9999 SCT025 BKN040 \n  TEMPO 1006/1018 3000 -SHRASN SCT025TCU \n  PROB40 \n  TEMPO 1006/1017 25015G30KT \n  BECMG 1018/1020 31006KT \n  TEMPO 1018/1106 2000 -<span class=\"hl\">SHSN</span> BKN012 SCT015TCU \n  PROB40 \n  TEMPO 1020/1022 1200 <span class=\"hl\">SHSN</span> BKN005"
    },
    {
      "icao": "LRBV",
      "iata": "GHV",
      "name": "Brașov-Ghimbav International Airport",
      "updatedAt": "100730Z",
      "visibility_m": 2000,
      "taf_visibility_m": 5000,
      "worst_visibility_m": 2000,
      "ceiling_ft": 1800,
      "hazards": [
        "SN"
      ],
      "severityScore": 30,
      "metarRaw": "METAR LRBV 100730Z VRB02KT 2000 SN BKN018 OVC025 M04/M07 Q0999",
      "tafRaw": "TAF LRBV 100500Z 1006/1015 VRB04KT 9999 SCT030 BKN040 \n  TEMPO 1006/1008 5000 -SN BKN010 OVC030",
      "metarHtml": "METAR LRBV 100730Z VRB02KT 2000 <span class=\"hl\">SN</span> BKN018 OVC025 M04/M07 Q0999",
      "tafHtml": "TAF LRBV 100500Z 1006/1015 VRB04KT 9999 SCT030 BKN040 \n  TEMPO 1006/1008 5000 -<span class=\"hl\">SN</span> BKN010 OVC030"
    },
    {
      "icao": "LUKK",
      "iata": "RMO",
      "name": "Chişinău International Airport",
      "updatedAt": "100730Z",
      "visibility_m": 2700,
      "taf_visibility_m": 5000,
      "worst_visibility_m": 2700,
      "ceiling_ft": 1200,
      "hazards": [
        "SN"
      ],
      "severityScore": 30,
      "metarRaw": "METAR LUKK 100730Z VRB02KT 2700 SN OVC024 M06/M07 Q1001 TEMPO 3000 SN BKN012",
      "tafRaw": "TAF LUKK 100526Z 1006/1106 VRB06KT 9999 SCT040 \n  BECMG 1007/1009 BKN025 \n  TEMPO 1007/1011 5000 -SN BKN012 \n  BECMG 1023/1101 35012KT",
      "metarHtml": "METAR LUKK 100730Z VRB02KT 2700 <span class=\"hl\">SN</span> OVC024 M06/M07 Q1001 TEMPO 3000 <span class=\"hl\">SN</span> BKN012",
      "tafHtml": "TAF LUKK 100526Z 1006/1106 VRB06KT 9999 SCT040 \n  BECMG 1007/1009 BKN025 \n  TEMPO 1007/1011 5000 -<span class=\"hl\">SN</span> BKN012 \n  BECMG 1023/1101 35012KT"
    },
    {
      "icao": "LWOH",
      "iata": "OHD",
      "name": "Ohrid St. Paul the Apostle Airport",
      "updatedAt": "100750Z",
      "visibility_m": 6000,
      "taf_visibility_m": 2000,
      "worst_visibility_m": 2000,
      "ceiling_ft": 3500,
      "hazards": [
        "RA",
        "SN"
      ],
      "severityScore": 30,
      "metarRaw": "METAR LWOH 100750Z 18005KT 150V210 6000 -RA SCT010 OVC035 06/05 Q1000",
      "tafRaw": "TAF LWOH 100530Z 1006/1106 15015KT 9999 -RA SCT010 OVC035 \n  TEMPO 1006/1015 5000 RA SCT005 OVC020 \n  BECMG 1020/1022 VRB02KT 2000 -SN SCT005 OVC020",
      "metarHtml": "METAR LWOH 100750Z 18005KT 150V210 6000 -<span class=\"hl\">RA</span> SCT010 OVC035 06/05 Q1000",
      "tafHtml": "TAF LWOH 100530Z 1006/1106 15015KT 9999 -<span class=\"hl\">RA</span> SCT010 OVC035 \n  TEMPO 1006/1015 5000 <span class=\"hl\">RA</span> SCT005 OVC020 \n  BECMG 1020/1022 VRB02KT 2000 -<span class=\"hl\">SN</span> SCT005 OVC020"
    },
    {
      "icao": "LWSK",
      "iata": "SKP",
      "name": "Skopje International Airport",
      "updatedAt": "100750Z",
      "visibility_m": 7000,
      "taf_visibility_m": 3000,
      "worst_visibility_m": 3000,
      "ceiling_ft": null,
      "hazards": [
        "SN",
        "RA"
      ],
      "severityScore": 30,
      "metarRaw": "METAR LWSK 100750Z VRB01KT 7000 SCT090 M01/M03 Q1001 NOSIG",
      "tafRaw": "TAF LWSK 100530Z 1006/1106 VRB02KT 9999 FEW040 SCT070 \n  TEMPO 1008/1015 5000 RA SCT020 OVC040 \n  PROB40 \n  TEMPO 1019/1024 3000 -SN SCT015 OVC030 \n  BECMG 1022/1024 34012KT",
      "metarHtml": "METAR LWSK 100750Z VRB01KT 7000 SCT090 M01/M03 Q1001 NOSIG",
      "tafHtml": "TAF LWSK 100530Z 1006/1106 VRB02KT 9999 FEW040 SCT070 \n  TEMPO 1008/1015 5000 <span class=\"hl\">RA</span> SCT020 OVC040 \n  PROB40 \n  TEMPO 1019/1024 3000 -<span class=\"hl\">SN</span> SCT015 OVC030 \n  BECMG 1022/1024 34012KT"
    },
    {
      "icao": "EPWR",
      "iata": "WRO",
      "name": "Copernicus Wrocław Airport",
      "updatedAt": "100730Z",
      "visibility_m": 9000,
      "taf_visibility_m": 3000,
      "worst_visibility_m": 3000,
      "ceiling_ft": null,
      "hazards": [
        "BR",
        "SN"
      ],
      "severityScore": 28,
      "metarRaw": "METAR EPWR 100730Z 31003KT 9000 NSC M10/M12 Q1006",
      "tafRaw": "TAF EPWR 100530Z 1006/1106 04006KT 9999 SCT030 \n  BECMG 1012/1015 33010KT \n  BECMG 1017/1019 BKN012 \n  TEMPO 1019/1021 BKN006 BKN012 \n  BECMG 1021/1024 30015G25KT 3000 -SN BR BKN006 BKN012 \n  TEMPO 1103/1106 31020G35KT DRSN",
      "metarHtml": "METAR EPWR 100730Z 31003KT 9000 NSC M10/M12 Q1006",
      "tafHtml": "TAF EPWR 100530Z 1006/1106 04006KT 9999 SCT030 \n  BECMG 1012/1015 33010KT \n  BECMG 1017/1019 BKN012 \n  TEMPO 1019/1021 BKN006 BKN012 \n  BECMG 1021/1024 30015G25KT 3000 -<span class=\"hl\">SN</span> <span class=\"hl\">BR</span> BKN006 BKN012 \n  TEMPO 1103/1106 31020G35KT DRSN"
    },
    {
      "icao": "LRBS",
      "iata": "BBU",
      "name": "Bucharest Băneasa Aurel Vlaicu International Airport",
      "updatedAt": "100730Z",
      "visibility_m": 9000,
      "taf_visibility_m": 1500,
      "worst_visibility_m": 1500,
      "ceiling_ft": null,
      "hazards": [
        "SN"
      ],
      "severityScore": 28,
      "metarRaw": "METAR LRBS 100730Z 00000KT 9000 FEW023 02/M01 Q1000 NOSIG",
      "tafRaw": "TAF LRBS 100500Z 1006/1106 VRB04KT 9999 BKN040 \n  BECMG 1013/1015 06014KT \n  BECMG 1018/1020 5000 -SN BKN010 OVC035 \n  BECMG 1022/1024 3000 SN BKN005 OVC025 \n  TEMPO 1100/1106 1500 SN BKN002 OVC020",
      "metarHtml": "METAR LRBS 100730Z 00000KT 9000 FEW023 02/M01 Q1000 NOSIG",
      "tafHtml": "TAF LRBS 100500Z 1006/1106 VRB04KT 9999 BKN040 \n  BECMG 1013/1015 06014KT \n  BECMG 1018/1020 5000 -<span class=\"hl\">SN</span> BKN010 OVC035 \n  BECMG 1022/1024 3000 <span class=\"hl\">SN</span> BKN005 OVC025 \n  TEMPO 1100/1106 1500 <span class=\"hl\">SN</span> BKN002 OVC020"
    },
    {
      "icao": "LROP",
      "iata": "OTP",
      "name": "Bucharest Henri Coandă International Airport",
      "updatedAt": "100730Z",
      "visibility_m": 10000,
      "taf_visibility_m": 1500,
      "worst_visibility_m": 1500,
      "ceiling_ft": 2400,
      "hazards": [
        "SN"
      ],
      "severityScore": 28,
      "metarRaw": "METAR LROP 100730Z VRB01KT 9999 BKN024 01/M02 Q1000 NOSIG",
      "tafRaw": "TAF LROP 100500Z 1006/1106 VRB04KT 9999 BKN040 \n  BECMG 1013/1015 06014KT \n  BECMG 1018/1020 5000 -SN BKN010 OVC035 \n  BECMG 1022/1024 3000 SN BKN005 OVC025 \n  TEMPO 1100/1106 1500 SN BKN002 OVC020",
      "metarHtml": "METAR LROP 100730Z VRB01KT 9999 BKN024 01/M02 Q1000 NOSIG",
      "tafHtml": "TAF LROP 100500Z 1006/1106 VRB04KT 9999 BKN040 \n  BECMG 1013/1015 06014KT \n  BECMG 1018/1020 5000 -<span class=\"hl\">SN</span> BKN010 OVC035 \n  BECMG 1022/1024 3000 <span class=\"hl\">SN</span> BKN005 OVC025 \n  TEMPO 1100/1106 1500 <span class=\"hl\">SN</span> BKN002 OVC020"
    },
    {
      "icao": "LYNI",
      "iata": "INI",
      "name": "Niš Constantine the Great Airport",
      "updatedAt": "100730Z",
      "visibility_m": 3000,
      "taf_visibility_m": 2000,
      "worst_visibility_m": 2000,
      "ceiling_ft": 9000,
      "hazards": [
        "BR",
        "SN"
      ],
      "severityScore": 28,
      "metarRaw": "METAR LYNI 100730Z 00000KT 3000 BR FEW015 SCT027 BKN090 01/01 Q1001 NOSIG",
      "tafRaw": "TAF LYNI 100500Z 1006/1106 07004KT 7000 SCT015 BKN030 TX01/1006Z TNM03/1106Z \n  TEMPO 1010/1015 4000 RASN BKN015 BKN025 \n  TEMPO 1015/1024 2000 SN BKN008 BKN025 \n  BECMG 1019/1021 33015KT \n  TEMPO 1021/1106 33020G35KT",
      "metarHtml": "METAR LYNI 100730Z 00000KT 3000 <span class=\"hl\">BR</span> FEW015 SCT027 BKN090 01/01 Q1001 NOSIG",
      "tafHtml": "TAF LYNI 100500Z 1006/1106 07004KT 7000 SCT015 BKN030 TX01/1006Z TNM03/1106Z \n  TEMPO 1010/1015 4000 RASN BKN015 BKN025 \n  TEMPO 1015/1024 2000 <span class=\"hl\">SN</span> BKN008 BKN025 \n  BECMG 1019/1021 33015KT \n  TEMPO 1021/1106 33020G35KT"
    },
    {
      "icao": "EGPF",
      "iata": "GLA",
      "name": "Glasgow Airport",
      "updatedAt": "100720Z",
      "visibility_m": 3100,
      "taf_visibility_m": null,
      "worst_visibility_m": 3100,
      "ceiling_ft": 1600,
      "hazards": [
        "BR"
      ],
      "severityScore": 27,
      "metarRaw": "METAR EGPF 100720Z AUTO VRB02KT 3100 BR BKN016 BKN032 OVC046 01/01 Q1013 RERA REDZ",
      "tafRaw": null,
      "metarHtml": "METAR EGPF 100720Z AUTO VRB02KT 3100 <span class=\"hl\">BR</span> BKN016 BKN032 OVC046 01/01 Q1013 RERA REDZ",
      "tafHtml": null
    },
    {
      "icao": "LIBD",
      "iata": "BRI",
      "name": "Bari Karol Wojtyła International Airport",
      "updatedAt": "100720Z",
      "visibility_m": 8000,
      "taf_visibility_m": 4000,
      "worst_visibility_m": 4000,
      "ceiling_ft": null,
      "hazards": [
        "RA",
        "SHRA"
      ],
      "severityScore": 26,
      "metarRaw": "METAR LIBD 100720Z 23008KT 8000 -RA SCT040 08/06 Q0999",
      "tafRaw": "TAF LIBD 100500Z 1006/1106 23012KT 9999 SCT040 \n  TEMPO 1006/1010 4000 RA \n  BECMG 1008/1010 31018G30KT \n  TEMPO 1014/1106 SHRA",
      "metarHtml": "METAR LIBD 100720Z 23008KT 8000 -<span class=\"hl\">RA</span> SCT040 08/06 Q0999",
      "tafHtml": "TAF LIBD 100500Z 1006/1106 23012KT 9999 SCT040 \n  TEMPO 1006/1010 4000 <span class=\"hl\">RA</span> \n  BECMG 1008/1010 31018G30KT \n  TEMPO 1014/1106 <span class=\"hl\">SHRA</span>"
    },
    {
      "icao": "LIBP",
      "iata": "PSR",
      "name": "Abruzzo Airport",
      "updatedAt": "100720Z",
      "visibility_m": 10000,
      "taf_visibility_m": 10000,
      "worst_visibility_m": 10000,
      "ceiling_ft": null,
      "hazards": [
        "RA",
        "SHRA"
      ],
      "severityScore": 26,
      "metarRaw": "METAR LIBP 100720Z AUTO 29003KT 260V340 9999 SCT098/// BKN210/// 06/06 Q0998",
      "tafRaw": "TAF LIBP 100500Z 1006/1106 25005KT 9999 SCT040 \n  TEMPO 1006/1010 RA \n  BECMG 1010/1012 35015KT \n  TEMPO 1010/1016 SHRA \n  BECMG 1020/1022 25005KT \n  TEMPO 1022/1106 SHRA",
      "metarHtml": "METAR LIBP 100720Z AUTO 29003KT 260V340 9999 SCT098/// BKN210/// 06/06 Q0998",
      "tafHtml": "TAF LIBP 100500Z 1006/1106 25005KT 9999 SCT040 \n  TEMPO 1006/1010 <span class=\"hl\">RA</span> \n  BECMG 1010/1012 35015KT \n  TEMPO 1010/1016 <span class=\"hl\">SHRA</span> \n  BECMG 1020/1022 25005KT \n  TEMPO 1022/1106 <span class=\"hl\">SHRA</span>"
    },
    {
      "icao": "LIBR",
      "iata": "BDS",
      "name": "Brindisi Airport",
      "updatedAt": "100720Z",
      "visibility_m": 10000,
      "taf_visibility_m": 10000,
      "worst_visibility_m": 10000,
      "ceiling_ft": null,
      "hazards": [
        "RA",
        "SHRA"
      ],
      "severityScore": 26,
      "metarRaw": "METAR LIBR 100720Z 20005KT 160V220 CAVOK 10/08 Q0999",
      "tafRaw": "TAF LIBR 100500Z 1006/1106 21008KT 9999 SCT040 \n  TEMPO 1006/1012 24015G30KT RA \n  BECMG 1012/1014 30018G30KT \n  TEMPO 1018/1024 SHRA",
      "metarHtml": "METAR LIBR 100720Z 20005KT 160V220 <span class=\"hl-vis\">CAVOK</span> 10/08 Q0999",
      "tafHtml": "TAF LIBR 100500Z 1006/1106 21008KT 9999 SCT040 \n  TEMPO 1006/1012 24015G30KT <span class=\"hl\">RA</span> \n  BECMG 1012/1014 30018G30KT \n  TEMPO 1018/1024 <span class=\"hl\">SHRA</span>"
    },
    {
      "icao": "LIPY",
      "iata": "AOI",
      "name": "Marche Airport",
      "updatedAt": "100720Z",
      "visibility_m": 10000,
      "taf_visibility_m": 4000,
      "worst_visibility_m": 4000,
      "ceiling_ft": null,
      "hazards": [
        "RA",
        "SHRA"
      ],
      "severityScore": 26,
      "metarRaw": "METAR LIPY 100720Z AUTO 29010KT 9999 SCT014/// OVC041/// 03/M00 Q0999",
      "tafRaw": "TAF LIPY 100500Z 1006/1106 30012KT 9999 SCT050 \n  TEMPO 1006/1008 4000 RA BKN005 \n  TEMPO 1008/1016 30015G25KT SHRA \n  BECMG 1018/1020 25005KT",
      "metarHtml": "METAR LIPY 100720Z AUTO 29010KT 9999 SCT014/// OVC041/// 03/M00 Q0999",
      "tafHtml": "TAF LIPY 100500Z 1006/1106 30012KT 9999 SCT050 \n  TEMPO 1006/1008 4000 <span class=\"hl\">RA</span> BKN005 \n  TEMPO 1008/1016 30015G25KT <span class=\"hl\">SHRA</span> \n  BECMG 1018/1020 25005KT"
    },
    {
      "icao": "UGKO",
      "iata": "KUT",
      "name": "David the Builder Kutaisi International Airport",
      "updatedAt": "100730Z",
      "visibility_m": 10000,
      "taf_visibility_m": 2000,
      "worst_visibility_m": 2000,
      "ceiling_ft": 4400,
      "hazards": [
        "RA",
        "SHRA"
      ],
      "severityScore": 26,
      "metarRaw": "METAR UGKO 100730Z 24009KT 9999 -RA SCT016 BKN044 OVC051 04/03 Q1015 NOSIG",
      "tafRaw": "TAF UGKO 100500Z 1006/1106 24010KT 9999 OVC050 TX09/1012Z TN03/1022Z \n  TEMPO 1006/1008 2000 SHRA BKN015CB OVC030 \n  BECMG 1010/1013 CAVOK \n  BECMG 1012/1015 08010KT \n  TEMPO 1018/1024 08020G30KT \n  TEMPO 1100/1106 08024G37KT BKN050",
      "metarHtml": "METAR UGKO 100730Z 24009KT 9999 -<span class=\"hl\">RA</span> SCT016 BKN044 OVC051 04/03 Q1015 NOSIG",
      "tafHtml": "TAF UGKO 100500Z 1006/1106 24010KT 9999 OVC050 TX09/1012Z TN03/1022Z \n  TEMPO 1006/1008 2000 <span class=\"hl\">SHRA</span> BKN015CB OVC030 \n  BECMG 1010/1013 <span class=\"hl-vis\">CAVOK</span> \n  BECMG 1012/1015 08010KT \n  TEMPO 1018/1024 08020G30KT \n  TEMPO 1100/1106 08024G37KT BKN050"
    },
    {
      "icao": "LICA",
      "iata": "SUF",
      "name": "Lamezia Terme Sant'Eufemia International Airport",
      "updatedAt": "100720Z",
      "visibility_m": 10000,
      "taf_visibility_m": 4000,
      "worst_visibility_m": 4000,
      "ceiling_ft": null,
      "hazards": [
        "TSRA"
      ],
      "severityScore": 25,
      "metarRaw": "METAR LICA 100720Z AUTO 26026G37KT 9999 SCT041/// BKN110/// 14/08 Q1003",
      "tafRaw": "TAF LICA 100500Z 1006/1106 25025G35KT 9999 SCT020 \n  TEMPO 1006/1018 4000 TSRA",
      "metarHtml": "METAR LICA 100720Z AUTO 26026G37KT 9999 SCT041/// BKN110/// 14/08 Q1003",
      "tafHtml": "TAF LICA 100500Z 1006/1106 25025G35KT 9999 SCT020 \n  TEMPO 1006/1018 4000 <span class=\"hl\">TSRA</span>"
    },
    {
      "icao": "LICJ",
      "iata": "PMO",
      "name": "Falcone–Borsellino Airport",
      "updatedAt": "100720Z",
      "visibility_m": 10000,
      "taf_visibility_m": 4000,
      "worst_visibility_m": 4000,
      "ceiling_ft": 4000,
      "hazards": [
        "TSRA"
      ],
      "severityScore": 25,
      "metarRaw": "METAR LICJ 100720Z 27027KT 9999 BKN040 14/08 Q1009",
      "tafRaw": "TAF LICJ 100500Z 1006/1106 23020G30KT 9999 SCT030 \n  BECMG 1006/1008 29030G40KT \n  TEMPO 1006/1018 4000 TSRA",
      "metarHtml": "METAR LICJ 100720Z 27027KT 9999 BKN040 14/08 Q1009",
      "tafHtml": "TAF LICJ 100500Z 1006/1106 23020G30KT 9999 SCT030 \n  BECMG 1006/1008 29030G40KT \n  TEMPO 1006/1018 4000 <span class=\"hl\">TSRA</span>"
    },
    {
      "icao": "LFLL",
      "iata": "LYS",
      "name": "Lyon Saint-Exupéry Airport",
      "updatedAt": "100730Z",
      "visibility_m": 10000,
      "taf_visibility_m": 4000,
      "worst_visibility_m": 4000,
      "ceiling_ft": 2600,
      "hazards": [
        "SHRA",
        "SHSN"
      ],
      "severityScore": 24,
      "metarRaw": "METAR LFLL 100730Z 30010KT 9999 FEW020 BKN026 BKN040 03/01 Q1012 NOSIG",
      "tafRaw": "TAF LFLL 100500Z 1006/1112 31010KT 9999 BKN030 \n  PROB30 \n  TEMPO 1006/1009 25005KT -SHRASN FEW018TCU BKN020 \n  PROB30 \n  TEMPO 1009/1015 -SHRA FEW025TCU BKN030 \n  PROB40 \n  TEMPO 1015/1018 4000 -SHSNRA BKN012 SCT018TCU BKN020 \n  PROB30 \n  TEMPO 1018/1023 4000 -SHSN BKN012 \n  BECMG 1104/1106 OVC013 \n  TEMPO 1107/1110 BKN007 \n  BECMG 1110/1112 SCT015",
      "metarHtml": "METAR LFLL 100730Z 30010KT 9999 FEW020 BKN026 BKN040 03/01 Q1012 NOSIG",
      "tafHtml": "TAF LFLL 100500Z 1006/1112 31010KT 9999 BKN030 \n  PROB30 \n  TEMPO 1006/1009 25005KT -SHRASN FEW018TCU BKN020 \n  PROB30 \n  TEMPO 1009/1015 -<span class=\"hl\">SHRA</span> FEW025TCU BKN030 \n  PROB40 \n  TEMPO 1015/1018 4000 -SHSNRA BKN012 SCT018TCU BKN020 \n  PROB30 \n  TEMPO 1018/1023 4000 -<span class=\"hl\">SHSN</span> BKN012 \n  BECMG 1104/1106 OVC013 \n  TEMPO 1107/1110 BKN007 \n  BECMG 1110/1112 SCT015"
    },
    {
      "icao": "LFOB",
      "iata": "BVA",
      "name": "Beauvais Tillé airport",
      "updatedAt": "100730Z",
      "visibility_m": 10000,
      "taf_visibility_m": 4000,
      "worst_visibility_m": 4000,
      "ceiling_ft": 2300,
      "hazards": [
        "BR",
        "SHRA"
      ],
      "severityScore": 24,
      "metarRaw": "METAR LFOB 100730Z AUTO 30015KT 9999 FEW014 BKN023 BKN047 02/00 Q1009",
      "tafRaw": "TAF LFOB 092300Z 1000/1024 28015G25KT 9999 BKN025 \n  TEMPO 1000/1003 4000 -SHRA BKN011TCU \n  PROB40 \n  TEMPO 1000/1003 BKN008 \n  TEMPO 1003/1011 BKN014 \n  BECMG 1016/1018 32010KT \n  TEMPO 1021/1024 4000 BR",
      "metarHtml": "METAR LFOB 100730Z AUTO 30015KT 9999 FEW014 BKN023 BKN047 02/00 Q1009",
      "tafHtml": "TAF LFOB 092300Z 1000/1024 28015G25KT 9999 BKN025 \n  TEMPO 1000/1003 4000 -<span class=\"hl\">SHRA</span> BKN011TCU \n  PROB40 \n  TEMPO 1000/1003 BKN008 \n  TEMPO 1003/1011 BKN014 \n  BECMG 1016/1018 32010KT \n  TEMPO 1021/1024 4000 <span class=\"hl\">BR</span>"
    },
    {
      "icao": "EYVI",
      "iata": "VNO",
      "name": "Vilnius International Airport",
      "updatedAt": "100750Z",
      "visibility_m": 7000,
      "taf_visibility_m": null,
      "worst_visibility_m": 7000,
      "ceiling_ft": 4800,
      "hazards": [
        "SN"
      ],
      "severityScore": 23,
      "metarRaw": "METAR EYVI 100750Z 36009KT 7000 -SN SCT014 BKN048 M10/M13 Q0997 NOSIG",
      "tafRaw": null,
      "metarHtml": "METAR EYVI 100750Z 36009KT 7000 -<span class=\"hl\">SN</span> SCT014 BKN048 M10/M13 Q0997 NOSIG",
      "tafHtml": null
    },
    {
      "icao": "LGTS",
      "iata": "SKG",
      "name": "Thessaloniki Macedonia International Airport",
      "updatedAt": "100720Z",
      "visibility_m": 10000,
      "taf_visibility_m": 5000,
      "worst_visibility_m": 5000,
      "ceiling_ft": 2500,
      "hazards": [
        "DZ",
        "RA"
      ],
      "severityScore": 22,
      "metarRaw": "METAR LGTS 100720Z 14004KT 9999 -DZ SCT015 BKN025 04/04 Q1002 NOSIG",
      "tafRaw": "TAF LGTS 100500Z 1006/1106 VRB03KT 9999 SCT030 \n  PROB40 \n  TEMPO 1006/1016 5000 RA FEW010 BKN025 \n  BECMG 1012/1014 22015KT \n  BECMG 1101/1103 34015KT",
      "metarHtml": "METAR LGTS 100720Z 14004KT 9999 -<span class=\"hl\">DZ</span> SCT015 BKN025 04/04 Q1002 NOSIG",
      "tafHtml": "TAF LGTS 100500Z 1006/1106 VRB03KT 9999 SCT030 \n  PROB40 \n  TEMPO 1006/1016 5000 <span class=\"hl\">RA</span> FEW010 BKN025 \n  BECMG 1012/1014 22015KT \n  BECMG 1101/1103 34015KT"
    },
    {
      "icao": "LPPT",
      "iata": "LIS",
      "name": "Lisbon Humberto Delgado Airport",
      "updatedAt": "100730Z",
      "visibility_m": 10000,
      "taf_visibility_m": 5000,
      "worst_visibility_m": 5000,
      "ceiling_ft": null,
      "hazards": [
        "BR",
        "RA"
      ],
      "severityScore": 22,
      "metarRaw": "METAR LPPT 100730Z 30003KT 9999 SCT030 10/08 Q1030",
      "tafRaw": "TAF LPPT 100500Z 1006/1112 VRB02KT 9999 SCT035 \n  TEMPO 1006/1024 BKN030 \n  BECMG 1100/1103 20008KT SCT012 BKN020 \n  TEMPO 1103/1112 5000 -RA BR SCT005 BKN012",
      "metarHtml": "METAR LPPT 100730Z 30003KT 9999 SCT030 10/08 Q1030",
      "tafHtml": "TAF LPPT 100500Z 1006/1112 VRB02KT 9999 SCT035 \n  TEMPO 1006/1024 BKN030 \n  BECMG 1100/1103 20008KT SCT012 BKN020 \n  TEMPO 1103/1112 5000 -<span class=\"hl\">RA</span> <span class=\"hl\">BR</span> SCT005 BKN012"
    },
    {
      "icao": "OJAI",
      "iata": "AMM",
      "name": "Queen Alia International Airport",
      "updatedAt": null,
      "visibility_m": null,
      "taf_visibility_m": 3000,
      "worst_visibility_m": 3000,
      "ceiling_ft": null,
      "hazards": [
        "BR",
        "RA"
      ],
      "severityScore": 22,
      "metarRaw": null,
      "tafRaw": "TAF OJAI 100500Z 1006/1112 26012KT 4000 BR SCT020 SCT025 \n  TEMPO 1006/1012 3000 RA BR \n  BECMG 1021/1023 16006KT",
      "metarHtml": null,
      "tafHtml": "TAF OJAI 100500Z 1006/1112 26012KT 4000 <span class=\"hl\">BR</span> SCT020 SCT025 \n  TEMPO 1006/1012 3000 <span class=\"hl\">RA</span> <span class=\"hl\">BR</span> \n  BECMG 1021/1023 16006KT"
    },
    {
      "icao": "GMMN",
      "iata": "CMN",
      "name": "Mohammed V International Airport",
      "updatedAt": "100730Z",
      "visibility_m": 8000,
      "taf_visibility_m": 1200,
      "worst_visibility_m": 1200,
      "ceiling_ft": null,
      "hazards": [
        "BR"
      ],
      "severityScore": 20,
      "metarRaw": "METAR GMMN 100730Z 14005KT 8000 FEW023 04/03 Q1029 NOSIG",
      "tafRaw": "TAF GMMN 100500Z 1006/1112 12004KT 9999 FEW023 \n  TEMPO 1006/1010 1200 BR \n  BECMG 1012/1014 02010KT \n  BECMG 1018/1020 08004KT",
      "metarHtml": "METAR GMMN 100730Z 14005KT 8000 FEW023 04/03 Q1029 NOSIG",
      "tafHtml": "TAF GMMN 100500Z 1006/1112 12004KT 9999 FEW023 \n  TEMPO 1006/1010 1200 <span class=\"hl\">BR</span> \n  BECMG 1012/1014 02010KT \n  BECMG 1018/1020 08004KT"
    },
    {
      "icao": "EPPO",
      "iata": "POZ",
      "name": "Poznań-Ławica Airport",
      "updatedAt": "100730Z",
      "visibility_m": 10000,
      "taf_visibility_m": 1400,
      "worst_visibility_m": 1400,
      "ceiling_ft": 2100,
      "hazards": [
        "SHSN"
      ],
      "severityScore": 20,
      "metarRaw": "METAR EPPO 100730Z 31004KT 9999 BKN021 M09/M11 Q1007",
      "tafRaw": "TAF EPPO 100530Z 1006/1106 06006KT 9999 SCT030 \n  BECMG 1009/1012 33010KT \n  TEMPO 1016/1021 BKN013 \n  TEMPO 1021/1024 33015G25KT 3000 -SHSN BKN013CB \n  TEMPO 1100/1106 33020G35KT 1400 SHSN DRSN BKN006 BKN013CB",
      "metarHtml": "METAR EPPO 100730Z 31004KT 9999 BKN021 M09/M11 Q1007",
      "tafHtml": "TAF EPPO 100530Z 1006/1106 06006KT 9999 SCT030 \n  BECMG 1009/1012 33010KT \n  TEMPO 1016/1021 BKN013 \n  TEMPO 1021/1024 33015G25KT 3000 -<span class=\"hl\">SHSN</span> BKN013CB \n  TEMPO 1100/1106 33020G35KT 1400 <span class=\"hl\">SHSN</span> DRSN BKN006 BKN013CB"
    },
    {
      "icao": "LPPR",
      "iata": "OPO",
      "name": "Francisco de Sá Carneiro Airport",
      "updatedAt": "100730Z",
      "visibility_m": 10000,
      "taf_visibility_m": 5000,
      "worst_visibility_m": 5000,
      "ceiling_ft": null,
      "hazards": [
        "BR",
        "DZ"
      ],
      "severityScore": 20,
      "metarRaw": "METAR LPPR 100730Z 13008KT 9999 FEW023 08/06 Q1029",
      "tafRaw": "TAF LPPR 100500Z 1006/1106 VRB02KT 9999 SCT035 \n  BECMG 1012/1015 19010KT SCT008 BKN017 \n  TEMPO 1015/1106 5000 DZ BR SCT004 BKN008",
      "metarHtml": "METAR LPPR 100730Z 13008KT 9999 FEW023 08/06 Q1029",
      "tafHtml": "TAF LPPR 100500Z 1006/1106 VRB02KT 9999 SCT035 \n  BECMG 1012/1015 19010KT SCT008 BKN017 \n  TEMPO 1015/1106 5000 <span class=\"hl\">DZ</span> <span class=\"hl\">BR</span> SCT004 BKN008"
    },
    {
      "icao": "EGNM",
      "iata": "LBA",
      "name": "Leeds Bradford Airport",
      "updatedAt": "100720Z",
      "visibility_m": 10000,
      "taf_visibility_m": 3000,
      "worst_visibility_m": 3000,
      "ceiling_ft": null,
      "hazards": [
        "SN"
      ],
      "severityScore": 18,
      "metarRaw": "METAR EGNM 100720Z 36005KT 330V040 CAVOK M01/M03 Q1013",
      "tafRaw": "TAF EGNM 100455Z 1006/1106 27004KT 9999 FEW040 \n  BECMG 1021/1024 16010KT \n  PROB30 \n  TEMPO 1104/1106 3000 -SN BKN009",
      "metarHtml": "METAR EGNM 100720Z 36005KT 330V040 <span class=\"hl-vis\">CAVOK</span> M01/M03 Q1013",
      "tafHtml": "TAF EGNM 100455Z 1006/1106 27004KT 9999 FEW040 \n  BECMG 1021/1024 16010KT \n  PROB30 \n  TEMPO 1104/1106 3000 -<span class=\"hl\">SN</span> BKN009"
    },
    {
      "icao": "EPRA",
      "iata": "RDO",
      "name": "Warsaw Radom Airport",
      "updatedAt": "100730Z",
      "visibility_m": 10000,
      "taf_visibility_m": 3000,
      "worst_visibility_m": 3000,
      "ceiling_ft": null,
      "hazards": [
        "SN"
      ],
      "severityScore": 18,
      "metarRaw": "METAR EPRA 100730Z 29006KT CAVOK M15/M17 Q1002",
      "tafRaw": "TAF EPRA 100530Z 1006/1015 29008KT 9999 SCT020 \n  PROB30 \n  TEMPO 1010/1012 4000 -SN SCT008 BKN020 \n  BECMG 1012/1015 8000 BKN013 \n  PROB40 1013/1015 3000 -SN BKN008",
      "metarHtml": "METAR EPRA 100730Z 29006KT <span class=\"hl-vis\">CAVOK</span> M15/M17 Q1002",
      "tafHtml": "TAF EPRA 100530Z 1006/1015 29008KT 9999 SCT020 \n  PROB30 \n  TEMPO 1010/1012 4000 -<span class=\"hl\">SN</span> SCT008 BKN020 \n  BECMG 1012/1015 8000 BKN013 \n  PROB40 1013/1015 3000 -<span class=\"hl\">SN</span> BKN008"
    },
    {
      "icao": "EPSY",
      "iata": "SZY",
      "name": "Olsztyn-Mazury Airport",
      "updatedAt": "100730Z",
      "visibility_m": 6000,
      "taf_visibility_m": 2000,
      "worst_visibility_m": 2000,
      "ceiling_ft": 2500,
      "hazards": [
        "SN"
      ],
      "severityScore": 18,
      "metarRaw": "METAR EPSY 100730Z 35008KT 6000 -SN SCT014 BKN025 M08/M10 Q1002",
      "tafRaw": "TAF EPSY 100530Z 1006/1015 34008KT 9999 SCT018 \n  TEMPO 1006/1015 4000 -SN BKN012 \n  PROB40 \n  TEMPO 1012/1015 2000 SN BKN007",
      "metarHtml": "METAR EPSY 100730Z 35008KT 6000 -<span class=\"hl\">SN</span> SCT014 BKN025 M08/M10 Q1002",
      "tafHtml": "TAF EPSY 100530Z 1006/1015 34008KT 9999 SCT018 \n  TEMPO 1006/1015 4000 -<span class=\"hl\">SN</span> BKN012 \n  PROB40 \n  TEMPO 1012/1015 2000 <span class=\"hl\">SN</span> BKN007"
    },
    {
      "icao": "LRBC",
      "iata": "BCM",
      "name": "Bacău George Enescu International  Airport",
      "updatedAt": "100730Z",
      "visibility_m": 9000,
      "taf_visibility_m": 5000,
      "worst_visibility_m": 5000,
      "ceiling_ft": 4000,
      "hazards": [
        "SN"
      ],
      "severityScore": 18,
      "metarRaw": "METAR LRBC 100730Z 36006KT 9000 -SN BKN040 OVC062 M04/M08 Q1001",
      "tafRaw": "TAF LRBC 100500Z 1006/1015 VRB04KT 9999 OVC050 \n  TEMPO 1006/1008 5000 -SN",
      "metarHtml": "METAR LRBC 100730Z 36006KT 9000 -<span class=\"hl\">SN</span> BKN040 OVC062 M04/M08 Q1001",
      "tafHtml": "TAF LRBC 100500Z 1006/1015 VRB04KT 9999 OVC050 \n  TEMPO 1006/1008 5000 -<span class=\"hl\">SN</span>"
    },
    {
      "icao": "LRSV",
      "iata": "SCV",
      "name": "Suceava Stefan cel Mare Airport",
      "updatedAt": "100730Z",
      "visibility_m": 10000,
      "taf_visibility_m": 5000,
      "worst_visibility_m": 5000,
      "ceiling_ft": 4100,
      "hazards": [
        "SN"
      ],
      "severityScore": 18,
      "metarRaw": "METAR LRSV 100730Z 00000KT 9999 BKN041 M04/M11 Q0999",
      "tafRaw": "TAF LRSV 100500Z 1006/1015 VRB04KT CAVOK \n  PROB30 \n  TEMPO 1006/1008 5000 -SN",
      "metarHtml": "METAR LRSV 100730Z 00000KT 9999 BKN041 M04/M11 Q0999",
      "tafHtml": "TAF LRSV 100500Z 1006/1015 VRB04KT <span class=\"hl-vis\">CAVOK</span> \n  PROB30 \n  TEMPO 1006/1008 5000 -<span class=\"hl\">SN</span>"
    },
    {
      "icao": "LRTM",
      "iata": "TGM",
      "name": "Târgu Mureş Transilvania International Airport",
      "updatedAt": "100730Z",
      "visibility_m": 9000,
      "taf_visibility_m": 5000,
      "worst_visibility_m": 5000,
      "ceiling_ft": 2200,
      "hazards": [
        "SN"
      ],
      "severityScore": 18,
      "metarRaw": "METAR LRTM 100730Z 08002KT 9000 FEW010 SCT016 BKN022 M05/M06 Q1001",
      "tafRaw": "TAF LRTM 100500Z 1006/1015 VRB04KT 9999 SCT020 BKN040 \n  TEMPO 1006/1008 5000 -SN BKN010 BKN020",
      "metarHtml": "METAR LRTM 100730Z 08002KT 9000 FEW010 SCT016 BKN022 M05/M06 Q1001",
      "tafHtml": "TAF LRTM 100500Z 1006/1015 VRB04KT 9999 SCT020 BKN040 \n  TEMPO 1006/1008 5000 -<span class=\"hl\">SN</span> BKN010 BKN020"
    },
    {
      "icao": "LOWW",
      "iata": "VIE",
      "name": "Vienna International Airport",
      "updatedAt": "100720Z",
      "visibility_m": 3600,
      "taf_visibility_m": null,
      "worst_visibility_m": 3600,
      "ceiling_ft": 5000,
      "hazards": [
        "BR"
      ],
      "severityScore": 15,
      "metarRaw": "METAR LOWW 100720Z VRB02KT 3600 BR SCT044 BKN050 M05/M07 Q1001 NOSIG",
      "tafRaw": null,
      "metarHtml": "METAR LOWW 100720Z VRB02KT 3600 <span class=\"hl\">BR</span> SCT044 BKN050 M05/M07 Q1001 NOSIG",
      "tafHtml": null
    },
    {
      "icao": "LCLK",
      "iata": "LCA",
      "name": "Larnaca International Airport",
      "updatedAt": "100730Z",
      "visibility_m": 10000,
      "taf_visibility_m": 5000,
      "worst_visibility_m": 5000,
      "ceiling_ft": null,
      "hazards": [
        "SHRA"
      ],
      "severityScore": 14,
      "metarRaw": "METAR LCLK 100730Z VRB01KT 9999 FEW030 17/11 Q1017 NOSIG",
      "tafRaw": "TAF LCLK 100530Z 1006/1106 29007KT 9999 FEW020 \n  BECMG 1006/1008 22016KT \n  PROB30 \n  TEMPO 1010/1017 5000 SHRA SCT020TCU",
      "metarHtml": "METAR LCLK 100730Z VRB01KT 9999 FEW030 17/11 Q1017 NOSIG",
      "tafHtml": "TAF LCLK 100530Z 1006/1106 29007KT 9999 FEW020 \n  BECMG 1006/1008 22016KT \n  PROB30 \n  TEMPO 1010/1017 5000 <span class=\"hl\">SHRA</span> SCT020TCU"
    },
    {
      "icao": "LCPH",
      "iata": "PFO",
      "name": "Paphos International Airport",
      "updatedAt": "100730Z",
      "visibility_m": 10000,
      "taf_visibility_m": 4000,
      "worst_visibility_m": 4000,
      "ceiling_ft": null,
      "hazards": [
        "SHRA"
      ],
      "severityScore": 14,
      "metarRaw": "METAR LCPH 100730Z 26008KT 240V320 9999 FEW025 SCT035 18/11 Q1017 NOSIG",
      "tafRaw": "TAF LCPH 100530Z 1006/1106 32012KT 9999 FEW025 SCT040 \n  PROB40 \n  TEMPO 1006/1106 4000 SHRA SCT020TCU \n  BECMG 1007/1009 24015KT",
      "metarHtml": "METAR LCPH 100730Z 26008KT 240V320 9999 FEW025 SCT035 18/11 Q1017 NOSIG",
      "tafHtml": "TAF LCPH 100530Z 1006/1106 32012KT 9999 FEW025 SCT040 \n  PROB40 \n  TEMPO 1006/1106 4000 <span class=\"hl\">SHRA</span> SCT020TCU \n  BECMG 1007/1009 24015KT"
    },
    {
      "icao": "LEBB",
      "iata": "BIO",
      "name": "Bilbao Airport",
      "updatedAt": "100730Z",
      "visibility_m": 10000,
      "taf_visibility_m": 3000,
      "worst_visibility_m": 3000,
      "ceiling_ft": null,
      "hazards": [
        "SHRA"
      ],
      "severityScore": 14,
      "metarRaw": "METAR LEBB 100730Z 26006KT 230V290 9999 FEW025TCU SCT035 08/06 Q1024 TEMPO SHRA",
      "tafRaw": "TAF LEBB 100500Z 1006/1106 27010KT 9999 FEW020 BKN040 TX10/1014Z TN04/1105Z \n  TEMPO 1006/1020 3000 SHRA SCT025TCU \n  BECMG 1018/1020 VRB03KT",
      "metarHtml": "METAR LEBB 100730Z 26006KT 230V290 9999 FEW025TCU SCT035 08/06 Q1024 TEMPO <span class=\"hl\">SHRA</span>",
      "tafHtml": "TAF LEBB 100500Z 1006/1106 27010KT 9999 FEW020 BKN040 TX10/1014Z TN04/1105Z \n  TEMPO 1006/1020 3000 <span class=\"hl\">SHRA</span> SCT025TCU \n  BECMG 1018/1020 VRB03KT"
    },
    {
      "icao": "LMML",
      "iata": "MLA",
      "name": "Malta International Airport",
      "updatedAt": "100745Z",
      "visibility_m": 10000,
      "taf_visibility_m": 2000,
      "worst_visibility_m": 2000,
      "ceiling_ft": null,
      "hazards": [
        "SHRA"
      ],
      "severityScore": 14,
      "metarRaw": "METAR LMML 100745Z 27020G30KT 240V300 9999 FEW029 15/10 Q1012 NOSIG",
      "tafRaw": "TAF LMML 100500Z 1006/1106 26019KT 9999 SCT023 \n  BECMG 1006/1009 28024G34KT \n  TEMPO 1007/1106 5000 SHRA SHGS BKN021TCU \n  TEMPO 1016/1106 29028G44KT \n  PROB30 \n  TEMPO 1103/1106 2000 TSRAGR BKN015CB",
      "metarHtml": "METAR LMML 100745Z 27020G30KT 240V300 9999 FEW029 15/10 Q1012 NOSIG",
      "tafHtml": "TAF LMML 100500Z 1006/1106 26019KT 9999 SCT023 \n  BECMG 1006/1009 28024G34KT \n  TEMPO 1007/1106 5000 <span class=\"hl\">SHRA</span> SHGS BKN021TCU \n  TEMPO 1016/1106 29028G44KT \n  PROB30 \n  TEMPO 1103/1106 2000 TSRAGR BKN015CB"
    },
    {
      "icao": "UBBB",
      "iata": "GYD",
      "name": "Heydar Aliyev International Airport",
      "updatedAt": "100730Z",
      "visibility_m": 10000,
      "taf_visibility_m": 10000,
      "worst_visibility_m": 10000,
      "ceiling_ft": null,
      "hazards": [
        "SHRA"
      ],
      "severityScore": 14,
      "metarRaw": "METAR UBBB 100730Z 35020KT 9999 SCT019 09/05 Q1010 NOSIG",
      "tafRaw": "TAF UBBB 100501Z 1006/1106 33018G28KT 9999 SCT015 BKN025 TX09/1008Z TN04/1102Z \n  TEMPO 1006/1010 SCT012 OVC020 \n  BECMG 1010/1012 35014KT FEW030CB \n  TEMPO 1012/1020 33008KT -SHRA BKN008 SCT017CB OVC017 \n  BECMG 1020/1022 VRB04KT \n  BECMG 1100/1102 18012KT",
      "metarHtml": "METAR UBBB 100730Z 35020KT 9999 SCT019 09/05 Q1010 NOSIG",
      "tafHtml": "TAF UBBB 100501Z 1006/1106 33018G28KT 9999 SCT015 BKN025 TX09/1008Z TN04/1102Z \n  TEMPO 1006/1010 SCT012 OVC020 \n  BECMG 1010/1012 35014KT FEW030CB \n  TEMPO 1012/1020 33008KT -<span class=\"hl\">SHRA</span> BKN008 SCT017CB OVC017 \n  BECMG 1020/1022 VRB04KT \n  BECMG 1100/1102 18012KT"
    },
    {
      "icao": "GCLP",
      "iata": "LPA",
      "name": "Gran Canaria Airport",
      "updatedAt": "100730Z",
      "visibility_m": 10000,
      "taf_visibility_m": 4500,
      "worst_visibility_m": 4500,
      "ceiling_ft": 5000,
      "hazards": [
        "RA"
      ],
      "severityScore": 12,
      "metarRaw": "METAR GCLP 100730Z 04013KT 9999 FEW035 BKN050 18/10 Q1027 NOSIG",
      "tafRaw": "TAF GCLP 100200Z 1003/1103 03013KT 9999 BKN030 TX19/1014Z TN15/1006Z \n  PROB30 \n  TEMPO 1006/1018 4500 RA \n  PROB30 \n  TEMPO 1015/1021 03015G25KT",
      "metarHtml": "METAR GCLP 100730Z 04013KT 9999 FEW035 BKN050 18/10 Q1027 NOSIG",
      "tafHtml": "TAF GCLP 100200Z 1003/1103 03013KT 9999 BKN030 TX19/1014Z TN15/1006Z \n  PROB30 \n  TEMPO 1006/1018 4500 <span class=\"hl\">RA</span> \n  PROB30 \n  TEMPO 1015/1021 03015G25KT"
    },
    {
      "icao": "EDNY",
      "iata": "FDH",
      "name": "Friedrichshafen Airport",
      "updatedAt": "100720Z",
      "visibility_m": 10000,
      "taf_visibility_m": 4000,
      "worst_visibility_m": 4000,
      "ceiling_ft": 1500,
      "hazards": [],
      "severityScore": 12,
      "metarRaw": "METAR EDNY 100720Z 24018KT 9999 BKN015 OVC021 02/00 Q1003",
      "tafRaw": "TAF EDNY 100500Z 1006/1015 24012KT 9999 BKN020 \n  TEMPO 1006/1015 24015G25KT 4000 -SNRA BKN012",
      "metarHtml": "METAR EDNY 100720Z 24018KT 9999 BKN015 OVC021 02/00 Q1003",
      "tafHtml": "TAF EDNY 100500Z 1006/1015 24012KT 9999 BKN020 \n  TEMPO 1006/1015 24015G25KT 4000 -SNRA BKN012"
    },
    {
      "icao": "EGGP",
      "iata": "LPL",
      "name": "Liverpool John Lennon Airport",
      "updatedAt": "100720Z",
      "visibility_m": 10000,
      "taf_visibility_m": 2000,
      "worst_visibility_m": 2000,
      "ceiling_ft": null,
      "hazards": [
        "RA"
      ],
      "severityScore": 12,
      "metarRaw": "METAR EGGP 100720Z 21001KT CAVOK M00/M02 Q1014",
      "tafRaw": "TAF EGGP 100457Z 1006/1106 VRB02KT 9999 SCT040 \n  PROB30 1006/1010 6000 \n  BECMG 1015/1018 16010KT \n  TEMPO 1103/1106 15018G28KT 6000 RA BKN008 \n  PROB30 \n  TEMPO 1103/1106 2000 RASN BKN004",
      "metarHtml": "METAR EGGP 100720Z 21001KT <span class=\"hl-vis\">CAVOK</span> M00/M02 Q1014",
      "tafHtml": "TAF EGGP 100457Z 1006/1106 VRB02KT 9999 SCT040 \n  PROB30 1006/1010 6000 \n  BECMG 1015/1018 16010KT \n  TEMPO 1103/1106 15018G28KT 6000 <span class=\"hl\">RA</span> BKN008 \n  PROB30 \n  TEMPO 1103/1106 2000 RASN BKN004"
    },
    {
      "icao": "HESX",
      "iata": "SPX",
      "name": "Sphinx International Airport",
      "updatedAt": "100700Z",
      "visibility_m": 10000,
      "taf_visibility_m": 3000,
      "worst_visibility_m": 3000,
      "ceiling_ft": null,
      "hazards": [
        "RA"
      ],
      "severityScore": 12,
      "metarRaw": "METAR HESX 100700Z 21007KT CAVOK 13/07 Q1022 NOSIG",
      "tafRaw": "TAF HESX 100500Z 1006/1112 23007KT CAVOK \n  TEMPO 1006/1010 3000 HZ SCT020 \n  PROB30 \n  TEMPO 1010/1018 8000 -RA BKN020",
      "metarHtml": "METAR HESX 100700Z 21007KT <span class=\"hl-vis\">CAVOK</span> 13/07 Q1022 NOSIG",
      "tafHtml": "TAF HESX 100500Z 1006/1112 23007KT <span class=\"hl-vis\">CAVOK</span> \n  TEMPO 1006/1010 3000 HZ SCT020 \n  PROB30 \n  TEMPO 1010/1018 8000 -<span class=\"hl\">RA</span> BKN020"
    },
    {
      "icao": "LBPD",
      "iata": "PDV",
      "name": "Plovdiv International Airport",
      "updatedAt": "100730Z",
      "visibility_m": 10000,
      "taf_visibility_m": 5000,
      "worst_visibility_m": 5000,
      "ceiling_ft": null,
      "hazards": [
        "RA"
      ],
      "severityScore": 12,
      "metarRaw": "METAR LBPD 100730Z AUTO 11006KT 020V130 9999 OVC052/// 05/M01 Q1002 NOSIG",
      "tafRaw": "TAF LBPD 100500Z 1006/1106 VRB03KT 9999 SCT050 \n  TEMPO 1012/1017 5000 RA BKN015 OVC030 \n  BECMG 1021/1022 28014KT \n  TEMPO 1022/1102 28016G26KT \n  TEMPO 1104/1106 5000 RA BKN015 OVC030",
      "metarHtml": "METAR LBPD 100730Z AUTO 11006KT 020V130 9999 OVC052/// 05/M01 Q1002 NOSIG",
      "tafHtml": "TAF LBPD 100500Z 1006/1106 VRB03KT 9999 SCT050 \n  TEMPO 1012/1017 5000 <span class=\"hl\">RA</span> BKN015 OVC030 \n  BECMG 1021/1022 28014KT \n  TEMPO 1022/1102 28016G26KT \n  TEMPO 1104/1106 5000 <span class=\"hl\">RA</span> BKN015 OVC030"
    },
    {
      "icao": "LGAV",
      "iata": "ATH",
      "name": "Athens Eleftherios Venizelos International Airport",
      "updatedAt": "100720Z",
      "visibility_m": 10000,
      "taf_visibility_m": 5000,
      "worst_visibility_m": 5000,
      "ceiling_ft": null,
      "hazards": [
        "RA"
      ],
      "severityScore": 12,
      "metarRaw": "METAR LGAV 100720Z 23013KT 9999 FEW030 17/07 Q1006 NOSIG",
      "tafRaw": "TAF LGAV 100500Z 1006/1106 24012KT 9999 FEW025 \n  BECMG 1006/1008 24015G25KT \n  BECMG 1010/1012 SCT025 \n  PROB30 \n  TEMPO 1009/1015 5000 RA SCT020 SCT070",
      "metarHtml": "METAR LGAV 100720Z 23013KT 9999 FEW030 17/07 Q1006 NOSIG",
      "tafHtml": "TAF LGAV 100500Z 1006/1106 24012KT 9999 FEW025 \n  BECMG 1006/1008 24015G25KT \n  BECMG 1010/1012 SCT025 \n  PROB30 \n  TEMPO 1009/1015 5000 <span class=\"hl\">RA</span> SCT020 SCT070"
    },
    {
      "icao": "LIBG",
      "iata": "TAR",
      "name": "Taranto-Grottaglie Marcello Arlotta Airport",
      "updatedAt": "100653Z",
      "visibility_m": 10000,
      "taf_visibility_m": 10000,
      "worst_visibility_m": 10000,
      "ceiling_ft": null,
      "hazards": [
        "RA"
      ],
      "severityScore": 12,
      "metarRaw": "SPECI LIBG 100653Z VRB02KT 9999 FEW040 09/09 Q0999",
      "tafRaw": "TAF LIBG 100500Z 1007/1015 23013KT 9999 SCT040 \n  TEMPO 1009/1012 23015G25KT \n  PROB40 \n  TEMPO 1012/1015 RA",
      "metarHtml": "SPECI LIBG 100653Z VRB02KT 9999 FEW040 09/09 Q0999",
      "tafHtml": "TAF LIBG 100500Z 1007/1015 23013KT 9999 SCT040 \n  TEMPO 1009/1012 23015G25KT \n  PROB40 \n  TEMPO 1012/1015 <span class=\"hl\">RA</span>"
    },
    {
      "icao": "LLBG",
      "iata": "TLV",
      "name": "Ben Gurion International Airport",
      "updatedAt": "100750Z",
      "visibility_m": 10000,
      "taf_visibility_m": 10000,
      "worst_visibility_m": 10000,
      "ceiling_ft": null,
      "hazards": [
        "RA"
      ],
      "severityScore": 12,
      "metarRaw": "METAR LLBG 100750Z 19011KT 9999 SCT040 15/10 Q1021 NOSIG",
      "tafRaw": "TAF LLBG 100503Z 1006/1106 21012KT 9999 SCT035 \n  PROB40 \n  TEMPO 1006/1014 RA BKN030 \n  BECMG 1014/1016 16005KT FEW045 TX19/1011Z TN14/1104Z",
      "metarHtml": "METAR LLBG 100750Z 19011KT 9999 SCT040 15/10 Q1021 NOSIG",
      "tafHtml": "TAF LLBG 100503Z 1006/1106 21012KT 9999 SCT035 \n  PROB40 \n  TEMPO 1006/1014 <span class=\"hl\">RA</span> BKN030 \n  BECMG 1014/1016 16005KT FEW045 TX19/1011Z TN14/1104Z"
    },
    {
      "icao": "OEJN",
      "iata": "JED",
      "name": "King Abdulaziz International Airport",
      "updatedAt": "100700Z",
      "visibility_m": 10000,
      "taf_visibility_m": 7000,
      "worst_visibility_m": 7000,
      "ceiling_ft": null,
      "hazards": [
        "RA"
      ],
      "severityScore": 12,
      "metarRaw": "METAR OEJN 100700Z 34004KT 9999 FEW040 27/16 Q1016 NOSIG",
      "tafRaw": "TAF OEJN 100500Z 1006/1112 29016KT 7000 SCT040 \n  PROB30 \n  TEMPO 1006/1012 RA FEW035CB BKN040 \n  BECMG 1018/1020 VRB03KT",
      "metarHtml": "METAR OEJN 100700Z 34004KT 9999 FEW040 27/16 Q1016 NOSIG",
      "tafHtml": "TAF OEJN 100500Z 1006/1112 29016KT 7000 SCT040 \n  PROB30 \n  TEMPO 1006/1012 <span class=\"hl\">RA</span> FEW035CB BKN040 \n  BECMG 1018/1020 VRB03KT"
    },
    {
      "icao": "GMMX",
      "iata": "RAK",
      "name": "Menara Airport",
      "updatedAt": "100730Z",
      "visibility_m": 8000,
      "taf_visibility_m": 3000,
      "worst_visibility_m": 3000,
      "ceiling_ft": null,
      "hazards": [
        "BR"
      ],
      "severityScore": 10,
      "metarRaw": "METAR GMMX 100730Z 05004KT 8000 NSC 05/04 Q1027 NOSIG",
      "tafRaw": "TAF GMMX 100500Z 1006/1112 06006KT 8000 NSC \n  TEMPO 1006/1010 3000 BR BKN006 \n  TEMPO 1015/1020 36016KT",
      "metarHtml": "METAR GMMX 100730Z 05004KT 8000 NSC 05/04 Q1027 NOSIG",
      "tafHtml": "TAF GMMX 100500Z 1006/1112 06006KT 8000 NSC \n  TEMPO 1006/1010 3000 <span class=\"hl\">BR</span> BKN006 \n  TEMPO 1015/1020 36016KT"
    },
    {
      "icao": "EDDB",
      "iata": "BER",
      "name": "Berlin Brandenburg Airport",
      "updatedAt": "100720Z",
      "visibility_m": 10000,
      "taf_visibility_m": 2000,
      "worst_visibility_m": 2000,
      "ceiling_ft": 3200,
      "hazards": [
        "SHSN"
      ],
      "severityScore": 10,
      "metarRaw": "METAR EDDB 100720Z AUTO 06007KT 9999 BKN032 M08/M11 Q1008 NOSIG",
      "tafRaw": "TAF EDDB 100500Z 1006/1106 07010KT CAVOK \n  BECMG 1007/1010 05005KT \n  BECMG 1012/1015 32008KT \n  PROB40 \n  TEMPO 1016/1018 2000 SHSN BKN008 BKN015CB",
      "metarHtml": "METAR EDDB 100720Z AUTO 06007KT 9999 BKN032 M08/M11 Q1008 NOSIG",
      "tafHtml": "TAF EDDB 100500Z 1006/1106 07010KT <span class=\"hl-vis\">CAVOK</span> \n  BECMG 1007/1010 05005KT \n  BECMG 1012/1015 32008KT \n  PROB40 \n  TEMPO 1016/1018 2000 <span class=\"hl\">SHSN</span> BKN008 BKN015CB"
    },
    {
      "icao": "EGBB",
      "iata": "BHX",
      "name": "Birmingham Airport",
      "updatedAt": "100720Z",
      "visibility_m": 10000,
      "taf_visibility_m": 2000,
      "worst_visibility_m": 2000,
      "ceiling_ft": null,
      "hazards": [
        "BR"
      ],
      "severityScore": 10,
      "metarRaw": "METAR EGBB 100720Z 30004KT CAVOK M02/M03 Q1014",
      "tafRaw": "TAF EGBB 100458Z 1006/1106 32006KT 9999 FEW018 \n  PROB30 1006/1011 3000 BR MIFG \n  PROB30 \n  TEMPO 1011/1016 8000 \n  PROB40 1016/1024 2000 BR MIFG \n  BECMG 1101/1104 15010KT",
      "metarHtml": "METAR EGBB 100720Z 30004KT <span class=\"hl-vis\">CAVOK</span> M02/M03 Q1014",
      "tafHtml": "TAF EGBB 100458Z 1006/1106 32006KT 9999 FEW018 \n  PROB30 1006/1011 3000 <span class=\"hl\">BR</span> MIFG \n  PROB30 \n  TEMPO 1011/1016 8000 \n  PROB40 1016/1024 2000 <span class=\"hl\">BR</span> MIFG \n  BECMG 1101/1104 15010KT"
    },
    {
      "icao": "EGPD",
      "iata": "ABZ",
      "name": "Aberdeen International Airport",
      "updatedAt": "100720Z",
      "visibility_m": 10000,
      "taf_visibility_m": 1500,
      "worst_visibility_m": 1500,
      "ceiling_ft": null,
      "hazards": [],
      "severityScore": 10,
      "metarRaw": "METAR EGPD 100720Z AUTO 19007KT 9999 FEW010/// BKN046/// //////TCU 02/M00 Q1013",
      "tafRaw": "TAF EGPD 100453Z 1006/1106 17008KT 9999 FEW015 SCT025 \n  TEMPO 1006/1015 4000 -SHRASN BKN008 \n  PROB30 \n  TEMPO 1006/1015 1500 SHRASN BKN004 \n  PROB30 \n  TEMPO 1019/1103 19015G25KT \n  TEMPO 1103/1106 17015G25KT \n  BECMG 1104/1106 BKN014 \n  TEMPO 1104/1106 4000 -SNRA BKN006",
      "metarHtml": "METAR EGPD 100720Z AUTO 19007KT 9999 FEW010/// BKN046/// //////TCU 02/M00 Q1013",
      "tafHtml": "TAF EGPD 100453Z 1006/1106 17008KT 9999 FEW015 SCT025 \n  TEMPO 1006/1015 4000 -SHRASN BKN008 \n  PROB30 \n  TEMPO 1006/1015 1500 SHRASN BKN004 \n  PROB30 \n  TEMPO 1019/1103 19015G25KT \n  TEMPO 1103/1106 17015G25KT \n  BECMG 1104/1106 BKN014 \n  TEMPO 1104/1106 4000 -SNRA BKN006"
    },
    {
      "icao": "LEZL",
      "iata": "SVQ",
      "name": "Sevilla Airport",
      "updatedAt": "100730Z",
      "visibility_m": 10000,
      "taf_visibility_m": 4000,
      "worst_visibility_m": 4000,
      "ceiling_ft": null,
      "hazards": [
        "BR"
      ],
      "severityScore": 10,
      "metarRaw": "METAR LEZL 100730Z 00000KT CAVOK 04/04 Q1029 NOSIG",
      "tafRaw": "TAF LEZL 100200Z 1003/1103 VRB03KT CAVOK TX15/1015Z TN06/1007Z \n  PROB30 \n  TEMPO 1005/1009 4000 BR BKN012",
      "metarHtml": "METAR LEZL 100730Z 00000KT <span class=\"hl-vis\">CAVOK</span> 04/04 Q1029 NOSIG",
      "tafHtml": "TAF LEZL 100200Z 1003/1103 VRB03KT <span class=\"hl-vis\">CAVOK</span> TX15/1015Z TN06/1007Z \n  PROB30 \n  TEMPO 1005/1009 4000 <span class=\"hl\">BR</span> BKN012"
    },
    {
      "icao": "LHDC",
      "iata": "DEB",
      "name": "Debrecen International Airport",
      "updatedAt": "100715Z",
      "visibility_m": 4400,
      "taf_visibility_m": 2500,
      "worst_visibility_m": 2500,
      "ceiling_ft": 2300,
      "hazards": [
        "BR"
      ],
      "severityScore": 10,
      "metarRaw": "METAR LHDC 100715Z AUTO 06006KT 4400 BR OVC023 M05/M07 Q1002 BECMG 5000",
      "tafRaw": "TAF LHDC 100515Z 1006/1015 04005KT 9999 BKN025 OVC050 \n  TEMPO 1006/1010 2500 BR BKN012",
      "metarHtml": "METAR LHDC 100715Z AUTO 06006KT 4400 <span class=\"hl\">BR</span> OVC023 M05/M07 Q1002 BECMG 5000",
      "tafHtml": "TAF LHDC 100515Z 1006/1015 04005KT 9999 BKN025 OVC050 \n  TEMPO 1006/1010 2500 <span class=\"hl\">BR</span> BKN012"
    },
    {
      "icao": "LIMC",
      "iata": "MXP",
      "name": "Milan Malpensa International Airport",
      "updatedAt": "100720Z",
      "visibility_m": 4000,
      "taf_visibility_m": 7000,
      "worst_visibility_m": 4000,
      "ceiling_ft": null,
      "hazards": [
        "BR"
      ],
      "severityScore": 10,
      "metarRaw": "METAR LIMC 100720Z VRB02KT 4000 BR VCFG NSC M03/M04 Q1002 NOSIG",
      "tafRaw": "TAF LIMC 100500Z 1006/1112 VRB04KT 7000 NSC \n  BECMG 1021/1023 01010KT",
      "metarHtml": "METAR LIMC 100720Z VRB02KT 4000 <span class=\"hl\">BR</span> VCFG NSC M03/M04 Q1002 NOSIG",
      "tafHtml": "TAF LIMC 100500Z 1006/1112 VRB04KT 7000 NSC \n  BECMG 1021/1023 01010KT"
    },
    {
      "icao": "LIPE",
      "iata": "BLQ",
      "name": "Bologna Guglielmo Marconi Airport",
      "updatedAt": "100720Z",
      "visibility_m": 6000,
      "taf_visibility_m": 4000,
      "worst_visibility_m": 4000,
      "ceiling_ft": null,
      "hazards": [
        "BR"
      ],
      "severityScore": 10,
      "metarRaw": "METAR LIPE 100720Z 26007KT 6000 FEW030 00/M02 Q1002",
      "tafRaw": "TAF LIPE 100500Z 1006/1106 27006KT 7000 NSC \n  TEMPO 1006/1008 4000 BR",
      "metarHtml": "METAR LIPE 100720Z 26007KT 6000 FEW030 00/M02 Q1002",
      "tafHtml": "TAF LIPE 100500Z 1006/1106 27006KT 7000 NSC \n  TEMPO 1006/1008 4000 <span class=\"hl\">BR</span>"
    },
    {
      "icao": "LIPQ",
      "iata": "TRS",
      "name": "Trieste–Friuli Venezia Giulia Airport",
      "updatedAt": "100720Z",
      "visibility_m": 5000,
      "taf_visibility_m": 10000,
      "worst_visibility_m": 5000,
      "ceiling_ft": null,
      "hazards": [
        "BR"
      ],
      "severityScore": 10,
      "metarRaw": "METAR LIPQ 100720Z AUTO VRB04KT 5000 BR NCD M00/M00 Q1000",
      "tafRaw": "TAF LIPQ 100500Z 1006/1106 VRB05KT 9999 BKN030",
      "metarHtml": "METAR LIPQ 100720Z AUTO VRB04KT 5000 <span class=\"hl\">BR</span> NCD M00/M00 Q1000",
      "tafHtml": "TAF LIPQ 100500Z 1006/1106 VRB05KT 9999 BKN030"
    },
    {
      "icao": "LTAC",
      "iata": "ESB",
      "name": "Esenboğa International Airport",
      "updatedAt": "100720Z",
      "visibility_m": 10000,
      "taf_visibility_m": 4000,
      "worst_visibility_m": 4000,
      "ceiling_ft": 2900,
      "hazards": [
        "BR"
      ],
      "severityScore": 10,
      "metarRaw": "METAR LTAC 100720Z 02005KT 9999 BKN029 BKN090 M02/M06 Q1012 NOSIG RMK RWY21C 01006KT RWY03L 03005KT RWY21R 01006KT RWY03R 35004KT RWY21L 01006KT",
      "tafRaw": "TAF LTAC 100440Z 1006/1106 VRB02KT 9999 SCT040 BKN100 \n  BECMG 1014/1016 18012KT \n  TEMPO 1016/1020 18015G25KT -SHRASN FEW025CB BKN030 BKN080 \n  TEMPO 1100/1104 18020G35KT 4000 -SHRASN BR BKN030 BKN080",
      "metarHtml": "METAR LTAC 100720Z 02005KT 9999 BKN029 BKN090 M02/M06 Q1012 NOSIG RMK RWY21C 01006KT RWY03L 03005KT RWY21R 01006KT RWY03R 35004KT RWY21L 01006KT",
      "tafHtml": "TAF LTAC 100440Z 1006/1106 VRB02KT 9999 SCT040 BKN100 \n  BECMG 1014/1016 18012KT \n  TEMPO 1016/1020 18015G25KT -SHRASN FEW025CB BKN030 BKN080 \n  TEMPO 1100/1104 18020G35KT 4000 -SHRASN <span class=\"hl\">BR</span> BKN030 BKN080"
    },
    {
      "icao": "EDDS",
      "iata": "STR",
      "name": "Stuttgart Airport",
      "updatedAt": "100720Z",
      "visibility_m": 10000,
      "taf_visibility_m": null,
      "worst_visibility_m": 10000,
      "ceiling_ft": 3800,
      "hazards": [],
      "severityScore": 5,
      "metarRaw": "METAR EDDS 100720Z AUTO 23004KT 170V260 9999 FEW017 SCT024 OVC038 01/M01 Q1000 NOSIG",
      "tafRaw": null,
      "metarHtml": "METAR EDDS 100720Z AUTO 23004KT 170V260 9999 FEW017 SCT024 OVC038 01/M01 Q1000 NOSIG",
      "tafHtml": null
    },
    {
      "icao": "EYPA",
      "iata": "PLQ",
      "name": "Palanga International Airport",
      "updatedAt": "100750Z",
      "visibility_m": 10000,
      "taf_visibility_m": null,
      "worst_visibility_m": 10000,
      "ceiling_ft": null,
      "hazards": [],
      "severityScore": 5,
      "metarRaw": "METAR EYPA 100750Z 01008KT 330V040 CAVOK M06/M09 Q1004",
      "tafRaw": null,
      "metarHtml": "METAR EYPA 100750Z 01008KT 330V040 <span class=\"hl-vis\">CAVOK</span> M06/M09 Q1004",
      "tafHtml": null
    },
    {
      "icao": "LEBL",
      "iata": "BCN",
      "name": "Josep Tarradellas Barcelona-El Prat Airport",
      "updatedAt": "100730Z",
      "visibility_m": 10000,
      "taf_visibility_m": null,
      "worst_visibility_m": 10000,
      "ceiling_ft": null,
      "hazards": [],
      "severityScore": 5,
      "metarRaw": "METAR LEBL 100730Z 32019KT 290V350 9999 FEW032 08/01 Q1017 NOSIG",
      "tafRaw": null,
      "metarHtml": "METAR LEBL 100730Z 32019KT 290V350 9999 FEW032 08/01 Q1017 NOSIG",
      "tafHtml": null
    },
    {
      "icao": "LECH",
      "iata": "CDT",
      "name": "Castellón-Costa Azahar Airport",
      "updatedAt": "100730Z",
      "visibility_m": 9000,
      "taf_visibility_m": null,
      "worst_visibility_m": 9000,
      "ceiling_ft": null,
      "hazards": [],
      "severityScore": 5,
      "metarRaw": "METAR LECH 100730Z AUTO 17003KT 9000 NCD 06/M03 Q1022",
      "tafRaw": null,
      "metarHtml": "METAR LECH 100730Z AUTO 17003KT 9000 NCD 06/M03 Q1022",
      "tafHtml": null
    },
    {
      "icao": "LEMD",
      "iata": "MAD",
      "name": "Adolfo Suárez Madrid–Barajas Airport",
      "updatedAt": "100730Z",
      "visibility_m": 10000,
      "taf_visibility_m": null,
      "worst_visibility_m": 10000,
      "ceiling_ft": null,
      "hazards": [],
      "severityScore": 5,
      "metarRaw": "METAR LEMD 100730Z VRB01KT CAVOK 01/M01 Q1025 NOSIG",
      "tafRaw": null,
      "metarHtml": "METAR LEMD 100730Z VRB01KT <span class=\"hl-vis\">CAVOK</span> 01/M01 Q1025 NOSIG",
      "tafHtml": null
    },
    {
      "icao": "LEXJ",
      "iata": "SDR",
      "name": "Seve Ballesteros-Santander Airport",
      "updatedAt": "100730Z",
      "visibility_m": 10000,
      "taf_visibility_m": null,
      "worst_visibility_m": 10000,
      "ceiling_ft": 3000,
      "hazards": [],
      "severityScore": 5,
      "metarRaw": "METAR LEXJ 100730Z 28011KT 240V300 9999 BKN030 BKN065 09/05 Q1025",
      "tafRaw": null,
      "metarHtml": "METAR LEXJ 100730Z 28011KT 240V300 9999 BKN030 BKN065 09/05 Q1025",
      "tafHtml": null
    },
    {
      "icao": "LRSM",
      "iata": "SUJ",
      "name": "Satu Mare International Airport",
      "updatedAt": "100730Z",
      "visibility_m": 10000,
      "taf_visibility_m": null,
      "worst_visibility_m": 10000,
      "ceiling_ft": null,
      "hazards": [],
      "severityScore": 5,
      "metarRaw": "METAR LRSM 100730Z AUTO 10003KT 9999 FEW014/// OVC038/// M04/M06 Q1002",
      "tafRaw": null,
      "metarHtml": "METAR LRSM 100730Z AUTO 10003KT 9999 FEW014/// OVC038/// M04/M06 Q1002",
      "tafHtml": null
    },
    {
      "icao": "BIKF",
      "iata": "KEF",
      "name": "Keflavik International Airport",
      "updatedAt": "100730Z",
      "visibility_m": 10000,
      "taf_visibility_m": 10000,
      "worst_visibility_m": 10000,
      "ceiling_ft": null,
      "hazards": [],
      "severityScore": 0,
      "metarRaw": "METAR BIKF 100730Z 06004KT 020V090 CAVOK M04/M07 Q1011",
      "tafRaw": "TAF BIKF 100747Z 1009/1109 06007KT 9999 FEW040 TX00/1106Z TNM07/1009Z",
      "metarHtml": "METAR BIKF 100730Z 06004KT 020V090 <span class=\"hl-vis\">CAVOK</span> M04/M07 Q1011",
      "tafHtml": "TAF BIKF 100747Z 1009/1109 06007KT 9999 FEW040 TX00/1106Z TNM07/1009Z"
    },
    {
      "icao": "GCFV",
      "iata": "FUE",
      "name": "Fuerteventura Airport",
      "updatedAt": "100730Z",
      "visibility_m": 10000,
      "taf_visibility_m": 10000,
      "worst_visibility_m": 10000,
      "ceiling_ft": 2900,
      "hazards": [],
      "severityScore": 0,
      "metarRaw": "METAR GCFV 100730Z 02015KT 9999 SCT025 BKN029 18/11 Q1027",
      "tafRaw": "TAF GCFV 100200Z 1003/1103 05015KT 9999 BKN025 TX20/1014Z TN15/1006Z \n  TEMPO 1003/1006 02005KT \n  PROB30 \n  TEMPO 1012/1024 05015G25KT \n  BECMG 1019/1021 02005KT",
      "metarHtml": "METAR GCFV 100730Z 02015KT 9999 SCT025 BKN029 18/11 Q1027",
      "tafHtml": "TAF GCFV 100200Z 1003/1103 05015KT 9999 BKN025 TX20/1014Z TN15/1006Z \n  TEMPO 1003/1006 02005KT \n  PROB30 \n  TEMPO 1012/1024 05015G25KT \n  BECMG 1019/1021 02005KT"
    },
    {
      "icao": "GCTS",
      "iata": "TFS",
      "name": "Tenerife Sur Airport",
      "updatedAt": "100730Z",
      "visibility_m": 10000,
      "taf_visibility_m": 10000,
      "worst_visibility_m": 10000,
      "ceiling_ft": null,
      "hazards": [],
      "severityScore": 0,
      "metarRaw": "METAR GCTS 100730Z 03011KT 9999 FEW040 16/08 Q1028 NOSIG",
      "tafRaw": "TAF GCTS 100200Z 1003/1103 04009KT 9999 SCT030 TX23/1014Z TN15/1006Z \n  BECMG 1009/1011 10015KT \n  PROB30 \n  TEMPO 1009/1018 10015G25KT \n  BECMG 1019/1021 04010KT",
      "metarHtml": "METAR GCTS 100730Z 03011KT 9999 FEW040 16/08 Q1028 NOSIG",
      "tafHtml": "TAF GCTS 100200Z 1003/1103 04009KT 9999 SCT030 TX23/1014Z TN15/1006Z \n  BECMG 1009/1011 10015KT \n  PROB30 \n  TEMPO 1009/1018 10015G25KT \n  BECMG 1019/1021 04010KT"
    },
    {
      "icao": "GMAD",
      "iata": "AGA",
      "name": "Al Massira Airport",
      "updatedAt": "100730Z",
      "visibility_m": 10000,
      "taf_visibility_m": 10000,
      "worst_visibility_m": 10000,
      "ceiling_ft": null,
      "hazards": [],
      "severityScore": 0,
      "metarRaw": "METAR GMAD 100730Z 09004KT CAVOK 05/04 Q1026 NOSIG",
      "tafRaw": "TAF GMAD 100500Z 1006/1112 06008KT CAVOK",
      "metarHtml": "METAR GMAD 100730Z 09004KT <span class=\"hl-vis\">CAVOK</span> 05/04 Q1026 NOSIG",
      "tafHtml": "TAF GMAD 100500Z 1006/1112 06008KT <span class=\"hl-vis\">CAVOK</span>"
    },
    {
      "icao": "EFTU",
      "iata": "TKU",
      "name": "Turku Airport",
      "updatedAt": "100750Z",
      "visibility_m": 10000,
      "taf_visibility_m": 5000,
      "worst_visibility_m": 5000,
      "ceiling_ft": null,
      "hazards": [],
      "severityScore": 0,
      "metarRaw": "METAR EFTU 100750Z AUTO 02006KT 350V050 CAVOK M12/M15 Q1015",
      "tafRaw": "TAF EFTU 100527Z 1006/1106 04008KT 9999 BKN023 \n  TEMPO 1007/1011 DRSN \n  TEMPO 1011/1106 02015G25KT DRSN \n  BECMG 1104/1106 5000",
      "metarHtml": "METAR EFTU 100750Z AUTO 02006KT 350V050 <span class=\"hl-vis\">CAVOK</span> M12/M15 Q1015",
      "tafHtml": "TAF EFTU 100527Z 1006/1106 04008KT 9999 BKN023 \n  TEMPO 1007/1011 DRSN \n  TEMPO 1011/1106 02015G25KT DRSN \n  BECMG 1104/1106 5000"
    },
    {
      "icao": "EKBI",
      "iata": "BLL",
      "name": "Billund Airport",
      "updatedAt": "100720Z",
      "visibility_m": 10000,
      "taf_visibility_m": 9000,
      "worst_visibility_m": 9000,
      "ceiling_ft": null,
      "hazards": [],
      "severityScore": 0,
      "metarRaw": "METAR EKBI 100720Z AUTO 06016KT 9999 BKN048/// M02/M06 Q1015",
      "tafRaw": "TAF EKBI 100527Z 1006/1106 06015KT 9000 BKN040 \n  BECMG 1021/1023 35005KT",
      "metarHtml": "METAR EKBI 100720Z AUTO 06016KT 9999 BKN048/// M02/M06 Q1015",
      "tafHtml": "TAF EKBI 100527Z 1006/1106 06015KT 9000 BKN040 \n  BECMG 1021/1023 35005KT"
    },
    {
      "icao": "EKCH",
      "iata": "CPH",
      "name": "Copenhagen Kastrup Airport",
      "updatedAt": "100720Z",
      "visibility_m": 10000,
      "taf_visibility_m": 10000,
      "worst_visibility_m": 10000,
      "ceiling_ft": null,
      "hazards": [],
      "severityScore": 0,
      "metarRaw": "METAR EKCH 100720Z AUTO 03018KT 9999 NCD M03/M06 Q1015 NOSIG",
      "tafRaw": "TAF EKCH 100527Z 1006/1106 04018KT 9999 BKN030 \n  BECMG 1016/1019 34016KT \n  TEMPO 1019/1023 35016G26KT",
      "metarHtml": "METAR EKCH 100720Z AUTO 03018KT 9999 NCD M03/M06 Q1015 NOSIG",
      "tafHtml": "TAF EKCH 100527Z 1006/1106 04018KT 9999 BKN030 \n  BECMG 1016/1019 34016KT \n  TEMPO 1019/1023 35016G26KT"
    },
    {
      "icao": "ENAL",
      "iata": "AES",
      "name": "Ålesund Airport, Vigra",
      "updatedAt": "100720Z",
      "visibility_m": 10000,
      "taf_visibility_m": 10000,
      "worst_visibility_m": 10000,
      "ceiling_ft": null,
      "hazards": [],
      "severityScore": 0,
      "metarRaw": "METAR ENAL 100720Z 18008KT CAVOK M01/M10 Q1019",
      "tafRaw": "TAF ENAL 100500Z 1006/1015 20008KT CAVOK",
      "metarHtml": "METAR ENAL 100720Z 18008KT <span class=\"hl-vis\">CAVOK</span> M01/M10 Q1019",
      "tafHtml": "TAF ENAL 100500Z 1006/1015 20008KT <span class=\"hl-vis\">CAVOK</span>"
    },
    {
      "icao": "ENBR",
      "iata": "BGO",
      "name": "Bergen Airport, Flesland",
      "updatedAt": "100720Z",
      "visibility_m": 10000,
      "taf_visibility_m": 10000,
      "worst_visibility_m": 10000,
      "ceiling_ft": null,
      "hazards": [],
      "severityScore": 0,
      "metarRaw": "METAR ENBR 100720Z VRB02KT CAVOK M06/M13 Q1021 NOSIG RMK WIND 1200FT 14006KT",
      "tafRaw": "TAF ENBR 100500Z 1006/1106 10005KT CAVOK",
      "metarHtml": "METAR ENBR 100720Z VRB02KT <span class=\"hl-vis\">CAVOK</span> M06/M13 Q1021 NOSIG RMK WIND 1200FT 14006KT",
      "tafHtml": "TAF ENBR 100500Z 1006/1106 10005KT <span class=\"hl-vis\">CAVOK</span>"
    },
    {
      "icao": "ENGM",
      "iata": "OSL",
      "name": "Oslo-Gardermoen International Airport",
      "updatedAt": "100720Z",
      "visibility_m": 10000,
      "taf_visibility_m": 2000,
      "worst_visibility_m": 2000,
      "ceiling_ft": null,
      "hazards": [],
      "severityScore": 0,
      "metarRaw": "METAR ENGM 100720Z 35003KT CAVOK M14/M15 Q1023 NOSIG",
      "tafRaw": "TAF ENGM 100500Z 1006/1106 35005KT CAVOK \n  PROB30 1015/1106 2000 BCFG BKN002",
      "metarHtml": "METAR ENGM 100720Z 35003KT <span class=\"hl-vis\">CAVOK</span> M14/M15 Q1023 NOSIG",
      "tafHtml": "TAF ENGM 100500Z 1006/1106 35005KT <span class=\"hl-vis\">CAVOK</span> \n  PROB30 1015/1106 2000 BCFG BKN002"
    },
    {
      "icao": "ENHD",
      "iata": "HAU",
      "name": "Haugesund Airport, Karmøy",
      "updatedAt": "100720Z",
      "visibility_m": 10000,
      "taf_visibility_m": 10000,
      "worst_visibility_m": 10000,
      "ceiling_ft": null,
      "hazards": [],
      "severityScore": 0,
      "metarRaw": "METAR ENHD 100720Z COR 15007KT CAVOK M09/M12 Q1021",
      "tafRaw": "TAF ENHD 100500Z 1006/1015 08008KT CAVOK",
      "metarHtml": "METAR ENHD 100720Z COR 15007KT <span class=\"hl-vis\">CAVOK</span> M09/M12 Q1021",
      "tafHtml": "TAF ENHD 100500Z 1006/1015 08008KT <span class=\"hl-vis\">CAVOK</span>"
    },
    {
      "icao": "ENTC",
      "iata": "TOS",
      "name": "Tromsø Airport, Langnes",
      "updatedAt": "100720Z",
      "visibility_m": 10000,
      "taf_visibility_m": 10000,
      "worst_visibility_m": 10000,
      "ceiling_ft": null,
      "hazards": [],
      "severityScore": 0,
      "metarRaw": "METAR ENTC 100720Z VRB02KT CAVOK M12/M14 Q1021 NOSIG RMK WIND 2600FT 06007KT",
      "tafRaw": "TAF ENTC 100500Z 1006/1106 20003KT CAVOK",
      "metarHtml": "METAR ENTC 100720Z VRB02KT <span class=\"hl-vis\">CAVOK</span> M12/M14 Q1021 NOSIG RMK WIND 2600FT 06007KT",
      "tafHtml": "TAF ENTC 100500Z 1006/1106 20003KT <span class=\"hl-vis\">CAVOK</span>"
    },
    {
      "icao": "ENTO",
      "iata": "TRF",
      "name": "Sandefjord Airport, Torp",
      "updatedAt": "100720Z",
      "visibility_m": 10000,
      "taf_visibility_m": 10000,
      "worst_visibility_m": 10000,
      "ceiling_ft": null,
      "hazards": [],
      "severityScore": 0,
      "metarRaw": "METAR ENTO 100720Z 01005KT CAVOK M10/M12 Q1023 NOSIG",
      "tafRaw": "TAF ENTO 100500Z 1006/1106 36008KT CAVOK",
      "metarHtml": "METAR ENTO 100720Z 01005KT <span class=\"hl-vis\">CAVOK</span> M10/M12 Q1023 NOSIG",
      "tafHtml": "TAF ENTO 100500Z 1006/1106 36008KT <span class=\"hl-vis\">CAVOK</span>"
    },
    {
      "icao": "ENVA",
      "iata": "TRD",
      "name": "Trondheim Airport, Værnes",
      "updatedAt": "100720Z",
      "visibility_m": 10000,
      "taf_visibility_m": 10000,
      "worst_visibility_m": 10000,
      "ceiling_ft": null,
      "hazards": [],
      "severityScore": 0,
      "metarRaw": "METAR ENVA 100720Z 12003KT CAVOK M03/M12 Q1020 NOSIG RMK WIND 670FT 14011KT",
      "tafRaw": "TAF ENVA 100500Z 1006/1106 10008KT CAVOK",
      "metarHtml": "METAR ENVA 100720Z 12003KT <span class=\"hl-vis\">CAVOK</span> M03/M12 Q1020 NOSIG RMK WIND 670FT 14011KT",
      "tafHtml": "TAF ENVA 100500Z 1006/1106 10008KT <span class=\"hl-vis\">CAVOK</span>"
    },
    {
      "icao": "ENZV",
      "iata": "SVG",
      "name": "Stavanger Airport, Sola",
      "updatedAt": "100720Z",
      "visibility_m": 10000,
      "taf_visibility_m": 10000,
      "worst_visibility_m": 10000,
      "ceiling_ft": null,
      "hazards": [],
      "severityScore": 0,
      "metarRaw": "METAR ENZV 100720Z 10009KT CAVOK M04/M12 Q1022 NOSIG",
      "tafRaw": "TAF ENZV 100500Z 1006/1106 08008KT CAVOK \n  BECMG 1012/1014 14010KT",
      "metarHtml": "METAR ENZV 100720Z 10009KT <span class=\"hl-vis\">CAVOK</span> M04/M12 Q1022 NOSIG",
      "tafHtml": "TAF ENZV 100500Z 1006/1106 08008KT <span class=\"hl-vis\">CAVOK</span> \n  BECMG 1012/1014 14010KT"
    },
    {
      "icao": "ESGG",
      "iata": "GOT",
      "name": "Göteborg Landvetter Airport",
      "updatedAt": "100720Z",
      "visibility_m": 10000,
      "taf_visibility_m": 10000,
      "worst_visibility_m": 10000,
      "ceiling_ft": null,
      "hazards": [],
      "severityScore": 0,
      "metarRaw": "METAR ESGG 100720Z 02012KT CAVOK M11/M13 Q1018",
      "tafRaw": "TAF ESGG 100530Z 1006/1106 02009KT CAVOK \n  PROB40 1013/1106 BKN009",
      "metarHtml": "METAR ESGG 100720Z 02012KT <span class=\"hl-vis\">CAVOK</span> M11/M13 Q1018",
      "tafHtml": "TAF ESGG 100530Z 1006/1106 02009KT <span class=\"hl-vis\">CAVOK</span> \n  PROB40 1013/1106 BKN009"
    },
    {
      "icao": "ESKN",
      "iata": "NYO",
      "name": "Stockholm Skavsta Airport",
      "updatedAt": "100720Z",
      "visibility_m": 10000,
      "taf_visibility_m": 10000,
      "worst_visibility_m": 10000,
      "ceiling_ft": null,
      "hazards": [],
      "severityScore": 0,
      "metarRaw": "METAR ESKN 100720Z 34010KT CAVOK M08/M11 Q1017",
      "tafRaw": "TAF ESKN 100530Z 1006/1106 34008KT CAVOK \n  BECMG 1010/1012 01015G25KT",
      "metarHtml": "METAR ESKN 100720Z 34010KT <span class=\"hl-vis\">CAVOK</span> M08/M11 Q1017",
      "tafHtml": "TAF ESKN 100530Z 1006/1106 34008KT <span class=\"hl-vis\">CAVOK</span> \n  BECMG 1010/1012 01015G25KT"
    },
    {
      "icao": "ESMS",
      "iata": "MMX",
      "name": "Malmö Sturup Airport",
      "updatedAt": "100720Z",
      "visibility_m": 10000,
      "taf_visibility_m": 10000,
      "worst_visibility_m": 10000,
      "ceiling_ft": null,
      "hazards": [],
      "severityScore": 0,
      "metarRaw": "METAR ESMS 100720Z 01010KT CAVOK M07/M09 Q1013",
      "tafRaw": "TAF ESMS 100527Z 1006/1106 03016KT 9999 BKN040 \n  BECMG 1014/1016 33008KT",
      "metarHtml": "METAR ESMS 100720Z 01010KT <span class=\"hl-vis\">CAVOK</span> M07/M09 Q1013",
      "tafHtml": "TAF ESMS 100527Z 1006/1106 03016KT 9999 BKN040 \n  BECMG 1014/1016 33008KT"
    },
    {
      "icao": "ESSA",
      "iata": "ARN",
      "name": "Stockholm-Arlanda Airport",
      "updatedAt": "100720Z",
      "visibility_m": 10000,
      "taf_visibility_m": 10000,
      "worst_visibility_m": 10000,
      "ceiling_ft": null,
      "hazards": [],
      "severityScore": 0,
      "metarRaw": "METAR ESSA 100720Z 35010KT CAVOK M10/M12 Q1018 NOSIG",
      "tafRaw": "TAF ESSA 100530Z 1006/1106 35012KT CAVOK \n  BECMG 1010/1012 01015G25KT",
      "metarHtml": "METAR ESSA 100720Z 35010KT <span class=\"hl-vis\">CAVOK</span> M10/M12 Q1018 NOSIG",
      "tafHtml": "TAF ESSA 100530Z 1006/1106 35012KT <span class=\"hl-vis\">CAVOK</span> \n  BECMG 1010/1012 01015G25KT"
    },
    {
      "icao": "HEGN",
      "iata": "HRG",
      "name": "Hurghada International Airport",
      "updatedAt": "100700Z",
      "visibility_m": 10000,
      "taf_visibility_m": 4000,
      "worst_visibility_m": 4000,
      "ceiling_ft": null,
      "hazards": [],
      "severityScore": 0,
      "metarRaw": "METAR HEGN 100700Z 30016KT 9999 FEW020 17/07 Q1023 NOSIG",
      "tafRaw": "TAF HEGN 100500Z 1006/1112 32010G24KT 6000 NSC \n  TEMPO 1006/1018 4000 SA",
      "metarHtml": "METAR HEGN 100700Z 30016KT 9999 FEW020 17/07 Q1023 NOSIG",
      "tafHtml": "TAF HEGN 100500Z 1006/1112 32010G24KT 6000 NSC \n  TEMPO 1006/1018 4000 SA"
    },
    {
      "icao": "HEMA",
      "iata": "RMF",
      "name": "Marsa Alam International Airport",
      "updatedAt": "100700Z",
      "visibility_m": 10000,
      "taf_visibility_m": 4000,
      "worst_visibility_m": 4000,
      "ceiling_ft": null,
      "hazards": [],
      "severityScore": 0,
      "metarRaw": "METAR HEMA 100700Z 32022KT CAVOK 19/09 Q1020 NOSIG",
      "tafRaw": "TAF HEMA 100500Z 1006/1112 33010G24KT 6000 NSC \n  TEMPO 1006/1018 4000 SA",
      "metarHtml": "METAR HEMA 100700Z 32022KT <span class=\"hl-vis\">CAVOK</span> 19/09 Q1020 NOSIG",
      "tafHtml": "TAF HEMA 100500Z 1006/1112 33010G24KT 6000 NSC \n  TEMPO 1006/1018 4000 SA"
    },
    {
      "icao": "HESH",
      "iata": "SSH",
      "name": "Sharm El Sheikh International Airport",
      "updatedAt": "100700Z",
      "visibility_m": 10000,
      "taf_visibility_m": 10000,
      "worst_visibility_m": 10000,
      "ceiling_ft": null,
      "hazards": [],
      "severityScore": 0,
      "metarRaw": "METAR HESH 100700Z 35018KT CAVOK 19/05 Q1022 NOSIG",
      "tafRaw": "TAF HESH 100500Z 1006/1112 34014KT CAVOK",
      "metarHtml": "METAR HESH 100700Z 35018KT <span class=\"hl-vis\">CAVOK</span> 19/05 Q1022 NOSIG",
      "tafHtml": "TAF HESH 100500Z 1006/1112 34014KT <span class=\"hl-vis\">CAVOK</span>"
    },
    {
      "icao": "LEAL",
      "iata": "ALC",
      "name": "Alicante-Elche Miguel Hernández Airport",
      "updatedAt": "100730Z",
      "visibility_m": 10000,
      "taf_visibility_m": 10000,
      "worst_visibility_m": 10000,
      "ceiling_ft": null,
      "hazards": [],
      "severityScore": 0,
      "metarRaw": "METAR LEAL 100730Z 29009KT CAVOK 09/03 Q1025 NOSIG",
      "tafRaw": "TAF LEAL 100500Z 1006/1106 27009KT 9999 FEW040 TX16/1014Z TN08/1006Z \n  BECMG 1006/1008 29017KT \n  TEMPO 1006/1014 31022G35KT \n  BECMG 1013/1016 28007KT",
      "metarHtml": "METAR LEAL 100730Z 29009KT <span class=\"hl-vis\">CAVOK</span> 09/03 Q1025 NOSIG",
      "tafHtml": "TAF LEAL 100500Z 1006/1106 27009KT 9999 FEW040 TX16/1014Z TN08/1006Z \n  BECMG 1006/1008 29017KT \n  TEMPO 1006/1014 31022G35KT \n  BECMG 1013/1016 28007KT"
    },
    {
      "icao": "LEMG",
      "iata": "AGP",
      "name": "Málaga-Costa del Sol Airport",
      "updatedAt": "100730Z",
      "visibility_m": 10000,
      "taf_visibility_m": 10000,
      "worst_visibility_m": 10000,
      "ceiling_ft": null,
      "hazards": [],
      "severityScore": 0,
      "metarRaw": "METAR LEMG 100730Z 30014KT CAVOK 10/05 Q1027 NOSIG",
      "tafRaw": "TAF LEMG 100500Z 1006/1106 30015KT CAVOK TX18/1014Z TN10/1006Z \n  PROB30 \n  TEMPO 1006/1102 30015G28KT",
      "metarHtml": "METAR LEMG 100730Z 30014KT <span class=\"hl-vis\">CAVOK</span> 10/05 Q1027 NOSIG",
      "tafHtml": "TAF LEMG 100500Z 1006/1106 30015KT <span class=\"hl-vis\">CAVOK</span> TX18/1014Z TN10/1006Z \n  PROB30 \n  TEMPO 1006/1102 30015G28KT"
    },
    {
      "icao": "LEVC",
      "iata": "VLC",
      "name": "Valencia Airport",
      "updatedAt": "100730Z",
      "visibility_m": 10000,
      "taf_visibility_m": 10000,
      "worst_visibility_m": 10000,
      "ceiling_ft": null,
      "hazards": [],
      "severityScore": 0,
      "metarRaw": "METAR LEVC 100730Z VRB04KT CAVOK 07/00 Q1024 NOSIG",
      "tafRaw": "TAF LEVC 100500Z 1006/1106 27008KT 9999 FEW040 TX16/1014Z TN07/1006Z \n  TEMPO 1010/1016 29015G25KT",
      "metarHtml": "METAR LEVC 100730Z VRB04KT <span class=\"hl-vis\">CAVOK</span> 07/00 Q1024 NOSIG",
      "tafHtml": "TAF LEVC 100500Z 1006/1106 27008KT 9999 FEW040 TX16/1014Z TN07/1006Z \n  TEMPO 1010/1016 29015G25KT"
    },
    {
      "icao": "LEZG",
      "iata": "ZAZ",
      "name": "Zaragoza Airport",
      "updatedAt": "100730Z",
      "visibility_m": 10000,
      "taf_visibility_m": 10000,
      "worst_visibility_m": 10000,
      "ceiling_ft": null,
      "hazards": [],
      "severityScore": 0,
      "metarRaw": "METAR LEZG 100730Z 28007KT 9999 SCT050 05/M00 Q1023 NOSIG",
      "tafRaw": "TAF LEZG 100500Z 1006/1106 28012KT 9999 FEW040 TX11/1015Z TN05/1006Z \n  TEMPO 1011/1017 31020G30KT",
      "metarHtml": "METAR LEZG 100730Z 28007KT 9999 SCT050 05/M00 Q1023 NOSIG",
      "tafHtml": "TAF LEZG 100500Z 1006/1106 28012KT 9999 FEW040 TX11/1015Z TN05/1006Z \n  TEMPO 1011/1017 31020G30KT"
    },
    {
      "icao": "LFMN",
      "iata": "NCE",
      "name": "Nice-Côte d'Azur Airport",
      "updatedAt": "100730Z",
      "visibility_m": 10000,
      "taf_visibility_m": 10000,
      "worst_visibility_m": 10000,
      "ceiling_ft": null,
      "hazards": [],
      "severityScore": 0,
      "metarRaw": "METAR LFMN 100730Z 32008KT 280V020 CAVOK 10/M06 Q1002 TEMPO 30015G30KT",
      "tafRaw": "TAF LFMN 100200Z 1003/1109 34015KT CAVOK \n  TEMPO 1004/1005 29015G35KT \n  BECMG 1006/1008 33015G30KT \n  BECMG 1016/1018 34010KT \n  BECMG 1104/1106 VRB02KT",
      "metarHtml": "METAR LFMN 100730Z 32008KT 280V020 <span class=\"hl-vis\">CAVOK</span> 10/M06 Q1002 TEMPO 30015G30KT",
      "tafHtml": "TAF LFMN 100200Z 1003/1109 34015KT <span class=\"hl-vis\">CAVOK</span> \n  TEMPO 1004/1005 29015G35KT \n  BECMG 1006/1008 33015G30KT \n  BECMG 1016/1018 34010KT \n  BECMG 1104/1106 VRB02KT"
    },
    {
      "icao": "LFPO",
      "iata": "ORY",
      "name": "Paris-Orly Airport",
      "updatedAt": "100730Z",
      "visibility_m": 10000,
      "taf_visibility_m": 10000,
      "worst_visibility_m": 10000,
      "ceiling_ft": 4400,
      "hazards": [],
      "severityScore": 0,
      "metarRaw": "METAR LFPO 100730Z 29010KT 9999 SCT029 BKN044 04/M00 Q1009 NOSIG",
      "tafRaw": "TAF LFPO 100500Z 1006/1112 30010KT 9999 BKN025 \n  TEMPO 1006/1016 30015G25KT \n  BECMG 1022/1024 22005KT \n  BECMG 1106/1108 16010KT",
      "metarHtml": "METAR LFPO 100730Z 29010KT 9999 SCT029 BKN044 04/M00 Q1009 NOSIG",
      "tafHtml": "TAF LFPO 100500Z 1006/1112 30010KT 9999 BKN025 \n  TEMPO 1006/1016 30015G25KT \n  BECMG 1022/1024 22005KT \n  BECMG 1106/1108 16010KT"
    },
    {
      "icao": "LICC",
      "iata": "CTA",
      "name": "Catania-Fontanarossa Airport",
      "updatedAt": "100720Z",
      "visibility_m": 10000,
      "taf_visibility_m": 10000,
      "worst_visibility_m": 10000,
      "ceiling_ft": null,
      "hazards": [],
      "severityScore": 0,
      "metarRaw": "METAR LICC 100720Z 27019G29KT 9999 SCT050 14/09 Q1008",
      "tafRaw": "TAF LICC 100500Z 1006/1106 26018G30KT 9999 FEW050",
      "metarHtml": "METAR LICC 100720Z 27019G29KT 9999 SCT050 14/09 Q1008",
      "tafHtml": "TAF LICC 100500Z 1006/1106 26018G30KT 9999 FEW050"
    },
    {
      "icao": "LIME",
      "iata": "BGY",
      "name": "Milan Bergamo Airport / Antonio Locatelli Air Base",
      "updatedAt": "100720Z",
      "visibility_m": 10000,
      "taf_visibility_m": 8000,
      "worst_visibility_m": 8000,
      "ceiling_ft": null,
      "hazards": [],
      "severityScore": 0,
      "metarRaw": "METAR LIME 100720Z 01005KT CAVOK M02/M04 Q1002 NOSIG",
      "tafRaw": "TAF LIME 100500Z 1006/1106 VRB04KT 8000 NSC \n  BECMG 1020/1022 33010KT",
      "metarHtml": "METAR LIME 100720Z 01005KT <span class=\"hl-vis\">CAVOK</span> M02/M04 Q1002 NOSIG",
      "tafHtml": "TAF LIME 100500Z 1006/1106 VRB04KT 8000 NSC \n  BECMG 1020/1022 33010KT"
    },
    {
      "icao": "LIMF",
      "iata": "TRN",
      "name": "Turin Airport",
      "updatedAt": "100720Z",
      "visibility_m": 10000,
      "taf_visibility_m": 8000,
      "worst_visibility_m": 8000,
      "ceiling_ft": null,
      "hazards": [],
      "severityScore": 0,
      "metarRaw": "METAR LIMF 100720Z VRB02KT CAVOK 01/M06 Q1001",
      "tafRaw": "TAF LIMF 100500Z 1006/1106 30010KT 8000 NSC \n  TEMPO 1006/1016 30016G26KT \n  BECMG 1020/1022 VRB05KT",
      "metarHtml": "METAR LIMF 100720Z VRB02KT <span class=\"hl-vis\">CAVOK</span> 01/M06 Q1001",
      "tafHtml": "TAF LIMF 100500Z 1006/1106 30010KT 8000 NSC \n  TEMPO 1006/1016 30016G26KT \n  BECMG 1020/1022 VRB05KT"
    },
    {
      "icao": "LIMJ",
      "iata": "GOA",
      "name": "Genoa Cristoforo Colombo Airport",
      "updatedAt": "100720Z",
      "visibility_m": 10000,
      "taf_visibility_m": 10000,
      "worst_visibility_m": 10000,
      "ceiling_ft": null,
      "hazards": [],
      "severityScore": 0,
      "metarRaw": "METAR LIMJ 100720Z 03004KT CAVOK 06/M05 Q1002",
      "tafRaw": "TAF LIMJ 100500Z 1006/1106 04013KT CAVOK",
      "metarHtml": "METAR LIMJ 100720Z 03004KT <span class=\"hl-vis\">CAVOK</span> 06/M05 Q1002",
      "tafHtml": "TAF LIMJ 100500Z 1006/1106 04013KT <span class=\"hl-vis\">CAVOK</span>"
    },
    {
      "icao": "LIPH",
      "iata": "TSF",
      "name": "Treviso Antonio Canova Airport",
      "updatedAt": "100720Z",
      "visibility_m": 10000,
      "taf_visibility_m": 10000,
      "worst_visibility_m": 10000,
      "ceiling_ft": null,
      "hazards": [],
      "severityScore": 0,
      "metarRaw": "METAR LIPH 100720Z 28004KT CAVOK M01/M04 Q1001",
      "tafRaw": "TAF LIPH 100500Z 1006/1106 VRB05KT 9999 SCT040 \n  TEMPO 1006/1008 BKN010",
      "metarHtml": "METAR LIPH 100720Z 28004KT <span class=\"hl-vis\">CAVOK</span> M01/M04 Q1001",
      "tafHtml": "TAF LIPH 100500Z 1006/1106 VRB05KT 9999 SCT040 \n  TEMPO 1006/1008 BKN010"
    },
    {
      "icao": "LIPR",
      "iata": "RMI",
      "name": "Federico Fellini International Airport",
      "updatedAt": "100720Z",
      "visibility_m": 6000,
      "taf_visibility_m": 7000,
      "worst_visibility_m": 6000,
      "ceiling_ft": 3000,
      "hazards": [],
      "severityScore": 0,
      "metarRaw": "METAR LIPR 100720Z 29010KT 6000 BKN030 02/M01 Q1001",
      "tafRaw": "TAF LIPR 100500Z 1006/1106 30010KT 7000 SCT040 \n  BECMG 1018/1020 24005KT",
      "metarHtml": "METAR LIPR 100720Z 29010KT 6000 BKN030 02/M01 Q1001",
      "tafHtml": "TAF LIPR 100500Z 1006/1106 30010KT 7000 SCT040 \n  BECMG 1018/1020 24005KT"
    },
    {
      "icao": "LIPX",
      "iata": "VRN",
      "name": "Verona Villafranca Valerio Catullo Airport",
      "updatedAt": "100720Z",
      "visibility_m": 10000,
      "taf_visibility_m": 8000,
      "worst_visibility_m": 8000,
      "ceiling_ft": null,
      "hazards": [],
      "severityScore": 0,
      "metarRaw": "METAR LIPX 100720Z 28004KT 260V340 CAVOK M03/M04 Q1001",
      "tafRaw": "TAF LIPX 100500Z 1006/1106 VRB05KT 8000 NSC",
      "metarHtml": "METAR LIPX 100720Z 28004KT 260V340 <span class=\"hl-vis\">CAVOK</span> M03/M04 Q1001",
      "tafHtml": "TAF LIPX 100500Z 1006/1106 VRB05KT 8000 NSC"
    },
    {
      "icao": "LIPZ",
      "iata": "VCE",
      "name": "Venice Marco Polo Airport",
      "updatedAt": "100720Z",
      "visibility_m": 10000,
      "taf_visibility_m": 10000,
      "worst_visibility_m": 10000,
      "ceiling_ft": null,
      "hazards": [],
      "severityScore": 0,
      "metarRaw": "METAR LIPZ 100720Z 31008KT CAVOK M02/M04 Q1001 NOSIG",
      "tafRaw": "TAF LIPZ 100500Z 1006/1112 VRB05KT CAVOK",
      "metarHtml": "METAR LIPZ 100720Z 31008KT <span class=\"hl-vis\">CAVOK</span> M02/M04 Q1001 NOSIG",
      "tafHtml": "TAF LIPZ 100500Z 1006/1112 VRB05KT <span class=\"hl-vis\">CAVOK</span>"
    },
    {
      "icao": "LIRP",
      "iata": "PSA",
      "name": "Pisa International Airport",
      "updatedAt": "100715Z",
      "visibility_m": 10000,
      "taf_visibility_m": 10000,
      "worst_visibility_m": 10000,
      "ceiling_ft": null,
      "hazards": [],
      "severityScore": 0,
      "metarRaw": "METAR LIRP 100715Z 12005KT 9999 SCT080 05/04 Q1000 NOSIG",
      "tafRaw": "TAF LIRP 100500Z 1006/1106 VRB05KT 9999 SCT040 \n  BECMG 1009/1011 CAVOK \n  BECMG 1015/1017 29012KT",
      "metarHtml": "METAR LIRP 100715Z 12005KT 9999 SCT080 05/04 Q1000 NOSIG",
      "tafHtml": "TAF LIRP 100500Z 1006/1106 VRB05KT 9999 SCT040 \n  BECMG 1009/1011 <span class=\"hl-vis\">CAVOK</span> \n  BECMG 1015/1017 29012KT"
    },
    {
      "icao": "LIRZ",
      "iata": "PEG",
      "name": "Perugia San Francesco d'Assisi – Umbria International Airport",
      "updatedAt": "100720Z",
      "visibility_m": 10000,
      "taf_visibility_m": 10000,
      "worst_visibility_m": 10000,
      "ceiling_ft": null,
      "hazards": [],
      "severityScore": 0,
      "metarRaw": "METAR LIRZ 100720Z AUTO VRB02KT 9999 FEW026/// BKN088/// 04/04 Q0998 REDZ RERA",
      "tafRaw": "TAF LIRZ 100500Z 1006/1106 VRB05KT 9999 BKN040 \n  BECMG 1009/1011 35012KT",
      "metarHtml": "METAR LIRZ 100720Z AUTO VRB02KT 9999 FEW026/// BKN088/// 04/04 Q0998 REDZ RERA",
      "tafHtml": "TAF LIRZ 100500Z 1006/1106 VRB05KT 9999 BKN040 \n  BECMG 1009/1011 35012KT"
    },
    {
      "icao": "LPFR",
      "iata": "FAO",
      "name": "Faro Airport",
      "updatedAt": "100730Z",
      "visibility_m": 10000,
      "taf_visibility_m": 10000,
      "worst_visibility_m": 10000,
      "ceiling_ft": null,
      "hazards": [],
      "severityScore": 0,
      "metarRaw": "METAR LPFR 100730Z 04004KT 9999 FEW025 05/04 Q1030",
      "tafRaw": "TAF LPFR 100500Z 1006/1106 32005KT 9999 FEW035 \n  BECMG 1012/1014 25012KT SCT025 \n  BECMG 1018/1021 36005KT CAVOK",
      "metarHtml": "METAR LPFR 100730Z 04004KT 9999 FEW025 05/04 Q1030",
      "tafHtml": "TAF LPFR 100500Z 1006/1106 32005KT 9999 FEW035 \n  BECMG 1012/1014 25012KT SCT025 \n  BECMG 1018/1021 36005KT <span class=\"hl-vis\">CAVOK</span>"
    },
    {
      "icao": "LPMA",
      "iata": "FNC",
      "name": "Madeira International Airport Cristiano Ronaldo",
      "updatedAt": "100730Z",
      "visibility_m": 10000,
      "taf_visibility_m": 10000,
      "worst_visibility_m": 10000,
      "ceiling_ft": null,
      "hazards": [],
      "severityScore": 0,
      "metarRaw": "METAR LPMA 100730Z 34004KT 300V030 9999 SCT015 15/09 Q1031",
      "tafRaw": "TAF LPMA 100500Z 1006/1106 02008KT 9999 SCT016 \n  TEMPO 1006/1009 BKN014 \n  BECMG 1010/1012 VRB05KT",
      "metarHtml": "METAR LPMA 100730Z 34004KT 300V030 9999 SCT015 15/09 Q1031",
      "tafHtml": "TAF LPMA 100500Z 1006/1106 02008KT 9999 SCT016 \n  TEMPO 1006/1009 BKN014 \n  BECMG 1010/1012 VRB05KT"
    },
    {
      "icao": "LPPS",
      "iata": "PXO",
      "name": "Porto Santo Airport",
      "updatedAt": "100730Z",
      "visibility_m": 10000,
      "taf_visibility_m": 10000,
      "worst_visibility_m": 10000,
      "ceiling_ft": null,
      "hazards": [],
      "severityScore": 0,
      "metarRaw": "METAR LPPS 100730Z 35003KT 330V040 9999 SCT012 14/12 Q1031",
      "tafRaw": "TAF LPPS 100500Z 1006/1112 03008KT 9999 SCT015 SCT030 \n  BECMG 1009/1012 10010KT",
      "metarHtml": "METAR LPPS 100730Z 35003KT 330V040 9999 SCT012 14/12 Q1031",
      "tafHtml": "TAF LPPS 100500Z 1006/1112 03008KT 9999 SCT015 SCT030 \n  BECMG 1009/1012 10010KT"
    },
    {
      "icao": "LRIA",
      "iata": "IAS",
      "name": "Iaşi Airport",
      "updatedAt": "100730Z",
      "visibility_m": 10000,
      "taf_visibility_m": 10000,
      "worst_visibility_m": 10000,
      "ceiling_ft": null,
      "hazards": [],
      "severityScore": 0,
      "metarRaw": "METAR LRIA 100730Z VRB02KT 9999 FEW040 SCT049 M05/M07 Q1001",
      "tafRaw": "TAF LRIA 100500Z 1006/1015 VRB04KT CAVOK",
      "metarHtml": "METAR LRIA 100730Z VRB02KT 9999 FEW040 SCT049 M05/M07 Q1001",
      "tafHtml": "TAF LRIA 100500Z 1006/1015 VRB04KT <span class=\"hl-vis\">CAVOK</span>"
    },
    {
      "icao": "LRCL",
      "iata": "CLJ",
      "name": "Cluj Avram Iancu International Airport",
      "updatedAt": "100730Z",
      "visibility_m": 10000,
      "taf_visibility_m": 10000,
      "worst_visibility_m": 10000,
      "ceiling_ft": 2400,
      "hazards": [],
      "severityScore": 0,
      "metarRaw": "METAR LRCL 100730Z 05003KT 9999 OVC024 M05/M07 Q1001",
      "tafRaw": "TAF LRCL 100500Z 1006/1015 VRB04KT 9999 OVC025",
      "metarHtml": "METAR LRCL 100730Z 05003KT 9999 OVC024 M05/M07 Q1001",
      "tafHtml": "TAF LRCL 100500Z 1006/1015 VRB04KT 9999 OVC025"
    },
    {
      "icao": "LRCV",
      "iata": "CRA",
      "name": "Craiova International Airport",
      "updatedAt": "100730Z",
      "visibility_m": 9000,
      "taf_visibility_m": 10000,
      "worst_visibility_m": 9000,
      "ceiling_ft": 2100,
      "hazards": [],
      "severityScore": 0,
      "metarRaw": "METAR LRCV 100730Z 00000KT 9000 BKN021 OVC043 M00/M01 Q1000 REFZRA",
      "tafRaw": "TAF LRCV 100500Z 1006/1015 VRB04KT 9999 SCT025 BKN040",
      "metarHtml": "METAR LRCV 100730Z 00000KT 9000 BKN021 OVC043 M00/M01 Q1000 REFZRA",
      "tafHtml": "TAF LRCV 100500Z 1006/1015 VRB04KT 9999 SCT025 BKN040"
    },
    {
      "icao": "LZTT",
      "iata": "TAT",
      "name": "Poprad-Tatry Airport",
      "updatedAt": "100730Z",
      "visibility_m": 10000,
      "taf_visibility_m": 10000,
      "worst_visibility_m": 10000,
      "ceiling_ft": 2000,
      "hazards": [],
      "severityScore": 0,
      "metarRaw": "METAR LZTT 100730Z VRB01KT 9999 OVC020 M09/M11 Q0998 NOSIG",
      "tafRaw": "TAF LZTT 100515Z 1006/1106 07005KT 9999 SCT025 BKN045 \n  PROB30 \n  TEMPO 1006/1009 BKN014 \n  BECMG 1019/1021 25009KT FEW040 \n  TEMPO 1100/1106 25017KT",
      "metarHtml": "METAR LZTT 100730Z VRB01KT 9999 OVC020 M09/M11 Q0998 NOSIG",
      "tafHtml": "TAF LZTT 100515Z 1006/1106 07005KT 9999 SCT025 BKN045 \n  PROB30 \n  TEMPO 1006/1009 BKN014 \n  BECMG 1019/1021 25009KT FEW040 \n  TEMPO 1100/1106 25017KT"
    },
    {
      "icao": "OEMA",
      "iata": "MED",
      "name": "Prince Mohammad Bin Abdulaziz Airport",
      "updatedAt": "100700Z",
      "visibility_m": 7000,
      "taf_visibility_m": 2000,
      "worst_visibility_m": 2000,
      "ceiling_ft": null,
      "hazards": [],
      "severityScore": 0,
      "metarRaw": "METAR OEMA 100700Z 04016KT 7000 NSC 18/03 Q1022 NOSIG",
      "tafRaw": "TAF OEMA 100500Z 1006/1112 06016KT 7000 FEW045 \n  TEMPO 1006/1016 2000 BLDU \n  BECMG 1018/1020 VRB03KT",
      "metarHtml": "METAR OEMA 100700Z 04016KT 7000 NSC 18/03 Q1022 NOSIG",
      "tafHtml": "TAF OEMA 100500Z 1006/1112 06016KT 7000 FEW045 \n  TEMPO 1006/1016 2000 BLDU \n  BECMG 1018/1020 VRB03KT"
    },
    {
      "icao": "OMAA",
      "iata": "AUH",
      "name": "Zayed International Airport",
      "updatedAt": "100700Z",
      "visibility_m": 10000,
      "taf_visibility_m": 8000,
      "worst_visibility_m": 8000,
      "ceiling_ft": null,
      "hazards": [],
      "severityScore": 0,
      "metarRaw": "METAR OMAA 100700Z 10004KT 060V130 CAVOK 23/12 Q1020 NOSIG",
      "tafRaw": "TAF OMAA 100500Z 1006/1112 VRB02KT 8000 NSC \n  BECMG 1010/1012 33011KT \n  BECMG 1017/1019 05005KT \n  BECMG 1110/1112 34012KT",
      "metarHtml": "METAR OMAA 100700Z 10004KT 060V130 <span class=\"hl-vis\">CAVOK</span> 23/12 Q1020 NOSIG",
      "tafHtml": "TAF OMAA 100500Z 1006/1112 VRB02KT 8000 NSC \n  BECMG 1010/1012 33011KT \n  BECMG 1017/1019 05005KT \n  BECMG 1110/1112 34012KT"
    },
    {
      "icao": "OMDB",
      "iata": "DXB",
      "name": "Dubai International Airport",
      "updatedAt": "100730Z",
      "visibility_m": 10000,
      "taf_visibility_m": 4000,
      "worst_visibility_m": 4000,
      "ceiling_ft": null,
      "hazards": [],
      "severityScore": 0,
      "metarRaw": "METAR OMDB 100730Z 15004KT 110V240 9999 FEW045 23/14 Q1020 NOSIG",
      "tafRaw": "TAF OMDB 100500Z 1006/1112 20005KT 8000 NSC \n  BECMG 1009/1011 29010KT \n  BECMG 1016/1018 15005KT \n  PROB30 1101/1105 4000 HZ \n  BECMG 1108/1110 30010KT",
      "metarHtml": "METAR OMDB 100730Z 15004KT 110V240 9999 FEW045 23/14 Q1020 NOSIG",
      "tafHtml": "TAF OMDB 100500Z 1006/1112 20005KT 8000 NSC \n  BECMG 1009/1011 29010KT \n  BECMG 1016/1018 15005KT \n  PROB30 1101/1105 4000 HZ \n  BECMG 1108/1110 30010KT"
    }
  ],
  "stats": {
    "icaoCount": 159,
    "metarReturned": 158,
    "tafReturned": 144,
    "stationsWritten": 159,
    "missingMetar": 1,
    "missingTaf": 15
  },
  "errors": []
}