{
  "generatedAt": "2026-01-05T23:32:47.778Z",
  "stations": [
    {
      "icao": "EBCI",
      "iata": "CRL",
      "name": "Brussels South Charleroi Airport",
      "updatedAt": "052320Z",
      "visibility_m": 3500,
      "taf_visibility_m": 400,
      "worst_visibility_m": 400,
      "ceiling_ft": 400,
      "hazards": [
        "SHSN",
        "FZFG",
        "BR",
        "SN"
      ],
      "severityScore": 100,
      "metarRaw": "METAR EBCI 052320Z 24010KT 3500 -SHSN BKN004 BKN009 BKN018 M02/M03 Q1013 BECMG 6000 NSW BKN010",
      "tafRaw": "TAF EBCI 052300Z 0600/0706 27007KT 9999 SCT007 BKN013 \n  PROB30 \n  TEMPO 0600/0601 1200 SHSN BKN003 BKN012TCU \n  PROB40 \n  TEMPO 0601/0611 3000 BR -SG -SN BKN003 \n  PROB30 \n  TEMPO 0603/0609 0400 FZFG BKN002 \n  BECMG 0611/0613 SCT008 BKN018 \n  BECMG 0620/0622 21010KT SCT004 BKN007",
      "metarHtml": "METAR EBCI 052320Z 24010KT 3500 -<span class=\"hl\">SHSN</span> BKN004 BKN009 BKN018 M02/M03 Q1013 BECMG 6000 NSW BKN010",
      "tafHtml": "TAF EBCI 052300Z 0600/0706 27007KT 9999 SCT007 BKN013 \n  PROB30 \n  TEMPO 0600/0601 1200 <span class=\"hl\">SHSN</span> BKN003 BKN012TCU \n  PROB40 \n  TEMPO 0601/0611 3000 <span class=\"hl\">BR</span> -SG -<span class=\"hl\">SN</span> BKN003 \n  PROB30 \n  TEMPO 0603/0609 <span class=\"hl-vis\">0400</span> <span class=\"hl\">FZFG</span> BKN002 \n  BECMG 0611/0613 SCT008 BKN018 \n  BECMG 0620/0622 21010KT SCT004 BKN007"
    },
    {
      "icao": "EYVI",
      "iata": "VNO",
      "name": "Vilnius International Airport",
      "updatedAt": "052320Z",
      "visibility_m": 7000,
      "taf_visibility_m": 300,
      "worst_visibility_m": 300,
      "ceiling_ft": null,
      "hazards": [
        "FZFG",
        "BR",
        "SN"
      ],
      "severityScore": 100,
      "metarRaw": "METAR EYVI 052320Z 13003KT 7000 0100S BCFG NSC M08/M09 Q1017 NOSIG",
      "tafRaw": "TAF EYVI 052300Z 0600/0624 VRB04KT 5000 BR SCT005 \n  TEMPO 0600/0606 13010KT 0300 FZFG BKN002 \n  BECMG 0606/0608 10010KT 8000 NSW NSC \n  BECMG 0609/0610 5000 SN BR BKN010 BKN030 \n  TEMPO 0610/0616 1500 BKN005 \n  BECMG 0618/0619 VRB04KT BR BKN005 \n  TEMPO 0620/0624 1500 BKN002",
      "metarHtml": "METAR EYVI 052320Z 13003KT 7000 0100S BCFG NSC M08/M09 Q1017 NOSIG",
      "tafHtml": "TAF EYVI 052300Z 0600/0624 VRB04KT 5000 <span class=\"hl\">BR</span> SCT005 \n  TEMPO 0600/0606 13010KT <span class=\"hl-vis\">0300</span> <span class=\"hl\">FZFG</span> BKN002 \n  BECMG 0606/0608 10010KT 8000 NSW NSC \n  BECMG 0609/0610 5000 <span class=\"hl\">SN</span> <span class=\"hl\">BR</span> BKN010 BKN030 \n  TEMPO 0610/0616 1500 BKN005 \n  BECMG 0618/0619 VRB04KT <span class=\"hl\">BR</span> BKN005 \n  TEMPO 0620/0624 1500 BKN002"
    },
    {
      "icao": "LHDC",
      "iata": "DEB",
      "name": "Debrecen International Airport",
      "updatedAt": "052315Z",
      "visibility_m": 4700,
      "taf_visibility_m": 800,
      "worst_visibility_m": 800,
      "ceiling_ft": 500,
      "hazards": [
        "BR",
        "FZRA",
        "PL",
        "SN"
      ],
      "severityScore": 100,
      "metarRaw": "METAR LHDC 052315Z AUTO 03002KT 4700 -RASN BR OVC005 00/M00 Q1009",
      "tafRaw": "TAF LHDC 051715Z 0518/0603 05006KT 4000 -SN SCT012 OVC025 \n  TEMPO 0518/0524 0800 SN BKN002 OVC015 \n  PROB40 \n  TEMPO 0518/0522 6000 FZRA PL BKN010 OVC025",
      "metarHtml": "METAR LHDC 052315Z AUTO 03002KT 4700 -RASN <span class=\"hl\">BR</span> OVC005 00/M00 Q1009",
      "tafHtml": "TAF LHDC 051715Z 0518/0603 05006KT 4000 -<span class=\"hl\">SN</span> SCT012 OVC025 \n  TEMPO 0518/0524 <span class=\"hl-vis\">0800</span> <span class=\"hl\">SN</span> BKN002 OVC015 \n  PROB40 \n  TEMPO 0518/0522 6000 <span class=\"hl\">FZRA</span> <span class=\"hl\">PL</span> BKN010 OVC025"
    },
    {
      "icao": "LQSA",
      "iata": "SJJ",
      "name": "Sarajevo International Airport",
      "updatedAt": "052300Z",
      "visibility_m": 2500,
      "taf_visibility_m": 500,
      "worst_visibility_m": 500,
      "ceiling_ft": 700,
      "hazards": [
        "BR",
        "RA",
        "SN"
      ],
      "severityScore": 100,
      "metarRaw": "METAR LQSA 052300Z 32003KT 290V360 2500 -RA BR BKN007 OVC025 00/00 Q1007",
      "tafRaw": "TAF LQSA 052300Z 0600/0624 29005KT 2500 -SN BKN010 OVC030 TX00/0600Z TNM04/0624Z \n  PROB40 \n  TEMPO 0600/0606 1000 SN BKN004 OVC020 \n  TEMPO 0606/0612 6000 NSW SCT012 OVC030 \n  TEMPO 0612/0624 1000 SN BKN004 OVC015 \n  PROB30 \n  TEMPO 0621/0624 35012KT 0500 +SN",
      "metarHtml": "METAR LQSA 052300Z 32003KT 290V360 2500 -<span class=\"hl\">RA</span> <span class=\"hl\">BR</span> BKN007 OVC025 00/00 Q1007",
      "tafHtml": "TAF LQSA 052300Z 0600/0624 29005KT 2500 -<span class=\"hl\">SN</span> BKN010 OVC030 TX00/0600Z TNM04/0624Z \n  PROB40 \n  TEMPO 0600/0606 1000 <span class=\"hl\">SN</span> BKN004 OVC020 \n  TEMPO 0606/0612 6000 NSW SCT012 OVC030 \n  TEMPO 0612/0624 1000 <span class=\"hl\">SN</span> BKN004 OVC015 \n  PROB30 \n  TEMPO 0621/0624 35012KT <span class=\"hl-vis\">0500</span> +<span class=\"hl\">SN</span>"
    },
    {
      "icao": "LRIA",
      "iata": "IAS",
      "name": "Iaşi Airport",
      "updatedAt": "052300Z",
      "visibility_m": 2100,
      "taf_visibility_m": 100,
      "worst_visibility_m": 100,
      "ceiling_ft": 0,
      "hazards": [
        "BR",
        "DZ",
        "FG"
      ],
      "severityScore": 100,
      "metarRaw": "METAR LRIA 052300Z 12006KT 2100 DZ BR BKN000 OVC002 00/00 Q1014",
      "tafRaw": "TAF LRIA 052300Z 0600/0609 12006KT 1500 DZ BR BKN002 OVC005 \n  BECMG 0600/0603 0600 FG OVC001 \n  TEMPO 0603/0608 0100 FG",
      "metarHtml": "METAR LRIA 052300Z 12006KT 2100 <span class=\"hl\">DZ</span> <span class=\"hl\">BR</span> BKN000 OVC002 00/00 Q1014",
      "tafHtml": "TAF LRIA 052300Z <span class=\"hl-vis\">0600</span>/0609 12006KT 1500 <span class=\"hl\">DZ</span> <span class=\"hl\">BR</span> BKN002 OVC005 \n  BECMG <span class=\"hl-vis\">0600</span>/0603 <span class=\"hl-vis\">0600</span> <span class=\"hl\">FG</span> OVC001 \n  TEMPO 0603/0608 <span class=\"hl-vis\">0100</span> <span class=\"hl\">FG</span>"
    },
    {
      "icao": "LRBC",
      "iata": "BCM",
      "name": "Bacău George Enescu International  Airport",
      "updatedAt": "052300Z",
      "visibility_m": 2000,
      "taf_visibility_m": 100,
      "worst_visibility_m": 100,
      "ceiling_ft": 200,
      "hazards": [
        "BR",
        "FZFG",
        "FG"
      ],
      "severityScore": 100,
      "metarRaw": "METAR LRBC 052300Z 13002KT 2000 BR OVC002 M00/M02 Q1013",
      "tafRaw": "TAF LRBC 052300Z 0600/0609 VRB03KT 1500 BR BKN002 OVC005 \n  BECMG 0600/0602 0600 FZFG VV001 \n  TEMPO 0603/0607 0100 FG \n  BECMG 0607/0609 1500 BR OVC002",
      "metarHtml": "METAR LRBC 052300Z 13002KT 2000 <span class=\"hl\">BR</span> OVC002 M00/M02 Q1013",
      "tafHtml": "TAF LRBC 052300Z <span class=\"hl-vis\">0600</span>/0609 VRB03KT 1500 <span class=\"hl\">BR</span> BKN002 OVC005 \n  BECMG <span class=\"hl-vis\">0600</span>/0602 <span class=\"hl-vis\">0600</span> <span class=\"hl\">FZFG</span> VV001 \n  TEMPO 0603/0607 <span class=\"hl-vis\">0100</span> <span class=\"hl\">FG</span> \n  BECMG 0607/0609 1500 <span class=\"hl\">BR</span> OVC002"
    },
    {
      "icao": "LRBS",
      "iata": "BBU",
      "name": "Bucharest Băneasa Aurel Vlaicu International Airport",
      "updatedAt": "052300Z",
      "visibility_m": 350,
      "taf_visibility_m": 200,
      "worst_visibility_m": 200,
      "ceiling_ft": 100,
      "hazards": [
        "FG",
        "DZ",
        "BR"
      ],
      "severityScore": 100,
      "metarRaw": "METAR LRBS 052300Z 05005KT 0350 R07/1100D -DZ FG VV001 02/02 Q1013 NOSIG",
      "tafRaw": "TAF LRBS 052300Z 0600/0624 05006KT 0600 FG VV001 \n  TEMPO 0600/0606 0200 FG \n  BECMG 0607/0609 1500 -DZ BR OVC002 \n  TEMPO 0611/0615 3000 -DZ BR OVC005 \n  BECMG 0619/0621 0600 FG OVC001",
      "metarHtml": "METAR LRBS 052300Z 05005KT <span class=\"hl-vis\">0350</span> R07/1100D -<span class=\"hl\">DZ</span> <span class=\"hl\">FG</span> VV001 02/02 Q1013 NOSIG",
      "tafHtml": "TAF LRBS 052300Z <span class=\"hl-vis\">0600</span>/0624 05006KT <span class=\"hl-vis\">0600</span> <span class=\"hl\">FG</span> VV001 \n  TEMPO <span class=\"hl-vis\">0600</span>/0606 <span class=\"hl-vis\">0200</span> <span class=\"hl\">FG</span> \n  BECMG 0607/0609 1500 -<span class=\"hl\">DZ</span> <span class=\"hl\">BR</span> OVC002 \n  TEMPO 0611/0615 3000 -<span class=\"hl\">DZ</span> <span class=\"hl\">BR</span> OVC005 \n  BECMG 0619/0621 <span class=\"hl-vis\">0600</span> <span class=\"hl\">FG</span> OVC001"
    },
    {
      "icao": "LRCV",
      "iata": "CRA",
      "name": "Craiova International Airport",
      "updatedAt": "052300Z",
      "visibility_m": 250,
      "taf_visibility_m": 150,
      "worst_visibility_m": 150,
      "ceiling_ft": 100,
      "hazards": [
        "FG",
        "BR",
        "RA"
      ],
      "severityScore": 100,
      "metarRaw": "METAR LRCV 052300Z 05004KT 0250 R26/0400N FG VV001 01/01 Q1012",
      "tafRaw": "TAF LRCV 052300Z 0600/0609 07006KT 0350 FG VV001 \n  TEMPO 0600/0604 0150 FG \n  BECMG 0604/0606 1500 BR OVC002 \n  BECMG 0606/0608 3000 -RA BR OVC005",
      "metarHtml": "METAR LRCV 052300Z 05004KT <span class=\"hl-vis\">0250</span> R26/0400N <span class=\"hl\">FG</span> VV001 01/01 Q1012",
      "tafHtml": "TAF LRCV 052300Z 0600/0609 07006KT <span class=\"hl-vis\">0350</span> <span class=\"hl\">FG</span> VV001 \n  TEMPO 0600/0604 <span class=\"hl-vis\">0150</span> <span class=\"hl\">FG</span> \n  BECMG 0604/0606 1500 <span class=\"hl\">BR</span> OVC002 \n  BECMG 0606/0608 3000 -<span class=\"hl\">RA</span> <span class=\"hl\">BR</span> OVC005"
    },
    {
      "icao": "LROP",
      "iata": "OTP",
      "name": "Bucharest Henri Coandă International Airport",
      "updatedAt": "052300Z",
      "visibility_m": 300,
      "taf_visibility_m": 200,
      "worst_visibility_m": 200,
      "ceiling_ft": 200,
      "hazards": [
        "FG",
        "BR",
        "DZ"
      ],
      "severityScore": 100,
      "metarRaw": "METAR LROP 052300Z 08005KT 0300 R08R/1000N R08L/1000N FG VV002 02/02 Q1013 NOSIG",
      "tafRaw": "TAF LROP 052300Z 0600/0624 05006KT 0600 FG VV001 \n  TEMPO 0600/0606 0200 FG \n  BECMG 0607/0609 1500 -DZ BR OVC002 \n  TEMPO 0611/0615 3000 -DZ BR OVC005 \n  BECMG 0619/0621 0600 FG OVC001",
      "metarHtml": "METAR LROP 052300Z 08005KT <span class=\"hl-vis\">0300</span> R08R/1000N R08L/1000N <span class=\"hl\">FG</span> VV002 02/02 Q1013 NOSIG",
      "tafHtml": "TAF LROP 052300Z <span class=\"hl-vis\">0600</span>/0624 05006KT <span class=\"hl-vis\">0600</span> <span class=\"hl\">FG</span> VV001 \n  TEMPO <span class=\"hl-vis\">0600</span>/0606 <span class=\"hl-vis\">0200</span> <span class=\"hl\">FG</span> \n  BECMG 0607/0609 1500 -<span class=\"hl\">DZ</span> <span class=\"hl\">BR</span> OVC002 \n  TEMPO 0611/0615 3000 -<span class=\"hl\">DZ</span> <span class=\"hl\">BR</span> OVC005 \n  BECMG 0619/0621 <span class=\"hl-vis\">0600</span> <span class=\"hl\">FG</span> OVC001"
    },
    {
      "icao": "LRSV",
      "iata": "SCV",
      "name": "Suceava Stefan cel Mare Airport",
      "updatedAt": "052300Z",
      "visibility_m": 400,
      "taf_visibility_m": 100,
      "worst_visibility_m": 100,
      "ceiling_ft": 200,
      "hazards": [
        "FZFG",
        "FG",
        "BR"
      ],
      "severityScore": 100,
      "metarRaw": "METAR LRSV 052300Z 14015KT 0400 R34/0900D FZFG VV002 M02/M02 Q1010",
      "tafRaw": "TAF LRSV 052300Z 0600/0609 13012KT 0300 FZFG VV001 \n  TEMPO 0601/0604 0100 FZFG \n  BECMG 0604/0606 VRB04KT 0800 FG \n  BECMG 0606/0608 3000 BR BKN002 \n  BECMG 0608/0609 5000",
      "metarHtml": "METAR LRSV 052300Z 14015KT <span class=\"hl-vis\">0400</span> R34/0900D <span class=\"hl\">FZFG</span> VV002 M02/M02 Q1010",
      "tafHtml": "TAF LRSV 052300Z 0600/0609 13012KT <span class=\"hl-vis\">0300</span> <span class=\"hl\">FZFG</span> VV001 \n  TEMPO 0601/0604 <span class=\"hl-vis\">0100</span> <span class=\"hl\">FZFG</span> \n  BECMG 0604/0606 VRB04KT <span class=\"hl-vis\">0800</span> <span class=\"hl\">FG</span> \n  BECMG 0606/0608 3000 <span class=\"hl\">BR</span> BKN002 \n  BECMG 0608/0609 5000"
    },
    {
      "icao": "LRTR",
      "iata": "TSR",
      "name": "Timişoara Traian Vuia Airport",
      "updatedAt": "052300Z",
      "visibility_m": 3000,
      "taf_visibility_m": 600,
      "worst_visibility_m": 600,
      "ceiling_ft": 500,
      "hazards": [
        "DZ",
        "FZFG",
        "FG",
        "BR",
        "FZRA",
        "SN",
        "FZDZ"
      ],
      "severityScore": 100,
      "metarRaw": "METAR LRTR 052300Z 15003KT 130V210 3000 0800E R29/0900N -DZ BCFG BKN005 OVC032 01/01 Q1009",
      "tafRaw": "TAF LRTR 052300Z 0600/0624 VRB04KT 3000 -DZRA BR BKN005 OVC025 \n  TEMPO 0600/0605 0600 DZ FG BKN002 OVC015 \n  PROB40 \n  TEMPO 0601/0605 FZDZ FZFG \n  BECMG 0605/0607 3000 -SNRA \n  BECMG 0609/0611 5000 -SN BKN010 OVC030 \n  TEMPO 0614/0618 3000 SN BKN005 OVC020 \n  BECMG 0618/0620 3000 -RASN \n  PROB40 \n  TEMPO 0621/0624 -FZRA",
      "metarHtml": "METAR LRTR 052300Z 15003KT 130V210 3000 0800E R29/0900N -<span class=\"hl\">DZ</span> BCFG BKN005 OVC032 01/01 Q1009",
      "tafHtml": "TAF LRTR 052300Z <span class=\"hl-vis\">0600</span>/0624 VRB04KT 3000 -DZRA <span class=\"hl\">BR</span> BKN005 OVC025 \n  TEMPO <span class=\"hl-vis\">0600</span>/0605 <span class=\"hl-vis\">0600</span> <span class=\"hl\">DZ</span> <span class=\"hl\">FG</span> BKN002 OVC015 \n  PROB40 \n  TEMPO 0601/0605 <span class=\"hl\">FZDZ</span> <span class=\"hl\">FZFG</span> \n  BECMG 0605/0607 3000 -SNRA \n  BECMG 0609/0611 5000 -<span class=\"hl\">SN</span> BKN010 OVC030 \n  TEMPO 0614/0618 3000 <span class=\"hl\">SN</span> BKN005 OVC020 \n  BECMG 0618/0620 3000 -RASN \n  PROB40 \n  TEMPO 0621/0624 -<span class=\"hl\">FZRA</span>"
    },
    {
      "icao": "LUKK",
      "iata": "RMO",
      "name": "Chişinău International Airport",
      "updatedAt": "052300Z",
      "visibility_m": 800,
      "taf_visibility_m": 300,
      "worst_visibility_m": 300,
      "ceiling_ft": 100,
      "hazards": [
        "FZFG",
        "BR",
        "FZRA",
        "FG",
        "DZ"
      ],
      "severityScore": 100,
      "metarRaw": "METAR LUKK 052300Z 09006KT 2400 1200SW -FZRA BR OVC001 M00/M00 Q1015 TEMPO 0800 FZFG OVC001",
      "tafRaw": "TAF LUKK 052329Z 0600/0624 12006KT 0600 FZRA FZFG OVC002 \n  BECMG 0600/0603 0300 DZ FG VV001 \n  TEMPO 0609/0613 1000 BR OVC003",
      "metarHtml": "METAR LUKK 052300Z 09006KT 2400 1200SW -<span class=\"hl\">FZRA</span> <span class=\"hl\">BR</span> OVC001 M00/M00 Q1015 TEMPO <span class=\"hl-vis\">0800</span> <span class=\"hl\">FZFG</span> OVC001",
      "tafHtml": "TAF LUKK 052329Z <span class=\"hl-vis\">0600</span>/0624 12006KT <span class=\"hl-vis\">0600</span> <span class=\"hl\">FZRA</span> <span class=\"hl\">FZFG</span> OVC002 \n  BECMG <span class=\"hl-vis\">0600</span>/0603 <span class=\"hl-vis\">0300</span> <span class=\"hl\">DZ</span> <span class=\"hl\">FG</span> VV001 \n  TEMPO 0609/0613 1000 <span class=\"hl\">BR</span> OVC003"
    },
    {
      "icao": "UBBB",
      "iata": "GYD",
      "name": "Heydar Aliyev International Airport",
      "updatedAt": "052300Z",
      "visibility_m": 100,
      "taf_visibility_m": 200,
      "worst_visibility_m": 100,
      "ceiling_ft": 100,
      "hazards": [
        "FG",
        "BR"
      ],
      "severityScore": 100,
      "metarRaw": "METAR UBBB 052300Z 00000KT 0100 R34/0550 R35/0350 FG BKN001 04/04 Q1025 NOSIG",
      "tafRaw": "TAF UBBB 052309Z 0600/0624 30006KT 0200 FG BKN001 TX12/0610Z TN02/0602Z \n  TEMPO 0600/0606 VRB04KT 0600 BKN003 \n  BECMG 0606/0608 36008KT 9999 NSW SCT020 \n  BECMG 0609/0611 16008KT \n  TEMPO 0615/0624 18006KT 2000 BR BCFG SCT007",
      "metarHtml": "METAR UBBB 052300Z 00000KT <span class=\"hl-vis\">0100</span> R34/0550 R35/0350 <span class=\"hl\">FG</span> BKN001 04/04 Q1025 NOSIG",
      "tafHtml": "TAF UBBB 052309Z <span class=\"hl-vis\">0600</span>/0624 30006KT <span class=\"hl-vis\">0200</span> <span class=\"hl\">FG</span> BKN001 TX12/0610Z TN02/0602Z \n  TEMPO <span class=\"hl-vis\">0600</span>/0606 VRB04KT <span class=\"hl-vis\">0600</span> BKN003 \n  BECMG 0606/0608 36008KT 9999 NSW SCT020 \n  BECMG 0609/0611 16008KT \n  TEMPO 0615/0624 18006KT 2000 <span class=\"hl\">BR</span> BCFG SCT007"
    },
    {
      "icao": "EPMO",
      "iata": "WMI",
      "name": "Modlin Airport",
      "updatedAt": "052330Z",
      "visibility_m": 3300,
      "taf_visibility_m": 100,
      "worst_visibility_m": 100,
      "ceiling_ft": null,
      "hazards": [
        "BR",
        "FZFG"
      ],
      "severityScore": 95,
      "metarRaw": "METAR EPMO 052330Z 05004KT 3300 MIFG BR NSC M10/M10 Q1014",
      "tafRaw": "TAF EPMO 052330Z 0600/0624 VRB02KT 2000 BR NSC \n  BECMG 0600/0603 0400 FZFG \n  TEMPO 0600/0609 0100 FZFG BKN001 \n  BECMG 0609/0612 6000 NSW \n  BECMG 0615/0618 1500 BR \n  PROB40 0615/0624 0300 FZFG BKN001",
      "metarHtml": "METAR EPMO 052330Z 05004KT 3300 MIFG <span class=\"hl\">BR</span> NSC M10/M10 Q1014",
      "tafHtml": "TAF EPMO 052330Z 0600/0624 VRB02KT 2000 <span class=\"hl\">BR</span> NSC \n  BECMG 0600/0603 <span class=\"hl-vis\">0400</span> <span class=\"hl\">FZFG</span> \n  TEMPO 0600/0609 <span class=\"hl-vis\">0100</span> <span class=\"hl\">FZFG</span> BKN001 \n  BECMG 0609/0612 6000 NSW \n  BECMG 0615/0618 1500 <span class=\"hl\">BR</span> \n  PROB40 0615/0624 <span class=\"hl-vis\">0300</span> <span class=\"hl\">FZFG</span> BKN001"
    },
    {
      "icao": "EPSY",
      "iata": "SZY",
      "name": "Olsztyn-Mazury Airport",
      "updatedAt": "052330Z",
      "visibility_m": 2000,
      "taf_visibility_m": 200,
      "worst_visibility_m": 200,
      "ceiling_ft": null,
      "hazards": [
        "BR",
        "FZFG"
      ],
      "severityScore": 95,
      "metarRaw": "METAR EPSY 052330Z 35001KT 2000 BR NSC M12/M13 Q1015",
      "tafRaw": "TAF EPSY 052330Z 0600/0609 VRB02KT 5000 BR NSC \n  TEMPO 0600/0606 0600 FZFG \n  PROB40 \n  TEMPO 0600/0606 0200 FZFG OVC001",
      "metarHtml": "METAR EPSY 052330Z 35001KT 2000 <span class=\"hl\">BR</span> NSC M12/M13 Q1015",
      "tafHtml": "TAF EPSY 052330Z <span class=\"hl-vis\">0600</span>/0609 VRB02KT 5000 <span class=\"hl\">BR</span> NSC \n  TEMPO <span class=\"hl-vis\">0600</span>/0606 <span class=\"hl-vis\">0600</span> <span class=\"hl\">FZFG</span> \n  PROB40 \n  TEMPO <span class=\"hl-vis\">0600</span>/0606 <span class=\"hl-vis\">0200</span> <span class=\"hl\">FZFG</span> OVC001"
    },
    {
      "icao": "EPPO",
      "iata": "POZ",
      "name": "Poznań-Ławica Airport",
      "updatedAt": "052330Z",
      "visibility_m": 3500,
      "taf_visibility_m": 400,
      "worst_visibility_m": 400,
      "ceiling_ft": null,
      "hazards": [
        "BR",
        "FZFG",
        "SN"
      ],
      "severityScore": 93,
      "metarRaw": "METAR EPPO 052330Z VRB01KT 3500 BR FEW036 M08/M09 Q1013",
      "tafRaw": "TAF EPPO 052330Z 0600/0624 VRB02KT 5000 BR SCT035 \n  BECMG 0601/0603 2500 BR \n  PROB40 0603/0608 0400 FZFG OVC001 \n  BECMG 0608/0610 23010KT CAVOK \n  TEMPO 0616/0624 3000 -SN BR BKN007",
      "metarHtml": "METAR EPPO 052330Z VRB01KT 3500 <span class=\"hl\">BR</span> FEW036 M08/M09 Q1013",
      "tafHtml": "TAF EPPO 052330Z 0600/0624 VRB02KT 5000 <span class=\"hl\">BR</span> SCT035 \n  BECMG 0601/0603 2500 <span class=\"hl\">BR</span> \n  PROB40 0603/0608 <span class=\"hl-vis\">0400</span> <span class=\"hl\">FZFG</span> OVC001 \n  BECMG 0608/0610 23010KT <span class=\"hl-vis\">CAVOK</span> \n  TEMPO 0616/0624 3000 -<span class=\"hl\">SN</span> <span class=\"hl\">BR</span> BKN007"
    },
    {
      "icao": "EYKA",
      "iata": "KUN",
      "name": "Kaunas International Airport",
      "updatedAt": "052320Z",
      "visibility_m": 8000,
      "taf_visibility_m": 350,
      "worst_visibility_m": 350,
      "ceiling_ft": null,
      "hazards": [
        "FZFG",
        "BR",
        "SN"
      ],
      "severityScore": 93,
      "metarRaw": "METAR EYKA 052320Z 15003KT 070V220 8000 NSC M07/M07 Q1017",
      "tafRaw": "TAF EYKA 052300Z 0600/0624 VRB04KT 5000 BR SCT005 \n  TEMPO 0600/0607 1500 BKN002 \n  PROB40 \n  TEMPO 0600/0607 0350 FZFG \n  BECMG 0607/0609 8000 NSW NSC \n  BECMG 0610/0613 5000 SN BR SCT010 OVC030 \n  TEMPO 0613/0618 3000 SCT005 BKN010 \n  BECMG 0618/0620 BR BKN005 \n  TEMPO 0620/0624 1500 BKN002 OVC010",
      "metarHtml": "METAR EYKA 052320Z 15003KT 070V220 8000 NSC M07/M07 Q1017",
      "tafHtml": "TAF EYKA 052300Z 0600/0624 VRB04KT 5000 <span class=\"hl\">BR</span> SCT005 \n  TEMPO 0600/0607 1500 BKN002 \n  PROB40 \n  TEMPO 0600/0607 <span class=\"hl-vis\">0350</span> <span class=\"hl\">FZFG</span> \n  BECMG 0607/0609 8000 NSW NSC \n  BECMG 0610/0613 5000 <span class=\"hl\">SN</span> <span class=\"hl\">BR</span> SCT010 OVC030 \n  TEMPO 0613/0618 3000 SCT005 BKN010 \n  BECMG 0618/0620 <span class=\"hl\">BR</span> BKN005 \n  TEMPO 0620/0624 1500 BKN002 OVC010"
    },
    {
      "icao": "LRSB",
      "iata": "SBZ",
      "name": "Sibiu International Airport",
      "updatedAt": "052300Z",
      "visibility_m": 5000,
      "taf_visibility_m": 600,
      "worst_visibility_m": 600,
      "ceiling_ft": null,
      "hazards": [
        "BR",
        "FG",
        "FZDZ",
        "DZ"
      ],
      "severityScore": 93,
      "metarRaw": "METAR LRSB 052300Z 24003KT 5000 BR FEW086 M01/M01 Q1008",
      "tafRaw": "TAF LRSB 052300Z 0600/0624 VRB04KT 5000 BR SCT005 SCT060 \n  TEMPO 0600/0606 1500 -DZ BR BKN005 BKN030 \n  PROB40 \n  TEMPO 0602/0605 -FZDZ BR \n  BECMG 0612/0614 1500 BR OVC005 \n  TEMPO 0614/0618 0600 FG OVC002",
      "metarHtml": "METAR LRSB 052300Z 24003KT 5000 <span class=\"hl\">BR</span> FEW086 M01/M01 Q1008",
      "tafHtml": "TAF LRSB 052300Z <span class=\"hl-vis\">0600</span>/0624 VRB04KT 5000 <span class=\"hl\">BR</span> SCT005 SCT060 \n  TEMPO <span class=\"hl-vis\">0600</span>/0606 1500 -<span class=\"hl\">DZ</span> <span class=\"hl\">BR</span> BKN005 BKN030 \n  PROB40 \n  TEMPO 0602/0605 -<span class=\"hl\">FZDZ</span> <span class=\"hl\">BR</span> \n  BECMG 0612/0614 1500 <span class=\"hl\">BR</span> OVC005 \n  TEMPO 0614/0618 <span class=\"hl-vis\">0600</span> <span class=\"hl\">FG</span> OVC002"
    },
    {
      "icao": "EPWA",
      "iata": "WAW",
      "name": "Warsaw Chopin Airport",
      "updatedAt": "052330Z",
      "visibility_m": 10000,
      "taf_visibility_m": 300,
      "worst_visibility_m": 300,
      "ceiling_ft": null,
      "hazards": [
        "FZFG",
        "BR"
      ],
      "severityScore": 85,
      "metarRaw": "METAR EPWA 052330Z 07004KT 030V090 CAVOK M05/M08 Q1013 NOSIG",
      "tafRaw": "TAF EPWA 052330Z 0600/0624 VRB02KT 8000 NSC \n  TEMPO 0600/0610 2000 BR \n  PROB40 0600/0609 0300 FZFG BKN001 \n  BECMG 0615/0618 VRB02KT 4000 BR \n  PROB40 0618/0624 0600 FZFG BKN001",
      "metarHtml": "METAR EPWA 052330Z 07004KT 030V090 <span class=\"hl-vis\">CAVOK</span> M05/M08 Q1013 NOSIG",
      "tafHtml": "TAF EPWA 052330Z <span class=\"hl-vis\">0600</span>/0624 VRB02KT 8000 NSC \n  TEMPO <span class=\"hl-vis\">0600</span>/0610 2000 <span class=\"hl\">BR</span> \n  PROB40 <span class=\"hl-vis\">0600</span>/0609 <span class=\"hl-vis\">0300</span> <span class=\"hl\">FZFG</span> BKN001 \n  BECMG 0615/0618 VRB02KT 4000 <span class=\"hl\">BR</span> \n  PROB40 0618/0624 <span class=\"hl-vis\">0600</span> <span class=\"hl\">FZFG</span> BKN001"
    },
    {
      "icao": "EKBI",
      "iata": "BLL",
      "name": "Billund Airport",
      "updatedAt": "052320Z",
      "visibility_m": 10000,
      "taf_visibility_m": 500,
      "worst_visibility_m": 500,
      "ceiling_ft": null,
      "hazards": [
        "FZFG",
        "SN"
      ],
      "severityScore": 83,
      "metarRaw": "METAR EKBI 052320Z AUTO 34002KT 9999 FEW027/// M05/M05 Q1010",
      "tafRaw": "TAF EKBI 052327Z 0600/0624 05005KT 9999 FEW006 BKN035 \n  TEMPO 0600/0603 BKN004 \n  PROB40 0603/0609 0500 FZFG BKN003 \n  TEMPO 0609/0624 0800 SN BKN005 SCT015CB",
      "metarHtml": "METAR EKBI 052320Z AUTO 34002KT 9999 FEW027/// M05/M05 Q1010",
      "tafHtml": "TAF EKBI 052327Z 0600/0624 05005KT 9999 FEW006 BKN035 \n  TEMPO 0600/0603 BKN004 \n  PROB40 0603/0609 <span class=\"hl-vis\">0500</span> <span class=\"hl\">FZFG</span> BKN003 \n  TEMPO 0609/0624 <span class=\"hl-vis\">0800</span> <span class=\"hl\">SN</span> BKN005 SCT015CB"
    },
    {
      "icao": "LYBE",
      "iata": "BEG",
      "name": "Belgrade Nikola Tesla Airport",
      "updatedAt": "052300Z",
      "visibility_m": 7000,
      "taf_visibility_m": 2000,
      "worst_visibility_m": 2000,
      "ceiling_ft": 400,
      "hazards": [
        "FZRA",
        "BR"
      ],
      "severityScore": 80,
      "metarRaw": "METAR LYBE 052300Z 26007KT 7000 -FZRA BKN004 BKN019 M00/M01 Q1010 NOSIG",
      "tafRaw": "TAF LYBE 052300Z 0600/0624 27007KT 6000 BKN006 BKN025 TXM00/0612Z TNM03/0624Z \n  TEMPO 0600/0606 2000 BR BKN002 BKN020 \n  PROB40 \n  TEMPO 0600/0603 -FZRA \n  TEMPO 0612/0615 4000 SG BKN002 OVC020",
      "metarHtml": "METAR LYBE 052300Z 26007KT 7000 -<span class=\"hl\">FZRA</span> BKN004 BKN019 M00/M01 Q1010 NOSIG",
      "tafHtml": "TAF LYBE 052300Z 0600/0624 27007KT 6000 BKN006 BKN025 TXM00/0612Z TNM03/0624Z \n  TEMPO 0600/0606 2000 <span class=\"hl\">BR</span> BKN002 BKN020 \n  PROB40 \n  TEMPO 0600/0603 -<span class=\"hl\">FZRA</span> \n  TEMPO 0612/0615 4000 SG BKN002 OVC020"
    },
    {
      "icao": "LRTM",
      "iata": "TGM",
      "name": "Târgu Mureş Transilvania International Airport",
      "updatedAt": "052300Z",
      "visibility_m": 2800,
      "taf_visibility_m": 1500,
      "worst_visibility_m": 1500,
      "ceiling_ft": null,
      "hazards": [
        "RA",
        "BR",
        "FZRA",
        "DZ"
      ],
      "severityScore": 77,
      "metarRaw": "METAR LRTM 052300Z AUTO VRB02KT 2800 -RA BKN050/// 01/M00 Q1009",
      "tafRaw": "TAF LRTM 051400Z 0515/0524 VRB04KT 3000 -RASN BR BKN010 OVC025 \n  TEMPO 0515/0518 -FZRA BR BKN005 OVC020 \n  BECMG 0518/0520 1500 -DZ BR OVC002",
      "metarHtml": "METAR LRTM 052300Z AUTO VRB02KT 2800 -<span class=\"hl\">RA</span> BKN050/// 01/M00 Q1009",
      "tafHtml": "TAF LRTM 051400Z 0515/0524 VRB04KT 3000 -RASN <span class=\"hl\">BR</span> BKN010 OVC025 \n  TEMPO 0515/0518 -<span class=\"hl\">FZRA</span> <span class=\"hl\">BR</span> BKN005 OVC020 \n  BECMG 0518/0520 1500 -<span class=\"hl\">DZ</span> <span class=\"hl\">BR</span> OVC002"
    },
    {
      "icao": "ESMS",
      "iata": "MMX",
      "name": "Malmö Sturup Airport",
      "updatedAt": "052320Z",
      "visibility_m": 4000,
      "taf_visibility_m": 800,
      "worst_visibility_m": 800,
      "ceiling_ft": 1300,
      "hazards": [
        "BR",
        "SN",
        "SHSN"
      ],
      "severityScore": 75,
      "metarRaw": "METAR ESMS 052320Z 00000KT 4000 BR SCT009 BKN013 M03/M03 Q1010",
      "tafRaw": "TAF ESMS 052327Z 0600/0624 18004KT 4000 -SN BKN015 \n  BECMG 0600/0603 9999 NSW \n  TEMPO 0603/0613 0800 SHSN BKN008 SCT020CB \n  TEMPO 0613/0624 BKN012",
      "metarHtml": "METAR ESMS 052320Z 00000KT 4000 <span class=\"hl\">BR</span> SCT009 BKN013 M03/M03 Q1010",
      "tafHtml": "TAF ESMS 052327Z 0600/0624 18004KT 4000 -<span class=\"hl\">SN</span> BKN015 \n  BECMG 0600/0603 9999 NSW \n  TEMPO 0603/0613 <span class=\"hl-vis\">0800</span> <span class=\"hl\">SHSN</span> BKN008 SCT020CB \n  TEMPO 0613/0624 BKN012"
    },
    {
      "icao": "UAAA",
      "iata": "ALA",
      "name": "Almaty International Airport",
      "updatedAt": "052300Z",
      "visibility_m": 3500,
      "taf_visibility_m": 400,
      "worst_visibility_m": 400,
      "ceiling_ft": null,
      "hazards": [
        "BR",
        "FZFG"
      ],
      "severityScore": 75,
      "metarRaw": "METAR UAAA 052300Z 14002MPS 3500 BR SCT100 M03/M04 Q1034 NOSIG",
      "tafRaw": "TAF UAAA 052301Z 0600/0624 06003MPS 3100 BR FU BKN011 OVC030 TX01/0609Z TNM03/0602Z \n  TEMPO 0600/0604 0400 FZFG OVC005 \n  FM060500 06003G08MPS 6000 SCT100 \n  FM061200 22003G08MPS 3100 BR FU SCT100 \n  TEMPO 0612/0624 1200",
      "metarHtml": "METAR UAAA 052300Z 14002MPS 3500 <span class=\"hl\">BR</span> SCT100 M03/M04 Q1034 NOSIG",
      "tafHtml": "TAF UAAA 052301Z 0600/0624 06003MPS 3100 <span class=\"hl\">BR</span> FU BKN011 OVC030 TX01/0609Z TNM03/0602Z \n  TEMPO 0600/0604 <span class=\"hl-vis\">0400</span> <span class=\"hl\">FZFG</span> OVC005 \n  FM060500 06003G08MPS 6000 SCT100 \n  FM061200 22003G08MPS 3100 <span class=\"hl\">BR</span> FU SCT100 \n  TEMPO 0612/0624 1200"
    },
    {
      "icao": "HESX",
      "iata": "SPX",
      "name": "Sphinx International Airport",
      "updatedAt": "052300Z",
      "visibility_m": 6000,
      "taf_visibility_m": 500,
      "worst_visibility_m": 500,
      "ceiling_ft": null,
      "hazards": [
        "FG",
        "BR"
      ],
      "severityScore": 65,
      "metarRaw": "METAR HESX 052300Z 16003KT 6000 NSC 08/04 Q1019 NOSIG",
      "tafRaw": "TAF HESX 052300Z 0600/0706 VRB02KT 6000 NSC \n  TEMPO 0600/0608 3000 BR \n  PROB40 \n  TEMPO 0603/0606 0500 FG \n  BECMG 0612/0614 03007KT CAVOK",
      "metarHtml": "METAR HESX 052300Z 16003KT 6000 NSC 08/04 Q1019 NOSIG",
      "tafHtml": "TAF HESX 052300Z 0600/0706 VRB02KT 6000 NSC \n  TEMPO 0600/0608 3000 <span class=\"hl\">BR</span> \n  PROB40 \n  TEMPO 0603/0606 <span class=\"hl-vis\">0500</span> <span class=\"hl\">FG</span> \n  BECMG 0612/0614 03007KT <span class=\"hl-vis\">CAVOK</span>"
    },
    {
      "icao": "LFOB",
      "iata": "BVA",
      "name": "Beauvais Tillé airport",
      "updatedAt": "052330Z",
      "visibility_m": 600,
      "taf_visibility_m": 600,
      "worst_visibility_m": 600,
      "ceiling_ft": 4000,
      "hazards": [
        "FZFG",
        "BR"
      ],
      "severityScore": 65,
      "metarRaw": "METAR LFOB 052330Z AUTO 29005KT 9999 BKN040 M04/M04 Q1016 TEMPO 0600 FZFG VV///",
      "tafRaw": "TAF LFOB 052300Z 0600/0624 29006KT 6000 SCT020 \n  TEMPO 0600/0610 3000 BR \n  PROB40 \n  TEMPO 0600/0610 0600 FZFG VV///",
      "metarHtml": "METAR LFOB 052330Z AUTO 29005KT 9999 BKN040 M04/M04 Q1016 TEMPO <span class=\"hl-vis\">0600</span> <span class=\"hl\">FZFG</span> VV///",
      "tafHtml": "TAF LFOB 052300Z <span class=\"hl-vis\">0600</span>/0624 29006KT 6000 SCT020 \n  TEMPO <span class=\"hl-vis\">0600</span>/0610 3000 <span class=\"hl\">BR</span> \n  PROB40 \n  TEMPO <span class=\"hl-vis\">0600</span>/0610 <span class=\"hl-vis\">0600</span> <span class=\"hl\">FZFG</span> VV///"
    },
    {
      "icao": "LQBK",
      "iata": "BNX",
      "name": "Banja Luka International Airport",
      "updatedAt": "052300Z",
      "visibility_m": 10000,
      "taf_visibility_m": 800,
      "worst_visibility_m": 800,
      "ceiling_ft": 1700,
      "hazards": [
        "SN",
        "BR"
      ],
      "severityScore": 65,
      "metarRaw": "METAR LQBK 052300Z 29007KT 9999 -SN BKN017 OVC027 M01/M03 Q1012 NOSIG",
      "tafRaw": "TAF LQBK 052300Z 0600/0624 33007KT 7000 -SN SCT010 OVC020 TXM00/0613Z TNM03/0605Z \n  PROB40 \n  TEMPO 0600/0611 4000 SN BR SCT005 BKN010 \n  TEMPO 0611/0624 2000 SN BKN004 OVC010 \n  PROB40 \n  TEMPO 0619/0624 0800 +SN BKN002 OVC007",
      "metarHtml": "METAR LQBK 052300Z 29007KT 9999 -<span class=\"hl\">SN</span> BKN017 OVC027 M01/M03 Q1012 NOSIG",
      "tafHtml": "TAF LQBK 052300Z 0600/0624 33007KT 7000 -<span class=\"hl\">SN</span> SCT010 OVC020 TXM00/0613Z TNM03/0605Z \n  PROB40 \n  TEMPO 0600/0611 4000 <span class=\"hl\">SN</span> <span class=\"hl\">BR</span> SCT005 BKN010 \n  TEMPO 0611/0624 2000 <span class=\"hl\">SN</span> BKN004 OVC010 \n  PROB40 \n  TEMPO 0619/0624 <span class=\"hl-vis\">0800</span> +<span class=\"hl\">SN</span> BKN002 OVC007"
    },
    {
      "icao": "UDYZ",
      "iata": "EVN",
      "name": "Zvartnots International Airport",
      "updatedAt": "052300Z",
      "visibility_m": 2900,
      "taf_visibility_m": 600,
      "worst_visibility_m": 600,
      "ceiling_ft": null,
      "hazards": [
        "BR",
        "FZFG"
      ],
      "severityScore": 65,
      "metarRaw": "METAR UDYZ 052300Z 06001KT 2900 BR NSC M12/M13 Q1033 NOSIG",
      "tafRaw": "TAF UDYZ 052300Z 0600/0624 VRB04KT 2300 BR NSC \n  TEMPO 0600/0606 0600 FZFG VV003",
      "metarHtml": "METAR UDYZ 052300Z 06001KT 2900 <span class=\"hl\">BR</span> NSC M12/M13 Q1033 NOSIG",
      "tafHtml": "TAF UDYZ 052300Z <span class=\"hl-vis\">0600</span>/0624 VRB04KT 2300 <span class=\"hl\">BR</span> NSC \n  TEMPO <span class=\"hl-vis\">0600</span>/0606 <span class=\"hl-vis\">0600</span> <span class=\"hl\">FZFG</span> VV003"
    },
    {
      "icao": "EDFH",
      "iata": "HHN",
      "name": "Frankfurt-Hahn Airport",
      "updatedAt": "052320Z",
      "visibility_m": 10000,
      "taf_visibility_m": 2000,
      "worst_visibility_m": 2000,
      "ceiling_ft": 400,
      "hazards": [
        "BR",
        "SN"
      ],
      "severityScore": 63,
      "metarRaw": "METAR EDFH 052320Z 27011KT 9999 BKN004 M05/M06 Q1011",
      "tafRaw": "TAF EDFH 052300Z 0600/0624 25005KT 8000 BKN005 \n  PROB30 \n  TEMPO 0600/0612 2000 -SN BKN003 \n  BECMG 0612/0615 BKN020 \n  BECMG 0617/0619 BKN010 \n  BECMG 0619/0621 BKN005 \n  TEMPO 0621/0624 2000 BR BKN003",
      "metarHtml": "METAR EDFH 052320Z 27011KT 9999 BKN004 M05/M06 Q1011",
      "tafHtml": "TAF EDFH 052300Z 0600/0624 25005KT 8000 BKN005 \n  PROB30 \n  TEMPO 0600/0612 2000 -<span class=\"hl\">SN</span> BKN003 \n  BECMG 0612/0615 BKN020 \n  BECMG 0617/0619 BKN010 \n  BECMG 0619/0621 BKN005 \n  TEMPO 0621/0624 2000 <span class=\"hl\">BR</span> BKN003"
    },
    {
      "icao": "EKCH",
      "iata": "CPH",
      "name": "Copenhagen Kastrup Airport",
      "updatedAt": "052320Z",
      "visibility_m": 4000,
      "taf_visibility_m": 800,
      "worst_visibility_m": 800,
      "ceiling_ft": 5100,
      "hazards": [
        "SN",
        "SHSN",
        "BR"
      ],
      "severityScore": 63,
      "metarRaw": "METAR EKCH 052320Z 28006KT 5000 -SN FEW025 BKN051 M01/M02 Q1010 TEMPO 4000 SHSN SCT020CB",
      "tafRaw": "TAF EKCH 052327Z 0600/0624 23004KT 8000 BKN030 \n  TEMPO 0600/0617 4000 BR BKN012 \n  TEMPO 0617/0624 0800 SN BKN009",
      "metarHtml": "METAR EKCH 052320Z 28006KT 5000 -<span class=\"hl\">SN</span> FEW025 BKN051 M01/M02 Q1010 TEMPO 4000 <span class=\"hl\">SHSN</span> SCT020CB",
      "tafHtml": "TAF EKCH 052327Z 0600/0624 23004KT 8000 BKN030 \n  TEMPO 0600/0617 4000 <span class=\"hl\">BR</span> BKN012 \n  TEMPO 0617/0624 <span class=\"hl-vis\">0800</span> <span class=\"hl\">SN</span> BKN009"
    },
    {
      "icao": "ESSA",
      "iata": "ARN",
      "name": "Stockholm-Arlanda Airport",
      "updatedAt": "052320Z",
      "visibility_m": 1400,
      "taf_visibility_m": 1400,
      "worst_visibility_m": 1400,
      "ceiling_ft": 900,
      "hazards": [
        "SN",
        "SHSN"
      ],
      "severityScore": 63,
      "metarRaw": "METAR ESSA 052320Z 07010KT 8000 -SN SCT014 BKN042 M05/M06 Q1012 TEMPO 1400 SHSN BKN009",
      "tafRaw": "TAF ESSA 052330Z 0600/0624 04010KT 9999 FEW035 \n  TEMPO 0600/0614 1400 SHSN BKN009 BKN015CB \n  BECMG 0600/0602 10010G20KT \n  BECMG 0610/0612 VRB02KT",
      "metarHtml": "METAR ESSA 052320Z 07010KT 8000 -<span class=\"hl\">SN</span> SCT014 BKN042 M05/M06 Q1012 TEMPO 1400 <span class=\"hl\">SHSN</span> BKN009",
      "tafHtml": "TAF ESSA 052330Z 0600/0624 04010KT 9999 FEW035 \n  TEMPO 0600/0614 1400 <span class=\"hl\">SHSN</span> BKN009 BKN015CB \n  BECMG 0600/0602 10010G20KT \n  BECMG 0610/0612 VRB02KT"
    },
    {
      "icao": "LFPO",
      "iata": "ORY",
      "name": "Paris-Orly Airport",
      "updatedAt": "052330Z",
      "visibility_m": 2500,
      "taf_visibility_m": 2500,
      "worst_visibility_m": 2500,
      "ceiling_ft": 400,
      "hazards": [
        "BR",
        "SN"
      ],
      "severityScore": 63,
      "metarRaw": "METAR LFPO 052330Z AUTO 29006KT 7000 FEW007 OVC035 M01/M02 Q1016 TEMPO 2500 BR BKN004",
      "tafRaw": "TAF LFPO 051700Z 0518/0624 26004KT 6000 BKN008 \n  TEMPO 0518/0602 2500 BR BKN004 \n  PROB30 \n  TEMPO 0518/0519 -SN \n  BECMG 0602/0604 SCT012 \n  BECMG 0607/0609 CAVOK",
      "metarHtml": "METAR LFPO 052330Z AUTO 29006KT 7000 FEW007 OVC035 M01/M02 Q1016 TEMPO 2500 <span class=\"hl\">BR</span> BKN004",
      "tafHtml": "TAF LFPO 051700Z 0518/0624 26004KT 6000 BKN008 \n  TEMPO 0518/0602 2500 <span class=\"hl\">BR</span> BKN004 \n  PROB30 \n  TEMPO 0518/0519 -<span class=\"hl\">SN</span> \n  BECMG 0602/0604 SCT012 \n  BECMG 0607/0609 <span class=\"hl-vis\">CAVOK</span>"
    },
    {
      "icao": "LQTZ",
      "iata": "TZL",
      "name": "Tuzla International Airport",
      "updatedAt": "052300Z",
      "visibility_m": 4000,
      "taf_visibility_m": 2000,
      "worst_visibility_m": 2000,
      "ceiling_ft": 400,
      "hazards": [
        "BR",
        "SN"
      ],
      "severityScore": 63,
      "metarRaw": "METAR LQTZ 052300Z 31004KT 4000 BR OVC004 M01/M01 Q1010",
      "tafRaw": "TAF LQTZ 052300Z 0600/0624 30005KT 6000 SCT005 BKN015 OVC030 TXM00/0613Z TNM03/0605Z \n  TEMPO 0600/0608 3000 -SN BR BKN004 OVC012 \n  TEMPO 0616/0624 2000 SN BKN004 OVC010",
      "metarHtml": "METAR LQTZ 052300Z 31004KT 4000 <span class=\"hl\">BR</span> OVC004 M01/M01 Q1010",
      "tafHtml": "TAF LQTZ 052300Z 0600/0624 30005KT 6000 SCT005 BKN015 OVC030 TXM00/0613Z TNM03/0605Z \n  TEMPO 0600/0608 3000 -<span class=\"hl\">SN</span> <span class=\"hl\">BR</span> BKN004 OVC012 \n  TEMPO 0616/0624 2000 <span class=\"hl\">SN</span> BKN004 OVC010"
    },
    {
      "icao": "EDDH",
      "iata": "HAM",
      "name": "Hamburg Helmut Schmidt Airport",
      "updatedAt": "052320Z",
      "visibility_m": 10000,
      "taf_visibility_m": 1000,
      "worst_visibility_m": 1000,
      "ceiling_ft": 1200,
      "hazards": [
        "SHSN",
        "FZDZ"
      ],
      "severityScore": 60,
      "metarRaw": "METAR EDDH 052320Z AUTO 21007KT 9999 FEW009 OVC019 M01/M02 Q1011 TEMPO BKN012",
      "tafRaw": "TAF EDDH 052300Z 0600/0706 20005KT 8000 OVC012 \n  TEMPO 0600/0610 BKN015 \n  PROB40 \n  TEMPO 0600/0610 1000 -SHSN BKN004TCU \n  BECMG 0610/0612 BKN015 \n  TEMPO 0614/0618 1200 SHSN BKN012CB \n  BECMG 0616/0619 BKN008 \n  PROB30 \n  TEMPO 0619/0701 3000 -FZDZ BKN004 \n  BECMG 0700/0702 CAVOK",
      "metarHtml": "METAR EDDH 052320Z AUTO 21007KT 9999 FEW009 OVC019 M01/M02 Q1011 TEMPO BKN012",
      "tafHtml": "TAF EDDH 052300Z 0600/0706 20005KT 8000 OVC012 \n  TEMPO 0600/0610 BKN015 \n  PROB40 \n  TEMPO 0600/0610 1000 -<span class=\"hl\">SHSN</span> BKN004TCU \n  BECMG 0610/0612 BKN015 \n  TEMPO 0614/0618 1200 <span class=\"hl\">SHSN</span> BKN012CB \n  BECMG 0616/0619 BKN008 \n  PROB30 \n  TEMPO 0619/0701 3000 -<span class=\"hl\">FZDZ</span> BKN004 \n  BECMG 0700/0702 <span class=\"hl-vis\">CAVOK</span>"
    },
    {
      "icao": "LRSM",
      "iata": "SUJ",
      "name": "Satu Mare International Airport",
      "updatedAt": "052300Z",
      "visibility_m": 1700,
      "taf_visibility_m": 3000,
      "worst_visibility_m": 1700,
      "ceiling_ft": null,
      "hazards": [
        "RA",
        "BR",
        "FZRA"
      ],
      "severityScore": 57,
      "metarRaw": "METAR LRSM 052300Z AUTO 00000KT 1700 R19/1900U -RA SCT032/// OVC040/// 01/00 Q1009",
      "tafRaw": "TAF LRSM 051400Z 0515/0524 06006KT 9999 BKN035 \n  BECMG 0520/0522 3000 -SNRA BR BKN005 OVC030 \n  PROB30 \n  TEMPO 0522/0524 -FZRA",
      "metarHtml": "METAR LRSM 052300Z AUTO 00000KT 1700 R19/1900U -<span class=\"hl\">RA</span> SCT032/// OVC040/// 01/00 Q1009",
      "tafHtml": "TAF LRSM 051400Z 0515/0524 06006KT 9999 BKN035 \n  BECMG 0520/0522 3000 -SNRA <span class=\"hl\">BR</span> BKN005 OVC030 \n  PROB30 \n  TEMPO 0522/0524 -<span class=\"hl\">FZRA</span>"
    },
    {
      "icao": "LBPD",
      "iata": "PDV",
      "name": "Plovdiv International Airport",
      "updatedAt": "052330Z",
      "visibility_m": 10000,
      "taf_visibility_m": 600,
      "worst_visibility_m": 600,
      "ceiling_ft": null,
      "hazards": [
        "FG",
        "BR"
      ],
      "severityScore": 55,
      "metarRaw": "METAR LBPD 052330Z AUTO VRB02KT 9999 SCT120/// OVC140/// 07/07 Q1011",
      "tafRaw": "TAF LBPD 052300Z 0600/0624 VRB03KT 5000 BR BKN060 \n  TEMPO 0601/0607 2000 BR \n  PROB40 0602/0606 0600 FG BKN002 \n  BECMG 0608/0610 8000 NSW BKN040 \n  BECMG 0622/0624 5000 BR",
      "metarHtml": "METAR LBPD 052330Z AUTO VRB02KT 9999 SCT120/// OVC140/// 07/07 Q1011",
      "tafHtml": "TAF LBPD 052300Z <span class=\"hl-vis\">0600</span>/0624 VRB03KT 5000 <span class=\"hl\">BR</span> BKN060 \n  TEMPO 0601/0607 2000 <span class=\"hl\">BR</span> \n  PROB40 0602/0606 <span class=\"hl-vis\">0600</span> <span class=\"hl\">FG</span> BKN002 \n  BECMG 0608/0610 8000 NSW BKN040 \n  BECMG 0622/0624 5000 <span class=\"hl\">BR</span>"
    },
    {
      "icao": "EGPF",
      "iata": "GLA",
      "name": "Glasgow Airport",
      "updatedAt": "052320Z",
      "visibility_m": 10000,
      "taf_visibility_m": 1200,
      "worst_visibility_m": 1200,
      "ceiling_ft": null,
      "hazards": [
        "SN",
        "RA",
        "SHRA"
      ],
      "severityScore": 54,
      "metarRaw": "METAR EGPF 052320Z AUTO 27003KT 9999 NCD M02/M05 Q1016",
      "tafRaw": "TAF EGPF 052304Z 0600/0624 28005KT 9999 FEW015 SCT030 \n  TEMPO 0602/0609 4000 RA -RASN BKN005 \n  PROB30 \n  TEMPO 0602/0609 1200 SN BKN001 \n  BECMG 0609/0612 21010KT \n  TEMPO 0609/0614 6000 RA -RADZ BKN014 \n  PROB30 \n  TEMPO 0609/0614 3000 +RA RADZ BKN007 \n  TEMPO 0614/0618 4000 RA SHRA BKN005 \n  BECMG 0615/0618 28010KT \n  PROB30 \n  TEMPO 0618/0624 7000 SHRA BKN009",
      "metarHtml": "METAR EGPF 052320Z AUTO 27003KT 9999 NCD M02/M05 Q1016",
      "tafHtml": "TAF EGPF 052304Z 0600/0624 28005KT 9999 FEW015 SCT030 \n  TEMPO 0602/0609 4000 <span class=\"hl\">RA</span> -RASN BKN005 \n  PROB30 \n  TEMPO 0602/0609 1200 <span class=\"hl\">SN</span> BKN001 \n  BECMG 0609/0612 21010KT \n  TEMPO 0609/0614 6000 <span class=\"hl\">RA</span> -RADZ BKN014 \n  PROB30 \n  TEMPO 0609/0614 3000 +<span class=\"hl\">RA</span> RADZ BKN007 \n  TEMPO 0614/0618 4000 <span class=\"hl\">RA</span> <span class=\"hl\">SHRA</span> BKN005 \n  BECMG 0615/0618 28010KT \n  PROB30 \n  TEMPO 0618/0624 7000 <span class=\"hl\">SHRA</span> BKN009"
    },
    {
      "icao": "EGPD",
      "iata": "ABZ",
      "name": "Aberdeen International Airport",
      "updatedAt": "052320Z",
      "visibility_m": 10000,
      "taf_visibility_m": 500,
      "worst_visibility_m": 500,
      "ceiling_ft": null,
      "hazards": [
        "SN"
      ],
      "severityScore": 53,
      "metarRaw": "METAR EGPD 052320Z COR AUTO 27010KT 9999 NCD M03/M05 Q1013 NOSIG",
      "tafRaw": "TAF EGPD 052257Z 0600/0624 29010KT 9999 FEW012 \n  BECMG 0603/0606 20005KT \n  TEMPO 0603/0614 4000 -SNRA BKN012 \n  PROB30 \n  TEMPO 0604/0614 1400 SN BKN006 \n  TEMPO 0614/0621 1800 SNRA BKN008 \n  PROB30 \n  TEMPO 0614/0620 0500 +SN BKN004 \n  BECMG 0621/0624 05010KT \n  TEMPO 0621/0624 4000 -SNRA BKN004",
      "metarHtml": "METAR EGPD 052320Z COR AUTO 27010KT 9999 NCD M03/M05 Q1013 NOSIG",
      "tafHtml": "TAF EGPD 052257Z 0600/0624 29010KT 9999 FEW012 \n  BECMG 0603/0606 20005KT \n  TEMPO 0603/0614 4000 -SNRA BKN012 \n  PROB30 \n  TEMPO 0604/0614 1400 <span class=\"hl\">SN</span> BKN006 \n  TEMPO 0614/0621 1800 SNRA BKN008 \n  PROB30 \n  TEMPO 0614/0620 <span class=\"hl-vis\">0500</span> +<span class=\"hl\">SN</span> BKN004 \n  BECMG 0621/0624 05010KT \n  TEMPO 0621/0624 4000 -SNRA BKN004"
    },
    {
      "icao": "LHBP",
      "iata": "BUD",
      "name": "Budapest Liszt Ferenc International Airport",
      "updatedAt": "052330Z",
      "visibility_m": 5000,
      "taf_visibility_m": 500,
      "worst_visibility_m": 500,
      "ceiling_ft": 4600,
      "hazards": [
        "SN"
      ],
      "severityScore": 53,
      "metarRaw": "METAR LHBP 052330Z 32008KT 5000 -SN SCT005 OVC046 M03/M03 Q1010 NOSIG",
      "tafRaw": "TAF LHBP 052315Z 0600/0624 34008KT 6000 -SN SCT010 OVC020 \n  TEMPO 0600/0601 2500 SN BKN004 OVC020 \n  BECMG 0603/0606 9999 NSW BKN030 \n  BECMG 0607/0610 CAVOK \n  BECMG 0614/0617 4000 -SN BKN018 OVC035 \n  TEMPO 0617/0624 1200 SN BKN006 OVC015 \n  PROB40 \n  TEMPO 0618/0624 0500 +SN OVC002",
      "metarHtml": "METAR LHBP 052330Z 32008KT 5000 -<span class=\"hl\">SN</span> SCT005 OVC046 M03/M03 Q1010 NOSIG",
      "tafHtml": "TAF LHBP 052315Z 0600/0624 34008KT 6000 -<span class=\"hl\">SN</span> SCT010 OVC020 \n  TEMPO 0600/0601 2500 <span class=\"hl\">SN</span> BKN004 OVC020 \n  BECMG 0603/0606 9999 NSW BKN030 \n  BECMG 0607/0610 <span class=\"hl-vis\">CAVOK</span> \n  BECMG 0614/0617 4000 -<span class=\"hl\">SN</span> BKN018 OVC035 \n  TEMPO 0617/0624 1200 <span class=\"hl\">SN</span> BKN006 OVC015 \n  PROB40 \n  TEMPO 0618/0624 <span class=\"hl-vis\">0500</span> +<span class=\"hl\">SN</span> OVC002"
    },
    {
      "icao": "EPRZ",
      "iata": "RZE",
      "name": "Rzeszów-Jasionka Airport",
      "updatedAt": "052330Z",
      "visibility_m": 10000,
      "taf_visibility_m": 1200,
      "worst_visibility_m": 1200,
      "ceiling_ft": 1600,
      "hazards": [
        "BR",
        "SN"
      ],
      "severityScore": 50,
      "metarRaw": "METAR EPRZ 052330Z 33004KT 9999 BKN016 M03/M06 Q1010",
      "tafRaw": "TAF EPRZ 052330Z 0600/0624 33005KT 5000 -SN BR BKN015 \n  TEMPO 0600/0606 1200 SN BR BKN004 BKN008 \n  BECMG 0603/0606 27010KT \n  BECMG 0609/0612 BKN012 \n  TEMPO 0612/0618 BKN020 \n  BECMG 0616/0618 33006KT \n  BECMG 0621/0624 03010KT 4000 -SN BR BKN006",
      "metarHtml": "METAR EPRZ 052330Z 33004KT 9999 BKN016 M03/M06 Q1010",
      "tafHtml": "TAF EPRZ 052330Z 0600/0624 33005KT 5000 -<span class=\"hl\">SN</span> <span class=\"hl\">BR</span> BKN015 \n  TEMPO 0600/0606 1200 <span class=\"hl\">SN</span> <span class=\"hl\">BR</span> BKN004 BKN008 \n  BECMG 0603/0606 27010KT \n  BECMG 0609/0612 BKN012 \n  TEMPO 0612/0618 BKN020 \n  BECMG 0616/0618 33006KT \n  BECMG 0621/0624 03010KT 4000 -<span class=\"hl\">SN</span> <span class=\"hl\">BR</span> BKN006"
    },
    {
      "icao": "LZKZ",
      "iata": "KSC",
      "name": "Košice International Airport",
      "updatedAt": "052330Z",
      "visibility_m": 1200,
      "taf_visibility_m": 2000,
      "worst_visibility_m": 1200,
      "ceiling_ft": 1300,
      "hazards": [
        "BR",
        "SN"
      ],
      "severityScore": 50,
      "metarRaw": "METAR LZKZ 052330Z 04004KT 2400 SN BR OVC019 M02/M03 Q1009 TEMPO 1200 SN OVC013",
      "tafRaw": "TAF LZKZ 052315Z 0600/0700 03006KT 9999 BKN036 \n  TEMPO 0600/0606 2000 SN OVC012 \n  BECMG 0610/0612 03012KT \n  TEMPO 0618/0700 02018G38KT 2000 SN OVC009",
      "metarHtml": "METAR LZKZ 052330Z 04004KT 2400 <span class=\"hl\">SN</span> <span class=\"hl\">BR</span> OVC019 M02/M03 Q1009 TEMPO 1200 <span class=\"hl\">SN</span> OVC013",
      "tafHtml": "TAF LZKZ 052315Z 0600/0700 03006KT 9999 BKN036 \n  TEMPO 0600/0606 2000 <span class=\"hl\">SN</span> OVC012 \n  BECMG 0610/0612 03012KT \n  TEMPO 0618/0700 02018G38KT 2000 <span class=\"hl\">SN</span> OVC009"
    },
    {
      "icao": "EETN",
      "iata": "TLL",
      "name": "Lennart Meri Tallinn Airport",
      "updatedAt": "052320Z",
      "visibility_m": 10000,
      "taf_visibility_m": 800,
      "worst_visibility_m": 800,
      "ceiling_ft": null,
      "hazards": [
        "SN"
      ],
      "severityScore": 43,
      "metarRaw": "METAR EETN 052320Z 15006KT CAVOK M14/M15 Q1020",
      "tafRaw": "TAF EETN 052330Z 0600/0624 VRB02KT CAVOK \n  PROB40 \n  TEMPO 0600/0604 0800 BCFG BKN002 \n  BECMG 0604/0606 15012KT \n  BECMG 0611/0613 SCT012 BKN020 \n  TEMPO 0613/0617 2000 SN \n  TEMPO 0617/0621 BKN010",
      "metarHtml": "METAR EETN 052320Z 15006KT <span class=\"hl-vis\">CAVOK</span> M14/M15 Q1020",
      "tafHtml": "TAF EETN 052330Z 0600/0624 VRB02KT <span class=\"hl-vis\">CAVOK</span> \n  PROB40 \n  TEMPO 0600/0604 <span class=\"hl-vis\">0800</span> BCFG BKN002 \n  BECMG 0604/0606 15012KT \n  BECMG 0611/0613 SCT012 BKN020 \n  TEMPO 0613/0617 2000 <span class=\"hl\">SN</span> \n  TEMPO 0617/0621 BKN010"
    },
    {
      "icao": "EHEH",
      "iata": "EIN",
      "name": "Eindhoven Airport",
      "updatedAt": "052325Z",
      "visibility_m": 6000,
      "taf_visibility_m": null,
      "worst_visibility_m": 6000,
      "ceiling_ft": 500,
      "hazards": [
        "BR"
      ],
      "severityScore": 40,
      "metarRaw": "METAR EHEH 052325Z AUTO 21008KT 6000 BR BKN005 OVC007 M01/M02 Q1012 YLO",
      "tafRaw": null,
      "metarHtml": "METAR EHEH 052325Z AUTO 21008KT 6000 <span class=\"hl\">BR</span> BKN005 OVC007 M01/M02 Q1012 YLO",
      "tafHtml": null
    },
    {
      "icao": "EPLB",
      "iata": "LUZ",
      "name": "Lublin Airport",
      "updatedAt": "052330Z",
      "visibility_m": 10000,
      "taf_visibility_m": 1500,
      "worst_visibility_m": 1500,
      "ceiling_ft": 1700,
      "hazards": [
        "SN"
      ],
      "severityScore": 40,
      "metarRaw": "METAR EPLB 052330Z 07005KT 9999 OVC017 M03/M06 Q1012",
      "tafRaw": "TAF EPLB 052330Z 0600/0624 08005KT 9999 BKN025 \n  BECMG 0600/0603 BKN012 \n  TEMPO 0600/0609 4000 -SN BKN005 \n  PROB40 \n  TEMPO 0600/0609 1500 SN \n  BECMG 0609/0612 30010KT BKN020",
      "metarHtml": "METAR EPLB 052330Z 07005KT 9999 OVC017 M03/M06 Q1012",
      "tafHtml": "TAF EPLB 052330Z 0600/0624 08005KT 9999 BKN025 \n  BECMG 0600/0603 BKN012 \n  TEMPO 0600/0609 4000 -<span class=\"hl\">SN</span> BKN005 \n  PROB40 \n  TEMPO 0600/0609 1500 <span class=\"hl\">SN</span> \n  BECMG 0609/0612 30010KT BKN020"
    },
    {
      "icao": "EYPA",
      "iata": "PLQ",
      "name": "Palanga International Airport",
      "updatedAt": "052320Z",
      "visibility_m": 6000,
      "taf_visibility_m": null,
      "worst_visibility_m": 6000,
      "ceiling_ft": 300,
      "hazards": [],
      "severityScore": 40,
      "metarRaw": "METAR EYPA 052320Z 15010KT 6000 OVC003 M04/M04 Q1015",
      "tafRaw": null,
      "metarHtml": "METAR EYPA 052320Z 15010KT 6000 OVC003 M04/M04 Q1015",
      "tafHtml": null
    },
    {
      "icao": "LIPR",
      "iata": "RMI",
      "name": "Federico Fellini International Airport",
      "updatedAt": "052320Z",
      "visibility_m": 10000,
      "taf_visibility_m": 1200,
      "worst_visibility_m": 1200,
      "ceiling_ft": null,
      "hazards": [
        "SN",
        "RA"
      ],
      "severityScore": 40,
      "metarRaw": "METAR LIPR 052320Z AUTO 30011KT 9999 DZRA OVC015/// 02/00 Q1008",
      "tafRaw": "TAF LIPR 052300Z 0600/0624 30012KT 9999 BKN020 \n  BECMG 0605/0607 1200 SN OVC004 \n  BECMG 0616/0617 NSW \n  BECMG 0616/0618 01012KT 4000 -RA \n  BECMG 0622/0624 6000",
      "metarHtml": "METAR LIPR 052320Z AUTO 30011KT 9999 DZRA OVC015/// 02/00 Q1008",
      "tafHtml": "TAF LIPR 052300Z 0600/0624 30012KT 9999 BKN020 \n  BECMG 0605/0607 1200 <span class=\"hl\">SN</span> OVC004 \n  BECMG 0616/0617 NSW \n  BECMG 0616/0618 01012KT 4000 -<span class=\"hl\">RA</span> \n  BECMG 0622/0624 6000"
    },
    {
      "icao": "LJLJ",
      "iata": "LJU",
      "name": "Ljubljana Jože Pučnik Airport",
      "updatedAt": "052300Z",
      "visibility_m": 10000,
      "taf_visibility_m": 3000,
      "worst_visibility_m": 3000,
      "ceiling_ft": 1500,
      "hazards": [
        "BR",
        "SN"
      ],
      "severityScore": 40,
      "metarRaw": "METAR LJLJ 052300Z VRB01KT 9999 BKN015 OVC055 M03/M04 Q1011 NOSIG",
      "tafRaw": "TAF LJLJ 052300Z 0600/0700 VRB02KT 7000 -SN FEW004 BKN010 OVC055 \n  PROB30 \n  TEMPO 0600/0607 NSW FEW004 SCT016 BKN020 \n  TEMPO 0609/0615 3000 SN BR \n  TEMPO 0619/0622 NSW FEW004 SCT016 BKN020 \n  BECMG 0622/0700 NSW FEW004 SCT016 BKN020",
      "metarHtml": "METAR LJLJ 052300Z VRB01KT 9999 BKN015 OVC055 M03/M04 Q1011 NOSIG",
      "tafHtml": "TAF LJLJ 052300Z 0600/0700 VRB02KT 7000 -<span class=\"hl\">SN</span> FEW004 BKN010 OVC055 \n  PROB30 \n  TEMPO 0600/0607 NSW FEW004 SCT016 BKN020 \n  TEMPO 0609/0615 3000 <span class=\"hl\">SN</span> <span class=\"hl\">BR</span> \n  TEMPO 0619/0622 NSW FEW004 SCT016 BKN020 \n  BECMG 0622/0700 NSW FEW004 SCT016 BKN020"
    },
    {
      "icao": "LIRF",
      "iata": "FCO",
      "name": "Rome–Fiumicino Leonardo da Vinci International Airport",
      "updatedAt": "052320Z",
      "visibility_m": 10000,
      "taf_visibility_m": 3000,
      "worst_visibility_m": 3000,
      "ceiling_ft": null,
      "hazards": [
        "TSRA",
        "SHRA"
      ],
      "severityScore": 39,
      "metarRaw": "METAR LIRF 052320Z VRB02KT 9999 FEW020 SCT040 10/10 Q1003 NOSIG",
      "tafRaw": "TAF LIRF 052300Z 0600/0706 05005KT 9999 SCT020 \n  TEMPO 0602/0614 3000 SHRA \n  BECMG 0606/0608 12010KT \n  PROB30 \n  TEMPO 0608/0611 3000 TSRA \n  BECMG 0610/0612 34012KT",
      "metarHtml": "METAR LIRF 052320Z VRB02KT 9999 FEW020 SCT040 10/10 Q1003 NOSIG",
      "tafHtml": "TAF LIRF 052300Z 0600/0706 05005KT 9999 SCT020 \n  TEMPO 0602/0614 3000 <span class=\"hl\">SHRA</span> \n  BECMG 0606/0608 12010KT \n  PROB30 \n  TEMPO 0608/0611 3000 <span class=\"hl\">TSRA</span> \n  BECMG 0610/0612 34012KT"
    },
    {
      "icao": "LIRN",
      "iata": "NAP",
      "name": "Naples International Airport",
      "updatedAt": "052320Z",
      "visibility_m": 10000,
      "taf_visibility_m": 3000,
      "worst_visibility_m": 3000,
      "ceiling_ft": null,
      "hazards": [
        "TSRA",
        "SHRA"
      ],
      "severityScore": 39,
      "metarRaw": "METAR LIRN 052320Z 32002KT CAVOK 12/10 Q1003 NOSIG",
      "tafRaw": "TAF LIRN 052300Z 0600/0624 VRB06KT 9999 SCT020 SCT050 \n  TEMPO 0602/0605 4000 SHRA \n  BECMG 0605/0607 18010KT \n  TEMPO 0610/0619 4000 SHRA \n  PROB40 \n  TEMPO 0616/0619 3000 TSRA \n  BECMG 0617/0619 24010KT",
      "metarHtml": "METAR LIRN 052320Z 32002KT <span class=\"hl-vis\">CAVOK</span> 12/10 Q1003 NOSIG",
      "tafHtml": "TAF LIRN 052300Z 0600/0624 VRB06KT 9999 SCT020 SCT050 \n  TEMPO 0602/0605 4000 <span class=\"hl\">SHRA</span> \n  BECMG 0605/0607 18010KT \n  TEMPO 0610/0619 4000 <span class=\"hl\">SHRA</span> \n  PROB40 \n  TEMPO 0616/0619 3000 <span class=\"hl\">TSRA</span> \n  BECMG 0617/0619 24010KT"
    },
    {
      "icao": "LIPE",
      "iata": "BLQ",
      "name": "Bologna Guglielmo Marconi Airport",
      "updatedAt": "052320Z",
      "visibility_m": 10000,
      "taf_visibility_m": 1200,
      "worst_visibility_m": 1200,
      "ceiling_ft": 4000,
      "hazards": [
        "BR",
        "SN"
      ],
      "severityScore": 38,
      "metarRaw": "METAR LIPE 052320Z 26003KT 9999 BKN040 03/M02 Q1009",
      "tafRaw": "TAF LIPE 052300Z 0600/0624 28007KT 9999 BKN020 \n  BECMG 0607/0609 1200 SN OVC004 \n  BECMG 0617/0618 NSW BKN010 \n  BECMG 0617/0619 4000 BR",
      "metarHtml": "METAR LIPE 052320Z 26003KT 9999 BKN040 03/M02 Q1009",
      "tafHtml": "TAF LIPE 052300Z 0600/0624 28007KT 9999 BKN020 \n  BECMG 0607/0609 1200 <span class=\"hl\">SN</span> OVC004 \n  BECMG 0617/0618 NSW BKN010 \n  BECMG 0617/0619 4000 <span class=\"hl\">BR</span>"
    },
    {
      "icao": "LATI",
      "iata": "TIA",
      "name": "Tirana International Airport Mother Teresa",
      "updatedAt": "052320Z",
      "visibility_m": 10000,
      "taf_visibility_m": 4000,
      "worst_visibility_m": 4000,
      "ceiling_ft": 6400,
      "hazards": [
        "RA",
        "TSRA"
      ],
      "severityScore": 37,
      "metarRaw": "METAR LATI 052320Z 19005KT 160V220 9999 -RA SCT044 BKN064 OVC078 12/09 Q1005 NOSIG",
      "tafRaw": "TAF LATI 052300Z 0600/0624 16014KT 9999 RA FEW025CB OVC050 TX16/0612Z TN12/0605Z \n  TEMPO 0600/0603 -TSRA \n  PROB40 \n  TEMPO 0606/0610 4000 SCT025CB BKN040 \n  BECMG 0610/0612 NSW BKN025",
      "metarHtml": "METAR LATI 052320Z 19005KT 160V220 9999 -<span class=\"hl\">RA</span> SCT044 BKN064 OVC078 12/09 Q1005 NOSIG",
      "tafHtml": "TAF LATI 052300Z 0600/0624 16014KT 9999 <span class=\"hl\">RA</span> FEW025CB OVC050 TX16/0612Z TN12/0605Z \n  TEMPO 0600/0603 -<span class=\"hl\">TSRA</span> \n  PROB40 \n  TEMPO 0606/0610 4000 SCT025CB BKN040 \n  BECMG 0610/0612 NSW BKN025"
    },
    {
      "icao": "LYPG",
      "iata": "TGD",
      "name": "Podgorica Airport / Podgorica Golubovci Airbase",
      "updatedAt": "052300Z",
      "visibility_m": 10000,
      "taf_visibility_m": 3000,
      "worst_visibility_m": 3000,
      "ceiling_ft": 4000,
      "hazards": [
        "RA",
        "TSRA"
      ],
      "severityScore": 37,
      "metarRaw": "METAR LYPG 052300Z 12007KT 080V150 9999 RA FEW024 BKN040 OVC070 11/10 Q1006 NOSIG",
      "tafRaw": "TAF LYPG 052300Z 0600/0624 14008KT 6000 RA FEW025 BKN040 OVC070 TX14/0613Z TN11/0605Z \n  TEMPO 0600/0624 15018G28KT 3000 TSRA SCT025CB BKN034",
      "metarHtml": "METAR LYPG 052300Z 12007KT 080V150 9999 <span class=\"hl\">RA</span> FEW024 BKN040 OVC070 11/10 Q1006 NOSIG",
      "tafHtml": "TAF LYPG 052300Z 0600/0624 14008KT 6000 <span class=\"hl\">RA</span> FEW025 BKN040 OVC070 TX14/0613Z TN11/0605Z \n  TEMPO 0600/0624 15018G28KT 3000 <span class=\"hl\">TSRA</span> SCT025CB BKN034"
    },
    {
      "icao": "LRCL",
      "iata": "CLJ",
      "name": "Cluj Avram Iancu International Airport",
      "updatedAt": "052300Z",
      "visibility_m": 10000,
      "taf_visibility_m": 1500,
      "worst_visibility_m": 1500,
      "ceiling_ft": 6800,
      "hazards": [
        "BR",
        "DZ"
      ],
      "severityScore": 30,
      "metarRaw": "METAR LRCL 052300Z 06007KT 9999 SCT052 OVC068 01/00 Q1009",
      "tafRaw": "TAF LRCL 052300Z 0600/0609 VRB04KT 7000 BKN045 \n  TEMPO 0600/0606 3000 -DZ BR BKN010 BKN035 \n  PROB40 \n  TEMPO 0601/0606 1500 -DZ BR OVC005",
      "metarHtml": "METAR LRCL 052300Z 06007KT 9999 SCT052 OVC068 01/00 Q1009",
      "tafHtml": "TAF LRCL 052300Z 0600/0609 VRB04KT 7000 BKN045 \n  TEMPO 0600/0606 3000 -<span class=\"hl\">DZ</span> <span class=\"hl\">BR</span> BKN010 BKN035 \n  PROB40 \n  TEMPO 0601/0606 1500 -<span class=\"hl\">DZ</span> <span class=\"hl\">BR</span> OVC005"
    },
    {
      "icao": "EPGD",
      "iata": "GDN",
      "name": "Gdańsk Lech Wałęsa Airport",
      "updatedAt": "052330Z",
      "visibility_m": 10000,
      "taf_visibility_m": 4000,
      "worst_visibility_m": 4000,
      "ceiling_ft": null,
      "hazards": [
        "BR",
        "SN"
      ],
      "severityScore": 28,
      "metarRaw": "METAR EPGD 052330Z 19003KT 170V240 CAVOK M03/M04 Q1013",
      "tafRaw": "TAF EPGD 052330Z 0600/0624 18004KT 9999 SCT035 \n  PROB40 \n  TEMPO 0600/0610 4000 -SN BR BKN007 \n  BECMG 0608/0610 24010KT",
      "metarHtml": "METAR EPGD 052330Z 19003KT 170V240 <span class=\"hl-vis\">CAVOK</span> M03/M04 Q1013",
      "tafHtml": "TAF EPGD 052330Z 0600/0624 18004KT 9999 SCT035 \n  PROB40 \n  TEMPO 0600/0610 4000 -<span class=\"hl\">SN</span> <span class=\"hl\">BR</span> BKN007 \n  BECMG 0608/0610 24010KT"
    },
    {
      "icao": "EPKK",
      "iata": "KRK",
      "name": "Kraków John Paul II International Airport",
      "updatedAt": "052330Z",
      "visibility_m": 10000,
      "taf_visibility_m": 4000,
      "worst_visibility_m": 4000,
      "ceiling_ft": 6300,
      "hazards": [
        "BR",
        "SN"
      ],
      "severityScore": 28,
      "metarRaw": "METAR EPKK 052330Z 24002KT 9999 BKN063 M04/M07 Q1011",
      "tafRaw": "TAF EPKK 052330Z 0600/0624 VRB02KT CAVOK \n  BECMG 0600/0603 25010KT \n  PROB40 \n  TEMPO 0600/0608 4000 -SN BR BKN012 \n  BECMG 0615/0618 VRB02KT \n  BECMG 0621/0624 04010KT",
      "metarHtml": "METAR EPKK 052330Z 24002KT 9999 BKN063 M04/M07 Q1011",
      "tafHtml": "TAF EPKK 052330Z 0600/0624 VRB02KT <span class=\"hl-vis\">CAVOK</span> \n  BECMG 0600/0603 25010KT \n  PROB40 \n  TEMPO 0600/0608 4000 -<span class=\"hl\">SN</span> <span class=\"hl\">BR</span> BKN012 \n  BECMG 0615/0618 VRB02KT \n  BECMG 0621/0624 04010KT"
    },
    {
      "icao": "EPSC",
      "iata": "SZZ",
      "name": "Solidarity Szczecin–Goleniów Airport",
      "updatedAt": "052330Z",
      "visibility_m": 10000,
      "taf_visibility_m": 4000,
      "worst_visibility_m": 4000,
      "ceiling_ft": null,
      "hazards": [
        "BR",
        "SN"
      ],
      "severityScore": 28,
      "metarRaw": "METAR EPSC 052330Z 14006KT CAVOK M03/M06 Q1012",
      "tafRaw": "TAF EPSC 052330Z 0600/0624 16006KT 9999 BKN040 \n  PROB40 0600/0610 4000 BR BKN003 \n  TEMPO 0610/0624 4000 -SN BR BKN005 BKN010",
      "metarHtml": "METAR EPSC 052330Z 14006KT <span class=\"hl-vis\">CAVOK</span> M03/M06 Q1012",
      "tafHtml": "TAF EPSC 052330Z 0600/0624 16006KT 9999 BKN040 \n  PROB40 0600/0610 4000 <span class=\"hl\">BR</span> BKN003 \n  TEMPO 0610/0624 4000 -<span class=\"hl\">SN</span> <span class=\"hl\">BR</span> BKN005 BKN010"
    },
    {
      "icao": "EGGP",
      "iata": "LPL",
      "name": "Liverpool John Lennon Airport",
      "updatedAt": "052320Z",
      "visibility_m": 10000,
      "taf_visibility_m": 2000,
      "worst_visibility_m": 2000,
      "ceiling_ft": null,
      "hazards": [
        "RA",
        "SHRA"
      ],
      "severityScore": 26,
      "metarRaw": "METAR EGGP 052320Z 20003KT 170V230 9999 FEW034 M03/M05 Q1018",
      "tafRaw": "TAF EGGP 052255Z 0600/0624 31005KT 9999 FEW030 \n  TEMPO 0603/0609 6000 SHRA BKN012 \n  PROB30 \n  TEMPO 0604/0608 2000 SHRASN BKN004 \n  BECMG 0616/0619 19010KT \n  TEMPO 0616/0622 6000 RA BKN010 \n  PROB30 \n  TEMPO 0619/0622 21015G25KT 4000 +RA BKN006 \n  BECMG 0621/0624 27016KT \n  PROB40 \n  TEMPO 0622/0624 28018G28KT",
      "metarHtml": "METAR EGGP 052320Z 20003KT 170V230 9999 FEW034 M03/M05 Q1018",
      "tafHtml": "TAF EGGP 052255Z 0600/0624 31005KT 9999 FEW030 \n  TEMPO 0603/0609 6000 <span class=\"hl\">SHRA</span> BKN012 \n  PROB30 \n  TEMPO 0604/0608 2000 SHRASN BKN004 \n  BECMG 0616/0619 19010KT \n  TEMPO 0616/0622 6000 <span class=\"hl\">RA</span> BKN010 \n  PROB30 \n  TEMPO 0619/0622 21015G25KT 4000 +<span class=\"hl\">RA</span> BKN006 \n  BECMG 0621/0624 27016KT \n  PROB40 \n  TEMPO 0622/0624 28018G28KT"
    },
    {
      "icao": "LEAL",
      "iata": "ALC",
      "name": "Alicante-Elche Miguel Hernández Airport",
      "updatedAt": "052300Z",
      "visibility_m": 10000,
      "taf_visibility_m": 3000,
      "worst_visibility_m": 3000,
      "ceiling_ft": 3500,
      "hazards": [
        "RA",
        "SHRA"
      ],
      "severityScore": 26,
      "metarRaw": "METAR LEAL 052300Z 31004KT 270V330 9999 -RA SCT025 OVC035 09/08 Q1010 NOSIG",
      "tafRaw": "TAF LEAL 052300Z 0600/0624 VRB04KT 9999 SCT020 TX12/0614Z TN04/0606Z \n  PROB40 \n  TEMPO 0600/0608 3000 RA SHRA BKN015 FEW020TCU \n  BECMG 0606/0608 32009KT \n  BECMG 0610/0612 20007KT \n  BECMG 0614/0616 VRB03KT \n  BECMG 0618/0620 32009KT",
      "metarHtml": "METAR LEAL 052300Z 31004KT 270V330 9999 -<span class=\"hl\">RA</span> SCT025 OVC035 09/08 Q1010 NOSIG",
      "tafHtml": "TAF LEAL 052300Z 0600/0624 VRB04KT 9999 SCT020 TX12/0614Z TN04/0606Z \n  PROB40 \n  TEMPO 0600/0608 3000 <span class=\"hl\">RA</span> <span class=\"hl\">SHRA</span> BKN015 FEW020TCU \n  BECMG 0606/0608 32009KT \n  BECMG 0610/0612 20007KT \n  BECMG 0614/0616 VRB03KT \n  BECMG 0618/0620 32009KT"
    },
    {
      "icao": "ENZV",
      "iata": "SVG",
      "name": "Stavanger Airport, Sola",
      "updatedAt": "052320Z",
      "visibility_m": 2900,
      "taf_visibility_m": null,
      "worst_visibility_m": 2900,
      "ceiling_ft": 2000,
      "hazards": [
        "SN"
      ],
      "severityScore": 23,
      "metarRaw": "METAR ENZV 052320Z VRB02KT 2900 -SN BKN020 M03/M06 Q1010",
      "tafRaw": null,
      "metarHtml": "METAR ENZV 052320Z VRB02KT 2900 -<span class=\"hl\">SN</span> BKN020 M03/M06 Q1010",
      "tafHtml": null
    },
    {
      "icao": "BKPR",
      "iata": "PRN",
      "name": "Priština Adem Jashari International Airport",
      "updatedAt": "052330Z",
      "visibility_m": 10000,
      "taf_visibility_m": 4000,
      "worst_visibility_m": 4000,
      "ceiling_ft": 5000,
      "hazards": [
        "RA",
        "BR"
      ],
      "severityScore": 22,
      "metarRaw": "METAR BKPR 052330Z 16011KT 9999 -RA FEW020 BKN050 08/07 Q1008 NOSIG",
      "tafRaw": "TAF BKPR 052330Z 0600/0624 16008KT 9999 SCT020 BKN040 \n  TEMPO 0600/0624 4000 -RA BR",
      "metarHtml": "METAR BKPR 052330Z 16011KT 9999 -<span class=\"hl\">RA</span> FEW020 BKN050 08/07 Q1008 NOSIG",
      "tafHtml": "TAF BKPR 052330Z 0600/0624 16008KT 9999 SCT020 BKN040 \n  TEMPO 0600/0624 4000 -<span class=\"hl\">RA</span> <span class=\"hl\">BR</span>"
    },
    {
      "icao": "EGKK",
      "iata": "LGW",
      "name": "London Gatwick Airport",
      "updatedAt": "052320Z",
      "visibility_m": 10000,
      "taf_visibility_m": 4000,
      "worst_visibility_m": 4000,
      "ceiling_ft": null,
      "hazards": [
        "BR",
        "RA"
      ],
      "severityScore": 22,
      "metarRaw": "METAR EGKK 052320Z 30005KT CAVOK M03/M05 Q1018",
      "tafRaw": "TAF EGKK 052254Z 0600/0706 31003KT CAVOK \n  PROB30 0600/0610 4000 BR \n  BECMG 0612/0615 24010KT \n  BECMG 0619/0622 23015G25KT \n  TEMPO 0622/0704 7000 -RA BKN012 \n  PROB30 \n  TEMPO 0623/0702 4000 +RA RADZ BKN006 \n  BECMG 0701/0704 27010KT \n  PROB30 \n  TEMPO 0702/0704 SCT004 BKN006",
      "metarHtml": "METAR EGKK 052320Z 30005KT <span class=\"hl-vis\">CAVOK</span> M03/M05 Q1018",
      "tafHtml": "TAF EGKK 052254Z 0600/0706 31003KT <span class=\"hl-vis\">CAVOK</span> \n  PROB30 0600/0610 4000 <span class=\"hl\">BR</span> \n  BECMG 0612/0615 24010KT \n  BECMG 0619/0622 23015G25KT \n  TEMPO 0622/0704 7000 -<span class=\"hl\">RA</span> BKN012 \n  PROB30 \n  TEMPO 0623/0702 4000 +<span class=\"hl\">RA</span> RADZ BKN006 \n  BECMG 0701/0704 27010KT \n  PROB30 \n  TEMPO 0702/0704 SCT004 BKN006"
    },
    {
      "icao": "LEBB",
      "iata": "BIO",
      "name": "Bilbao Airport",
      "updatedAt": "052300Z",
      "visibility_m": 9000,
      "taf_visibility_m": 1500,
      "worst_visibility_m": 1500,
      "ceiling_ft": 4900,
      "hazards": [
        "RA"
      ],
      "severityScore": 22,
      "metarRaw": "METAR LEBB 052300Z AUTO 24004KT 140V310 9000 RASN FEW032 BKN049 BKN065 01/M01 Q1016",
      "tafRaw": "TAF LEBB 052300Z 0600/0624 32009KT 9999 SCT020 BKN040 TX07/0616Z TN01/0619Z \n  PROB30 \n  TEMPO 0601/0610 1500 SNRA BKN005 \n  TEMPO 0602/0610 32019G29KT \n  PROB30 \n  TEMPO 0607/0610 32024G39KT \n  PROB40 0610/0613 05010KT \n  TEMPO 0610/0615 RA",
      "metarHtml": "METAR LEBB 052300Z AUTO 24004KT 140V310 9000 RASN FEW032 BKN049 BKN065 01/M01 Q1016",
      "tafHtml": "TAF LEBB 052300Z 0600/0624 32009KT 9999 SCT020 BKN040 TX07/0616Z TN01/0619Z \n  PROB30 \n  TEMPO 0601/0610 1500 SNRA BKN005 \n  TEMPO 0602/0610 32019G29KT \n  PROB30 \n  TEMPO 0607/0610 32024G39KT \n  PROB40 0610/0613 05010KT \n  TEMPO 0610/0615 <span class=\"hl\">RA</span>"
    },
    {
      "icao": "LEXJ",
      "iata": "SDR",
      "name": "Seve Ballesteros-Santander Airport",
      "updatedAt": "052300Z",
      "visibility_m": 6000,
      "taf_visibility_m": 1500,
      "worst_visibility_m": 1500,
      "ceiling_ft": 3200,
      "hazards": [
        "RA"
      ],
      "severityScore": 22,
      "metarRaw": "METAR LEXJ 052300Z AUTO 23011KT 190V250 6000 -RA SCT027 BKN032 BKN041 05/03 Q1016",
      "tafRaw": "TAF LEXJ 052000Z 0521/0621 22005KT 9999 SCT010 BKN040 TX09/0614Z TN03/0523Z \n  TEMPO 0521/0603 3000 RA BKN010 \n  PROB30 \n  TEMPO 0521/0603 1500 SHRAGS SCT025TCU \n  BECMG 0523/0601 35012KT \n  TEMPO 0600/0610 35022G34KT \n  BECMG 0616/0618 20009KT",
      "metarHtml": "METAR LEXJ 052300Z AUTO 23011KT 190V250 6000 -<span class=\"hl\">RA</span> SCT027 BKN032 BKN041 05/03 Q1016",
      "tafHtml": "TAF LEXJ 052000Z 0521/0621 22005KT 9999 SCT010 BKN040 TX09/0614Z TN03/0523Z \n  TEMPO 0521/0603 3000 <span class=\"hl\">RA</span> BKN010 \n  PROB30 \n  TEMPO 0521/0603 1500 SHRAGS SCT025TCU \n  BECMG 0523/0601 35012KT \n  TEMPO 0600/0610 35022G34KT \n  BECMG 0616/0618 20009KT"
    },
    {
      "icao": "EDDK",
      "iata": "CGN",
      "name": "Cologne Bonn Airport",
      "updatedAt": "052320Z",
      "visibility_m": 10000,
      "taf_visibility_m": 2500,
      "worst_visibility_m": 2500,
      "ceiling_ft": 2400,
      "hazards": [
        "BR",
        "SHSN"
      ],
      "severityScore": 20,
      "metarRaw": "METAR EDDK 052320Z AUTO 17007KT 9999 BKN024 BKN043 OVC049 M02/M05 Q1013 NOSIG",
      "tafRaw": "TAF EDDK 052300Z 0600/0706 19004KT 9999 BKN020 \n  TEMPO 0600/0607 2500 -SHSN BKN006TCU \n  TEMPO 0607/0610 3000 BR BKN005 \n  TEMPO 0610/0612 BKN012 \n  BECMG 0700/0703 15009KT",
      "metarHtml": "METAR EDDK 052320Z AUTO 17007KT 9999 BKN024 BKN043 OVC049 M02/M05 Q1013 NOSIG",
      "tafHtml": "TAF EDDK 052300Z 0600/0706 19004KT 9999 BKN020 \n  TEMPO 0600/0607 2500 -<span class=\"hl\">SHSN</span> BKN006TCU \n  TEMPO 0607/0610 3000 <span class=\"hl\">BR</span> BKN005 \n  TEMPO 0610/0612 BKN012 \n  BECMG 0700/0703 15009KT"
    },
    {
      "icao": "EDLW",
      "iata": "DTM",
      "name": "Dortmund Airport",
      "updatedAt": "052320Z",
      "visibility_m": 10000,
      "taf_visibility_m": 2500,
      "worst_visibility_m": 2500,
      "ceiling_ft": null,
      "hazards": [
        "BR",
        "SHSN"
      ],
      "severityScore": 20,
      "metarRaw": "METAR EDLW 052320Z AUTO 20009KT 9999 // BKN017/// OVC050/// M01/M04 Q1011",
      "tafRaw": "TAF EDLW 051700Z 0518/0618 22008KT 9999 BKN020 \n  TEMPO 0518/0520 2500 -SHSN BKN009TCU \n  TEMPO 0523/0604 2500 -SHSN BKN009TCU \n  TEMPO 0604/0611 BKN006 \n  PROB30 \n  TEMPO 0605/0608 3000 BR OVC004",
      "metarHtml": "METAR EDLW 052320Z AUTO 20009KT 9999 // BKN017/// OVC050/// M01/M04 Q1011",
      "tafHtml": "TAF EDLW 051700Z 0518/0618 22008KT 9999 BKN020 \n  TEMPO 0518/0520 2500 -<span class=\"hl\">SHSN</span> BKN009TCU \n  TEMPO 0523/0604 2500 -<span class=\"hl\">SHSN</span> BKN009TCU \n  TEMPO 0604/0611 BKN006 \n  PROB30 \n  TEMPO 0605/0608 3000 <span class=\"hl\">BR</span> OVC004"
    },
    {
      "icao": "EHBK",
      "iata": "MST",
      "name": "Maastricht Aachen Airport",
      "updatedAt": "052325Z",
      "visibility_m": 10000,
      "taf_visibility_m": 1200,
      "worst_visibility_m": 1200,
      "ceiling_ft": null,
      "hazards": [
        "BR"
      ],
      "severityScore": 20,
      "metarRaw": "METAR EHBK 052325Z AUTO 21012KT 9999 OVC013/// M02/M04 Q1012",
      "tafRaw": "TAF EHBK 052321Z 0600/0706 20008KT 9999 BKN018 \n  BECMG 0600/0603 2500 BR BKN007 \n  PROB40 0604/0611 1200 BCFG BR BKN001 \n  BECMG 0610/0613 CAVOK \n  BECMG 0700/0703 19015G25KT",
      "metarHtml": "METAR EHBK 052325Z AUTO 21012KT 9999 OVC013/// M02/M04 Q1012",
      "tafHtml": "TAF EHBK 052321Z 0600/0706 20008KT 9999 BKN018 \n  BECMG 0600/0603 2500 <span class=\"hl\">BR</span> BKN007 \n  PROB40 0604/0611 1200 BCFG <span class=\"hl\">BR</span> BKN001 \n  BECMG 0610/0613 <span class=\"hl-vis\">CAVOK</span> \n  BECMG 0700/0703 19015G25KT"
    },
    {
      "icao": "ENHD",
      "iata": "HAU",
      "name": "Haugesund Airport, Karmøy",
      "updatedAt": "052320Z",
      "visibility_m": 10000,
      "taf_visibility_m": 1200,
      "worst_visibility_m": 1200,
      "ceiling_ft": 4000,
      "hazards": [
        "SHSN"
      ],
      "severityScore": 20,
      "metarRaw": "METAR ENHD 052320Z 09011KT 9999 BKN040 OVC047 M03/M06 Q1010",
      "tafRaw": "TAF ENHD 051400Z 0515/0523 11015KT 9999 -SHSN FEW015CB BKN025 \n  TEMPO 0515/0521 1200 SHSNGS VV009",
      "metarHtml": "METAR ENHD 052320Z 09011KT 9999 BKN040 OVC047 M03/M06 Q1010",
      "tafHtml": "TAF ENHD 051400Z 0515/0523 11015KT 9999 -<span class=\"hl\">SHSN</span> FEW015CB BKN025 \n  TEMPO 0515/0521 1200 SHSNGS VV009"
    },
    {
      "icao": "ESKN",
      "iata": "NYO",
      "name": "Stockholm Skavsta Airport",
      "updatedAt": "052320Z",
      "visibility_m": 10000,
      "taf_visibility_m": 1400,
      "worst_visibility_m": 1400,
      "ceiling_ft": null,
      "hazards": [
        "SHSN"
      ],
      "severityScore": 20,
      "metarRaw": "METAR ESKN 052320Z 14004KT 9999 SCT036 M03/M04 Q1011",
      "tafRaw": "TAF ESKN 052330Z 0600/0624 06008KT 9999 BKN030 \n  TEMPO 0602/0610 1400 SHSN BKN005 BKN025CB",
      "metarHtml": "METAR ESKN 052320Z 14004KT 9999 SCT036 M03/M04 Q1011",
      "tafHtml": "TAF ESKN 052330Z 0600/0624 06008KT 9999 BKN030 \n  TEMPO 0602/0610 1400 <span class=\"hl\">SHSN</span> BKN005 BKN025CB"
    },
    {
      "icao": "LTAC",
      "iata": "ESB",
      "name": "Esenboğa International Airport",
      "updatedAt": "052320Z",
      "visibility_m": 4100,
      "taf_visibility_m": 1200,
      "worst_visibility_m": 1200,
      "ceiling_ft": null,
      "hazards": [
        "BR"
      ],
      "severityScore": 20,
      "metarRaw": "METAR LTAC 052320Z VRB02KT 4100 BR NSC M01/M01 Q1021 NOSIG RMK RWY21C 13002KT RWY03L 11003KT RWY21R 10002KT RWY03R 00000KT RWY21L 10002KT",
      "tafRaw": "TAF LTAC 052240Z 0600/0624 VRB02KT 4000 BR NSC \n  PROB30 \n  TEMPO 0603/0607 1200 BCFG \n  BECMG 0607/0609 9999 NSW SCT040 \n  BECMG 0612/0614 CAVOK \n  BECMG 0620/0623 4000 BR",
      "metarHtml": "METAR LTAC 052320Z VRB02KT 4100 <span class=\"hl\">BR</span> NSC M01/M01 Q1021 NOSIG RMK RWY21C 13002KT RWY03L 11003KT RWY21R 10002KT RWY03R 00000KT RWY21L 10002KT",
      "tafHtml": "TAF LTAC 052240Z 0600/0624 VRB02KT 4000 <span class=\"hl\">BR</span> NSC \n  PROB30 \n  TEMPO 0603/0607 1200 BCFG \n  BECMG 0607/0609 9999 NSW SCT040 \n  BECMG 0612/0614 <span class=\"hl-vis\">CAVOK</span> \n  BECMG 0620/0623 4000 <span class=\"hl\">BR</span>"
    },
    {
      "icao": "UDSG",
      "iata": "LWN",
      "name": "Shirak International Airport",
      "updatedAt": "052300Z",
      "visibility_m": 6000,
      "taf_visibility_m": 1000,
      "worst_visibility_m": 1000,
      "ceiling_ft": null,
      "hazards": [
        "BR"
      ],
      "severityScore": 20,
      "metarRaw": "METAR UDSG 052300Z 01001KT 6000 NSC M17/M20 Q1030 NOSIG",
      "tafRaw": "TAF UDSG 052300Z 0600/0624 VRB06KT 5000 BR FEW040 \n  TEMPO 0600/0606 1000 BR",
      "metarHtml": "METAR UDSG 052300Z 01001KT 6000 NSC M17/M20 Q1030 NOSIG",
      "tafHtml": "TAF UDSG 052300Z 0600/0624 VRB06KT 5000 <span class=\"hl\">BR</span> FEW040 \n  TEMPO 0600/0606 1000 <span class=\"hl\">BR</span>"
    },
    {
      "icao": "EDDB",
      "iata": "BER",
      "name": "Berlin Brandenburg Airport",
      "updatedAt": "052320Z",
      "visibility_m": 10000,
      "taf_visibility_m": 4000,
      "worst_visibility_m": 4000,
      "ceiling_ft": null,
      "hazards": [
        "SN"
      ],
      "severityScore": 18,
      "metarRaw": "METAR EDDB 052320Z AUTO 20003KT CAVOK M08/M08 Q1013 NOSIG",
      "tafRaw": "TAF EDDB 052300Z 0600/0624 19004KT CAVOK \n  BECMG 0605/0608 BKN008 \n  PROB30 \n  TEMPO 0607/0611 4000 -SN BKN004 \n  BECMG 0611/0614 BKN020",
      "metarHtml": "METAR EDDB 052320Z AUTO 20003KT <span class=\"hl-vis\">CAVOK</span> M08/M08 Q1013 NOSIG",
      "tafHtml": "TAF EDDB 052300Z 0600/0624 19004KT <span class=\"hl-vis\">CAVOK</span> \n  BECMG 0605/0608 BKN008 \n  PROB30 \n  TEMPO 0607/0611 4000 -<span class=\"hl\">SN</span> BKN004 \n  BECMG 0611/0614 BKN020"
    },
    {
      "icao": "EDDN",
      "iata": "NUE",
      "name": "Nuremberg Airport",
      "updatedAt": "052320Z",
      "visibility_m": 10000,
      "taf_visibility_m": 4000,
      "worst_visibility_m": 4000,
      "ceiling_ft": null,
      "hazards": [
        "SN"
      ],
      "severityScore": 18,
      "metarRaw": "METAR EDDN 052320Z AUTO 11007KT CAVOK M10/M12 Q1014",
      "tafRaw": "TAF EDDN 052300Z 0600/0624 11006KT 9999 BKN020 \n  PROB30 \n  TEMPO 0607/0612 4000 -SN BKN010 \n  BECMG 0609/0611 20003KT",
      "metarHtml": "METAR EDDN 052320Z AUTO 11007KT <span class=\"hl-vis\">CAVOK</span> M10/M12 Q1014",
      "tafHtml": "TAF EDDN 052300Z 0600/0624 11006KT 9999 BKN020 \n  PROB30 \n  TEMPO 0607/0612 4000 -<span class=\"hl\">SN</span> BKN010 \n  BECMG 0609/0611 20003KT"
    },
    {
      "icao": "EDDS",
      "iata": "STR",
      "name": "Stuttgart Airport",
      "updatedAt": "052320Z",
      "visibility_m": 10000,
      "taf_visibility_m": 4000,
      "worst_visibility_m": 4000,
      "ceiling_ft": null,
      "hazards": [
        "SN"
      ],
      "severityScore": 18,
      "metarRaw": "METAR EDDS 052320Z AUTO 16003KT 110V200 CAVOK M07/M11 Q1012",
      "tafRaw": "TAF EDDS 052300Z 0600/0624 VRB03KT 9999 SCT040 \n  TEMPO 0607/0610 4000 -SN \n  PROB30 \n  TEMPO 0616/0618 4000 -SN",
      "metarHtml": "METAR EDDS 052320Z AUTO 16003KT 110V200 <span class=\"hl-vis\">CAVOK</span> M07/M11 Q1012",
      "tafHtml": "TAF EDDS 052300Z 0600/0624 VRB03KT 9999 SCT040 \n  TEMPO 0607/0610 4000 -<span class=\"hl\">SN</span> \n  PROB30 \n  TEMPO 0616/0618 4000 -<span class=\"hl\">SN</span>"
    },
    {
      "icao": "EDSB",
      "iata": "FKB",
      "name": "Karlsruhe Baden-Baden Airport",
      "updatedAt": "052320Z",
      "visibility_m": 10000,
      "taf_visibility_m": 4000,
      "worst_visibility_m": 4000,
      "ceiling_ft": null,
      "hazards": [
        "SN"
      ],
      "severityScore": 18,
      "metarRaw": "METAR EDSB 052320Z 21004KT CAVOK M06/M09 Q1014",
      "tafRaw": "TAF EDSB 052300Z 0600/0624 20004KT 9999 SCT040 \n  TEMPO 0604/0606 4000 -SN BKN010",
      "metarHtml": "METAR EDSB 052320Z 21004KT <span class=\"hl-vis\">CAVOK</span> M06/M09 Q1014",
      "tafHtml": "TAF EDSB 052300Z 0600/0624 20004KT 9999 SCT040 \n  TEMPO 0604/0606 4000 -<span class=\"hl\">SN</span> BKN010"
    },
    {
      "icao": "EFTU",
      "iata": "TKU",
      "name": "Turku Airport",
      "updatedAt": "052320Z",
      "visibility_m": 10000,
      "taf_visibility_m": 2000,
      "worst_visibility_m": 2000,
      "ceiling_ft": null,
      "hazards": [
        "SN"
      ],
      "severityScore": 18,
      "metarRaw": "METAR EFTU 052320Z AUTO 09003KT CAVOK M21/M24 Q1018",
      "tafRaw": "TAF EFTU 052027Z 0521/0621 VRB02KT CAVOK \n  BECMG 0607/0609 10010KT \n  BECMG 0614/0615 4000 -SN BKN013 \n  TEMPO 0615/0621 2000 BKN025",
      "metarHtml": "METAR EFTU 052320Z AUTO 09003KT <span class=\"hl-vis\">CAVOK</span> M21/M24 Q1018",
      "tafHtml": "TAF EFTU 052027Z 0521/0621 VRB02KT <span class=\"hl-vis\">CAVOK</span> \n  BECMG 0607/0609 10010KT \n  BECMG 0614/0615 4000 -<span class=\"hl\">SN</span> BKN013 \n  TEMPO 0615/0621 2000 BKN025"
    },
    {
      "icao": "ENGM",
      "iata": "OSL",
      "name": "Oslo-Gardermoen International Airport",
      "updatedAt": "052320Z",
      "visibility_m": 10000,
      "taf_visibility_m": 2500,
      "worst_visibility_m": 2500,
      "ceiling_ft": null,
      "hazards": [
        "SN"
      ],
      "severityScore": 18,
      "metarRaw": "METAR ENGM 052320Z 02007KT 9999 -SN FEW013 M10/M11 Q1012",
      "tafRaw": "TAF ENGM 051700Z 0518/0618 02005KT 8000 -SN SCT020 BKN040 \n  TEMPO 0518/0618 2500 -SN VV012",
      "metarHtml": "METAR ENGM 052320Z 02007KT 9999 -<span class=\"hl\">SN</span> FEW013 M10/M11 Q1012",
      "tafHtml": "TAF ENGM 051700Z 0518/0618 02005KT 8000 -<span class=\"hl\">SN</span> SCT020 BKN040 \n  TEMPO 0518/0618 2500 -<span class=\"hl\">SN</span> VV012"
    },
    {
      "icao": "LFLL",
      "iata": "LYS",
      "name": "Lyon Saint-Exupéry Airport",
      "updatedAt": "052330Z",
      "visibility_m": 9000,
      "taf_visibility_m": 10000,
      "worst_visibility_m": 9000,
      "ceiling_ft": null,
      "hazards": [
        "SN"
      ],
      "severityScore": 18,
      "metarRaw": "METAR LFLL 052330Z 34008KT 9000 NSC M06/M07 Q1014 NOSIG",
      "tafRaw": "TAF LFLL 052300Z 0600/0706 34006KT CAVOK \n  PROB30 \n  TEMPO 0600/0608 BKN006 \n  BECMG 0608/0610 BKN012 SCT038 \n  PROB30 \n  TEMPO 0610/0618 -SN \n  FM061800 36013KT 9999 BKN016",
      "metarHtml": "METAR LFLL 052330Z 34008KT 9000 NSC M06/M07 Q1014 NOSIG",
      "tafHtml": "TAF LFLL 052300Z 0600/0706 34006KT <span class=\"hl-vis\">CAVOK</span> \n  PROB30 \n  TEMPO 0600/0608 BKN006 \n  BECMG 0608/0610 BKN012 SCT038 \n  PROB30 \n  TEMPO 0610/0618 -<span class=\"hl\">SN</span> \n  FM061800 36013KT 9999 BKN016"
    },
    {
      "icao": "LFSB",
      "iata": "BSL",
      "name": "EuroAirport Basel–Mulhouse–Freiburg",
      "updatedAt": "052330Z",
      "visibility_m": 10000,
      "taf_visibility_m": 10000,
      "worst_visibility_m": 10000,
      "ceiling_ft": null,
      "hazards": [
        "SN"
      ],
      "severityScore": 18,
      "metarRaw": "METAR LFSB 052330Z AUTO 19004KT CAVOK M08/M10 Q1015 NOSIG",
      "tafRaw": "TAF LFSB 052300Z 0600/0624 VRB03KT CAVOK \n  TEMPO 0605/0611 BKN012 \n  PROB30 \n  TEMPO 0606/0610 -SN BKN008 \n  BECMG 0611/0613 32006KT",
      "metarHtml": "METAR LFSB 052330Z AUTO 19004KT <span class=\"hl-vis\">CAVOK</span> M08/M10 Q1015 NOSIG",
      "tafHtml": "TAF LFSB 052300Z 0600/0624 VRB03KT <span class=\"hl-vis\">CAVOK</span> \n  TEMPO 0605/0611 BKN012 \n  PROB30 \n  TEMPO 0606/0610 -<span class=\"hl\">SN</span> BKN008 \n  BECMG 0611/0613 32006KT"
    },
    {
      "icao": "LOWW",
      "iata": "VIE",
      "name": "Vienna International Airport",
      "updatedAt": "052320Z",
      "visibility_m": 10000,
      "taf_visibility_m": 10000,
      "worst_visibility_m": 10000,
      "ceiling_ft": 5000,
      "hazards": [
        "SN"
      ],
      "severityScore": 18,
      "metarRaw": "METAR LOWW 052320Z 33010KT 9999 BKN050 M03/M09 Q1014 NOSIG",
      "tafRaw": "TAF LOWW 052315Z 0600/0706 33010KT 9999 SCT050 TXM02/0613Z TNM05/0706Z \n  TEMPO 0610/0615 33015G25KT \n  PROB30 \n  TEMPO 0612/0616 -SN \n  TEMPO 0621/0703 30015G25KT",
      "metarHtml": "METAR LOWW 052320Z 33010KT 9999 BKN050 M03/M09 Q1014 NOSIG",
      "tafHtml": "TAF LOWW 052315Z 0600/0706 33010KT 9999 SCT050 TXM02/0613Z TNM05/0706Z \n  TEMPO 0610/0615 33015G25KT \n  PROB30 \n  TEMPO 0612/0616 -<span class=\"hl\">SN</span> \n  TEMPO 0621/0703 30015G25KT"
    },
    {
      "icao": "LZIB",
      "iata": "BTS",
      "name": "M. R. Štefánik Airport",
      "updatedAt": "052330Z",
      "visibility_m": 10000,
      "taf_visibility_m": 4000,
      "worst_visibility_m": 4000,
      "ceiling_ft": null,
      "hazards": [
        "SN"
      ],
      "severityScore": 18,
      "metarRaw": "METAR LZIB 052330Z 30012KT 9999 FEW033 SCT048 M03/M07 Q1012 NOSIG",
      "tafRaw": "TAF LZIB 052315Z 0600/0700 30013KT 9999 FEW039 \n  PROB40 \n  TEMPO 0600/0603 -SN BKN025 \n  BECMG 0609/0611 35006KT BKN030 \n  TEMPO 0617/0619 4000 -SN FEW015 BKN020",
      "metarHtml": "METAR LZIB 052330Z 30012KT 9999 FEW033 SCT048 M03/M07 Q1012 NOSIG",
      "tafHtml": "TAF LZIB 052315Z 0600/0700 30013KT 9999 FEW039 \n  PROB40 \n  TEMPO 0600/0603 -<span class=\"hl\">SN</span> BKN025 \n  BECMG 0609/0611 35006KT BKN030 \n  TEMPO 0617/0619 4000 -<span class=\"hl\">SN</span> FEW015 BKN020"
    },
    {
      "icao": "LZTT",
      "iata": "TAT",
      "name": "Poprad-Tatry Airport",
      "updatedAt": "052330Z",
      "visibility_m": 8000,
      "taf_visibility_m": 2800,
      "worst_visibility_m": 2800,
      "ceiling_ft": 4000,
      "hazards": [
        "SN"
      ],
      "severityScore": 18,
      "metarRaw": "METAR LZTT 052330Z 28008KT 8000 -SN SCT026 BKN040 M06/M08 Q1007",
      "tafRaw": "TAF LZTT 052315Z 0600/0700 VRB02KT 9999 FEW024 BKN040 \n  TEMPO 0600/0603 4000 -SN BKN025 \n  PROB30 \n  TEMPO 0603/0608 BKN015 \n  TEMPO 0616/0700 2800 SN BKN010",
      "metarHtml": "METAR LZTT 052330Z 28008KT 8000 -<span class=\"hl\">SN</span> SCT026 BKN040 M06/M08 Q1007",
      "tafHtml": "TAF LZTT 052315Z 0600/0700 VRB02KT 9999 FEW024 BKN040 \n  TEMPO 0600/0603 4000 -<span class=\"hl\">SN</span> BKN025 \n  PROB30 \n  TEMPO 0603/0608 BKN015 \n  TEMPO 0616/0700 2800 <span class=\"hl\">SN</span> BKN010"
    },
    {
      "icao": "ENTO",
      "iata": "TRF",
      "name": "Sandefjord Airport, Torp",
      "updatedAt": "052320Z",
      "visibility_m": 10000,
      "taf_visibility_m": null,
      "worst_visibility_m": 10000,
      "ceiling_ft": 1300,
      "hazards": [],
      "severityScore": 17,
      "metarRaw": "METAR ENTO 052320Z 35010KT 9999 OVC013 M08/M10 Q1013",
      "tafRaw": null,
      "metarHtml": "METAR ENTO 052320Z 35010KT 9999 OVC013 M08/M10 Q1013",
      "tafHtml": null
    },
    {
      "icao": "GCLP",
      "iata": "LPA",
      "name": "Gran Canaria Airport",
      "updatedAt": "052300Z",
      "visibility_m": 10000,
      "taf_visibility_m": 4000,
      "worst_visibility_m": 4000,
      "ceiling_ft": 4000,
      "hazards": [
        "SHRA"
      ],
      "severityScore": 14,
      "metarRaw": "METAR GCLP 052300Z 01019KT 9999 SCT025 BKN040 17/13 Q1020 NOSIG",
      "tafRaw": "TAF GCLP 052000Z 0521/0621 36017KT 9999 SCT030 TX21/0614Z TN15/0606Z \n  PROB40 \n  TEMPO 0521/0602 4000 SHRA FEW020TCU \n  PROB40 \n  TEMPO 0521/0614 36017G27KT \n  PROB30 \n  TEMPO 0612/0618 RADZ \n  PROB40 \n  TEMPO 0615/0621 01022G32KT",
      "metarHtml": "METAR GCLP 052300Z 01019KT 9999 SCT025 BKN040 17/13 Q1020 NOSIG",
      "tafHtml": "TAF GCLP 052000Z 0521/0621 36017KT 9999 SCT030 TX21/0614Z TN15/0606Z \n  PROB40 \n  TEMPO 0521/0602 4000 <span class=\"hl\">SHRA</span> FEW020TCU \n  PROB40 \n  TEMPO 0521/0614 36017G27KT \n  PROB30 \n  TEMPO 0612/0618 RADZ \n  PROB40 \n  TEMPO 0615/0621 01022G32KT"
    },
    {
      "icao": "LFMN",
      "iata": "NCE",
      "name": "Nice-Côte d'Azur Airport",
      "updatedAt": "052330Z",
      "visibility_m": 10000,
      "taf_visibility_m": 10000,
      "worst_visibility_m": 10000,
      "ceiling_ft": null,
      "hazards": [
        "SHRA"
      ],
      "severityScore": 14,
      "metarRaw": "METAR LFMN 052330Z 33009KT 9999 SCT040 SCT140 06/M01 Q1006 NOSIG",
      "tafRaw": "TAF LFMN 052000Z 0521/0703 32010KT 9999 BKN055 BKN135 \n  BECMG 0612/0614 19005KT \n  PROB40 \n  TEMPO 0620/0622 09020G30KT -SHRA BKN040TCU \n  BECMG 0622/0623 33015KT",
      "metarHtml": "METAR LFMN 052330Z 33009KT 9999 SCT040 SCT140 06/M01 Q1006 NOSIG",
      "tafHtml": "TAF LFMN 052000Z 0521/0703 32010KT 9999 BKN055 BKN135 \n  BECMG 0612/0614 19005KT \n  PROB40 \n  TEMPO 0620/0622 09020G30KT -<span class=\"hl\">SHRA</span> BKN040TCU \n  BECMG 0622/0623 33015KT"
    },
    {
      "icao": "LIBG",
      "iata": "TAR",
      "name": "Taranto-Grottaglie Marcello Arlotta Airport",
      "updatedAt": null,
      "visibility_m": null,
      "taf_visibility_m": 4000,
      "worst_visibility_m": 4000,
      "ceiling_ft": null,
      "hazards": [
        "SHRA"
      ],
      "severityScore": 14,
      "metarRaw": null,
      "tafRaw": "TAF LIBG 051700Z 0518/0603 17012KT 9999 SCT030 \n  TEMPO 0518/0522 4000 SHRA BKN010 \n  BECMG 0520/0522 VRB05KT",
      "metarHtml": null,
      "tafHtml": "TAF LIBG 051700Z 0518/0603 17012KT 9999 SCT030 \n  TEMPO 0518/0522 4000 <span class=\"hl\">SHRA</span> BKN010 \n  BECMG 0520/0522 VRB05KT"
    },
    {
      "icao": "LIBR",
      "iata": "BDS",
      "name": "Brindisi Airport",
      "updatedAt": "052320Z",
      "visibility_m": 6000,
      "taf_visibility_m": 4000,
      "worst_visibility_m": 4000,
      "ceiling_ft": 2500,
      "hazards": [
        "SHRA"
      ],
      "severityScore": 14,
      "metarRaw": "METAR LIBR 052320Z 21013KT 6000 FEW010 BKN025 16/14 Q1005",
      "tafRaw": "TAF LIBR 052300Z 0600/0624 VRB05KT 9999 BKN015 \n  TEMPO 0600/0606 4000 SHRA \n  BECMG 0608/0610 18013KT",
      "metarHtml": "METAR LIBR 052320Z 21013KT 6000 FEW010 BKN025 16/14 Q1005",
      "tafHtml": "TAF LIBR 052300Z 0600/0624 VRB05KT 9999 BKN015 \n  TEMPO 0600/0606 4000 <span class=\"hl\">SHRA</span> \n  BECMG 0608/0610 18013KT"
    },
    {
      "icao": "LPMA",
      "iata": "FNC",
      "name": "Madeira International Airport Cristiano Ronaldo",
      "updatedAt": "052300Z",
      "visibility_m": 10000,
      "taf_visibility_m": 8000,
      "worst_visibility_m": 8000,
      "ceiling_ft": null,
      "hazards": [
        "SHRA"
      ],
      "severityScore": 14,
      "metarRaw": "METAR LPMA 052300Z 03019G31KT 350V060 9999 SCT015 FEW018TCU 15/06 Q1024",
      "tafRaw": "TAF LPMA 052300Z 0600/0624 02017KT 9999 SCT015 \n  TEMPO 0600/0615 01022G35KT 8000 SHRA BKN013 FEW018CB \n  TEMPO 0615/0624 01018G30KT",
      "metarHtml": "METAR LPMA 052300Z 03019G31KT 350V060 9999 SCT015 FEW018TCU 15/06 Q1024",
      "tafHtml": "TAF LPMA 052300Z 0600/0624 02017KT 9999 SCT015 \n  TEMPO 0600/0615 01022G35KT 8000 <span class=\"hl\">SHRA</span> BKN013 FEW018CB \n  TEMPO 0615/0624 01018G30KT"
    },
    {
      "icao": "LPPS",
      "iata": "PXO",
      "name": "Porto Santo Airport",
      "updatedAt": "052300Z",
      "visibility_m": 10000,
      "taf_visibility_m": 8000,
      "worst_visibility_m": 8000,
      "ceiling_ft": null,
      "hazards": [
        "SHRA"
      ],
      "severityScore": 14,
      "metarRaw": "METAR LPPS 052300Z 04011KT 360V070 9999 SCT015 SCT030 15/08 Q1025",
      "tafRaw": "TAF LPPS 052300Z 0600/0706 04015KT 9999 SCT015 SCT030 \n  TEMPO 0600/0706 03018G28KT \n  PROB40 \n  TEMPO 0600/0612 8000 SHRA BKN013 FEW018CB",
      "metarHtml": "METAR LPPS 052300Z 04011KT 360V070 9999 SCT015 SCT030 15/08 Q1025",
      "tafHtml": "TAF LPPS 052300Z 0600/0706 04015KT 9999 SCT015 SCT030 \n  TEMPO 0600/0706 03018G28KT \n  PROB40 \n  TEMPO 0600/0612 8000 <span class=\"hl\">SHRA</span> BKN013 FEW018CB"
    },
    {
      "icao": "LTFM",
      "iata": "IST",
      "name": "İstanbul Airport",
      "updatedAt": "052320Z",
      "visibility_m": 10000,
      "taf_visibility_m": 10000,
      "worst_visibility_m": 10000,
      "ceiling_ft": 10000,
      "hazards": [
        "SHRA"
      ],
      "severityScore": 14,
      "metarRaw": "METAR LTFM 052320Z 19010KT 9999 SCT040 BKN100 13/06 Q1016 NOSIG RMK RWY17L 19013KT RWY34L 18011KT RWY16R 18013KT RWY36 18011KT RWY18 19014KT",
      "tafRaw": "TAF LTFM 052240Z 0600/0706 19012KT 9999 SCT040 BKN100 \n  TEMPO 0600/0603 -SHRA BKN035 BKN080 \n  TEMPO 0603/0607 -SHRA BKN035 BKN080",
      "metarHtml": "METAR LTFM 052320Z 19010KT 9999 SCT040 BKN100 13/06 Q1016 NOSIG RMK RWY17L 19013KT RWY34L 18011KT RWY16R 18013KT RWY36 18011KT RWY18 19014KT",
      "tafHtml": "TAF LTFM 052240Z 0600/0706 19012KT 9999 SCT040 BKN100 \n  TEMPO 0600/0603 -<span class=\"hl\">SHRA</span> BKN035 BKN080 \n  TEMPO 0603/0607 -<span class=\"hl\">SHRA</span> BKN035 BKN080"
    },
    {
      "icao": "GMMN",
      "iata": "CMN",
      "name": "Mohammed V International Airport",
      "updatedAt": "052330Z",
      "visibility_m": 10000,
      "taf_visibility_m": 5000,
      "worst_visibility_m": 5000,
      "ceiling_ft": 3000,
      "hazards": [
        "RA"
      ],
      "severityScore": 12,
      "metarRaw": "METAR GMMN 052330Z 29006KT 9999 BKN030 10/07 Q1016 NOSIG",
      "tafRaw": "TAF GMMN 052300Z 0600/0706 31006KT 9999 BKN030 \n  PROB40 \n  TEMPO 0608/0614 23010KT 5000 RA BKN013 BKN020",
      "metarHtml": "METAR GMMN 052330Z 29006KT 9999 BKN030 10/07 Q1016 NOSIG",
      "tafHtml": "TAF GMMN 052300Z 0600/0706 31006KT 9999 BKN030 \n  PROB40 \n  TEMPO 0608/0614 23010KT 5000 <span class=\"hl\">RA</span> BKN013 BKN020"
    },
    {
      "icao": "GMMX",
      "iata": "RAK",
      "name": "Menara Airport",
      "updatedAt": "052330Z",
      "visibility_m": 8000,
      "taf_visibility_m": 4000,
      "worst_visibility_m": 4000,
      "ceiling_ft": 2000,
      "hazards": [
        "RA"
      ],
      "severityScore": 12,
      "metarRaw": "METAR GMMX 052330Z 36008KT 320V030 8000 SCT013 BKN020 11/09 Q1016 NOSIG",
      "tafRaw": "TAF GMMX 052300Z 0600/0706 26006KT 8000 SCT023 SCT080 \n  TEMPO 0600/0606 34012KT 4000 RA SCT013 BKN020",
      "metarHtml": "METAR GMMX 052330Z 36008KT 320V030 8000 SCT013 BKN020 11/09 Q1016 NOSIG",
      "tafHtml": "TAF GMMX 052300Z 0600/0706 26006KT 8000 SCT023 SCT080 \n  TEMPO 0600/0606 34012KT 4000 <span class=\"hl\">RA</span> SCT013 BKN020"
    },
    {
      "icao": "EGBB",
      "iata": "BHX",
      "name": "Birmingham Airport",
      "updatedAt": "052320Z",
      "visibility_m": 10000,
      "taf_visibility_m": 4000,
      "worst_visibility_m": 4000,
      "ceiling_ft": null,
      "hazards": [
        "RA"
      ],
      "severityScore": 12,
      "metarRaw": "METAR EGBB 052320Z VRB02KT CAVOK M07/M08 Q1018",
      "tafRaw": "TAF EGBB 052258Z 0600/0624 27004KT 9999 FEW025 \n  PROB40 0603/0611 6000 \n  PROB30 \n  TEMPO 0605/0610 BKN008 \n  BECMG 0612/0615 20010KT \n  TEMPO 0617/0621 8000 -RA \n  PROB30 \n  TEMPO 0617/0624 20015G25KT \n  TEMPO 0621/0624 7000 RA BKN012 \n  PROB30 \n  TEMPO 0621/0624 4000 +RA BKN008 \n  BECMG 0622/0624 26012KT",
      "metarHtml": "METAR EGBB 052320Z VRB02KT <span class=\"hl-vis\">CAVOK</span> M07/M08 Q1018",
      "tafHtml": "TAF EGBB 052258Z 0600/0624 27004KT 9999 FEW025 \n  PROB40 0603/0611 6000 \n  PROB30 \n  TEMPO 0605/0610 BKN008 \n  BECMG 0612/0615 20010KT \n  TEMPO 0617/0621 8000 -<span class=\"hl\">RA</span> \n  PROB30 \n  TEMPO 0617/0624 20015G25KT \n  TEMPO 0621/0624 7000 <span class=\"hl\">RA</span> BKN012 \n  PROB30 \n  TEMPO 0621/0624 4000 +<span class=\"hl\">RA</span> BKN008 \n  BECMG 0622/0624 26012KT"
    },
    {
      "icao": "EGGW",
      "iata": "LTN",
      "name": "London Luton Airport",
      "updatedAt": "052320Z",
      "visibility_m": 10000,
      "taf_visibility_m": 3000,
      "worst_visibility_m": 3000,
      "ceiling_ft": null,
      "hazards": [
        "RA"
      ],
      "severityScore": 12,
      "metarRaw": "METAR EGGW 052320Z AUTO 29007KT 9999 NCD M04/M06 Q1017",
      "tafRaw": "TAF EGGW 052305Z 0600/0624 30006KT CAVOK \n  TEMPO 0612/0618 BKN030 \n  BECMG 0618/0620 19012KT FEW012 BKN030 \n  TEMPO 0620/0624 20016G26KT 6000 RA BKN012 \n  PROB30 \n  TEMPO 0622/0624 3000 +RA BKN006",
      "metarHtml": "METAR EGGW 052320Z AUTO 29007KT 9999 NCD M04/M06 Q1017",
      "tafHtml": "TAF EGGW 052305Z 0600/0624 30006KT <span class=\"hl-vis\">CAVOK</span> \n  TEMPO 0612/0618 BKN030 \n  BECMG 0618/0620 19012KT FEW012 BKN030 \n  TEMPO 0620/0624 20016G26KT 6000 <span class=\"hl\">RA</span> BKN012 \n  PROB30 \n  TEMPO 0622/0624 3000 +<span class=\"hl\">RA</span> BKN006"
    },
    {
      "icao": "LBSF",
      "iata": "SOF",
      "name": "Sofia Airport",
      "updatedAt": "052330Z",
      "visibility_m": 10000,
      "taf_visibility_m": 5000,
      "worst_visibility_m": 5000,
      "ceiling_ft": null,
      "hazards": [
        "RA"
      ],
      "severityScore": 12,
      "metarRaw": "METAR LBSF 052330Z AUTO 35004KT 9999 SCT075/// 08/04 Q1010 NOSIG",
      "tafRaw": "TAF LBSF 052300Z 0600/0624 VRB03KT 7000 SCT040 BKN060 \n  BECMG 0603/0604 10012KT \n  PROB40 \n  TEMPO 0604/0609 5000 RA SCT030 BKN040 \n  TEMPO 0609/0615 5000 RA SCT030 BKN040",
      "metarHtml": "METAR LBSF 052330Z AUTO 35004KT 9999 SCT075/// 08/04 Q1010 NOSIG",
      "tafHtml": "TAF LBSF 052300Z 0600/0624 VRB03KT 7000 SCT040 BKN060 \n  BECMG 0603/0604 10012KT \n  PROB40 \n  TEMPO 0604/0609 5000 <span class=\"hl\">RA</span> SCT030 BKN040 \n  TEMPO 0609/0615 5000 <span class=\"hl\">RA</span> SCT030 BKN040"
    },
    {
      "icao": "LGTS",
      "iata": "SKG",
      "name": "Thessaloniki Macedonia International Airport",
      "updatedAt": "052320Z",
      "visibility_m": 10000,
      "taf_visibility_m": 5000,
      "worst_visibility_m": 5000,
      "ceiling_ft": null,
      "hazards": [
        "RA"
      ],
      "severityScore": 12,
      "metarRaw": "METAR LGTS 052320Z 12005KT 9999 FEW030 14/11 Q1012 NOSIG",
      "tafRaw": "TAF LGTS 052300Z 0600/0624 14010KT 9999 SCT030 \n  PROB30 \n  TEMPO 0610/0624 5000 RA",
      "metarHtml": "METAR LGTS 052320Z 12005KT 9999 FEW030 14/11 Q1012 NOSIG",
      "tafHtml": "TAF LGTS 052300Z 0600/0624 14010KT 9999 SCT030 \n  PROB30 \n  TEMPO 0610/0624 5000 <span class=\"hl\">RA</span>"
    },
    {
      "icao": "LIBD",
      "iata": "BRI",
      "name": "Bari Karol Wojtyła International Airport",
      "updatedAt": "052320Z",
      "visibility_m": 10000,
      "taf_visibility_m": 10000,
      "worst_visibility_m": 10000,
      "ceiling_ft": 1500,
      "hazards": [],
      "severityScore": 12,
      "metarRaw": "METAR LIBD 052320Z 32003KT 290V350 9999 BKN015 11/10 Q1005",
      "tafRaw": "TAF LIBD 052300Z 0600/0624 30007KT 9999 SCT015 \n  BECMG 0610/0612 15010KT \n  BECMG 0622/0624 27010KT",
      "metarHtml": "METAR LIBD 052320Z 32003KT 290V350 9999 BKN015 11/10 Q1005",
      "tafHtml": "TAF LIBD 052300Z 0600/0624 30007KT 9999 SCT015 \n  BECMG 0610/0612 15010KT \n  BECMG 0622/0624 27010KT"
    },
    {
      "icao": "LIBP",
      "iata": "PSR",
      "name": "Abruzzo Airport",
      "updatedAt": "052320Z",
      "visibility_m": 7000,
      "taf_visibility_m": 4000,
      "worst_visibility_m": 4000,
      "ceiling_ft": null,
      "hazards": [
        "RA"
      ],
      "severityScore": 12,
      "metarRaw": "METAR LIBP 052320Z AUTO VRB01KT 7000 OVC005/// 07/06 Q1007",
      "tafRaw": "TAF LIBP 052300Z 0600/0624 VRB05KT 9999 OVC008 \n  BECMG 0602/0604 4000 RA \n  BECMG 0615/0618 34010KT 6000 NSW SCT030 \n  TEMPO 0621/0624 4000 -RA",
      "metarHtml": "METAR LIBP 052320Z AUTO VRB01KT 7000 OVC005/// 07/06 Q1007",
      "tafHtml": "TAF LIBP 052300Z 0600/0624 VRB05KT 9999 OVC008 \n  BECMG 0602/0604 4000 <span class=\"hl\">RA</span> \n  BECMG 0615/0618 34010KT 6000 NSW SCT030 \n  TEMPO 0621/0624 4000 -<span class=\"hl\">RA</span>"
    },
    {
      "icao": "LIPY",
      "iata": "AOI",
      "name": "Marche Airport",
      "updatedAt": "052320Z",
      "visibility_m": 10000,
      "taf_visibility_m": 2000,
      "worst_visibility_m": 2000,
      "ceiling_ft": null,
      "hazards": [
        "RA"
      ],
      "severityScore": 12,
      "metarRaw": "METAR LIPY 052320Z AUTO 28004KT 240V320 9999 -RA OVC019/// 03/02 Q1008 REDZ",
      "tafRaw": "TAF LIPY 052300Z 0600/0624 VRB05KT 4000 RA BKN010 \n  BECMG 0606/0608 32015KT \n  TEMPO 0611/0616 2000 RASN OVC004 \n  BECMG 0618/0621 7000 NSW",
      "metarHtml": "METAR LIPY 052320Z AUTO 28004KT 240V320 9999 -<span class=\"hl\">RA</span> OVC019/// 03/02 Q1008 REDZ",
      "tafHtml": "TAF LIPY 052300Z 0600/0624 VRB05KT 4000 <span class=\"hl\">RA</span> BKN010 \n  BECMG 0606/0608 32015KT \n  TEMPO 0611/0616 2000 RASN OVC004 \n  BECMG 0618/0621 7000 NSW"
    },
    {
      "icao": "LIRP",
      "iata": "PSA",
      "name": "Pisa International Airport",
      "updatedAt": "052315Z",
      "visibility_m": 10000,
      "taf_visibility_m": 10000,
      "worst_visibility_m": 10000,
      "ceiling_ft": null,
      "hazards": [
        "RA"
      ],
      "severityScore": 12,
      "metarRaw": "METAR LIRP 052315Z VRB02KT CAVOK 03/M01 Q1005 NOSIG",
      "tafRaw": "TAF LIRP 052300Z 0600/0624 10006KT CAVOK \n  PROB30 \n  TEMPO 0608/0610 9999 RA BKN040",
      "metarHtml": "METAR LIRP 052315Z VRB02KT <span class=\"hl-vis\">CAVOK</span> 03/M01 Q1005 NOSIG",
      "tafHtml": "TAF LIRP 052300Z 0600/0624 10006KT <span class=\"hl-vis\">CAVOK</span> \n  PROB30 \n  TEMPO 0608/0610 9999 <span class=\"hl\">RA</span> BKN040"
    },
    {
      "icao": "LIRZ",
      "iata": "PEG",
      "name": "Perugia San Francesco d'Assisi – Umbria International Airport",
      "updatedAt": "052320Z",
      "visibility_m": 10000,
      "taf_visibility_m": 4000,
      "worst_visibility_m": 4000,
      "ceiling_ft": null,
      "hazards": [
        "RA"
      ],
      "severityScore": 12,
      "metarRaw": "METAR LIRZ 052320Z AUTO 35007KT 9999 OVC018/// 05/04 Q1004",
      "tafRaw": "TAF LIRZ 052300Z 0600/0624 02010KT 9999 BKN020 \n  BECMG 0602/0604 4000 RA \n  BECMG 0614/0616 8000 NSW",
      "metarHtml": "METAR LIRZ 052320Z AUTO 35007KT 9999 OVC018/// 05/04 Q1004",
      "tafHtml": "TAF LIRZ 052300Z 0600/0624 02010KT 9999 BKN020 \n  BECMG 0602/0604 4000 <span class=\"hl\">RA</span> \n  BECMG 0614/0616 8000 NSW"
    },
    {
      "icao": "LPPR",
      "iata": "OPO",
      "name": "Francisco de Sá Carneiro Airport",
      "updatedAt": "052300Z",
      "visibility_m": 10000,
      "taf_visibility_m": 8000,
      "worst_visibility_m": 8000,
      "ceiling_ft": null,
      "hazards": [
        "RA"
      ],
      "severityScore": 12,
      "metarRaw": "METAR LPPR 052300Z 34009KT CAVOK 06/02 Q1019",
      "tafRaw": "TAF LPPR 052300Z 0600/0624 36010KT CAVOK \n  BECMG 0622/0624 15010KT 8000 -RA SCT015 BKN025",
      "metarHtml": "METAR LPPR 052300Z 34009KT <span class=\"hl-vis\">CAVOK</span> 06/02 Q1019",
      "tafHtml": "TAF LPPR 052300Z 0600/0624 36010KT <span class=\"hl-vis\">CAVOK</span> \n  BECMG 0622/0624 15010KT 8000 -<span class=\"hl\">RA</span> SCT015 BKN025"
    },
    {
      "icao": "LPPT",
      "iata": "LIS",
      "name": "Lisbon Humberto Delgado Airport",
      "updatedAt": "052300Z",
      "visibility_m": 10000,
      "taf_visibility_m": 5000,
      "worst_visibility_m": 5000,
      "ceiling_ft": null,
      "hazards": [
        "RA"
      ],
      "severityScore": 12,
      "metarRaw": "METAR LPPT 052300Z 34006KT 9999 FEW022 SCT038 07/06 Q1017",
      "tafRaw": "TAF LPPT 052300Z 0600/0706 36008KT 9999 FEW030 \n  BECMG 0610/0612 34015KT CAVOK \n  PROB40 \n  TEMPO 0612/0618 35018G30KT \n  BECMG 0622/0624 VRB02KT 9999 FEW018 BKN030 \n  TEMPO 0702/0706 5000 RA BKN012 \n  BECMG 0704/0706 18007KT",
      "metarHtml": "METAR LPPT 052300Z 34006KT 9999 FEW022 SCT038 07/06 Q1017",
      "tafHtml": "TAF LPPT 052300Z 0600/0706 36008KT 9999 FEW030 \n  BECMG 0610/0612 34015KT <span class=\"hl-vis\">CAVOK</span> \n  PROB40 \n  TEMPO 0612/0618 35018G30KT \n  BECMG 0622/0624 VRB02KT 9999 FEW018 BKN030 \n  TEMPO 0702/0706 5000 <span class=\"hl\">RA</span> BKN012 \n  BECMG 0704/0706 18007KT"
    },
    {
      "icao": "LWOH",
      "iata": "OHD",
      "name": "Ohrid St. Paul the Apostle Airport",
      "updatedAt": null,
      "visibility_m": null,
      "taf_visibility_m": 10000,
      "worst_visibility_m": 10000,
      "ceiling_ft": null,
      "hazards": [
        "RA"
      ],
      "severityScore": 12,
      "metarRaw": null,
      "tafRaw": "TAF LWOH 052045Z 0521/0621 VRB02KT 9999 -RA SCT020 BKN040 \n  BECMG 0602/0604 16015KT \n  BECMG 0611/0613 RA SCT015 OVC030",
      "metarHtml": null,
      "tafHtml": "TAF LWOH 052045Z 0521/0621 VRB02KT 9999 -<span class=\"hl\">RA</span> SCT020 BKN040 \n  BECMG 0602/0604 16015KT \n  BECMG 0611/0613 <span class=\"hl\">RA</span> SCT015 OVC030"
    },
    {
      "icao": "LYNI",
      "iata": "INI",
      "name": "Niš Constantine the Great Airport",
      "updatedAt": "052300Z",
      "visibility_m": 10000,
      "taf_visibility_m": 10000,
      "worst_visibility_m": 10000,
      "ceiling_ft": 8300,
      "hazards": [
        "RA"
      ],
      "severityScore": 12,
      "metarRaw": "METAR LYNI 052300Z VRB02KT 9999 FEW040 OVC083 03/03 Q1008 NOSIG",
      "tafRaw": "TAF LYNI 052300Z 0600/0624 05004KT 9999 BKN080 TX03/0600Z TN00/0624Z \n  BECMG 0604/0606 34010KT BKN010 BKN030 \n  TEMPO 0605/0612 RA",
      "metarHtml": "METAR LYNI 052300Z VRB02KT 9999 FEW040 OVC083 03/03 Q1008 NOSIG",
      "tafHtml": "TAF LYNI 052300Z 0600/0624 05004KT 9999 BKN080 TX03/0600Z TN00/0624Z \n  BECMG 0604/0606 34010KT BKN010 BKN030 \n  TEMPO 0605/0612 <span class=\"hl\">RA</span>"
    },
    {
      "icao": "EDJA",
      "iata": "FMM",
      "name": "Memmingen Allgau Airport",
      "updatedAt": "052320Z",
      "visibility_m": 10000,
      "taf_visibility_m": 1200,
      "worst_visibility_m": 1200,
      "ceiling_ft": null,
      "hazards": [],
      "severityScore": 10,
      "metarRaw": "METAR EDJA 052320Z AUTO 20003KT 9999 // FEW140/// M13/M15 Q1012",
      "tafRaw": "TAF EDJA 051700Z 0518/0603 22004KT CAVOK \n  PROB30 \n  TEMPO 0521/0603 1200 BCFG",
      "metarHtml": "METAR EDJA 052320Z AUTO 20003KT 9999 // FEW140/// M13/M15 Q1012",
      "tafHtml": "TAF EDJA 051700Z 0518/0603 22004KT <span class=\"hl-vis\">CAVOK</span> \n  PROB30 \n  TEMPO 0521/0603 1200 BCFG"
    },
    {
      "icao": "EDNY",
      "iata": "FDH",
      "name": "Friedrichshafen Airport",
      "updatedAt": "052320Z",
      "visibility_m": 10000,
      "taf_visibility_m": 1200,
      "worst_visibility_m": 1200,
      "ceiling_ft": null,
      "hazards": [],
      "severityScore": 10,
      "metarRaw": "METAR EDNY 052320Z AUTO 05003KT 020V140 9999 // SCT015/// M13/M14 Q1014",
      "tafRaw": "TAF EDNY 051700Z 0518/0603 VRB03KT CAVOK \n  PROB30 \n  TEMPO 0521/0603 1200 BCFG",
      "metarHtml": "METAR EDNY 052320Z AUTO 05003KT 020V140 9999 // SCT015/// M13/M14 Q1014",
      "tafHtml": "TAF EDNY 051700Z 0518/0603 VRB03KT <span class=\"hl-vis\">CAVOK</span> \n  PROB30 \n  TEMPO 0521/0603 1200 BCFG"
    },
    {
      "icao": "EPKT",
      "iata": "KTW",
      "name": "Katowice Wojciech Korfanty International Airport",
      "updatedAt": "052330Z",
      "visibility_m": 9000,
      "taf_visibility_m": 2000,
      "worst_visibility_m": 2000,
      "ceiling_ft": null,
      "hazards": [
        "BR"
      ],
      "severityScore": 10,
      "metarRaw": "METAR EPKT 052330Z 34002KT 9000 NSC M06/M08 Q1011",
      "tafRaw": "TAF EPKT 052330Z 0600/0624 35002KT CAVOK \n  PROB30 \n  TEMPO 0600/0605 4000 BR \n  PROB30 \n  TEMPO 0605/0609 2000 BR BKN004 \n  BECMG 0606/0609 29010KT \n  BECMG 0618/0621 35005KT",
      "metarHtml": "METAR EPKT 052330Z 34002KT 9000 NSC M06/M08 Q1011",
      "tafHtml": "TAF EPKT 052330Z 0600/0624 35002KT <span class=\"hl-vis\">CAVOK</span> \n  PROB30 \n  TEMPO 0600/0605 4000 <span class=\"hl\">BR</span> \n  PROB30 \n  TEMPO 0605/0609 2000 <span class=\"hl\">BR</span> BKN004 \n  BECMG 0606/0609 29010KT \n  BECMG 0618/0621 35005KT"
    },
    {
      "icao": "EPWR",
      "iata": "WRO",
      "name": "Copernicus Wrocław Airport",
      "updatedAt": "052330Z",
      "visibility_m": 7000,
      "taf_visibility_m": 4500,
      "worst_visibility_m": 4500,
      "ceiling_ft": null,
      "hazards": [
        "BR"
      ],
      "severityScore": 10,
      "metarRaw": "METAR EPWR 052330Z 31002KT 7000 NSC M09/M11 Q1013",
      "tafRaw": "TAF EPWR 052330Z 0600/0624 30003KT CAVOK \n  TEMPO 0600/0606 4500 BR",
      "metarHtml": "METAR EPWR 052330Z 31002KT 7000 NSC M09/M11 Q1013",
      "tafHtml": "TAF EPWR 052330Z 0600/0624 30003KT <span class=\"hl-vis\">CAVOK</span> \n  TEMPO 0600/0606 4500 <span class=\"hl\">BR</span>"
    },
    {
      "icao": "ESGG",
      "iata": "GOT",
      "name": "Göteborg Landvetter Airport",
      "updatedAt": "052320Z",
      "visibility_m": 10000,
      "taf_visibility_m": 2500,
      "worst_visibility_m": 2500,
      "ceiling_ft": null,
      "hazards": [
        "BR"
      ],
      "severityScore": 10,
      "metarRaw": "METAR ESGG 052320Z 08004KT CAVOK M08/M09 Q1010",
      "tafRaw": "TAF ESGG 052330Z 0600/0624 VRB02KT 9999 SCT045 \n  PROB40 0600/0606 2500 BR BKN004",
      "metarHtml": "METAR ESGG 052320Z 08004KT <span class=\"hl-vis\">CAVOK</span> M08/M09 Q1010",
      "tafHtml": "TAF ESGG 052330Z 0600/0624 VRB02KT 9999 SCT045 \n  PROB40 0600/0606 2500 <span class=\"hl\">BR</span> BKN004"
    },
    {
      "icao": "LBWN",
      "iata": "VAR",
      "name": "Varna Airport",
      "updatedAt": "052330Z",
      "visibility_m": 10000,
      "taf_visibility_m": 3000,
      "worst_visibility_m": 3000,
      "ceiling_ft": null,
      "hazards": [
        "BR"
      ],
      "severityScore": 10,
      "metarRaw": "METAR LBWN 052330Z AUTO 07005KT 9999 NSC 11/10 Q1013 NOSIG",
      "tafRaw": "TAF LBWN 052300Z 0600/0624 11008KT 9999 BKN040 \n  PROB40 \n  TEMPO 0600/0606 3000 BR SCT003 OVC010 \n  BECMG 0607/0609 21012KT \n  BECMG 0616/0618 VRB04KT",
      "metarHtml": "METAR LBWN 052330Z AUTO 07005KT 9999 NSC 11/10 Q1013 NOSIG",
      "tafHtml": "TAF LBWN 052300Z 0600/0624 11008KT 9999 BKN040 \n  PROB40 \n  TEMPO 0600/0606 3000 <span class=\"hl\">BR</span> SCT003 OVC010 \n  BECMG 0607/0609 21012KT \n  BECMG 0616/0618 VRB04KT"
    },
    {
      "icao": "LKPR",
      "iata": "PRG",
      "name": "Václav Havel Airport Prague",
      "updatedAt": "052330Z",
      "visibility_m": 10000,
      "taf_visibility_m": 5000,
      "worst_visibility_m": 5000,
      "ceiling_ft": null,
      "hazards": [
        "BR"
      ],
      "severityScore": 10,
      "metarRaw": "METAR LKPR 052330Z 20008KT CAVOK M08/M11 Q1012 NOSIG",
      "tafRaw": "TAF LKPR 052300Z 0600/0706 23006KT CAVOK \n  TEMPO 0700/0706 5000 BR NSC",
      "metarHtml": "METAR LKPR 052330Z 20008KT <span class=\"hl-vis\">CAVOK</span> M08/M11 Q1012 NOSIG",
      "tafHtml": "TAF LKPR 052300Z 0600/0706 23006KT <span class=\"hl-vis\">CAVOK</span> \n  TEMPO 0700/0706 5000 <span class=\"hl\">BR</span> NSC"
    },
    {
      "icao": "LLBG",
      "iata": "TLV",
      "name": "Ben Gurion International Airport",
      "updatedAt": "052320Z",
      "visibility_m": 10000,
      "taf_visibility_m": 5000,
      "worst_visibility_m": 5000,
      "ceiling_ft": null,
      "hazards": [
        "BR"
      ],
      "severityScore": 10,
      "metarRaw": "METAR LLBG 052320Z VRB03KT CAVOK 11/07 Q1019 NOSIG",
      "tafRaw": "TAF LLBG 052322Z 0600/0624 13004KT CAVOK \n  BECMG 0607/0609 30010KT \n  BECMG 0615/0617 VRB03KT \n  PROB30 0623/0624 5000 BR SCT008 TX22/0612Z TN10/0604Z",
      "metarHtml": "METAR LLBG 052320Z VRB03KT <span class=\"hl-vis\">CAVOK</span> 11/07 Q1019 NOSIG",
      "tafHtml": "TAF LLBG 052322Z 0600/0624 13004KT <span class=\"hl-vis\">CAVOK</span> \n  BECMG 0607/0609 30010KT \n  BECMG 0615/0617 VRB03KT \n  PROB30 0623/0624 5000 <span class=\"hl\">BR</span> SCT008 TX22/0612Z TN10/0604Z"
    },
    {
      "icao": "LECH",
      "iata": "CDT",
      "name": "Castellón-Costa Azahar Airport",
      "updatedAt": "052300Z",
      "visibility_m": 10000,
      "taf_visibility_m": null,
      "worst_visibility_m": 10000,
      "ceiling_ft": null,
      "hazards": [],
      "severityScore": 5,
      "metarRaw": "METAR LECH 052300Z AUTO VRB02KT CAVOK 01/M06 Q1010",
      "tafRaw": null,
      "metarHtml": "METAR LECH 052300Z AUTO VRB02KT <span class=\"hl-vis\">CAVOK</span> 01/M06 Q1010",
      "tafHtml": null
    },
    {
      "icao": "LFBD",
      "iata": "BOD",
      "name": "Bordeaux–Mérignac Airport",
      "updatedAt": "052330Z",
      "visibility_m": 10000,
      "taf_visibility_m": null,
      "worst_visibility_m": 10000,
      "ceiling_ft": null,
      "hazards": [],
      "severityScore": 5,
      "metarRaw": "METAR LFBD 052330Z AUTO 19009KT CAVOK M01/M05 Q1015 NOSIG",
      "tafRaw": null,
      "metarHtml": "METAR LFBD 052330Z AUTO 19009KT <span class=\"hl-vis\">CAVOK</span> M01/M05 Q1015 NOSIG",
      "tafHtml": null
    },
    {
      "icao": "LRBV",
      "iata": "GHV",
      "name": "Brașov-Ghimbav International Airport",
      "updatedAt": "052300Z",
      "visibility_m": 10000,
      "taf_visibility_m": null,
      "worst_visibility_m": 10000,
      "ceiling_ft": null,
      "hazards": [],
      "severityScore": 5,
      "metarRaw": "METAR LRBV 052300Z AUTO 16005KT 120V200 9999 BKN046/// OVC170/// 01/M00 Q1009",
      "tafRaw": null,
      "metarHtml": "METAR LRBV 052300Z AUTO 16005KT 120V200 9999 BKN046/// OVC170/// 01/M00 Q1009",
      "tafHtml": null
    },
    {
      "icao": "LWSK",
      "iata": "SKP",
      "name": "Skopje International Airport",
      "updatedAt": "052320Z",
      "visibility_m": 10000,
      "taf_visibility_m": null,
      "worst_visibility_m": 10000,
      "ceiling_ft": 9000,
      "hazards": [],
      "severityScore": 5,
      "metarRaw": "METAR LWSK 052320Z 13013KT 9999 SCT060 OVC090 12/07 Q1010 NOSIG",
      "tafRaw": null,
      "metarHtml": "METAR LWSK 052320Z 13013KT 9999 SCT060 OVC090 12/07 Q1010 NOSIG",
      "tafHtml": null
    },
    {
      "icao": "BIKF",
      "iata": "KEF",
      "name": "Keflavik International Airport",
      "updatedAt": "052300Z",
      "visibility_m": 10000,
      "taf_visibility_m": 10000,
      "worst_visibility_m": 10000,
      "ceiling_ft": null,
      "hazards": [],
      "severityScore": 0,
      "metarRaw": "METAR BIKF 052300Z 03006KT CAVOK M02/M04 Q1016",
      "tafRaw": "TAF BIKF 052231Z 0600/0700 07010KT CAVOK TXM02/0600Z TNM06/0610Z \n  BECMG 0618/0620 09015G25KT",
      "metarHtml": "METAR BIKF 052300Z 03006KT <span class=\"hl-vis\">CAVOK</span> M02/M04 Q1016",
      "tafHtml": "TAF BIKF 052231Z 0600/0700 07010KT <span class=\"hl-vis\">CAVOK</span> TXM02/0600Z TNM06/0610Z \n  BECMG 0618/0620 09015G25KT"
    },
    {
      "icao": "GCFV",
      "iata": "FUE",
      "name": "Fuerteventura Airport",
      "updatedAt": "052300Z",
      "visibility_m": 10000,
      "taf_visibility_m": 10000,
      "worst_visibility_m": 10000,
      "ceiling_ft": null,
      "hazards": [],
      "severityScore": 0,
      "metarRaw": "METAR GCFV 052300Z 34012KT 9999 FEW020 16/11 Q1019",
      "tafRaw": "TAF GCFV 052000Z 0521/0621 02014KT 9999 SCT030 TX21/0614Z TN15/0606Z",
      "metarHtml": "METAR GCFV 052300Z 34012KT 9999 FEW020 16/11 Q1019",
      "tafHtml": "TAF GCFV 052000Z 0521/0621 02014KT 9999 SCT030 TX21/0614Z TN15/0606Z"
    },
    {
      "icao": "GCTS",
      "iata": "TFS",
      "name": "Tenerife Sur Airport",
      "updatedAt": "052300Z",
      "visibility_m": 10000,
      "taf_visibility_m": 10000,
      "worst_visibility_m": 10000,
      "ceiling_ft": null,
      "hazards": [],
      "severityScore": 0,
      "metarRaw": "METAR GCTS 052300Z 06014KT 9999 FEW040 SCT050 17/10 Q1020 NOSIG",
      "tafRaw": "TAF GCTS 052000Z 0521/0621 07014KT 9999 SCT030 TX23/0614Z TN16/0606Z \n  PROB40 \n  TEMPO 0611/0620 09020G32KT",
      "metarHtml": "METAR GCTS 052300Z 06014KT 9999 FEW040 SCT050 17/10 Q1020 NOSIG",
      "tafHtml": "TAF GCTS 052000Z 0521/0621 07014KT 9999 SCT030 TX23/0614Z TN16/0606Z \n  PROB40 \n  TEMPO 0611/0620 09020G32KT"
    },
    {
      "icao": "GMAD",
      "iata": "AGA",
      "name": "Al Massira Airport",
      "updatedAt": "052330Z",
      "visibility_m": 10000,
      "taf_visibility_m": 8000,
      "worst_visibility_m": 8000,
      "ceiling_ft": null,
      "hazards": [],
      "severityScore": 0,
      "metarRaw": "METAR GMAD 052330Z 26005KT 230V290 9999 FEW026 14/10 Q1013 NOSIG",
      "tafRaw": "TAF GMAD 052300Z 0600/0706 24006KT 8000 SCT023 SCT080 \n  BECMG 0612/0614 28013KT",
      "metarHtml": "METAR GMAD 052330Z 26005KT 230V290 9999 FEW026 14/10 Q1013 NOSIG",
      "tafHtml": "TAF GMAD 052300Z 0600/0706 24006KT 8000 SCT023 SCT080 \n  BECMG 0612/0614 28013KT"
    },
    {
      "icao": "EGNM",
      "iata": "LBA",
      "name": "Leeds Bradford Airport",
      "updatedAt": "052250Z",
      "visibility_m": 10000,
      "taf_visibility_m": 3000,
      "worst_visibility_m": 3000,
      "ceiling_ft": null,
      "hazards": [],
      "severityScore": 0,
      "metarRaw": "METAR EGNM 052250Z 26010KT CAVOK M04/M06 Q1016",
      "tafRaw": "TAF EGNM 052255Z 0600/0624 27009KT 9999 FEW040 \n  PROB40 \n  TEMPO 0607/0615 BKN008 \n  BECMG 0615/0618 21012KT \n  TEMPO 0615/0621 6000 -RASN BKN008 \n  PROB30 \n  TEMPO 0616/0621 3000 RASN BKN004 \n  BECMG 0621/0624 27006KT",
      "metarHtml": "METAR EGNM 052250Z 26010KT <span class=\"hl-vis\">CAVOK</span> M04/M06 Q1016",
      "tafHtml": "TAF EGNM 052255Z 0600/0624 27009KT 9999 FEW040 \n  PROB40 \n  TEMPO 0607/0615 BKN008 \n  BECMG 0615/0618 21012KT \n  TEMPO 0615/0621 6000 -RASN BKN008 \n  PROB30 \n  TEMPO 0616/0621 3000 RASN BKN004 \n  BECMG 0621/0624 27006KT"
    },
    {
      "icao": "ENAL",
      "iata": "AES",
      "name": "Ålesund Airport, Vigra",
      "updatedAt": "052320Z",
      "visibility_m": 10000,
      "taf_visibility_m": 10000,
      "worst_visibility_m": 10000,
      "ceiling_ft": null,
      "hazards": [],
      "severityScore": 0,
      "metarRaw": "METAR ENAL 052320Z AUTO 13016KT 9999 NCD M05/M10 Q1011",
      "tafRaw": "TAF ENAL 052000Z 0521/0606 14012KT 9999 SCT040",
      "metarHtml": "METAR ENAL 052320Z AUTO 13016KT 9999 NCD M05/M10 Q1011",
      "tafHtml": "TAF ENAL 052000Z 0521/0606 14012KT 9999 SCT040"
    },
    {
      "icao": "ENBR",
      "iata": "BGO",
      "name": "Bergen Airport, Flesland",
      "updatedAt": "052320Z",
      "visibility_m": 10000,
      "taf_visibility_m": 10000,
      "worst_visibility_m": 10000,
      "ceiling_ft": null,
      "hazards": [],
      "severityScore": 0,
      "metarRaw": "METAR ENBR 052320Z 09004KT CAVOK M08/M13 Q1011 RMK WIND 1200FT 14004KT",
      "tafRaw": "TAF ENBR 051700Z 0518/0618 07005KT 9999 SCT050",
      "metarHtml": "METAR ENBR 052320Z 09004KT <span class=\"hl-vis\">CAVOK</span> M08/M13 Q1011 RMK WIND 1200FT 14004KT",
      "tafHtml": "TAF ENBR 051700Z 0518/0618 07005KT 9999 SCT050"
    },
    {
      "icao": "ENTC",
      "iata": "TOS",
      "name": "Tromsø Airport, Langnes",
      "updatedAt": "052320Z",
      "visibility_m": 10000,
      "taf_visibility_m": 10000,
      "worst_visibility_m": 10000,
      "ceiling_ft": null,
      "hazards": [],
      "severityScore": 0,
      "metarRaw": "METAR ENTC 052320Z 23010KT CAVOK M09/M12 Q1014 RMK WIND 2600FT 11010KT",
      "tafRaw": "TAF ENTC 051700Z 0518/0618 23005KT CAVOK",
      "metarHtml": "METAR ENTC 052320Z 23010KT <span class=\"hl-vis\">CAVOK</span> M09/M12 Q1014 RMK WIND 2600FT 11010KT",
      "tafHtml": "TAF ENTC 051700Z 0518/0618 23005KT <span class=\"hl-vis\">CAVOK</span>"
    },
    {
      "icao": "ENVA",
      "iata": "TRD",
      "name": "Trondheim Airport, Værnes",
      "updatedAt": "052320Z",
      "visibility_m": 10000,
      "taf_visibility_m": 10000,
      "worst_visibility_m": 10000,
      "ceiling_ft": null,
      "hazards": [],
      "severityScore": 0,
      "metarRaw": "METAR ENVA 052320Z 12011KT CAVOK M16/M19 Q1015 RMK WIND 670FT 11012KT",
      "tafRaw": "TAF ENVA 051700Z 0518/0618 10007KT CAVOK",
      "metarHtml": "METAR ENVA 052320Z 12011KT <span class=\"hl-vis\">CAVOK</span> M16/M19 Q1015 RMK WIND 670FT 11012KT",
      "tafHtml": "TAF ENVA 051700Z 0518/0618 10007KT <span class=\"hl-vis\">CAVOK</span>"
    },
    {
      "icao": "EPRA",
      "iata": "RDO",
      "name": "Warsaw Radom Airport",
      "updatedAt": "052330Z",
      "visibility_m": 10000,
      "taf_visibility_m": 10000,
      "worst_visibility_m": 10000,
      "ceiling_ft": null,
      "hazards": [],
      "severityScore": 0,
      "metarRaw": "METAR EPRA 052330Z 05004KT CAVOK M05/M08 Q1012",
      "tafRaw": "TAF EPRA 052330Z 0600/0609 VRB03KT CAVOK \n  BECMG 0602/0605 34006KT BKN020 \n  PROB30 0604/0608 BKN012",
      "metarHtml": "METAR EPRA 052330Z 05004KT <span class=\"hl-vis\">CAVOK</span> M05/M08 Q1012",
      "tafHtml": "TAF EPRA 052330Z 0600/0609 VRB03KT <span class=\"hl-vis\">CAVOK</span> \n  BECMG 0602/0605 34006KT BKN020 \n  PROB30 0604/0608 BKN012"
    },
    {
      "icao": "HEGN",
      "iata": "HRG",
      "name": "Hurghada International Airport",
      "updatedAt": "052300Z",
      "visibility_m": 10000,
      "taf_visibility_m": 10000,
      "worst_visibility_m": 10000,
      "ceiling_ft": null,
      "hazards": [],
      "severityScore": 0,
      "metarRaw": "METAR HEGN 052300Z 31005KT CAVOK 16/04 Q1018 NOSIG",
      "tafRaw": "TAF HEGN 052300Z 0600/0706 29011KT CAVOK",
      "metarHtml": "METAR HEGN 052300Z 31005KT <span class=\"hl-vis\">CAVOK</span> 16/04 Q1018 NOSIG",
      "tafHtml": "TAF HEGN 052300Z 0600/0706 29011KT <span class=\"hl-vis\">CAVOK</span>"
    },
    {
      "icao": "HEMA",
      "iata": "RMF",
      "name": "Marsa Alam International Airport",
      "updatedAt": "052300Z",
      "visibility_m": 10000,
      "taf_visibility_m": 4000,
      "worst_visibility_m": 4000,
      "ceiling_ft": null,
      "hazards": [],
      "severityScore": 0,
      "metarRaw": "METAR HEMA 052300Z 28008KT CAVOK 18/14 Q1016 NOSIG",
      "tafRaw": "TAF HEMA 052300Z 0600/0706 29011KT CAVOK \n  TEMPO 0609/0618 4000 SA NSC",
      "metarHtml": "METAR HEMA 052300Z 28008KT <span class=\"hl-vis\">CAVOK</span> 18/14 Q1016 NOSIG",
      "tafHtml": "TAF HEMA 052300Z 0600/0706 29011KT <span class=\"hl-vis\">CAVOK</span> \n  TEMPO 0609/0618 4000 SA NSC"
    },
    {
      "icao": "HESH",
      "iata": "SSH",
      "name": "Sharm El Sheikh International Airport",
      "updatedAt": "052300Z",
      "visibility_m": 10000,
      "taf_visibility_m": 10000,
      "worst_visibility_m": 10000,
      "ceiling_ft": null,
      "hazards": [],
      "severityScore": 0,
      "metarRaw": "METAR HESH 052300Z 34005KT CAVOK 19/14 Q1018 NOSIG",
      "tafRaw": "TAF HESH 052300Z 0600/0706 33010KT CAVOK",
      "metarHtml": "METAR HESH 052300Z 34005KT <span class=\"hl-vis\">CAVOK</span> 19/14 Q1018 NOSIG",
      "tafHtml": "TAF HESH 052300Z 0600/0706 33010KT <span class=\"hl-vis\">CAVOK</span>"
    },
    {
      "icao": "LCLK",
      "iata": "LCA",
      "name": "Larnaca International Airport",
      "updatedAt": "052330Z",
      "visibility_m": 10000,
      "taf_visibility_m": 10000,
      "worst_visibility_m": 10000,
      "ceiling_ft": null,
      "hazards": [],
      "severityScore": 0,
      "metarRaw": "METAR LCLK 052330Z 35007KT CAVOK 11/08 Q1021 NOSIG",
      "tafRaw": "TAF LCLK 052330Z 0600/0700 34008KT CAVOK \n  BECMG 0608/0610 05012KT \n  BECMG 0616/0618 34006KT",
      "metarHtml": "METAR LCLK 052330Z 35007KT <span class=\"hl-vis\">CAVOK</span> 11/08 Q1021 NOSIG",
      "tafHtml": "TAF LCLK 052330Z 0600/0700 34008KT <span class=\"hl-vis\">CAVOK</span> \n  BECMG 0608/0610 05012KT \n  BECMG 0616/0618 34006KT"
    },
    {
      "icao": "LCPH",
      "iata": "PFO",
      "name": "Paphos International Airport",
      "updatedAt": "052330Z",
      "visibility_m": 10000,
      "taf_visibility_m": 10000,
      "worst_visibility_m": 10000,
      "ceiling_ft": null,
      "hazards": [],
      "severityScore": 0,
      "metarRaw": "METAR LCPH 052330Z 02007KT 010V080 CAVOK 11/04 Q1020 NOSIG",
      "tafRaw": "TAF LCPH 052330Z 0600/0700 08008KT 9999 FEW040 \n  BECMG 0608/0610 14012KT \n  BECMG 0616/0618 08008KT",
      "metarHtml": "METAR LCPH 052330Z 02007KT 010V080 <span class=\"hl-vis\">CAVOK</span> 11/04 Q1020 NOSIG",
      "tafHtml": "TAF LCPH 052330Z 0600/0700 08008KT 9999 FEW040 \n  BECMG 0608/0610 14012KT \n  BECMG 0616/0618 08008KT"
    },
    {
      "icao": "LEBL",
      "iata": "BCN",
      "name": "Josep Tarradellas Barcelona-El Prat Airport",
      "updatedAt": "052300Z",
      "visibility_m": 10000,
      "taf_visibility_m": 10000,
      "worst_visibility_m": 10000,
      "ceiling_ft": null,
      "hazards": [],
      "severityScore": 0,
      "metarRaw": "METAR LEBL 052300Z 33013KT 9999 FEW030 04/M01 Q1010 NOSIG",
      "tafRaw": "TAF LEBL 052300Z 0600/0624 34012KT 9999 FEW030 TX11/0613Z TN01/0606Z \n  PROB40 \n  TEMPO 0600/0610 33016G30KT \n  TEMPO 0612/0616 VRB05KT",
      "metarHtml": "METAR LEBL 052300Z 33013KT 9999 FEW030 04/M01 Q1010 NOSIG",
      "tafHtml": "TAF LEBL 052300Z 0600/0624 34012KT 9999 FEW030 TX11/0613Z TN01/0606Z \n  PROB40 \n  TEMPO 0600/0610 33016G30KT \n  TEMPO 0612/0616 VRB05KT"
    },
    {
      "icao": "LEMD",
      "iata": "MAD",
      "name": "Adolfo Suárez Madrid–Barajas Airport",
      "updatedAt": "052300Z",
      "visibility_m": 10000,
      "taf_visibility_m": 10000,
      "worst_visibility_m": 10000,
      "ceiling_ft": null,
      "hazards": [],
      "severityScore": 0,
      "metarRaw": "METAR LEMD 052300Z 01004KT 330V050 CAVOK M00/M08 Q1012 NOSIG",
      "tafRaw": "TAF LEMD 052300Z 0600/0706 VRB05KT 9999 SCT025 TX06/0614Z TNM03/0607Z \n  BECMG 0606/0608 01012KT \n  TEMPO 0608/0617 01015G28KT \n  BECMG 0617/0619 VRB03KT",
      "metarHtml": "METAR LEMD 052300Z 01004KT 330V050 <span class=\"hl-vis\">CAVOK</span> M00/M08 Q1012 NOSIG",
      "tafHtml": "TAF LEMD 052300Z 0600/0706 VRB05KT 9999 SCT025 TX06/0614Z TNM03/0607Z \n  BECMG 0606/0608 01012KT \n  TEMPO 0608/0617 01015G28KT \n  BECMG 0617/0619 VRB03KT"
    },
    {
      "icao": "LEMG",
      "iata": "AGP",
      "name": "Málaga-Costa del Sol Airport",
      "updatedAt": "052300Z",
      "visibility_m": 10000,
      "taf_visibility_m": 10000,
      "worst_visibility_m": 10000,
      "ceiling_ft": 7000,
      "hazards": [],
      "severityScore": 0,
      "metarRaw": "METAR LEMG 052300Z 28014KT 9999 FEW050 BKN070 10/07 Q1009 NOSIG",
      "tafRaw": "TAF LEMG 052300Z 0600/0624 28012KT 9999 FEW020 TX12/0614Z TN04/0606Z \n  TEMPO 0600/0617 30015G25KT",
      "metarHtml": "METAR LEMG 052300Z 28014KT 9999 FEW050 BKN070 10/07 Q1009 NOSIG",
      "tafHtml": "TAF LEMG 052300Z 0600/0624 28012KT 9999 FEW020 TX12/0614Z TN04/0606Z \n  TEMPO 0600/0617 30015G25KT"
    },
    {
      "icao": "LEVC",
      "iata": "VLC",
      "name": "Valencia Airport",
      "updatedAt": "052300Z",
      "visibility_m": 10000,
      "taf_visibility_m": 10000,
      "worst_visibility_m": 10000,
      "ceiling_ft": 6200,
      "hazards": [],
      "severityScore": 0,
      "metarRaw": "METAR LEVC 052300Z 33006KT 300V360 9999 OVC062 06/M04 Q1011 NOSIG",
      "tafRaw": "TAF LEVC 052300Z 0600/0624 30006KT 9999 BKN040 TX12/0614Z TN00/0606Z \n  TEMPO 0612/0616 35010KT",
      "metarHtml": "METAR LEVC 052300Z 33006KT 300V360 9999 OVC062 06/M04 Q1011 NOSIG",
      "tafHtml": "TAF LEVC 052300Z 0600/0624 30006KT 9999 BKN040 TX12/0614Z TN00/0606Z \n  TEMPO 0612/0616 35010KT"
    },
    {
      "icao": "LEZG",
      "iata": "ZAZ",
      "name": "Zaragoza Airport",
      "updatedAt": "052300Z",
      "visibility_m": 10000,
      "taf_visibility_m": 10000,
      "worst_visibility_m": 10000,
      "ceiling_ft": null,
      "hazards": [],
      "severityScore": 0,
      "metarRaw": "METAR LEZG 052300Z 28010KT 260V320 9999 FEW075 01/M05 Q1012 NOSIG",
      "tafRaw": "TAF LEZG 052300Z 0600/0624 31012KT 9999 FEW050 TX07/0615Z TN00/0606Z \n  BECMG 0607/0610 32020KT \n  TEMPO 0609/0620 32023G35KT \n  BECMG 0619/0621 30010KT",
      "metarHtml": "METAR LEZG 052300Z 28010KT 260V320 9999 FEW075 01/M05 Q1012 NOSIG",
      "tafHtml": "TAF LEZG 052300Z 0600/0624 31012KT 9999 FEW050 TX07/0615Z TN00/0606Z \n  BECMG 0607/0610 32020KT \n  TEMPO 0609/0620 32023G35KT \n  BECMG 0619/0621 30010KT"
    },
    {
      "icao": "LEZL",
      "iata": "SVQ",
      "name": "Sevilla Airport",
      "updatedAt": "052300Z",
      "visibility_m": 10000,
      "taf_visibility_m": 10000,
      "worst_visibility_m": 10000,
      "ceiling_ft": null,
      "hazards": [],
      "severityScore": 0,
      "metarRaw": "METAR LEZL 052300Z 01007KT 330V030 CAVOK 08/M01 Q1013 NOSIG",
      "tafRaw": "TAF LEZL 052000Z 0521/0621 30004KT CAVOK TX13/0615Z TN02/0607Z \n  BECMG 0611/0613 36010KT \n  BECMG 0616/0618 30004KT",
      "metarHtml": "METAR LEZL 052300Z 01007KT 330V030 <span class=\"hl-vis\">CAVOK</span> 08/M01 Q1013 NOSIG",
      "tafHtml": "TAF LEZL 052000Z 0521/0621 30004KT <span class=\"hl-vis\">CAVOK</span> TX13/0615Z TN02/0607Z \n  BECMG 0611/0613 36010KT \n  BECMG 0616/0618 30004KT"
    },
    {
      "icao": "LFLS",
      "iata": "GNB",
      "name": "Grenoble Alpes Isère Airport",
      "updatedAt": "052330Z",
      "visibility_m": 10000,
      "taf_visibility_m": 10000,
      "worst_visibility_m": 10000,
      "ceiling_ft": null,
      "hazards": [],
      "severityScore": 0,
      "metarRaw": "METAR LFLS 052330Z AUTO 08003KT 050V110 CAVOK M07/M08 Q1013",
      "tafRaw": "TAF LFLS 051400Z 0515/0615 36008KT CAVOK \n  PROB30 \n  TEMPO 0600/0606 BKN006 \n  BECMG 0612/0614 BKN016",
      "metarHtml": "METAR LFLS 052330Z AUTO 08003KT 050V110 <span class=\"hl-vis\">CAVOK</span> M07/M08 Q1013",
      "tafHtml": "TAF LFLS 051400Z 0515/0615 36008KT <span class=\"hl-vis\">CAVOK</span> \n  PROB30 \n  TEMPO 0600/0606 BKN006 \n  BECMG 0612/0614 BKN016"
    },
    {
      "icao": "LGAV",
      "iata": "ATH",
      "name": "Athens Eleftherios Venizelos International Airport",
      "updatedAt": "052320Z",
      "visibility_m": 10000,
      "taf_visibility_m": 10000,
      "worst_visibility_m": 10000,
      "ceiling_ft": 3500,
      "hazards": [],
      "severityScore": 0,
      "metarRaw": "METAR LGAV 052320Z VRB01KT 9999 FEW018 BKN035 13/11 Q1015 NOSIG",
      "tafRaw": "TAF LGAV 052300Z 0600/0624 22010KT 9999 FEW018 BKN035 \n  BECMG 0603/0605 FEW018 SCT035 \n  TEMPO 0609/0615 20012G22KT",
      "metarHtml": "METAR LGAV 052320Z VRB01KT 9999 FEW018 BKN035 13/11 Q1015 NOSIG",
      "tafHtml": "TAF LGAV 052300Z 0600/0624 22010KT 9999 FEW018 BKN035 \n  BECMG 0603/0605 FEW018 SCT035 \n  TEMPO 0609/0615 20012G22KT"
    },
    {
      "icao": "LICA",
      "iata": "SUF",
      "name": "Lamezia Terme Sant'Eufemia International Airport",
      "updatedAt": "052320Z",
      "visibility_m": 10000,
      "taf_visibility_m": 10000,
      "worst_visibility_m": 10000,
      "ceiling_ft": null,
      "hazards": [],
      "severityScore": 0,
      "metarRaw": "METAR LICA 052320Z AUTO 08006KT 9999 NCD 10/10 Q1005",
      "tafRaw": "TAF LICA 052300Z 0600/0624 VRB05KT 9999 SCT050 \n  BECMG 0605/0607 07010KT \n  BECMG 0620/0622 27013KT",
      "metarHtml": "METAR LICA 052320Z AUTO 08006KT 9999 NCD 10/10 Q1005",
      "tafHtml": "TAF LICA 052300Z 0600/0624 VRB05KT 9999 SCT050 \n  BECMG 0605/0607 07010KT \n  BECMG 0620/0622 27013KT"
    },
    {
      "icao": "LICC",
      "iata": "CTA",
      "name": "Catania-Fontanarossa Airport",
      "updatedAt": "052320Z",
      "visibility_m": 10000,
      "taf_visibility_m": 10000,
      "worst_visibility_m": 10000,
      "ceiling_ft": null,
      "hazards": [],
      "severityScore": 0,
      "metarRaw": "METAR LICC 052320Z 25008KT 200V280 CAVOK 13/09 Q1006",
      "tafRaw": "TAF LICC 052300Z 0600/0624 26013KT 9999 FEW030",
      "metarHtml": "METAR LICC 052320Z 25008KT 200V280 <span class=\"hl-vis\">CAVOK</span> 13/09 Q1006",
      "tafHtml": "TAF LICC 052300Z 0600/0624 26013KT 9999 FEW030"
    },
    {
      "icao": "LICJ",
      "iata": "PMO",
      "name": "Falcone–Borsellino Airport",
      "updatedAt": "052320Z",
      "visibility_m": 10000,
      "taf_visibility_m": 10000,
      "worst_visibility_m": 10000,
      "ceiling_ft": null,
      "hazards": [],
      "severityScore": 0,
      "metarRaw": "METAR LICJ 052320Z 19012KT CAVOK 17/06 Q1003",
      "tafRaw": "TAF LICJ 052300Z 0600/0624 21016KT 9999 FEW030 \n  TEMPO 0609/0615 21020G30KT",
      "metarHtml": "METAR LICJ 052320Z 19012KT <span class=\"hl-vis\">CAVOK</span> 17/06 Q1003",
      "tafHtml": "TAF LICJ 052300Z 0600/0624 21016KT 9999 FEW030 \n  TEMPO 0609/0615 21020G30KT"
    },
    {
      "icao": "LIMC",
      "iata": "MXP",
      "name": "Milan Malpensa International Airport",
      "updatedAt": "052320Z",
      "visibility_m": 10000,
      "taf_visibility_m": 10000,
      "worst_visibility_m": 10000,
      "ceiling_ft": null,
      "hazards": [],
      "severityScore": 0,
      "metarRaw": "METAR LIMC 052320Z 04004KT CAVOK M05/M06 Q1008 NOSIG",
      "tafRaw": "TAF LIMC 052300Z 0600/0706 VRB03KT CAVOK",
      "metarHtml": "METAR LIMC 052320Z 04004KT <span class=\"hl-vis\">CAVOK</span> M05/M06 Q1008 NOSIG",
      "tafHtml": "TAF LIMC 052300Z 0600/0706 VRB03KT <span class=\"hl-vis\">CAVOK</span>"
    },
    {
      "icao": "LIME",
      "iata": "BGY",
      "name": "Milan Bergamo Airport / Antonio Locatelli Air Base",
      "updatedAt": "052320Z",
      "visibility_m": 10000,
      "taf_visibility_m": 10000,
      "worst_visibility_m": 10000,
      "ceiling_ft": null,
      "hazards": [],
      "severityScore": 0,
      "metarRaw": "METAR LIME 052320Z 03004KT CAVOK M02/M05 Q1008 NOSIG",
      "tafRaw": "TAF LIME 052300Z 0600/0624 VRB03KT CAVOK",
      "metarHtml": "METAR LIME 052320Z 03004KT <span class=\"hl-vis\">CAVOK</span> M02/M05 Q1008 NOSIG",
      "tafHtml": "TAF LIME 052300Z 0600/0624 VRB03KT <span class=\"hl-vis\">CAVOK</span>"
    },
    {
      "icao": "LIMF",
      "iata": "TRN",
      "name": "Turin Airport",
      "updatedAt": "052320Z",
      "visibility_m": 10000,
      "taf_visibility_m": 10000,
      "worst_visibility_m": 10000,
      "ceiling_ft": null,
      "hazards": [],
      "severityScore": 0,
      "metarRaw": "METAR LIMF 052320Z VRB01KT CAVOK M03/M09 Q1008",
      "tafRaw": "TAF LIMF 052300Z 0600/0624 VRB03KT CAVOK",
      "metarHtml": "METAR LIMF 052320Z VRB01KT <span class=\"hl-vis\">CAVOK</span> M03/M09 Q1008",
      "tafHtml": "TAF LIMF 052300Z 0600/0624 VRB03KT <span class=\"hl-vis\">CAVOK</span>"
    },
    {
      "icao": "LIMJ",
      "iata": "GOA",
      "name": "Genoa Cristoforo Colombo Airport",
      "updatedAt": "052320Z",
      "visibility_m": 10000,
      "taf_visibility_m": 10000,
      "worst_visibility_m": 10000,
      "ceiling_ft": null,
      "hazards": [],
      "severityScore": 0,
      "metarRaw": "METAR LIMJ 052320Z 04015KT CAVOK 04/M05 Q1006",
      "tafRaw": "TAF LIMJ 052300Z 0600/0624 03017KT CAVOK \n  TEMPO 0606/0612 03018G28KT",
      "metarHtml": "METAR LIMJ 052320Z 04015KT <span class=\"hl-vis\">CAVOK</span> 04/M05 Q1006",
      "tafHtml": "TAF LIMJ 052300Z 0600/0624 03017KT <span class=\"hl-vis\">CAVOK</span> \n  TEMPO 0606/0612 03018G28KT"
    },
    {
      "icao": "LIPH",
      "iata": "TSF",
      "name": "Treviso Antonio Canova Airport",
      "updatedAt": "052320Z",
      "visibility_m": 10000,
      "taf_visibility_m": 10000,
      "worst_visibility_m": 10000,
      "ceiling_ft": null,
      "hazards": [],
      "severityScore": 0,
      "metarRaw": "METAR LIPH 052320Z AUTO 32003KT 9999 FEW073/// BKN120/// 01/M04 Q1009",
      "tafRaw": "TAF LIPH 052300Z 0600/0624 03006KT 9999 SCT070",
      "metarHtml": "METAR LIPH 052320Z AUTO 32003KT 9999 FEW073/// BKN120/// 01/M04 Q1009",
      "tafHtml": "TAF LIPH 052300Z 0600/0624 03006KT 9999 SCT070"
    },
    {
      "icao": "LIPQ",
      "iata": "TRS",
      "name": "Trieste–Friuli Venezia Giulia Airport",
      "updatedAt": "052320Z",
      "visibility_m": 10000,
      "taf_visibility_m": 3000,
      "worst_visibility_m": 3000,
      "ceiling_ft": null,
      "hazards": [],
      "severityScore": 0,
      "metarRaw": "METAR LIPQ 052320Z AUTO 09006KT 060V120 9999 BKN050/// OVC075/// 04/M05 Q1008",
      "tafRaw": "TAF LIPQ 052300Z 0600/0624 08008KT 9999 BKN030 \n  TEMPO 0610/0616 3000 -RASN BKN010",
      "metarHtml": "METAR LIPQ 052320Z AUTO 09006KT 060V120 9999 BKN050/// OVC075/// 04/M05 Q1008",
      "tafHtml": "TAF LIPQ 052300Z 0600/0624 08008KT 9999 BKN030 \n  TEMPO 0610/0616 3000 -RASN BKN010"
    },
    {
      "icao": "LIPX",
      "iata": "VRN",
      "name": "Verona Villafranca Valerio Catullo Airport",
      "updatedAt": "052320Z",
      "visibility_m": 10000,
      "taf_visibility_m": 10000,
      "worst_visibility_m": 10000,
      "ceiling_ft": null,
      "hazards": [],
      "severityScore": 0,
      "metarRaw": "METAR LIPX 052320Z 02002KT CAVOK M01/M09 Q1009",
      "tafRaw": "TAF LIPX 052300Z 0600/0624 VRB04KT CAVOK",
      "metarHtml": "METAR LIPX 052320Z 02002KT <span class=\"hl-vis\">CAVOK</span> M01/M09 Q1009",
      "tafHtml": "TAF LIPX 052300Z 0600/0624 VRB04KT <span class=\"hl-vis\">CAVOK</span>"
    },
    {
      "icao": "LIPZ",
      "iata": "VCE",
      "name": "Venice Marco Polo Airport",
      "updatedAt": "052320Z",
      "visibility_m": 8000,
      "taf_visibility_m": 10000,
      "worst_visibility_m": 8000,
      "ceiling_ft": null,
      "hazards": [],
      "severityScore": 0,
      "metarRaw": "METAR LIPZ 052320Z 35006KT 8000 FEW070 01/M03 Q1009 NOSIG",
      "tafRaw": "TAF LIPZ 052300Z 0600/0706 02008KT 9999 SCT070 \n  BECMG 0609/0611 08014KT \n  BECMG 0615/0617 34006KT",
      "metarHtml": "METAR LIPZ 052320Z 35006KT 8000 FEW070 01/M03 Q1009 NOSIG",
      "tafHtml": "TAF LIPZ 052300Z 0600/0706 02008KT 9999 SCT070 \n  BECMG 0609/0611 08014KT \n  BECMG 0615/0617 34006KT"
    },
    {
      "icao": "LKMT",
      "iata": "OSR",
      "name": "Ostrava Leos Janáček Airport",
      "updatedAt": "052330Z",
      "visibility_m": 10000,
      "taf_visibility_m": 10000,
      "worst_visibility_m": 10000,
      "ceiling_ft": null,
      "hazards": [],
      "severityScore": 0,
      "metarRaw": "METAR LKMT 052330Z 26002KT CAVOK M04/M06 Q1012 NOSIG",
      "tafRaw": "TAF LKMT 052300Z 0600/0624 VRB02KT CAVOK \n  TEMPO 0604/0610 9999 BKN018 \n  BECMG 0612/0614 02005KT",
      "metarHtml": "METAR LKMT 052330Z 26002KT <span class=\"hl-vis\">CAVOK</span> M04/M06 Q1012 NOSIG",
      "tafHtml": "TAF LKMT 052300Z 0600/0624 VRB02KT <span class=\"hl-vis\">CAVOK</span> \n  TEMPO 0604/0610 9999 BKN018 \n  BECMG 0612/0614 02005KT"
    },
    {
      "icao": "LMML",
      "iata": "MLA",
      "name": "Malta International Airport",
      "updatedAt": "052315Z",
      "visibility_m": 8000,
      "taf_visibility_m": 5000,
      "worst_visibility_m": 5000,
      "ceiling_ft": null,
      "hazards": [],
      "severityScore": 0,
      "metarRaw": "METAR LMML 052315Z 20007KT 170V230 8000 NSC 17/15 Q1007 NOSIG",
      "tafRaw": "TAF LMML 052300Z 0600/0624 20014KT 8000 FEW013 \n  PROB40 \n  TEMPO 0600/0618 5000 DU \n  BECMG 0611/0614 26015KT \n  BECMG 0618/0621 VRB05KT \n  PROB40 \n  TEMPO 0618/0624 BKN013",
      "metarHtml": "METAR LMML 052315Z 20007KT 170V230 8000 NSC 17/15 Q1007 NOSIG",
      "tafHtml": "TAF LMML 052300Z 0600/0624 20014KT 8000 FEW013 \n  PROB40 \n  TEMPO 0600/0618 5000 DU \n  BECMG 0611/0614 26015KT \n  BECMG 0618/0621 VRB05KT \n  PROB40 \n  TEMPO 0618/0624 BKN013"
    },
    {
      "icao": "LPFR",
      "iata": "FAO",
      "name": "Faro Airport",
      "updatedAt": "052300Z",
      "visibility_m": 10000,
      "taf_visibility_m": 10000,
      "worst_visibility_m": 10000,
      "ceiling_ft": null,
      "hazards": [],
      "severityScore": 0,
      "metarRaw": "METAR LPFR 052300Z 35006KT CAVOK 08/M02 Q1015",
      "tafRaw": "TAF LPFR 052300Z 0600/0624 36008KT CAVOK \n  BECMG 0610/0612 34013KT \n  BECMG 0618/0620 34008KT",
      "metarHtml": "METAR LPFR 052300Z 35006KT <span class=\"hl-vis\">CAVOK</span> 08/M02 Q1015",
      "tafHtml": "TAF LPFR 052300Z 0600/0624 36008KT <span class=\"hl-vis\">CAVOK</span> \n  BECMG 0610/0612 34013KT \n  BECMG 0618/0620 34008KT"
    },
    {
      "icao": "OEJN",
      "iata": "JED",
      "name": "King Abdulaziz International Airport",
      "updatedAt": "052300Z",
      "visibility_m": 10000,
      "taf_visibility_m": 6000,
      "worst_visibility_m": 6000,
      "ceiling_ft": null,
      "hazards": [],
      "severityScore": 0,
      "metarRaw": "METAR OEJN 052300Z 00000KT CAVOK 25/16 Q1015 NOSIG",
      "tafRaw": "TAF OEJN 052300Z 0600/0706 04005KT 6000 FEW030 \n  BECMG 0610/0611 27008KT 7000 NSC \n  BECMG 0616/0618 01005KT",
      "metarHtml": "METAR OEJN 052300Z 00000KT <span class=\"hl-vis\">CAVOK</span> 25/16 Q1015 NOSIG",
      "tafHtml": "TAF OEJN 052300Z 0600/0706 04005KT 6000 FEW030 \n  BECMG 0610/0611 27008KT 7000 NSC \n  BECMG 0616/0618 01005KT"
    },
    {
      "icao": "OEMA",
      "iata": "MED",
      "name": "Prince Mohammad Bin Abdulaziz Airport",
      "updatedAt": "052300Z",
      "visibility_m": 3000,
      "taf_visibility_m": 3000,
      "worst_visibility_m": 3000,
      "ceiling_ft": null,
      "hazards": [],
      "severityScore": 0,
      "metarRaw": "METAR OEMA 052300Z 04009KT 3000 DU NSC 20/M01 Q1022 NOSIG",
      "tafRaw": "TAF OEMA 052300Z 0600/0706 09010KT 7000 NSC \n  TEMPO 0600/0612 3000 BLDU",
      "metarHtml": "METAR OEMA 052300Z 04009KT 3000 DU NSC 20/M01 Q1022 NOSIG",
      "tafHtml": "TAF OEMA 052300Z 0600/0706 09010KT 7000 NSC \n  TEMPO 0600/0612 3000 BLDU"
    },
    {
      "icao": "OJAI",
      "iata": "AMM",
      "name": "Queen Alia International Airport",
      "updatedAt": "052300Z",
      "visibility_m": 5000,
      "taf_visibility_m": 4000,
      "worst_visibility_m": 4000,
      "ceiling_ft": null,
      "hazards": [],
      "severityScore": 0,
      "metarRaw": "METAR OJAI 052300Z 05005KT 5000 HZ NSC 07/01 Q1023 NOSIG",
      "tafRaw": "TAF OJAI 052250Z 0600/0706 VRB02KT 5000 HZ NSC \n  PROB30 0602/0605 4000 \n  BECMG 0605/0607 12012KT \n  PROB30 0612/0616 4000 DU",
      "metarHtml": "METAR OJAI 052300Z 05005KT 5000 HZ NSC 07/01 Q1023 NOSIG",
      "tafHtml": "TAF OJAI 052250Z 0600/0706 VRB02KT 5000 HZ NSC \n  PROB30 0602/0605 4000 \n  BECMG 0605/0607 12012KT \n  PROB30 0612/0616 4000 DU"
    },
    {
      "icao": "OMAA",
      "iata": "AUH",
      "name": "Zayed International Airport",
      "updatedAt": "052300Z",
      "visibility_m": 10000,
      "taf_visibility_m": 4000,
      "worst_visibility_m": 4000,
      "ceiling_ft": null,
      "hazards": [],
      "severityScore": 0,
      "metarRaw": "METAR OMAA 052300Z VRB04KT CAVOK 20/14 Q1019 NOSIG",
      "tafRaw": "TAF OMAA 052300Z 0600/0706 05005KT 8000 FEW025 \n  BECMG 0608/0610 33012KT \n  BECMG 0617/0619 VRB02KT \n  PROB30 0700/0705 4000 HZ",
      "metarHtml": "METAR OMAA 052300Z VRB04KT <span class=\"hl-vis\">CAVOK</span> 20/14 Q1019 NOSIG",
      "tafHtml": "TAF OMAA 052300Z 0600/0706 05005KT 8000 FEW025 \n  BECMG 0608/0610 33012KT \n  BECMG 0617/0619 VRB02KT \n  PROB30 0700/0705 4000 HZ"
    },
    {
      "icao": "OMDB",
      "iata": "DXB",
      "name": "Dubai International Airport",
      "updatedAt": "052300Z",
      "visibility_m": 10000,
      "taf_visibility_m": 8000,
      "worst_visibility_m": 8000,
      "ceiling_ft": null,
      "hazards": [],
      "severityScore": 0,
      "metarRaw": "METAR OMDB 052300Z 06003KT 020V100 CAVOK 19/11 Q1019 NOSIG",
      "tafRaw": "TAF OMDB 052300Z 0600/0706 08007KT 8000 NSC \n  BECMG 0609/0611 35010KT \n  BECMG 0615/0617 06005KT",
      "metarHtml": "METAR OMDB 052300Z 06003KT 020V100 <span class=\"hl-vis\">CAVOK</span> 19/11 Q1019 NOSIG",
      "tafHtml": "TAF OMDB 052300Z 0600/0706 08007KT 8000 NSC \n  BECMG 0609/0611 35010KT \n  BECMG 0615/0617 06005KT"
    },
    {
      "icao": "UGKO",
      "iata": "KUT",
      "name": "David the Builder Kutaisi International Airport",
      "updatedAt": "052300Z",
      "visibility_m": 10000,
      "taf_visibility_m": 10000,
      "worst_visibility_m": 10000,
      "ceiling_ft": null,
      "hazards": [],
      "severityScore": 0,
      "metarRaw": "METAR UGKO 052300Z 09004KT CAVOK 03/M00 Q1021 NOSIG",
      "tafRaw": "TAF UGKO 052300Z 0600/0624 08007KT CAVOK TX16/0611Z TN03/0600Z \n  TEMPO 0602/0612 08017KT \n  TEMPO 0609/0616 BKN080",
      "metarHtml": "METAR UGKO 052300Z 09004KT <span class=\"hl-vis\">CAVOK</span> 03/M00 Q1021 NOSIG",
      "tafHtml": "TAF UGKO 052300Z 0600/0624 08007KT <span class=\"hl-vis\">CAVOK</span> TX16/0611Z TN03/0600Z \n  TEMPO 0602/0612 08017KT \n  TEMPO 0609/0616 BKN080"
    }
  ],
  "stats": {
    "icaoCount": 159,
    "metarReturned": 157,
    "tafReturned": 151,
    "stationsWritten": 159,
    "missingMetar": 2,
    "missingTaf": 8
  },
  "errors": []
}