{
  "generatedAt": "2026-01-09T07:40:43.253Z",
  "stations": [
    {
      "icao": "EBCI",
      "iata": "CRL",
      "name": "Brussels South Charleroi Airport",
      "updatedAt": "090720Z",
      "visibility_m": 4000,
      "taf_visibility_m": 400,
      "worst_visibility_m": 400,
      "ceiling_ft": 1000,
      "hazards": [
        "FZFG",
        "SN",
        "RA"
      ],
      "severityScore": 100,
      "metarRaw": "METAR EBCI 090720Z 21025G36KT 6000 -RADZ FEW012 BKN013 04/01 Q0980 WS R24 TEMPO20020G45KT 4000 MODRADZ BKN010",
      "tafRaw": "TAF EBCI 090500Z 0906/1012 21020G35KT 6000 -RA SCT003 BKN005 \n  PROB40 \n  TEMPO 0906/0909 21028G45KT \n  PROB40 \n  TEMPO 0909/0912 25028G45KT \n  PROB40 0906/0919 2000 -RA RADZ BKN003 \n  BECMG 0916/0919 26018G32KT \n  PROB40 \n  TEMPO 0907/0919 1400 RASN SNRA BKN002 \n  PROB30 \n  TEMPO 0913/0917 SN \n  PROB40 \n  TEMPO 0919/0922 0800 SNRA BKN002 \n  BECMG 0922/0924 32012KT 1200 -SN BKN002 \n  PROB40 1001/1012 0400 FZFG SN BKN001",
      "metarHtml": "METAR EBCI 090720Z 21025G36KT 6000 -RADZ FEW012 BKN013 04/01 Q0980 WS R24 TEMPO20020G45KT 4000 MODRADZ BKN010",
      "tafHtml": "TAF EBCI 090500Z 0906/1012 21020G35KT 6000 -<span class=\"hl\">RA</span> SCT003 BKN005 \n  PROB40 \n  TEMPO 0906/0909 21028G45KT \n  PROB40 \n  TEMPO 0909/0912 25028G45KT \n  PROB40 0906/0919 2000 -<span class=\"hl\">RA</span> RADZ BKN003 \n  BECMG 0916/0919 26018G32KT \n  PROB40 \n  TEMPO 0907/0919 1400 RASN SNRA BKN002 \n  PROB30 \n  TEMPO 0913/0917 <span class=\"hl\">SN</span> \n  PROB40 \n  TEMPO 0919/0922 <span class=\"hl-vis\">0800</span> SNRA BKN002 \n  BECMG 0922/0924 32012KT 1200 -<span class=\"hl\">SN</span> BKN002 \n  PROB40 1001/1012 <span class=\"hl-vis\">0400</span> <span class=\"hl\">FZFG</span> <span class=\"hl\">SN</span> BKN001"
    },
    {
      "icao": "EPKT",
      "iata": "KTW",
      "name": "Katowice Wojciech Korfanty International Airport",
      "updatedAt": "090730Z",
      "visibility_m": 250,
      "taf_visibility_m": null,
      "worst_visibility_m": 250,
      "ceiling_ft": 0,
      "hazards": [
        "FZFG"
      ],
      "severityScore": 100,
      "metarRaw": "METAR EPKT 090730Z 35002KT 0250 R26/P2000U FZFG BKN000 M13/M15 Q1005",
      "tafRaw": null,
      "metarHtml": "METAR EPKT 090730Z 35002KT <span class=\"hl-vis\">0250</span> R26/P2000U <span class=\"hl\">FZFG</span> BKN000 M13/M15 Q1005",
      "tafHtml": null
    },
    {
      "icao": "LQBK",
      "iata": "BNX",
      "name": "Banja Luka International Airport",
      "updatedAt": "090730Z",
      "visibility_m": 9000,
      "taf_visibility_m": 500,
      "worst_visibility_m": 500,
      "ceiling_ft": null,
      "hazards": [
        "FZFG",
        "FZRA"
      ],
      "severityScore": 100,
      "metarRaw": "METAR LQBK 090730Z VRB02KT 9000 NSC M08/M09 Q1007 NOSIG",
      "tafRaw": "TAF LQBK 090500Z 0906/1006 15005KT 9999 SCT040 TX01/0913Z TNM10/0906Z \n  PROB40 0913/0924 5000 FZRA BKN014 BKN030 \n  PROB40 \n  TEMPO 1000/1006 0500 FZFG BKN003 OVC012",
      "metarHtml": "METAR LQBK 090730Z VRB02KT 9000 NSC M08/M09 Q1007 NOSIG",
      "tafHtml": "TAF LQBK 090500Z 0906/1006 15005KT 9999 SCT040 TX01/0913Z TNM10/0906Z \n  PROB40 0913/0924 5000 <span class=\"hl\">FZRA</span> BKN014 BKN030 \n  PROB40 \n  TEMPO 1000/1006 <span class=\"hl-vis\">0500</span> <span class=\"hl\">FZFG</span> BKN003 OVC012"
    },
    {
      "icao": "LQTZ",
      "iata": "TZL",
      "name": "Tuzla International Airport",
      "updatedAt": "090730Z",
      "visibility_m": 2000,
      "taf_visibility_m": 400,
      "worst_visibility_m": 400,
      "ceiling_ft": 4500,
      "hazards": [
        "BR",
        "FZFG",
        "SN",
        "RA"
      ],
      "severityScore": 100,
      "metarRaw": "METAR LQTZ 090730Z VRB02KT 2000 BR BKN045 M10/M11 Q1008",
      "tafRaw": "TAF LQTZ 090500Z 0906/1006 10005KT 7000 SCT060 TX03/0913Z TNM13/0906Z \n  TEMPO 0906/0907 3000 BR \n  PROB30 \n  TEMPO 0910/0915 23010KT \n  TEMPO 0916/0924 3000 -RA BR \n  PROB40 1000/1006 0400 SN FZFG BKN002 OVC010",
      "metarHtml": "METAR LQTZ 090730Z VRB02KT 2000 <span class=\"hl\">BR</span> BKN045 M10/M11 Q1008",
      "tafHtml": "TAF LQTZ 090500Z 0906/1006 10005KT 7000 SCT060 TX03/0913Z TNM13/0906Z \n  TEMPO 0906/0907 3000 <span class=\"hl\">BR</span> \n  PROB30 \n  TEMPO 0910/0915 23010KT \n  TEMPO 0916/0924 3000 -<span class=\"hl\">RA</span> <span class=\"hl\">BR</span> \n  PROB40 1000/1006 <span class=\"hl-vis\">0400</span> <span class=\"hl\">SN</span> <span class=\"hl\">FZFG</span> BKN002 OVC010"
    },
    {
      "icao": "UDSG",
      "iata": "LWN",
      "name": "Shirak International Airport",
      "updatedAt": "090730Z",
      "visibility_m": 7000,
      "taf_visibility_m": 200,
      "worst_visibility_m": 200,
      "ceiling_ft": 3600,
      "hazards": [
        "FZFG",
        "BR",
        "SN"
      ],
      "severityScore": 100,
      "metarRaw": "METAR UDSG 090730Z 26002KT 7000 OVC036 M01/M05 Q1009 NOSIG",
      "tafRaw": "TAF UDSG 090500Z 0906/1006 VRB06KT 1200 BR OVC020 \n  TEMPO 0906/0918 35016KT 0200 SN FZFG VV002",
      "metarHtml": "METAR UDSG 090730Z 26002KT 7000 OVC036 M01/M05 Q1009 NOSIG",
      "tafHtml": "TAF UDSG 090500Z 0906/1006 VRB06KT 1200 <span class=\"hl\">BR</span> OVC020 \n  TEMPO 0906/0918 35016KT <span class=\"hl-vis\">0200</span> <span class=\"hl\">SN</span> <span class=\"hl\">FZFG</span> VV002"
    },
    {
      "icao": "EYVI",
      "iata": "VNO",
      "name": "Vilnius International Airport",
      "updatedAt": "090720Z",
      "visibility_m": 1000,
      "taf_visibility_m": 500,
      "worst_visibility_m": 500,
      "ceiling_ft": 1400,
      "hazards": [
        "SN",
        "BLSN",
        "BR"
      ],
      "severityScore": 97,
      "metarRaw": "METAR EYVI 090720Z 01017KT 1000 R01/1400N SN BLSN OVC014 M11/M14 Q1000 NOSIG",
      "tafRaw": "TAF EYVI 090500Z 0906/1006 02015KT 1500 SN BLSN SCT010 OVC015 \n  TEMPO 0906/0912 01018G28KT 0500 +SN BKN005 OVC010 \n  TEMPO 0912/0916 3000 BKN010 \n  BECMG 0916/0919 01005KT 5000 -SN BR BKN010 OVC015 \n  TEMPO 0919/1006 3000 SN BKN005",
      "metarHtml": "METAR EYVI 090720Z 01017KT 1000 R01/1400N <span class=\"hl\">SN</span> <span class=\"hl\">BLSN</span> OVC014 M11/M14 Q1000 NOSIG",
      "tafHtml": "TAF EYVI 090500Z 0906/1006 02015KT 1500 <span class=\"hl\">SN</span> <span class=\"hl\">BLSN</span> SCT010 OVC015 \n  TEMPO 0906/0912 01018G28KT <span class=\"hl-vis\">0500</span> +<span class=\"hl\">SN</span> BKN005 OVC010 \n  TEMPO 0912/0916 3000 BKN010 \n  BECMG 0916/0919 01005KT 5000 -<span class=\"hl\">SN</span> <span class=\"hl\">BR</span> BKN010 OVC015 \n  TEMPO 0919/1006 3000 <span class=\"hl\">SN</span> BKN005"
    },
    {
      "icao": "UAAA",
      "iata": "ALA",
      "name": "Almaty International Airport",
      "updatedAt": "090730Z",
      "visibility_m": 3500,
      "taf_visibility_m": 300,
      "worst_visibility_m": 300,
      "ceiling_ft": 1100,
      "hazards": [
        "BR",
        "FZFG"
      ],
      "severityScore": 97,
      "metarRaw": "METAR UAAA 090730Z 02002MPS 320V070 3500 BR BKN011 M04/M07 Q1023 NOSIG",
      "tafRaw": "TAF UAAA 090505Z 0906/1006 06003G08MPS 4000 BR FU BKN011 OVC020 TXM02/0909Z TNM07/1001Z \n  TEMPO 0906/0912 2200 OVC008 \n  BECMG 0912/0913 20003MPS 1200 \n  TEMPO 0916/1003 VRB01MPS 0300 FZFG VV002 \n  FM100400 34003MPS 3100 BR FU SCT011 BKN020",
      "metarHtml": "METAR UAAA 090730Z 02002MPS 320V070 3500 <span class=\"hl\">BR</span> BKN011 M04/M07 Q1023 NOSIG",
      "tafHtml": "TAF UAAA 090505Z 0906/1006 06003G08MPS 4000 <span class=\"hl\">BR</span> FU BKN011 OVC020 TXM02/0909Z TNM07/1001Z \n  TEMPO 0906/0912 2200 OVC008 \n  BECMG 0912/0913 20003MPS 1200 \n  TEMPO 0916/1003 VRB01MPS <span class=\"hl-vis\">0300</span> <span class=\"hl\">FZFG</span> VV002 \n  FM100400 34003MPS 3100 <span class=\"hl\">BR</span> FU SCT011 BKN020"
    },
    {
      "icao": "LEMD",
      "iata": "MAD",
      "name": "Adolfo Suárez Madrid–Barajas Airport",
      "updatedAt": "090730Z",
      "visibility_m": 10000,
      "taf_visibility_m": 200,
      "worst_visibility_m": 200,
      "ceiling_ft": null,
      "hazards": [
        "FG",
        "BR",
        "DZ"
      ],
      "severityScore": 95,
      "metarRaw": "METAR LEMD 090730Z 23008KT 210V310 9999 FEW012 SCT050 07/06 Q1022 NOSIG",
      "tafRaw": "TAF LEMD 090500Z 0906/1012 23010KT 9999 SCT030 TX11/0912Z TN01/1006Z \n  TEMPO 0906/0908 3000 DZ BR BKN005 \n  PROB30 \n  TEMPO 0906/0907 0200 FG VV001 \n  TEMPO 0906/0907 23015G25KT \n  TEMPO 0907/0911 VRB05KT \n  TEMPO 0909/0917 27020G30KT \n  BECMG 0922/0924 VRB05KT",
      "metarHtml": "METAR LEMD 090730Z 23008KT 210V310 9999 FEW012 SCT050 07/06 Q1022 NOSIG",
      "tafHtml": "TAF LEMD 090500Z 0906/1012 23010KT 9999 SCT030 TX11/0912Z TN01/1006Z \n  TEMPO 0906/0908 3000 <span class=\"hl\">DZ</span> <span class=\"hl\">BR</span> BKN005 \n  PROB30 \n  TEMPO 0906/0907 <span class=\"hl-vis\">0200</span> <span class=\"hl\">FG</span> VV001 \n  TEMPO 0906/0907 23015G25KT \n  TEMPO 0907/0911 VRB05KT \n  TEMPO 0909/0917 27020G30KT \n  BECMG 0922/0924 VRB05KT"
    },
    {
      "icao": "LOWW",
      "iata": "VIE",
      "name": "Vienna International Airport",
      "updatedAt": "090720Z",
      "visibility_m": 1200,
      "taf_visibility_m": 800,
      "worst_visibility_m": 800,
      "ceiling_ft": 1200,
      "hazards": [
        "SN",
        "FZFG",
        "BR"
      ],
      "severityScore": 95,
      "metarRaw": "METAR LOWW 090720Z 13011KT 9000 FEW015 M06/M08 Q1004 TEMPO 1200 SN BKN012",
      "tafRaw": "TAF LOWW 090515Z 0906/1012 12008KT 9999 BKN020 TXM00/1012Z TNM06/0909Z \n  BECMG 0906/0908 -SN \n  TEMPO 0908/0911 0800 SN VV003 \n  FM091100 13008KT 6000 BKN007 \n  TEMPO 0911/0918 SCT012 \n  TEMPO 0918/1008 2000 BR BKN003 \n  PROB30 \n  TEMPO 1000/1007 15003KT 0800 FZFG \n  FM101100 29010KT 9999 FEW030",
      "metarHtml": "METAR LOWW 090720Z 13011KT 9000 FEW015 M06/M08 Q1004 TEMPO 1200 <span class=\"hl\">SN</span> BKN012",
      "tafHtml": "TAF LOWW 090515Z 0906/1012 12008KT 9999 BKN020 TXM00/1012Z TNM06/0909Z \n  BECMG 0906/0908 -<span class=\"hl\">SN</span> \n  TEMPO 0908/0911 <span class=\"hl-vis\">0800</span> <span class=\"hl\">SN</span> VV003 \n  FM091100 13008KT 6000 BKN007 \n  TEMPO 0911/0918 SCT012 \n  TEMPO 0918/1008 2000 <span class=\"hl\">BR</span> BKN003 \n  PROB30 \n  TEMPO 1000/1007 15003KT <span class=\"hl-vis\">0800</span> <span class=\"hl\">FZFG</span> \n  FM101100 29010KT 9999 FEW030"
    },
    {
      "icao": "LZTT",
      "iata": "TAT",
      "name": "Poprad-Tatry Airport",
      "updatedAt": "090730Z",
      "visibility_m": 10000,
      "taf_visibility_m": 500,
      "worst_visibility_m": 500,
      "ceiling_ft": null,
      "hazards": [
        "FZFG",
        "BR",
        "SN"
      ],
      "severityScore": 93,
      "metarRaw": "METAR LZTT 090730Z 29008KT CAVOK M12/M15 Q1002 NOSIG",
      "tafRaw": "TAF LZTT 090515Z 0906/1006 VRB02KT 9999 FEW015 \n  PROB30 \n  TEMPO 0906/0908 0500 FZFG BKN002 \n  BECMG 0913/0915 BKN028 \n  TEMPO 0916/1006 2000 BR BKN012 \n  TEMPO 1000/1006 -SN",
      "metarHtml": "METAR LZTT 090730Z 29008KT <span class=\"hl-vis\">CAVOK</span> M12/M15 Q1002 NOSIG",
      "tafHtml": "TAF LZTT 090515Z 0906/1006 VRB02KT 9999 FEW015 \n  PROB30 \n  TEMPO 0906/0908 <span class=\"hl-vis\">0500</span> <span class=\"hl\">FZFG</span> BKN002 \n  BECMG 0913/0915 BKN028 \n  TEMPO 0916/1006 2000 <span class=\"hl\">BR</span> BKN012 \n  TEMPO 1000/1006 -<span class=\"hl\">SN</span>"
    },
    {
      "icao": "EDDH",
      "iata": "HAM",
      "name": "Hamburg Helmut Schmidt Airport",
      "updatedAt": "090720Z",
      "visibility_m": 2500,
      "taf_visibility_m": 800,
      "worst_visibility_m": 800,
      "ceiling_ft": 800,
      "hazards": [
        "SN",
        "BLSN"
      ],
      "severityScore": 90,
      "metarRaw": "METAR EDDH 090720Z AUTO 10018KT 9999 -SN FEW017 BKN041 BKN049 M02/M05 Q0997 TEMPO 11020G30KT 2500 -SN DRSN BKN008",
      "tafRaw": "TAF EDDH 090500Z 0906/1012 09015G25KT 9999 BKN015 \n  TEMPO 0906/0921 08020G35KT 0800 BLSN \n  PROB40 \n  TEMPO 0906/0918 3500 -SN DRSN BKN007 \n  PROB30 \n  TEMPO 0907/0913 2000 SN BKN004 \n  PROB30 \n  TEMPO 0921/1005 4500 DRSN \n  BECMG 1005/1008 07011KT \n  BECMG 1009/1012 06006KT",
      "metarHtml": "METAR EDDH 090720Z AUTO 10018KT 9999 -<span class=\"hl\">SN</span> FEW017 BKN041 BKN049 M02/M05 Q0997 TEMPO 11020G30KT 2500 -<span class=\"hl\">SN</span> DRSN BKN008",
      "tafHtml": "TAF EDDH 090500Z 0906/1012 09015G25KT 9999 BKN015 \n  TEMPO 0906/0921 08020G35KT <span class=\"hl-vis\">0800</span> <span class=\"hl\">BLSN</span> \n  PROB40 \n  TEMPO 0906/0918 3500 -<span class=\"hl\">SN</span> DRSN BKN007 \n  PROB30 \n  TEMPO 0907/0913 2000 <span class=\"hl\">SN</span> BKN004 \n  PROB30 \n  TEMPO 0921/1005 4500 DRSN \n  BECMG 1005/1008 07011KT \n  BECMG 1009/1012 06006KT"
    },
    {
      "icao": "UDYZ",
      "iata": "EVN",
      "name": "Zvartnots International Airport",
      "updatedAt": "090730Z",
      "visibility_m": 1800,
      "taf_visibility_m": 800,
      "worst_visibility_m": 800,
      "ceiling_ft": null,
      "hazards": [
        "BR",
        "FZFG",
        "SN"
      ],
      "severityScore": 83,
      "metarRaw": "METAR UDYZ 090730Z VRB01KT 1800 R08/1800N BR SCT046 M01/M05 Q1011 NOSIG",
      "tafRaw": "TAF UDYZ 090500Z 0906/1006 23006KT 2300 BR BKN030 \n  TEMPO 0906/0909 0800 FZFG OVC004 \n  TEMPO 0909/0918 1000 SN BR OVC010",
      "metarHtml": "METAR UDYZ 090730Z VRB01KT 1800 R08/1800N <span class=\"hl\">BR</span> SCT046 M01/M05 Q1011 NOSIG",
      "tafHtml": "TAF UDYZ 090500Z 0906/1006 23006KT 2300 <span class=\"hl\">BR</span> BKN030 \n  TEMPO 0906/0909 <span class=\"hl-vis\">0800</span> <span class=\"hl\">FZFG</span> OVC004 \n  TEMPO 0909/0918 1000 <span class=\"hl\">SN</span> <span class=\"hl\">BR</span> OVC010"
    },
    {
      "icao": "EGGW",
      "iata": "LTN",
      "name": "London Luton Airport",
      "updatedAt": "090720Z",
      "visibility_m": 3800,
      "taf_visibility_m": 600,
      "worst_visibility_m": 600,
      "ceiling_ft": 500,
      "hazards": [
        "RA",
        "SN"
      ],
      "severityScore": 80,
      "metarRaw": "METAR EGGW 090720Z AUTO 33023G33KT 3800 -RA OVC005 01/01 Q0987",
      "tafRaw": "TAF EGGW 090458Z 0906/1006 31020G30KT 9999 BKN005 \n  TEMPO 0906/0912 3000 RA RASN BKN003 \n  PROB30 \n  TEMPO 0906/0911 0600 SN \n  PROB40 \n  TEMPO 0912/0918 4000 RADZ -RASN BKN004 \n  BECMG 0918/0921 34017G27KT \n  PROB30 \n  TEMPO 0918/0924 6000 -RADZ \n  BECMG 0921/0924 SCT020 \n  BECMG 1001/1004 32010KT",
      "metarHtml": "METAR EGGW 090720Z AUTO 33023G33KT 3800 -<span class=\"hl\">RA</span> OVC005 01/01 Q0987",
      "tafHtml": "TAF EGGW 090458Z 0906/1006 31020G30KT 9999 BKN005 \n  TEMPO 0906/0912 3000 <span class=\"hl\">RA</span> RASN BKN003 \n  PROB30 \n  TEMPO 0906/0911 <span class=\"hl-vis\">0600</span> <span class=\"hl\">SN</span> \n  PROB40 \n  TEMPO 0912/0918 4000 RADZ -RASN BKN004 \n  BECMG 0918/0921 34017G27KT \n  PROB30 \n  TEMPO 0918/0924 6000 -RADZ \n  BECMG 0921/0924 SCT020 \n  BECMG 1001/1004 32010KT"
    },
    {
      "icao": "EYKA",
      "iata": "KUN",
      "name": "Kaunas International Airport",
      "updatedAt": "090720Z",
      "visibility_m": 1200,
      "taf_visibility_m": 800,
      "worst_visibility_m": 800,
      "ceiling_ft": 1800,
      "hazards": [
        "SN",
        "BLSN"
      ],
      "severityScore": 77,
      "metarRaw": "METAR EYKA 090720Z 36014KT 330V040 1200 R08/1900D +SN OVC018 M11/M13 Q1004",
      "tafRaw": "TAF EYKA 090505Z 0906/1006 01015G28KT 3000 SN BKN015 OVC030 \n  TEMPO 0906/0915 0800 +SN BLSN BKN010 \n  BECMG 0915/0917 02010KT \n  TEMPO 0917/0921 02015G25KT 1500 BLSN BKN010 \n  BECMG 0921/0923 5000 \n  TEMPO 0923/1006 VRB04KT 3000",
      "metarHtml": "METAR EYKA 090720Z 36014KT 330V040 1200 R08/1900D +<span class=\"hl\">SN</span> OVC018 M11/M13 Q1004",
      "tafHtml": "TAF EYKA 090505Z 0906/1006 01015G28KT 3000 <span class=\"hl\">SN</span> BKN015 OVC030 \n  TEMPO 0906/0915 <span class=\"hl-vis\">0800</span> +<span class=\"hl\">SN</span> <span class=\"hl\">BLSN</span> BKN010 \n  BECMG 0915/0917 02010KT \n  TEMPO 0917/0921 02015G25KT 1500 <span class=\"hl\">BLSN</span> BKN010 \n  BECMG 0921/0923 5000 \n  TEMPO 0923/1006 VRB04KT 3000"
    },
    {
      "icao": "EHEH",
      "iata": "EIN",
      "name": "Eindhoven Airport",
      "updatedAt": "090725Z",
      "visibility_m": 4000,
      "taf_visibility_m": 500,
      "worst_visibility_m": 500,
      "ceiling_ft": 2000,
      "hazards": [
        "RA",
        "DZ",
        "SN"
      ],
      "severityScore": 75,
      "metarRaw": "METAR EHEH 090725Z AUTO 16013KT 130V200 9999 DZ SCT019 SCT025 BKN033 06/03 Q0980 BLU TEMPO 17012G25KT 4000 -RA SCT015 BKN020 RMK TREND REMOTE BY EHWX",
      "tafRaw": "TAF EHEH 090549Z 0906/1012 16010KT 9999 SCT018 BKN030 \n  TEMPO 0906/0909 17012G25KT 4000 -RA SCT015 BKN020 \n  BECMG 0909/0911 3500 RA FEW005 SCT012 BKN015 \n  TEMPO 0911/0916 2500 RASN FEW002 SCT004 BKN005 \n  BECMG 0913/0915 30010KT 2000 SNRA FEW002 SCT004 BKN005 \n  TEMPO 0916/1012 0500 SN SCT001 BKN003 \n  BECMG 0919/0921 34010KT 1500 -SN FEW001 SCT003 BKN005 \n  BECMG 1010/1012 01008KT 7000 NSW SCT025",
      "metarHtml": "METAR EHEH 090725Z AUTO 16013KT 130V200 9999 <span class=\"hl\">DZ</span> SCT019 SCT025 BKN033 06/03 Q0980 BLU TEMPO 17012G25KT 4000 -<span class=\"hl\">RA</span> SCT015 BKN020 RMK TREND REMOTE BY EHWX",
      "tafHtml": "TAF EHEH 090549Z 0906/1012 16010KT 9999 SCT018 BKN030 \n  TEMPO 0906/0909 17012G25KT 4000 -<span class=\"hl\">RA</span> SCT015 BKN020 \n  BECMG 0909/0911 3500 <span class=\"hl\">RA</span> FEW005 SCT012 BKN015 \n  TEMPO 0911/0916 2500 RASN FEW002 SCT004 BKN005 \n  BECMG 0913/0915 30010KT 2000 SNRA FEW002 SCT004 BKN005 \n  TEMPO 0916/1012 <span class=\"hl-vis\">0500</span> <span class=\"hl\">SN</span> SCT001 BKN003 \n  BECMG 0919/0921 34010KT 1500 -<span class=\"hl\">SN</span> FEW001 SCT003 BKN005 \n  BECMG 1010/1012 01008KT 7000 NSW SCT025"
    },
    {
      "icao": "LKPR",
      "iata": "PRG",
      "name": "Václav Havel Airport Prague",
      "updatedAt": "090730Z",
      "visibility_m": 900,
      "taf_visibility_m": 1200,
      "worst_visibility_m": 900,
      "ceiling_ft": 300,
      "hazards": [
        "SN",
        "BR"
      ],
      "severityScore": 73,
      "metarRaw": "METAR LKPR 090730Z 11008KT 0900 R06/1000D R30/1300D SN BKN003 OVC008 M04/M05 Q0999 NOSIG",
      "tafRaw": "TAF LKPR 090500Z 0906/1012 09007KT 6000 -SN SCT010 OVC015 \n  TEMPO 0906/0910 3000 SN BR SCT004 OVC007 \n  PROB40 \n  TEMPO 0906/0909 1200 +SN BR BKN002 \n  TEMPO 0910/1012 4000 BR OVC006 \n  PROB30 \n  TEMPO 0916/1008 1500 SN BR BKN004",
      "metarHtml": "METAR LKPR 090730Z 11008KT 0900 R06/1000D R30/1300D <span class=\"hl\">SN</span> BKN003 OVC008 M04/M05 Q0999 NOSIG",
      "tafHtml": "TAF LKPR 090500Z 0906/1012 09007KT 6000 -<span class=\"hl\">SN</span> SCT010 OVC015 \n  TEMPO 0906/0910 3000 <span class=\"hl\">SN</span> <span class=\"hl\">BR</span> SCT004 OVC007 \n  PROB40 \n  TEMPO 0906/0909 1200 +<span class=\"hl\">SN</span> <span class=\"hl\">BR</span> BKN002 \n  TEMPO 0910/1012 4000 <span class=\"hl\">BR</span> OVC006 \n  PROB30 \n  TEMPO 0916/1008 1500 <span class=\"hl\">SN</span> <span class=\"hl\">BR</span> BKN004"
    },
    {
      "icao": "LKMT",
      "iata": "OSR",
      "name": "Ostrava Leos Janáček Airport",
      "updatedAt": "090730Z",
      "visibility_m": 10000,
      "taf_visibility_m": 900,
      "worst_visibility_m": 900,
      "ceiling_ft": null,
      "hazards": [
        "FZFG",
        "BR",
        "SN"
      ],
      "severityScore": 68,
      "metarRaw": "METAR LKMT 090730Z 00000KT CAVOK M11/M13 Q1005 NOSIG",
      "tafRaw": "TAF LKMT 090500Z 0906/1006 VRB02KT 5000 BR NSC \n  PROB40 \n  TEMPO 0906/0909 0900 FZFG BKN002 \n  BECMG 0909/0911 8000 OVC020 \n  TEMPO 0915/1006 2500 -SN BR OVC012 \n  PROB40 \n  TEMPO 0922/1004 1200 SN BR OVC004",
      "metarHtml": "METAR LKMT 090730Z 00000KT <span class=\"hl-vis\">CAVOK</span> M11/M13 Q1005 NOSIG",
      "tafHtml": "TAF LKMT 090500Z 0906/1006 VRB02KT 5000 <span class=\"hl\">BR</span> NSC \n  PROB40 \n  TEMPO 0906/0909 0900 <span class=\"hl\">FZFG</span> BKN002 \n  BECMG 0909/0911 8000 OVC020 \n  TEMPO 0915/1006 2500 -<span class=\"hl\">SN</span> <span class=\"hl\">BR</span> OVC012 \n  PROB40 \n  TEMPO 0922/1004 1200 <span class=\"hl\">SN</span> <span class=\"hl\">BR</span> OVC004"
    },
    {
      "icao": "EDDK",
      "iata": "CGN",
      "name": "Cologne Bonn Airport",
      "updatedAt": "090720Z",
      "visibility_m": 10000,
      "taf_visibility_m": 1200,
      "worst_visibility_m": 1200,
      "ceiling_ft": null,
      "hazards": [
        "RA",
        "BR",
        "SN",
        "SHRA"
      ],
      "severityScore": 64,
      "metarRaw": "METAR EDDK 090720Z AUTO 17015KT 9999 FEW030 SCT040 06/03 Q0986 TEMPO 14015G25KT RA",
      "tafRaw": "TAF EDDK 090500Z 0906/1012 16013KT 9999 OVC030 \n  TEMPO 0906/0910 19015G25KT SHRA BKN015CB \n  TEMPO 0910/0918 19020G30KT RA \n  BECMG 0915/0918 23010KT OVC012 \n  TEMPO 0918/0922 4000 RASN OVC008 \n  BECMG 0922/1001 OVC008 \n  TEMPO 0922/1004 1200 SN BKN003 \n  BECMG 1003/1006 29007KT \n  TEMPO 1004/1012 1200 -SN BR BKN003",
      "metarHtml": "METAR EDDK 090720Z AUTO 17015KT 9999 FEW030 SCT040 06/03 Q0986 TEMPO 14015G25KT <span class=\"hl\">RA</span>",
      "tafHtml": "TAF EDDK 090500Z 0906/1012 16013KT 9999 OVC030 \n  TEMPO 0906/0910 19015G25KT <span class=\"hl\">SHRA</span> BKN015CB \n  TEMPO 0910/0918 19020G30KT <span class=\"hl\">RA</span> \n  BECMG 0915/0918 23010KT OVC012 \n  TEMPO 0918/0922 4000 RASN OVC008 \n  BECMG 0922/1001 OVC008 \n  TEMPO 0922/1004 1200 <span class=\"hl\">SN</span> BKN003 \n  BECMG 1003/1006 29007KT \n  TEMPO 1004/1012 1200 -<span class=\"hl\">SN</span> <span class=\"hl\">BR</span> BKN003"
    },
    {
      "icao": "LCPH",
      "iata": "PFO",
      "name": "Paphos International Airport",
      "updatedAt": "090730Z",
      "visibility_m": 5000,
      "taf_visibility_m": 2000,
      "worst_visibility_m": 2000,
      "ceiling_ft": 500,
      "hazards": [
        "TSRA",
        "SHRA"
      ],
      "severityScore": 64,
      "metarRaw": "METAR LCPH 090730Z 31032G42KT 6000 R29/P2000 R11/0600 -SHRA FEW025 FEW030CB SCT050 BKN070 14/10 Q1009 TEMPO 5000 TSRA BKN005",
      "tafRaw": "TAF LCPH 090530Z 0906/1006 30025G35KT 9999 FEW025 SCT040 \n  PROB40 \n  TEMPO 0906/0914 4000 SHRA SCT020TCU FEW030CB \n  PROB30 \n  TEMPO 0906/0914 2000 TSRA SCT020CB \n  TEMPO 0908/0914 30030G40KT \n  BECMG 0918/0922 33012KT \n  PROB40 \n  TEMPO 1001/1006 4000 SHRA SCT020TCU",
      "metarHtml": "METAR LCPH 090730Z 31032G42KT 6000 R29/P2000 R11/0600 -<span class=\"hl\">SHRA</span> FEW025 FEW030CB SCT050 BKN070 14/10 Q1009 TEMPO 5000 <span class=\"hl\">TSRA</span> BKN005",
      "tafHtml": "TAF LCPH 090530Z 0906/1006 30025G35KT 9999 FEW025 SCT040 \n  PROB40 \n  TEMPO 0906/0914 4000 <span class=\"hl\">SHRA</span> SCT020TCU FEW030CB \n  PROB30 \n  TEMPO 0906/0914 2000 <span class=\"hl\">TSRA</span> SCT020CB \n  TEMPO 0908/0914 30030G40KT \n  BECMG 0918/0922 33012KT \n  PROB40 \n  TEMPO 1001/1006 4000 <span class=\"hl\">SHRA</span> SCT020TCU"
    },
    {
      "icao": "EHBK",
      "iata": "MST",
      "name": "Maastricht Aachen Airport",
      "updatedAt": "090725Z",
      "visibility_m": 10000,
      "taf_visibility_m": 800,
      "worst_visibility_m": 800,
      "ceiling_ft": null,
      "hazards": [
        "BR",
        "SN",
        "DZ"
      ],
      "severityScore": 63,
      "metarRaw": "METAR EHBK 090725Z AUTO 20019KT 160V230 9999 SCT022/// OVC025/// 06/02 Q0982 BECMG 20020G30KT",
      "tafRaw": "TAF EHBK 090516Z 0906/1012 19018G28KT 9999 -RADZ BKN035 \n  TEMPO 0906/0911 7000 RADZ \n  BECMG 0911/0914 23020G30KT 4000 -DZ BKN006 \n  BECMG 0916/0919 25010KT 4000 SNRA BKN003 \n  BECMG 0921/0924 32008KT 2000 -SN BR \n  TEMPO 0921/1006 0800 SN VV002 \n  BECMG 1005/1008 4000 BKN008",
      "metarHtml": "METAR EHBK 090725Z AUTO 20019KT 160V230 9999 SCT022/// OVC025/// 06/02 Q0982 BECMG 20020G30KT",
      "tafHtml": "TAF EHBK 090516Z 0906/1012 19018G28KT 9999 -RADZ BKN035 \n  TEMPO 0906/0911 7000 RADZ \n  BECMG 0911/0914 23020G30KT 4000 -<span class=\"hl\">DZ</span> BKN006 \n  BECMG 0916/0919 25010KT 4000 SNRA BKN003 \n  BECMG 0921/0924 32008KT 2000 -<span class=\"hl\">SN</span> <span class=\"hl\">BR</span> \n  TEMPO 0921/1006 <span class=\"hl-vis\">0800</span> <span class=\"hl\">SN</span> VV002 \n  BECMG 1005/1008 4000 BKN008"
    },
    {
      "icao": "LQSA",
      "iata": "SJJ",
      "name": "Sarajevo International Airport",
      "updatedAt": "090730Z",
      "visibility_m": 5000,
      "taf_visibility_m": 2000,
      "worst_visibility_m": 2000,
      "ceiling_ft": null,
      "hazards": [
        "BR",
        "FZRA",
        "SN"
      ],
      "severityScore": 63,
      "metarRaw": "METAR LQSA 090730Z VRB02KT 5000 BR SCT055 M10/M10 Q1009 NOSIG",
      "tafRaw": "TAF LQSA 090500Z 0906/1006 10006KT 6000 SCT050 TX02/0913Z TNM12/0906Z \n  PROB30 0907/0910 2500 BR BKN004 \n  PROB40 \n  TEMPO 0911/0918 16012KT \n  PROB40 \n  TEMPO 0916/0921 4000 FZRA BKN014 BKN030 \n  PROB40 \n  TEMPO 0921/1001 2000 SN BKN008 OVC020",
      "metarHtml": "METAR LQSA 090730Z VRB02KT 5000 <span class=\"hl\">BR</span> SCT055 M10/M10 Q1009 NOSIG",
      "tafHtml": "TAF LQSA 090500Z 0906/1006 10006KT 6000 SCT050 TX02/0913Z TNM12/0906Z \n  PROB30 0907/0910 2500 <span class=\"hl\">BR</span> BKN004 \n  PROB40 \n  TEMPO 0911/0918 16012KT \n  PROB40 \n  TEMPO 0916/0921 4000 <span class=\"hl\">FZRA</span> BKN014 BKN030 \n  PROB40 \n  TEMPO 0921/1001 2000 <span class=\"hl\">SN</span> BKN008 OVC020"
    },
    {
      "icao": "LEBB",
      "iata": "BIO",
      "name": "Bilbao Airport",
      "updatedAt": "090730Z",
      "visibility_m": 10000,
      "taf_visibility_m": 1500,
      "worst_visibility_m": 1500,
      "ceiling_ft": 5000,
      "hazards": [
        "RA",
        "TSRA",
        "SHRA"
      ],
      "severityScore": 61,
      "metarRaw": "METAR LEBB 090730Z 28007KT 230V330 9999 -RA FEW035 BKN050 11/07 Q1016 NOSIG",
      "tafRaw": "TAF LEBB 090500Z 0906/1006 29009KT 9999 FEW020 SCT040 TX12/0914Z TN07/0923Z \n  TEMPO 0909/0918 29018G33KT 3000 RA BKN010 \n  TEMPO 0909/0920 29025G43KT \n  PROB40 \n  TEMPO 0912/0920 1500 SHRA SCT025TCU \n  PROB30 \n  TEMPO 0913/0918 TSRA FEW020CB \n  PROB40 \n  TEMPO 0918/1006 29018G30KT RA BKN010",
      "metarHtml": "METAR LEBB 090730Z 28007KT 230V330 9999 -<span class=\"hl\">RA</span> FEW035 BKN050 11/07 Q1016 NOSIG",
      "tafHtml": "TAF LEBB 090500Z 0906/1006 29009KT 9999 FEW020 SCT040 TX12/0914Z TN07/0923Z \n  TEMPO 0909/0918 29018G33KT 3000 <span class=\"hl\">RA</span> BKN010 \n  TEMPO 0909/0920 29025G43KT \n  PROB40 \n  TEMPO 0912/0920 1500 <span class=\"hl\">SHRA</span> SCT025TCU \n  PROB30 \n  TEMPO 0913/0918 <span class=\"hl\">TSRA</span> FEW020CB \n  PROB40 \n  TEMPO 0918/1006 29018G30KT <span class=\"hl\">RA</span> BKN010"
    },
    {
      "icao": "LPFR",
      "iata": "FAO",
      "name": "Faro Airport",
      "updatedAt": "090730Z",
      "visibility_m": 5000,
      "taf_visibility_m": 5000,
      "worst_visibility_m": 5000,
      "ceiling_ft": 200,
      "hazards": [
        "BR",
        "RA"
      ],
      "severityScore": 57,
      "metarRaw": "METAR LPFR 090730Z 31005KT 5000 1500W BR BKN002 10/10 Q1030",
      "tafRaw": "TAF LPFR 090500Z 0906/1006 31005KT 9999 SCT012 BKN020 \n  PROB30 \n  TEMPO 0906/0909 5000 -RADZ BR SCT004 BKN008 \n  BECMG 0912/0914 26013KT \n  TEMPO 0912/0916 6000 -RA SCT006 BKN012 \n  BECMG 0918/0920 31005KT FEW020",
      "metarHtml": "METAR LPFR 090730Z 31005KT 5000 1500W <span class=\"hl\">BR</span> BKN002 10/10 Q1030",
      "tafHtml": "TAF LPFR 090500Z 0906/1006 31005KT 9999 SCT012 BKN020 \n  PROB30 \n  TEMPO 0906/0909 5000 -RADZ <span class=\"hl\">BR</span> SCT004 BKN008 \n  BECMG 0912/0914 26013KT \n  TEMPO 0912/0916 6000 -<span class=\"hl\">RA</span> SCT006 BKN012 \n  BECMG 0918/0920 31005KT FEW020"
    },
    {
      "icao": "LYBE",
      "iata": "BEG",
      "name": "Belgrade Nikola Tesla Airport",
      "updatedAt": "090730Z",
      "visibility_m": 4000,
      "taf_visibility_m": 1500,
      "worst_visibility_m": 1500,
      "ceiling_ft": null,
      "hazards": [
        "BR",
        "FZRA"
      ],
      "severityScore": 55,
      "metarRaw": "METAR LYBE 090730Z VRB02KT 4000 BR NSC M08/M09 Q1009 BECMG 8000 NSW",
      "tafRaw": "TAF LYBE 090500Z 0906/1006 10005KT CAVOK TX01/0919Z TNM12/0906Z \n  TEMPO 0914/1001 FZRA \n  BECMG 0920/0922 3000 BR SCT005 BKN015 \n  BECMG 0923/1001 1500 BKN003 BKN023 \n  TEMPO 1001/1006 SNRA BKN001 BKN021",
      "metarHtml": "METAR LYBE 090730Z VRB02KT 4000 <span class=\"hl\">BR</span> NSC M08/M09 Q1009 BECMG 8000 NSW",
      "tafHtml": "TAF LYBE 090500Z 0906/1006 10005KT <span class=\"hl-vis\">CAVOK</span> TX01/0919Z TNM12/0906Z \n  TEMPO 0914/1001 <span class=\"hl\">FZRA</span> \n  BECMG 0920/0922 3000 <span class=\"hl\">BR</span> SCT005 BKN015 \n  BECMG 0923/1001 1500 BKN003 BKN023 \n  TEMPO 1001/1006 SNRA BKN001 BKN021"
    },
    {
      "icao": "EDFH",
      "iata": "HHN",
      "name": "Frankfurt-Hahn Airport",
      "updatedAt": "090720Z",
      "visibility_m": 10000,
      "taf_visibility_m": 1500,
      "worst_visibility_m": 1500,
      "ceiling_ft": 3200,
      "hazards": [
        "RA",
        "SN",
        "SHRA"
      ],
      "severityScore": 54,
      "metarRaw": "METAR EDFH 090720Z 21022G36KT 9999 -RA FEW015 BKN032 04/02 Q0987",
      "tafRaw": "TAF EDFH 090500Z 0906/1006 22020G35KT 9999 SCT010 BKN030 \n  TEMPO 0906/0914 24030G45KT 4000 SHRA BKN010CB \n  TEMPO 0914/0917 4000 RA BKN008 \n  BECMG 0917/0920 24015G30KT BKN005 \n  TEMPO 0917/1006 1500 SN BKN002",
      "metarHtml": "METAR EDFH 090720Z 21022G36KT 9999 -<span class=\"hl\">RA</span> FEW015 BKN032 04/02 Q0987",
      "tafHtml": "TAF EDFH 090500Z 0906/1006 22020G35KT 9999 SCT010 BKN030 \n  TEMPO 0906/0914 24030G45KT 4000 <span class=\"hl\">SHRA</span> BKN010CB \n  TEMPO 0914/0917 4000 <span class=\"hl\">RA</span> BKN008 \n  BECMG 0917/0920 24015G30KT BKN005 \n  TEMPO 0917/1006 1500 <span class=\"hl\">SN</span> BKN002"
    },
    {
      "icao": "EDLW",
      "iata": "DTM",
      "name": "Dortmund Airport",
      "updatedAt": "090720Z",
      "visibility_m": 10000,
      "taf_visibility_m": 1200,
      "worst_visibility_m": 1200,
      "ceiling_ft": null,
      "hazards": [
        "SN",
        "RA",
        "SHRA"
      ],
      "severityScore": 54,
      "metarRaw": "METAR EDLW 090720Z 14011KT 120V190 9999 SCT045 06/03 Q0985",
      "tafRaw": "TAF EDLW 090500Z 0906/1006 15012KT 9999 SCT040 \n  TEMPO 0907/0910 15015G25KT SHRA BKN015CB \n  TEMPO 0910/0920 15020G30KT RA \n  BECMG 0919/0922 17004KT BKN012 \n  TEMPO 0920/0923 4000 RASN BKN003 \n  BECMG 0923/1002 07006KT OVC008 \n  TEMPO 0923/1006 1200 SN BKN003",
      "metarHtml": "METAR EDLW 090720Z 14011KT 120V190 9999 SCT045 06/03 Q0985",
      "tafHtml": "TAF EDLW 090500Z 0906/1006 15012KT 9999 SCT040 \n  TEMPO 0907/0910 15015G25KT <span class=\"hl\">SHRA</span> BKN015CB \n  TEMPO 0910/0920 15020G30KT <span class=\"hl\">RA</span> \n  BECMG 0919/0922 17004KT BKN012 \n  TEMPO 0920/0923 4000 RASN BKN003 \n  BECMG 0923/1002 07006KT OVC008 \n  TEMPO 0923/1006 1200 <span class=\"hl\">SN</span> BKN003"
    },
    {
      "icao": "EPRZ",
      "iata": "RZE",
      "name": "Rzeszów-Jasionka Airport",
      "updatedAt": "090730Z",
      "visibility_m": 10000,
      "taf_visibility_m": 4000,
      "worst_visibility_m": 4000,
      "ceiling_ft": 900,
      "hazards": [
        "BR",
        "SN"
      ],
      "severityScore": 53,
      "metarRaw": "METAR EPRZ 090730Z 27019KT 9999 BKN009 M08/M10 Q1003",
      "tafRaw": "TAF EPRZ 090530Z 0906/1006 31015KT 9999 -SN OVC013 \n  TEMPO 0906/0909 30015G25KT DRSN OVC007 \n  BECMG 0909/0911 BKN025 \n  BECMG 0914/0916 VRB02KT \n  TEMPO 1002/1006 4000 -SN BR BKN011",
      "metarHtml": "METAR EPRZ 090730Z 27019KT 9999 BKN009 M08/M10 Q1003",
      "tafHtml": "TAF EPRZ 090530Z 0906/1006 31015KT 9999 -<span class=\"hl\">SN</span> OVC013 \n  TEMPO 0906/0909 30015G25KT DRSN OVC007 \n  BECMG 0909/0911 BKN025 \n  BECMG 0914/0916 VRB02KT \n  TEMPO 1002/1006 4000 -<span class=\"hl\">SN</span> <span class=\"hl\">BR</span> BKN011"
    },
    {
      "icao": "LJLJ",
      "iata": "LJU",
      "name": "Ljubljana Jože Pučnik Airport",
      "updatedAt": "090730Z",
      "visibility_m": 10000,
      "taf_visibility_m": 4000,
      "worst_visibility_m": 4000,
      "ceiling_ft": 2700,
      "hazards": [
        "SN",
        "FZRA"
      ],
      "severityScore": 53,
      "metarRaw": "METAR LJLJ 090730Z VRB01KT 9999 -SN BKN027 OVC040 M05/M06 Q1005 NOSIG",
      "tafRaw": "TAF LJLJ 090500Z 0906/1006 29006KT 9999 BKN030 \n  PROB40 \n  TEMPO 0909/1003 4000 -SN BKN010 \n  PROB30 \n  TEMPO 0909/0918 -FZRA \n  PROB30 \n  TEMPO 1003/1006 4000 -SN BKN010",
      "metarHtml": "METAR LJLJ 090730Z VRB01KT 9999 -<span class=\"hl\">SN</span> BKN027 OVC040 M05/M06 Q1005 NOSIG",
      "tafHtml": "TAF LJLJ 090500Z 0906/1006 29006KT 9999 BKN030 \n  PROB40 \n  TEMPO 0909/1003 4000 -<span class=\"hl\">SN</span> BKN010 \n  PROB30 \n  TEMPO 0909/0918 -<span class=\"hl\">FZRA</span> \n  PROB30 \n  TEMPO 1003/1006 4000 -<span class=\"hl\">SN</span> BKN010"
    },
    {
      "icao": "EDDB",
      "iata": "BER",
      "name": "Berlin Brandenburg Airport",
      "updatedAt": "090720Z",
      "visibility_m": 10000,
      "taf_visibility_m": 1500,
      "worst_visibility_m": 1500,
      "ceiling_ft": null,
      "hazards": [
        "SN",
        "BLSN"
      ],
      "severityScore": 50,
      "metarRaw": "METAR EDDB 090720Z AUTO 10011KT CAVOK M07/M10 Q1002 NOSIG",
      "tafRaw": "TAF EDDB 090500Z 0906/1006 09013KT 9999 FEW025 \n  BECMG 0907/0910 09015G25KT \n  TEMPO 0911/1002 3000 -SN BKN010 \n  PROB30 \n  TEMPO 0912/1002 1500 BLSN BKN007 \n  BECMG 1002/1005 07013KT",
      "metarHtml": "METAR EDDB 090720Z AUTO 10011KT <span class=\"hl-vis\">CAVOK</span> M07/M10 Q1002 NOSIG",
      "tafHtml": "TAF EDDB 090500Z 0906/1006 09013KT 9999 FEW025 \n  BECMG 0907/0910 09015G25KT \n  TEMPO 0911/1002 3000 -<span class=\"hl\">SN</span> BKN010 \n  PROB30 \n  TEMPO 0912/1002 1500 <span class=\"hl\">BLSN</span> BKN007 \n  BECMG 1002/1005 07013KT"
    },
    {
      "icao": "EPGD",
      "iata": "GDN",
      "name": "Gdańsk Lech Wałęsa Airport",
      "updatedAt": "090730Z",
      "visibility_m": 10000,
      "taf_visibility_m": 1500,
      "worst_visibility_m": 1500,
      "ceiling_ft": null,
      "hazards": [
        "SN",
        "BLSN"
      ],
      "severityScore": 50,
      "metarRaw": "METAR EPGD 090730Z 26002KT CAVOK M09/M10 Q1008",
      "tafRaw": "TAF EPGD 090530Z 0906/1006 06006KT 9999 SCT015 \n  BECMG 0908/0911 05016KT \n  TEMPO 0911/1006 06021G31KT \n  BECMG 0921/0923 -SN BKN012 \n  PROB40 \n  TEMPO 1000/1006 1500 SN BLSN BKN004 BKN008",
      "metarHtml": "METAR EPGD 090730Z 26002KT <span class=\"hl-vis\">CAVOK</span> M09/M10 Q1008",
      "tafHtml": "TAF EPGD 090530Z 0906/1006 06006KT 9999 SCT015 \n  BECMG 0908/0911 05016KT \n  TEMPO 0911/1006 06021G31KT \n  BECMG 0921/0923 -<span class=\"hl\">SN</span> BKN012 \n  PROB40 \n  TEMPO 1000/1006 1500 <span class=\"hl\">SN</span> <span class=\"hl\">BLSN</span> BKN004 BKN008"
    },
    {
      "icao": "EPPO",
      "iata": "POZ",
      "name": "Poznań-Ławica Airport",
      "updatedAt": "090730Z",
      "visibility_m": 6000,
      "taf_visibility_m": 3500,
      "worst_visibility_m": 3500,
      "ceiling_ft": 300,
      "hazards": [
        "BR"
      ],
      "severityScore": 45,
      "metarRaw": "METAR EPPO 090730Z 09005KT 6000 BKN003 M12/M14 Q1006",
      "tafRaw": "TAF EPPO 090530Z 0906/1006 08003KT 3500 BR OVC002 \n  TEMPO 0906/0907 OVC001 \n  BECMG 0907/0909 8000 BKN005 \n  BECMG 0909/0911 11013KT SCT015 \n  TEMPO 0921/1006 BKN005",
      "metarHtml": "METAR EPPO 090730Z 09005KT 6000 BKN003 M12/M14 Q1006",
      "tafHtml": "TAF EPPO 090530Z 0906/1006 08003KT 3500 <span class=\"hl\">BR</span> OVC002 \n  TEMPO 0906/0907 OVC001 \n  BECMG 0907/0909 8000 BKN005 \n  BECMG 0909/0911 11013KT SCT015 \n  TEMPO 0921/1006 BKN005"
    },
    {
      "icao": "EPRA",
      "iata": "RDO",
      "name": "Warsaw Radom Airport",
      "updatedAt": "090730Z",
      "visibility_m": 7000,
      "taf_visibility_m": 4000,
      "worst_visibility_m": 4000,
      "ceiling_ft": 600,
      "hazards": [
        "SN"
      ],
      "severityScore": 43,
      "metarRaw": "METAR EPRA 090730Z 31010KT 7000 -SN OVC006 M10/M12 Q1003",
      "tafRaw": "TAF EPRA 090530Z 0906/0915 32010KT 8000 OVC007 \n  PROB30 \n  TEMPO 0906/0909 4000 -SN OVC005 \n  BECMG 0908/0910 BKN015",
      "metarHtml": "METAR EPRA 090730Z 31010KT 7000 -<span class=\"hl\">SN</span> OVC006 M10/M12 Q1003",
      "tafHtml": "TAF EPRA 090530Z 0906/0915 32010KT 8000 OVC007 \n  PROB30 \n  TEMPO 0906/0909 4000 -<span class=\"hl\">SN</span> OVC005 \n  BECMG 0908/0910 BKN015"
    },
    {
      "icao": "EETN",
      "iata": "TLL",
      "name": "Lennart Meri Tallinn Airport",
      "updatedAt": "090720Z",
      "visibility_m": 10000,
      "taf_visibility_m": 3000,
      "worst_visibility_m": 3000,
      "ceiling_ft": 2700,
      "hazards": [
        "SN",
        "BLSN"
      ],
      "severityScore": 40,
      "metarRaw": "METAR EETN 090720Z 08012KT 9999 BKN027 M06/M10 Q1020 NOSIG",
      "tafRaw": "TAF EETN 090530Z 0906/1006 07014KT 9999 DRSN SCT020 \n  PROB30 \n  TEMPO 0906/0914 5000 SN BKN015 \n  BECMG 0908/0910 06018G30KT \n  TEMPO 0914/0922 BKN014 \n  BECMG 0922/0924 BKN013 \n  PROB40 \n  TEMPO 1000/1006 3000 SN BLSN VV009",
      "metarHtml": "METAR EETN 090720Z 08012KT 9999 BKN027 M06/M10 Q1020 NOSIG",
      "tafHtml": "TAF EETN 090530Z 0906/1006 07014KT 9999 DRSN SCT020 \n  PROB30 \n  TEMPO 0906/0914 5000 <span class=\"hl\">SN</span> BKN015 \n  BECMG 0908/0910 06018G30KT \n  TEMPO 0914/0922 BKN014 \n  BECMG 0922/0924 BKN013 \n  PROB40 \n  TEMPO 1000/1006 3000 <span class=\"hl\">SN</span> <span class=\"hl\">BLSN</span> VV009"
    },
    {
      "icao": "EPKK",
      "iata": "KRK",
      "name": "Kraków John Paul II International Airport",
      "updatedAt": "090730Z",
      "visibility_m": 10000,
      "taf_visibility_m": 2000,
      "worst_visibility_m": 2000,
      "ceiling_ft": 1100,
      "hazards": [
        "BR",
        "SN"
      ],
      "severityScore": 40,
      "metarRaw": "METAR EPKK 090730Z 22005KT 9999 OVC011 M08/M10 Q1005",
      "tafRaw": "TAF EPKK 090530Z 0906/1006 26006KT 9999 BKN013 \n  BECMG 0908/0910 CAVOK \n  BECMG 0912/0915 07010KT \n  BECMG 0922/0924 BKN013 \n  TEMPO 1000/1006 2000 -SN BR BKN009",
      "metarHtml": "METAR EPKK 090730Z 22005KT 9999 OVC011 M08/M10 Q1005",
      "tafHtml": "TAF EPKK 090530Z 0906/1006 26006KT 9999 BKN013 \n  BECMG 0908/0910 <span class=\"hl-vis\">CAVOK</span> \n  BECMG 0912/0915 07010KT \n  BECMG 0922/0924 BKN013 \n  TEMPO 1000/1006 2000 -<span class=\"hl\">SN</span> <span class=\"hl\">BR</span> BKN009"
    },
    {
      "icao": "EPLB",
      "iata": "LUZ",
      "name": "Lublin Airport",
      "updatedAt": "090730Z",
      "visibility_m": 5000,
      "taf_visibility_m": 2000,
      "worst_visibility_m": 2000,
      "ceiling_ft": 1200,
      "hazards": [
        "BR",
        "SN"
      ],
      "severityScore": 40,
      "metarRaw": "METAR EPLB 090730Z 30011KT 5000 -SN DRSN BR SCT010 BKN012 OVC018 M09/M10 Q1001",
      "tafRaw": "TAF EPLB 090530Z 0906/1006 30012KT 8000 -SN BKN013 BKN030 \n  TEMPO 0906/0915 DRSN BKN009 \n  PROB40 \n  TEMPO 0906/0915 31015G25KT 4000 -SN \n  TEMPO 0918/1006 SCT015 \n  PROB40 0918/1006 VRB02KT 2000 -SG BR BKN003",
      "metarHtml": "METAR EPLB 090730Z 30011KT 5000 -<span class=\"hl\">SN</span> DRSN <span class=\"hl\">BR</span> SCT010 BKN012 OVC018 M09/M10 Q1001",
      "tafHtml": "TAF EPLB 090530Z 0906/1006 30012KT 8000 -<span class=\"hl\">SN</span> BKN013 BKN030 \n  TEMPO 0906/0915 DRSN BKN009 \n  PROB40 \n  TEMPO 0906/0915 31015G25KT 4000 -<span class=\"hl\">SN</span> \n  TEMPO 0918/1006 SCT015 \n  PROB40 0918/1006 VRB02KT 2000 -SG <span class=\"hl\">BR</span> BKN003"
    },
    {
      "icao": "LRBV",
      "iata": "GHV",
      "name": "Brașov-Ghimbav International Airport",
      "updatedAt": "090730Z",
      "visibility_m": 10000,
      "taf_visibility_m": 5000,
      "worst_visibility_m": 5000,
      "ceiling_ft": 1600,
      "hazards": [
        "SN",
        "BR"
      ],
      "severityScore": 40,
      "metarRaw": "METAR LRBV 090730Z 25006KT 200V280 9999 -SN BKN016 BKN028 M07/M10 Q1005",
      "tafRaw": "TAF LRBV 090500Z 0906/0915 30012KT 9999 -SN SCT015 OVC030 \n  TEMPO 0906/0909 5000 -SN BR BKN010 OVC025",
      "metarHtml": "METAR LRBV 090730Z 25006KT 200V280 9999 -<span class=\"hl\">SN</span> BKN016 BKN028 M07/M10 Q1005",
      "tafHtml": "TAF LRBV 090500Z 0906/0915 30012KT 9999 -<span class=\"hl\">SN</span> SCT015 OVC030 \n  TEMPO 0906/0909 5000 -<span class=\"hl\">SN</span> <span class=\"hl\">BR</span> BKN010 OVC025"
    },
    {
      "icao": "LCLK",
      "iata": "LCA",
      "name": "Larnaca International Airport",
      "updatedAt": "090730Z",
      "visibility_m": 10000,
      "taf_visibility_m": 2000,
      "worst_visibility_m": 2000,
      "ceiling_ft": null,
      "hazards": [
        "TSRA",
        "SHRA"
      ],
      "severityScore": 39,
      "metarRaw": "METAR LCLK 090730Z VRB04KT 9999 FEW020 FEW030TCU FEW035CB SCT070 18/10 Q1008 NOSIG RMK CB TO SW NW",
      "tafRaw": "TAF LCLK 090530Z 0906/1006 24014KT 9999 FEW020 SCT040 \n  BECMG 0907/0910 29025G35KT \n  PROB30 \n  TEMPO 0908/0913 4000 SHRA SCT020TCU FEW030CB \n  PROB30 \n  TEMPO 0908/0914 VRB30G40KT 2000 TSRA FEW020CB \n  BECMG 0914/0916 25014KT",
      "metarHtml": "METAR LCLK 090730Z VRB04KT 9999 FEW020 FEW030TCU FEW035CB SCT070 18/10 Q1008 NOSIG RMK CB TO SW NW",
      "tafHtml": "TAF LCLK 090530Z 0906/1006 24014KT 9999 FEW020 SCT040 \n  BECMG 0907/0910 29025G35KT \n  PROB30 \n  TEMPO 0908/0913 4000 <span class=\"hl\">SHRA</span> SCT020TCU FEW030CB \n  PROB30 \n  TEMPO 0908/0914 VRB30G40KT 2000 <span class=\"hl\">TSRA</span> FEW020CB \n  BECMG 0914/0916 25014KT"
    },
    {
      "icao": "LFBD",
      "iata": "BOD",
      "name": "Bordeaux–Mérignac Airport",
      "updatedAt": "090730Z",
      "visibility_m": 10000,
      "taf_visibility_m": 4000,
      "worst_visibility_m": 4000,
      "ceiling_ft": null,
      "hazards": [
        "TSRA",
        "SHRA"
      ],
      "severityScore": 39,
      "metarRaw": "METAR LFBD 090730Z AUTO 28019KT 9999 SCT036/// BKN130/// BKN150/// ///CB 11/05 Q1010",
      "tafRaw": "TAF LFBD 090500Z 0906/1012 26015G25KT 9999 BKN030 TX11/0914Z TN09/0906Z \n  TEMPO 0906/0922 27020G40KT 4000 SHRA BKN015TCU SCT020CB \n  PROB40 \n  TEMPO 0906/0916 28030G55KT \n  PROB30 \n  TEMPO 0906/0918 TSRA BKN010 BKN015CB \n  BECMG 1000/1002 30012KT",
      "metarHtml": "METAR LFBD 090730Z AUTO 28019KT 9999 SCT036/// BKN130/// BKN150/// ///CB 11/05 Q1010",
      "tafHtml": "TAF LFBD 090500Z 0906/1012 26015G25KT 9999 BKN030 TX11/0914Z TN09/0906Z \n  TEMPO 0906/0922 27020G40KT 4000 <span class=\"hl\">SHRA</span> BKN015TCU SCT020CB \n  PROB40 \n  TEMPO 0906/0916 28030G55KT \n  PROB30 \n  TEMPO 0906/0918 <span class=\"hl\">TSRA</span> BKN010 BKN015CB \n  BECMG 1000/1002 30012KT"
    },
    {
      "icao": "LICA",
      "iata": "SUF",
      "name": "Lamezia Terme Sant'Eufemia International Airport",
      "updatedAt": "090720Z",
      "visibility_m": 10000,
      "taf_visibility_m": 4000,
      "worst_visibility_m": 4000,
      "ceiling_ft": null,
      "hazards": [
        "TSRA",
        "SHRA"
      ],
      "severityScore": 39,
      "metarRaw": "METAR LICA 090720Z AUTO 25020KT 9999 BKN019/// BKN077/// 15/12 Q1015",
      "tafRaw": "TAF LICA 090500Z 0906/1006 27026G38KT 9999 BKN016 \n  TEMPO 0906/0921 4000 SHRA \n  TEMPO 0921/1006 4000 TSRA BKN012",
      "metarHtml": "METAR LICA 090720Z AUTO 25020KT 9999 BKN019/// BKN077/// 15/12 Q1015",
      "tafHtml": "TAF LICA 090500Z 0906/1006 27026G38KT 9999 BKN016 \n  TEMPO 0906/0921 4000 <span class=\"hl\">SHRA</span> \n  TEMPO 0921/1006 4000 <span class=\"hl\">TSRA</span> BKN012"
    },
    {
      "icao": "LICJ",
      "iata": "PMO",
      "name": "Falcone–Borsellino Airport",
      "updatedAt": "090720Z",
      "visibility_m": 10000,
      "taf_visibility_m": 4000,
      "worst_visibility_m": 4000,
      "ceiling_ft": null,
      "hazards": [
        "TSRA",
        "SHRA"
      ],
      "severityScore": 39,
      "metarRaw": "METAR LICJ 090720Z 22019G29KT 9999 SCT040 16/12 Q1018",
      "tafRaw": "TAF LICJ 090500Z 0906/1006 23020G35KT 9999 SCT020 \n  TEMPO 0912/1001 4000 SHRA \n  TEMPO 1001/1006 4000 TSRA \n  BECMG 1004/1006 29026G40KT",
      "metarHtml": "METAR LICJ 090720Z 22019G29KT 9999 SCT040 16/12 Q1018",
      "tafHtml": "TAF LICJ 090500Z 0906/1006 23020G35KT 9999 SCT020 \n  TEMPO 0912/1001 4000 <span class=\"hl\">SHRA</span> \n  TEMPO 1001/1006 4000 <span class=\"hl\">TSRA</span> \n  BECMG 1004/1006 29026G40KT"
    },
    {
      "icao": "LIRF",
      "iata": "FCO",
      "name": "Rome–Fiumicino Leonardo da Vinci International Airport",
      "updatedAt": "090720Z",
      "visibility_m": 10000,
      "taf_visibility_m": 3000,
      "worst_visibility_m": 3000,
      "ceiling_ft": null,
      "hazards": [
        "TSRA",
        "SHRA"
      ],
      "severityScore": 39,
      "metarRaw": "METAR LIRF 090720Z 24015KT 9999 FEW030 SCT040 14/10 Q1010 NOSIG",
      "tafRaw": "TAF LIRF 090500Z 0906/1012 25016G26KT 9999 SCT020 \n  TEMPO 0909/0918 4000 SHRA \n  BECMG 0910/0912 25020G36KT \n  TEMPO 0920/1012 3000 TSRA \n  BECMG 1005/1007 31018G30KT \n  BECMG 1010/1012 32015KT",
      "metarHtml": "METAR LIRF 090720Z 24015KT 9999 FEW030 SCT040 14/10 Q1010 NOSIG",
      "tafHtml": "TAF LIRF 090500Z 0906/1012 25016G26KT 9999 SCT020 \n  TEMPO 0909/0918 4000 <span class=\"hl\">SHRA</span> \n  BECMG 0910/0912 25020G36KT \n  TEMPO 0920/1012 3000 <span class=\"hl\">TSRA</span> \n  BECMG 1005/1007 31018G30KT \n  BECMG 1010/1012 32015KT"
    },
    {
      "icao": "LIRN",
      "iata": "NAP",
      "name": "Naples International Airport",
      "updatedAt": "090720Z",
      "visibility_m": 10000,
      "taf_visibility_m": 4000,
      "worst_visibility_m": 4000,
      "ceiling_ft": null,
      "hazards": [
        "TSRA",
        "SHRA"
      ],
      "severityScore": 39,
      "metarRaw": "METAR LIRN 090720Z 20004KT 9999 FEW025 SCT045 11/11 Q1012 NOSIG",
      "tafRaw": "TAF LIRN 090500Z 0906/1006 VRB05KT 9999 BKN025 \n  TEMPO 0906/0919 4000 SHRA \n  BECMG 0909/0911 25013KT \n  TEMPO 0912/1006 25016G28KT \n  TEMPO 0919/1006 4000 TSRA",
      "metarHtml": "METAR LIRN 090720Z 20004KT 9999 FEW025 SCT045 11/11 Q1012 NOSIG",
      "tafHtml": "TAF LIRN 090500Z 0906/1006 VRB05KT 9999 BKN025 \n  TEMPO 0906/0919 4000 <span class=\"hl\">SHRA</span> \n  BECMG 0909/0911 25013KT \n  TEMPO 0912/1006 25016G28KT \n  TEMPO 0919/1006 4000 <span class=\"hl\">TSRA</span>"
    },
    {
      "icao": "LIRZ",
      "iata": "PEG",
      "name": "Perugia San Francesco d'Assisi – Umbria International Airport",
      "updatedAt": "090720Z",
      "visibility_m": 10000,
      "taf_visibility_m": 4000,
      "worst_visibility_m": 4000,
      "ceiling_ft": null,
      "hazards": [
        "TSRA",
        "SHRA"
      ],
      "severityScore": 39,
      "metarRaw": "METAR LIRZ 090720Z AUTO 19003KT 160V250 9999 BKN016/// 08/07 Q1008",
      "tafRaw": "TAF LIRZ 090500Z 0906/1006 VRB05KT 9999 BKN040 \n  BECMG 0907/0909 19013KT \n  TEMPO 0906/0913 4000 SHRA \n  BECMG 0912/0914 25012KT \n  TEMPO 0913/1006 4000 TSRA \n  BECMG 0919/0921 19006KT",
      "metarHtml": "METAR LIRZ 090720Z AUTO 19003KT 160V250 9999 BKN016/// 08/07 Q1008",
      "tafHtml": "TAF LIRZ 090500Z 0906/1006 VRB05KT 9999 BKN040 \n  BECMG 0907/0909 19013KT \n  TEMPO 0906/0913 4000 <span class=\"hl\">SHRA</span> \n  BECMG 0912/0914 25012KT \n  TEMPO 0913/1006 4000 <span class=\"hl\">TSRA</span> \n  BECMG 0919/0921 19006KT"
    },
    {
      "icao": "EGKK",
      "iata": "LGW",
      "name": "London Gatwick Airport",
      "updatedAt": "090720Z",
      "visibility_m": 10000,
      "taf_visibility_m": 2000,
      "worst_visibility_m": 2000,
      "ceiling_ft": 1000,
      "hazards": [
        "RA",
        "SHRA"
      ],
      "severityScore": 38,
      "metarRaw": "METAR EGKK 090720Z 30019KT 9999 -RA BKN010 BKN017 02/01 Q0988",
      "tafRaw": "TAF EGKK 090453Z 0906/1012 31016G26KT 9999 SCT010 BKN020 \n  TEMPO 0906/0912 6000 RA -RASN BKN008 \n  PROB30 \n  TEMPO 0906/0911 32019G36KT 2000 RASN BKN004 \n  TEMPO 0912/0921 6000 RA SHRA BKN008 \n  BECMG 0918/0921 31009KT \n  PROB30 \n  TEMPO 0921/1001 31015G25KT 8000 -SHRA BKN014",
      "metarHtml": "METAR EGKK 090720Z 30019KT 9999 -<span class=\"hl\">RA</span> BKN010 BKN017 02/01 Q0988",
      "tafHtml": "TAF EGKK 090453Z 0906/1012 31016G26KT 9999 SCT010 BKN020 \n  TEMPO 0906/0912 6000 <span class=\"hl\">RA</span> -RASN BKN008 \n  PROB30 \n  TEMPO 0906/0911 32019G36KT 2000 RASN BKN004 \n  TEMPO 0912/0921 6000 <span class=\"hl\">RA</span> <span class=\"hl\">SHRA</span> BKN008 \n  BECMG 0918/0921 31009KT \n  PROB30 \n  TEMPO 0921/1001 31015G25KT 8000 -<span class=\"hl\">SHRA</span> BKN014"
    },
    {
      "icao": "LFOB",
      "iata": "BVA",
      "name": "Beauvais Tillé airport",
      "updatedAt": "090730Z",
      "visibility_m": 4000,
      "taf_visibility_m": 4000,
      "worst_visibility_m": 4000,
      "ceiling_ft": 1600,
      "hazards": [
        "RA",
        "SHRA"
      ],
      "severityScore": 38,
      "metarRaw": "METAR LFOB 090730Z AUTO 26020G32KT 9999 -RA BKN016 OVC024 04/03 Q0988 TEMPO 4000 SHRA BKN012TCU",
      "tafRaw": "TAF LFOB 090500Z 0906/1006 25025G40KT 9999 OVC020 \n  TEMPO 0906/0921 4000 SHRA BKN012TCU \n  PROB30 \n  TEMPO 0906/0917 BKN005 \n  BECMG 0917/0921 28015G25KT \n  PROB40 \n  TEMPO 0921/1003 4500 -SHRA BKN012TCU",
      "metarHtml": "METAR LFOB 090730Z AUTO 26020G32KT 9999 -<span class=\"hl\">RA</span> BKN016 OVC024 04/03 Q0988 TEMPO 4000 <span class=\"hl\">SHRA</span> BKN012TCU",
      "tafHtml": "TAF LFOB 090500Z 0906/1006 25025G40KT 9999 OVC020 \n  TEMPO 0906/0921 4000 <span class=\"hl\">SHRA</span> BKN012TCU \n  PROB30 \n  TEMPO 0906/0917 BKN005 \n  BECMG 0917/0921 28015G25KT \n  PROB40 \n  TEMPO 0921/1003 4500 -<span class=\"hl\">SHRA</span> BKN012TCU"
    },
    {
      "icao": "LATI",
      "iata": "TIA",
      "name": "Tirana International Airport Mother Teresa",
      "updatedAt": "090720Z",
      "visibility_m": 10000,
      "taf_visibility_m": 4000,
      "worst_visibility_m": 4000,
      "ceiling_ft": 7800,
      "hazards": [
        "TSRA",
        "RA"
      ],
      "severityScore": 37,
      "metarRaw": "METAR LATI 090720Z 13006KT 9999 SCT045 BKN078 03/M02 Q1015 NOSIG",
      "tafRaw": "TAF LATI 090500Z 0906/1006 VRB05KT CAVOK TX14/0921Z TN01/0906Z \n  BECMG 0908/0910 15012KT \n  BECMG 0916/0918 RA BKN025 \n  PROB40 \n  TEMPO 0921/1006 22012KT 4000 TSRA FEW025CB OVC040",
      "metarHtml": "METAR LATI 090720Z 13006KT 9999 SCT045 BKN078 03/M02 Q1015 NOSIG",
      "tafHtml": "TAF LATI 090500Z 0906/1006 VRB05KT <span class=\"hl-vis\">CAVOK</span> TX14/0921Z TN01/0906Z \n  BECMG 0908/0910 15012KT \n  BECMG 0916/0918 <span class=\"hl\">RA</span> BKN025 \n  PROB40 \n  TEMPO 0921/1006 22012KT 4000 <span class=\"hl\">TSRA</span> FEW025CB OVC040"
    },
    {
      "icao": "LLBG",
      "iata": "TLV",
      "name": "Ben Gurion International Airport",
      "updatedAt": "090720Z",
      "visibility_m": 10000,
      "taf_visibility_m": 5000,
      "worst_visibility_m": 5000,
      "ceiling_ft": 7000,
      "hazards": [
        "RA",
        "TSRA"
      ],
      "severityScore": 37,
      "metarRaw": "METAR LLBG 090720Z 19005KT 9999 FEW022 SCT033 17/14 Q1014 TEMPO RA FEW025TCU RMK BKN070",
      "tafRaw": "TAF LLBG 090502Z 0906/1006 24014KT 9999 SCT025 BKN035 \n  TEMPO 0906/0915 26025G40KT 5000 TSRA FEW020CB BKN025 \n  BECMG 0915/0917 29012KT SCT030 \n  PROB40 \n  TEMPO 0917/1006 31018G28KT 7000 RA FEW025TCU BKN030 TX18/0911Z TN15/1004Z",
      "metarHtml": "METAR LLBG 090720Z 19005KT 9999 FEW022 SCT033 17/14 Q1014 TEMPO <span class=\"hl\">RA</span> FEW025TCU RMK BKN070",
      "tafHtml": "TAF LLBG 090502Z 0906/1006 24014KT 9999 SCT025 BKN035 \n  TEMPO 0906/0915 26025G40KT 5000 <span class=\"hl\">TSRA</span> FEW020CB BKN025 \n  BECMG 0915/0917 29012KT SCT030 \n  PROB40 \n  TEMPO 0917/1006 31018G28KT 7000 <span class=\"hl\">RA</span> FEW025TCU BKN030 TX18/0911Z TN15/1004Z"
    },
    {
      "icao": "LYPG",
      "iata": "TGD",
      "name": "Podgorica Airport / Podgorica Golubovci Airbase",
      "updatedAt": "090730Z",
      "visibility_m": 10000,
      "taf_visibility_m": 2000,
      "worst_visibility_m": 2000,
      "ceiling_ft": 5000,
      "hazards": [
        "TSRA",
        "RA"
      ],
      "severityScore": 37,
      "metarRaw": "METAR LYPG 090730Z 02005KT 9999 FEW040 BKN050 01/M04 Q1016 NOSIG",
      "tafRaw": "TAF LYPG 090500Z 0906/1006 02008KT 9999 BKN034 BKN070 TX07/0923Z TN00/0906Z \n  PROB30 \n  TEMPO 0909/0912 2000 SNRA \n  TEMPO 0912/1006 5000 RA \n  PROB40 \n  TEMPO 0922/1006 3000 TSRA FEW010 SCT025CB BKN030",
      "metarHtml": "METAR LYPG 090730Z 02005KT 9999 FEW040 BKN050 01/M04 Q1016 NOSIG",
      "tafHtml": "TAF LYPG 090500Z 0906/1006 02008KT 9999 BKN034 BKN070 TX07/0923Z TN00/0906Z \n  PROB30 \n  TEMPO 0909/0912 2000 SNRA \n  TEMPO 0912/1006 5000 <span class=\"hl\">RA</span> \n  PROB40 \n  TEMPO 0922/1006 3000 <span class=\"hl\">TSRA</span> FEW010 SCT025CB BKN030"
    },
    {
      "icao": "LRBS",
      "iata": "BBU",
      "name": "Bucharest Băneasa Aurel Vlaicu International Airport",
      "updatedAt": "090730Z",
      "visibility_m": 10000,
      "taf_visibility_m": 5000,
      "worst_visibility_m": 5000,
      "ceiling_ft": null,
      "hazards": [
        "FZRA"
      ],
      "severityScore": 35,
      "metarRaw": "METAR LRBS 090730Z 27006KT 250V310 CAVOK M03/M07 Q1007 NOSIG",
      "tafRaw": "TAF LRBS 090500Z 0906/1006 25012KT CAVOK \n  BECMG 0918/0920 VRB04KT \n  BECMG 1001/1003 -FZRA BKN015 OVC035 \n  PROB30 \n  TEMPO 1003/1006 5000 FZRA BKN010 OVC030",
      "metarHtml": "METAR LRBS 090730Z 27006KT 250V310 <span class=\"hl-vis\">CAVOK</span> M03/M07 Q1007 NOSIG",
      "tafHtml": "TAF LRBS 090500Z 0906/1006 25012KT <span class=\"hl-vis\">CAVOK</span> \n  BECMG 0918/0920 VRB04KT \n  BECMG 1001/1003 -<span class=\"hl\">FZRA</span> BKN015 OVC035 \n  PROB30 \n  TEMPO 1003/1006 5000 <span class=\"hl\">FZRA</span> BKN010 OVC030"
    },
    {
      "icao": "LROP",
      "iata": "OTP",
      "name": "Bucharest Henri Coandă International Airport",
      "updatedAt": "090730Z",
      "visibility_m": 10000,
      "taf_visibility_m": 5000,
      "worst_visibility_m": 5000,
      "ceiling_ft": null,
      "hazards": [
        "FZRA"
      ],
      "severityScore": 35,
      "metarRaw": "METAR LROP 090730Z 25007KT CAVOK M03/M06 Q1006 NOSIG",
      "tafRaw": "TAF LROP 090500Z 0906/1006 25012KT CAVOK \n  BECMG 0918/0920 VRB04KT \n  BECMG 1001/1003 -FZRA BKN015 OVC035 \n  PROB30 \n  TEMPO 1003/1006 5000 FZRA BKN010 OVC030",
      "metarHtml": "METAR LROP 090730Z 25007KT <span class=\"hl-vis\">CAVOK</span> M03/M06 Q1006 NOSIG",
      "tafHtml": "TAF LROP 090500Z 0906/1006 25012KT <span class=\"hl-vis\">CAVOK</span> \n  BECMG 0918/0920 VRB04KT \n  BECMG 1001/1003 -<span class=\"hl\">FZRA</span> BKN015 OVC035 \n  PROB30 \n  TEMPO 1003/1006 5000 <span class=\"hl\">FZRA</span> BKN010 OVC030"
    },
    {
      "icao": "LYNI",
      "iata": "INI",
      "name": "Niš Constantine the Great Airport",
      "updatedAt": "090730Z",
      "visibility_m": 10000,
      "taf_visibility_m": 3000,
      "worst_visibility_m": 3000,
      "ceiling_ft": null,
      "hazards": [
        "FZRA"
      ],
      "severityScore": 35,
      "metarRaw": "METAR LYNI 090730Z VRB02KT CAVOK M05/M08 Q1012 NOSIG",
      "tafRaw": "TAF LYNI 090500Z 0906/1006 19004KT CAVOK TX02/0914Z TNM10/0906Z \n  TEMPO 0915/1002 5000 -FZRA \n  PROB40 \n  TEMPO 0917/0924 3000 FZRA",
      "metarHtml": "METAR LYNI 090730Z VRB02KT <span class=\"hl-vis\">CAVOK</span> M05/M08 Q1012 NOSIG",
      "tafHtml": "TAF LYNI 090500Z 0906/1006 19004KT <span class=\"hl-vis\">CAVOK</span> TX02/0914Z TNM10/0906Z \n  TEMPO 0915/1002 5000 -<span class=\"hl\">FZRA</span> \n  PROB40 \n  TEMPO 0917/0924 3000 <span class=\"hl\">FZRA</span>"
    },
    {
      "icao": "EGBB",
      "iata": "BHX",
      "name": "Birmingham Airport",
      "updatedAt": "090720Z",
      "visibility_m": 7000,
      "taf_visibility_m": 3000,
      "worst_visibility_m": 3000,
      "ceiling_ft": 1500,
      "hazards": [
        "RA",
        "BR"
      ],
      "severityScore": 34,
      "metarRaw": "METAR EGBB 090720Z 32014KT 7000 -RA SCT011 BKN015 02/01 Q0993",
      "tafRaw": "TAF EGBB 090456Z 0906/1006 33018G30KT 5000 BR BKN005 \n  TEMPO 0906/0908 3000 RASN BKN003 \n  BECMG 0908/0911 9999 NSW SCT006 \n  TEMPO 0911/0919 6000 RADZ BKN014 \n  BECMG 0912/0915 33009KT \n  PROB30 \n  TEMPO 0919/0924 6000 RADZ BKN014 \n  PROB30 1004/1006 7000",
      "metarHtml": "METAR EGBB 090720Z 32014KT 7000 -<span class=\"hl\">RA</span> SCT011 BKN015 02/01 Q0993",
      "tafHtml": "TAF EGBB 090456Z 0906/1006 33018G30KT 5000 <span class=\"hl\">BR</span> BKN005 \n  TEMPO 0906/0908 3000 RASN BKN003 \n  BECMG 0908/0911 9999 NSW SCT006 \n  TEMPO 0911/0919 6000 RADZ BKN014 \n  BECMG 0912/0915 33009KT \n  PROB30 \n  TEMPO 0919/0924 6000 RADZ BKN014 \n  PROB30 1004/1006 7000"
    },
    {
      "icao": "EDDS",
      "iata": "STR",
      "name": "Stuttgart Airport",
      "updatedAt": "090720Z",
      "visibility_m": 10000,
      "taf_visibility_m": 4000,
      "worst_visibility_m": 4000,
      "ceiling_ft": null,
      "hazards": [
        "SN",
        "SHRA"
      ],
      "severityScore": 32,
      "metarRaw": "METAR EDDS 090720Z COR AUTO 23014G25KT 180V260 9999 FEW037 06/01 Q0994 NOSIG",
      "tafRaw": "TAF EDDS 090500Z 0906/1006 20010KT 9999 SCT030 \n  BECMG 0906/0909 21015G30KT \n  TEMPO 0910/0915 21020G35KT \n  BECMG 0913/0915 20010KT \n  TEMPO 0915/0920 20015G25KT 4000 SHRA BKN030CB \n  PROB40 \n  TEMPO 1000/1006 4000 -SN",
      "metarHtml": "METAR EDDS 090720Z COR AUTO 23014G25KT 180V260 9999 FEW037 06/01 Q0994 NOSIG",
      "tafHtml": "TAF EDDS 090500Z 0906/1006 20010KT 9999 SCT030 \n  BECMG 0906/0909 21015G30KT \n  TEMPO 0910/0915 21020G35KT \n  BECMG 0913/0915 20010KT \n  TEMPO 0915/0920 20015G25KT 4000 <span class=\"hl\">SHRA</span> BKN030CB \n  PROB40 \n  TEMPO 1000/1006 4000 -<span class=\"hl\">SN</span>"
    },
    {
      "icao": "LIPR",
      "iata": "RMI",
      "name": "Federico Fellini International Airport",
      "updatedAt": "090720Z",
      "visibility_m": 10000,
      "taf_visibility_m": 1500,
      "worst_visibility_m": 1500,
      "ceiling_ft": 6000,
      "hazards": [
        "BR",
        "RA"
      ],
      "severityScore": 32,
      "metarRaw": "METAR LIPR 090720Z 29003KT 260V320 9999 BKN060 01/M02 Q1006",
      "tafRaw": "TAF LIPR 090500Z 0906/1006 VRB05KT 9999 BKN040 \n  BECMG 0908/0910 29010KT \n  BECMG 0918/0920 VRB05KT \n  TEMPO 0920/0924 1500 BR \n  BECMG 0923/1001 30010KT \n  TEMPO 1000/1006 2000 RA",
      "metarHtml": "METAR LIPR 090720Z 29003KT 260V320 9999 BKN060 01/M02 Q1006",
      "tafHtml": "TAF LIPR 090500Z 0906/1006 VRB05KT 9999 BKN040 \n  BECMG 0908/0910 29010KT \n  BECMG 0918/0920 VRB05KT \n  TEMPO 0920/0924 1500 <span class=\"hl\">BR</span> \n  BECMG 0923/1001 30010KT \n  TEMPO 1000/1006 2000 <span class=\"hl\">RA</span>"
    },
    {
      "icao": "EPMO",
      "iata": "WMI",
      "name": "Modlin Airport",
      "updatedAt": "090730Z",
      "visibility_m": 7000,
      "taf_visibility_m": 2000,
      "worst_visibility_m": 2000,
      "ceiling_ft": null,
      "hazards": [
        "BR",
        "SN"
      ],
      "severityScore": 28,
      "metarRaw": "METAR EPMO 090730Z 30007KT 7000 NSC M13/M13 Q1005",
      "tafRaw": "TAF EPMO 090530Z 0906/1006 31008KT 8000 NSC \n  PROB30 0906/0910 4500 -SN BR BKN008 \n  PROB40 0910/0921 BKN014 \n  PROB40 0921/1006 2000 -SG BR BKN003",
      "metarHtml": "METAR EPMO 090730Z 30007KT 7000 NSC M13/M13 Q1005",
      "tafHtml": "TAF EPMO 090530Z 0906/1006 31008KT 8000 NSC \n  PROB30 0906/0910 4500 -<span class=\"hl\">SN</span> <span class=\"hl\">BR</span> BKN008 \n  PROB40 0910/0921 BKN014 \n  PROB40 0921/1006 2000 -SG <span class=\"hl\">BR</span> BKN003"
    },
    {
      "icao": "EPWA",
      "iata": "WAW",
      "name": "Warsaw Chopin Airport",
      "updatedAt": "090730Z",
      "visibility_m": 10000,
      "taf_visibility_m": 2500,
      "worst_visibility_m": 2500,
      "ceiling_ft": null,
      "hazards": [
        "BR",
        "SN"
      ],
      "severityScore": 28,
      "metarRaw": "METAR EPWA 090730Z 29011KT 9999 SCT007 SCT048 M11/M12 Q1004 NOSIG",
      "tafRaw": "TAF EPWA 090530Z 0906/1006 31011KT 9999 BKN008 \n  PROB30 0906/0910 4000 -SN BR \n  BECMG 0907/0910 BKN020 \n  PROB40 0910/0922 BKN014 \n  PROB40 0922/1006 2500 -SG BR BKN003",
      "metarHtml": "METAR EPWA 090730Z 29011KT 9999 SCT007 SCT048 M11/M12 Q1004 NOSIG",
      "tafHtml": "TAF EPWA 090530Z 0906/1006 31011KT 9999 BKN008 \n  PROB30 0906/0910 4000 -<span class=\"hl\">SN</span> <span class=\"hl\">BR</span> \n  BECMG 0907/0910 BKN020 \n  PROB40 0910/0922 BKN014 \n  PROB40 0922/1006 2500 -SG <span class=\"hl\">BR</span> BKN003"
    },
    {
      "icao": "EPWR",
      "iata": "WRO",
      "name": "Copernicus Wrocław Airport",
      "updatedAt": "090730Z",
      "visibility_m": 3500,
      "taf_visibility_m": 3500,
      "worst_visibility_m": 3500,
      "ceiling_ft": null,
      "hazards": [
        "BR",
        "SN"
      ],
      "severityScore": 28,
      "metarRaw": "METAR EPWR 090730Z 11007KT 3500 BR NSC M12/M13 Q1005",
      "tafRaw": "TAF EPWR 090530Z 0906/1006 12003KT 3500 BR NSC \n  BECMG 0906/0908 10013KT 7000 BKN004 \n  BECMG 0908/0911 SCT017 \n  TEMPO 0915/0924 -SN BKN012 \n  TEMPO 1000/1006 4000 -SN BR BKN009",
      "metarHtml": "METAR EPWR 090730Z 11007KT 3500 <span class=\"hl\">BR</span> NSC M12/M13 Q1005",
      "tafHtml": "TAF EPWR 090530Z 0906/1006 12003KT 3500 <span class=\"hl\">BR</span> NSC \n  BECMG 0906/0908 10013KT 7000 BKN004 \n  BECMG 0908/0911 SCT017 \n  TEMPO 0915/0924 -<span class=\"hl\">SN</span> BKN012 \n  TEMPO 1000/1006 4000 -<span class=\"hl\">SN</span> <span class=\"hl\">BR</span> BKN009"
    },
    {
      "icao": "LHBP",
      "iata": "BUD",
      "name": "Budapest Liszt Ferenc International Airport",
      "updatedAt": "090730Z",
      "visibility_m": 4000,
      "taf_visibility_m": 2500,
      "worst_visibility_m": 2500,
      "ceiling_ft": 6000,
      "hazards": [
        "SN",
        "BR"
      ],
      "severityScore": 28,
      "metarRaw": "METAR LHBP 090730Z 08004KT 9000 NSC M11/M12 Q1007 TEMPO FM0800 4000 SN SCT045 BKN060",
      "tafRaw": "TAF LHBP 090515Z 0906/1006 VRB03KT CAVOK \n  BECMG 0908/0911 11007KT -SN SCT030 BKN060 \n  TEMPO 0911/0917 2500 SN BKN012 OVC040 \n  BECMG 0917/0920 04005KT CAVOK \n  TEMPO 0921/1006 VRB02KT 4000 BR BKN004",
      "metarHtml": "METAR LHBP 090730Z 08004KT 9000 NSC M11/M12 Q1007 TEMPO FM0800 4000 <span class=\"hl\">SN</span> SCT045 BKN060",
      "tafHtml": "TAF LHBP 090515Z 0906/1006 VRB03KT <span class=\"hl-vis\">CAVOK</span> \n  BECMG 0908/0911 11007KT -<span class=\"hl\">SN</span> SCT030 BKN060 \n  TEMPO 0911/0917 2500 <span class=\"hl\">SN</span> BKN012 OVC040 \n  BECMG 0917/0920 04005KT <span class=\"hl-vis\">CAVOK</span> \n  TEMPO 0921/1006 VRB02KT 4000 <span class=\"hl\">BR</span> BKN004"
    },
    {
      "icao": "LHDC",
      "iata": "DEB",
      "name": "Debrecen International Airport",
      "updatedAt": "090715Z",
      "visibility_m": 4800,
      "taf_visibility_m": 4000,
      "worst_visibility_m": 4000,
      "ceiling_ft": null,
      "hazards": [
        "BR",
        "SN"
      ],
      "severityScore": 28,
      "metarRaw": "METAR LHDC 090715Z AUTO 17005KT 4800 BR NCD M14/M16 Q1008 NOSIG",
      "tafRaw": "TAF LHDC 090515Z 0906/0915 14005KT CAVOK \n  PROB40 \n  TEMPO 0906/0908 4000 BR \n  BECMG 0906/0909 20008KT \n  BECMG 0912/0915 SCT020 BKN060 \n  TEMPO 0913/0915 -SN",
      "metarHtml": "METAR LHDC 090715Z AUTO 17005KT 4800 <span class=\"hl\">BR</span> NCD M14/M16 Q1008 NOSIG",
      "tafHtml": "TAF LHDC 090515Z 0906/0915 14005KT <span class=\"hl-vis\">CAVOK</span> \n  PROB40 \n  TEMPO 0906/0908 4000 <span class=\"hl\">BR</span> \n  BECMG 0906/0909 20008KT \n  BECMG 0912/0915 SCT020 BKN060 \n  TEMPO 0913/0915 -<span class=\"hl\">SN</span>"
    },
    {
      "icao": "LIMC",
      "iata": "MXP",
      "name": "Milan Malpensa International Airport",
      "updatedAt": "090720Z",
      "visibility_m": 5000,
      "taf_visibility_m": 4000,
      "worst_visibility_m": 4000,
      "ceiling_ft": 3000,
      "hazards": [
        "BR",
        "SN"
      ],
      "severityScore": 28,
      "metarRaw": "METAR LIMC 090720Z 16004KT 130V190 5000 BR BKN030 00/M02 Q1006 NOSIG",
      "tafRaw": "TAF LIMC 090500Z 0906/1012 VRB04KT 9999 BKN025 \n  PROB30 \n  TEMPO 0906/0909 4000 -SN",
      "metarHtml": "METAR LIMC 090720Z 16004KT 130V190 5000 <span class=\"hl\">BR</span> BKN030 00/M02 Q1006 NOSIG",
      "tafHtml": "TAF LIMC 090500Z 0906/1012 VRB04KT 9999 BKN025 \n  PROB30 \n  TEMPO 0906/0909 4000 -<span class=\"hl\">SN</span>"
    },
    {
      "icao": "LRSB",
      "iata": "SBZ",
      "name": "Sibiu International Airport",
      "updatedAt": "090730Z",
      "visibility_m": 10000,
      "taf_visibility_m": 3000,
      "worst_visibility_m": 3000,
      "ceiling_ft": null,
      "hazards": [
        "BR",
        "SN"
      ],
      "severityScore": 28,
      "metarRaw": "METAR LRSB 090730Z 28011KT CAVOK M06/M11 Q1006",
      "tafRaw": "TAF LRSB 090500Z 0906/1006 29012KT 9999 OVC050 \n  BECMG 0908/0910 VRB04KT \n  BECMG 1001/1003 5000 -SN BR BKN010 OVC025 \n  TEMPO 1003/1006 3000 SN BR BKN005 OVC020",
      "metarHtml": "METAR LRSB 090730Z 28011KT <span class=\"hl-vis\">CAVOK</span> M06/M11 Q1006",
      "tafHtml": "TAF LRSB 090500Z 0906/1006 29012KT 9999 OVC050 \n  BECMG 0908/0910 VRB04KT \n  BECMG 1001/1003 5000 -<span class=\"hl\">SN</span> <span class=\"hl\">BR</span> BKN010 OVC025 \n  TEMPO 1003/1006 3000 <span class=\"hl\">SN</span> <span class=\"hl\">BR</span> BKN005 OVC020"
    },
    {
      "icao": "LRSM",
      "iata": "SUJ",
      "name": "Satu Mare International Airport",
      "updatedAt": "090730Z",
      "visibility_m": 10000,
      "taf_visibility_m": 5000,
      "worst_visibility_m": 5000,
      "ceiling_ft": null,
      "hazards": [
        "BR",
        "SN"
      ],
      "severityScore": 28,
      "metarRaw": "METAR LRSM 090730Z 20004KT CAVOK M12/M14 Q1008",
      "tafRaw": "TAF LRSM 090500Z 0906/0915 26010KT 9999 SCT030 \n  PROB30 \n  TEMPO 0906/0909 5000 -SN BR BKN015 OVC025 \n  BECMG 0908/0910 VRB04KT",
      "metarHtml": "METAR LRSM 090730Z 20004KT <span class=\"hl-vis\">CAVOK</span> M12/M14 Q1008",
      "tafHtml": "TAF LRSM 090500Z 0906/0915 26010KT 9999 SCT030 \n  PROB30 \n  TEMPO 0906/0909 5000 -<span class=\"hl\">SN</span> <span class=\"hl\">BR</span> BKN015 OVC025 \n  BECMG 0908/0910 VRB04KT"
    },
    {
      "icao": "LRTM",
      "iata": "TGM",
      "name": "Târgu Mureş Transilvania International Airport",
      "updatedAt": "090730Z",
      "visibility_m": 10000,
      "taf_visibility_m": 5000,
      "worst_visibility_m": 5000,
      "ceiling_ft": 3800,
      "hazards": [
        "BR",
        "SN"
      ],
      "severityScore": 28,
      "metarRaw": "METAR LRTM 090730Z 22005KT 9999 FEW033 BKN038 M06/M09 Q1007",
      "tafRaw": "TAF LRTM 090500Z 0906/0915 23010KT 9999 OVC040 \n  TEMPO 0906/0909 5000 -SN BR \n  BECMG 0912/0914 VRB04KT",
      "metarHtml": "METAR LRTM 090730Z 22005KT 9999 FEW033 BKN038 M06/M09 Q1007",
      "tafHtml": "TAF LRTM 090500Z 0906/0915 23010KT 9999 OVC040 \n  TEMPO 0906/0909 5000 -<span class=\"hl\">SN</span> <span class=\"hl\">BR</span> \n  BECMG 0912/0914 VRB04KT"
    },
    {
      "icao": "LTAC",
      "iata": "ESB",
      "name": "Esenboğa International Airport",
      "updatedAt": "090720Z",
      "visibility_m": 7000,
      "taf_visibility_m": 4000,
      "worst_visibility_m": 4000,
      "ceiling_ft": 8000,
      "hazards": [
        "BR",
        "SN"
      ],
      "severityScore": 28,
      "metarRaw": "METAR LTAC 090720Z 24012KT 7000 FEW015 SCT030 BKN080 01/M01 Q1005 RESN NOSIG RMK RWY21C 23014KT RWY03L 23011KT RWY21R 22013KT RWY03R 23013KT RWY21L 23013KT",
      "tafRaw": "TAF LTAC 090440Z 0906/1006 24012KT 8000 SCT040 BKN100 \n  TEMPO 0906/0909 4000 -SN BR SCT010 BKN030 BKN080 \n  TEMPO 0910/0913 27015G25KT 4000 -SN BR SCT010 BKN025 BKN080 \n  BECMG 0919/0922 VRB02KT",
      "metarHtml": "METAR LTAC 090720Z 24012KT 7000 FEW015 SCT030 BKN080 01/M01 Q1005 RESN NOSIG RMK RWY21C 23014KT RWY03L 23011KT RWY21R 22013KT RWY03R 23013KT RWY21L 23013KT",
      "tafHtml": "TAF LTAC 090440Z 0906/1006 24012KT 8000 SCT040 BKN100 \n  TEMPO 0906/0909 4000 -<span class=\"hl\">SN</span> <span class=\"hl\">BR</span> SCT010 BKN030 BKN080 \n  TEMPO 0910/0913 27015G25KT 4000 -<span class=\"hl\">SN</span> <span class=\"hl\">BR</span> SCT010 BKN025 BKN080 \n  BECMG 0919/0922 VRB02KT"
    },
    {
      "icao": "LZIB",
      "iata": "BTS",
      "name": "M. R. Štefánik Airport",
      "updatedAt": "090730Z",
      "visibility_m": 10000,
      "taf_visibility_m": 1400,
      "worst_visibility_m": 1400,
      "ceiling_ft": null,
      "hazards": [
        "SN"
      ],
      "severityScore": 28,
      "metarRaw": "METAR LZIB 090730Z 06008KT CAVOK M06/M09 Q1005 NOSIG",
      "tafRaw": "TAF LZIB 090515Z 0906/1006 07005KT 9999 SCT023 \n  BECMG 0906/0908 4000 -SN SCT008 OVC015 \n  PROB30 \n  TEMPO 0909/0911 1400 SN BKN005 \n  BECMG 0912/0914 9999 NSW SCT014 BKN018 \n  PROB30 \n  TEMPO 0914/1006 2800 -SN BKN014 \n  TEMPO 0920/1006 BKN008",
      "metarHtml": "METAR LZIB 090730Z 06008KT <span class=\"hl-vis\">CAVOK</span> M06/M09 Q1005 NOSIG",
      "tafHtml": "TAF LZIB 090515Z 0906/1006 07005KT 9999 SCT023 \n  BECMG 0906/0908 4000 -<span class=\"hl\">SN</span> SCT008 OVC015 \n  PROB30 \n  TEMPO 0909/0911 1400 <span class=\"hl\">SN</span> BKN005 \n  BECMG 0912/0914 9999 NSW SCT014 BKN018 \n  PROB30 \n  TEMPO 0914/1006 2800 -<span class=\"hl\">SN</span> BKN014 \n  TEMPO 0920/1006 BKN008"
    },
    {
      "icao": "OJAI",
      "iata": "AMM",
      "name": "Queen Alia International Airport",
      "updatedAt": "090700Z",
      "visibility_m": 900,
      "taf_visibility_m": null,
      "worst_visibility_m": 900,
      "ceiling_ft": 2000,
      "hazards": [
        "RA"
      ],
      "severityScore": 27,
      "metarRaw": "METAR OJAI 090700Z COR 26015KT 0900 RA FEW010 BKN020 11/10 Q1015 NOSIG",
      "tafRaw": null,
      "metarHtml": "METAR OJAI 090700Z COR 26015KT 0900 <span class=\"hl\">RA</span> FEW010 BKN020 11/10 Q1015 NOSIG",
      "tafHtml": null
    },
    {
      "icao": "EGGP",
      "iata": "LPL",
      "name": "Liverpool John Lennon Airport",
      "updatedAt": "090720Z",
      "visibility_m": 10000,
      "taf_visibility_m": 4000,
      "worst_visibility_m": 4000,
      "ceiling_ft": 3500,
      "hazards": [
        "RA",
        "SHRA"
      ],
      "severityScore": 26,
      "metarRaw": "METAR EGGP 090720Z 33010KT 9999 SCT029 BKN035 04/00 Q0996",
      "tafRaw": "TAF EGGP 090453Z 0906/1006 34012KT 9999 SCT016 \n  TEMPO 0906/0909 6000 RA BKN012 \n  PROB40 \n  TEMPO 0906/0909 34015G25KT \n  TEMPO 0909/0914 7000 SHRA BKN012 \n  PROB30 \n  TEMPO 0909/0914 4000 RADZ BKN004 \n  PROB30 \n  TEMPO 0914/0919 7000 SHRA \n  BECMG 0923/1002 VRB03KT",
      "metarHtml": "METAR EGGP 090720Z 33010KT 9999 SCT029 BKN035 04/00 Q0996",
      "tafHtml": "TAF EGGP 090453Z 0906/1006 34012KT 9999 SCT016 \n  TEMPO 0906/0909 6000 <span class=\"hl\">RA</span> BKN012 \n  PROB40 \n  TEMPO 0906/0909 34015G25KT \n  TEMPO 0909/0914 7000 <span class=\"hl\">SHRA</span> BKN012 \n  PROB30 \n  TEMPO 0909/0914 4000 RADZ BKN004 \n  PROB30 \n  TEMPO 0914/0919 7000 <span class=\"hl\">SHRA</span> \n  BECMG 0923/1002 VRB03KT"
    },
    {
      "icao": "EGPF",
      "iata": "GLA",
      "name": "Glasgow Airport",
      "updatedAt": "090720Z",
      "visibility_m": 10000,
      "taf_visibility_m": 3000,
      "worst_visibility_m": 3000,
      "ceiling_ft": null,
      "hazards": [
        "RA",
        "SHRA"
      ],
      "severityScore": 26,
      "metarRaw": "METAR EGPF 090720Z AUTO 23003KT 9999 NCD M01/M02 Q1000",
      "tafRaw": "TAF EGPF 090504Z 0906/1006 VRB03KT 9999 SCT025 \n  TEMPO 0906/1002 6000 RA SHRA BKN009 \n  PROB30 \n  TEMPO 0906/1002 3000 SHRASN BKN004 \n  PROB30 1002/1006 8000",
      "metarHtml": "METAR EGPF 090720Z AUTO 23003KT 9999 NCD M01/M02 Q1000",
      "tafHtml": "TAF EGPF 090504Z 0906/1006 VRB03KT 9999 SCT025 \n  TEMPO 0906/1002 6000 <span class=\"hl\">RA</span> <span class=\"hl\">SHRA</span> BKN009 \n  PROB30 \n  TEMPO 0906/1002 3000 SHRASN BKN004 \n  PROB30 1002/1006 8000"
    },
    {
      "icao": "LEXJ",
      "iata": "SDR",
      "name": "Seve Ballesteros-Santander Airport",
      "updatedAt": "090730Z",
      "visibility_m": 10000,
      "taf_visibility_m": 3000,
      "worst_visibility_m": 3000,
      "ceiling_ft": null,
      "hazards": [
        "RA",
        "SHRA"
      ],
      "severityScore": 26,
      "metarRaw": "METAR LEXJ 090730Z 29024KT 240V320 9999 FEW060 12/05 Q1016",
      "tafRaw": "TAF LEXJ 090200Z 0903/1003 24009KT 9999 SCT025 TX12/0913Z TN07/0921Z \n  PROB40 \n  TEMPO 0903/0906 28015G25KT \n  TEMPO 0906/1003 28018G33KT \n  TEMPO 0908/0918 28028G43KT \n  PROB40 \n  TEMPO 0909/1003 3000 RA BKN010 \n  TEMPO 0910/0922 3000 SHRA BKN010 SCT025TCU",
      "metarHtml": "METAR LEXJ 090730Z 29024KT 240V320 9999 FEW060 12/05 Q1016",
      "tafHtml": "TAF LEXJ 090200Z 0903/1003 24009KT 9999 SCT025 TX12/0913Z TN07/0921Z \n  PROB40 \n  TEMPO 0903/0906 28015G25KT \n  TEMPO 0906/1003 28018G33KT \n  TEMPO 0908/0918 28028G43KT \n  PROB40 \n  TEMPO 0909/1003 3000 <span class=\"hl\">RA</span> BKN010 \n  TEMPO 0910/0922 3000 <span class=\"hl\">SHRA</span> BKN010 SCT025TCU"
    },
    {
      "icao": "LFLL",
      "iata": "LYS",
      "name": "Lyon Saint-Exupéry Airport",
      "updatedAt": "090730Z",
      "visibility_m": 10000,
      "taf_visibility_m": 3000,
      "worst_visibility_m": 3000,
      "ceiling_ft": null,
      "hazards": [
        "RA",
        "SHRA"
      ],
      "severityScore": 26,
      "metarRaw": "METAR LFLL 090730Z 22015KT CAVOK 08/02 Q1005 NOSIG",
      "tafRaw": "TAF LFLL 090500Z 0906/1012 22012KT 9999 BKN045 \n  PROB30 \n  TEMPO 0906/0910 4000 RA SCT030TCU \n  PROB30 \n  TEMPO 0914/0924 32010KT 3000 SHRA BKN025TCU \n  BECMG 1005/1007 29010KT \n  PROB30 \n  TEMPO 1007/1012 4000 -SHRASN",
      "metarHtml": "METAR LFLL 090730Z 22015KT <span class=\"hl-vis\">CAVOK</span> 08/02 Q1005 NOSIG",
      "tafHtml": "TAF LFLL 090500Z 0906/1012 22012KT 9999 BKN045 \n  PROB30 \n  TEMPO 0906/0910 4000 <span class=\"hl\">RA</span> SCT030TCU \n  PROB30 \n  TEMPO 0914/0924 32010KT 3000 <span class=\"hl\">SHRA</span> BKN025TCU \n  BECMG 1005/1007 29010KT \n  PROB30 \n  TEMPO 1007/1012 4000 -SHRASN"
    },
    {
      "icao": "ENGM",
      "iata": "OSL",
      "name": "Oslo-Gardermoen International Airport",
      "updatedAt": "090720Z",
      "visibility_m": 4000,
      "taf_visibility_m": null,
      "worst_visibility_m": 4000,
      "ceiling_ft": 4000,
      "hazards": [
        "SN"
      ],
      "severityScore": 23,
      "metarRaw": "METAR ENGM 090720Z 02004KT 9999 -SN FEW012 OVC040 M08/M10 Q1016 TEMPO 4000",
      "tafRaw": null,
      "metarHtml": "METAR ENGM 090720Z 02004KT 9999 -<span class=\"hl\">SN</span> FEW012 OVC040 M08/M10 Q1016 TEMPO 4000",
      "tafHtml": null
    },
    {
      "icao": "BKPR",
      "iata": "PRN",
      "name": "Priština Adem Jashari International Airport",
      "updatedAt": "090730Z",
      "visibility_m": 10000,
      "taf_visibility_m": 4000,
      "worst_visibility_m": 4000,
      "ceiling_ft": null,
      "hazards": [
        "BR",
        "RA"
      ],
      "severityScore": 22,
      "metarRaw": "METAR BKPR 090730Z 22003KT CAVOK M07/M08 Q1011 NOSIG",
      "tafRaw": "TAF BKPR 090530Z 0906/1006 VRB05KT 9999 SCT080 \n  BECMG 0907/0909 22012KT \n  TEMPO 0911/0917 22015G25KT \n  TEMPO 0920/1006 4000 -RA BR BKN012",
      "metarHtml": "METAR BKPR 090730Z 22003KT <span class=\"hl-vis\">CAVOK</span> M07/M08 Q1011 NOSIG",
      "tafHtml": "TAF BKPR 090530Z 0906/1006 VRB05KT 9999 SCT080 \n  BECMG 0907/0909 22012KT \n  TEMPO 0911/0917 22015G25KT \n  TEMPO 0920/1006 4000 -<span class=\"hl\">RA</span> <span class=\"hl\">BR</span> BKN012"
    },
    {
      "icao": "LIPE",
      "iata": "BLQ",
      "name": "Bologna Guglielmo Marconi Airport",
      "updatedAt": "090720Z",
      "visibility_m": 10000,
      "taf_visibility_m": 2000,
      "worst_visibility_m": 2000,
      "ceiling_ft": 1600,
      "hazards": [
        "BR"
      ],
      "severityScore": 22,
      "metarRaw": "METAR LIPE 090720Z 34003KT 310V020 9999 BKN016 M01/M02 Q1006",
      "tafRaw": "TAF LIPE 090500Z 0906/1006 VRB05KT 9999 BKN020 \n  TEMPO 0921/1006 2000 BR",
      "metarHtml": "METAR LIPE 090720Z 34003KT 310V020 9999 BKN016 M01/M02 Q1006",
      "tafHtml": "TAF LIPE 090500Z 0906/1006 VRB05KT 9999 BKN020 \n  TEMPO 0921/1006 2000 <span class=\"hl\">BR</span>"
    },
    {
      "icao": "LIPQ",
      "iata": "TRS",
      "name": "Trieste–Friuli Venezia Giulia Airport",
      "updatedAt": "090720Z",
      "visibility_m": 10000,
      "taf_visibility_m": 2000,
      "worst_visibility_m": 2000,
      "ceiling_ft": null,
      "hazards": [
        "BR",
        "RA"
      ],
      "severityScore": 22,
      "metarRaw": "METAR LIPQ 090720Z AUTO 02003KT 9999 OVC018/// 02/M02 Q1006",
      "tafRaw": "TAF LIPQ 090500Z 0906/1006 VRB05KT 9999 BKN030 \n  PROB30 \n  TEMPO 0906/0914 RA \n  TEMPO 0916/0924 2000 BR",
      "metarHtml": "METAR LIPQ 090720Z AUTO 02003KT 9999 OVC018/// 02/M02 Q1006",
      "tafHtml": "TAF LIPQ 090500Z 0906/1006 VRB05KT 9999 BKN030 \n  PROB30 \n  TEMPO 0906/0914 <span class=\"hl\">RA</span> \n  TEMPO 0916/0924 2000 <span class=\"hl\">BR</span>"
    },
    {
      "icao": "EGPD",
      "iata": "ABZ",
      "name": "Aberdeen International Airport",
      "updatedAt": "090720Z",
      "visibility_m": 7000,
      "taf_visibility_m": 1500,
      "worst_visibility_m": 1500,
      "ceiling_ft": null,
      "hazards": [
        "SHSN"
      ],
      "severityScore": 20,
      "metarRaw": "METAR EGPD 090720Z AUTO 36003KT 330V040 7000 -RASN FEW014/// BKN019/// BKN028/// //////CB M04/M05 Q1000",
      "tafRaw": "TAF EGPD 090455Z 0906/1006 VRB03KT 9999 FEW009 \n  TEMPO 0906/0915 4000 -SHSN BKN009 \n  PROB40 \n  TEMPO 0906/0910 2000 SHSN BKN004 \n  BECMG 0909/0912 12010KT \n  PROB40 \n  TEMPO 0912/0924 SHRASN BKN006 \n  TEMPO 0915/1006 6000 -SHRASN BKN014 \n  PROB30 \n  TEMPO 0921/1001 13015G25KT \n  PROB40 \n  TEMPO 1000/1006 1500 SHSN BKN004",
      "metarHtml": "METAR EGPD 090720Z AUTO 36003KT 330V040 7000 -RASN FEW014/// BKN019/// BKN028/// //////CB M04/M05 Q1000",
      "tafHtml": "TAF EGPD 090455Z 0906/1006 VRB03KT 9999 FEW009 \n  TEMPO 0906/0915 4000 -<span class=\"hl\">SHSN</span> BKN009 \n  PROB40 \n  TEMPO 0906/0910 2000 <span class=\"hl\">SHSN</span> BKN004 \n  BECMG 0909/0912 12010KT \n  PROB40 \n  TEMPO 0912/0924 SHRASN BKN006 \n  TEMPO 0915/1006 6000 -SHRASN BKN014 \n  PROB30 \n  TEMPO 0921/1001 13015G25KT \n  PROB40 \n  TEMPO 1000/1006 1500 <span class=\"hl\">SHSN</span> BKN004"
    },
    {
      "icao": "OMDB",
      "iata": "DXB",
      "name": "Dubai International Airport",
      "updatedAt": "090730Z",
      "visibility_m": 10000,
      "taf_visibility_m": 1500,
      "worst_visibility_m": 1500,
      "ceiling_ft": null,
      "hazards": [
        "BR"
      ],
      "severityScore": 20,
      "metarRaw": "METAR OMDB 090730Z 07005KT 360V110 9999 FEW045 23/10 Q1020 NOSIG",
      "tafRaw": "TAF OMDB 090500Z 0906/1012 06005KT 8000 NSC \n  BECMG 0909/0911 34010KT \n  BECMG 0915/0917 06005KT \n  PROB30 1001/1006 1500 BR BKN003 \n  BECMG 1009/1011 28010KT",
      "metarHtml": "METAR OMDB 090730Z 07005KT 360V110 9999 FEW045 23/10 Q1020 NOSIG",
      "tafHtml": "TAF OMDB 090500Z 0906/1012 06005KT 8000 NSC \n  BECMG 0909/0911 34010KT \n  BECMG 0915/0917 06005KT \n  PROB30 1001/1006 1500 <span class=\"hl\">BR</span> BKN003 \n  BECMG 1009/1011 28010KT"
    },
    {
      "icao": "EFTU",
      "iata": "TKU",
      "name": "Turku Airport",
      "updatedAt": "090720Z",
      "visibility_m": 10000,
      "taf_visibility_m": 6000,
      "worst_visibility_m": 6000,
      "ceiling_ft": null,
      "hazards": [
        "SN"
      ],
      "severityScore": 18,
      "metarRaw": "METAR EFTU 090720Z AUTO 08009KT CAVOK M14/M16 Q1024",
      "tafRaw": "TAF EFTU 090528Z 0906/1006 08006KT 9999 BKN025 \n  PROB30 0906/0910 6000 -SN BKN006 \n  BECMG 0920/0922 02010KT",
      "metarHtml": "METAR EFTU 090720Z AUTO 08009KT <span class=\"hl-vis\">CAVOK</span> M14/M16 Q1024",
      "tafHtml": "TAF EFTU 090528Z 0906/1006 08006KT 9999 BKN025 \n  PROB30 0906/0910 6000 -<span class=\"hl\">SN</span> BKN006 \n  BECMG 0920/0922 02010KT"
    },
    {
      "icao": "EKBI",
      "iata": "BLL",
      "name": "Billund Airport",
      "updatedAt": "090720Z",
      "visibility_m": 10000,
      "taf_visibility_m": 9000,
      "worst_visibility_m": 9000,
      "ceiling_ft": null,
      "hazards": [
        "SN"
      ],
      "severityScore": 18,
      "metarRaw": "METAR EKBI 090720Z AUTO 09020G32KT 9999 -SN SCT022/// BKN210/// BKN240/// M02/M05 Q1003",
      "tafRaw": "TAF EKBI 090527Z 0906/1006 09018KT 9000 BKN012 \n  BECMG 0906/0908 09022G36KT FEW020 \n  TEMPO 0906/0924 DRSN \n  BECMG 1000/1002 07012KT \n  TEMPO 1002/1005 07015G25KT DRSN",
      "metarHtml": "METAR EKBI 090720Z AUTO 09020G32KT 9999 -<span class=\"hl\">SN</span> SCT022/// BKN210/// BKN240/// M02/M05 Q1003",
      "tafHtml": "TAF EKBI 090527Z 0906/1006 09018KT 9000 BKN012 \n  BECMG 0906/0908 09022G36KT FEW020 \n  TEMPO 0906/0924 DRSN \n  BECMG 1000/1002 07012KT \n  TEMPO 1002/1005 07015G25KT DRSN"
    },
    {
      "icao": "ENTO",
      "iata": "TRF",
      "name": "Sandefjord Airport, Torp",
      "updatedAt": "090720Z",
      "visibility_m": 10000,
      "taf_visibility_m": 10000,
      "worst_visibility_m": 10000,
      "ceiling_ft": 4200,
      "hazards": [
        "SN"
      ],
      "severityScore": 18,
      "metarRaw": "METAR ENTO 090720Z 01008KT 9999 FEW018 OVC042 M07/M08 Q1015 NOSIG",
      "tafRaw": "TAF ENTO 090500Z 0906/1006 03010KT 9999 -SN SCT012 BKN020 \n  TEMPO 0906/0918 BKN012",
      "metarHtml": "METAR ENTO 090720Z 01008KT 9999 FEW018 OVC042 M07/M08 Q1015 NOSIG",
      "tafHtml": "TAF ENTO 090500Z 0906/1006 03010KT 9999 -<span class=\"hl\">SN</span> SCT012 BKN020 \n  TEMPO 0906/0918 BKN012"
    },
    {
      "icao": "LBSF",
      "iata": "SOF",
      "name": "Sofia Airport",
      "updatedAt": "090730Z",
      "visibility_m": 10000,
      "taf_visibility_m": 3000,
      "worst_visibility_m": 3000,
      "ceiling_ft": null,
      "hazards": [
        "SN"
      ],
      "severityScore": 18,
      "metarRaw": "METAR LBSF 090730Z VRB05KT CAVOK M05/M09 Q1010 NOSIG",
      "tafRaw": "TAF LBSF 090500Z 0906/1006 VRB04KT 9999 SCT030 \n  TEMPO 0917/0923 5000 SN BKN020 OVC030 \n  TEMPO 1000/1004 3000 SN BKN015 OVC030",
      "metarHtml": "METAR LBSF 090730Z VRB05KT <span class=\"hl-vis\">CAVOK</span> M05/M09 Q1010 NOSIG",
      "tafHtml": "TAF LBSF 090500Z 0906/1006 VRB04KT 9999 SCT030 \n  TEMPO 0917/0923 5000 <span class=\"hl\">SN</span> BKN020 OVC030 \n  TEMPO 1000/1004 3000 <span class=\"hl\">SN</span> BKN015 OVC030"
    },
    {
      "icao": "LIME",
      "iata": "BGY",
      "name": "Milan Bergamo Airport / Antonio Locatelli Air Base",
      "updatedAt": "090720Z",
      "visibility_m": 10000,
      "taf_visibility_m": 4000,
      "worst_visibility_m": 4000,
      "ceiling_ft": 3000,
      "hazards": [
        "SN"
      ],
      "severityScore": 18,
      "metarRaw": "METAR LIME 090720Z 28006KT 9999 BKN030 00/M06 Q1006 NOSIG",
      "tafRaw": "TAF LIME 090500Z 0906/1006 VRB04KT 9999 SCT050 \n  PROB40 \n  TEMPO 0906/0910 4000 -SN BKN010",
      "metarHtml": "METAR LIME 090720Z 28006KT 9999 BKN030 00/M06 Q1006 NOSIG",
      "tafHtml": "TAF LIME 090500Z 0906/1006 VRB04KT 9999 SCT050 \n  PROB40 \n  TEMPO 0906/0910 4000 -<span class=\"hl\">SN</span> BKN010"
    },
    {
      "icao": "LEZL",
      "iata": "SVQ",
      "name": "Sevilla Airport",
      "updatedAt": "090730Z",
      "visibility_m": 9000,
      "taf_visibility_m": null,
      "worst_visibility_m": 9000,
      "ceiling_ft": 1000,
      "hazards": [],
      "severityScore": 17,
      "metarRaw": "METAR LEZL 090730Z VRB02KT 9000 OVC010 10/09 Q1030 NOSIG",
      "tafRaw": null,
      "metarHtml": "METAR LEZL 090730Z VRB02KT 9000 OVC010 10/09 Q1030 NOSIG",
      "tafHtml": null
    },
    {
      "icao": "LRTR",
      "iata": "TSR",
      "name": "Timişoara Traian Vuia Airport",
      "updatedAt": "090730Z",
      "visibility_m": 5000,
      "taf_visibility_m": null,
      "worst_visibility_m": 5000,
      "ceiling_ft": null,
      "hazards": [
        "BR"
      ],
      "severityScore": 15,
      "metarRaw": "METAR LRTR 090730Z 09003KT 5000 BR NSC M15/M16 Q1009 NOSIG",
      "tafRaw": null,
      "metarHtml": "METAR LRTR 090730Z 09003KT 5000 <span class=\"hl\">BR</span> NSC M15/M16 Q1009 NOSIG",
      "tafHtml": null
    },
    {
      "icao": "EDJA",
      "iata": "FMM",
      "name": "Memmingen Allgau Airport",
      "updatedAt": "090720Z",
      "visibility_m": 10000,
      "taf_visibility_m": 10000,
      "worst_visibility_m": 10000,
      "ceiling_ft": 2300,
      "hazards": [
        "SHRA"
      ],
      "severityScore": 14,
      "metarRaw": "METAR EDJA 090720Z 24021G32KT 9999 SCT013 BKN023 04/02 Q0997",
      "tafRaw": "TAF EDJA 090500Z 0906/0915 23015G25KT 9999 SCT020 BKN035 \n  TEMPO 0906/0907 SHRA SCT020TCU \n  TEMPO 0906/0915 23025G35KT",
      "metarHtml": "METAR EDJA 090720Z 24021G32KT 9999 SCT013 BKN023 04/02 Q0997",
      "tafHtml": "TAF EDJA 090500Z 0906/0915 23015G25KT 9999 SCT020 BKN035 \n  TEMPO 0906/0907 <span class=\"hl\">SHRA</span> SCT020TCU \n  TEMPO 0906/0915 23025G35KT"
    },
    {
      "icao": "EDSB",
      "iata": "FKB",
      "name": "Karlsruhe Baden-Baden Airport",
      "updatedAt": "090720Z",
      "visibility_m": 10000,
      "taf_visibility_m": 4000,
      "worst_visibility_m": 4000,
      "ceiling_ft": null,
      "hazards": [
        "SHRA"
      ],
      "severityScore": 14,
      "metarRaw": "METAR EDSB 090720Z 20016KT 9999 FEW049 07/03 Q0995",
      "tafRaw": "TAF EDSB 090500Z 0906/1006 20020G30KT 9999 SCT030 \n  TEMPO 0910/0920 22030G40KT SHRA BKN030CB \n  BECMG 0917/0920 20015G25KT \n  PROB30 \n  TEMPO 1002/1006 4000 RADZ BKN010",
      "metarHtml": "METAR EDSB 090720Z 20016KT 9999 FEW049 07/03 Q0995",
      "tafHtml": "TAF EDSB 090500Z 0906/1006 20020G30KT 9999 SCT030 \n  TEMPO 0910/0920 22030G40KT <span class=\"hl\">SHRA</span> BKN030CB \n  BECMG 0917/0920 20015G25KT \n  PROB30 \n  TEMPO 1002/1006 4000 RADZ BKN010"
    },
    {
      "icao": "LFPO",
      "iata": "ORY",
      "name": "Paris-Orly Airport",
      "updatedAt": "090730Z",
      "visibility_m": 10000,
      "taf_visibility_m": 4000,
      "worst_visibility_m": 4000,
      "ceiling_ft": 2700,
      "hazards": [
        "SHRA"
      ],
      "severityScore": 14,
      "metarRaw": "METAR LFPO 090730Z 25022KT 9999 BKN027 07/02 Q0992 NOSIG",
      "tafRaw": "TAF LFPO 090500Z 0906/1012 24025G40KT 9999 BKN030 \n  PROB30 \n  TEMPO 0906/0908 24030G50KT \n  PROB40 \n  TEMPO 0906/0922 4000 SHRA BKN030TCU \n  BECMG 0911/0914 27015G30KT \n  BECMG 0917/0920 27015KT \n  BECMG 1000/1003 27010KT",
      "metarHtml": "METAR LFPO 090730Z 25022KT 9999 BKN027 07/02 Q0992 NOSIG",
      "tafHtml": "TAF LFPO 090500Z 0906/1012 24025G40KT 9999 BKN030 \n  PROB30 \n  TEMPO 0906/0908 24030G50KT \n  PROB40 \n  TEMPO 0906/0922 4000 <span class=\"hl\">SHRA</span> BKN030TCU \n  BECMG 0911/0914 27015G30KT \n  BECMG 0917/0920 27015KT \n  BECMG 1000/1003 27010KT"
    },
    {
      "icao": "LIBD",
      "iata": "BRI",
      "name": "Bari Karol Wojtyła International Airport",
      "updatedAt": "090720Z",
      "visibility_m": 10000,
      "taf_visibility_m": 4000,
      "worst_visibility_m": 4000,
      "ceiling_ft": null,
      "hazards": [
        "SHRA"
      ],
      "severityScore": 14,
      "metarRaw": "METAR LIBD 090720Z 18003KT 9999 FEW045 07/05 Q1010",
      "tafRaw": "TAF LIBD 090500Z 0906/1006 17008KT 9999 FEW020 \n  BECMG 0908/0910 23015KT \n  TEMPO 1000/1006 4000 SHRA",
      "metarHtml": "METAR LIBD 090720Z 18003KT 9999 FEW045 07/05 Q1010",
      "tafHtml": "TAF LIBD 090500Z 0906/1006 17008KT 9999 FEW020 \n  BECMG 0908/0910 23015KT \n  TEMPO 1000/1006 4000 <span class=\"hl\">SHRA</span>"
    },
    {
      "icao": "LICC",
      "iata": "CTA",
      "name": "Catania-Fontanarossa Airport",
      "updatedAt": "090720Z",
      "visibility_m": 10000,
      "taf_visibility_m": 10000,
      "worst_visibility_m": 10000,
      "ceiling_ft": 6000,
      "hazards": [
        "SHRA"
      ],
      "severityScore": 14,
      "metarRaw": "METAR LICC 090720Z 24013KT 9999 BKN060 14/10 Q1018",
      "tafRaw": "TAF LICC 090500Z 0906/1006 26013KT 9999 FEW050 \n  TEMPO 0909/0918 26018G30KT \n  PROB40 \n  TEMPO 1000/1006 SHRA \n  BECMG 1004/1006 26018G30KT",
      "metarHtml": "METAR LICC 090720Z 24013KT 9999 BKN060 14/10 Q1018",
      "tafHtml": "TAF LICC 090500Z 0906/1006 26013KT 9999 FEW050 \n  TEMPO 0909/0918 26018G30KT \n  PROB40 \n  TEMPO 1000/1006 <span class=\"hl\">SHRA</span> \n  BECMG 1004/1006 26018G30KT"
    },
    {
      "icao": "LIPY",
      "iata": "AOI",
      "name": "Marche Airport",
      "updatedAt": "090720Z",
      "visibility_m": 10000,
      "taf_visibility_m": 4000,
      "worst_visibility_m": 4000,
      "ceiling_ft": null,
      "hazards": [
        "SHRA"
      ],
      "severityScore": 14,
      "metarRaw": "METAR LIPY 090720Z AUTO /////KT 9999 BKN059/// BKN140/// BKN190/// ///// Q////",
      "tafRaw": "TAF LIPY 090500Z 0906/1006 VRB05KT 9999 SCT035 \n  BECMG 0910/0912 24015KT \n  TEMPO 0915/0918 24015G25KT \n  BECMG 1000/1002 32015KT \n  TEMPO 1000/1006 4000 SHRA",
      "metarHtml": "METAR LIPY 090720Z AUTO /////KT 9999 BKN059/// BKN140/// BKN190/// ///// Q////",
      "tafHtml": "TAF LIPY 090500Z 0906/1006 VRB05KT 9999 SCT035 \n  BECMG 0910/0912 24015KT \n  TEMPO 0915/0918 24015G25KT \n  BECMG 1000/1002 32015KT \n  TEMPO 1000/1006 4000 <span class=\"hl\">SHRA</span>"
    },
    {
      "icao": "LPPR",
      "iata": "OPO",
      "name": "Francisco de Sá Carneiro Airport",
      "updatedAt": "090730Z",
      "visibility_m": 10000,
      "taf_visibility_m": 8000,
      "worst_visibility_m": 8000,
      "ceiling_ft": null,
      "hazards": [
        "SHRA"
      ],
      "severityScore": 14,
      "metarRaw": "METAR LPPR 090730Z 29005KT 250V350 9999 VCSH SCT018 FEW020TCU SCT040 12/10 Q1026",
      "tafRaw": "TAF LPPR 090500Z 0906/1006 30010KT 9999 FEW020 \n  PROB30 \n  TEMPO 0906/0915 8000 SHRA SCT012 FEW018TCU BKN030 \n  BECMG 0916/0918 33007KT \n  BECMG 0921/0923 VRB02KT BKN020",
      "metarHtml": "METAR LPPR 090730Z 29005KT 250V350 9999 VCSH SCT018 FEW020TCU SCT040 12/10 Q1026",
      "tafHtml": "TAF LPPR 090500Z 0906/1006 30010KT 9999 FEW020 \n  PROB30 \n  TEMPO 0906/0915 8000 <span class=\"hl\">SHRA</span> SCT012 FEW018TCU BKN030 \n  BECMG 0916/0918 33007KT \n  BECMG 0921/0923 VRB02KT BKN020"
    },
    {
      "icao": "LTFM",
      "iata": "IST",
      "name": "İstanbul Airport",
      "updatedAt": "090720Z",
      "visibility_m": 10000,
      "taf_visibility_m": 10000,
      "worst_visibility_m": 10000,
      "ceiling_ft": null,
      "hazards": [
        "SHRA"
      ],
      "severityScore": 14,
      "metarRaw": "METAR LTFM 090720Z 25011KT 9999 FEW040 00/M07 Q1011 NOSIG RMK RWY17L 25009KT RWY34L 24010KT RWY16R 25006KT 220V290 RWY36 26012KT RWY18 26012KT",
      "tafRaw": "TAF LTFM 090440Z 0906/1012 26008KT 9999 FEW040 \n  BECMG 0906/0909 26015G25KT CAVOK \n  BECMG 0914/0917 20014KT SCT035 BKN080 \n  BECMG 0918/0921 19019G29KT \n  BECMG 1005/1008 21028G39KT BKN028 BKN080 \n  PROB40 \n  TEMPO 1009/1012 -SHRA FEW017TCU BKN025",
      "metarHtml": "METAR LTFM 090720Z 25011KT 9999 FEW040 00/M07 Q1011 NOSIG RMK RWY17L 25009KT RWY34L 24010KT RWY16R 25006KT 220V290 RWY36 26012KT RWY18 26012KT",
      "tafHtml": "TAF LTFM 090440Z 0906/1012 26008KT 9999 FEW040 \n  BECMG 0906/0909 26015G25KT <span class=\"hl-vis\">CAVOK</span> \n  BECMG 0914/0917 20014KT SCT035 BKN080 \n  BECMG 0918/0921 19019G29KT \n  BECMG 1005/1008 21028G39KT BKN028 BKN080 \n  PROB40 \n  TEMPO 1009/1012 -<span class=\"hl\">SHRA</span> FEW017TCU BKN025"
    },
    {
      "icao": "UGKO",
      "iata": "KUT",
      "name": "David the Builder Kutaisi International Airport",
      "updatedAt": "090730Z",
      "visibility_m": 10000,
      "taf_visibility_m": 3000,
      "worst_visibility_m": 3000,
      "ceiling_ft": 7800,
      "hazards": [
        "SHRA"
      ],
      "severityScore": 14,
      "metarRaw": "METAR UGKO 090730Z VRB02KT 9999 BKN078 12/06 Q1002 NOSIG",
      "tafRaw": "TAF UGKO 090500Z 0906/1006 08010KT 9999 BKN050 TX12/0906Z TN04/1003Z \n  BECMG 0908/0911 26010KT \n  TEMPO 0908/0914 26020KT 4000 SHRA BKN020CB OVC050 \n  TEMPO 0916/0920 VRB02KT \n  TEMPO 0922/1006 26020KT 3000 SHRA BKN017CB OVC040",
      "metarHtml": "METAR UGKO 090730Z VRB02KT 9999 BKN078 12/06 Q1002 NOSIG",
      "tafHtml": "TAF UGKO 090500Z 0906/1006 08010KT 9999 BKN050 TX12/0906Z TN04/1003Z \n  BECMG 0908/0911 26010KT \n  TEMPO 0908/0914 26020KT 4000 <span class=\"hl\">SHRA</span> BKN020CB OVC050 \n  TEMPO 0916/0920 VRB02KT \n  TEMPO 0922/1006 26020KT 3000 <span class=\"hl\">SHRA</span> BKN017CB OVC040"
    },
    {
      "icao": "EDDN",
      "iata": "NUE",
      "name": "Nuremberg Airport",
      "updatedAt": "090720Z",
      "visibility_m": 10000,
      "taf_visibility_m": 2500,
      "worst_visibility_m": 2500,
      "ceiling_ft": null,
      "hazards": [
        "RA"
      ],
      "severityScore": 12,
      "metarRaw": "METAR EDDN 090720Z AUTO 13006KT 9999 FEW039 02/01 Q0995 NOSIG",
      "tafRaw": "TAF EDDN 090500Z 0906/1006 13010KT 9999 FEW015 BKN025 \n  BECMG 0909/0912 19010KT \n  PROB40 \n  TEMPO 0918/1002 4500 RA BKN012 \n  TEMPO 1002/1006 2500 RASN BKN008",
      "metarHtml": "METAR EDDN 090720Z AUTO 13006KT 9999 FEW039 02/01 Q0995 NOSIG",
      "tafHtml": "TAF EDDN 090500Z 0906/1006 13010KT 9999 FEW015 BKN025 \n  BECMG 0909/0912 19010KT \n  PROB40 \n  TEMPO 0918/1002 4500 <span class=\"hl\">RA</span> BKN012 \n  TEMPO 1002/1006 2500 RASN BKN008"
    },
    {
      "icao": "EGNM",
      "iata": "LBA",
      "name": "Leeds Bradford Airport",
      "updatedAt": "090720Z",
      "visibility_m": 10000,
      "taf_visibility_m": 4000,
      "worst_visibility_m": 4000,
      "ceiling_ft": 3500,
      "hazards": [
        "RA"
      ],
      "severityScore": 12,
      "metarRaw": "METAR EGNM 090720Z 34012KT 9999 FEW020 BKN035 02/01 Q0994",
      "tafRaw": "TAF EGNM 090455Z 0906/1006 01012KT 9999 BKN018 \n  TEMPO 0906/0910 02015G25KT 6000 RA -RADZ BKN010 \n  PROB30 \n  TEMPO 0906/0910 4000 RADZ RASN BKN004 \n  PROB30 \n  TEMPO 0910/0917 4000 SHRASN BKN006 \n  PROB30 1003/1006 7000",
      "metarHtml": "METAR EGNM 090720Z 34012KT 9999 FEW020 BKN035 02/01 Q0994",
      "tafHtml": "TAF EGNM 090455Z 0906/1006 01012KT 9999 BKN018 \n  TEMPO 0906/0910 02015G25KT 6000 <span class=\"hl\">RA</span> -RADZ BKN010 \n  PROB30 \n  TEMPO 0906/0910 4000 RADZ RASN BKN004 \n  PROB30 \n  TEMPO 0910/0917 4000 SHRASN BKN006 \n  PROB30 1003/1006 7000"
    },
    {
      "icao": "HESX",
      "iata": "SPX",
      "name": "Sphinx International Airport",
      "updatedAt": "090700Z",
      "visibility_m": 10000,
      "taf_visibility_m": 4000,
      "worst_visibility_m": 4000,
      "ceiling_ft": null,
      "hazards": [
        "RA"
      ],
      "severityScore": 12,
      "metarRaw": "METAR HESX 090700Z 30012KT CAVOK 15/08 Q1018 NOSIG",
      "tafRaw": "TAF HESX 090500Z 0906/1012 27015KT 6000 SCT025 \n  TEMPO 0906/0910 29015G25KT 5000 RA SA SCT020 BKN022 \n  PROB40 \n  TEMPO 0910/0916 27020G30KT 4000 SA",
      "metarHtml": "METAR HESX 090700Z 30012KT <span class=\"hl-vis\">CAVOK</span> 15/08 Q1018 NOSIG",
      "tafHtml": "TAF HESX 090500Z 0906/1012 27015KT 6000 SCT025 \n  TEMPO 0906/0910 29015G25KT 5000 <span class=\"hl\">RA</span> SA SCT020 BKN022 \n  PROB40 \n  TEMPO 0910/0916 27020G30KT 4000 SA"
    },
    {
      "icao": "LEZG",
      "iata": "ZAZ",
      "name": "Zaragoza Airport",
      "updatedAt": "090730Z",
      "visibility_m": 10000,
      "taf_visibility_m": 10000,
      "worst_visibility_m": 10000,
      "ceiling_ft": null,
      "hazards": [
        "RA"
      ],
      "severityScore": 12,
      "metarRaw": "METAR LEZG 090730Z 25017KT 9999 FEW070 12/04 Q1016 NOSIG",
      "tafRaw": "TAF LEZG 090500Z 0906/1006 24020KT CAVOK TX14/0915Z TN05/0906Z \n  TEMPO 0906/0914 24018G28KT \n  TEMPO 0906/0913 24025G38KT \n  BECMG 0913/0915 31015KT \n  TEMPO 0913/0918 31018G28KT \n  TEMPO 0914/0916 31025G38KT \n  TEMPO 0914/0921 RA \n  BECMG 0920/0922 25007KT",
      "metarHtml": "METAR LEZG 090730Z 25017KT 9999 FEW070 12/04 Q1016 NOSIG",
      "tafHtml": "TAF LEZG 090500Z 0906/1006 24020KT <span class=\"hl-vis\">CAVOK</span> TX14/0915Z TN05/0906Z \n  TEMPO 0906/0914 24018G28KT \n  TEMPO 0906/0913 24025G38KT \n  BECMG 0913/0915 31015KT \n  TEMPO 0913/0918 31018G28KT \n  TEMPO 0914/0916 31025G38KT \n  TEMPO 0914/0921 <span class=\"hl\">RA</span> \n  BECMG 0920/0922 25007KT"
    },
    {
      "icao": "LGTS",
      "iata": "SKG",
      "name": "Thessaloniki Macedonia International Airport",
      "updatedAt": "090720Z",
      "visibility_m": 10000,
      "taf_visibility_m": 5000,
      "worst_visibility_m": 5000,
      "ceiling_ft": null,
      "hazards": [
        "RA"
      ],
      "severityScore": 12,
      "metarRaw": "METAR LGTS 090720Z COR 11004KT CAVOK 03/M06 Q1014 NOSIG",
      "tafRaw": "TAF LGTS 090500Z 0906/1006 31015KT 9999 FEW025 \n  BECMG 0907/0909 VRB03KT \n  BECMG 1002/1004 FEW015 BKN030 \n  PROB40 \n  TEMPO 1004/1006 5000 RA",
      "metarHtml": "METAR LGTS 090720Z COR 11004KT <span class=\"hl-vis\">CAVOK</span> 03/M06 Q1014 NOSIG",
      "tafHtml": "TAF LGTS 090500Z 0906/1006 31015KT 9999 FEW025 \n  BECMG 0907/0909 VRB03KT \n  BECMG 1002/1004 FEW015 BKN030 \n  PROB40 \n  TEMPO 1004/1006 5000 <span class=\"hl\">RA</span>"
    },
    {
      "icao": "LIBP",
      "iata": "PSR",
      "name": "Abruzzo Airport",
      "updatedAt": "090720Z",
      "visibility_m": 10000,
      "taf_visibility_m": 3000,
      "worst_visibility_m": 3000,
      "ceiling_ft": null,
      "hazards": [
        "RA"
      ],
      "severityScore": 12,
      "metarRaw": "METAR LIBP 090720Z AUTO VRB02KT 9999 OVC190/// 06/04 Q1006",
      "tafRaw": "TAF LIBP 090500Z 0906/1006 VRB06KT 9999 SCT025 \n  BECMG 0906/0908 24012KT \n  TEMPO 0912/0920 24015G25KT \n  TEMPO 1000/1006 3000 RA",
      "metarHtml": "METAR LIBP 090720Z AUTO VRB02KT 9999 OVC190/// 06/04 Q1006",
      "tafHtml": "TAF LIBP 090500Z 0906/1006 VRB06KT 9999 SCT025 \n  BECMG 0906/0908 24012KT \n  TEMPO 0912/0920 24015G25KT \n  TEMPO 1000/1006 3000 <span class=\"hl\">RA</span>"
    },
    {
      "icao": "LIBR",
      "iata": "BDS",
      "name": "Brindisi Airport",
      "updatedAt": "090720Z",
      "visibility_m": 10000,
      "taf_visibility_m": 4000,
      "worst_visibility_m": 4000,
      "ceiling_ft": null,
      "hazards": [
        "RA"
      ],
      "severityScore": 12,
      "metarRaw": "METAR LIBR 090720Z 15004KT 110V190 9999 -RA FEW030 06/04 Q1013",
      "tafRaw": "TAF LIBR 090500Z 0906/1006 17010KT 9999 FEW040 \n  PROB30 \n  TEMPO 0906/0909 4000 RA \n  BECMG 0916/0918 24013KT \n  TEMPO 0921/1006 4000 RA",
      "metarHtml": "METAR LIBR 090720Z 15004KT 110V190 9999 -<span class=\"hl\">RA</span> FEW030 06/04 Q1013",
      "tafHtml": "TAF LIBR 090500Z 0906/1006 17010KT 9999 FEW040 \n  PROB30 \n  TEMPO 0906/0909 4000 <span class=\"hl\">RA</span> \n  BECMG 0916/0918 24013KT \n  TEMPO 0921/1006 4000 <span class=\"hl\">RA</span>"
    },
    {
      "icao": "LIRP",
      "iata": "PSA",
      "name": "Pisa International Airport",
      "updatedAt": "090715Z",
      "visibility_m": 10000,
      "taf_visibility_m": 10000,
      "worst_visibility_m": 10000,
      "ceiling_ft": 7000,
      "hazards": [
        "RA"
      ],
      "severityScore": 12,
      "metarRaw": "METAR LIRP 090715Z 23012KT 9999 FEW015 SCT020 BKN070 13/12 Q1006 NOSIG",
      "tafRaw": "TAF LIRP 090500Z 0906/1006 12003KT 9999 SCT020 SCT030 \n  BECMG 0908/0910 27015KT \n  TEMPO 0911/0918 27015G25KT \n  BECMG 0920/0922 30010KT RA \n  BECMG 1002/1004 33005KT NSW",
      "metarHtml": "METAR LIRP 090715Z 23012KT 9999 FEW015 SCT020 BKN070 13/12 Q1006 NOSIG",
      "tafHtml": "TAF LIRP 090500Z 0906/1006 12003KT 9999 SCT020 SCT030 \n  BECMG 0908/0910 27015KT \n  TEMPO 0911/0918 27015G25KT \n  BECMG 0920/0922 30010KT <span class=\"hl\">RA</span> \n  BECMG 1002/1004 33005KT NSW"
    },
    {
      "icao": "LPMA",
      "iata": "FNC",
      "name": "Madeira International Airport Cristiano Ronaldo",
      "updatedAt": "090730Z",
      "visibility_m": 10000,
      "taf_visibility_m": 10000,
      "worst_visibility_m": 10000,
      "ceiling_ft": 1500,
      "hazards": [],
      "severityScore": 12,
      "metarRaw": "METAR LPMA 090730Z 34008KT 300V360 9999 BKN015 15/12 Q1033",
      "tafRaw": "TAF LPMA 090500Z 0906/1006 01010KT 9999 SCT015 \n  TEMPO 0906/0912 BKN013 \n  BECMG 0911/0913 05010KT \n  BECMG 0919/0921 01010KT \n  TEMPO 0920/1006 BKN013",
      "metarHtml": "METAR LPMA 090730Z 34008KT 300V360 9999 BKN015 15/12 Q1033",
      "tafHtml": "TAF LPMA 090500Z 0906/1006 01010KT 9999 SCT015 \n  TEMPO 0906/0912 BKN013 \n  BECMG 0911/0913 05010KT \n  BECMG 0919/0921 01010KT \n  TEMPO 0920/1006 BKN013"
    },
    {
      "icao": "LPPS",
      "iata": "PXO",
      "name": "Porto Santo Airport",
      "updatedAt": "090730Z",
      "visibility_m": 9000,
      "taf_visibility_m": 6000,
      "worst_visibility_m": 6000,
      "ceiling_ft": 3000,
      "hazards": [
        "RA"
      ],
      "severityScore": 12,
      "metarRaw": "METAR LPPS 090730Z VRB01KT 9000 SCT010 BKN030 14/13 Q1033 RERA",
      "tafRaw": "TAF LPPS 090500Z 0906/1012 05008KT 9999 FEW015 SCT030 \n  PROB30 \n  TEMPO 0906/0912 6000 -RA SCT006 BKN012 \n  PROB30 \n  TEMPO 0912/0919 10008KT",
      "metarHtml": "METAR LPPS 090730Z VRB01KT 9000 SCT010 BKN030 14/13 Q1033 RERA",
      "tafHtml": "TAF LPPS 090500Z 0906/1012 05008KT 9999 FEW015 SCT030 \n  PROB30 \n  TEMPO 0906/0912 6000 -<span class=\"hl\">RA</span> SCT006 BKN012 \n  PROB30 \n  TEMPO 0912/0919 10008KT"
    },
    {
      "icao": "LWOH",
      "iata": "OHD",
      "name": "Ohrid St. Paul the Apostle Airport",
      "updatedAt": "090720Z",
      "visibility_m": 10000,
      "taf_visibility_m": 10000,
      "worst_visibility_m": 10000,
      "ceiling_ft": null,
      "hazards": [
        "RA"
      ],
      "severityScore": 12,
      "metarRaw": "METAR LWOH 090720Z 34004KT 9999 FEW040 SCT090 M03/M05 Q1013",
      "tafRaw": "TAF LWOH 082020Z 0821/0921 VRB02KT 9999 FEW015 BKN035 \n  BECMG 0914/0916 RA BKN010 OVC025",
      "metarHtml": "METAR LWOH 090720Z 34004KT 9999 FEW040 SCT090 M03/M05 Q1013",
      "tafHtml": "TAF LWOH 082020Z 0821/0921 VRB02KT 9999 FEW015 BKN035 \n  BECMG 0914/0916 <span class=\"hl\">RA</span> BKN010 OVC025"
    },
    {
      "icao": "LWSK",
      "iata": "SKP",
      "name": "Skopje International Airport",
      "updatedAt": "090720Z",
      "visibility_m": 10000,
      "taf_visibility_m": 10000,
      "worst_visibility_m": 10000,
      "ceiling_ft": null,
      "hazards": [
        "RA"
      ],
      "severityScore": 12,
      "metarRaw": "METAR LWSK 090720Z VRB02KT CAVOK M05/M08 Q1014 NOSIG",
      "tafRaw": "TAF LWSK 090540Z 0906/1006 VRB02KT CAVOK \n  BECMG 0912/0921 14012KT SCT045 \n  TEMPO 0921/1006 RA SCT020 OVC040",
      "metarHtml": "METAR LWSK 090720Z VRB02KT <span class=\"hl-vis\">CAVOK</span> M05/M08 Q1014 NOSIG",
      "tafHtml": "TAF LWSK 090540Z 0906/1006 VRB02KT <span class=\"hl-vis\">CAVOK</span> \n  BECMG 0912/0921 14012KT SCT045 \n  TEMPO 0921/1006 <span class=\"hl\">RA</span> SCT020 OVC040"
    },
    {
      "icao": "EPSC",
      "iata": "SZZ",
      "name": "Solidarity Szczecin–Goleniów Airport",
      "updatedAt": "090730Z",
      "visibility_m": 10000,
      "taf_visibility_m": 2000,
      "worst_visibility_m": 2000,
      "ceiling_ft": null,
      "hazards": [
        "BR"
      ],
      "severityScore": 10,
      "metarRaw": "METAR EPSC 090730Z 07007KT CAVOK M10/M12 Q1006",
      "tafRaw": "TAF EPSC 090530Z 0906/1006 10008KT CAVOK \n  TEMPO 0906/0908 2000 BR BKN002 \n  TEMPO 0909/0921 09015G25KT",
      "metarHtml": "METAR EPSC 090730Z 07007KT <span class=\"hl-vis\">CAVOK</span> M10/M12 Q1006",
      "tafHtml": "TAF EPSC 090530Z 0906/1006 10008KT <span class=\"hl-vis\">CAVOK</span> \n  TEMPO 0906/0908 2000 <span class=\"hl\">BR</span> BKN002 \n  TEMPO 0909/0921 09015G25KT"
    },
    {
      "icao": "ESSA",
      "iata": "ARN",
      "name": "Stockholm-Arlanda Airport",
      "updatedAt": "090720Z",
      "visibility_m": 10000,
      "taf_visibility_m": 4000,
      "worst_visibility_m": 4000,
      "ceiling_ft": 2500,
      "hazards": [
        "SHSN"
      ],
      "severityScore": 10,
      "metarRaw": "METAR ESSA 090720Z 07008KT 9999 SCT017 BKN025 M04/M06 Q1019 NOSIG",
      "tafRaw": "TAF ESSA 090530Z 0906/1006 10007KT CAVOK \n  PROB40 0907/0909 4000 -SHSN BKN014 BKN030TCU \n  BECMG 0916/0918 04010KT",
      "metarHtml": "METAR ESSA 090720Z 07008KT 9999 SCT017 BKN025 M04/M06 Q1019 NOSIG",
      "tafHtml": "TAF ESSA 090530Z 0906/1006 10007KT <span class=\"hl-vis\">CAVOK</span> \n  PROB40 0907/0909 4000 -<span class=\"hl\">SHSN</span> BKN014 BKN030TCU \n  BECMG 0916/0918 04010KT"
    },
    {
      "icao": "HEGN",
      "iata": "HRG",
      "name": "Hurghada International Airport",
      "updatedAt": "090700Z",
      "visibility_m": 10000,
      "taf_visibility_m": 1400,
      "worst_visibility_m": 1400,
      "ceiling_ft": null,
      "hazards": [],
      "severityScore": 10,
      "metarRaw": "METAR HEGN 090700Z 32005KT CAVOK 22/10 Q1015 NOSIG",
      "tafRaw": "TAF HEGN 090500Z 0906/1012 32015G30KT 6000 NSC \n  TEMPO 0906/0918 3000 SA \n  TEMPO 0906/0913 1400",
      "metarHtml": "METAR HEGN 090700Z 32005KT <span class=\"hl-vis\">CAVOK</span> 22/10 Q1015 NOSIG",
      "tafHtml": "TAF HEGN 090500Z 0906/1012 32015G30KT 6000 NSC \n  TEMPO 0906/0918 3000 SA \n  TEMPO 0906/0913 1400"
    },
    {
      "icao": "LZKZ",
      "iata": "KSC",
      "name": "Košice International Airport",
      "updatedAt": "090730Z",
      "visibility_m": 10000,
      "taf_visibility_m": 2000,
      "worst_visibility_m": 2000,
      "ceiling_ft": null,
      "hazards": [
        "BR"
      ],
      "severityScore": 10,
      "metarRaw": "METAR LZKZ 090730Z 31002KT CAVOK M12/M14 Q1006 NOSIG",
      "tafRaw": "TAF LZKZ 090515Z 0906/1006 VRB02KT CAVOK \n  PROB30 \n  TEMPO 0906/0909 2000 BR SCT002 \n  BECMG 0910/0912 22007KT BKN020 \n  BECMG 0916/0918 VRB02KT \n  TEMPO 0917/1006 2000 BR BKN012",
      "metarHtml": "METAR LZKZ 090730Z 31002KT <span class=\"hl-vis\">CAVOK</span> M12/M14 Q1006 NOSIG",
      "tafHtml": "TAF LZKZ 090515Z 0906/1006 VRB02KT <span class=\"hl-vis\">CAVOK</span> \n  PROB30 \n  TEMPO 0906/0909 2000 <span class=\"hl\">BR</span> SCT002 \n  BECMG 0910/0912 22007KT BKN020 \n  BECMG 0916/0918 VRB02KT \n  TEMPO 0917/1006 2000 <span class=\"hl\">BR</span> BKN012"
    },
    {
      "icao": "OEJN",
      "iata": "JED",
      "name": "King Abdulaziz International Airport",
      "updatedAt": "090700Z",
      "visibility_m": 8000,
      "taf_visibility_m": 2000,
      "worst_visibility_m": 2000,
      "ceiling_ft": null,
      "hazards": [
        "BR"
      ],
      "severityScore": 10,
      "metarRaw": "METAR OEJN 090700Z VRB03KT 8000 NSC 27/18 Q1016 NOSIG",
      "tafRaw": "TAF OEJN 090500Z 0906/1012 23010KT 7000 FEW040 \n  BECMG 0918/0920 04006KT SCT040 \n  PROB30 \n  TEMPO 1000/1006 2000 BR \n  BECMG 1006/1008 36010KT",
      "metarHtml": "METAR OEJN 090700Z VRB03KT 8000 NSC 27/18 Q1016 NOSIG",
      "tafHtml": "TAF OEJN 090500Z 0906/1012 23010KT 7000 FEW040 \n  BECMG 0918/0920 04006KT SCT040 \n  PROB30 \n  TEMPO 1000/1006 2000 <span class=\"hl\">BR</span> \n  BECMG 1006/1008 36010KT"
    },
    {
      "icao": "UBBB",
      "iata": "GYD",
      "name": "Heydar Aliyev International Airport",
      "updatedAt": "090700Z",
      "visibility_m": 10000,
      "taf_visibility_m": 3000,
      "worst_visibility_m": 3000,
      "ceiling_ft": null,
      "hazards": [
        "BR"
      ],
      "severityScore": 10,
      "metarRaw": "METAR UBBB 090700Z 17022KT CAVOK 09/05 Q1003 NOSIG",
      "tafRaw": "TAF UBBB 090504Z 0906/1006 18024G34KT 8000 SCT012 TX12/0910Z TN08/1000Z \n  TEMPO 0906/0912 21028G38KT SCT006 SCT025 \n  TEMPO 0914/0917 23010KT 3000 BR BKN004 \n  BECMG 0917/0919 33016G26KT \n  TEMPO 0919/1006 35024G34KT SCT007 BKN020",
      "metarHtml": "METAR UBBB 090700Z 17022KT <span class=\"hl-vis\">CAVOK</span> 09/05 Q1003 NOSIG",
      "tafHtml": "TAF UBBB 090504Z 0906/1006 18024G34KT 8000 SCT012 TX12/0910Z TN08/1000Z \n  TEMPO 0906/0912 21028G38KT SCT006 SCT025 \n  TEMPO 0914/0917 23010KT 3000 <span class=\"hl\">BR</span> BKN004 \n  BECMG 0917/0919 33016G26KT \n  TEMPO 0919/1006 35024G34KT SCT007 BKN020"
    },
    {
      "icao": "GCFV",
      "iata": "FUE",
      "name": "Fuerteventura Airport",
      "updatedAt": "090730Z",
      "visibility_m": 10000,
      "taf_visibility_m": null,
      "worst_visibility_m": 10000,
      "ceiling_ft": null,
      "hazards": [],
      "severityScore": 5,
      "metarRaw": "METAR GCFV 090730Z 32007KT 9999 FEW025 14/09 Q1030",
      "tafRaw": null,
      "metarHtml": "METAR GCFV 090730Z 32007KT 9999 FEW025 14/09 Q1030",
      "tafHtml": null
    },
    {
      "icao": "EDNY",
      "iata": "FDH",
      "name": "Friedrichshafen Airport",
      "updatedAt": "090720Z",
      "visibility_m": 10000,
      "taf_visibility_m": null,
      "worst_visibility_m": 10000,
      "ceiling_ft": null,
      "hazards": [],
      "severityScore": 5,
      "metarRaw": "METAR EDNY 090720Z 23013KT 9999 FEW025 SCT040 05/02 Q1000",
      "tafRaw": null,
      "metarHtml": "METAR EDNY 090720Z 23013KT 9999 FEW025 SCT040 05/02 Q1000",
      "tafHtml": null
    },
    {
      "icao": "EYPA",
      "iata": "PLQ",
      "name": "Palanga International Airport",
      "updatedAt": "090720Z",
      "visibility_m": 10000,
      "taf_visibility_m": null,
      "worst_visibility_m": 10000,
      "ceiling_ft": null,
      "hazards": [],
      "severityScore": 5,
      "metarRaw": "METAR EYPA 090720Z 05016G26KT CAVOK M08/M10 Q1010",
      "tafRaw": null,
      "metarHtml": "METAR EYPA 090720Z 05016G26KT <span class=\"hl-vis\">CAVOK</span> M08/M10 Q1010",
      "tafHtml": null
    },
    {
      "icao": "LEBL",
      "iata": "BCN",
      "name": "Josep Tarradellas Barcelona-El Prat Airport",
      "updatedAt": "090730Z",
      "visibility_m": 10000,
      "taf_visibility_m": null,
      "worst_visibility_m": 10000,
      "ceiling_ft": null,
      "hazards": [],
      "severityScore": 5,
      "metarRaw": "METAR LEBL 090730Z 27009KT 9999 FEW025 12/05 Q1014 NOSIG",
      "tafRaw": null,
      "metarHtml": "METAR LEBL 090730Z 27009KT 9999 FEW025 12/05 Q1014 NOSIG",
      "tafHtml": null
    },
    {
      "icao": "LECH",
      "iata": "CDT",
      "name": "Castellón-Costa Azahar Airport",
      "updatedAt": "090730Z",
      "visibility_m": 10000,
      "taf_visibility_m": null,
      "worst_visibility_m": 10000,
      "ceiling_ft": null,
      "hazards": [],
      "severityScore": 5,
      "metarRaw": "METAR LECH 090730Z AUTO 25003KT 190V310 CAVOK 09/03 Q1017",
      "tafRaw": null,
      "metarHtml": "METAR LECH 090730Z AUTO 25003KT 190V310 <span class=\"hl-vis\">CAVOK</span> 09/03 Q1017",
      "tafHtml": null
    },
    {
      "icao": "LFLS",
      "iata": "GNB",
      "name": "Grenoble Alpes Isère Airport",
      "updatedAt": "090730Z",
      "visibility_m": 10000,
      "taf_visibility_m": null,
      "worst_visibility_m": 10000,
      "ceiling_ft": 4500,
      "hazards": [],
      "severityScore": 5,
      "metarRaw": "METAR LFLS 090730Z AUTO 21013KT 9999 BKN045 BKN110 OVC130 07/03 Q1006",
      "tafRaw": null,
      "metarHtml": "METAR LFLS 090730Z AUTO 21013KT 9999 BKN045 BKN110 OVC130 07/03 Q1006",
      "tafHtml": null
    },
    {
      "icao": "LFSB",
      "iata": "BSL",
      "name": "EuroAirport Basel–Mulhouse–Freiburg",
      "updatedAt": "090730Z",
      "visibility_m": 10000,
      "taf_visibility_m": null,
      "worst_visibility_m": 10000,
      "ceiling_ft": 16000,
      "hazards": [],
      "severityScore": 5,
      "metarRaw": "METAR LFSB 090730Z AUTO 23017KT 190V250 9999 FEW046 SCT100 BKN160 08/02 Q0999 TEMPO 24020G40KT",
      "tafRaw": null,
      "metarHtml": "METAR LFSB 090730Z AUTO 23017KT 190V250 9999 FEW046 SCT100 BKN160 08/02 Q0999 TEMPO 24020G40KT",
      "tafHtml": null
    },
    {
      "icao": "LIBG",
      "iata": "TAR",
      "name": "Taranto-Grottaglie Marcello Arlotta Airport",
      "updatedAt": "090655Z",
      "visibility_m": 10000,
      "taf_visibility_m": null,
      "worst_visibility_m": 10000,
      "ceiling_ft": null,
      "hazards": [],
      "severityScore": 5,
      "metarRaw": "SPECI LIBG 090655Z VRB02KT 9999 FEW015 SCT030 07/07 Q1012",
      "tafRaw": null,
      "metarHtml": "SPECI LIBG 090655Z VRB02KT 9999 FEW015 SCT030 07/07 Q1012",
      "tafHtml": null
    },
    {
      "icao": "LPPT",
      "iata": "LIS",
      "name": "Lisbon Humberto Delgado Airport",
      "updatedAt": "090730Z",
      "visibility_m": 10000,
      "taf_visibility_m": null,
      "worst_visibility_m": 10000,
      "ceiling_ft": null,
      "hazards": [],
      "severityScore": 5,
      "metarRaw": "METAR LPPT 090730Z VRB02KT 9999 FEW010 12/11 Q1028",
      "tafRaw": null,
      "metarHtml": "METAR LPPT 090730Z VRB02KT 9999 FEW010 12/11 Q1028",
      "tafHtml": null
    },
    {
      "icao": "BIKF",
      "iata": "KEF",
      "name": "Keflavik International Airport",
      "updatedAt": "090730Z",
      "visibility_m": 10000,
      "taf_visibility_m": 10000,
      "worst_visibility_m": 10000,
      "ceiling_ft": null,
      "hazards": [],
      "severityScore": 0,
      "metarRaw": "METAR BIKF 090730Z 04011KT CAVOK M01/M06 Q1007",
      "tafRaw": "TAF BIKF 090407Z 0906/1006 05010KT CAVOK TXM01/0914Z TNM03/0909Z",
      "metarHtml": "METAR BIKF 090730Z 04011KT <span class=\"hl-vis\">CAVOK</span> M01/M06 Q1007",
      "tafHtml": "TAF BIKF 090407Z 0906/1006 05010KT <span class=\"hl-vis\">CAVOK</span> TXM01/0914Z TNM03/0909Z"
    },
    {
      "icao": "GCLP",
      "iata": "LPA",
      "name": "Gran Canaria Airport",
      "updatedAt": "090730Z",
      "visibility_m": 10000,
      "taf_visibility_m": 10000,
      "worst_visibility_m": 10000,
      "ceiling_ft": null,
      "hazards": [],
      "severityScore": 0,
      "metarRaw": "METAR GCLP 090730Z 31006KT 9999 FEW025 15/10 Q1030 NOSIG",
      "tafRaw": "TAF GCLP 090200Z 0903/1003 33008KT 9999 FEW030 TX20/0914Z TN14/0906Z \n  BECMG 0909/0911 05012KT",
      "metarHtml": "METAR GCLP 090730Z 31006KT 9999 FEW025 15/10 Q1030 NOSIG",
      "tafHtml": "TAF GCLP 090200Z 0903/1003 33008KT 9999 FEW030 TX20/0914Z TN14/0906Z \n  BECMG 0909/0911 05012KT"
    },
    {
      "icao": "GCTS",
      "iata": "TFS",
      "name": "Tenerife Sur Airport",
      "updatedAt": "090730Z",
      "visibility_m": 10000,
      "taf_visibility_m": 10000,
      "worst_visibility_m": 10000,
      "ceiling_ft": null,
      "hazards": [],
      "severityScore": 0,
      "metarRaw": "METAR GCTS 090730Z 04012KT 9999 FEW025 16/10 Q1030 NOSIG",
      "tafRaw": "TAF GCTS 090200Z 0903/1003 03010KT 9999 FEW035 TX22/0914Z TN15/0906Z \n  PROB30 \n  TEMPO 0911/0918 09015G25KT \n  TEMPO 0912/0918 09015KT",
      "metarHtml": "METAR GCTS 090730Z 04012KT 9999 FEW025 16/10 Q1030 NOSIG",
      "tafHtml": "TAF GCTS 090200Z 0903/1003 03010KT 9999 FEW035 TX22/0914Z TN15/0906Z \n  PROB30 \n  TEMPO 0911/0918 09015G25KT \n  TEMPO 0912/0918 09015KT"
    },
    {
      "icao": "GMAD",
      "iata": "AGA",
      "name": "Al Massira Airport",
      "updatedAt": "090730Z",
      "visibility_m": 10000,
      "taf_visibility_m": 10000,
      "worst_visibility_m": 10000,
      "ceiling_ft": null,
      "hazards": [],
      "severityScore": 0,
      "metarRaw": "METAR GMAD 090730Z 06008KT CAVOK 05/05 Q1030 NOSIG",
      "tafRaw": "TAF GMAD 090500Z 0906/1012 05005KT CAVOK \n  BECMG 0912/0914 28012KT \n  BECMG 0919/0922 12005KT",
      "metarHtml": "METAR GMAD 090730Z 06008KT <span class=\"hl-vis\">CAVOK</span> 05/05 Q1030 NOSIG",
      "tafHtml": "TAF GMAD 090500Z 0906/1012 05005KT <span class=\"hl-vis\">CAVOK</span> \n  BECMG 0912/0914 28012KT \n  BECMG 0919/0922 12005KT"
    },
    {
      "icao": "GMMN",
      "iata": "CMN",
      "name": "Mohammed V International Airport",
      "updatedAt": "090730Z",
      "visibility_m": 6000,
      "taf_visibility_m": 10000,
      "worst_visibility_m": 6000,
      "ceiling_ft": 3000,
      "hazards": [],
      "severityScore": 0,
      "metarRaw": "METAR GMMN 090730Z 15003KT 100V220 6000 BKN030 07/06 Q1031 NOSIG",
      "tafRaw": "TAF GMMN 090500Z 0906/1012 15004KT 9999 SCT030 \n  BECMG 0909/0911 CAVOK \n  TEMPO 0915/0917 36013KT",
      "metarHtml": "METAR GMMN 090730Z 15003KT 100V220 6000 BKN030 07/06 Q1031 NOSIG",
      "tafHtml": "TAF GMMN 090500Z 0906/1012 15004KT 9999 SCT030 \n  BECMG 0909/0911 <span class=\"hl-vis\">CAVOK</span> \n  TEMPO 0915/0917 36013KT"
    },
    {
      "icao": "GMMX",
      "iata": "RAK",
      "name": "Menara Airport",
      "updatedAt": "090730Z",
      "visibility_m": 8000,
      "taf_visibility_m": 8000,
      "worst_visibility_m": 8000,
      "ceiling_ft": null,
      "hazards": [],
      "severityScore": 0,
      "metarRaw": "METAR GMMX 090730Z VRB01KT 8000 NSC 05/03 Q1030 NOSIG",
      "tafRaw": "TAF GMMX 090500Z 0906/1012 24004KT 8000 NSC \n  TEMPO 0918/0921 34016KT",
      "metarHtml": "METAR GMMX 090730Z VRB01KT 8000 NSC 05/03 Q1030 NOSIG",
      "tafHtml": "TAF GMMX 090500Z 0906/1012 24004KT 8000 NSC \n  TEMPO 0918/0921 34016KT"
    },
    {
      "icao": "EKCH",
      "iata": "CPH",
      "name": "Copenhagen Kastrup Airport",
      "updatedAt": "090720Z",
      "visibility_m": 10000,
      "taf_visibility_m": 10000,
      "worst_visibility_m": 10000,
      "ceiling_ft": null,
      "hazards": [],
      "severityScore": 0,
      "metarRaw": "METAR EKCH 090720Z AUTO 09014KT 9999 BKN031/// M01/M05 Q1008 TEMPO 12015G28KT",
      "tafRaw": "TAF EKCH 090527Z 0906/1006 10018KT 9999 BKN035 \n  TEMPO 0906/0910 10018G28KT \n  TEMPO 0910/0918 09020G30KT \n  FM091800 04016KT 9999 BKN020 \n  TEMPO 0918/0924 06020G35KT \n  TEMPO 1000/1005 04018G28KT",
      "metarHtml": "METAR EKCH 090720Z AUTO 09014KT 9999 BKN031/// M01/M05 Q1008 TEMPO 12015G28KT",
      "tafHtml": "TAF EKCH 090527Z 0906/1006 10018KT 9999 BKN035 \n  TEMPO 0906/0910 10018G28KT \n  TEMPO 0910/0918 09020G30KT \n  FM091800 04016KT 9999 BKN020 \n  TEMPO 0918/0924 06020G35KT \n  TEMPO 1000/1005 04018G28KT"
    },
    {
      "icao": "ENAL",
      "iata": "AES",
      "name": "Ålesund Airport, Vigra",
      "updatedAt": "090720Z",
      "visibility_m": 10000,
      "taf_visibility_m": 10000,
      "worst_visibility_m": 10000,
      "ceiling_ft": null,
      "hazards": [],
      "severityScore": 0,
      "metarRaw": "METAR ENAL 090720Z 14012KT CAVOK M01/M08 Q1009",
      "tafRaw": "TAF ENAL 090500Z 0906/0915 14012KT CAVOK",
      "metarHtml": "METAR ENAL 090720Z 14012KT <span class=\"hl-vis\">CAVOK</span> M01/M08 Q1009",
      "tafHtml": "TAF ENAL 090500Z 0906/0915 14012KT <span class=\"hl-vis\">CAVOK</span>"
    },
    {
      "icao": "ENBR",
      "iata": "BGO",
      "name": "Bergen Airport, Flesland",
      "updatedAt": "090720Z",
      "visibility_m": 10000,
      "taf_visibility_m": 10000,
      "worst_visibility_m": 10000,
      "ceiling_ft": null,
      "hazards": [],
      "severityScore": 0,
      "metarRaw": "METAR ENBR 090720Z VRB01KT CAVOK M06/M13 Q1008 NOSIG RMK WIND 1200FT 10006KT",
      "tafRaw": "TAF ENBR 090500Z 0906/1006 06005KT CAVOK",
      "metarHtml": "METAR ENBR 090720Z VRB01KT <span class=\"hl-vis\">CAVOK</span> M06/M13 Q1008 NOSIG RMK WIND 1200FT 10006KT",
      "tafHtml": "TAF ENBR 090500Z 0906/1006 06005KT <span class=\"hl-vis\">CAVOK</span>"
    },
    {
      "icao": "ENHD",
      "iata": "HAU",
      "name": "Haugesund Airport, Karmøy",
      "updatedAt": "090720Z",
      "visibility_m": 10000,
      "taf_visibility_m": 10000,
      "worst_visibility_m": 10000,
      "ceiling_ft": null,
      "hazards": [],
      "severityScore": 0,
      "metarRaw": "METAR ENHD 090720Z 12011KT CAVOK 01/M08 Q1007",
      "tafRaw": "TAF ENHD 090500Z 0906/0915 10008KT CAVOK",
      "metarHtml": "METAR ENHD 090720Z 12011KT <span class=\"hl-vis\">CAVOK</span> 01/M08 Q1007",
      "tafHtml": "TAF ENHD 090500Z 0906/0915 10008KT <span class=\"hl-vis\">CAVOK</span>"
    },
    {
      "icao": "ENTC",
      "iata": "TOS",
      "name": "Tromsø Airport, Langnes",
      "updatedAt": "090720Z",
      "visibility_m": 10000,
      "taf_visibility_m": 10000,
      "worst_visibility_m": 10000,
      "ceiling_ft": null,
      "hazards": [],
      "severityScore": 0,
      "metarRaw": "METAR ENTC 090720Z 09003KT CAVOK M11/M15 Q1024 NOSIG RMK WIND 2600FT 17025KT",
      "tafRaw": "TAF ENTC 090500Z 0906/1006 20005KT CAVOK",
      "metarHtml": "METAR ENTC 090720Z 09003KT <span class=\"hl-vis\">CAVOK</span> M11/M15 Q1024 NOSIG RMK WIND 2600FT 17025KT",
      "tafHtml": "TAF ENTC 090500Z 0906/1006 20005KT <span class=\"hl-vis\">CAVOK</span>"
    },
    {
      "icao": "ENVA",
      "iata": "TRD",
      "name": "Trondheim Airport, Værnes",
      "updatedAt": "090720Z",
      "visibility_m": 10000,
      "taf_visibility_m": 10000,
      "worst_visibility_m": 10000,
      "ceiling_ft": null,
      "hazards": [],
      "severityScore": 0,
      "metarRaw": "METAR ENVA 090720Z 07005KT 330V130 CAVOK M05/M15 Q1012 TEMPO 15015G25KT RMK WIND 670FT 15018KT",
      "tafRaw": "TAF ENVA 090500Z 0906/1006 10008KT CAVOK \n  TEMPO 0909/1002 16018G28KT",
      "metarHtml": "METAR ENVA 090720Z 07005KT 330V130 <span class=\"hl-vis\">CAVOK</span> M05/M15 Q1012 TEMPO 15015G25KT RMK WIND 670FT 15018KT",
      "tafHtml": "TAF ENVA 090500Z 0906/1006 10008KT <span class=\"hl-vis\">CAVOK</span> \n  TEMPO 0909/1002 16018G28KT"
    },
    {
      "icao": "ENZV",
      "iata": "SVG",
      "name": "Stavanger Airport, Sola",
      "updatedAt": "090720Z",
      "visibility_m": 10000,
      "taf_visibility_m": 10000,
      "worst_visibility_m": 10000,
      "ceiling_ft": null,
      "hazards": [],
      "severityScore": 0,
      "metarRaw": "METAR ENZV 090720Z 10008KT CAVOK 00/M09 Q1007 NOSIG",
      "tafRaw": "TAF ENZV 090500Z 0906/1006 12008KT CAVOK \n  PROB30 \n  TEMPO 0906/0912 12015G25KT",
      "metarHtml": "METAR ENZV 090720Z 10008KT <span class=\"hl-vis\">CAVOK</span> 00/M09 Q1007 NOSIG",
      "tafHtml": "TAF ENZV 090500Z 0906/1006 12008KT <span class=\"hl-vis\">CAVOK</span> \n  PROB30 \n  TEMPO 0906/0912 12015G25KT"
    },
    {
      "icao": "EPSY",
      "iata": "SZY",
      "name": "Olsztyn-Mazury Airport",
      "updatedAt": "090730Z",
      "visibility_m": 10000,
      "taf_visibility_m": 10000,
      "worst_visibility_m": 10000,
      "ceiling_ft": null,
      "hazards": [],
      "severityScore": 0,
      "metarRaw": "METAR EPSY 090730Z 34007KT CAVOK M11/M13 Q1005",
      "tafRaw": "TAF EPSY 090530Z 0906/0915 01010KT 9999 SCT030 \n  PROB40 \n  TEMPO 0906/0909 BKN008",
      "metarHtml": "METAR EPSY 090730Z 34007KT <span class=\"hl-vis\">CAVOK</span> M11/M13 Q1005",
      "tafHtml": "TAF EPSY 090530Z 0906/0915 01010KT 9999 SCT030 \n  PROB40 \n  TEMPO 0906/0909 BKN008"
    },
    {
      "icao": "ESGG",
      "iata": "GOT",
      "name": "Göteborg Landvetter Airport",
      "updatedAt": "090720Z",
      "visibility_m": 10000,
      "taf_visibility_m": 10000,
      "worst_visibility_m": 10000,
      "ceiling_ft": null,
      "hazards": [],
      "severityScore": 0,
      "metarRaw": "METAR ESGG 090720Z 08010KT 9999 FEW035 M06/M08 Q1012",
      "tafRaw": "TAF ESGG 090530Z 0906/1006 11010KT 9999 SCT040",
      "metarHtml": "METAR ESGG 090720Z 08010KT 9999 FEW035 M06/M08 Q1012",
      "tafHtml": "TAF ESGG 090530Z 0906/1006 11010KT 9999 SCT040"
    },
    {
      "icao": "ESKN",
      "iata": "NYO",
      "name": "Stockholm Skavsta Airport",
      "updatedAt": "090720Z",
      "visibility_m": 10000,
      "taf_visibility_m": 10000,
      "worst_visibility_m": 10000,
      "ceiling_ft": 2500,
      "hazards": [],
      "severityScore": 0,
      "metarRaw": "METAR ESKN 090720Z 04007KT 9999 BKN025 M03/M05 Q1018",
      "tafRaw": "TAF ESKN 090530Z 0906/1006 08010KT 9999 BKN030 \n  BECMG 0918/0920 02012KT",
      "metarHtml": "METAR ESKN 090720Z 04007KT 9999 BKN025 M03/M05 Q1018",
      "tafHtml": "TAF ESKN 090530Z 0906/1006 08010KT 9999 BKN030 \n  BECMG 0918/0920 02012KT"
    },
    {
      "icao": "ESMS",
      "iata": "MMX",
      "name": "Malmö Sturup Airport",
      "updatedAt": "090720Z",
      "visibility_m": 10000,
      "taf_visibility_m": 10000,
      "worst_visibility_m": 10000,
      "ceiling_ft": 4000,
      "hazards": [],
      "severityScore": 0,
      "metarRaw": "METAR ESMS 090720Z 09017KT 9999 BKN040 M01/M06 Q1008",
      "tafRaw": "TAF ESMS 090527Z 0906/1006 10012KT 9999 FEW030 \n  TEMPO 0910/0914 08018G30KT \n  TEMPO 0914/1001 08020G34KT \n  TEMPO 1001/1005 07018G30KT",
      "metarHtml": "METAR ESMS 090720Z 09017KT 9999 BKN040 M01/M06 Q1008",
      "tafHtml": "TAF ESMS 090527Z 0906/1006 10012KT 9999 FEW030 \n  TEMPO 0910/0914 08018G30KT \n  TEMPO 0914/1001 08020G34KT \n  TEMPO 1001/1005 07018G30KT"
    },
    {
      "icao": "HEMA",
      "iata": "RMF",
      "name": "Marsa Alam International Airport",
      "updatedAt": "090700Z",
      "visibility_m": 10000,
      "taf_visibility_m": 4000,
      "worst_visibility_m": 4000,
      "ceiling_ft": null,
      "hazards": [],
      "severityScore": 0,
      "metarRaw": "METAR HEMA 090700Z 19008KT CAVOK 19/14 Q1014 NOSIG",
      "tafRaw": "TAF HEMA 090500Z 0906/1012 32008G20KT 6000 NSC \n  TEMPO 0906/0918 4000 SA",
      "metarHtml": "METAR HEMA 090700Z 19008KT <span class=\"hl-vis\">CAVOK</span> 19/14 Q1014 NOSIG",
      "tafHtml": "TAF HEMA 090500Z 0906/1012 32008G20KT 6000 NSC \n  TEMPO 0906/0918 4000 SA"
    },
    {
      "icao": "HESH",
      "iata": "SSH",
      "name": "Sharm El Sheikh International Airport",
      "updatedAt": "090700Z",
      "visibility_m": 8000,
      "taf_visibility_m": 3000,
      "worst_visibility_m": 3000,
      "ceiling_ft": null,
      "hazards": [],
      "severityScore": 0,
      "metarRaw": "METAR HESH 090700Z 16007KT 8000 NSC 21/17 Q1013 NOSIG",
      "tafRaw": "TAF HESH 090500Z 0906/1012 34010G22KT 6000 NSC \n  TEMPO 0906/0918 3000 SA",
      "metarHtml": "METAR HESH 090700Z 16007KT 8000 NSC 21/17 Q1013 NOSIG",
      "tafHtml": "TAF HESH 090500Z 0906/1012 34010G22KT 6000 NSC \n  TEMPO 0906/0918 3000 SA"
    },
    {
      "icao": "LBPD",
      "iata": "PDV",
      "name": "Plovdiv International Airport",
      "updatedAt": "090730Z",
      "visibility_m": 10000,
      "taf_visibility_m": 10000,
      "worst_visibility_m": 10000,
      "ceiling_ft": null,
      "hazards": [],
      "severityScore": 0,
      "metarRaw": "METAR LBPD 090730Z AUTO 30014KT 9999 NCD 02/M08 Q1009 NOSIG",
      "tafRaw": "TAF LBPD 090500Z 0906/1006 29010KT 9999 SCT050 \n  BECMG 0910/0912 VRB03KT",
      "metarHtml": "METAR LBPD 090730Z AUTO 30014KT 9999 NCD 02/M08 Q1009 NOSIG",
      "tafHtml": "TAF LBPD 090500Z 0906/1006 29010KT 9999 SCT050 \n  BECMG 0910/0912 VRB03KT"
    },
    {
      "icao": "LBWN",
      "iata": "VAR",
      "name": "Varna Airport",
      "updatedAt": "090730Z",
      "visibility_m": 10000,
      "taf_visibility_m": 10000,
      "worst_visibility_m": 10000,
      "ceiling_ft": null,
      "hazards": [],
      "severityScore": 0,
      "metarRaw": "METAR LBWN 090730Z 27013KT CAVOK M02/M07 Q1007 NOSIG",
      "tafRaw": "TAF LBWN 090500Z 0906/1006 28018G28KT CAVOK \n  BECMG 0908/0910 28018KT \n  BECMG 0913/0914 28008KT \n  BECMG 0915/0917 VRB03KT BKN040",
      "metarHtml": "METAR LBWN 090730Z 27013KT <span class=\"hl-vis\">CAVOK</span> M02/M07 Q1007 NOSIG",
      "tafHtml": "TAF LBWN 090500Z 0906/1006 28018G28KT <span class=\"hl-vis\">CAVOK</span> \n  BECMG 0908/0910 28018KT \n  BECMG 0913/0914 28008KT \n  BECMG 0915/0917 VRB03KT BKN040"
    },
    {
      "icao": "LEAL",
      "iata": "ALC",
      "name": "Alicante-Elche Miguel Hernández Airport",
      "updatedAt": "090730Z",
      "visibility_m": 10000,
      "taf_visibility_m": 10000,
      "worst_visibility_m": 10000,
      "ceiling_ft": null,
      "hazards": [],
      "severityScore": 0,
      "metarRaw": "METAR LEAL 090730Z 26009KT CAVOK 13/05 Q1023 NOSIG",
      "tafRaw": "TAF LEAL 090500Z 0906/1006 23008KT CAVOK TX18/0914Z TN10/0906Z \n  BECMG 0911/0913 29016KT \n  TEMPO 0912/0916 28018G28KT \n  TEMPO 0919/0924 25006KT \n  TEMPO 1001/1006 31020G30KT",
      "metarHtml": "METAR LEAL 090730Z 26009KT <span class=\"hl-vis\">CAVOK</span> 13/05 Q1023 NOSIG",
      "tafHtml": "TAF LEAL 090500Z 0906/1006 23008KT <span class=\"hl-vis\">CAVOK</span> TX18/0914Z TN10/0906Z \n  BECMG 0911/0913 29016KT \n  TEMPO 0912/0916 28018G28KT \n  TEMPO 0919/0924 25006KT \n  TEMPO 1001/1006 31020G30KT"
    },
    {
      "icao": "LEMG",
      "iata": "AGP",
      "name": "Málaga-Costa del Sol Airport",
      "updatedAt": "090730Z",
      "visibility_m": 10000,
      "taf_visibility_m": 10000,
      "worst_visibility_m": 10000,
      "ceiling_ft": null,
      "hazards": [],
      "severityScore": 0,
      "metarRaw": "METAR LEMG 090730Z 31008KT 9999 FEW025 09/06 Q1028 NOSIG",
      "tafRaw": "TAF LEMG 090500Z 0906/1006 29013KT CAVOK TX18/0914Z TN08/0906Z",
      "metarHtml": "METAR LEMG 090730Z 31008KT 9999 FEW025 09/06 Q1028 NOSIG",
      "tafHtml": "TAF LEMG 090500Z 0906/1006 29013KT <span class=\"hl-vis\">CAVOK</span> TX18/0914Z TN08/0906Z"
    },
    {
      "icao": "LEVC",
      "iata": "VLC",
      "name": "Valencia Airport",
      "updatedAt": "090730Z",
      "visibility_m": 10000,
      "taf_visibility_m": 10000,
      "worst_visibility_m": 10000,
      "ceiling_ft": null,
      "hazards": [],
      "severityScore": 0,
      "metarRaw": "METAR LEVC 090730Z COR 26011KT 9999 FEW040 10/05 Q1020 NOSIG",
      "tafRaw": "TAF LEVC 090500Z 0906/1006 27015KT 9999 FEW020 TX18/0914Z TN09/0906Z \n  TEMPO 0906/0909 VRB03KT \n  TEMPO 0909/0916 27020G30KT \n  PROB30 \n  TEMPO 0909/0913 27030G40KT",
      "metarHtml": "METAR LEVC 090730Z COR 26011KT 9999 FEW040 10/05 Q1020 NOSIG",
      "tafHtml": "TAF LEVC 090500Z 0906/1006 27015KT 9999 FEW020 TX18/0914Z TN09/0906Z \n  TEMPO 0906/0909 VRB03KT \n  TEMPO 0909/0916 27020G30KT \n  PROB30 \n  TEMPO 0909/0913 27030G40KT"
    },
    {
      "icao": "LFMN",
      "iata": "NCE",
      "name": "Nice-Côte d'Azur Airport",
      "updatedAt": "090730Z",
      "visibility_m": 10000,
      "taf_visibility_m": 10000,
      "worst_visibility_m": 10000,
      "ceiling_ft": 12000,
      "hazards": [],
      "severityScore": 0,
      "metarRaw": "METAR LFMN 090730Z 26010KT 9999 BKN120 13/04 Q1004 NOSIG",
      "tafRaw": "TAF LFMN 090200Z 0903/1009 33010KT CAVOK \n  BECMG 0903/0905 24020KT \n  PROB40 \n  TEMPO 0903/0918 24025G35KT \n  BECMG 0920/0922 24015KT \n  TEMPO 0922/1009 30012KT",
      "metarHtml": "METAR LFMN 090730Z 26010KT 9999 BKN120 13/04 Q1004 NOSIG",
      "tafHtml": "TAF LFMN 090200Z 0903/1009 33010KT <span class=\"hl-vis\">CAVOK</span> \n  BECMG 0903/0905 24020KT \n  PROB40 \n  TEMPO 0903/0918 24025G35KT \n  BECMG 0920/0922 24015KT \n  TEMPO 0922/1009 30012KT"
    },
    {
      "icao": "LGAV",
      "iata": "ATH",
      "name": "Athens Eleftherios Venizelos International Airport",
      "updatedAt": "090720Z",
      "visibility_m": 10000,
      "taf_visibility_m": 10000,
      "worst_visibility_m": 10000,
      "ceiling_ft": null,
      "hazards": [],
      "severityScore": 0,
      "metarRaw": "METAR LGAV 090720Z VRB01KT 9999 FEW025 09/M02 Q1016 NOSIG",
      "tafRaw": "TAF LGAV 090500Z 0906/1006 25012KT 9999 FEW025 \n  PROB30 \n  TEMPO 0909/0914 SCT020 BKN070",
      "metarHtml": "METAR LGAV 090720Z VRB01KT 9999 FEW025 09/M02 Q1016 NOSIG",
      "tafHtml": "TAF LGAV 090500Z 0906/1006 25012KT 9999 FEW025 \n  PROB30 \n  TEMPO 0909/0914 SCT020 BKN070"
    },
    {
      "icao": "LIMF",
      "iata": "TRN",
      "name": "Turin Airport",
      "updatedAt": "090720Z",
      "visibility_m": 8000,
      "taf_visibility_m": 10000,
      "worst_visibility_m": 8000,
      "ceiling_ft": null,
      "hazards": [],
      "severityScore": 0,
      "metarRaw": "METAR LIMF 090720Z VRB02KT 8000 SCT030 M01/M06 Q1006",
      "tafRaw": "TAF LIMF 090500Z 0906/1006 VRB03KT 9999 BKN030",
      "metarHtml": "METAR LIMF 090720Z VRB02KT 8000 SCT030 M01/M06 Q1006",
      "tafHtml": "TAF LIMF 090500Z 0906/1006 VRB03KT 9999 BKN030"
    },
    {
      "icao": "LIMJ",
      "iata": "GOA",
      "name": "Genoa Cristoforo Colombo Airport",
      "updatedAt": "090720Z",
      "visibility_m": 10000,
      "taf_visibility_m": 10000,
      "worst_visibility_m": 10000,
      "ceiling_ft": 3200,
      "hazards": [],
      "severityScore": 0,
      "metarRaw": "METAR LIMJ 090720Z 05017KT 9999 SCT020 BKN032 07/01 Q1004",
      "tafRaw": "TAF LIMJ 090500Z 0906/1006 03012KT 9999 SCT020 BKN030",
      "metarHtml": "METAR LIMJ 090720Z 05017KT 9999 SCT020 BKN032 07/01 Q1004",
      "tafHtml": "TAF LIMJ 090500Z 0906/1006 03012KT 9999 SCT020 BKN030"
    },
    {
      "icao": "LIPH",
      "iata": "TSF",
      "name": "Treviso Antonio Canova Airport",
      "updatedAt": "090720Z",
      "visibility_m": 10000,
      "taf_visibility_m": 10000,
      "worst_visibility_m": 10000,
      "ceiling_ft": 4000,
      "hazards": [],
      "severityScore": 0,
      "metarRaw": "METAR LIPH 090720Z VRB02KT 9999 BKN040 00/M03 Q1006",
      "tafRaw": "TAF LIPH 090500Z 0906/1006 VRB05KT 9999 BKN030",
      "metarHtml": "METAR LIPH 090720Z VRB02KT 9999 BKN040 00/M03 Q1006",
      "tafHtml": "TAF LIPH 090500Z 0906/1006 VRB05KT 9999 BKN030"
    },
    {
      "icao": "LIPX",
      "iata": "VRN",
      "name": "Verona Villafranca Valerio Catullo Airport",
      "updatedAt": "090720Z",
      "visibility_m": 10000,
      "taf_visibility_m": 7000,
      "worst_visibility_m": 7000,
      "ceiling_ft": 3000,
      "hazards": [],
      "severityScore": 0,
      "metarRaw": "METAR LIPX 090720Z 01003KT 9999 BKN030 M00/M05 Q1006",
      "tafRaw": "TAF LIPX 090500Z 0906/1006 VRB05KT 7000 FEW020",
      "metarHtml": "METAR LIPX 090720Z 01003KT 9999 BKN030 M00/M05 Q1006",
      "tafHtml": "TAF LIPX 090500Z 0906/1006 VRB05KT 7000 FEW020"
    },
    {
      "icao": "LIPZ",
      "iata": "VCE",
      "name": "Venice Marco Polo Airport",
      "updatedAt": "090720Z",
      "visibility_m": 10000,
      "taf_visibility_m": 10000,
      "worst_visibility_m": 10000,
      "ceiling_ft": 2000,
      "hazards": [],
      "severityScore": 0,
      "metarRaw": "METAR LIPZ 090720Z 35005KT 9999 BKN020 01/M03 Q1006 NOSIG",
      "tafRaw": "TAF LIPZ 090500Z 0906/1012 VRB06KT 9999 BKN020",
      "metarHtml": "METAR LIPZ 090720Z 35005KT 9999 BKN020 01/M03 Q1006 NOSIG",
      "tafHtml": "TAF LIPZ 090500Z 0906/1012 VRB06KT 9999 BKN020"
    },
    {
      "icao": "LMML",
      "iata": "MLA",
      "name": "Malta International Airport",
      "updatedAt": "090715Z",
      "visibility_m": 10000,
      "taf_visibility_m": 10000,
      "worst_visibility_m": 10000,
      "ceiling_ft": null,
      "hazards": [],
      "severityScore": 0,
      "metarRaw": "METAR LMML 090715Z 25011KT 9999 FEW028 14/09 Q1022 NOSIG",
      "tafRaw": "TAF LMML 090500Z 0906/1006 27017KT 9999 FEW025 \n  TEMPO 0906/1006 27020G30KT",
      "metarHtml": "METAR LMML 090715Z 25011KT 9999 FEW028 14/09 Q1022 NOSIG",
      "tafHtml": "TAF LMML 090500Z 0906/1006 27017KT 9999 FEW025 \n  TEMPO 0906/1006 27020G30KT"
    },
    {
      "icao": "LRIA",
      "iata": "IAS",
      "name": "Iaşi Airport",
      "updatedAt": "090730Z",
      "visibility_m": 10000,
      "taf_visibility_m": 10000,
      "worst_visibility_m": 10000,
      "ceiling_ft": null,
      "hazards": [],
      "severityScore": 0,
      "metarRaw": "METAR LRIA 090730Z 24008KT 210V280 CAVOK M02/M09 Q1001",
      "tafRaw": "TAF LRIA 090500Z 0906/0915 26008KT 9999 BKN045",
      "metarHtml": "METAR LRIA 090730Z 24008KT 210V280 <span class=\"hl-vis\">CAVOK</span> M02/M09 Q1001",
      "tafHtml": "TAF LRIA 090500Z 0906/0915 26008KT 9999 BKN045"
    },
    {
      "icao": "LRBC",
      "iata": "BCM",
      "name": "Bacău George Enescu International  Airport",
      "updatedAt": "090730Z",
      "visibility_m": 10000,
      "taf_visibility_m": 10000,
      "worst_visibility_m": 10000,
      "ceiling_ft": null,
      "hazards": [],
      "severityScore": 0,
      "metarRaw": "METAR LRBC 090730Z 26014KT CAVOK M03/M10 Q1002",
      "tafRaw": "TAF LRBC 090500Z 0906/0915 26012KT CAVOK",
      "metarHtml": "METAR LRBC 090730Z 26014KT <span class=\"hl-vis\">CAVOK</span> M03/M10 Q1002",
      "tafHtml": "TAF LRBC 090500Z 0906/0915 26012KT <span class=\"hl-vis\">CAVOK</span>"
    },
    {
      "icao": "LRCL",
      "iata": "CLJ",
      "name": "Cluj Avram Iancu International Airport",
      "updatedAt": "090730Z",
      "visibility_m": 10000,
      "taf_visibility_m": 10000,
      "worst_visibility_m": 10000,
      "ceiling_ft": null,
      "hazards": [],
      "severityScore": 0,
      "metarRaw": "METAR LRCL 090730Z VRB02KT 9999 FEW034 M05/M10 Q1006",
      "tafRaw": "TAF LRCL 090500Z 0906/0915 29010KT 9999 OVC040 \n  BECMG 0907/0909 VRB04KT",
      "metarHtml": "METAR LRCL 090730Z VRB02KT 9999 FEW034 M05/M10 Q1006",
      "tafHtml": "TAF LRCL 090500Z 0906/0915 29010KT 9999 OVC040 \n  BECMG 0907/0909 VRB04KT"
    },
    {
      "icao": "LRCV",
      "iata": "CRA",
      "name": "Craiova International Airport",
      "updatedAt": "090730Z",
      "visibility_m": 10000,
      "taf_visibility_m": 10000,
      "worst_visibility_m": 10000,
      "ceiling_ft": null,
      "hazards": [],
      "severityScore": 0,
      "metarRaw": "METAR LRCV 090730Z 28008KT CAVOK M04/M07 Q1008",
      "tafRaw": "TAF LRCV 090500Z 0906/0915 29010KT CAVOK",
      "metarHtml": "METAR LRCV 090730Z 28008KT <span class=\"hl-vis\">CAVOK</span> M04/M07 Q1008",
      "tafHtml": "TAF LRCV 090500Z 0906/0915 29010KT <span class=\"hl-vis\">CAVOK</span>"
    },
    {
      "icao": "LRSV",
      "iata": "SCV",
      "name": "Suceava Stefan cel Mare Airport",
      "updatedAt": "090730Z",
      "visibility_m": 10000,
      "taf_visibility_m": 10000,
      "worst_visibility_m": 10000,
      "ceiling_ft": 4400,
      "hazards": [],
      "severityScore": 0,
      "metarRaw": "METAR LRSV 090730Z 26008KT 9999 BKN044 M04/M11 Q0998",
      "tafRaw": "TAF LRSV 090500Z 0906/0915 28012KT 9999 BKN045 \n  BECMG 0912/0914 VRB04KT",
      "metarHtml": "METAR LRSV 090730Z 26008KT 9999 BKN044 M04/M11 Q0998",
      "tafHtml": "TAF LRSV 090500Z 0906/0915 28012KT 9999 BKN045 \n  BECMG 0912/0914 VRB04KT"
    },
    {
      "icao": "LUKK",
      "iata": "RMO",
      "name": "Chişinău International Airport",
      "updatedAt": "090730Z",
      "visibility_m": 10000,
      "taf_visibility_m": 10000,
      "worst_visibility_m": 10000,
      "ceiling_ft": 4700,
      "hazards": [],
      "severityScore": 0,
      "metarRaw": "METAR LUKK 090730Z 25008KT 9999 OVC047 M03/M07 Q1001 NOSIG",
      "tafRaw": "TAF LUKK 090516Z 0906/1006 27010KT 9999 SCT030 \n  TEMPO 0906/0909 28015G25KT \n  BECMG 0915/0917 VRB05KT",
      "metarHtml": "METAR LUKK 090730Z 25008KT 9999 OVC047 M03/M07 Q1001 NOSIG",
      "tafHtml": "TAF LUKK 090516Z 0906/1006 27010KT 9999 SCT030 \n  TEMPO 0906/0909 28015G25KT \n  BECMG 0915/0917 VRB05KT"
    },
    {
      "icao": "OEMA",
      "iata": "MED",
      "name": "Prince Mohammad Bin Abdulaziz Airport",
      "updatedAt": "090700Z",
      "visibility_m": 10000,
      "taf_visibility_m": 3000,
      "worst_visibility_m": 3000,
      "ceiling_ft": null,
      "hazards": [],
      "severityScore": 0,
      "metarRaw": "METAR OEMA 090700Z VRB02KT CAVOK 19/M03 Q1021 NOSIG",
      "tafRaw": "TAF OEMA 090500Z 0906/1012 25018KT 7000 FEW045 \n  PROB30 \n  TEMPO 0908/0918 3000 BLDU \n  BECMG 0918/0920 35006KT SCT045 \n  BECMG 1006/1008 08010KT",
      "metarHtml": "METAR OEMA 090700Z VRB02KT <span class=\"hl-vis\">CAVOK</span> 19/M03 Q1021 NOSIG",
      "tafHtml": "TAF OEMA 090500Z 0906/1012 25018KT 7000 FEW045 \n  PROB30 \n  TEMPO 0908/0918 3000 BLDU \n  BECMG 0918/0920 35006KT SCT045 \n  BECMG 1006/1008 08010KT"
    },
    {
      "icao": "OMAA",
      "iata": "AUH",
      "name": "Zayed International Airport",
      "updatedAt": "090700Z",
      "visibility_m": 8000,
      "taf_visibility_m": 10000,
      "worst_visibility_m": 8000,
      "ceiling_ft": null,
      "hazards": [],
      "severityScore": 0,
      "metarRaw": "METAR OMAA 090700Z 16004KT 100V210 8000 NSC 22/14 Q1020 NOSIG",
      "tafRaw": "TAF OMAA 090500Z 0906/1012 VRB02KT CAVOK \n  BECMG 0909/0911 33010KT \n  BECMG 0918/0920 VRB02KT",
      "metarHtml": "METAR OMAA 090700Z 16004KT 100V210 8000 NSC 22/14 Q1020 NOSIG",
      "tafHtml": "TAF OMAA 090500Z 0906/1012 VRB02KT <span class=\"hl-vis\">CAVOK</span> \n  BECMG 0909/0911 33010KT \n  BECMG 0918/0920 VRB02KT"
    }
  ],
  "stats": {
    "icaoCount": 159,
    "metarReturned": 159,
    "tafReturned": 145,
    "stationsWritten": 159,
    "missingMetar": 0,
    "missingTaf": 14
  },
  "errors": []
}