{
  "generatedAt": "2026-01-06T00:54:41.643Z",
  "stations": [
    {
      "icao": "EBCI",
      "iata": "CRL",
      "name": "Brussels South Charleroi Airport",
      "updatedAt": "060020Z",
      "visibility_m": 1800,
      "taf_visibility_m": 400,
      "worst_visibility_m": 400,
      "ceiling_ft": 300,
      "hazards": [
        "BR",
        "SHSN",
        "FZFG",
        "SN"
      ],
      "severityScore": 100,
      "metarRaw": "METAR EBCI 060020Z COR 25008KT 4000 BR BKN003 M02/M02 Q1013 TEMPO 1800 -SHSN",
      "tafRaw": "TAF EBCI 052300Z 0600/0706 27007KT 9999 SCT007 BKN013 \n  PROB30 \n  TEMPO 0600/0601 1200 SHSN BKN003 BKN012TCU \n  PROB40 \n  TEMPO 0601/0611 3000 BR -SG -SN BKN003 \n  PROB30 \n  TEMPO 0603/0609 0400 FZFG BKN002 \n  BECMG 0611/0613 SCT008 BKN018 \n  BECMG 0620/0622 21010KT SCT004 BKN007",
      "metarHtml": "METAR EBCI 060020Z COR 25008KT 4000 <span class=\"hl\">BR</span> BKN003 M02/M02 Q1013 TEMPO 1800 -<span class=\"hl\">SHSN</span>",
      "tafHtml": "TAF EBCI 052300Z 0600/0706 27007KT 9999 SCT007 BKN013 \n  PROB30 \n  TEMPO 0600/0601 1200 <span class=\"hl\">SHSN</span> BKN003 BKN012TCU \n  PROB40 \n  TEMPO 0601/0611 3000 <span class=\"hl\">BR</span> -SG -<span class=\"hl\">SN</span> BKN003 \n  PROB30 \n  TEMPO 0603/0609 <span class=\"hl-vis\">0400</span> <span class=\"hl\">FZFG</span> BKN002 \n  BECMG 0611/0613 SCT008 BKN018 \n  BECMG 0620/0622 21010KT SCT004 BKN007"
    },
    {
      "icao": "EHEH",
      "iata": "EIN",
      "name": "Eindhoven Airport",
      "updatedAt": "060025Z",
      "visibility_m": 3500,
      "taf_visibility_m": 500,
      "worst_visibility_m": 500,
      "ceiling_ft": 400,
      "hazards": [
        "FZFG",
        "BR"
      ],
      "severityScore": 100,
      "metarRaw": "METAR EHEH 060025Z AUTO 22007KT 190V270 3500 -FZUP FEW003 BKN004 BKN005 M01/M02 Q1012 YLO",
      "tafRaw": "TAF EHEH 052347Z 0600/0706 21010KT 6000 BKN008 OVC010 \n  TEMPO 0600/0603 3000 BR SCT003 BKN004 \n  BECMG 0601/0602 FEW010 \n  PROB30 0602/0610 0500 FZFG \n  TEMPO 0622/0702 SCT005 BKN007",
      "metarHtml": "METAR EHEH 060025Z AUTO 22007KT 190V270 3500 -FZUP FEW003 BKN004 BKN005 M01/M02 Q1012 YLO",
      "tafHtml": "TAF EHEH 052347Z 0600/0706 21010KT 6000 BKN008 OVC010 \n  TEMPO 0600/0603 3000 <span class=\"hl\">BR</span> SCT003 BKN004 \n  BECMG 0601/0602 FEW010 \n  PROB30 0602/0610 <span class=\"hl-vis\">0500</span> <span class=\"hl\">FZFG</span> \n  TEMPO 0622/0702 SCT005 BKN007"
    },
    {
      "icao": "EYVI",
      "iata": "VNO",
      "name": "Vilnius International Airport",
      "updatedAt": "060050Z",
      "visibility_m": 6000,
      "taf_visibility_m": 300,
      "worst_visibility_m": 300,
      "ceiling_ft": null,
      "hazards": [
        "FZFG",
        "BR",
        "SN"
      ],
      "severityScore": 100,
      "metarRaw": "METAR EYVI 060050Z 13005KT 6000 NSC M09/M10 Q1017 NOSIG",
      "tafRaw": "TAF EYVI 052300Z 0600/0624 VRB04KT 5000 BR SCT005 \n  TEMPO 0600/0606 13010KT 0300 FZFG BKN002 \n  BECMG 0606/0608 10010KT 8000 NSW NSC \n  BECMG 0609/0610 5000 SN BR BKN010 BKN030 \n  TEMPO 0610/0616 1500 BKN005 \n  BECMG 0618/0619 VRB04KT BR BKN005 \n  TEMPO 0620/0624 1500 BKN002",
      "metarHtml": "METAR EYVI 060050Z 13005KT 6000 NSC M09/M10 Q1017 NOSIG",
      "tafHtml": "TAF EYVI 052300Z 0600/0624 VRB04KT 5000 <span class=\"hl\">BR</span> SCT005 \n  TEMPO 0600/0606 13010KT <span class=\"hl-vis\">0300</span> <span class=\"hl\">FZFG</span> BKN002 \n  BECMG 0606/0608 10010KT 8000 NSW NSC \n  BECMG 0609/0610 5000 <span class=\"hl\">SN</span> <span class=\"hl\">BR</span> BKN010 BKN030 \n  TEMPO 0610/0616 1500 BKN005 \n  BECMG 0618/0619 VRB04KT <span class=\"hl\">BR</span> BKN005 \n  TEMPO 0620/0624 1500 BKN002"
    },
    {
      "icao": "LHDC",
      "iata": "DEB",
      "name": "Debrecen International Airport",
      "updatedAt": "060015Z",
      "visibility_m": 3800,
      "taf_visibility_m": 800,
      "worst_visibility_m": 800,
      "ceiling_ft": 400,
      "hazards": [
        "BR",
        "FZDZ",
        "FZRA",
        "PL",
        "SN"
      ],
      "severityScore": 100,
      "metarRaw": "METAR LHDC 060015Z AUTO 05003KT 3800 -FZDZ BR BKN004 OVC015 M00/M00 Q1009",
      "tafRaw": "TAF LHDC 051715Z 0518/0603 05006KT 4000 -SN SCT012 OVC025 \n  TEMPO 0518/0524 0800 SN BKN002 OVC015 \n  PROB40 \n  TEMPO 0518/0522 6000 FZRA PL BKN010 OVC025",
      "metarHtml": "METAR LHDC 060015Z AUTO 05003KT 3800 -<span class=\"hl\">FZDZ</span> <span class=\"hl\">BR</span> BKN004 OVC015 M00/M00 Q1009",
      "tafHtml": "TAF LHDC 051715Z 0518/0603 05006KT 4000 -<span class=\"hl\">SN</span> SCT012 OVC025 \n  TEMPO 0518/0524 <span class=\"hl-vis\">0800</span> <span class=\"hl\">SN</span> BKN002 OVC015 \n  PROB40 \n  TEMPO 0518/0522 6000 <span class=\"hl\">FZRA</span> <span class=\"hl\">PL</span> BKN010 OVC025"
    },
    {
      "icao": "LRIA",
      "iata": "IAS",
      "name": "Iaşi Airport",
      "updatedAt": "060030Z",
      "visibility_m": 2300,
      "taf_visibility_m": 100,
      "worst_visibility_m": 100,
      "ceiling_ft": 0,
      "hazards": [
        "BR",
        "SN",
        "FG",
        "DZ"
      ],
      "severityScore": 100,
      "metarRaw": "METAR LRIA 060030Z 10008KT 2300 -SN BR BKN000 OVC002 00/00 Q1013",
      "tafRaw": "TAF LRIA 052300Z 0600/0609 12006KT 1500 DZ BR BKN002 OVC005 \n  BECMG 0600/0603 0600 FG OVC001 \n  TEMPO 0603/0608 0100 FG",
      "metarHtml": "METAR LRIA 060030Z 10008KT 2300 -<span class=\"hl\">SN</span> <span class=\"hl\">BR</span> BKN000 OVC002 00/00 Q1013",
      "tafHtml": "TAF LRIA 052300Z <span class=\"hl-vis\">0600</span>/0609 12006KT 1500 <span class=\"hl\">DZ</span> <span class=\"hl\">BR</span> BKN002 OVC005 \n  BECMG <span class=\"hl-vis\">0600</span>/0603 <span class=\"hl-vis\">0600</span> <span class=\"hl\">FG</span> OVC001 \n  TEMPO 0603/0608 <span class=\"hl-vis\">0100</span> <span class=\"hl\">FG</span>"
    },
    {
      "icao": "LRBC",
      "iata": "BCM",
      "name": "Bacău George Enescu International  Airport",
      "updatedAt": "060030Z",
      "visibility_m": 1200,
      "taf_visibility_m": 100,
      "worst_visibility_m": 100,
      "ceiling_ft": 400,
      "hazards": [
        "BR",
        "FZFG",
        "FG"
      ],
      "severityScore": 100,
      "metarRaw": "METAR LRBC 060030Z 19003KT 1200 R16/1400D BR VV004 M00/M01 Q1012",
      "tafRaw": "TAF LRBC 052300Z 0600/0609 VRB03KT 1500 BR BKN002 OVC005 \n  BECMG 0600/0602 0600 FZFG VV001 \n  TEMPO 0603/0607 0100 FG \n  BECMG 0607/0609 1500 BR OVC002",
      "metarHtml": "METAR LRBC 060030Z 19003KT 1200 R16/1400D <span class=\"hl\">BR</span> VV004 M00/M01 Q1012",
      "tafHtml": "TAF LRBC 052300Z <span class=\"hl-vis\">0600</span>/0609 VRB03KT 1500 <span class=\"hl\">BR</span> BKN002 OVC005 \n  BECMG <span class=\"hl-vis\">0600</span>/0602 <span class=\"hl-vis\">0600</span> <span class=\"hl\">FZFG</span> VV001 \n  TEMPO 0603/0607 <span class=\"hl-vis\">0100</span> <span class=\"hl\">FG</span> \n  BECMG 0607/0609 1500 <span class=\"hl\">BR</span> OVC002"
    },
    {
      "icao": "LRBS",
      "iata": "BBU",
      "name": "Bucharest Băneasa Aurel Vlaicu International Airport",
      "updatedAt": "060030Z",
      "visibility_m": 250,
      "taf_visibility_m": 200,
      "worst_visibility_m": 200,
      "ceiling_ft": 100,
      "hazards": [
        "FG",
        "BR",
        "DZ"
      ],
      "severityScore": 100,
      "metarRaw": "METAR LRBS 060030Z 07005KT 0250 R07/0800N FG VV001 02/02 Q1012 NOSIG",
      "tafRaw": "TAF LRBS 052300Z 0600/0624 05006KT 0600 FG VV001 \n  TEMPO 0600/0606 0200 FG \n  BECMG 0607/0609 1500 -DZ BR OVC002 \n  TEMPO 0611/0615 3000 -DZ BR OVC005 \n  BECMG 0619/0621 0600 FG OVC001",
      "metarHtml": "METAR LRBS 060030Z 07005KT <span class=\"hl-vis\">0250</span> R07/0800N <span class=\"hl\">FG</span> VV001 02/02 Q1012 NOSIG",
      "tafHtml": "TAF LRBS 052300Z <span class=\"hl-vis\">0600</span>/0624 05006KT <span class=\"hl-vis\">0600</span> <span class=\"hl\">FG</span> VV001 \n  TEMPO <span class=\"hl-vis\">0600</span>/0606 <span class=\"hl-vis\">0200</span> <span class=\"hl\">FG</span> \n  BECMG 0607/0609 1500 -<span class=\"hl\">DZ</span> <span class=\"hl\">BR</span> OVC002 \n  TEMPO 0611/0615 3000 -<span class=\"hl\">DZ</span> <span class=\"hl\">BR</span> OVC005 \n  BECMG 0619/0621 <span class=\"hl-vis\">0600</span> <span class=\"hl\">FG</span> OVC001"
    },
    {
      "icao": "LRCV",
      "iata": "CRA",
      "name": "Craiova International Airport",
      "updatedAt": "060030Z",
      "visibility_m": 400,
      "taf_visibility_m": 150,
      "worst_visibility_m": 150,
      "ceiling_ft": 200,
      "hazards": [
        "FG",
        "RA",
        "BR"
      ],
      "severityScore": 100,
      "metarRaw": "METAR LRCV 060030Z 00000KT 0400 R26/0450N -RA FG VV002 01/01 Q1012",
      "tafRaw": "TAF LRCV 052300Z 0600/0609 07006KT 0350 FG VV001 \n  TEMPO 0600/0604 0150 FG \n  BECMG 0604/0606 1500 BR OVC002 \n  BECMG 0606/0608 3000 -RA BR OVC005",
      "metarHtml": "METAR LRCV 060030Z 00000KT <span class=\"hl-vis\">0400</span> R26/0450N -<span class=\"hl\">RA</span> <span class=\"hl\">FG</span> VV002 01/01 Q1012",
      "tafHtml": "TAF LRCV 052300Z 0600/0609 07006KT <span class=\"hl-vis\">0350</span> <span class=\"hl\">FG</span> VV001 \n  TEMPO 0600/0604 <span class=\"hl-vis\">0150</span> <span class=\"hl\">FG</span> \n  BECMG 0604/0606 1500 <span class=\"hl\">BR</span> OVC002 \n  BECMG 0606/0608 3000 -<span class=\"hl\">RA</span> <span class=\"hl\">BR</span> OVC005"
    },
    {
      "icao": "LROP",
      "iata": "OTP",
      "name": "Bucharest Henri Coandă International Airport",
      "updatedAt": "060030Z",
      "visibility_m": 400,
      "taf_visibility_m": 200,
      "worst_visibility_m": 200,
      "ceiling_ft": 200,
      "hazards": [
        "FG",
        "BR",
        "DZ"
      ],
      "severityScore": 100,
      "metarRaw": "METAR LROP 060030Z 08007KT 0400 R08R/0700N R08L/0600N FG VV002 02/02 Q1012 NOSIG",
      "tafRaw": "TAF LROP 052300Z 0600/0624 05006KT 0600 FG VV001 \n  TEMPO 0600/0606 0200 FG \n  BECMG 0607/0609 1500 -DZ BR OVC002 \n  TEMPO 0611/0615 3000 -DZ BR OVC005 \n  BECMG 0619/0621 0600 FG OVC001",
      "metarHtml": "METAR LROP 060030Z 08007KT <span class=\"hl-vis\">0400</span> R08R/0700N R08L/0600N <span class=\"hl\">FG</span> VV002 02/02 Q1012 NOSIG",
      "tafHtml": "TAF LROP 052300Z <span class=\"hl-vis\">0600</span>/0624 05006KT <span class=\"hl-vis\">0600</span> <span class=\"hl\">FG</span> VV001 \n  TEMPO <span class=\"hl-vis\">0600</span>/0606 <span class=\"hl-vis\">0200</span> <span class=\"hl\">FG</span> \n  BECMG 0607/0609 1500 -<span class=\"hl\">DZ</span> <span class=\"hl\">BR</span> OVC002 \n  TEMPO 0611/0615 3000 -<span class=\"hl\">DZ</span> <span class=\"hl\">BR</span> OVC005 \n  BECMG 0619/0621 <span class=\"hl-vis\">0600</span> <span class=\"hl\">FG</span> OVC001"
    },
    {
      "icao": "LRSV",
      "iata": "SCV",
      "name": "Suceava Stefan cel Mare Airport",
      "updatedAt": "060030Z",
      "visibility_m": 200,
      "taf_visibility_m": 100,
      "worst_visibility_m": 100,
      "ceiling_ft": 100,
      "hazards": [
        "FZFG",
        "FG",
        "BR"
      ],
      "severityScore": 100,
      "metarRaw": "METAR LRSV 060030Z 14010KT 0200 R34/0650N FZFG VV001 M02/M02 Q1009",
      "tafRaw": "TAF LRSV 052300Z 0600/0609 13012KT 0300 FZFG VV001 \n  TEMPO 0601/0604 0100 FZFG \n  BECMG 0604/0606 VRB04KT 0800 FG \n  BECMG 0606/0608 3000 BR BKN002 \n  BECMG 0608/0609 5000",
      "metarHtml": "METAR LRSV 060030Z 14010KT <span class=\"hl-vis\">0200</span> R34/0650N <span class=\"hl\">FZFG</span> VV001 M02/M02 Q1009",
      "tafHtml": "TAF LRSV 052300Z 0600/0609 13012KT <span class=\"hl-vis\">0300</span> <span class=\"hl\">FZFG</span> VV001 \n  TEMPO 0601/0604 <span class=\"hl-vis\">0100</span> <span class=\"hl\">FZFG</span> \n  BECMG 0604/0606 VRB04KT <span class=\"hl-vis\">0800</span> <span class=\"hl\">FG</span> \n  BECMG 0606/0608 3000 <span class=\"hl\">BR</span> BKN002 \n  BECMG 0608/0609 5000"
    },
    {
      "icao": "LUKK",
      "iata": "RMO",
      "name": "Chişinău International Airport",
      "updatedAt": "060030Z",
      "visibility_m": 500,
      "taf_visibility_m": 300,
      "worst_visibility_m": 300,
      "ceiling_ft": 100,
      "hazards": [
        "FZFG",
        "FG",
        "RA",
        "FZDZ",
        "BR",
        "FZRA",
        "DZ"
      ],
      "severityScore": 100,
      "metarRaw": "METAR LUKK 060030Z 09007KT 0550 R08/0600N -RA FG VV001 00/00 Q1014 TEMPO 0500 FZDZ FZFG VV001",
      "tafRaw": "TAF LUKK 052329Z 0600/0624 12006KT 0600 FZRA FZFG OVC002 \n  BECMG 0600/0603 0300 DZ FG VV001 \n  TEMPO 0609/0613 1000 BR OVC003",
      "metarHtml": "METAR LUKK 060030Z 09007KT <span class=\"hl-vis\">0550</span> R08/0600N -<span class=\"hl\">RA</span> <span class=\"hl\">FG</span> VV001 00/00 Q1014 TEMPO <span class=\"hl-vis\">0500</span> <span class=\"hl\">FZDZ</span> <span class=\"hl\">FZFG</span> VV001",
      "tafHtml": "TAF LUKK 052329Z <span class=\"hl-vis\">0600</span>/0624 12006KT <span class=\"hl-vis\">0600</span> <span class=\"hl\">FZRA</span> <span class=\"hl\">FZFG</span> OVC002 \n  BECMG <span class=\"hl-vis\">0600</span>/0603 <span class=\"hl-vis\">0300</span> <span class=\"hl\">DZ</span> <span class=\"hl\">FG</span> VV001 \n  TEMPO 0609/0613 1000 <span class=\"hl\">BR</span> OVC003"
    },
    {
      "icao": "UBBB",
      "iata": "GYD",
      "name": "Heydar Aliyev International Airport",
      "updatedAt": "060030Z",
      "visibility_m": 100,
      "taf_visibility_m": 200,
      "worst_visibility_m": 100,
      "ceiling_ft": 100,
      "hazards": [
        "FG",
        "BR"
      ],
      "severityScore": 100,
      "metarRaw": "METAR UBBB 060030Z 30004KT 0100 R34/0500 R35/0350 FG BKN001 04/04 Q1025 NOSIG",
      "tafRaw": "TAF UBBB 052309Z 0600/0624 30006KT 0200 FG BKN001 TX12/0610Z TN02/0602Z \n  TEMPO 0600/0606 VRB04KT 0600 BKN003 \n  BECMG 0606/0608 36008KT 9999 NSW SCT020 \n  BECMG 0609/0611 16008KT \n  TEMPO 0615/0624 18006KT 2000 BR BCFG SCT007",
      "metarHtml": "METAR UBBB 060030Z 30004KT <span class=\"hl-vis\">0100</span> R34/0500 R35/0350 <span class=\"hl\">FG</span> BKN001 04/04 Q1025 NOSIG",
      "tafHtml": "TAF UBBB 052309Z <span class=\"hl-vis\">0600</span>/0624 30006KT <span class=\"hl-vis\">0200</span> <span class=\"hl\">FG</span> BKN001 TX12/0610Z TN02/0602Z \n  TEMPO <span class=\"hl-vis\">0600</span>/0606 VRB04KT <span class=\"hl-vis\">0600</span> BKN003 \n  BECMG 0606/0608 36008KT 9999 NSW SCT020 \n  BECMG 0609/0611 16008KT \n  TEMPO 0615/0624 18006KT 2000 <span class=\"hl\">BR</span> BCFG SCT007"
    },
    {
      "icao": "EPMO",
      "iata": "WMI",
      "name": "Modlin Airport",
      "updatedAt": "060030Z",
      "visibility_m": 3500,
      "taf_visibility_m": 100,
      "worst_visibility_m": 100,
      "ceiling_ft": null,
      "hazards": [
        "BR",
        "FZFG"
      ],
      "severityScore": 95,
      "metarRaw": "METAR EPMO 060030Z 36004KT 3500 BR NSC M12/M13 Q1014",
      "tafRaw": "TAF EPMO 052330Z 0600/0624 VRB02KT 2000 BR NSC \n  BECMG 0600/0603 0400 FZFG \n  TEMPO 0600/0609 0100 FZFG BKN001 \n  BECMG 0609/0612 6000 NSW \n  BECMG 0615/0618 1500 BR \n  PROB40 0615/0624 0300 FZFG BKN001",
      "metarHtml": "METAR EPMO 060030Z 36004KT 3500 <span class=\"hl\">BR</span> NSC M12/M13 Q1014",
      "tafHtml": "TAF EPMO 052330Z 0600/0624 VRB02KT 2000 <span class=\"hl\">BR</span> NSC \n  BECMG 0600/0603 <span class=\"hl-vis\">0400</span> <span class=\"hl\">FZFG</span> \n  TEMPO 0600/0609 <span class=\"hl-vis\">0100</span> <span class=\"hl\">FZFG</span> BKN001 \n  BECMG 0609/0612 6000 NSW \n  BECMG 0615/0618 1500 <span class=\"hl\">BR</span> \n  PROB40 0615/0624 <span class=\"hl-vis\">0300</span> <span class=\"hl\">FZFG</span> BKN001"
    },
    {
      "icao": "EPSY",
      "iata": "SZY",
      "name": "Olsztyn-Mazury Airport",
      "updatedAt": "060030Z",
      "visibility_m": 3300,
      "taf_visibility_m": 200,
      "worst_visibility_m": 200,
      "ceiling_ft": null,
      "hazards": [
        "BR",
        "FZFG"
      ],
      "severityScore": 95,
      "metarRaw": "METAR EPSY 060030Z 01003KT 3300 0550N R01/0650D PRFG BR FEW015 M12/M13 Q1014",
      "tafRaw": "TAF EPSY 052330Z 0600/0609 VRB02KT 5000 BR NSC \n  TEMPO 0600/0606 0600 FZFG \n  PROB40 \n  TEMPO 0600/0606 0200 FZFG OVC001",
      "metarHtml": "METAR EPSY 060030Z 01003KT 3300 0550N R01/0650D PRFG <span class=\"hl\">BR</span> FEW015 M12/M13 Q1014",
      "tafHtml": "TAF EPSY 052330Z <span class=\"hl-vis\">0600</span>/0609 VRB02KT 5000 <span class=\"hl\">BR</span> NSC \n  TEMPO <span class=\"hl-vis\">0600</span>/0606 <span class=\"hl-vis\">0600</span> <span class=\"hl\">FZFG</span> \n  PROB40 \n  TEMPO <span class=\"hl-vis\">0600</span>/0606 <span class=\"hl-vis\">0200</span> <span class=\"hl\">FZFG</span> OVC001"
    },
    {
      "icao": "EYKA",
      "iata": "KUN",
      "name": "Kaunas International Airport",
      "updatedAt": "060050Z",
      "visibility_m": 6000,
      "taf_visibility_m": 350,
      "worst_visibility_m": 350,
      "ceiling_ft": null,
      "hazards": [
        "FZFG",
        "BR",
        "SN"
      ],
      "severityScore": 93,
      "metarRaw": "METAR EYKA 060050Z AUTO VRB02KT 6000 BKN026/// OVC170/// M08/M08 Q1017",
      "tafRaw": "TAF EYKA 052300Z 0600/0624 VRB04KT 5000 BR SCT005 \n  TEMPO 0600/0607 1500 BKN002 \n  PROB40 \n  TEMPO 0600/0607 0350 FZFG \n  BECMG 0607/0609 8000 NSW NSC \n  BECMG 0610/0613 5000 SN BR SCT010 OVC030 \n  TEMPO 0613/0618 3000 SCT005 BKN010 \n  BECMG 0618/0620 BR BKN005 \n  TEMPO 0620/0624 1500 BKN002 OVC010",
      "metarHtml": "METAR EYKA 060050Z AUTO VRB02KT 6000 BKN026/// OVC170/// M08/M08 Q1017",
      "tafHtml": "TAF EYKA 052300Z 0600/0624 VRB04KT 5000 <span class=\"hl\">BR</span> SCT005 \n  TEMPO 0600/0607 1500 BKN002 \n  PROB40 \n  TEMPO 0600/0607 <span class=\"hl-vis\">0350</span> <span class=\"hl\">FZFG</span> \n  BECMG 0607/0609 8000 NSW NSC \n  BECMG 0610/0613 5000 <span class=\"hl\">SN</span> <span class=\"hl\">BR</span> SCT010 OVC030 \n  TEMPO 0613/0618 3000 SCT005 BKN010 \n  BECMG 0618/0620 <span class=\"hl\">BR</span> BKN005 \n  TEMPO 0620/0624 1500 BKN002 OVC010"
    },
    {
      "icao": "LRSB",
      "iata": "SBZ",
      "name": "Sibiu International Airport",
      "updatedAt": "060030Z",
      "visibility_m": 7000,
      "taf_visibility_m": 600,
      "worst_visibility_m": 600,
      "ceiling_ft": 8600,
      "hazards": [
        "FG",
        "BR",
        "FZDZ",
        "DZ"
      ],
      "severityScore": 93,
      "metarRaw": "METAR LRSB 060030Z VRB02KT 7000 BKN086 M00/M01 Q1007",
      "tafRaw": "TAF LRSB 052300Z 0600/0624 VRB04KT 5000 BR SCT005 SCT060 \n  TEMPO 0600/0606 1500 -DZ BR BKN005 BKN030 \n  PROB40 \n  TEMPO 0602/0605 -FZDZ BR \n  BECMG 0612/0614 1500 BR OVC005 \n  TEMPO 0614/0618 0600 FG OVC002",
      "metarHtml": "METAR LRSB 060030Z VRB02KT 7000 BKN086 M00/M01 Q1007",
      "tafHtml": "TAF LRSB 052300Z <span class=\"hl-vis\">0600</span>/0624 VRB04KT 5000 <span class=\"hl\">BR</span> SCT005 SCT060 \n  TEMPO <span class=\"hl-vis\">0600</span>/0606 1500 -<span class=\"hl\">DZ</span> <span class=\"hl\">BR</span> BKN005 BKN030 \n  PROB40 \n  TEMPO 0602/0605 -<span class=\"hl\">FZDZ</span> <span class=\"hl\">BR</span> \n  BECMG 0612/0614 1500 <span class=\"hl\">BR</span> OVC005 \n  TEMPO 0614/0618 <span class=\"hl-vis\">0600</span> <span class=\"hl\">FG</span> OVC002"
    },
    {
      "icao": "LFPO",
      "iata": "ORY",
      "name": "Paris-Orly Airport",
      "updatedAt": "060030Z",
      "visibility_m": 700,
      "taf_visibility_m": 4000,
      "worst_visibility_m": 700,
      "ceiling_ft": 400,
      "hazards": [
        "BR",
        "SN"
      ],
      "severityScore": 88,
      "metarRaw": "METAR LFPO 060030Z AUTO 29004KT 5000 0700 R02/1800D R25/P2000 R07/P2000 R24/1100D R06/P2000 BCFG BKN034 M02/M03 Q1016 TEMPO BKN004",
      "tafRaw": "TAF LFPO 052300Z 0600/0706 29005KT 9999 FEW007 BKN020 \n  PROB30 \n  TEMPO 0600/0602 4000 BR BKN004 \n  PROB30 \n  TEMPO 0705/0706 4000 -SN BKN006",
      "metarHtml": "METAR LFPO 060030Z AUTO 29004KT 5000 <span class=\"hl-vis\">0700</span> R02/1800D R25/P2000 R07/P2000 R24/1100D R06/P2000 BCFG BKN034 M02/M03 Q1016 TEMPO BKN004",
      "tafHtml": "TAF LFPO 052300Z 0600/0706 29005KT 9999 FEW007 BKN020 \n  PROB30 \n  TEMPO 0600/0602 4000 <span class=\"hl\">BR</span> BKN004 \n  PROB30 \n  TEMPO 0705/0706 4000 -<span class=\"hl\">SN</span> BKN006"
    },
    {
      "icao": "LQSA",
      "iata": "SJJ",
      "name": "Sarajevo International Airport",
      "updatedAt": "060030Z",
      "visibility_m": 4000,
      "taf_visibility_m": 500,
      "worst_visibility_m": 500,
      "ceiling_ft": 600,
      "hazards": [
        "BR",
        "SN"
      ],
      "severityScore": 88,
      "metarRaw": "METAR LQSA 060030Z VRB01KT 4000 BR BKN006 OVC025 00/00 Q1007",
      "tafRaw": "TAF LQSA 052300Z 0600/0624 29005KT 2500 -SN BKN010 OVC030 TX00/0600Z TNM04/0624Z \n  PROB40 \n  TEMPO 0600/0606 1000 SN BKN004 OVC020 \n  TEMPO 0606/0612 6000 NSW SCT012 OVC030 \n  TEMPO 0612/0624 1000 SN BKN004 OVC015 \n  PROB30 \n  TEMPO 0621/0624 35012KT 0500 +SN",
      "metarHtml": "METAR LQSA 060030Z VRB01KT 4000 <span class=\"hl\">BR</span> BKN006 OVC025 00/00 Q1007",
      "tafHtml": "TAF LQSA 052300Z 0600/0624 29005KT 2500 -<span class=\"hl\">SN</span> BKN010 OVC030 TX00/0600Z TNM04/0624Z \n  PROB40 \n  TEMPO 0600/0606 1000 <span class=\"hl\">SN</span> BKN004 OVC020 \n  TEMPO 0606/0612 6000 NSW SCT012 OVC030 \n  TEMPO 0612/0624 1000 <span class=\"hl\">SN</span> BKN004 OVC015 \n  PROB30 \n  TEMPO 0621/0624 35012KT <span class=\"hl-vis\">0500</span> +<span class=\"hl\">SN</span>"
    },
    {
      "icao": "EPWA",
      "iata": "WAW",
      "name": "Warsaw Chopin Airport",
      "updatedAt": "060030Z",
      "visibility_m": 10000,
      "taf_visibility_m": 300,
      "worst_visibility_m": 300,
      "ceiling_ft": null,
      "hazards": [
        "FZFG",
        "BR"
      ],
      "severityScore": 85,
      "metarRaw": "METAR EPWA 060030Z 07004KT CAVOK M05/M08 Q1013 NOSIG",
      "tafRaw": "TAF EPWA 052330Z 0600/0624 VRB02KT 8000 NSC \n  TEMPO 0600/0610 2000 BR \n  PROB40 0600/0609 0300 FZFG BKN001 \n  BECMG 0615/0618 VRB02KT 4000 BR \n  PROB40 0618/0624 0600 FZFG BKN001",
      "metarHtml": "METAR EPWA 060030Z 07004KT <span class=\"hl-vis\">CAVOK</span> M05/M08 Q1013 NOSIG",
      "tafHtml": "TAF EPWA 052330Z <span class=\"hl-vis\">0600</span>/0624 VRB02KT 8000 NSC \n  TEMPO <span class=\"hl-vis\">0600</span>/0610 2000 <span class=\"hl\">BR</span> \n  PROB40 <span class=\"hl-vis\">0600</span>/0609 <span class=\"hl-vis\">0300</span> <span class=\"hl\">FZFG</span> BKN001 \n  BECMG 0615/0618 VRB02KT 4000 <span class=\"hl\">BR</span> \n  PROB40 0618/0624 <span class=\"hl-vis\">0600</span> <span class=\"hl\">FZFG</span> BKN001"
    },
    {
      "icao": "EKBI",
      "iata": "BLL",
      "name": "Billund Airport",
      "updatedAt": "060050Z",
      "visibility_m": 2000,
      "taf_visibility_m": 500,
      "worst_visibility_m": 500,
      "ceiling_ft": null,
      "hazards": [
        "FZFG",
        "SN"
      ],
      "severityScore": 83,
      "metarRaw": "METAR EKBI 060050Z 00000KT 2000 R09/0600D R27/0550D BCFG NSC M08/M09 Q1010",
      "tafRaw": "TAF EKBI 052327Z 0600/0624 05005KT 9999 FEW006 BKN035 \n  TEMPO 0600/0603 BKN004 \n  PROB40 0603/0609 0500 FZFG BKN003 \n  TEMPO 0609/0624 0800 SN BKN005 SCT015CB",
      "metarHtml": "METAR EKBI 060050Z 00000KT 2000 R09/0600D R27/0550D BCFG NSC M08/M09 Q1010",
      "tafHtml": "TAF EKBI 052327Z 0600/0624 05005KT 9999 FEW006 BKN035 \n  TEMPO 0600/0603 BKN004 \n  PROB40 0603/0609 <span class=\"hl-vis\">0500</span> <span class=\"hl\">FZFG</span> BKN003 \n  TEMPO 0609/0624 <span class=\"hl-vis\">0800</span> <span class=\"hl\">SN</span> BKN005 SCT015CB"
    },
    {
      "icao": "LRTM",
      "iata": "TGM",
      "name": "Târgu Mureş Transilvania International Airport",
      "updatedAt": "060030Z",
      "visibility_m": 2600,
      "taf_visibility_m": 1500,
      "worst_visibility_m": 1500,
      "ceiling_ft": null,
      "hazards": [
        "RA",
        "BR",
        "FZRA",
        "DZ"
      ],
      "severityScore": 77,
      "metarRaw": "METAR LRTM 060030Z AUTO 10003KT 2600 -RA FEW043/// BKN055/// BKN070/// 01/00 Q1008",
      "tafRaw": "TAF LRTM 051400Z 0515/0524 VRB04KT 3000 -RASN BR BKN010 OVC025 \n  TEMPO 0515/0518 -FZRA BR BKN005 OVC020 \n  BECMG 0518/0520 1500 -DZ BR OVC002",
      "metarHtml": "METAR LRTM 060030Z AUTO 10003KT 2600 -<span class=\"hl\">RA</span> FEW043/// BKN055/// BKN070/// 01/00 Q1008",
      "tafHtml": "TAF LRTM 051400Z 0515/0524 VRB04KT 3000 -RASN <span class=\"hl\">BR</span> BKN010 OVC025 \n  TEMPO 0515/0518 -<span class=\"hl\">FZRA</span> <span class=\"hl\">BR</span> BKN005 OVC020 \n  BECMG 0518/0520 1500 -<span class=\"hl\">DZ</span> <span class=\"hl\">BR</span> OVC002"
    },
    {
      "icao": "UAAA",
      "iata": "ALA",
      "name": "Almaty International Airport",
      "updatedAt": "060030Z",
      "visibility_m": 3500,
      "taf_visibility_m": 400,
      "worst_visibility_m": 400,
      "ceiling_ft": null,
      "hazards": [
        "BR",
        "FZFG"
      ],
      "severityScore": 75,
      "metarRaw": "METAR UAAA 060030Z 22001MPS 3500 BR SCT100 M04/M05 Q1034 NOSIG",
      "tafRaw": "TAF UAAA 052301Z 0600/0624 06003MPS 3100 BR FU BKN011 OVC030 TX01/0609Z TNM03/0602Z \n  TEMPO 0600/0604 0400 FZFG OVC005 \n  FM060500 06003G08MPS 6000 SCT100 \n  FM061200 22003G08MPS 3100 BR FU SCT100 \n  TEMPO 0612/0624 1200",
      "metarHtml": "METAR UAAA 060030Z 22001MPS 3500 <span class=\"hl\">BR</span> SCT100 M04/M05 Q1034 NOSIG",
      "tafHtml": "TAF UAAA 052301Z 0600/0624 06003MPS 3100 <span class=\"hl\">BR</span> FU BKN011 OVC030 TX01/0609Z TNM03/0602Z \n  TEMPO 0600/0604 <span class=\"hl-vis\">0400</span> <span class=\"hl\">FZFG</span> OVC005 \n  FM060500 06003G08MPS 6000 SCT100 \n  FM061200 22003G08MPS 3100 <span class=\"hl\">BR</span> FU SCT100 \n  TEMPO 0612/0624 1200"
    },
    {
      "icao": "EDDH",
      "iata": "HAM",
      "name": "Hamburg Helmut Schmidt Airport",
      "updatedAt": "060050Z",
      "visibility_m": 8000,
      "taf_visibility_m": 1000,
      "worst_visibility_m": 1000,
      "ceiling_ft": 600,
      "hazards": [
        "SHSN",
        "FZDZ"
      ],
      "severityScore": 73,
      "metarRaw": "METAR EDDH 060050Z AUTO 22006KT 8000 BKN006 M01/M02 Q1011 TEMPO BKN010",
      "tafRaw": "TAF EDDH 052300Z 0600/0706 20005KT 8000 OVC012 \n  TEMPO 0600/0610 BKN015 \n  PROB40 \n  TEMPO 0600/0610 1000 -SHSN BKN004TCU \n  BECMG 0610/0612 BKN015 \n  TEMPO 0614/0618 1200 SHSN BKN012CB \n  BECMG 0616/0619 BKN008 \n  PROB30 \n  TEMPO 0619/0701 3000 -FZDZ BKN004 \n  BECMG 0700/0702 CAVOK",
      "metarHtml": "METAR EDDH 060050Z AUTO 22006KT 8000 BKN006 M01/M02 Q1011 TEMPO BKN010",
      "tafHtml": "TAF EDDH 052300Z 0600/0706 20005KT 8000 OVC012 \n  TEMPO 0600/0610 BKN015 \n  PROB40 \n  TEMPO 0600/0610 1000 -<span class=\"hl\">SHSN</span> BKN004TCU \n  BECMG 0610/0612 BKN015 \n  TEMPO 0614/0618 1200 <span class=\"hl\">SHSN</span> BKN012CB \n  BECMG 0616/0619 BKN008 \n  PROB30 \n  TEMPO 0619/0701 3000 -<span class=\"hl\">FZDZ</span> BKN004 \n  BECMG 0700/0702 <span class=\"hl-vis\">CAVOK</span>"
    },
    {
      "icao": "LYBE",
      "iata": "BEG",
      "name": "Belgrade Nikola Tesla Airport",
      "updatedAt": "060030Z",
      "visibility_m": 10000,
      "taf_visibility_m": 2000,
      "worst_visibility_m": 2000,
      "ceiling_ft": 600,
      "hazards": [
        "FZRA",
        "BR"
      ],
      "severityScore": 70,
      "metarRaw": "METAR LYBE 060030Z 27008KT 9999 -FZRA BKN006 M00/M01 Q1011 NOSIG",
      "tafRaw": "TAF LYBE 052300Z 0600/0624 27007KT 6000 BKN006 BKN025 TXM00/0612Z TNM03/0624Z \n  TEMPO 0600/0606 2000 BR BKN002 BKN020 \n  PROB40 \n  TEMPO 0600/0603 -FZRA \n  TEMPO 0612/0615 4000 SG BKN002 OVC020",
      "metarHtml": "METAR LYBE 060030Z 27008KT 9999 -<span class=\"hl\">FZRA</span> BKN006 M00/M01 Q1011 NOSIG",
      "tafHtml": "TAF LYBE 052300Z 0600/0624 27007KT 6000 BKN006 BKN025 TXM00/0612Z TNM03/0624Z \n  TEMPO 0600/0606 2000 <span class=\"hl\">BR</span> BKN002 BKN020 \n  PROB40 \n  TEMPO 0600/0603 -<span class=\"hl\">FZRA</span> \n  TEMPO 0612/0615 4000 SG BKN002 OVC020"
    },
    {
      "icao": "HESX",
      "iata": "SPX",
      "name": "Sphinx International Airport",
      "updatedAt": "060000Z",
      "visibility_m": 10000,
      "taf_visibility_m": 500,
      "worst_visibility_m": 500,
      "ceiling_ft": null,
      "hazards": [
        "FG",
        "BR"
      ],
      "severityScore": 65,
      "metarRaw": "METAR HESX 060000Z 14003KT CAVOK 08/02 Q1019 NOSIG",
      "tafRaw": "TAF HESX 052300Z 0600/0706 VRB02KT 6000 NSC \n  TEMPO 0600/0608 3000 BR \n  PROB40 \n  TEMPO 0603/0606 0500 FG \n  BECMG 0612/0614 03007KT CAVOK",
      "metarHtml": "METAR HESX 060000Z 14003KT <span class=\"hl-vis\">CAVOK</span> 08/02 Q1019 NOSIG",
      "tafHtml": "TAF HESX 052300Z 0600/0706 VRB02KT 6000 NSC \n  TEMPO 0600/0608 3000 <span class=\"hl\">BR</span> \n  PROB40 \n  TEMPO 0603/0606 <span class=\"hl-vis\">0500</span> <span class=\"hl\">FG</span> \n  BECMG 0612/0614 03007KT <span class=\"hl-vis\">CAVOK</span>"
    },
    {
      "icao": "LFOB",
      "iata": "BVA",
      "name": "Beauvais Tillé airport",
      "updatedAt": "060030Z",
      "visibility_m": 600,
      "taf_visibility_m": 600,
      "worst_visibility_m": 600,
      "ceiling_ft": null,
      "hazards": [
        "FZFG",
        "BR"
      ],
      "severityScore": 65,
      "metarRaw": "METAR LFOB 060030Z AUTO 29006KT 8000 FEW025 M06/M06 Q1016 TEMPO 0600 FZFG VV///",
      "tafRaw": "TAF LFOB 052300Z 0600/0624 29006KT 6000 SCT020 \n  TEMPO 0600/0610 3000 BR \n  PROB40 \n  TEMPO 0600/0610 0600 FZFG VV///",
      "metarHtml": "METAR LFOB 060030Z AUTO 29006KT 8000 FEW025 M06/M06 Q1016 TEMPO <span class=\"hl-vis\">0600</span> <span class=\"hl\">FZFG</span> VV///",
      "tafHtml": "TAF LFOB 052300Z <span class=\"hl-vis\">0600</span>/0624 29006KT 6000 SCT020 \n  TEMPO <span class=\"hl-vis\">0600</span>/0610 3000 <span class=\"hl\">BR</span> \n  PROB40 \n  TEMPO <span class=\"hl-vis\">0600</span>/0610 <span class=\"hl-vis\">0600</span> <span class=\"hl\">FZFG</span> VV///"
    },
    {
      "icao": "UDYZ",
      "iata": "EVN",
      "name": "Zvartnots International Airport",
      "updatedAt": "060030Z",
      "visibility_m": 2600,
      "taf_visibility_m": 600,
      "worst_visibility_m": 600,
      "ceiling_ft": null,
      "hazards": [
        "BR",
        "FZFG"
      ],
      "severityScore": 65,
      "metarRaw": "METAR UDYZ 060030Z 35002KT 2600 BR NSC M14/M15 Q1032 NOSIG",
      "tafRaw": "TAF UDYZ 052300Z 0600/0624 VRB04KT 2300 BR NSC \n  TEMPO 0600/0606 0600 FZFG VV003",
      "metarHtml": "METAR UDYZ 060030Z 35002KT 2600 <span class=\"hl\">BR</span> NSC M14/M15 Q1032 NOSIG",
      "tafHtml": "TAF UDYZ 052300Z <span class=\"hl-vis\">0600</span>/0624 VRB04KT 2300 <span class=\"hl\">BR</span> NSC \n  TEMPO <span class=\"hl-vis\">0600</span>/0606 <span class=\"hl-vis\">0600</span> <span class=\"hl\">FZFG</span> VV003"
    },
    {
      "icao": "LQTZ",
      "iata": "TZL",
      "name": "Tuzla International Airport",
      "updatedAt": "060030Z",
      "visibility_m": 4500,
      "taf_visibility_m": 2000,
      "worst_visibility_m": 2000,
      "ceiling_ft": 400,
      "hazards": [
        "BR",
        "SN"
      ],
      "severityScore": 63,
      "metarRaw": "METAR LQTZ 060030Z 32003KT 4500 BR OVC004 M01/M01 Q1011",
      "tafRaw": "TAF LQTZ 052300Z 0600/0624 30005KT 6000 SCT005 BKN015 OVC030 TXM00/0613Z TNM03/0605Z \n  TEMPO 0600/0608 3000 -SN BR BKN004 OVC012 \n  TEMPO 0616/0624 2000 SN BKN004 OVC010",
      "metarHtml": "METAR LQTZ 060030Z 32003KT 4500 <span class=\"hl\">BR</span> OVC004 M01/M01 Q1011",
      "tafHtml": "TAF LQTZ 052300Z 0600/0624 30005KT 6000 SCT005 BKN015 OVC030 TXM00/0613Z TNM03/0605Z \n  TEMPO 0600/0608 3000 -<span class=\"hl\">SN</span> <span class=\"hl\">BR</span> BKN004 OVC012 \n  TEMPO 0616/0624 2000 <span class=\"hl\">SN</span> BKN004 OVC010"
    },
    {
      "icao": "LBPD",
      "iata": "PDV",
      "name": "Plovdiv International Airport",
      "updatedAt": "060030Z",
      "visibility_m": 10000,
      "taf_visibility_m": 600,
      "worst_visibility_m": 600,
      "ceiling_ft": null,
      "hazards": [
        "FG",
        "BR"
      ],
      "severityScore": 55,
      "metarRaw": "METAR LBPD 060030Z AUTO VRB03KT 9999 OVC130/// 07/07 Q1011",
      "tafRaw": "TAF LBPD 052300Z 0600/0624 VRB03KT 5000 BR BKN060 \n  TEMPO 0601/0607 2000 BR \n  PROB40 0602/0606 0600 FG BKN002 \n  BECMG 0608/0610 8000 NSW BKN040 \n  BECMG 0622/0624 5000 BR",
      "metarHtml": "METAR LBPD 060030Z AUTO VRB03KT 9999 OVC130/// 07/07 Q1011",
      "tafHtml": "TAF LBPD 052300Z <span class=\"hl-vis\">0600</span>/0624 VRB03KT 5000 <span class=\"hl\">BR</span> BKN060 \n  TEMPO 0601/0607 2000 <span class=\"hl\">BR</span> \n  PROB40 0602/0606 <span class=\"hl-vis\">0600</span> <span class=\"hl\">FG</span> BKN002 \n  BECMG 0608/0610 8000 NSW BKN040 \n  BECMG 0622/0624 5000 <span class=\"hl\">BR</span>"
    },
    {
      "icao": "LRSM",
      "iata": "SUJ",
      "name": "Satu Mare International Airport",
      "updatedAt": "060030Z",
      "visibility_m": 1800,
      "taf_visibility_m": 3000,
      "worst_visibility_m": 1800,
      "ceiling_ft": null,
      "hazards": [
        "DZ",
        "BR",
        "FZRA"
      ],
      "severityScore": 55,
      "metarRaw": "METAR LRSM 060030Z AUTO 00000KT 1800 R19/1900U DZ FEW026/// SCT034/// OVC041/// 01/00 Q1009",
      "tafRaw": "TAF LRSM 051400Z 0515/0524 06006KT 9999 BKN035 \n  BECMG 0520/0522 3000 -SNRA BR BKN005 OVC030 \n  PROB30 \n  TEMPO 0522/0524 -FZRA",
      "metarHtml": "METAR LRSM 060030Z AUTO 00000KT 1800 R19/1900U <span class=\"hl\">DZ</span> FEW026/// SCT034/// OVC041/// 01/00 Q1009",
      "tafHtml": "TAF LRSM 051400Z 0515/0524 06006KT 9999 BKN035 \n  BECMG 0520/0522 3000 -SNRA <span class=\"hl\">BR</span> BKN005 OVC030 \n  PROB30 \n  TEMPO 0522/0524 -<span class=\"hl\">FZRA</span>"
    },
    {
      "icao": "EGPF",
      "iata": "GLA",
      "name": "Glasgow Airport",
      "updatedAt": "060050Z",
      "visibility_m": 10000,
      "taf_visibility_m": 1200,
      "worst_visibility_m": 1200,
      "ceiling_ft": 2000,
      "hazards": [
        "SN",
        "RA",
        "SHRA"
      ],
      "severityScore": 54,
      "metarRaw": "METAR EGPF 060050Z AUTO 00000KT 9999 BKN020 M03/M05 Q1015",
      "tafRaw": "TAF EGPF 052304Z 0600/0624 28005KT 9999 FEW015 SCT030 \n  TEMPO 0602/0609 4000 RA -RASN BKN005 \n  PROB30 \n  TEMPO 0602/0609 1200 SN BKN001 \n  BECMG 0609/0612 21010KT \n  TEMPO 0609/0614 6000 RA -RADZ BKN014 \n  PROB30 \n  TEMPO 0609/0614 3000 +RA RADZ BKN007 \n  TEMPO 0614/0618 4000 RA SHRA BKN005 \n  BECMG 0615/0618 28010KT \n  PROB30 \n  TEMPO 0618/0624 7000 SHRA BKN009",
      "metarHtml": "METAR EGPF 060050Z AUTO 00000KT 9999 BKN020 M03/M05 Q1015",
      "tafHtml": "TAF EGPF 052304Z 0600/0624 28005KT 9999 FEW015 SCT030 \n  TEMPO 0602/0609 4000 <span class=\"hl\">RA</span> -RASN BKN005 \n  PROB30 \n  TEMPO 0602/0609 1200 <span class=\"hl\">SN</span> BKN001 \n  BECMG 0609/0612 21010KT \n  TEMPO 0609/0614 6000 <span class=\"hl\">RA</span> -RADZ BKN014 \n  PROB30 \n  TEMPO 0609/0614 3000 +<span class=\"hl\">RA</span> RADZ BKN007 \n  TEMPO 0614/0618 4000 <span class=\"hl\">RA</span> <span class=\"hl\">SHRA</span> BKN005 \n  BECMG 0615/0618 28010KT \n  PROB30 \n  TEMPO 0618/0624 7000 <span class=\"hl\">SHRA</span> BKN009"
    },
    {
      "icao": "EGPD",
      "iata": "ABZ",
      "name": "Aberdeen International Airport",
      "updatedAt": "060050Z",
      "visibility_m": 10000,
      "taf_visibility_m": 500,
      "worst_visibility_m": 500,
      "ceiling_ft": null,
      "hazards": [
        "SN"
      ],
      "severityScore": 53,
      "metarRaw": "METAR EGPD 060050Z COR AUTO 28009KT 9999 NCD M01/M04 Q1012 NOSIG",
      "tafRaw": "TAF EGPD 052257Z 0600/0624 29010KT 9999 FEW012 \n  BECMG 0603/0606 20005KT \n  TEMPO 0603/0614 4000 -SNRA BKN012 \n  PROB30 \n  TEMPO 0604/0614 1400 SN BKN006 \n  TEMPO 0614/0621 1800 SNRA BKN008 \n  PROB30 \n  TEMPO 0614/0620 0500 +SN BKN004 \n  BECMG 0621/0624 05010KT \n  TEMPO 0621/0624 4000 -SNRA BKN004",
      "metarHtml": "METAR EGPD 060050Z COR AUTO 28009KT 9999 NCD M01/M04 Q1012 NOSIG",
      "tafHtml": "TAF EGPD 052257Z 0600/0624 29010KT 9999 FEW012 \n  BECMG 0603/0606 20005KT \n  TEMPO 0603/0614 4000 -SNRA BKN012 \n  PROB30 \n  TEMPO 0604/0614 1400 <span class=\"hl\">SN</span> BKN006 \n  TEMPO 0614/0621 1800 SNRA BKN008 \n  PROB30 \n  TEMPO 0614/0620 <span class=\"hl-vis\">0500</span> +<span class=\"hl\">SN</span> BKN004 \n  BECMG 0621/0624 05010KT \n  TEMPO 0621/0624 4000 -SNRA BKN004"
    },
    {
      "icao": "LHBP",
      "iata": "BUD",
      "name": "Budapest Liszt Ferenc International Airport",
      "updatedAt": "060030Z",
      "visibility_m": 4000,
      "taf_visibility_m": 500,
      "worst_visibility_m": 500,
      "ceiling_ft": 3400,
      "hazards": [
        "SN"
      ],
      "severityScore": 53,
      "metarRaw": "METAR LHBP 060030Z 31007KT 4000 -SN BKN034 OVC047 M03/M03 Q1010 NOSIG",
      "tafRaw": "TAF LHBP 052315Z 0600/0624 34008KT 6000 -SN SCT010 OVC020 \n  TEMPO 0600/0601 2500 SN BKN004 OVC020 \n  BECMG 0603/0606 9999 NSW BKN030 \n  BECMG 0607/0610 CAVOK \n  BECMG 0614/0617 4000 -SN BKN018 OVC035 \n  TEMPO 0617/0624 1200 SN BKN006 OVC015 \n  PROB40 \n  TEMPO 0618/0624 0500 +SN OVC002",
      "metarHtml": "METAR LHBP 060030Z 31007KT 4000 -<span class=\"hl\">SN</span> BKN034 OVC047 M03/M03 Q1010 NOSIG",
      "tafHtml": "TAF LHBP 052315Z 0600/0624 34008KT 6000 -<span class=\"hl\">SN</span> SCT010 OVC020 \n  TEMPO 0600/0601 2500 <span class=\"hl\">SN</span> BKN004 OVC020 \n  BECMG 0603/0606 9999 NSW BKN030 \n  BECMG 0607/0610 <span class=\"hl-vis\">CAVOK</span> \n  BECMG 0614/0617 4000 -<span class=\"hl\">SN</span> BKN018 OVC035 \n  TEMPO 0617/0624 1200 <span class=\"hl\">SN</span> BKN006 OVC015 \n  PROB40 \n  TEMPO 0618/0624 <span class=\"hl-vis\">0500</span> +<span class=\"hl\">SN</span> OVC002"
    },
    {
      "icao": "LQBK",
      "iata": "BNX",
      "name": "Banja Luka International Airport",
      "updatedAt": "060030Z",
      "visibility_m": 10000,
      "taf_visibility_m": 800,
      "worst_visibility_m": 800,
      "ceiling_ft": 3300,
      "hazards": [
        "BR",
        "SN"
      ],
      "severityScore": 53,
      "metarRaw": "METAR LQBK 060030Z 27007KT 9999 SCT020 OVC033 M01/M03 Q1012 NOSIG",
      "tafRaw": "TAF LQBK 052300Z 0600/0624 33007KT 7000 -SN SCT010 OVC020 TXM00/0613Z TNM03/0605Z \n  PROB40 \n  TEMPO 0600/0611 4000 SN BR SCT005 BKN010 \n  TEMPO 0611/0624 2000 SN BKN004 OVC010 \n  PROB40 \n  TEMPO 0619/0624 0800 +SN BKN002 OVC007",
      "metarHtml": "METAR LQBK 060030Z 27007KT 9999 SCT020 OVC033 M01/M03 Q1012 NOSIG",
      "tafHtml": "TAF LQBK 052300Z 0600/0624 33007KT 7000 -<span class=\"hl\">SN</span> SCT010 OVC020 TXM00/0613Z TNM03/0605Z \n  PROB40 \n  TEMPO 0600/0611 4000 <span class=\"hl\">SN</span> <span class=\"hl\">BR</span> SCT005 BKN010 \n  TEMPO 0611/0624 2000 <span class=\"hl\">SN</span> BKN004 OVC010 \n  PROB40 \n  TEMPO 0619/0624 <span class=\"hl-vis\">0800</span> +<span class=\"hl\">SN</span> BKN002 OVC007"
    },
    {
      "icao": "ESSA",
      "iata": "ARN",
      "name": "Stockholm-Arlanda Airport",
      "updatedAt": "060050Z",
      "visibility_m": 1400,
      "taf_visibility_m": null,
      "worst_visibility_m": 1400,
      "ceiling_ft": 900,
      "hazards": [
        "SHSN"
      ],
      "severityScore": 50,
      "metarRaw": "METAR ESSA 060050Z 08010KT 9999 FEW006 SCT066 M03/M04 Q1012 TEMPO 1400 SHSN BKN009",
      "tafRaw": null,
      "metarHtml": "METAR ESSA 060050Z 08010KT 9999 FEW006 SCT066 M03/M04 Q1012 TEMPO 1400 <span class=\"hl\">SHSN</span> BKN009",
      "tafHtml": null
    },
    {
      "icao": "LIPR",
      "iata": "RMI",
      "name": "Federico Fellini International Airport",
      "updatedAt": "060020Z",
      "visibility_m": 10000,
      "taf_visibility_m": 1200,
      "worst_visibility_m": 1200,
      "ceiling_ft": null,
      "hazards": [
        "DZ",
        "SN",
        "RA"
      ],
      "severityScore": 50,
      "metarRaw": "METAR LIPR 060020Z AUTO 29009KT 9999 -DZ OVC014/// 02/01 Q1008",
      "tafRaw": "TAF LIPR 052300Z 0600/0624 30012KT 9999 BKN020 \n  BECMG 0605/0607 1200 SN OVC004 \n  BECMG 0616/0617 NSW \n  BECMG 0616/0618 01012KT 4000 -RA \n  BECMG 0622/0624 6000",
      "metarHtml": "METAR LIPR 060020Z AUTO 29009KT 9999 -<span class=\"hl\">DZ</span> OVC014/// 02/01 Q1008",
      "tafHtml": "TAF LIPR 052300Z 0600/0624 30012KT 9999 BKN020 \n  BECMG 0605/0607 1200 <span class=\"hl\">SN</span> OVC004 \n  BECMG 0616/0617 NSW \n  BECMG 0616/0618 01012KT 4000 -<span class=\"hl\">RA</span> \n  BECMG 0622/0624 6000"
    },
    {
      "icao": "LRTR",
      "iata": "TSR",
      "name": "Timişoara Traian Vuia Airport",
      "updatedAt": "060030Z",
      "visibility_m": 3000,
      "taf_visibility_m": null,
      "worst_visibility_m": 3000,
      "ceiling_ft": 700,
      "hazards": [
        "BR",
        "DZ"
      ],
      "severityScore": 50,
      "metarRaw": "METAR LRTR 060030Z 20002KT 3000 -DZ BR SCT003 OVC007 01/01 Q1010",
      "tafRaw": null,
      "metarHtml": "METAR LRTR 060030Z 20002KT 3000 -<span class=\"hl\">DZ</span> <span class=\"hl\">BR</span> SCT003 OVC007 01/01 Q1010",
      "tafHtml": null
    },
    {
      "icao": "EETN",
      "iata": "TLL",
      "name": "Lennart Meri Tallinn Airport",
      "updatedAt": "060050Z",
      "visibility_m": 10000,
      "taf_visibility_m": 800,
      "worst_visibility_m": 800,
      "ceiling_ft": null,
      "hazards": [
        "SN"
      ],
      "severityScore": 43,
      "metarRaw": "METAR EETN 060050Z 10004KT CAVOK M16/M17 Q1019",
      "tafRaw": "TAF EETN 052330Z 0600/0624 VRB02KT CAVOK \n  PROB40 \n  TEMPO 0600/0604 0800 BCFG BKN002 \n  BECMG 0604/0606 15012KT \n  BECMG 0611/0613 SCT012 BKN020 \n  TEMPO 0613/0617 2000 SN \n  TEMPO 0617/0621 BKN010",
      "metarHtml": "METAR EETN 060050Z 10004KT <span class=\"hl-vis\">CAVOK</span> M16/M17 Q1019",
      "tafHtml": "TAF EETN 052330Z 0600/0624 VRB02KT <span class=\"hl-vis\">CAVOK</span> \n  PROB40 \n  TEMPO 0600/0604 <span class=\"hl-vis\">0800</span> BCFG BKN002 \n  BECMG 0604/0606 15012KT \n  BECMG 0611/0613 SCT012 BKN020 \n  TEMPO 0613/0617 2000 <span class=\"hl\">SN</span> \n  TEMPO 0617/0621 BKN010"
    },
    {
      "icao": "EDFH",
      "iata": "HHN",
      "name": "Frankfurt-Hahn Airport",
      "updatedAt": "060020Z",
      "visibility_m": 6000,
      "taf_visibility_m": null,
      "worst_visibility_m": 6000,
      "ceiling_ft": 300,
      "hazards": [],
      "severityScore": 40,
      "metarRaw": "METAR EDFH 060020Z 26011KT 6000 BKN003 M06/M06 Q1011",
      "tafRaw": null,
      "metarHtml": "METAR EDFH 060020Z 26011KT 6000 BKN003 M06/M06 Q1011",
      "tafHtml": null
    },
    {
      "icao": "EPLB",
      "iata": "LUZ",
      "name": "Lublin Airport",
      "updatedAt": "060030Z",
      "visibility_m": 10000,
      "taf_visibility_m": 1500,
      "worst_visibility_m": 1500,
      "ceiling_ft": 1600,
      "hazards": [
        "SN"
      ],
      "severityScore": 40,
      "metarRaw": "METAR EPLB 060030Z 08006KT 9999 OVC016 M03/M05 Q1012",
      "tafRaw": "TAF EPLB 052330Z 0600/0624 08005KT 9999 BKN025 \n  BECMG 0600/0603 BKN012 \n  TEMPO 0600/0609 4000 -SN BKN005 \n  PROB40 \n  TEMPO 0600/0609 1500 SN \n  BECMG 0609/0612 30010KT BKN020",
      "metarHtml": "METAR EPLB 060030Z 08006KT 9999 OVC016 M03/M05 Q1012",
      "tafHtml": "TAF EPLB 052330Z 0600/0624 08005KT 9999 BKN025 \n  BECMG 0600/0603 BKN012 \n  TEMPO 0600/0609 4000 -<span class=\"hl\">SN</span> BKN005 \n  PROB40 \n  TEMPO 0600/0609 1500 <span class=\"hl\">SN</span> \n  BECMG 0609/0612 30010KT BKN020"
    },
    {
      "icao": "EYPA",
      "iata": "PLQ",
      "name": "Palanga International Airport",
      "updatedAt": "060050Z",
      "visibility_m": 7000,
      "taf_visibility_m": null,
      "worst_visibility_m": 7000,
      "ceiling_ft": 400,
      "hazards": [],
      "severityScore": 40,
      "metarRaw": "METAR EYPA 060050Z 15009KT 7000 OVC004 M04/M05 Q1014",
      "tafRaw": null,
      "metarHtml": "METAR EYPA 060050Z 15009KT 7000 OVC004 M04/M05 Q1014",
      "tafHtml": null
    },
    {
      "icao": "LJLJ",
      "iata": "LJU",
      "name": "Ljubljana Jože Pučnik Airport",
      "updatedAt": "060030Z",
      "visibility_m": 10000,
      "taf_visibility_m": 3000,
      "worst_visibility_m": 3000,
      "ceiling_ft": 1500,
      "hazards": [
        "BR",
        "SN"
      ],
      "severityScore": 40,
      "metarRaw": "METAR LJLJ 060030Z VRB01KT 9999 BKN015 OVC055 M03/M04 Q1010 NOSIG",
      "tafRaw": "TAF LJLJ 052300Z 0600/0700 VRB02KT 7000 -SN FEW004 BKN010 OVC055 \n  PROB30 \n  TEMPO 0600/0607 NSW FEW004 SCT016 BKN020 \n  TEMPO 0609/0615 3000 SN BR \n  TEMPO 0619/0622 NSW FEW004 SCT016 BKN020 \n  BECMG 0622/0700 NSW FEW004 SCT016 BKN020",
      "metarHtml": "METAR LJLJ 060030Z VRB01KT 9999 BKN015 OVC055 M03/M04 Q1010 NOSIG",
      "tafHtml": "TAF LJLJ 052300Z 0600/0700 VRB02KT 7000 -<span class=\"hl\">SN</span> FEW004 BKN010 OVC055 \n  PROB30 \n  TEMPO 0600/0607 NSW FEW004 SCT016 BKN020 \n  TEMPO 0609/0615 3000 <span class=\"hl\">SN</span> <span class=\"hl\">BR</span> \n  TEMPO 0619/0622 NSW FEW004 SCT016 BKN020 \n  BECMG 0622/0700 NSW FEW004 SCT016 BKN020"
    },
    {
      "icao": "LIRF",
      "iata": "FCO",
      "name": "Rome–Fiumicino Leonardo da Vinci International Airport",
      "updatedAt": "060020Z",
      "visibility_m": 9000,
      "taf_visibility_m": 3000,
      "worst_visibility_m": 3000,
      "ceiling_ft": null,
      "hazards": [
        "TSRA",
        "SHRA"
      ],
      "severityScore": 39,
      "metarRaw": "METAR LIRF 060020Z 04004KT 9000 FEW045 10/10 Q1002 NOSIG",
      "tafRaw": "TAF LIRF 052300Z 0600/0706 05005KT 9999 SCT020 \n  TEMPO 0602/0614 3000 SHRA \n  BECMG 0606/0608 12010KT \n  PROB30 \n  TEMPO 0608/0611 3000 TSRA \n  BECMG 0610/0612 34012KT",
      "metarHtml": "METAR LIRF 060020Z 04004KT 9000 FEW045 10/10 Q1002 NOSIG",
      "tafHtml": "TAF LIRF 052300Z 0600/0706 05005KT 9999 SCT020 \n  TEMPO 0602/0614 3000 <span class=\"hl\">SHRA</span> \n  BECMG 0606/0608 12010KT \n  PROB30 \n  TEMPO 0608/0611 3000 <span class=\"hl\">TSRA</span> \n  BECMG 0610/0612 34012KT"
    },
    {
      "icao": "LIRN",
      "iata": "NAP",
      "name": "Naples International Airport",
      "updatedAt": "060020Z",
      "visibility_m": 10000,
      "taf_visibility_m": 3000,
      "worst_visibility_m": 3000,
      "ceiling_ft": null,
      "hazards": [
        "TSRA",
        "SHRA"
      ],
      "severityScore": 39,
      "metarRaw": "METAR LIRN 060020Z VRB02KT CAVOK 12/10 Q1003 NOSIG",
      "tafRaw": "TAF LIRN 052300Z 0600/0624 VRB06KT 9999 SCT020 SCT050 \n  TEMPO 0602/0605 4000 SHRA \n  BECMG 0605/0607 18010KT \n  TEMPO 0610/0619 4000 SHRA \n  PROB40 \n  TEMPO 0616/0619 3000 TSRA \n  BECMG 0617/0619 24010KT",
      "metarHtml": "METAR LIRN 060020Z VRB02KT <span class=\"hl-vis\">CAVOK</span> 12/10 Q1003 NOSIG",
      "tafHtml": "TAF LIRN 052300Z 0600/0624 VRB06KT 9999 SCT020 SCT050 \n  TEMPO 0602/0605 4000 <span class=\"hl\">SHRA</span> \n  BECMG 0605/0607 18010KT \n  TEMPO 0610/0619 4000 <span class=\"hl\">SHRA</span> \n  PROB40 \n  TEMPO 0616/0619 3000 <span class=\"hl\">TSRA</span> \n  BECMG 0617/0619 24010KT"
    },
    {
      "icao": "ENZV",
      "iata": "SVG",
      "name": "Stavanger Airport, Sola",
      "updatedAt": "060020Z",
      "visibility_m": 6000,
      "taf_visibility_m": 1200,
      "worst_visibility_m": 1200,
      "ceiling_ft": 3600,
      "hazards": [
        "SN",
        "SHSN"
      ],
      "severityScore": 38,
      "metarRaw": "METAR ENZV 060020Z 04005KT 010V080 6000 -SN FEW024 SCT031 BKN036 M04/M06 Q1010",
      "tafRaw": "TAF ENZV 052300Z 0600/0624 12008KT 9999 FEW010 BKN035 \n  PROB30 \n  TEMPO 0600/0603 1200 SHSN BKN009 SCT018CB",
      "metarHtml": "METAR ENZV 060020Z 04005KT 010V080 6000 -<span class=\"hl\">SN</span> FEW024 SCT031 BKN036 M04/M06 Q1010",
      "tafHtml": "TAF ENZV 052300Z 0600/0624 12008KT 9999 FEW010 BKN035 \n  PROB30 \n  TEMPO 0600/0603 1200 <span class=\"hl\">SHSN</span> BKN009 SCT018CB"
    },
    {
      "icao": "EPRZ",
      "iata": "RZE",
      "name": "Rzeszów-Jasionka Airport",
      "updatedAt": "060030Z",
      "visibility_m": 7000,
      "taf_visibility_m": 1200,
      "worst_visibility_m": 1200,
      "ceiling_ft": 3000,
      "hazards": [
        "SN",
        "BR"
      ],
      "severityScore": 38,
      "metarRaw": "METAR EPRZ 060030Z 34003KT 7000 -SN BKN030 M03/M05 Q1010",
      "tafRaw": "TAF EPRZ 052330Z 0600/0624 33005KT 5000 -SN BR BKN015 \n  TEMPO 0600/0606 1200 SN BR BKN004 BKN008 \n  BECMG 0603/0606 27010KT \n  BECMG 0609/0612 BKN012 \n  TEMPO 0612/0618 BKN020 \n  BECMG 0616/0618 33006KT \n  BECMG 0621/0624 03010KT 4000 -SN BR BKN006",
      "metarHtml": "METAR EPRZ 060030Z 34003KT 7000 -<span class=\"hl\">SN</span> BKN030 M03/M05 Q1010",
      "tafHtml": "TAF EPRZ 052330Z 0600/0624 33005KT 5000 -<span class=\"hl\">SN</span> <span class=\"hl\">BR</span> BKN015 \n  TEMPO 0600/0606 1200 <span class=\"hl\">SN</span> <span class=\"hl\">BR</span> BKN004 BKN008 \n  BECMG 0603/0606 27010KT \n  BECMG 0609/0612 BKN012 \n  TEMPO 0612/0618 BKN020 \n  BECMG 0616/0618 33006KT \n  BECMG 0621/0624 03010KT 4000 -<span class=\"hl\">SN</span> <span class=\"hl\">BR</span> BKN006"
    },
    {
      "icao": "LIPE",
      "iata": "BLQ",
      "name": "Bologna Guglielmo Marconi Airport",
      "updatedAt": "060020Z",
      "visibility_m": 10000,
      "taf_visibility_m": 1200,
      "worst_visibility_m": 1200,
      "ceiling_ft": 4000,
      "hazards": [
        "BR",
        "SN"
      ],
      "severityScore": 38,
      "metarRaw": "METAR LIPE 060020Z 27005KT 9999 BKN040 03/M02 Q1009",
      "tafRaw": "TAF LIPE 052300Z 0600/0624 28007KT 9999 BKN020 \n  BECMG 0607/0609 1200 SN OVC004 \n  BECMG 0617/0618 NSW BKN010 \n  BECMG 0617/0619 4000 BR",
      "metarHtml": "METAR LIPE 060020Z 27005KT 9999 BKN040 03/M02 Q1009",
      "tafHtml": "TAF LIPE 052300Z 0600/0624 28007KT 9999 BKN020 \n  BECMG 0607/0609 1200 <span class=\"hl\">SN</span> OVC004 \n  BECMG 0617/0618 NSW BKN010 \n  BECMG 0617/0619 4000 <span class=\"hl\">BR</span>"
    },
    {
      "icao": "LATI",
      "iata": "TIA",
      "name": "Tirana International Airport Mother Teresa",
      "updatedAt": "060050Z",
      "visibility_m": 10000,
      "taf_visibility_m": 4000,
      "worst_visibility_m": 4000,
      "ceiling_ft": 4000,
      "hazards": [
        "TSRA",
        "RA"
      ],
      "severityScore": 37,
      "metarRaw": "METAR LATI 060050Z 02006KT 360V060 9999 VCTS FEW022CB OVC040 11/09 Q1005 NOSIG",
      "tafRaw": "TAF LATI 052300Z 0600/0624 16014KT 9999 RA FEW025CB OVC050 TX16/0612Z TN12/0605Z \n  TEMPO 0600/0603 -TSRA \n  PROB40 \n  TEMPO 0606/0610 4000 SCT025CB BKN040 \n  BECMG 0610/0612 NSW BKN025",
      "metarHtml": "METAR LATI 060050Z 02006KT 360V060 9999 VCTS FEW022CB OVC040 11/09 Q1005 NOSIG",
      "tafHtml": "TAF LATI 052300Z 0600/0624 16014KT 9999 <span class=\"hl\">RA</span> FEW025CB OVC050 TX16/0612Z TN12/0605Z \n  TEMPO 0600/0603 -<span class=\"hl\">TSRA</span> \n  PROB40 \n  TEMPO 0606/0610 4000 SCT025CB BKN040 \n  BECMG 0610/0612 NSW BKN025"
    },
    {
      "icao": "LYPG",
      "iata": "TGD",
      "name": "Podgorica Airport / Podgorica Golubovci Airbase",
      "updatedAt": "060030Z",
      "visibility_m": 10000,
      "taf_visibility_m": 3000,
      "worst_visibility_m": 3000,
      "ceiling_ft": 3300,
      "hazards": [
        "RA",
        "TSRA"
      ],
      "severityScore": 37,
      "metarRaw": "METAR LYPG 060030Z 14003KT 110V180 9999 -RA FEW023 BKN033 OVC070 11/10 Q1006 NOSIG",
      "tafRaw": "TAF LYPG 052300Z 0600/0624 14008KT 6000 RA FEW025 BKN040 OVC070 TX14/0613Z TN11/0605Z \n  TEMPO 0600/0624 15018G28KT 3000 TSRA SCT025CB BKN034",
      "metarHtml": "METAR LYPG 060030Z 14003KT 110V180 9999 -<span class=\"hl\">RA</span> FEW023 BKN033 OVC070 11/10 Q1006 NOSIG",
      "tafHtml": "TAF LYPG 052300Z 0600/0624 14008KT 6000 <span class=\"hl\">RA</span> FEW025 BKN040 OVC070 TX14/0613Z TN11/0605Z \n  TEMPO 0600/0624 15018G28KT 3000 <span class=\"hl\">TSRA</span> SCT025CB BKN034"
    },
    {
      "icao": "EHBK",
      "iata": "MST",
      "name": "Maastricht Aachen Airport",
      "updatedAt": "060025Z",
      "visibility_m": 10000,
      "taf_visibility_m": 1200,
      "worst_visibility_m": 1200,
      "ceiling_ft": 1000,
      "hazards": [
        "BR"
      ],
      "severityScore": 32,
      "metarRaw": "METAR EHBK 060025Z AUTO 21010KT 9999 OVC010 M02/M04 Q1012",
      "tafRaw": "TAF EHBK 052321Z 0600/0706 20008KT 9999 BKN018 \n  BECMG 0600/0603 2500 BR BKN007 \n  PROB40 0604/0611 1200 BCFG BR BKN001 \n  BECMG 0610/0613 CAVOK \n  BECMG 0700/0703 19015G25KT",
      "metarHtml": "METAR EHBK 060025Z AUTO 21010KT 9999 OVC010 M02/M04 Q1012",
      "tafHtml": "TAF EHBK 052321Z 0600/0706 20008KT 9999 BKN018 \n  BECMG 0600/0603 2500 <span class=\"hl\">BR</span> BKN007 \n  PROB40 0604/0611 1200 BCFG <span class=\"hl\">BR</span> BKN001 \n  BECMG 0610/0613 <span class=\"hl-vis\">CAVOK</span> \n  BECMG 0700/0703 19015G25KT"
    },
    {
      "icao": "LRCL",
      "iata": "CLJ",
      "name": "Cluj Avram Iancu International Airport",
      "updatedAt": "060030Z",
      "visibility_m": 10000,
      "taf_visibility_m": 1500,
      "worst_visibility_m": 1500,
      "ceiling_ft": null,
      "hazards": [
        "BR",
        "DZ"
      ],
      "severityScore": 30,
      "metarRaw": "METAR LRCL 060030Z 07007KT 9999 FEW056 01/00 Q1008",
      "tafRaw": "TAF LRCL 052300Z 0600/0609 VRB04KT 7000 BKN045 \n  TEMPO 0600/0606 3000 -DZ BR BKN010 BKN035 \n  PROB40 \n  TEMPO 0601/0606 1500 -DZ BR OVC005",
      "metarHtml": "METAR LRCL 060030Z 07007KT 9999 FEW056 01/00 Q1008",
      "tafHtml": "TAF LRCL 052300Z 0600/0609 VRB04KT 7000 BKN045 \n  TEMPO 0600/0606 3000 -<span class=\"hl\">DZ</span> <span class=\"hl\">BR</span> BKN010 BKN035 \n  PROB40 \n  TEMPO 0601/0606 1500 -<span class=\"hl\">DZ</span> <span class=\"hl\">BR</span> OVC005"
    },
    {
      "icao": "EPGD",
      "iata": "GDN",
      "name": "Gdańsk Lech Wałęsa Airport",
      "updatedAt": "060030Z",
      "visibility_m": 10000,
      "taf_visibility_m": 4000,
      "worst_visibility_m": 4000,
      "ceiling_ft": 4200,
      "hazards": [
        "BR",
        "SN"
      ],
      "severityScore": 28,
      "metarRaw": "METAR EPGD 060030Z 15003KT 9999 FEW022 BKN042 M04/M05 Q1013",
      "tafRaw": "TAF EPGD 052330Z 0600/0624 18004KT 9999 SCT035 \n  PROB40 \n  TEMPO 0600/0610 4000 -SN BR BKN007 \n  BECMG 0608/0610 24010KT",
      "metarHtml": "METAR EPGD 060030Z 15003KT 9999 FEW022 BKN042 M04/M05 Q1013",
      "tafHtml": "TAF EPGD 052330Z 0600/0624 18004KT 9999 SCT035 \n  PROB40 \n  TEMPO 0600/0610 4000 -<span class=\"hl\">SN</span> <span class=\"hl\">BR</span> BKN007 \n  BECMG 0608/0610 24010KT"
    },
    {
      "icao": "EPKK",
      "iata": "KRK",
      "name": "Kraków John Paul II International Airport",
      "updatedAt": "060030Z",
      "visibility_m": 10000,
      "taf_visibility_m": 4000,
      "worst_visibility_m": 4000,
      "ceiling_ft": null,
      "hazards": [
        "BR",
        "SN"
      ],
      "severityScore": 28,
      "metarRaw": "METAR EPKK 060030Z 28003KT CAVOK M04/M06 Q1011",
      "tafRaw": "TAF EPKK 052330Z 0600/0624 VRB02KT CAVOK \n  BECMG 0600/0603 25010KT \n  PROB40 \n  TEMPO 0600/0608 4000 -SN BR BKN012 \n  BECMG 0615/0618 VRB02KT \n  BECMG 0621/0624 04010KT",
      "metarHtml": "METAR EPKK 060030Z 28003KT <span class=\"hl-vis\">CAVOK</span> M04/M06 Q1011",
      "tafHtml": "TAF EPKK 052330Z 0600/0624 VRB02KT <span class=\"hl-vis\">CAVOK</span> \n  BECMG 0600/0603 25010KT \n  PROB40 \n  TEMPO 0600/0608 4000 -<span class=\"hl\">SN</span> <span class=\"hl\">BR</span> BKN012 \n  BECMG 0615/0618 VRB02KT \n  BECMG 0621/0624 04010KT"
    },
    {
      "icao": "EPSC",
      "iata": "SZZ",
      "name": "Solidarity Szczecin–Goleniów Airport",
      "updatedAt": "060030Z",
      "visibility_m": 10000,
      "taf_visibility_m": 4000,
      "worst_visibility_m": 4000,
      "ceiling_ft": null,
      "hazards": [
        "BR",
        "SN"
      ],
      "severityScore": 28,
      "metarRaw": "METAR EPSC 060030Z 14005KT CAVOK M05/M07 Q1013",
      "tafRaw": "TAF EPSC 052330Z 0600/0624 16006KT 9999 BKN040 \n  PROB40 0600/0610 4000 BR BKN003 \n  TEMPO 0610/0624 4000 -SN BR BKN005 BKN010",
      "metarHtml": "METAR EPSC 060030Z 14005KT <span class=\"hl-vis\">CAVOK</span> M05/M07 Q1013",
      "tafHtml": "TAF EPSC 052330Z 0600/0624 16006KT 9999 BKN040 \n  PROB40 0600/0610 4000 <span class=\"hl\">BR</span> BKN003 \n  TEMPO 0610/0624 4000 -<span class=\"hl\">SN</span> <span class=\"hl\">BR</span> BKN005 BKN010"
    },
    {
      "icao": "LFBD",
      "iata": "BOD",
      "name": "Bordeaux–Mérignac Airport",
      "updatedAt": "060030Z",
      "visibility_m": 4000,
      "taf_visibility_m": 2000,
      "worst_visibility_m": 2000,
      "ceiling_ft": null,
      "hazards": [
        "SHSN",
        "SN"
      ],
      "severityScore": 28,
      "metarRaw": "METAR LFBD 060030Z AUTO 16006KT CAVOK M01/M05 Q1014 TEMPO 4000 -SHSN BKN030TCU BECMG 03010KT",
      "tafRaw": "TAF LFBD 052300Z 0600/0706 19008KT 9999 BKN045 TX04/0614Z TNM03/0700Z \n  BECMG 0602/0604 03010KT \n  TEMPO 0602/0607 4000 -SHSN BKN030TCU \n  PROB40 \n  TEMPO 0603/0607 2000 -SN BKN004 \n  TEMPO 0607/0611 BKN005 \n  BECMG 0611/0612 36005KT NSC",
      "metarHtml": "METAR LFBD 060030Z AUTO 16006KT <span class=\"hl-vis\">CAVOK</span> M01/M05 Q1014 TEMPO 4000 -<span class=\"hl\">SHSN</span> BKN030TCU BECMG 03010KT",
      "tafHtml": "TAF LFBD 052300Z 0600/0706 19008KT 9999 BKN045 TX04/0614Z TNM03/0700Z \n  BECMG 0602/0604 03010KT \n  TEMPO 0602/0607 4000 -<span class=\"hl\">SHSN</span> BKN030TCU \n  PROB40 \n  TEMPO 0603/0607 2000 -<span class=\"hl\">SN</span> BKN004 \n  TEMPO 0607/0611 BKN005 \n  BECMG 0611/0612 36005KT NSC"
    },
    {
      "icao": "EGGP",
      "iata": "LPL",
      "name": "Liverpool John Lennon Airport",
      "updatedAt": "060050Z",
      "visibility_m": 10000,
      "taf_visibility_m": 2000,
      "worst_visibility_m": 2000,
      "ceiling_ft": null,
      "hazards": [
        "RA",
        "SHRA"
      ],
      "severityScore": 26,
      "metarRaw": "METAR EGGP 060050Z 22004KT 9999 FEW039 M01/M02 Q1017",
      "tafRaw": "TAF EGGP 052255Z 0600/0624 31005KT 9999 FEW030 \n  TEMPO 0603/0609 6000 SHRA BKN012 \n  PROB30 \n  TEMPO 0604/0608 2000 SHRASN BKN004 \n  BECMG 0616/0619 19010KT \n  TEMPO 0616/0622 6000 RA BKN010 \n  PROB30 \n  TEMPO 0619/0622 21015G25KT 4000 +RA BKN006 \n  BECMG 0621/0624 27016KT \n  PROB40 \n  TEMPO 0622/0624 28018G28KT",
      "metarHtml": "METAR EGGP 060050Z 22004KT 9999 FEW039 M01/M02 Q1017",
      "tafHtml": "TAF EGGP 052255Z 0600/0624 31005KT 9999 FEW030 \n  TEMPO 0603/0609 6000 <span class=\"hl\">SHRA</span> BKN012 \n  PROB30 \n  TEMPO 0604/0608 2000 SHRASN BKN004 \n  BECMG 0616/0619 19010KT \n  TEMPO 0616/0622 6000 <span class=\"hl\">RA</span> BKN010 \n  PROB30 \n  TEMPO 0619/0622 21015G25KT 4000 +<span class=\"hl\">RA</span> BKN006 \n  BECMG 0621/0624 27016KT \n  PROB40 \n  TEMPO 0622/0624 28018G28KT"
    },
    {
      "icao": "LEAL",
      "iata": "ALC",
      "name": "Alicante-Elche Miguel Hernández Airport",
      "updatedAt": "060030Z",
      "visibility_m": 10000,
      "taf_visibility_m": 3000,
      "worst_visibility_m": 3000,
      "ceiling_ft": 4300,
      "hazards": [
        "RA",
        "SHRA"
      ],
      "severityScore": 26,
      "metarRaw": "METAR LEAL 060030Z VRB02KT 9999 SCT030 OVC043 09/07 Q1010 NOSIG",
      "tafRaw": "TAF LEAL 052300Z 0600/0624 VRB04KT 9999 SCT020 TX12/0614Z TN04/0606Z \n  PROB40 \n  TEMPO 0600/0608 3000 RA SHRA BKN015 FEW020TCU \n  BECMG 0606/0608 32009KT \n  BECMG 0610/0612 20007KT \n  BECMG 0614/0616 VRB03KT \n  BECMG 0618/0620 32009KT",
      "metarHtml": "METAR LEAL 060030Z VRB02KT 9999 SCT030 OVC043 09/07 Q1010 NOSIG",
      "tafHtml": "TAF LEAL 052300Z 0600/0624 VRB04KT 9999 SCT020 TX12/0614Z TN04/0606Z \n  PROB40 \n  TEMPO 0600/0608 3000 <span class=\"hl\">RA</span> <span class=\"hl\">SHRA</span> BKN015 FEW020TCU \n  BECMG 0606/0608 32009KT \n  BECMG 0610/0612 20007KT \n  BECMG 0614/0616 VRB03KT \n  BECMG 0618/0620 32009KT"
    },
    {
      "icao": "BKPR",
      "iata": "PRN",
      "name": "Priština Adem Jashari International Airport",
      "updatedAt": "060000Z",
      "visibility_m": 10000,
      "taf_visibility_m": 4000,
      "worst_visibility_m": 4000,
      "ceiling_ft": 2000,
      "hazards": [
        "RA",
        "BR"
      ],
      "severityScore": 22,
      "metarRaw": "METAR BKPR 060000Z 17008KT 9999 -RA BKN020 07/07 Q1008 NOSIG",
      "tafRaw": "TAF BKPR 052330Z 0600/0624 16008KT 9999 SCT020 BKN040 \n  TEMPO 0600/0624 4000 -RA BR",
      "metarHtml": "METAR BKPR 060000Z 17008KT 9999 -<span class=\"hl\">RA</span> BKN020 07/07 Q1008 NOSIG",
      "tafHtml": "TAF BKPR 052330Z 0600/0624 16008KT 9999 SCT020 BKN040 \n  TEMPO 0600/0624 4000 -<span class=\"hl\">RA</span> <span class=\"hl\">BR</span>"
    },
    {
      "icao": "EGKK",
      "iata": "LGW",
      "name": "London Gatwick Airport",
      "updatedAt": "060050Z",
      "visibility_m": 10000,
      "taf_visibility_m": 4000,
      "worst_visibility_m": 4000,
      "ceiling_ft": null,
      "hazards": [
        "BR",
        "RA"
      ],
      "severityScore": 22,
      "metarRaw": "METAR EGKK 060050Z 20003KT CAVOK M04/M06 Q1018",
      "tafRaw": "TAF EGKK 052254Z 0600/0706 31003KT CAVOK \n  PROB30 0600/0610 4000 BR \n  BECMG 0612/0615 24010KT \n  BECMG 0619/0622 23015G25KT \n  TEMPO 0622/0704 7000 -RA BKN012 \n  PROB30 \n  TEMPO 0623/0702 4000 +RA RADZ BKN006 \n  BECMG 0701/0704 27010KT \n  PROB30 \n  TEMPO 0702/0704 SCT004 BKN006",
      "metarHtml": "METAR EGKK 060050Z 20003KT <span class=\"hl-vis\">CAVOK</span> M04/M06 Q1018",
      "tafHtml": "TAF EGKK 052254Z 0600/0706 31003KT <span class=\"hl-vis\">CAVOK</span> \n  PROB30 0600/0610 4000 <span class=\"hl\">BR</span> \n  BECMG 0612/0615 24010KT \n  BECMG 0619/0622 23015G25KT \n  TEMPO 0622/0704 7000 -<span class=\"hl\">RA</span> BKN012 \n  PROB30 \n  TEMPO 0623/0702 4000 +<span class=\"hl\">RA</span> RADZ BKN006 \n  BECMG 0701/0704 27010KT \n  PROB30 \n  TEMPO 0702/0704 SCT004 BKN006"
    },
    {
      "icao": "LEBB",
      "iata": "BIO",
      "name": "Bilbao Airport",
      "updatedAt": "060030Z",
      "visibility_m": 10000,
      "taf_visibility_m": 1500,
      "worst_visibility_m": 1500,
      "ceiling_ft": 3400,
      "hazards": [
        "RA"
      ],
      "severityScore": 22,
      "metarRaw": "METAR LEBB 060030Z AUTO 09003KT 070V140 9999 -UP SCT025 BKN034 01/00 Q1015",
      "tafRaw": "TAF LEBB 052300Z 0600/0624 32009KT 9999 SCT020 BKN040 TX07/0616Z TN01/0619Z \n  PROB30 \n  TEMPO 0601/0610 1500 SNRA BKN005 \n  TEMPO 0602/0610 32019G29KT \n  PROB30 \n  TEMPO 0607/0610 32024G39KT \n  PROB40 0610/0613 05010KT \n  TEMPO 0610/0615 RA",
      "metarHtml": "METAR LEBB 060030Z AUTO 09003KT 070V140 9999 -UP SCT025 BKN034 01/00 Q1015",
      "tafHtml": "TAF LEBB 052300Z 0600/0624 32009KT 9999 SCT020 BKN040 TX07/0616Z TN01/0619Z \n  PROB30 \n  TEMPO 0601/0610 1500 SNRA BKN005 \n  TEMPO 0602/0610 32019G29KT \n  PROB30 \n  TEMPO 0607/0610 32024G39KT \n  PROB40 0610/0613 05010KT \n  TEMPO 0610/0615 <span class=\"hl\">RA</span>"
    },
    {
      "icao": "LEXJ",
      "iata": "SDR",
      "name": "Seve Ballesteros-Santander Airport",
      "updatedAt": "060030Z",
      "visibility_m": 7000,
      "taf_visibility_m": 1500,
      "worst_visibility_m": 1500,
      "ceiling_ft": 4300,
      "hazards": [
        "RA"
      ],
      "severityScore": 22,
      "metarRaw": "METAR LEXJ 060030Z AUTO 35015G25KT 290V030 7000 SCT028 SCT033 BKN043 08/03 Q1017",
      "tafRaw": "TAF LEXJ 052000Z 0521/0621 22005KT 9999 SCT010 BKN040 TX09/0614Z TN03/0523Z \n  TEMPO 0521/0603 3000 RA BKN010 \n  PROB30 \n  TEMPO 0521/0603 1500 SHRAGS SCT025TCU \n  BECMG 0523/0601 35012KT \n  TEMPO 0600/0610 35022G34KT \n  BECMG 0616/0618 20009KT",
      "metarHtml": "METAR LEXJ 060030Z AUTO 35015G25KT 290V030 7000 SCT028 SCT033 BKN043 08/03 Q1017",
      "tafHtml": "TAF LEXJ 052000Z 0521/0621 22005KT 9999 SCT010 BKN040 TX09/0614Z TN03/0523Z \n  TEMPO 0521/0603 3000 <span class=\"hl\">RA</span> BKN010 \n  PROB30 \n  TEMPO 0521/0603 1500 SHRAGS SCT025TCU \n  BECMG 0523/0601 35012KT \n  TEMPO 0600/0610 35022G34KT \n  BECMG 0616/0618 20009KT"
    },
    {
      "icao": "LIBP",
      "iata": "PSR",
      "name": "Abruzzo Airport",
      "updatedAt": "060020Z",
      "visibility_m": 4500,
      "taf_visibility_m": 4000,
      "worst_visibility_m": 4000,
      "ceiling_ft": null,
      "hazards": [
        "BR",
        "RA"
      ],
      "severityScore": 22,
      "metarRaw": "METAR LIBP 060020Z AUTO VRB01KT 4500 BR OVC004/// 07/07 Q1007",
      "tafRaw": "TAF LIBP 052300Z 0600/0624 VRB05KT 9999 OVC008 \n  BECMG 0602/0604 4000 RA \n  BECMG 0615/0618 34010KT 6000 NSW SCT030 \n  TEMPO 0621/0624 4000 -RA",
      "metarHtml": "METAR LIBP 060020Z AUTO VRB01KT 4500 <span class=\"hl\">BR</span> OVC004/// 07/07 Q1007",
      "tafHtml": "TAF LIBP 052300Z 0600/0624 VRB05KT 9999 OVC008 \n  BECMG 0602/0604 4000 <span class=\"hl\">RA</span> \n  BECMG 0615/0618 34010KT 6000 NSW SCT030 \n  TEMPO 0621/0624 4000 -<span class=\"hl\">RA</span>"
    },
    {
      "icao": "EDDK",
      "iata": "CGN",
      "name": "Cologne Bonn Airport",
      "updatedAt": "060050Z",
      "visibility_m": 10000,
      "taf_visibility_m": 2500,
      "worst_visibility_m": 2500,
      "ceiling_ft": 2100,
      "hazards": [
        "BR",
        "SHSN"
      ],
      "severityScore": 20,
      "metarRaw": "METAR EDDK 060050Z AUTO 16006KT 9999 OVC021 M02/M05 Q1013 NOSIG",
      "tafRaw": "TAF EDDK 052300Z 0600/0706 19004KT 9999 BKN020 \n  TEMPO 0600/0607 2500 -SHSN BKN006TCU \n  TEMPO 0607/0610 3000 BR BKN005 \n  TEMPO 0610/0612 BKN012 \n  BECMG 0700/0703 15009KT",
      "metarHtml": "METAR EDDK 060050Z AUTO 16006KT 9999 OVC021 M02/M05 Q1013 NOSIG",
      "tafHtml": "TAF EDDK 052300Z 0600/0706 19004KT 9999 BKN020 \n  TEMPO 0600/0607 2500 -<span class=\"hl\">SHSN</span> BKN006TCU \n  TEMPO 0607/0610 3000 <span class=\"hl\">BR</span> BKN005 \n  TEMPO 0610/0612 BKN012 \n  BECMG 0700/0703 15009KT"
    },
    {
      "icao": "EDLW",
      "iata": "DTM",
      "name": "Dortmund Airport",
      "updatedAt": "060020Z",
      "visibility_m": 10000,
      "taf_visibility_m": 2500,
      "worst_visibility_m": 2500,
      "ceiling_ft": null,
      "hazards": [
        "BR",
        "SHSN"
      ],
      "severityScore": 20,
      "metarRaw": "METAR EDLW 060020Z AUTO 21011KT 9999 // OVC016/// M01/M04 Q1011",
      "tafRaw": "TAF EDLW 051700Z 0518/0618 22008KT 9999 BKN020 \n  TEMPO 0518/0520 2500 -SHSN BKN009TCU \n  TEMPO 0523/0604 2500 -SHSN BKN009TCU \n  TEMPO 0604/0611 BKN006 \n  PROB30 \n  TEMPO 0605/0608 3000 BR OVC004",
      "metarHtml": "METAR EDLW 060020Z AUTO 21011KT 9999 // OVC016/// M01/M04 Q1011",
      "tafHtml": "TAF EDLW 051700Z 0518/0618 22008KT 9999 BKN020 \n  TEMPO 0518/0520 2500 -<span class=\"hl\">SHSN</span> BKN009TCU \n  TEMPO 0523/0604 2500 -<span class=\"hl\">SHSN</span> BKN009TCU \n  TEMPO 0604/0611 BKN006 \n  PROB30 \n  TEMPO 0605/0608 3000 <span class=\"hl\">BR</span> OVC004"
    },
    {
      "icao": "ENHD",
      "iata": "HAU",
      "name": "Haugesund Airport, Karmøy",
      "updatedAt": "060020Z",
      "visibility_m": 10000,
      "taf_visibility_m": 1200,
      "worst_visibility_m": 1200,
      "ceiling_ft": null,
      "hazards": [
        "SHSN"
      ],
      "severityScore": 20,
      "metarRaw": "METAR ENHD 060020Z AUTO 09011KT 9999 BKN048/// M03/M06 Q1010 RESN",
      "tafRaw": "TAF ENHD 051400Z 0515/0523 11015KT 9999 -SHSN FEW015CB BKN025 \n  TEMPO 0515/0521 1200 SHSNGS VV009",
      "metarHtml": "METAR ENHD 060020Z AUTO 09011KT 9999 BKN048/// M03/M06 Q1010 RESN",
      "tafHtml": "TAF ENHD 051400Z 0515/0523 11015KT 9999 -<span class=\"hl\">SHSN</span> FEW015CB BKN025 \n  TEMPO 0515/0521 1200 SHSNGS VV009"
    },
    {
      "icao": "LTAC",
      "iata": "ESB",
      "name": "Esenboğa International Airport",
      "updatedAt": "060020Z",
      "visibility_m": 3600,
      "taf_visibility_m": 1200,
      "worst_visibility_m": 1200,
      "ceiling_ft": null,
      "hazards": [
        "BR"
      ],
      "severityScore": 20,
      "metarRaw": "METAR LTAC 060020Z VRB01KT 3600 BR NSC M01/M02 Q1021 NOSIG RMK RWY21C VRB02KT RWY03L VRB01KT RWY21R VRB01KT RWY03R 00000KT RWY21L VRB02KT",
      "tafRaw": "TAF LTAC 052240Z 0600/0624 VRB02KT 4000 BR NSC \n  PROB30 \n  TEMPO 0603/0607 1200 BCFG \n  BECMG 0607/0609 9999 NSW SCT040 \n  BECMG 0612/0614 CAVOK \n  BECMG 0620/0623 4000 BR",
      "metarHtml": "METAR LTAC 060020Z VRB01KT 3600 <span class=\"hl\">BR</span> NSC M01/M02 Q1021 NOSIG RMK RWY21C VRB02KT RWY03L VRB01KT RWY21R VRB01KT RWY03R 00000KT RWY21L VRB02KT",
      "tafHtml": "TAF LTAC 052240Z 0600/0624 VRB02KT 4000 <span class=\"hl\">BR</span> NSC \n  PROB30 \n  TEMPO 0603/0607 1200 BCFG \n  BECMG 0607/0609 9999 NSW SCT040 \n  BECMG 0612/0614 <span class=\"hl-vis\">CAVOK</span> \n  BECMG 0620/0623 4000 <span class=\"hl\">BR</span>"
    },
    {
      "icao": "UDSG",
      "iata": "LWN",
      "name": "Shirak International Airport",
      "updatedAt": "060030Z",
      "visibility_m": 5000,
      "taf_visibility_m": 1000,
      "worst_visibility_m": 1000,
      "ceiling_ft": null,
      "hazards": [
        "BR"
      ],
      "severityScore": 20,
      "metarRaw": "METAR UDSG 060030Z 10001KT 5000 BR NSC M19/M21 Q1029 NOSIG",
      "tafRaw": "TAF UDSG 052300Z 0600/0624 VRB06KT 5000 BR FEW040 \n  TEMPO 0600/0606 1000 BR",
      "metarHtml": "METAR UDSG 060030Z 10001KT 5000 <span class=\"hl\">BR</span> NSC M19/M21 Q1029 NOSIG",
      "tafHtml": "TAF UDSG 052300Z 0600/0624 VRB06KT 5000 <span class=\"hl\">BR</span> FEW040 \n  TEMPO 0600/0606 1000 <span class=\"hl\">BR</span>"
    },
    {
      "icao": "EDDN",
      "iata": "NUE",
      "name": "Nuremberg Airport",
      "updatedAt": "060050Z",
      "visibility_m": 10000,
      "taf_visibility_m": 4000,
      "worst_visibility_m": 4000,
      "ceiling_ft": null,
      "hazards": [
        "SN"
      ],
      "severityScore": 18,
      "metarRaw": "METAR EDDN 060050Z AUTO 11006KT CAVOK M11/M13 Q1014",
      "tafRaw": "TAF EDDN 052300Z 0600/0624 11006KT 9999 BKN020 \n  PROB30 \n  TEMPO 0607/0612 4000 -SN BKN010 \n  BECMG 0609/0611 20003KT",
      "metarHtml": "METAR EDDN 060050Z AUTO 11006KT <span class=\"hl-vis\">CAVOK</span> M11/M13 Q1014",
      "tafHtml": "TAF EDDN 052300Z 0600/0624 11006KT 9999 BKN020 \n  PROB30 \n  TEMPO 0607/0612 4000 -<span class=\"hl\">SN</span> BKN010 \n  BECMG 0609/0611 20003KT"
    },
    {
      "icao": "EDDS",
      "iata": "STR",
      "name": "Stuttgart Airport",
      "updatedAt": "060050Z",
      "visibility_m": 10000,
      "taf_visibility_m": 4000,
      "worst_visibility_m": 4000,
      "ceiling_ft": null,
      "hazards": [
        "SN"
      ],
      "severityScore": 18,
      "metarRaw": "METAR EDDS 060050Z AUTO 10003KT 050V140 CAVOK M08/M11 Q1012",
      "tafRaw": "TAF EDDS 052300Z 0600/0624 VRB03KT 9999 SCT040 \n  TEMPO 0607/0610 4000 -SN \n  PROB30 \n  TEMPO 0616/0618 4000 -SN",
      "metarHtml": "METAR EDDS 060050Z AUTO 10003KT 050V140 <span class=\"hl-vis\">CAVOK</span> M08/M11 Q1012",
      "tafHtml": "TAF EDDS 052300Z 0600/0624 VRB03KT 9999 SCT040 \n  TEMPO 0607/0610 4000 -<span class=\"hl\">SN</span> \n  PROB30 \n  TEMPO 0616/0618 4000 -<span class=\"hl\">SN</span>"
    },
    {
      "icao": "EDSB",
      "iata": "FKB",
      "name": "Karlsruhe Baden-Baden Airport",
      "updatedAt": "060020Z",
      "visibility_m": 10000,
      "taf_visibility_m": 4000,
      "worst_visibility_m": 4000,
      "ceiling_ft": 4100,
      "hazards": [
        "SN"
      ],
      "severityScore": 18,
      "metarRaw": "METAR EDSB 060020Z 27004KT 220V310 9999 BKN041 M04/M07 Q1015",
      "tafRaw": "TAF EDSB 052300Z 0600/0624 20004KT 9999 SCT040 \n  TEMPO 0604/0606 4000 -SN BKN010",
      "metarHtml": "METAR EDSB 060020Z 27004KT 220V310 9999 BKN041 M04/M07 Q1015",
      "tafHtml": "TAF EDSB 052300Z 0600/0624 20004KT 9999 SCT040 \n  TEMPO 0604/0606 4000 -<span class=\"hl\">SN</span> BKN010"
    },
    {
      "icao": "EFTU",
      "iata": "TKU",
      "name": "Turku Airport",
      "updatedAt": "060050Z",
      "visibility_m": 10000,
      "taf_visibility_m": 4000,
      "worst_visibility_m": 4000,
      "ceiling_ft": null,
      "hazards": [
        "SN"
      ],
      "severityScore": 18,
      "metarRaw": "METAR EFTU 060050Z AUTO 09003KT CAVOK M21/M24 Q1018",
      "tafRaw": "TAF EFTU 052327Z 0600/0624 VRB02KT CAVOK \n  BECMG 0607/0609 10010KT \n  BECMG 0614/0615 4000 -SN BKN013 \n  TEMPO 0615/0624 8000 BKN025",
      "metarHtml": "METAR EFTU 060050Z AUTO 09003KT <span class=\"hl-vis\">CAVOK</span> M21/M24 Q1018",
      "tafHtml": "TAF EFTU 052327Z 0600/0624 VRB02KT <span class=\"hl-vis\">CAVOK</span> \n  BECMG 0607/0609 10010KT \n  BECMG 0614/0615 4000 -<span class=\"hl\">SN</span> BKN013 \n  TEMPO 0615/0624 8000 BKN025"
    },
    {
      "icao": "ENGM",
      "iata": "OSL",
      "name": "Oslo-Gardermoen International Airport",
      "updatedAt": "060020Z",
      "visibility_m": 10000,
      "taf_visibility_m": 2500,
      "worst_visibility_m": 2500,
      "ceiling_ft": null,
      "hazards": [
        "SN"
      ],
      "severityScore": 18,
      "metarRaw": "METAR ENGM 060020Z 03006KT 9999 -SN FEW012 M09/M11 Q1012",
      "tafRaw": "TAF ENGM 052300Z 0600/0624 02005KT 8000 -SN FEW015 BKN030 \n  TEMPO 0600/0618 2500 -SN VV014",
      "metarHtml": "METAR ENGM 060020Z 03006KT 9999 -<span class=\"hl\">SN</span> FEW012 M09/M11 Q1012",
      "tafHtml": "TAF ENGM 052300Z 0600/0624 02005KT 8000 -<span class=\"hl\">SN</span> FEW015 BKN030 \n  TEMPO 0600/0618 2500 -<span class=\"hl\">SN</span> VV014"
    },
    {
      "icao": "ENTO",
      "iata": "TRF",
      "name": "Sandefjord Airport, Torp",
      "updatedAt": "060020Z",
      "visibility_m": 10000,
      "taf_visibility_m": 4000,
      "worst_visibility_m": 4000,
      "ceiling_ft": null,
      "hazards": [
        "SN"
      ],
      "severityScore": 18,
      "metarRaw": "METAR ENTO 060020Z AUTO 36010KT 9999 -SN OVC014/// M08/M10 Q1012",
      "tafRaw": "TAF ENTO 052300Z 0600/0624 36010KT 9999 FEW012 BKN030 \n  TEMPO 0600/0605 4000 -SN BKN012",
      "metarHtml": "METAR ENTO 060020Z AUTO 36010KT 9999 -<span class=\"hl\">SN</span> OVC014/// M08/M10 Q1012",
      "tafHtml": "TAF ENTO 052300Z 0600/0624 36010KT 9999 FEW012 BKN030 \n  TEMPO 0600/0605 4000 -<span class=\"hl\">SN</span> BKN012"
    },
    {
      "icao": "LFLL",
      "iata": "LYS",
      "name": "Lyon Saint-Exupéry Airport",
      "updatedAt": "060030Z",
      "visibility_m": 7000,
      "taf_visibility_m": 10000,
      "worst_visibility_m": 7000,
      "ceiling_ft": null,
      "hazards": [
        "SN"
      ],
      "severityScore": 18,
      "metarRaw": "METAR LFLL 060030Z 36005KT 7000 NSC M06/M07 Q1014 NOSIG",
      "tafRaw": "TAF LFLL 052300Z 0600/0706 34006KT CAVOK \n  PROB30 \n  TEMPO 0600/0608 BKN006 \n  BECMG 0608/0610 BKN012 SCT038 \n  PROB30 \n  TEMPO 0610/0618 -SN \n  FM061800 36013KT 9999 BKN016",
      "metarHtml": "METAR LFLL 060030Z 36005KT 7000 NSC M06/M07 Q1014 NOSIG",
      "tafHtml": "TAF LFLL 052300Z 0600/0706 34006KT <span class=\"hl-vis\">CAVOK</span> \n  PROB30 \n  TEMPO 0600/0608 BKN006 \n  BECMG 0608/0610 BKN012 SCT038 \n  PROB30 \n  TEMPO 0610/0618 -<span class=\"hl\">SN</span> \n  FM061800 36013KT 9999 BKN016"
    },
    {
      "icao": "LFSB",
      "iata": "BSL",
      "name": "EuroAirport Basel–Mulhouse–Freiburg",
      "updatedAt": "060030Z",
      "visibility_m": 10000,
      "taf_visibility_m": 10000,
      "worst_visibility_m": 10000,
      "ceiling_ft": null,
      "hazards": [
        "SN"
      ],
      "severityScore": 18,
      "metarRaw": "METAR LFSB 060030Z AUTO 18005KT CAVOK M08/M10 Q1014 NOSIG",
      "tafRaw": "TAF LFSB 052300Z 0600/0624 VRB03KT CAVOK \n  TEMPO 0605/0611 BKN012 \n  PROB30 \n  TEMPO 0606/0610 -SN BKN008 \n  BECMG 0611/0613 32006KT",
      "metarHtml": "METAR LFSB 060030Z AUTO 18005KT <span class=\"hl-vis\">CAVOK</span> M08/M10 Q1014 NOSIG",
      "tafHtml": "TAF LFSB 052300Z 0600/0624 VRB03KT <span class=\"hl-vis\">CAVOK</span> \n  TEMPO 0605/0611 BKN012 \n  PROB30 \n  TEMPO 0606/0610 -<span class=\"hl\">SN</span> BKN008 \n  BECMG 0611/0613 32006KT"
    },
    {
      "icao": "LOWW",
      "iata": "VIE",
      "name": "Vienna International Airport",
      "updatedAt": "060020Z",
      "visibility_m": 10000,
      "taf_visibility_m": 10000,
      "worst_visibility_m": 10000,
      "ceiling_ft": null,
      "hazards": [
        "SN"
      ],
      "severityScore": 18,
      "metarRaw": "METAR LOWW 060020Z 32011KT CAVOK M02/M09 Q1013 NOSIG",
      "tafRaw": "TAF LOWW 052315Z 0600/0706 33010KT 9999 SCT050 TXM02/0613Z TNM05/0706Z \n  TEMPO 0610/0615 33015G25KT \n  PROB30 \n  TEMPO 0612/0616 -SN \n  TEMPO 0621/0703 30015G25KT",
      "metarHtml": "METAR LOWW 060020Z 32011KT <span class=\"hl-vis\">CAVOK</span> M02/M09 Q1013 NOSIG",
      "tafHtml": "TAF LOWW 052315Z 0600/0706 33010KT 9999 SCT050 TXM02/0613Z TNM05/0706Z \n  TEMPO 0610/0615 33015G25KT \n  PROB30 \n  TEMPO 0612/0616 -<span class=\"hl\">SN</span> \n  TEMPO 0621/0703 30015G25KT"
    },
    {
      "icao": "LZIB",
      "iata": "BTS",
      "name": "M. R. Štefánik Airport",
      "updatedAt": "060030Z",
      "visibility_m": 10000,
      "taf_visibility_m": 4000,
      "worst_visibility_m": 4000,
      "ceiling_ft": 4300,
      "hazards": [
        "SN"
      ],
      "severityScore": 18,
      "metarRaw": "METAR LZIB 060030Z 29014KT 9999 BKN043 M03/M07 Q1012 NOSIG",
      "tafRaw": "TAF LZIB 052315Z 0600/0700 30013KT 9999 FEW039 \n  PROB40 \n  TEMPO 0600/0603 -SN BKN025 \n  BECMG 0609/0611 35006KT BKN030 \n  TEMPO 0617/0619 4000 -SN FEW015 BKN020",
      "metarHtml": "METAR LZIB 060030Z 29014KT 9999 BKN043 M03/M07 Q1012 NOSIG",
      "tafHtml": "TAF LZIB 052315Z 0600/0700 30013KT 9999 FEW039 \n  PROB40 \n  TEMPO 0600/0603 -<span class=\"hl\">SN</span> BKN025 \n  BECMG 0609/0611 35006KT BKN030 \n  TEMPO 0617/0619 4000 -<span class=\"hl\">SN</span> FEW015 BKN020"
    },
    {
      "icao": "LZKZ",
      "iata": "KSC",
      "name": "Košice International Airport",
      "updatedAt": "060030Z",
      "visibility_m": 6000,
      "taf_visibility_m": 2000,
      "worst_visibility_m": 2000,
      "ceiling_ft": 4100,
      "hazards": [
        "SN"
      ],
      "severityScore": 18,
      "metarRaw": "METAR LZKZ 060030Z 05003KT 6000 -SN BKN041 M02/M03 Q1009 RESN NOSIG",
      "tafRaw": "TAF LZKZ 052315Z 0600/0700 03006KT 9999 BKN036 \n  TEMPO 0600/0606 2000 SN OVC012 \n  BECMG 0610/0612 03012KT \n  TEMPO 0618/0700 02018G38KT 2000 SN OVC009",
      "metarHtml": "METAR LZKZ 060030Z 05003KT 6000 -<span class=\"hl\">SN</span> BKN041 M02/M03 Q1009 RESN NOSIG",
      "tafHtml": "TAF LZKZ 052315Z 0600/0700 03006KT 9999 BKN036 \n  TEMPO 0600/0606 2000 <span class=\"hl\">SN</span> OVC012 \n  BECMG 0610/0612 03012KT \n  TEMPO 0618/0700 02018G38KT 2000 <span class=\"hl\">SN</span> OVC009"
    },
    {
      "icao": "LZTT",
      "iata": "TAT",
      "name": "Poprad-Tatry Airport",
      "updatedAt": "060030Z",
      "visibility_m": 10000,
      "taf_visibility_m": 2800,
      "worst_visibility_m": 2800,
      "ceiling_ft": 3300,
      "hazards": [
        "SN"
      ],
      "severityScore": 18,
      "metarRaw": "METAR LZTT 060030Z 28006KT 9999 -SN BKN033 M06/M08 Q1007",
      "tafRaw": "TAF LZTT 052315Z 0600/0700 VRB02KT 9999 FEW024 BKN040 \n  TEMPO 0600/0603 4000 -SN BKN025 \n  PROB30 \n  TEMPO 0603/0608 BKN015 \n  TEMPO 0616/0700 2800 SN BKN010",
      "metarHtml": "METAR LZTT 060030Z 28006KT 9999 -<span class=\"hl\">SN</span> BKN033 M06/M08 Q1007",
      "tafHtml": "TAF LZTT 052315Z 0600/0700 VRB02KT 9999 FEW024 BKN040 \n  TEMPO 0600/0603 4000 -<span class=\"hl\">SN</span> BKN025 \n  PROB30 \n  TEMPO 0603/0608 BKN015 \n  TEMPO 0616/0700 2800 <span class=\"hl\">SN</span> BKN010"
    },
    {
      "icao": "EKCH",
      "iata": "CPH",
      "name": "Copenhagen Kastrup Airport",
      "updatedAt": "060050Z",
      "visibility_m": 1000,
      "taf_visibility_m": null,
      "worst_visibility_m": 1000,
      "ceiling_ft": 8700,
      "hazards": [],
      "severityScore": 15,
      "metarRaw": "METAR EKCH 060050Z 31006KT 2500 R22L/P1500N R04L/0450N R12/P1500N BCFG SCT005 BKN087 M04/M04 Q1011 TEMPO 1000",
      "tafRaw": null,
      "metarHtml": "METAR EKCH 060050Z 31006KT 2500 R22L/P1500N R04L/0450N R12/P1500N BCFG SCT005 BKN087 M04/M04 Q1011 TEMPO 1000",
      "tafHtml": null
    },
    {
      "icao": "EPPO",
      "iata": "POZ",
      "name": "Poznań-Ławica Airport",
      "updatedAt": "060030Z",
      "visibility_m": 2200,
      "taf_visibility_m": null,
      "worst_visibility_m": 2200,
      "ceiling_ft": 4600,
      "hazards": [
        "BR"
      ],
      "severityScore": 15,
      "metarRaw": "METAR EPPO 060030Z VRB02KT 2200 BR BKN046 M08/M09 Q1013",
      "tafRaw": null,
      "metarHtml": "METAR EPPO 060030Z VRB02KT 2200 <span class=\"hl\">BR</span> BKN046 M08/M09 Q1013",
      "tafHtml": null
    },
    {
      "icao": "GCLP",
      "iata": "LPA",
      "name": "Gran Canaria Airport",
      "updatedAt": "060030Z",
      "visibility_m": 10000,
      "taf_visibility_m": 4000,
      "worst_visibility_m": 4000,
      "ceiling_ft": 4500,
      "hazards": [
        "SHRA"
      ],
      "severityScore": 14,
      "metarRaw": "METAR GCLP 060030Z 02020KT 9999 SCT030 BKN045 17/12 Q1020 NOSIG",
      "tafRaw": "TAF GCLP 052000Z 0521/0621 36017KT 9999 SCT030 TX21/0614Z TN15/0606Z \n  PROB40 \n  TEMPO 0521/0602 4000 SHRA FEW020TCU \n  PROB40 \n  TEMPO 0521/0614 36017G27KT \n  PROB30 \n  TEMPO 0612/0618 RADZ \n  PROB40 \n  TEMPO 0615/0621 01022G32KT",
      "metarHtml": "METAR GCLP 060030Z 02020KT 9999 SCT030 BKN045 17/12 Q1020 NOSIG",
      "tafHtml": "TAF GCLP 052000Z 0521/0621 36017KT 9999 SCT030 TX21/0614Z TN15/0606Z \n  PROB40 \n  TEMPO 0521/0602 4000 <span class=\"hl\">SHRA</span> FEW020TCU \n  PROB40 \n  TEMPO 0521/0614 36017G27KT \n  PROB30 \n  TEMPO 0612/0618 RADZ \n  PROB40 \n  TEMPO 0615/0621 01022G32KT"
    },
    {
      "icao": "LFMN",
      "iata": "NCE",
      "name": "Nice-Côte d'Azur Airport",
      "updatedAt": "060030Z",
      "visibility_m": 10000,
      "taf_visibility_m": 10000,
      "worst_visibility_m": 10000,
      "ceiling_ft": null,
      "hazards": [
        "SHRA"
      ],
      "severityScore": 14,
      "metarRaw": "METAR LFMN 060030Z 33012KT 9999 SCT046 SCT140 06/M01 Q1005 NOSIG",
      "tafRaw": "TAF LFMN 052000Z 0521/0703 32010KT 9999 BKN055 BKN135 \n  BECMG 0612/0614 19005KT \n  PROB40 \n  TEMPO 0620/0622 09020G30KT -SHRA BKN040TCU \n  BECMG 0622/0623 33015KT",
      "metarHtml": "METAR LFMN 060030Z 33012KT 9999 SCT046 SCT140 06/M01 Q1005 NOSIG",
      "tafHtml": "TAF LFMN 052000Z 0521/0703 32010KT 9999 BKN055 BKN135 \n  BECMG 0612/0614 19005KT \n  PROB40 \n  TEMPO 0620/0622 09020G30KT -<span class=\"hl\">SHRA</span> BKN040TCU \n  BECMG 0622/0623 33015KT"
    },
    {
      "icao": "LIBG",
      "iata": "TAR",
      "name": "Taranto-Grottaglie Marcello Arlotta Airport",
      "updatedAt": null,
      "visibility_m": null,
      "taf_visibility_m": 4000,
      "worst_visibility_m": 4000,
      "ceiling_ft": null,
      "hazards": [
        "SHRA"
      ],
      "severityScore": 14,
      "metarRaw": null,
      "tafRaw": "TAF LIBG 051700Z 0518/0603 17012KT 9999 SCT030 \n  TEMPO 0518/0522 4000 SHRA BKN010 \n  BECMG 0520/0522 VRB05KT",
      "metarHtml": null,
      "tafHtml": "TAF LIBG 051700Z 0518/0603 17012KT 9999 SCT030 \n  TEMPO 0518/0522 4000 <span class=\"hl\">SHRA</span> BKN010 \n  BECMG 0520/0522 VRB05KT"
    },
    {
      "icao": "LIBR",
      "iata": "BDS",
      "name": "Brindisi Airport",
      "updatedAt": "060020Z",
      "visibility_m": 6000,
      "taf_visibility_m": 4000,
      "worst_visibility_m": 4000,
      "ceiling_ft": 3000,
      "hazards": [
        "SHRA"
      ],
      "severityScore": 14,
      "metarRaw": "METAR LIBR 060020Z 21011KT 6000 FEW015 BKN030 16/14 Q1005",
      "tafRaw": "TAF LIBR 052300Z 0600/0624 VRB05KT 9999 BKN015 \n  TEMPO 0600/0606 4000 SHRA \n  BECMG 0608/0610 18013KT",
      "metarHtml": "METAR LIBR 060020Z 21011KT 6000 FEW015 BKN030 16/14 Q1005",
      "tafHtml": "TAF LIBR 052300Z 0600/0624 VRB05KT 9999 BKN015 \n  TEMPO 0600/0606 4000 <span class=\"hl\">SHRA</span> \n  BECMG 0608/0610 18013KT"
    },
    {
      "icao": "LPMA",
      "iata": "FNC",
      "name": "Madeira International Airport Cristiano Ronaldo",
      "updatedAt": "060030Z",
      "visibility_m": 10000,
      "taf_visibility_m": 8000,
      "worst_visibility_m": 8000,
      "ceiling_ft": null,
      "hazards": [
        "SHRA"
      ],
      "severityScore": 14,
      "metarRaw": "METAR LPMA 060030Z 03017G27KT 9999 SCT015 FEW018TCU 15/07 Q1025",
      "tafRaw": "TAF LPMA 052300Z 0600/0624 02017KT 9999 SCT015 \n  TEMPO 0600/0615 01022G35KT 8000 SHRA BKN013 FEW018CB \n  TEMPO 0615/0624 01018G30KT",
      "metarHtml": "METAR LPMA 060030Z 03017G27KT 9999 SCT015 FEW018TCU 15/07 Q1025",
      "tafHtml": "TAF LPMA 052300Z 0600/0624 02017KT 9999 SCT015 \n  TEMPO 0600/0615 01022G35KT 8000 <span class=\"hl\">SHRA</span> BKN013 FEW018CB \n  TEMPO 0615/0624 01018G30KT"
    },
    {
      "icao": "LPPS",
      "iata": "PXO",
      "name": "Porto Santo Airport",
      "updatedAt": "060030Z",
      "visibility_m": 10000,
      "taf_visibility_m": 8000,
      "worst_visibility_m": 8000,
      "ceiling_ft": null,
      "hazards": [
        "SHRA"
      ],
      "severityScore": 14,
      "metarRaw": "METAR LPPS 060030Z 03015KT 360V060 9999 SCT015 SCT030 15/07 Q1025",
      "tafRaw": "TAF LPPS 052300Z 0600/0706 04015KT 9999 SCT015 SCT030 \n  TEMPO 0600/0706 03018G28KT \n  PROB40 \n  TEMPO 0600/0612 8000 SHRA BKN013 FEW018CB",
      "metarHtml": "METAR LPPS 060030Z 03015KT 360V060 9999 SCT015 SCT030 15/07 Q1025",
      "tafHtml": "TAF LPPS 052300Z 0600/0706 04015KT 9999 SCT015 SCT030 \n  TEMPO 0600/0706 03018G28KT \n  PROB40 \n  TEMPO 0600/0612 8000 <span class=\"hl\">SHRA</span> BKN013 FEW018CB"
    },
    {
      "icao": "LTFM",
      "iata": "IST",
      "name": "İstanbul Airport",
      "updatedAt": "060020Z",
      "visibility_m": 10000,
      "taf_visibility_m": 10000,
      "worst_visibility_m": 10000,
      "ceiling_ft": 10000,
      "hazards": [
        "SHRA"
      ],
      "severityScore": 14,
      "metarRaw": "METAR LTFM 060020Z 19014KT 9999 SCT040 BKN100 13/06 Q1015 NOSIG RMK RWY17L 19015KT RWY34L 18013KT RWY16R 19013KT RWY36 18012KT RWY18 19014KT",
      "tafRaw": "TAF LTFM 052240Z 0600/0706 19012KT 9999 SCT040 BKN100 \n  TEMPO 0600/0603 -SHRA BKN035 BKN080 \n  TEMPO 0603/0607 -SHRA BKN035 BKN080",
      "metarHtml": "METAR LTFM 060020Z 19014KT 9999 SCT040 BKN100 13/06 Q1015 NOSIG RMK RWY17L 19015KT RWY34L 18013KT RWY16R 19013KT RWY36 18012KT RWY18 19014KT",
      "tafHtml": "TAF LTFM 052240Z 0600/0706 19012KT 9999 SCT040 BKN100 \n  TEMPO 0600/0603 -<span class=\"hl\">SHRA</span> BKN035 BKN080 \n  TEMPO 0603/0607 -<span class=\"hl\">SHRA</span> BKN035 BKN080"
    },
    {
      "icao": "GMMN",
      "iata": "CMN",
      "name": "Mohammed V International Airport",
      "updatedAt": "060030Z",
      "visibility_m": 10000,
      "taf_visibility_m": 5000,
      "worst_visibility_m": 5000,
      "ceiling_ft": 3000,
      "hazards": [
        "RA"
      ],
      "severityScore": 12,
      "metarRaw": "METAR GMMN 060030Z 27005KT 9999 BKN030 10/07 Q1016 NOSIG",
      "tafRaw": "TAF GMMN 052300Z 0600/0706 31006KT 9999 BKN030 \n  PROB40 \n  TEMPO 0608/0614 23010KT 5000 RA BKN013 BKN020",
      "metarHtml": "METAR GMMN 060030Z 27005KT 9999 BKN030 10/07 Q1016 NOSIG",
      "tafHtml": "TAF GMMN 052300Z 0600/0706 31006KT 9999 BKN030 \n  PROB40 \n  TEMPO 0608/0614 23010KT 5000 <span class=\"hl\">RA</span> BKN013 BKN020"
    },
    {
      "icao": "GMMX",
      "iata": "RAK",
      "name": "Menara Airport",
      "updatedAt": "060030Z",
      "visibility_m": 8000,
      "taf_visibility_m": 4000,
      "worst_visibility_m": 4000,
      "ceiling_ft": 2000,
      "hazards": [
        "RA"
      ],
      "severityScore": 12,
      "metarRaw": "METAR GMMX 060030Z 36006KT 330V050 8000 SCT013 BKN020 11/09 Q1017 NOSIG",
      "tafRaw": "TAF GMMX 052300Z 0600/0706 26006KT 8000 SCT023 SCT080 \n  TEMPO 0600/0606 34012KT 4000 RA SCT013 BKN020",
      "metarHtml": "METAR GMMX 060030Z 36006KT 330V050 8000 SCT013 BKN020 11/09 Q1017 NOSIG",
      "tafHtml": "TAF GMMX 052300Z 0600/0706 26006KT 8000 SCT023 SCT080 \n  TEMPO 0600/0606 34012KT 4000 <span class=\"hl\">RA</span> SCT013 BKN020"
    },
    {
      "icao": "EGBB",
      "iata": "BHX",
      "name": "Birmingham Airport",
      "updatedAt": "060020Z",
      "visibility_m": 10000,
      "taf_visibility_m": 4000,
      "worst_visibility_m": 4000,
      "ceiling_ft": null,
      "hazards": [
        "RA"
      ],
      "severityScore": 12,
      "metarRaw": "METAR EGBB 060020Z 27005KT CAVOK M07/M08 Q1018",
      "tafRaw": "TAF EGBB 052258Z 0600/0624 27004KT 9999 FEW025 \n  PROB40 0603/0611 6000 \n  PROB30 \n  TEMPO 0605/0610 BKN008 \n  BECMG 0612/0615 20010KT \n  TEMPO 0617/0621 8000 -RA \n  PROB30 \n  TEMPO 0617/0624 20015G25KT \n  TEMPO 0621/0624 7000 RA BKN012 \n  PROB30 \n  TEMPO 0621/0624 4000 +RA BKN008 \n  BECMG 0622/0624 26012KT",
      "metarHtml": "METAR EGBB 060020Z 27005KT <span class=\"hl-vis\">CAVOK</span> M07/M08 Q1018",
      "tafHtml": "TAF EGBB 052258Z 0600/0624 27004KT 9999 FEW025 \n  PROB40 0603/0611 6000 \n  PROB30 \n  TEMPO 0605/0610 BKN008 \n  BECMG 0612/0615 20010KT \n  TEMPO 0617/0621 8000 -<span class=\"hl\">RA</span> \n  PROB30 \n  TEMPO 0617/0624 20015G25KT \n  TEMPO 0621/0624 7000 <span class=\"hl\">RA</span> BKN012 \n  PROB30 \n  TEMPO 0621/0624 4000 +<span class=\"hl\">RA</span> BKN008 \n  BECMG 0622/0624 26012KT"
    },
    {
      "icao": "EGGW",
      "iata": "LTN",
      "name": "London Luton Airport",
      "updatedAt": "060050Z",
      "visibility_m": 10000,
      "taf_visibility_m": 3000,
      "worst_visibility_m": 3000,
      "ceiling_ft": null,
      "hazards": [
        "RA"
      ],
      "severityScore": 12,
      "metarRaw": "METAR EGGW 060050Z AUTO 29007KT 9999 NCD M05/M07 Q1017",
      "tafRaw": "TAF EGGW 052305Z 0600/0624 30006KT CAVOK \n  TEMPO 0612/0618 BKN030 \n  BECMG 0618/0620 19012KT FEW012 BKN030 \n  TEMPO 0620/0624 20016G26KT 6000 RA BKN012 \n  PROB30 \n  TEMPO 0622/0624 3000 +RA BKN006",
      "metarHtml": "METAR EGGW 060050Z AUTO 29007KT 9999 NCD M05/M07 Q1017",
      "tafHtml": "TAF EGGW 052305Z 0600/0624 30006KT <span class=\"hl-vis\">CAVOK</span> \n  TEMPO 0612/0618 BKN030 \n  BECMG 0618/0620 19012KT FEW012 BKN030 \n  TEMPO 0620/0624 20016G26KT 6000 <span class=\"hl\">RA</span> BKN012 \n  PROB30 \n  TEMPO 0622/0624 3000 +<span class=\"hl\">RA</span> BKN006"
    },
    {
      "icao": "LBSF",
      "iata": "SOF",
      "name": "Sofia Airport",
      "updatedAt": "060030Z",
      "visibility_m": 10000,
      "taf_visibility_m": 5000,
      "worst_visibility_m": 5000,
      "ceiling_ft": null,
      "hazards": [
        "RA"
      ],
      "severityScore": 12,
      "metarRaw": "METAR LBSF 060030Z AUTO VRB03KT 9999 FEW061/// SCT084/// 06/03 Q1010 NOSIG",
      "tafRaw": "TAF LBSF 052300Z 0600/0624 VRB03KT 7000 SCT040 BKN060 \n  BECMG 0603/0604 10012KT \n  PROB40 \n  TEMPO 0604/0609 5000 RA SCT030 BKN040 \n  TEMPO 0609/0615 5000 RA SCT030 BKN040",
      "metarHtml": "METAR LBSF 060030Z AUTO VRB03KT 9999 FEW061/// SCT084/// 06/03 Q1010 NOSIG",
      "tafHtml": "TAF LBSF 052300Z 0600/0624 VRB03KT 7000 SCT040 BKN060 \n  BECMG 0603/0604 10012KT \n  PROB40 \n  TEMPO 0604/0609 5000 <span class=\"hl\">RA</span> SCT030 BKN040 \n  TEMPO 0609/0615 5000 <span class=\"hl\">RA</span> SCT030 BKN040"
    },
    {
      "icao": "LGTS",
      "iata": "SKG",
      "name": "Thessaloniki Macedonia International Airport",
      "updatedAt": "060020Z",
      "visibility_m": 10000,
      "taf_visibility_m": 5000,
      "worst_visibility_m": 5000,
      "ceiling_ft": null,
      "hazards": [
        "RA"
      ],
      "severityScore": 12,
      "metarRaw": "METAR LGTS 060020Z 15005KT 9999 FEW030 13/11 Q1012 NOSIG",
      "tafRaw": "TAF LGTS 052300Z 0600/0624 14010KT 9999 SCT030 \n  PROB30 \n  TEMPO 0610/0624 5000 RA",
      "metarHtml": "METAR LGTS 060020Z 15005KT 9999 FEW030 13/11 Q1012 NOSIG",
      "tafHtml": "TAF LGTS 052300Z 0600/0624 14010KT 9999 SCT030 \n  PROB30 \n  TEMPO 0610/0624 5000 <span class=\"hl\">RA</span>"
    },
    {
      "icao": "LIBD",
      "iata": "BRI",
      "name": "Bari Karol Wojtyła International Airport",
      "updatedAt": "060020Z",
      "visibility_m": 10000,
      "taf_visibility_m": 10000,
      "worst_visibility_m": 10000,
      "ceiling_ft": 1500,
      "hazards": [],
      "severityScore": 12,
      "metarRaw": "METAR LIBD 060020Z VRB01KT 9999 BKN015 11/10 Q1005",
      "tafRaw": "TAF LIBD 052300Z 0600/0624 30007KT 9999 SCT015 \n  BECMG 0610/0612 15010KT \n  BECMG 0622/0624 27010KT",
      "metarHtml": "METAR LIBD 060020Z VRB01KT 9999 BKN015 11/10 Q1005",
      "tafHtml": "TAF LIBD 052300Z 0600/0624 30007KT 9999 SCT015 \n  BECMG 0610/0612 15010KT \n  BECMG 0622/0624 27010KT"
    },
    {
      "icao": "LIPY",
      "iata": "AOI",
      "name": "Marche Airport",
      "updatedAt": "060020Z",
      "visibility_m": 7000,
      "taf_visibility_m": 2000,
      "worst_visibility_m": 2000,
      "ceiling_ft": null,
      "hazards": [
        "RA"
      ],
      "severityScore": 12,
      "metarRaw": "METAR LIPY 060020Z AUTO 26003KT 7000 -RA OVC017/// 03/02 Q1008",
      "tafRaw": "TAF LIPY 052300Z 0600/0624 VRB05KT 4000 RA BKN010 \n  BECMG 0606/0608 32015KT \n  TEMPO 0611/0616 2000 RASN OVC004 \n  BECMG 0618/0621 7000 NSW",
      "metarHtml": "METAR LIPY 060020Z AUTO 26003KT 7000 -<span class=\"hl\">RA</span> OVC017/// 03/02 Q1008",
      "tafHtml": "TAF LIPY 052300Z 0600/0624 VRB05KT 4000 <span class=\"hl\">RA</span> BKN010 \n  BECMG 0606/0608 32015KT \n  TEMPO 0611/0616 2000 RASN OVC004 \n  BECMG 0618/0621 7000 NSW"
    },
    {
      "icao": "LIRP",
      "iata": "PSA",
      "name": "Pisa International Airport",
      "updatedAt": "060015Z",
      "visibility_m": 10000,
      "taf_visibility_m": 10000,
      "worst_visibility_m": 10000,
      "ceiling_ft": null,
      "hazards": [
        "RA"
      ],
      "severityScore": 12,
      "metarRaw": "METAR LIRP 060015Z VRB03KT CAVOK 02/M01 Q1005 NOSIG",
      "tafRaw": "TAF LIRP 052300Z 0600/0624 10006KT CAVOK \n  PROB30 \n  TEMPO 0608/0610 9999 RA BKN040",
      "metarHtml": "METAR LIRP 060015Z VRB03KT <span class=\"hl-vis\">CAVOK</span> 02/M01 Q1005 NOSIG",
      "tafHtml": "TAF LIRP 052300Z 0600/0624 10006KT <span class=\"hl-vis\">CAVOK</span> \n  PROB30 \n  TEMPO 0608/0610 9999 <span class=\"hl\">RA</span> BKN040"
    },
    {
      "icao": "LIRZ",
      "iata": "PEG",
      "name": "Perugia San Francesco d'Assisi – Umbria International Airport",
      "updatedAt": "060020Z",
      "visibility_m": 10000,
      "taf_visibility_m": 4000,
      "worst_visibility_m": 4000,
      "ceiling_ft": null,
      "hazards": [
        "RA"
      ],
      "severityScore": 12,
      "metarRaw": "METAR LIRZ 060020Z AUTO 34007KT 9999 OVC018/// 05/04 Q1004 REDZ RERA",
      "tafRaw": "TAF LIRZ 052300Z 0600/0624 02010KT 9999 BKN020 \n  BECMG 0602/0604 4000 RA \n  BECMG 0614/0616 8000 NSW",
      "metarHtml": "METAR LIRZ 060020Z AUTO 34007KT 9999 OVC018/// 05/04 Q1004 REDZ RERA",
      "tafHtml": "TAF LIRZ 052300Z 0600/0624 02010KT 9999 BKN020 \n  BECMG 0602/0604 4000 <span class=\"hl\">RA</span> \n  BECMG 0614/0616 8000 NSW"
    },
    {
      "icao": "LPPR",
      "iata": "OPO",
      "name": "Francisco de Sá Carneiro Airport",
      "updatedAt": "060030Z",
      "visibility_m": 10000,
      "taf_visibility_m": 8000,
      "worst_visibility_m": 8000,
      "ceiling_ft": null,
      "hazards": [
        "RA"
      ],
      "severityScore": 12,
      "metarRaw": "METAR LPPR 060030Z 34010KT CAVOK 06/01 Q1020",
      "tafRaw": "TAF LPPR 052300Z 0600/0624 36010KT CAVOK \n  BECMG 0622/0624 15010KT 8000 -RA SCT015 BKN025",
      "metarHtml": "METAR LPPR 060030Z 34010KT <span class=\"hl-vis\">CAVOK</span> 06/01 Q1020",
      "tafHtml": "TAF LPPR 052300Z 0600/0624 36010KT <span class=\"hl-vis\">CAVOK</span> \n  BECMG 0622/0624 15010KT 8000 -<span class=\"hl\">RA</span> SCT015 BKN025"
    },
    {
      "icao": "LPPT",
      "iata": "LIS",
      "name": "Lisbon Humberto Delgado Airport",
      "updatedAt": "060030Z",
      "visibility_m": 10000,
      "taf_visibility_m": 5000,
      "worst_visibility_m": 5000,
      "ceiling_ft": null,
      "hazards": [
        "RA"
      ],
      "severityScore": 12,
      "metarRaw": "METAR LPPT 060030Z 35004KT 9999 FEW030 06/05 Q1018",
      "tafRaw": "TAF LPPT 052300Z 0600/0706 36008KT 9999 FEW030 \n  BECMG 0610/0612 34015KT CAVOK \n  PROB40 \n  TEMPO 0612/0618 35018G30KT \n  BECMG 0622/0624 VRB02KT 9999 FEW018 BKN030 \n  TEMPO 0702/0706 5000 RA BKN012 \n  BECMG 0704/0706 18007KT",
      "metarHtml": "METAR LPPT 060030Z 35004KT 9999 FEW030 06/05 Q1018",
      "tafHtml": "TAF LPPT 052300Z 0600/0706 36008KT 9999 FEW030 \n  BECMG 0610/0612 34015KT <span class=\"hl-vis\">CAVOK</span> \n  PROB40 \n  TEMPO 0612/0618 35018G30KT \n  BECMG 0622/0624 VRB02KT 9999 FEW018 BKN030 \n  TEMPO 0702/0706 5000 <span class=\"hl\">RA</span> BKN012 \n  BECMG 0704/0706 18007KT"
    },
    {
      "icao": "LWOH",
      "iata": "OHD",
      "name": "Ohrid St. Paul the Apostle Airport",
      "updatedAt": null,
      "visibility_m": null,
      "taf_visibility_m": 10000,
      "worst_visibility_m": 10000,
      "ceiling_ft": null,
      "hazards": [
        "RA"
      ],
      "severityScore": 12,
      "metarRaw": null,
      "tafRaw": "TAF LWOH 052345Z 0600/0624 VRB02KT 9999 -RA SCT020 OVC040 \n  BECMG 0602/0604 16015KT \n  BECMG 0611/0613 RA SCT015 OVC030",
      "metarHtml": null,
      "tafHtml": "TAF LWOH 052345Z 0600/0624 VRB02KT 9999 -<span class=\"hl\">RA</span> SCT020 OVC040 \n  BECMG 0602/0604 16015KT \n  BECMG 0611/0613 <span class=\"hl\">RA</span> SCT015 OVC030"
    },
    {
      "icao": "LWSK",
      "iata": "SKP",
      "name": "Skopje International Airport",
      "updatedAt": "060050Z",
      "visibility_m": 10000,
      "taf_visibility_m": 10000,
      "worst_visibility_m": 10000,
      "ceiling_ft": 6000,
      "hazards": [
        "RA"
      ],
      "severityScore": 12,
      "metarRaw": "METAR LWSK 060050Z 17004KT 130V210 9999 BKN060 BKN090 12/07 Q1010 NOSIG",
      "tafRaw": "TAF LWSK 052345Z 0600/0624 13012KT 9999 SCT050 BKN070 \n  TEMPO 0600/0603 12018KT \n  TEMPO 0611/0624 RA SCT030 OVC050",
      "metarHtml": "METAR LWSK 060050Z 17004KT 130V210 9999 BKN060 BKN090 12/07 Q1010 NOSIG",
      "tafHtml": "TAF LWSK 052345Z 0600/0624 13012KT 9999 SCT050 BKN070 \n  TEMPO 0600/0603 12018KT \n  TEMPO 0611/0624 <span class=\"hl\">RA</span> SCT030 OVC050"
    },
    {
      "icao": "LYNI",
      "iata": "INI",
      "name": "Niš Constantine the Great Airport",
      "updatedAt": "060030Z",
      "visibility_m": 10000,
      "taf_visibility_m": 10000,
      "worst_visibility_m": 10000,
      "ceiling_ft": 6700,
      "hazards": [
        "RA"
      ],
      "severityScore": 12,
      "metarRaw": "METAR LYNI 060030Z VRB02KT 9999 -RA SCT037 OVC067 04/03 Q1009 NOSIG",
      "tafRaw": "TAF LYNI 052300Z 0600/0624 05004KT 9999 BKN080 TX03/0600Z TN00/0624Z \n  BECMG 0604/0606 34010KT BKN010 BKN030 \n  TEMPO 0605/0612 RA",
      "metarHtml": "METAR LYNI 060030Z VRB02KT 9999 -<span class=\"hl\">RA</span> SCT037 OVC067 04/03 Q1009 NOSIG",
      "tafHtml": "TAF LYNI 052300Z 0600/0624 05004KT 9999 BKN080 TX03/0600Z TN00/0624Z \n  BECMG 0604/0606 34010KT BKN010 BKN030 \n  TEMPO 0605/0612 <span class=\"hl\">RA</span>"
    },
    {
      "icao": "EDJA",
      "iata": "FMM",
      "name": "Memmingen Allgau Airport",
      "updatedAt": "060020Z",
      "visibility_m": 10000,
      "taf_visibility_m": 1200,
      "worst_visibility_m": 1200,
      "ceiling_ft": null,
      "hazards": [],
      "severityScore": 10,
      "metarRaw": "METAR EDJA 060020Z AUTO 18003KT 9999 // FEW140/// M13/M15 Q1012",
      "tafRaw": "TAF EDJA 051700Z 0518/0603 22004KT CAVOK \n  PROB30 \n  TEMPO 0521/0603 1200 BCFG",
      "metarHtml": "METAR EDJA 060020Z AUTO 18003KT 9999 // FEW140/// M13/M15 Q1012",
      "tafHtml": "TAF EDJA 051700Z 0518/0603 22004KT <span class=\"hl-vis\">CAVOK</span> \n  PROB30 \n  TEMPO 0521/0603 1200 BCFG"
    },
    {
      "icao": "EDNY",
      "iata": "FDH",
      "name": "Friedrichshafen Airport",
      "updatedAt": "060020Z",
      "visibility_m": 10000,
      "taf_visibility_m": 1200,
      "worst_visibility_m": 1200,
      "ceiling_ft": null,
      "hazards": [],
      "severityScore": 10,
      "metarRaw": "METAR EDNY 060020Z AUTO 07005KT 9999 // NCD M13/M15 Q1014",
      "tafRaw": "TAF EDNY 051700Z 0518/0603 VRB03KT CAVOK \n  PROB30 \n  TEMPO 0521/0603 1200 BCFG",
      "metarHtml": "METAR EDNY 060020Z AUTO 07005KT 9999 // NCD M13/M15 Q1014",
      "tafHtml": "TAF EDNY 051700Z 0518/0603 VRB03KT <span class=\"hl-vis\">CAVOK</span> \n  PROB30 \n  TEMPO 0521/0603 1200 BCFG"
    },
    {
      "icao": "EPKT",
      "iata": "KTW",
      "name": "Katowice Wojciech Korfanty International Airport",
      "updatedAt": "060030Z",
      "visibility_m": 9000,
      "taf_visibility_m": 2000,
      "worst_visibility_m": 2000,
      "ceiling_ft": null,
      "hazards": [
        "BR"
      ],
      "severityScore": 10,
      "metarRaw": "METAR EPKT 060030Z 31002KT 9000 NSC M07/M08 Q1011",
      "tafRaw": "TAF EPKT 052330Z 0600/0624 35002KT CAVOK \n  PROB30 \n  TEMPO 0600/0605 4000 BR \n  PROB30 \n  TEMPO 0605/0609 2000 BR BKN004 \n  BECMG 0606/0609 29010KT \n  BECMG 0618/0621 35005KT",
      "metarHtml": "METAR EPKT 060030Z 31002KT 9000 NSC M07/M08 Q1011",
      "tafHtml": "TAF EPKT 052330Z 0600/0624 35002KT <span class=\"hl-vis\">CAVOK</span> \n  PROB30 \n  TEMPO 0600/0605 4000 <span class=\"hl\">BR</span> \n  PROB30 \n  TEMPO 0605/0609 2000 <span class=\"hl\">BR</span> BKN004 \n  BECMG 0606/0609 29010KT \n  BECMG 0618/0621 35005KT"
    },
    {
      "icao": "EPWR",
      "iata": "WRO",
      "name": "Copernicus Wrocław Airport",
      "updatedAt": "060030Z",
      "visibility_m": 8000,
      "taf_visibility_m": 4500,
      "worst_visibility_m": 4500,
      "ceiling_ft": null,
      "hazards": [
        "BR"
      ],
      "severityScore": 10,
      "metarRaw": "METAR EPWR 060030Z 12001KT 8000 FEW041 M08/M10 Q1013",
      "tafRaw": "TAF EPWR 052330Z 0600/0624 30003KT CAVOK \n  TEMPO 0600/0606 4500 BR",
      "metarHtml": "METAR EPWR 060030Z 12001KT 8000 FEW041 M08/M10 Q1013",
      "tafHtml": "TAF EPWR 052330Z 0600/0624 30003KT <span class=\"hl-vis\">CAVOK</span> \n  TEMPO 0600/0606 4500 <span class=\"hl\">BR</span>"
    },
    {
      "icao": "ESGG",
      "iata": "GOT",
      "name": "Göteborg Landvetter Airport",
      "updatedAt": "060050Z",
      "visibility_m": 10000,
      "taf_visibility_m": 2500,
      "worst_visibility_m": 2500,
      "ceiling_ft": null,
      "hazards": [
        "BR"
      ],
      "severityScore": 10,
      "metarRaw": "METAR ESGG 060050Z COR 06005KT 9999 PRFG NSC M10/M11 Q1010",
      "tafRaw": "TAF ESGG 052330Z 0600/0624 VRB02KT 9999 SCT045 \n  PROB40 0600/0606 2500 BR BKN004",
      "metarHtml": "METAR ESGG 060050Z COR 06005KT 9999 PRFG NSC M10/M11 Q1010",
      "tafHtml": "TAF ESGG 052330Z 0600/0624 VRB02KT 9999 SCT045 \n  PROB40 0600/0606 2500 <span class=\"hl\">BR</span> BKN004"
    },
    {
      "icao": "LBWN",
      "iata": "VAR",
      "name": "Varna Airport",
      "updatedAt": "060030Z",
      "visibility_m": 10000,
      "taf_visibility_m": 3000,
      "worst_visibility_m": 3000,
      "ceiling_ft": null,
      "hazards": [
        "BR"
      ],
      "severityScore": 10,
      "metarRaw": "METAR LBWN 060030Z AUTO 18006KT 110V240 9999 NSC 12/09 Q1012 NOSIG",
      "tafRaw": "TAF LBWN 052300Z 0600/0624 11008KT 9999 BKN040 \n  PROB40 \n  TEMPO 0600/0606 3000 BR SCT003 OVC010 \n  BECMG 0607/0609 21012KT \n  BECMG 0616/0618 VRB04KT",
      "metarHtml": "METAR LBWN 060030Z AUTO 18006KT 110V240 9999 NSC 12/09 Q1012 NOSIG",
      "tafHtml": "TAF LBWN 052300Z 0600/0624 11008KT 9999 BKN040 \n  PROB40 \n  TEMPO 0600/0606 3000 <span class=\"hl\">BR</span> SCT003 OVC010 \n  BECMG 0607/0609 21012KT \n  BECMG 0616/0618 VRB04KT"
    },
    {
      "icao": "LKPR",
      "iata": "PRG",
      "name": "Václav Havel Airport Prague",
      "updatedAt": "060030Z",
      "visibility_m": 10000,
      "taf_visibility_m": 5000,
      "worst_visibility_m": 5000,
      "ceiling_ft": null,
      "hazards": [
        "BR"
      ],
      "severityScore": 10,
      "metarRaw": "METAR LKPR 060030Z 20006KT CAVOK M09/M11 Q1012 NOSIG",
      "tafRaw": "TAF LKPR 052300Z 0600/0706 23006KT CAVOK \n  TEMPO 0700/0706 5000 BR NSC",
      "metarHtml": "METAR LKPR 060030Z 20006KT <span class=\"hl-vis\">CAVOK</span> M09/M11 Q1012 NOSIG",
      "tafHtml": "TAF LKPR 052300Z 0600/0706 23006KT <span class=\"hl-vis\">CAVOK</span> \n  TEMPO 0700/0706 5000 <span class=\"hl\">BR</span> NSC"
    },
    {
      "icao": "LLBG",
      "iata": "TLV",
      "name": "Ben Gurion International Airport",
      "updatedAt": "060050Z",
      "visibility_m": 10000,
      "taf_visibility_m": 5000,
      "worst_visibility_m": 5000,
      "ceiling_ft": null,
      "hazards": [
        "BR"
      ],
      "severityScore": 10,
      "metarRaw": "METAR LLBG 060050Z VRB02KT CAVOK 11/06 Q1019 NOSIG",
      "tafRaw": "TAF LLBG 052322Z 0600/0624 13004KT CAVOK \n  BECMG 0607/0609 30010KT \n  BECMG 0615/0617 VRB03KT \n  PROB30 0623/0624 5000 BR SCT008 TX22/0612Z TN10/0604Z",
      "metarHtml": "METAR LLBG 060050Z VRB02KT <span class=\"hl-vis\">CAVOK</span> 11/06 Q1019 NOSIG",
      "tafHtml": "TAF LLBG 052322Z 0600/0624 13004KT <span class=\"hl-vis\">CAVOK</span> \n  BECMG 0607/0609 30010KT \n  BECMG 0615/0617 VRB03KT \n  PROB30 0623/0624 5000 <span class=\"hl\">BR</span> SCT008 TX22/0612Z TN10/0604Z"
    },
    {
      "icao": "EDDB",
      "iata": "BER",
      "name": "Berlin Brandenburg Airport",
      "updatedAt": "060050Z",
      "visibility_m": 10000,
      "taf_visibility_m": null,
      "worst_visibility_m": 10000,
      "ceiling_ft": null,
      "hazards": [],
      "severityScore": 5,
      "metarRaw": "METAR EDDB 060050Z AUTO 19003KT CAVOK M09/M10 Q1013 NOSIG",
      "tafRaw": null,
      "metarHtml": "METAR EDDB 060050Z AUTO 19003KT <span class=\"hl-vis\">CAVOK</span> M09/M10 Q1013 NOSIG",
      "tafHtml": null
    },
    {
      "icao": "ESKN",
      "iata": "NYO",
      "name": "Stockholm Skavsta Airport",
      "updatedAt": "060050Z",
      "visibility_m": 10000,
      "taf_visibility_m": null,
      "worst_visibility_m": 10000,
      "ceiling_ft": null,
      "hazards": [],
      "severityScore": 5,
      "metarRaw": "METAR ESKN 060050Z 08003KT 9999 SCT011 M05/M05 Q1011",
      "tafRaw": null,
      "metarHtml": "METAR ESKN 060050Z 08003KT 9999 SCT011 M05/M05 Q1011",
      "tafHtml": null
    },
    {
      "icao": "ESMS",
      "iata": "MMX",
      "name": "Malmö Sturup Airport",
      "updatedAt": "060050Z",
      "visibility_m": 2000,
      "taf_visibility_m": null,
      "worst_visibility_m": 2000,
      "ceiling_ft": null,
      "hazards": [],
      "severityScore": 5,
      "metarRaw": "METAR ESMS 060050Z 19002KT 2000 BCFG SCT015 M06/M06 Q1010",
      "tafRaw": null,
      "metarHtml": "METAR ESMS 060050Z 19002KT 2000 BCFG SCT015 M06/M06 Q1010",
      "tafHtml": null
    },
    {
      "icao": "LECH",
      "iata": "CDT",
      "name": "Castellón-Costa Azahar Airport",
      "updatedAt": "060030Z",
      "visibility_m": 9000,
      "taf_visibility_m": null,
      "worst_visibility_m": 9000,
      "ceiling_ft": null,
      "hazards": [],
      "severityScore": 5,
      "metarRaw": "METAR LECH 060030Z AUTO VRB02KT 9000 NSC 00/M06 Q1010",
      "tafRaw": null,
      "metarHtml": "METAR LECH 060030Z AUTO VRB02KT 9000 NSC 00/M06 Q1010",
      "tafHtml": null
    },
    {
      "icao": "LRBV",
      "iata": "GHV",
      "name": "Brașov-Ghimbav International Airport",
      "updatedAt": "060030Z",
      "visibility_m": 10000,
      "taf_visibility_m": null,
      "worst_visibility_m": 10000,
      "ceiling_ft": null,
      "hazards": [],
      "severityScore": 5,
      "metarRaw": "METAR LRBV 060030Z AUTO 15006KT 9999 SCT046/// OVC150/// 01/M00 Q1009",
      "tafRaw": null,
      "metarHtml": "METAR LRBV 060030Z AUTO 15006KT 9999 SCT046/// OVC150/// 01/M00 Q1009",
      "tafHtml": null
    },
    {
      "icao": "BIKF",
      "iata": "KEF",
      "name": "Keflavik International Airport",
      "updatedAt": "060030Z",
      "visibility_m": 10000,
      "taf_visibility_m": 10000,
      "worst_visibility_m": 10000,
      "ceiling_ft": null,
      "hazards": [],
      "severityScore": 0,
      "metarRaw": "METAR BIKF 060030Z 03013KT CAVOK M02/M06 Q1017",
      "tafRaw": "TAF BIKF 052231Z 0600/0700 07010KT CAVOK TXM02/0600Z TNM06/0610Z \n  BECMG 0618/0620 09015G25KT",
      "metarHtml": "METAR BIKF 060030Z 03013KT <span class=\"hl-vis\">CAVOK</span> M02/M06 Q1017",
      "tafHtml": "TAF BIKF 052231Z 0600/0700 07010KT <span class=\"hl-vis\">CAVOK</span> TXM02/0600Z TNM06/0610Z \n  BECMG 0618/0620 09015G25KT"
    },
    {
      "icao": "GCFV",
      "iata": "FUE",
      "name": "Fuerteventura Airport",
      "updatedAt": "060030Z",
      "visibility_m": 10000,
      "taf_visibility_m": 10000,
      "worst_visibility_m": 10000,
      "ceiling_ft": null,
      "hazards": [],
      "severityScore": 0,
      "metarRaw": "METAR GCFV 060030Z AUTO 35012KT CAVOK 16/12 Q1020",
      "tafRaw": "TAF GCFV 052000Z 0521/0621 02014KT 9999 SCT030 TX21/0614Z TN15/0606Z",
      "metarHtml": "METAR GCFV 060030Z AUTO 35012KT <span class=\"hl-vis\">CAVOK</span> 16/12 Q1020",
      "tafHtml": "TAF GCFV 052000Z 0521/0621 02014KT 9999 SCT030 TX21/0614Z TN15/0606Z"
    },
    {
      "icao": "GCTS",
      "iata": "TFS",
      "name": "Tenerife Sur Airport",
      "updatedAt": "060030Z",
      "visibility_m": 10000,
      "taf_visibility_m": 10000,
      "worst_visibility_m": 10000,
      "ceiling_ft": 4500,
      "hazards": [],
      "severityScore": 0,
      "metarRaw": "METAR GCTS 060030Z 06015KT 9999 BKN045 17/09 Q1020 NOSIG",
      "tafRaw": "TAF GCTS 052000Z 0521/0621 07014KT 9999 SCT030 TX23/0614Z TN16/0606Z \n  PROB40 \n  TEMPO 0611/0620 09020G32KT",
      "metarHtml": "METAR GCTS 060030Z 06015KT 9999 BKN045 17/09 Q1020 NOSIG",
      "tafHtml": "TAF GCTS 052000Z 0521/0621 07014KT 9999 SCT030 TX23/0614Z TN16/0606Z \n  PROB40 \n  TEMPO 0611/0620 09020G32KT"
    },
    {
      "icao": "GMAD",
      "iata": "AGA",
      "name": "Al Massira Airport",
      "updatedAt": "060030Z",
      "visibility_m": 10000,
      "taf_visibility_m": 8000,
      "worst_visibility_m": 8000,
      "ceiling_ft": null,
      "hazards": [],
      "severityScore": 0,
      "metarRaw": "METAR GMAD 060030Z 26010KT 9999 FEW026 13/10 Q1013 NOSIG",
      "tafRaw": "TAF GMAD 052300Z 0600/0706 24006KT 8000 SCT023 SCT080 \n  BECMG 0612/0614 28013KT",
      "metarHtml": "METAR GMAD 060030Z 26010KT 9999 FEW026 13/10 Q1013 NOSIG",
      "tafHtml": "TAF GMAD 052300Z 0600/0706 24006KT 8000 SCT023 SCT080 \n  BECMG 0612/0614 28013KT"
    },
    {
      "icao": "EGNM",
      "iata": "LBA",
      "name": "Leeds Bradford Airport",
      "updatedAt": null,
      "visibility_m": null,
      "taf_visibility_m": 3000,
      "worst_visibility_m": 3000,
      "ceiling_ft": null,
      "hazards": [],
      "severityScore": 0,
      "metarRaw": null,
      "tafRaw": "TAF EGNM 052255Z 0600/0624 27009KT 9999 FEW040 \n  PROB40 \n  TEMPO 0607/0615 BKN008 \n  BECMG 0615/0618 21012KT \n  TEMPO 0615/0621 6000 -RASN BKN008 \n  PROB30 \n  TEMPO 0616/0621 3000 RASN BKN004 \n  BECMG 0621/0624 27006KT",
      "metarHtml": null,
      "tafHtml": "TAF EGNM 052255Z 0600/0624 27009KT 9999 FEW040 \n  PROB40 \n  TEMPO 0607/0615 BKN008 \n  BECMG 0615/0618 21012KT \n  TEMPO 0615/0621 6000 -RASN BKN008 \n  PROB30 \n  TEMPO 0616/0621 3000 RASN BKN004 \n  BECMG 0621/0624 27006KT"
    },
    {
      "icao": "ENAL",
      "iata": "AES",
      "name": "Ålesund Airport, Vigra",
      "updatedAt": "060020Z",
      "visibility_m": 10000,
      "taf_visibility_m": 10000,
      "worst_visibility_m": 10000,
      "ceiling_ft": null,
      "hazards": [],
      "severityScore": 0,
      "metarRaw": "METAR ENAL 060020Z AUTO 14014KT 9999 NCD M05/M10 Q1011",
      "tafRaw": "TAF ENAL 052300Z 0600/0609 14008KT 9999 FEW040",
      "metarHtml": "METAR ENAL 060020Z AUTO 14014KT 9999 NCD M05/M10 Q1011",
      "tafHtml": "TAF ENAL 052300Z 0600/0609 14008KT 9999 FEW040"
    },
    {
      "icao": "ENBR",
      "iata": "BGO",
      "name": "Bergen Airport, Flesland",
      "updatedAt": "060020Z",
      "visibility_m": 10000,
      "taf_visibility_m": 10000,
      "worst_visibility_m": 10000,
      "ceiling_ft": null,
      "hazards": [],
      "severityScore": 0,
      "metarRaw": "METAR ENBR 060020Z 07003KT 040V100 CAVOK M08/M13 Q1011 RMK WIND 1200FT 14006KT",
      "tafRaw": "TAF ENBR 052300Z 0600/0624 07005KT 9999 SCT050",
      "metarHtml": "METAR ENBR 060020Z 07003KT 040V100 <span class=\"hl-vis\">CAVOK</span> M08/M13 Q1011 RMK WIND 1200FT 14006KT",
      "tafHtml": "TAF ENBR 052300Z 0600/0624 07005KT 9999 SCT050"
    },
    {
      "icao": "ENTC",
      "iata": "TOS",
      "name": "Tromsø Airport, Langnes",
      "updatedAt": "060020Z",
      "visibility_m": 10000,
      "taf_visibility_m": 10000,
      "worst_visibility_m": 10000,
      "ceiling_ft": null,
      "hazards": [],
      "severityScore": 0,
      "metarRaw": "METAR ENTC 060020Z AUTO 17006KT 9999 NCD M10/M14 Q1015 RMK WIND 2600FT 10007KT",
      "tafRaw": "TAF ENTC 052300Z 0600/0624 23005KT CAVOK",
      "metarHtml": "METAR ENTC 060020Z AUTO 17006KT 9999 NCD M10/M14 Q1015 RMK WIND 2600FT 10007KT",
      "tafHtml": "TAF ENTC 052300Z 0600/0624 23005KT <span class=\"hl-vis\">CAVOK</span>"
    },
    {
      "icao": "ENVA",
      "iata": "TRD",
      "name": "Trondheim Airport, Værnes",
      "updatedAt": "060020Z",
      "visibility_m": 10000,
      "taf_visibility_m": 10000,
      "worst_visibility_m": 10000,
      "ceiling_ft": null,
      "hazards": [],
      "severityScore": 0,
      "metarRaw": "METAR ENVA 060020Z 12009KT CAVOK M17/M19 Q1015 RMK WIND 670FT 11009KT",
      "tafRaw": "TAF ENVA 052300Z 0600/0624 12008KT CAVOK",
      "metarHtml": "METAR ENVA 060020Z 12009KT <span class=\"hl-vis\">CAVOK</span> M17/M19 Q1015 RMK WIND 670FT 11009KT",
      "tafHtml": "TAF ENVA 052300Z 0600/0624 12008KT <span class=\"hl-vis\">CAVOK</span>"
    },
    {
      "icao": "EPRA",
      "iata": "RDO",
      "name": "Warsaw Radom Airport",
      "updatedAt": "060030Z",
      "visibility_m": 10000,
      "taf_visibility_m": 10000,
      "worst_visibility_m": 10000,
      "ceiling_ft": null,
      "hazards": [],
      "severityScore": 0,
      "metarRaw": "METAR EPRA 060030Z VRB03KT CAVOK M05/M08 Q1012",
      "tafRaw": "TAF EPRA 052330Z 0600/0609 VRB03KT CAVOK \n  BECMG 0602/0605 34006KT BKN020 \n  PROB30 0604/0608 BKN012",
      "metarHtml": "METAR EPRA 060030Z VRB03KT <span class=\"hl-vis\">CAVOK</span> M05/M08 Q1012",
      "tafHtml": "TAF EPRA 052330Z 0600/0609 VRB03KT <span class=\"hl-vis\">CAVOK</span> \n  BECMG 0602/0605 34006KT BKN020 \n  PROB30 0604/0608 BKN012"
    },
    {
      "icao": "HEGN",
      "iata": "HRG",
      "name": "Hurghada International Airport",
      "updatedAt": "060000Z",
      "visibility_m": 10000,
      "taf_visibility_m": 10000,
      "worst_visibility_m": 10000,
      "ceiling_ft": null,
      "hazards": [],
      "severityScore": 0,
      "metarRaw": "METAR HEGN 060000Z 29007KT CAVOK 16/03 Q1018 NOSIG",
      "tafRaw": "TAF HEGN 052300Z 0600/0706 29011KT CAVOK",
      "metarHtml": "METAR HEGN 060000Z 29007KT <span class=\"hl-vis\">CAVOK</span> 16/03 Q1018 NOSIG",
      "tafHtml": "TAF HEGN 052300Z 0600/0706 29011KT <span class=\"hl-vis\">CAVOK</span>"
    },
    {
      "icao": "HEMA",
      "iata": "RMF",
      "name": "Marsa Alam International Airport",
      "updatedAt": "060000Z",
      "visibility_m": 10000,
      "taf_visibility_m": 4000,
      "worst_visibility_m": 4000,
      "ceiling_ft": null,
      "hazards": [],
      "severityScore": 0,
      "metarRaw": "METAR HEMA 060000Z 29009KT CAVOK 17/12 Q1017 NOSIG",
      "tafRaw": "TAF HEMA 052300Z 0600/0706 29011KT CAVOK \n  TEMPO 0609/0618 4000 SA NSC",
      "metarHtml": "METAR HEMA 060000Z 29009KT <span class=\"hl-vis\">CAVOK</span> 17/12 Q1017 NOSIG",
      "tafHtml": "TAF HEMA 052300Z 0600/0706 29011KT <span class=\"hl-vis\">CAVOK</span> \n  TEMPO 0609/0618 4000 SA NSC"
    },
    {
      "icao": "HESH",
      "iata": "SSH",
      "name": "Sharm El Sheikh International Airport",
      "updatedAt": "060000Z",
      "visibility_m": 10000,
      "taf_visibility_m": 10000,
      "worst_visibility_m": 10000,
      "ceiling_ft": null,
      "hazards": [],
      "severityScore": 0,
      "metarRaw": "METAR HESH 060000Z 33005KT CAVOK 19/12 Q1017 NOSIG",
      "tafRaw": "TAF HESH 052300Z 0600/0706 33010KT CAVOK",
      "metarHtml": "METAR HESH 060000Z 33005KT <span class=\"hl-vis\">CAVOK</span> 19/12 Q1017 NOSIG",
      "tafHtml": "TAF HESH 052300Z 0600/0706 33010KT <span class=\"hl-vis\">CAVOK</span>"
    },
    {
      "icao": "LCLK",
      "iata": "LCA",
      "name": "Larnaca International Airport",
      "updatedAt": "060030Z",
      "visibility_m": 10000,
      "taf_visibility_m": 10000,
      "worst_visibility_m": 10000,
      "ceiling_ft": null,
      "hazards": [],
      "severityScore": 0,
      "metarRaw": "METAR LCLK 060030Z 35009KT CAVOK 12/08 Q1021 NOSIG",
      "tafRaw": "TAF LCLK 052330Z 0600/0700 34008KT CAVOK \n  BECMG 0608/0610 05012KT \n  BECMG 0616/0618 34006KT",
      "metarHtml": "METAR LCLK 060030Z 35009KT <span class=\"hl-vis\">CAVOK</span> 12/08 Q1021 NOSIG",
      "tafHtml": "TAF LCLK 052330Z 0600/0700 34008KT <span class=\"hl-vis\">CAVOK</span> \n  BECMG 0608/0610 05012KT \n  BECMG 0616/0618 34006KT"
    },
    {
      "icao": "LCPH",
      "iata": "PFO",
      "name": "Paphos International Airport",
      "updatedAt": "060030Z",
      "visibility_m": 10000,
      "taf_visibility_m": 10000,
      "worst_visibility_m": 10000,
      "ceiling_ft": null,
      "hazards": [],
      "severityScore": 0,
      "metarRaw": "METAR LCPH 060030Z AUTO 02008KT 9999 NCD 10/04 Q1020 NOSIG",
      "tafRaw": "TAF LCPH 052330Z 0600/0700 08008KT 9999 FEW040 \n  BECMG 0608/0610 14012KT \n  BECMG 0616/0618 08008KT",
      "metarHtml": "METAR LCPH 060030Z AUTO 02008KT 9999 NCD 10/04 Q1020 NOSIG",
      "tafHtml": "TAF LCPH 052330Z 0600/0700 08008KT 9999 FEW040 \n  BECMG 0608/0610 14012KT \n  BECMG 0616/0618 08008KT"
    },
    {
      "icao": "LEBL",
      "iata": "BCN",
      "name": "Josep Tarradellas Barcelona-El Prat Airport",
      "updatedAt": "060030Z",
      "visibility_m": 10000,
      "taf_visibility_m": 10000,
      "worst_visibility_m": 10000,
      "ceiling_ft": null,
      "hazards": [],
      "severityScore": 0,
      "metarRaw": "METAR LEBL 060030Z 33016KT 9999 FEW030 03/M01 Q1009 NOSIG",
      "tafRaw": "TAF LEBL 052300Z 0600/0624 34012KT 9999 FEW030 TX11/0613Z TN01/0606Z \n  PROB40 \n  TEMPO 0600/0610 33016G30KT \n  TEMPO 0612/0616 VRB05KT",
      "metarHtml": "METAR LEBL 060030Z 33016KT 9999 FEW030 03/M01 Q1009 NOSIG",
      "tafHtml": "TAF LEBL 052300Z 0600/0624 34012KT 9999 FEW030 TX11/0613Z TN01/0606Z \n  PROB40 \n  TEMPO 0600/0610 33016G30KT \n  TEMPO 0612/0616 VRB05KT"
    },
    {
      "icao": "LEMD",
      "iata": "MAD",
      "name": "Adolfo Suárez Madrid–Barajas Airport",
      "updatedAt": "060030Z",
      "visibility_m": 10000,
      "taf_visibility_m": 10000,
      "worst_visibility_m": 10000,
      "ceiling_ft": null,
      "hazards": [],
      "severityScore": 0,
      "metarRaw": "METAR LEMD 060030Z VRB02KT CAVOK M01/M08 Q1012 NOSIG",
      "tafRaw": "TAF LEMD 052300Z 0600/0706 VRB05KT 9999 SCT025 TX06/0614Z TNM03/0607Z \n  BECMG 0606/0608 01012KT \n  TEMPO 0608/0617 01015G28KT \n  BECMG 0617/0619 VRB03KT",
      "metarHtml": "METAR LEMD 060030Z VRB02KT <span class=\"hl-vis\">CAVOK</span> M01/M08 Q1012 NOSIG",
      "tafHtml": "TAF LEMD 052300Z 0600/0706 VRB05KT 9999 SCT025 TX06/0614Z TNM03/0607Z \n  BECMG 0606/0608 01012KT \n  TEMPO 0608/0617 01015G28KT \n  BECMG 0617/0619 VRB03KT"
    },
    {
      "icao": "LEMG",
      "iata": "AGP",
      "name": "Málaga-Costa del Sol Airport",
      "updatedAt": "060030Z",
      "visibility_m": 10000,
      "taf_visibility_m": 10000,
      "worst_visibility_m": 10000,
      "ceiling_ft": null,
      "hazards": [],
      "severityScore": 0,
      "metarRaw": "METAR LEMG 060030Z 28017KT 9999 SCT060 10/06 Q1009 NOSIG",
      "tafRaw": "TAF LEMG 052300Z 0600/0624 28012KT 9999 FEW020 TX12/0614Z TN04/0606Z \n  TEMPO 0600/0617 30015G25KT",
      "metarHtml": "METAR LEMG 060030Z 28017KT 9999 SCT060 10/06 Q1009 NOSIG",
      "tafHtml": "TAF LEMG 052300Z 0600/0624 28012KT 9999 FEW020 TX12/0614Z TN04/0606Z \n  TEMPO 0600/0617 30015G25KT"
    },
    {
      "icao": "LEVC",
      "iata": "VLC",
      "name": "Valencia Airport",
      "updatedAt": "060030Z",
      "visibility_m": 10000,
      "taf_visibility_m": 10000,
      "worst_visibility_m": 10000,
      "ceiling_ft": 5500,
      "hazards": [],
      "severityScore": 0,
      "metarRaw": "METAR LEVC 060030Z 32007KT 9999 OVC055 05/00 Q1011 NOSIG",
      "tafRaw": "TAF LEVC 052300Z 0600/0624 30006KT 9999 BKN040 TX12/0614Z TN00/0606Z \n  TEMPO 0612/0616 35010KT",
      "metarHtml": "METAR LEVC 060030Z 32007KT 9999 OVC055 05/00 Q1011 NOSIG",
      "tafHtml": "TAF LEVC 052300Z 0600/0624 30006KT 9999 BKN040 TX12/0614Z TN00/0606Z \n  TEMPO 0612/0616 35010KT"
    },
    {
      "icao": "LEZG",
      "iata": "ZAZ",
      "name": "Zaragoza Airport",
      "updatedAt": "060030Z",
      "visibility_m": 10000,
      "taf_visibility_m": 10000,
      "worst_visibility_m": 10000,
      "ceiling_ft": null,
      "hazards": [],
      "severityScore": 0,
      "metarRaw": "METAR LEZG 060030Z 28009KT CAVOK 01/M04 Q1012 NOSIG",
      "tafRaw": "TAF LEZG 052300Z 0600/0624 31012KT 9999 FEW050 TX07/0615Z TN00/0606Z \n  BECMG 0607/0610 32020KT \n  TEMPO 0609/0620 32023G35KT \n  BECMG 0619/0621 30010KT",
      "metarHtml": "METAR LEZG 060030Z 28009KT <span class=\"hl-vis\">CAVOK</span> 01/M04 Q1012 NOSIG",
      "tafHtml": "TAF LEZG 052300Z 0600/0624 31012KT 9999 FEW050 TX07/0615Z TN00/0606Z \n  BECMG 0607/0610 32020KT \n  TEMPO 0609/0620 32023G35KT \n  BECMG 0619/0621 30010KT"
    },
    {
      "icao": "LEZL",
      "iata": "SVQ",
      "name": "Sevilla Airport",
      "updatedAt": "060030Z",
      "visibility_m": 10000,
      "taf_visibility_m": 10000,
      "worst_visibility_m": 10000,
      "ceiling_ft": null,
      "hazards": [],
      "severityScore": 0,
      "metarRaw": "METAR LEZL 060030Z 35007KT CAVOK 06/M00 Q1013 NOSIG",
      "tafRaw": "TAF LEZL 052000Z 0521/0621 30004KT CAVOK TX13/0615Z TN02/0607Z \n  BECMG 0611/0613 36010KT \n  BECMG 0616/0618 30004KT",
      "metarHtml": "METAR LEZL 060030Z 35007KT <span class=\"hl-vis\">CAVOK</span> 06/M00 Q1013 NOSIG",
      "tafHtml": "TAF LEZL 052000Z 0521/0621 30004KT <span class=\"hl-vis\">CAVOK</span> TX13/0615Z TN02/0607Z \n  BECMG 0611/0613 36010KT \n  BECMG 0616/0618 30004KT"
    },
    {
      "icao": "LFLS",
      "iata": "GNB",
      "name": "Grenoble Alpes Isère Airport",
      "updatedAt": "060030Z",
      "visibility_m": 10000,
      "taf_visibility_m": 10000,
      "worst_visibility_m": 10000,
      "ceiling_ft": null,
      "hazards": [],
      "severityScore": 0,
      "metarRaw": "METAR LFLS 060030Z AUTO VRB03KT CAVOK M07/M08 Q1013",
      "tafRaw": "TAF LFLS 051400Z 0515/0615 36008KT CAVOK \n  PROB30 \n  TEMPO 0600/0606 BKN006 \n  BECMG 0612/0614 BKN016",
      "metarHtml": "METAR LFLS 060030Z AUTO VRB03KT <span class=\"hl-vis\">CAVOK</span> M07/M08 Q1013",
      "tafHtml": "TAF LFLS 051400Z 0515/0615 36008KT <span class=\"hl-vis\">CAVOK</span> \n  PROB30 \n  TEMPO 0600/0606 BKN006 \n  BECMG 0612/0614 BKN016"
    },
    {
      "icao": "LGAV",
      "iata": "ATH",
      "name": "Athens Eleftherios Venizelos International Airport",
      "updatedAt": "060020Z",
      "visibility_m": 10000,
      "taf_visibility_m": 10000,
      "worst_visibility_m": 10000,
      "ceiling_ft": 2500,
      "hazards": [],
      "severityScore": 0,
      "metarRaw": "METAR LGAV 060020Z VRB01KT 9999 FEW018 BKN025 14/11 Q1016 NOSIG",
      "tafRaw": "TAF LGAV 052300Z 0600/0624 22010KT 9999 FEW018 BKN035 \n  BECMG 0603/0605 FEW018 SCT035 \n  TEMPO 0609/0615 20012G22KT",
      "metarHtml": "METAR LGAV 060020Z VRB01KT 9999 FEW018 BKN025 14/11 Q1016 NOSIG",
      "tafHtml": "TAF LGAV 052300Z 0600/0624 22010KT 9999 FEW018 BKN035 \n  BECMG 0603/0605 FEW018 SCT035 \n  TEMPO 0609/0615 20012G22KT"
    },
    {
      "icao": "LICA",
      "iata": "SUF",
      "name": "Lamezia Terme Sant'Eufemia International Airport",
      "updatedAt": "060020Z",
      "visibility_m": 10000,
      "taf_visibility_m": 10000,
      "worst_visibility_m": 10000,
      "ceiling_ft": null,
      "hazards": [],
      "severityScore": 0,
      "metarRaw": "METAR LICA 060020Z AUTO 08007KT 9999 NCD 10/10 Q1005",
      "tafRaw": "TAF LICA 052300Z 0600/0624 VRB05KT 9999 SCT050 \n  BECMG 0605/0607 07010KT \n  BECMG 0620/0622 27013KT",
      "metarHtml": "METAR LICA 060020Z AUTO 08007KT 9999 NCD 10/10 Q1005",
      "tafHtml": "TAF LICA 052300Z 0600/0624 VRB05KT 9999 SCT050 \n  BECMG 0605/0607 07010KT \n  BECMG 0620/0622 27013KT"
    },
    {
      "icao": "LICC",
      "iata": "CTA",
      "name": "Catania-Fontanarossa Airport",
      "updatedAt": "060020Z",
      "visibility_m": 10000,
      "taf_visibility_m": 10000,
      "worst_visibility_m": 10000,
      "ceiling_ft": null,
      "hazards": [],
      "severityScore": 0,
      "metarRaw": "METAR LICC 060020Z 25005KT CAVOK 10/07 Q1006",
      "tafRaw": "TAF LICC 052300Z 0600/0624 26013KT 9999 FEW030",
      "metarHtml": "METAR LICC 060020Z 25005KT <span class=\"hl-vis\">CAVOK</span> 10/07 Q1006",
      "tafHtml": "TAF LICC 052300Z 0600/0624 26013KT 9999 FEW030"
    },
    {
      "icao": "LICJ",
      "iata": "PMO",
      "name": "Falcone–Borsellino Airport",
      "updatedAt": "060020Z",
      "visibility_m": 10000,
      "taf_visibility_m": 10000,
      "worst_visibility_m": 10000,
      "ceiling_ft": null,
      "hazards": [],
      "severityScore": 0,
      "metarRaw": "METAR LICJ 060020Z 23009KT CAVOK 16/09 Q1003",
      "tafRaw": "TAF LICJ 052300Z 0600/0624 21016KT 9999 FEW030 \n  TEMPO 0609/0615 21020G30KT",
      "metarHtml": "METAR LICJ 060020Z 23009KT <span class=\"hl-vis\">CAVOK</span> 16/09 Q1003",
      "tafHtml": "TAF LICJ 052300Z 0600/0624 21016KT 9999 FEW030 \n  TEMPO 0609/0615 21020G30KT"
    },
    {
      "icao": "LIMC",
      "iata": "MXP",
      "name": "Milan Malpensa International Airport",
      "updatedAt": "060020Z",
      "visibility_m": 10000,
      "taf_visibility_m": 10000,
      "worst_visibility_m": 10000,
      "ceiling_ft": null,
      "hazards": [],
      "severityScore": 0,
      "metarRaw": "METAR LIMC 060020Z 01002KT CAVOK M06/M07 Q1008 NOSIG",
      "tafRaw": "TAF LIMC 052300Z 0600/0706 VRB03KT CAVOK",
      "metarHtml": "METAR LIMC 060020Z 01002KT <span class=\"hl-vis\">CAVOK</span> M06/M07 Q1008 NOSIG",
      "tafHtml": "TAF LIMC 052300Z 0600/0706 VRB03KT <span class=\"hl-vis\">CAVOK</span>"
    },
    {
      "icao": "LIME",
      "iata": "BGY",
      "name": "Milan Bergamo Airport / Antonio Locatelli Air Base",
      "updatedAt": "060020Z",
      "visibility_m": 10000,
      "taf_visibility_m": 10000,
      "worst_visibility_m": 10000,
      "ceiling_ft": null,
      "hazards": [],
      "severityScore": 0,
      "metarRaw": "METAR LIME 060020Z 01004KT CAVOK M02/M05 Q1008 NOSIG",
      "tafRaw": "TAF LIME 052300Z 0600/0624 VRB03KT CAVOK",
      "metarHtml": "METAR LIME 060020Z 01004KT <span class=\"hl-vis\">CAVOK</span> M02/M05 Q1008 NOSIG",
      "tafHtml": "TAF LIME 052300Z 0600/0624 VRB03KT <span class=\"hl-vis\">CAVOK</span>"
    },
    {
      "icao": "LIMF",
      "iata": "TRN",
      "name": "Turin Airport",
      "updatedAt": "060020Z",
      "visibility_m": 10000,
      "taf_visibility_m": 10000,
      "worst_visibility_m": 10000,
      "ceiling_ft": null,
      "hazards": [],
      "severityScore": 0,
      "metarRaw": "METAR LIMF 060020Z 31004KT CAVOK M03/M10 Q1008",
      "tafRaw": "TAF LIMF 052300Z 0600/0624 VRB03KT CAVOK",
      "metarHtml": "METAR LIMF 060020Z 31004KT <span class=\"hl-vis\">CAVOK</span> M03/M10 Q1008",
      "tafHtml": "TAF LIMF 052300Z 0600/0624 VRB03KT <span class=\"hl-vis\">CAVOK</span>"
    },
    {
      "icao": "LIMJ",
      "iata": "GOA",
      "name": "Genoa Cristoforo Colombo Airport",
      "updatedAt": "060020Z",
      "visibility_m": 10000,
      "taf_visibility_m": 10000,
      "worst_visibility_m": 10000,
      "ceiling_ft": null,
      "hazards": [],
      "severityScore": 0,
      "metarRaw": "METAR LIMJ 060020Z 04019KT CAVOK 04/M05 Q1006",
      "tafRaw": "TAF LIMJ 052300Z 0600/0624 03017KT CAVOK \n  TEMPO 0606/0612 03018G28KT",
      "metarHtml": "METAR LIMJ 060020Z 04019KT <span class=\"hl-vis\">CAVOK</span> 04/M05 Q1006",
      "tafHtml": "TAF LIMJ 052300Z 0600/0624 03017KT <span class=\"hl-vis\">CAVOK</span> \n  TEMPO 0606/0612 03018G28KT"
    },
    {
      "icao": "LIPH",
      "iata": "TSF",
      "name": "Treviso Antonio Canova Airport",
      "updatedAt": "060020Z",
      "visibility_m": 10000,
      "taf_visibility_m": 10000,
      "worst_visibility_m": 10000,
      "ceiling_ft": null,
      "hazards": [],
      "severityScore": 0,
      "metarRaw": "METAR LIPH 060020Z AUTO 35003KT 9999 FEW230/// 01/M04 Q1008",
      "tafRaw": "TAF LIPH 052300Z 0600/0624 03006KT 9999 SCT070",
      "metarHtml": "METAR LIPH 060020Z AUTO 35003KT 9999 FEW230/// 01/M04 Q1008",
      "tafHtml": "TAF LIPH 052300Z 0600/0624 03006KT 9999 SCT070"
    },
    {
      "icao": "LIPQ",
      "iata": "TRS",
      "name": "Trieste–Friuli Venezia Giulia Airport",
      "updatedAt": "060020Z",
      "visibility_m": 10000,
      "taf_visibility_m": 3000,
      "worst_visibility_m": 3000,
      "ceiling_ft": null,
      "hazards": [],
      "severityScore": 0,
      "metarRaw": "METAR LIPQ 060020Z AUTO VRB02KT 9999 BKN051/// OVC076/// 04/M04 Q1008",
      "tafRaw": "TAF LIPQ 052300Z 0600/0624 08008KT 9999 BKN030 \n  TEMPO 0610/0616 3000 -RASN BKN010",
      "metarHtml": "METAR LIPQ 060020Z AUTO VRB02KT 9999 BKN051/// OVC076/// 04/M04 Q1008",
      "tafHtml": "TAF LIPQ 052300Z 0600/0624 08008KT 9999 BKN030 \n  TEMPO 0610/0616 3000 -RASN BKN010"
    },
    {
      "icao": "LIPX",
      "iata": "VRN",
      "name": "Verona Villafranca Valerio Catullo Airport",
      "updatedAt": "060020Z",
      "visibility_m": 10000,
      "taf_visibility_m": 10000,
      "worst_visibility_m": 10000,
      "ceiling_ft": null,
      "hazards": [],
      "severityScore": 0,
      "metarRaw": "METAR LIPX 060020Z 34004KT CAVOK M01/M09 Q1009",
      "tafRaw": "TAF LIPX 052300Z 0600/0624 VRB04KT CAVOK",
      "metarHtml": "METAR LIPX 060020Z 34004KT <span class=\"hl-vis\">CAVOK</span> M01/M09 Q1009",
      "tafHtml": "TAF LIPX 052300Z 0600/0624 VRB04KT <span class=\"hl-vis\">CAVOK</span>"
    },
    {
      "icao": "LIPZ",
      "iata": "VCE",
      "name": "Venice Marco Polo Airport",
      "updatedAt": "060020Z",
      "visibility_m": 8000,
      "taf_visibility_m": 10000,
      "worst_visibility_m": 8000,
      "ceiling_ft": null,
      "hazards": [],
      "severityScore": 0,
      "metarRaw": "METAR LIPZ 060020Z 36006KT 8000 NSC 01/M04 Q1008 NOSIG",
      "tafRaw": "TAF LIPZ 052300Z 0600/0706 02008KT 9999 SCT070 \n  BECMG 0609/0611 08014KT \n  BECMG 0615/0617 34006KT",
      "metarHtml": "METAR LIPZ 060020Z 36006KT 8000 NSC 01/M04 Q1008 NOSIG",
      "tafHtml": "TAF LIPZ 052300Z 0600/0706 02008KT 9999 SCT070 \n  BECMG 0609/0611 08014KT \n  BECMG 0615/0617 34006KT"
    },
    {
      "icao": "LKMT",
      "iata": "OSR",
      "name": "Ostrava Leos Janáček Airport",
      "updatedAt": "060030Z",
      "visibility_m": 10000,
      "taf_visibility_m": 10000,
      "worst_visibility_m": 10000,
      "ceiling_ft": null,
      "hazards": [],
      "severityScore": 0,
      "metarRaw": "METAR LKMT 060030Z 27002KT CAVOK M04/M06 Q1012 NOSIG",
      "tafRaw": "TAF LKMT 052300Z 0600/0624 VRB02KT CAVOK \n  TEMPO 0604/0610 9999 BKN018 \n  BECMG 0612/0614 02005KT",
      "metarHtml": "METAR LKMT 060030Z 27002KT <span class=\"hl-vis\">CAVOK</span> M04/M06 Q1012 NOSIG",
      "tafHtml": "TAF LKMT 052300Z 0600/0624 VRB02KT <span class=\"hl-vis\">CAVOK</span> \n  TEMPO 0604/0610 9999 BKN018 \n  BECMG 0612/0614 02005KT"
    },
    {
      "icao": "LMML",
      "iata": "MLA",
      "name": "Malta International Airport",
      "updatedAt": "060045Z",
      "visibility_m": 8000,
      "taf_visibility_m": 5000,
      "worst_visibility_m": 5000,
      "ceiling_ft": null,
      "hazards": [],
      "severityScore": 0,
      "metarRaw": "METAR LMML 060045Z 20007KT 8000 NSC 16/15 Q1006 NOSIG",
      "tafRaw": "TAF LMML 052300Z 0600/0624 20014KT 8000 FEW013 \n  PROB40 \n  TEMPO 0600/0618 5000 DU \n  BECMG 0611/0614 26015KT \n  BECMG 0618/0621 VRB05KT \n  PROB40 \n  TEMPO 0618/0624 BKN013",
      "metarHtml": "METAR LMML 060045Z 20007KT 8000 NSC 16/15 Q1006 NOSIG",
      "tafHtml": "TAF LMML 052300Z 0600/0624 20014KT 8000 FEW013 \n  PROB40 \n  TEMPO 0600/0618 5000 DU \n  BECMG 0611/0614 26015KT \n  BECMG 0618/0621 VRB05KT \n  PROB40 \n  TEMPO 0618/0624 BKN013"
    },
    {
      "icao": "LPFR",
      "iata": "FAO",
      "name": "Faro Airport",
      "updatedAt": "060030Z",
      "visibility_m": 10000,
      "taf_visibility_m": 10000,
      "worst_visibility_m": 10000,
      "ceiling_ft": null,
      "hazards": [],
      "severityScore": 0,
      "metarRaw": "METAR LPFR 060030Z 32012KT CAVOK 08/M03 Q1016",
      "tafRaw": "TAF LPFR 052300Z 0600/0624 36008KT CAVOK \n  BECMG 0610/0612 34013KT \n  BECMG 0618/0620 34008KT",
      "metarHtml": "METAR LPFR 060030Z 32012KT <span class=\"hl-vis\">CAVOK</span> 08/M03 Q1016",
      "tafHtml": "TAF LPFR 052300Z 0600/0624 36008KT <span class=\"hl-vis\">CAVOK</span> \n  BECMG 0610/0612 34013KT \n  BECMG 0618/0620 34008KT"
    },
    {
      "icao": "OEJN",
      "iata": "JED",
      "name": "King Abdulaziz International Airport",
      "updatedAt": "060000Z",
      "visibility_m": 10000,
      "taf_visibility_m": 6000,
      "worst_visibility_m": 6000,
      "ceiling_ft": null,
      "hazards": [],
      "severityScore": 0,
      "metarRaw": "METAR OEJN 060000Z 00000KT CAVOK 25/16 Q1015 NOSIG",
      "tafRaw": "TAF OEJN 052300Z 0600/0706 04005KT 6000 FEW030 \n  BECMG 0610/0611 27008KT 7000 NSC \n  BECMG 0616/0618 01005KT",
      "metarHtml": "METAR OEJN 060000Z 00000KT <span class=\"hl-vis\">CAVOK</span> 25/16 Q1015 NOSIG",
      "tafHtml": "TAF OEJN 052300Z 0600/0706 04005KT 6000 FEW030 \n  BECMG 0610/0611 27008KT 7000 NSC \n  BECMG 0616/0618 01005KT"
    },
    {
      "icao": "OEMA",
      "iata": "MED",
      "name": "Prince Mohammad Bin Abdulaziz Airport",
      "updatedAt": "060000Z",
      "visibility_m": 4000,
      "taf_visibility_m": 3000,
      "worst_visibility_m": 3000,
      "ceiling_ft": null,
      "hazards": [],
      "severityScore": 0,
      "metarRaw": "METAR OEMA 060000Z 05009KT 4000 DU NSC 19/M01 Q1021 NOSIG",
      "tafRaw": "TAF OEMA 052300Z 0600/0706 09010KT 7000 NSC \n  TEMPO 0600/0612 3000 BLDU",
      "metarHtml": "METAR OEMA 060000Z 05009KT 4000 DU NSC 19/M01 Q1021 NOSIG",
      "tafHtml": "TAF OEMA 052300Z 0600/0706 09010KT 7000 NSC \n  TEMPO 0600/0612 3000 BLDU"
    },
    {
      "icao": "OJAI",
      "iata": "AMM",
      "name": "Queen Alia International Airport",
      "updatedAt": "060000Z",
      "visibility_m": 5000,
      "taf_visibility_m": 4000,
      "worst_visibility_m": 4000,
      "ceiling_ft": null,
      "hazards": [],
      "severityScore": 0,
      "metarRaw": "METAR OJAI 060000Z 05004KT 5000 HZ NSC 06/01 Q1023 NOSIG",
      "tafRaw": "TAF OJAI 052250Z 0600/0706 VRB02KT 5000 HZ NSC \n  PROB30 0602/0605 4000 \n  BECMG 0605/0607 12012KT \n  PROB30 0612/0616 4000 DU",
      "metarHtml": "METAR OJAI 060000Z 05004KT 5000 HZ NSC 06/01 Q1023 NOSIG",
      "tafHtml": "TAF OJAI 052250Z 0600/0706 VRB02KT 5000 HZ NSC \n  PROB30 0602/0605 4000 \n  BECMG 0605/0607 12012KT \n  PROB30 0612/0616 4000 DU"
    },
    {
      "icao": "OMAA",
      "iata": "AUH",
      "name": "Zayed International Airport",
      "updatedAt": "060000Z",
      "visibility_m": 10000,
      "taf_visibility_m": 4000,
      "worst_visibility_m": 4000,
      "ceiling_ft": null,
      "hazards": [],
      "severityScore": 0,
      "metarRaw": "METAR OMAA 060000Z 01002KT CAVOK 20/12 Q1019 NOSIG",
      "tafRaw": "TAF OMAA 052300Z 0600/0706 05005KT 8000 FEW025 \n  BECMG 0608/0610 33012KT \n  BECMG 0617/0619 VRB02KT \n  PROB30 0700/0705 4000 HZ",
      "metarHtml": "METAR OMAA 060000Z 01002KT <span class=\"hl-vis\">CAVOK</span> 20/12 Q1019 NOSIG",
      "tafHtml": "TAF OMAA 052300Z 0600/0706 05005KT 8000 FEW025 \n  BECMG 0608/0610 33012KT \n  BECMG 0617/0619 VRB02KT \n  PROB30 0700/0705 4000 HZ"
    },
    {
      "icao": "OMDB",
      "iata": "DXB",
      "name": "Dubai International Airport",
      "updatedAt": "060030Z",
      "visibility_m": 10000,
      "taf_visibility_m": 8000,
      "worst_visibility_m": 8000,
      "ceiling_ft": null,
      "hazards": [],
      "severityScore": 0,
      "metarRaw": "METAR OMDB 060030Z 09004KT 040V140 CAVOK 19/10 Q1019 NOSIG",
      "tafRaw": "TAF OMDB 052300Z 0600/0706 08007KT 8000 NSC \n  BECMG 0609/0611 35010KT \n  BECMG 0615/0617 06005KT",
      "metarHtml": "METAR OMDB 060030Z 09004KT 040V140 <span class=\"hl-vis\">CAVOK</span> 19/10 Q1019 NOSIG",
      "tafHtml": "TAF OMDB 052300Z 0600/0706 08007KT 8000 NSC \n  BECMG 0609/0611 35010KT \n  BECMG 0615/0617 06005KT"
    },
    {
      "icao": "UGKO",
      "iata": "KUT",
      "name": "David the Builder Kutaisi International Airport",
      "updatedAt": "060030Z",
      "visibility_m": 10000,
      "taf_visibility_m": 10000,
      "worst_visibility_m": 10000,
      "ceiling_ft": null,
      "hazards": [],
      "severityScore": 0,
      "metarRaw": "METAR UGKO 060030Z AUTO 11008KT 360V120 CAVOK 05/M01 Q1020 NOSIG",
      "tafRaw": "TAF UGKO 052300Z 0600/0624 08007KT CAVOK TX16/0611Z TN03/0600Z \n  TEMPO 0602/0612 08017KT \n  TEMPO 0609/0616 BKN080",
      "metarHtml": "METAR UGKO 060030Z AUTO 11008KT 360V120 <span class=\"hl-vis\">CAVOK</span> 05/M01 Q1020 NOSIG",
      "tafHtml": "TAF UGKO 052300Z 0600/0624 08007KT <span class=\"hl-vis\">CAVOK</span> TX16/0611Z TN03/0600Z \n  TEMPO 0602/0612 08017KT \n  TEMPO 0609/0616 BKN080"
    }
  ],
  "stats": {
    "icaoCount": 159,
    "metarReturned": 156,
    "tafReturned": 148,
    "stationsWritten": 159,
    "missingMetar": 3,
    "missingTaf": 11
  },
  "errors": []
}